
13-10-09 METAR LIMC 090020Z 00000KT 5000 R17L/0500V1500D R35R/0600V1500D BCFG SCT080 10/09 Q1022 NOSIG
13-10-09 METAR LIMC 090050Z 00000KT 5000 R17L///// R35R/0600V1500N BCFG SCT080 08/08
13-10-09 METAR LIMC 090120Z 35003KT 5000 R17L/1400V1500N R35R/0250V1500D BCFG SCT080 08/08 Q1022 NOSIG
13-10-09 METAR LIMC 090150Z 01002KT 4000 R17L///// R35R/0650V1500U BCFG SCT080 09/08 Q1021 NOSIG
13-10-09 METAR LIMC 090220Z 00000KT 5000 BR SCT080 08/08 Q1021 NOSIG
13-10-09 METAR LIMC 090250Z 35002KT 5000 BR SCT080 10/09 Q1021 NOSIG
13-10-09 METAR LIMC 090320Z VRB02KT 5000 BR FEW080 10/09 Q1021 NOSIG
13-10-09 METAR LIMC 090350Z VRB02KT 7000 FEW080 12/11 Q1021 NOSIG
13-10-09 METAR LIMC 090420Z 16001KT 7000 FEW080 11/11 Q1021 NOSIG
13-10-09 METAR LIMC 090450Z VRB01KT 7000 FEW080 12/11 Q1021 NOSIG
13-10-09 METAR LIMC 090520Z 05003KT 320V110 5000 BR BKN040 12/12 Q1021 NOSIG
13-10-09 METAR LIMC 090550Z VRB01KT 4000 BR BKN040 12/11 Q1020 NOSIG
13-10-09 METAR LIMC 090620Z 02003KT 330V090 3500 BR BKN040 13/12 Q1021 NOSIG
13-10-09 METAR LIMC 090650Z VRB03KT 3500 BR BKN040 13/12 Q1021 NOSIG
13-10-09 METAR LIMC 090720Z VRB02KT 3500 BR SCT040 BKN060 13/12 Q1021 NOSIG
13-10-09 METAR LIMC 090750Z VRB03KT 3500 BR FEW040 BKN060 14/13 Q1021 NOSIG
13-10-09 METAR LIMC 090820Z VRB01KT 3500 BR BKN010 BKN060 15/13 Q1021 NOSIG
13-10-09 METAR LIMC 090850Z VRB01KT 4500 BR FEW010 SCT020 BKN060 16/13 Q1021 NOSIG
13-10-09 METAR LIMC 090920Z 19003KT 160V230 6000 SCT013 BKN060 16/13 Q1021 NOSIG
13-10-09 METAR LIMC 091020Z 23003KT 170V280 9999 SCT015 17/12 Q1020 NOSIG
13-10-09 METAR LIMC 091050Z 22005KT 9999 BKN015 17/12 Q1020 NOSIG
13-10-09 METAR LIMC 091120Z 18004KT 140V240 9999 BKN020 18/12 Q1019 NOSIG
13-10-09 METAR LIMC 091150Z 20007KT 170V230 9999 BKN020 19/13 Q1019 NOSIG
13-10-09 METAR LIMC 091220Z 20005KT 130V260 9999 BKN020 18/13 Q1019 NOSIG
13-10-09 METAR LIMC 091250Z 18005KT 150V220 9999 BKN030 19/13 Q1018 NOSIG
13-10-09 METAR LIMC 091320Z 17004KT 120V220 9999 SCT030 19/13 Q1018 NOSIG
13-10-09 METAR LIMC 091350Z VRB02KT 9999 SCT030 19/12 Q1018 NOSIG
13-10-09 METAR LIMC 091420Z 19005KT 140V220 9999 SCT030 19/13 Q1017 NOSIG
13-10-09 METAR LIMC 091450Z 19006KT 9999 SCT030 18/12 Q1017 NOSIG
13-10-09 METAR LIMC 091520Z 20006KT 9999 SCT030 18/12 Q1017 NOSIG
13-10-09 METAR LIMC 091550Z 19005KT 9999 SCT060 17/13 Q1017 NOSIG
13-10-09 METAR LIMC 091620Z 17003KT 9999 SCT070 16/13 Q1017 NOSIG
13-10-09 METAR LIMC 091650Z 15002KT 8000 SCT080 15/13 Q1016 NOSIG
13-10-09 METAR LIMC 091720Z 14002KT 8000 SCT080 16/13 Q1017 NOSIG
13-10-09 METAR LIMC 091750Z VRB02KT 8000 SCT080 14/13 Q1017 NOSIG
13-10-09 METAR LIMC 091820Z 15002KT 9999 SCT080 14/13 Q1017 NOSIG
13-10-09 METAR LIMC 091850Z 16002KT 9999 SCT080 15/13 Q1016 NOSIG
13-10-09 METAR LIMC 091920Z 00000KT 7000 BKN045 15/13 Q1016 NOSIG
13-10-09 METAR LIMC 091950Z VRB01KT 8000 BKN040 14/13 Q1016 NOSIG
13-10-09 METAR LIMC 092020Z VRB02KT 8000 SCT040 SCT060 13/12 Q1016 NOSIG
13-10-09 METAR LIMC 092050Z VRB02KT 8000 FEW040 SCT060 14/12 Q1016 NOSIG
13-10-09 METAR LIMC 092120Z 15001KT 8000 FEW040 SCT060 14/12 Q1016 NOSIG
13-10-09 METAR LIMC 092150Z 00000KT 5000 BR BKN060 14/12 Q1016 NOSIG
13-10-09 METAR LIMC 092220Z VRB01KT 5000 BR BKN060 13/12 Q1016 NOSIG
13-10-09 METAR LIMC 092250Z 14003KT 5000 BR BKN060 13/12 Q1015 NOSIG
13-10-09 METAR LIMC 092320Z 00000KT 5000 BR BKN060 13/12 Q1015 NOSIG
13-10-09 METAR LIMC 092350Z VRB01KT 5000 BR BKN060 13/12 Q1015 NOSIG
13-10-10 METAR LIMC 100020Z 00000KT 4500 BR BKN050 12/12 Q1015 NOSIG
13-10-10 METAR LIMC 100050Z VRB01KT 4500 BR BKN050 13/12 Q1014 NOSIG
13-10-10 METAR LIMC 100120Z VRB02KT 4500 BR BKN050 14/13 Q1014 NOSIG
13-10-10 METAR LIMC 100150Z VRB02KT 4500 BR SCT020 BKN050 13/13 Q1013 NOSIG
13-10-10 METAR LIMC 100220Z VRB02KT 4500 BR BKN020 OVC050 14/13 Q1013 NOSIG
13-10-10 METAR LIMC 100320Z 11004KT 4000 BR BKN020 OVC050 14/13 Q1012 NOSIG
13-10-10 METAR LIMC 100350Z 10002KT 4000 BR BKN020 OVC050 14/13 Q1012 NOSIG
13-10-10 METAR LIMC 100420Z 14004KT 1500 BR BKN012 OVC050 14/13 Q1012 NOSIG
13-10-10 METAR LIMC 100450Z NIL
13-10-10 METAR LIMC 100450Z VRB01KT 1500 BR BKN004 OVC040 14/13 Q1011 NOSIG
13-10-10 METAR LIMC 100520Z VRB01KT 1500 BR BKN004 OVC040 14/13 Q1011 NOSIG
13-10-10 METAR LIMC 100550Z 00000KT 1200 R35L///// R35R/1500N BR BKN004 OVC040 14/13 Q1011 NOSIG
13-10-10 METAR LIMC 100620Z 19003KT 0800 R35L///// R35R/1500N FG BKN004 OVC040 14/13 Q1011 BECMG 1500
13-10-10 METAR LIMC 100650Z VRB02KT 1200 R35L/1500N R35R/1400V1500N BR -RA BKN004 OVC040 14/13 Q1010 NOSIG
13-10-10 METAR LIMC 100820Z VRB02KT 1500 BR BKN004 OVC040 14/14 Q1009 NOSIG
13-10-10 METAR LIMC 100850Z 14004KT 110V170 1500 BR BKN004 OVC040 14/14 Q1009 NOSIG
13-10-10 METAR LIMC 100920Z 14005KT 2000 BR BKN008 OVC040 15/14 Q1009 NOSIG
13-10-10 METAR LIMC 100950Z 13005KT 2500 BR BKN008 OVC040 15/14 Q1008 NOSIG
13-10-10 METAR LIMC 101020Z 13006KT 2500 BR BKN008 OVC040 15/14 Q1008 NOSIG
13-10-10 METAR LIMC 101050Z 12006KT 090V150 2500 BR BKN008 OVC040 15/14 Q1008 NOSIG
13-10-10 METAR LIMC 101120Z 13006KT 2500 R35L/1500N R35R/1300V1500D BR BKN008 OVC040 15/14 Q1007 NOSIG
13-10-10 METAR LIMC 101150Z 12006KT 080V140 2000 -RA BR BKN008 OVC040 15/14 Q1006
13-10-10 METAR LIMC 101220Z 12007KT 2000 -RA BR BKN008 OVC040 15/14 Q1006 NOSIG
13-10-10 METAR LIMC 101250Z 13006KT 1600 -RA BR BKN008 OVC040 15/14 Q1005 NOSIG
13-10-10 METAR LIMC 101320Z 13005KT 090V150 1600 -RA BR BKN008 OVC040 15/14 Q1005
13-10-10 METAR LIMC 101350Z 12006G16KT 080V170 1600 R35L/1500N R35R/1400V1500N -DZ BR BKN008 OVC040 15/14 Q1004 NOSIG BKN008 OVC040 15/14 Q1004 NOSIG
13-10-10 METAR LIMC 101420Z 12009KT 2000 BR SCT008 BKN030 16/14 Q1003 NOSIG
13-10-10 METAR LIMC 101450Z 11009KT 080V160 2500 BR SCT008 BKN030 16/14 Q1002 NOSIG
13-10-10 METAR LIMC 101520Z 12009KT 080V150 2500 BR SCT008 BKN030 16/14 Q1001 NOSIG
13-10-10 METAR LIMC 101550Z 12009KT 090V190 2500 BR SCT008 BKN030 16/14 Q1001 NOSIG
13-10-10 METAR LIMC 101620Z 10005KT 070V150 2500 BR SCT008 BKN030 16/14 Q1001 NOSIG
13-10-10 METAR LIMC 101650Z 34013G25KT 5000 -RA BR SCT015CB BKN020 13/09 Q1001 BECMG TS
13-10-10 METAR LIMC 101720Z 34024KT 2500 R35L/1200V1500D R35R/0600V0800D +TSRA BKN008CB BKN015 10/09 Q1002 WS RWY 35L NOSIG
13-10-10 METAR LIMC 101750Z 36020KT 4000 +TSRA BKN008CB BKN015 09/08 Q1003 WS RWY 35L NOSIG
13-10-10 METAR LIMC 101820Z 01020KT 4000 +TSRA BKN008CB BKN015 08/07 Q1004 WS RWY
13-10-10 METAR LIMC 101850Z 01024G38KT 4000 RA BKN008 BKN015 08/05 Q1003 RETS WS RWY
13-10-10 METAR LIMC 101920Z 01026G36KT 9999 RA SCT020 BKN050 07/05 Q1003 WS RWY 35R
13-10-10 METAR LIMC 101950Z 02021G35KT 9999 BKN060 07/04 Q1003 RERA WS RWY 35R
13-10-10 METAR LIMC 102020Z 01020G30KT 9999 BKN060 07/03 Q1005 WS RWY 35R NOSIG
13-10-10 METAR LIMC 102050Z 01021G33KT 9999 BKN060 07/02 Q1004 WS RWY 35R NOSIG
13-10-10 METAR LIMC 102120Z 02016G27KT 350V050 9999 BKN070 08/02 Q1003 NOSIG
13-10-10 METAR LIMC 102150Z 02016KT 9999 BKN070 09/01 Q1004 NOSIG
13-10-10 METAR LIMC 102220Z 02013KT 350V050 9999 BKN070 09/01 Q1005 NOSIG
13-10-10 METAR LIMC 102250Z 01010G21KT 310V050 9999 BKN070 10/00 Q1005 NOSIG
13-10-10 METAR LIMC 102320Z 02016KT 9999 BKN070 09/01 Q1005 NOSIG
13-10-10 METAR LIMC 102350Z 02018KT 9999 BKN070 09/01 Q1005 NOSIG
13-10-11 METAR LIMC 110020Z 30010KT 270V350 9999 BKN080 08/01 Q1006 NOSIG
13-10-11 METAR LIMC 110050Z NIL
13-10-11 METAR LIMC 110050Z 25011KT 9999 BKN080 07/03 Q1006 NOSIG
13-10-11 METAR LIMC 110120Z 26013KT 9999 BKN080 07/04 Q1006 NOSIG
13-10-11 METAR LIMC 110150Z 26011KT 9999 BKN080 07/03 Q1006 NOSIG
13-10-11 METAR LIMC 110220Z 28004KT 250V330 9999 BKN080 07/03 Q1006 NOSIG
13-10-11 METAR LIMC 110250Z 28005KT 250V310 9999 BKN080 07/04 Q1006 NOSIG
13-10-11 METAR LIMC 110320Z 25004KT 9999 BKN080 07/04 Q1006 NOSIG
13-10-11 METAR LIMC 110350Z 04003KT 9999 BKN080 06/04 Q1007 NOSIG
13-10-11 METAR LIMC 110420Z VRB02KT 9999 BKN080 06/04 Q1007 NOSIG
13-10-11 METAR LIMC 110450Z VRB02KT 9999 BKN080 05/04 Q1007 NOSIG
13-10-11 METAR LIMC 110520Z VRB01KT 9999 SCT080 05/04 Q1008 NOSIG
13-10-11 METAR LIMC 110550Z VRB03KT 9999 SCT080 06/04 Q1008 NOSIG
13-10-11 METAR LIMC 110620Z 36004KT 300V060 9999 SCT080 07/05 Q1009 NOSIG
13-10-11 METAR LIMC 110650Z VRB02KT 9999 SCT080 08/05 Q1009 NOSIG
13-10-11 METAR LIMC 110720Z 35003KT 310V040 9999 SCT080 10/06 Q1010 NOSIG
13-10-11 METAR LIMC 110750Z 27003KT 230V330 CAVOK 11/04 Q1010 NOSIG
13-10-11 METAR LIMC 110820Z 25005KT 230V310 CAVOK 12/05 Q1011 NOSIG
13-10-11 METAR LIMC 110850Z 25006KT 210V300 CAVOK 12/04 Q1011 NOSIG
13-10-11 METAR LIMC 110920Z 26004KT 200V340 CAVOK 12/04 Q1011 NOSIG
13-10-11 METAR LIMC 110950Z VRB02KT CAVOK 13/04 Q1011 NOSIG
13-10-11 METAR LIMC 111020Z VRB03KT CAVOK 14/04 Q1012 NOSIG
13-10-11 METAR LIMC 111050Z VRB02KT CAVOK 15/03 Q1012 NOSIG
13-10-11 METAR LIMC 111120Z 06004KT 010V180 CAVOK 15/03 Q1012 NOSIG
13-10-11 METAR LIMC 111150Z NIL
13-10-11 METAR LIMC 111150Z VRB04KT CAVOK 15/00 Q1012 NOSIG
13-10-11 METAR LIMC 111220Z VRB05KT CAVOK 16/M01 Q1012 NOSIG
13-10-11 METAR LIMC 111250Z 08004KT 020V160 CAVOK 16/01 Q1012 NOSIG
13-10-11 METAR LIMC 111320Z 11006KT 070V140 CAVOK 16/M01 Q1012 NOSIG
13-10-11 METAR LIMC 111350Z 09006KT 050V150 CAVOK 16/00 Q1012 NOSIG
13-10-11 METAR LIMC 111420Z 12006KT 070V150 CAVOK 16/00 Q1012 NOSIG
13-10-11 METAR LIMC 111450Z VRB06KT CAVOK 16/M00 Q1013 NOSIG
13-10-11 METAR LIMC 111520Z 11005KT 070V150 9999 SCT050 16/M00 Q1013 NOSIG
13-10-11 METAR LIMC 111550Z 10007KT 060V140 9999 SCT050 15/00 Q1013 NOSIG
13-10-11 METAR LIMC 111620Z 09005KT 050V130 9999 SCT050 15/00 Q1013 NOSIG
13-10-11 METAR LIMC 111650Z 07004KT 9999 SCT050 12/03 Q1013 NOSIG
13-10-11 METAR LIMC 111720Z VRB02KT 9999 BKN050 13/05 Q1013 NOSIG
13-10-11 METAR LIMC 111750Z 10011G21KT 050V140 9999 -RA BKN050 13/01 Q1013 NOSIG
13-10-11 METAR LIMC 111820Z 09011KT 070V130 9999 SCT070 12/03 Q1014 NOSIG
13-10-11 METAR LIMC 111850Z 06010KT 030V090 9999 SCT030CB SCT050 BKN070 11/04 Q1014 NOSIG
13-10-11 METAR LIMC 111920Z 03007KT 9999 -TSRA SCT030CB SCT050 BKN070 09/06 Q1014 RERA NOSIG
13-10-11 METAR LIMC 111950Z 05010KT 020V090 9999 SCT030CB SCT050 BKN070 10/05 Q1014 RETS NOSIG
13-10-11 METAR LIMC 112020Z 06008KT 020V080 9999 SCT030 BKN070 10/06 Q1014 NOSIG
13-10-11 METAR LIMC 112050Z 33006KT 300V360 9999 SCT030 BKN070 09/06 Q1014 NOSIG
13-10-11 METAR LIMC 112120Z 30007KT 9999 BKN020 BKN070 09/06 Q1014 NOSIG
13-10-11 METAR LIMC 112150Z 35004KT 290V060 9999 RA BKN020 BKN070 09/06 Q1015 NOSIG
13-10-11 METAR LIMC 112220Z 01005KT 340V040 9999 RA SCT020 BKN070 09/07 Q1014 NOSIG
13-10-11 METAR LIMC 112250Z 09003KT 030V170 9999 BKN030 10/07 Q1014 RERA NOSIG
13-10-11 METAR LIMC 112320Z 11007KT 080V150 9999 BKN030 11/07 Q1014 NOSIG
13-10-11 METAR LIMC 112350Z 11008KT 070V140 9999 BKN040 11/07 Q1014 NOSIG
13-10-12 METAR LIMC 120020Z 11006KT 080V150 9999 -RA BKN040 11/07 Q1014 NOSIG
13-10-12 METAR LIMC 120050Z 12007KT 060V160 9999 RA BKN040 11/07 Q1014 NOSIG
13-10-12 METAR LIMC 120120Z 11009KT 070V130 9999 -TSRA SCT020CB BKN030 10/07 Q1013 RERA NOSIG
13-10-12 METAR LIMC 120150Z 14008G20KT 080V180 9999 -TSRA SCT008CB BKN020 10/07 Q1014 RERA NOSIG
13-10-12 METAR LIMC 120220Z VRB04KT 9999 -TSRA SCT008CB BKN020 09/07 Q1014 NOSIG
13-10-12 METAR LIMC 120250Z 10006KT 040V140 9999 -RA SCT008CB BKN020 09/08 Q1014 RETS NOSIG
13-10-12 METAR LIMC 120320Z 14008KT 110V180 9999 -TSRA SCT008CB BKN020 09/08 Q1014
13-10-12 METAR LIMC 120350Z 12006KT 100V170 9999 SCT012 BKN020 09/08 Q1014 RETS
13-10-12 METAR LIMC 120420Z 12005KT 090V150 9999 SCT012 BKN020 09/08 Q1015 NOSIG
13-10-12 METAR LIMC 120450Z 13007KT 100V160 9999 SCT015 BKN050 09/08 Q1015 NOSIG
13-10-12 METAR LIMC 120520Z NIL
13-10-12 METAR LIMC 120550Z 15005KT 120V180 9999 BKN010 BKN015 09/08 Q1016 NOSIG
13-10-12 METAR LIMC 120620Z 12003KT 070V150 9999 SCT015 BKN030 09/08 Q1016 NOSIG
13-10-12 METAR LIMC 120650Z 35005KT 320V030 9999 BKN015 BKN030 09/07 Q1016 NOSIG
13-10-12 METAR LIMC 120720Z 35007KT 9999 BKN015 OVC040 07/06 Q1017 NOSIG
13-10-12 METAR LIMC 120920Z 36006KT 9999 SCT015 BKN030 09/06 Q1018 NOSIG
13-10-12 METAR LIMC 120950Z 36007KT 9999 SCT015 BKN030 09/06 Q1018 NOSIG
13-10-12 METAR LIMC 121020Z 36007KT 330V050 9999 BKN020 10/07 Q1018 NOSIG
13-10-12 METAR LIMC 121050Z 35006KT 320V030 9999 BKN020 10/07 Q1019 NOSIG
13-10-12 METAR LIMC 121120Z 34005KT 310V020 9999 BKN035 11/07 Q1019 NOSIG
13-10-12 METAR LIMC 121150Z 36007KT 330V030 9999 SCT035 12/06 Q1019 NOSIG
13-10-12 METAR LIMC 121220Z 35005KT 290V020 9999 BKN035 12/06 Q1019 NOSIG
13-10-12 METAR LIMC 121250Z 06004G14KT 010V080 9999 BKN030 12/06 Q1019 NOSIG
13-10-12 METAR LIMC 121320Z 02006KT 360V070 9999 SCT030 13/06 Q1018 NOSIG
13-10-12 METAR LIMC 121420Z NIL
13-10-12 METAR LIMC 121420Z 36004KT 310V070 9999 FEW030 13/06 Q1018 NOSIG
13-10-12 METAR LIMC 121450Z VRB02KT 9999 SCT030 13/06 Q1019 NOSIG
13-10-12 METAR LIMC 121520Z 01003KT 330V060 CAVOK 13/06 Q1019 NOSIG
13-10-12 METAR LIMC 121620Z 03003KT 360V070 9999 BKN080 12/06 Q1019 NOSIG
13-10-12 METAR LIMC 121650Z 04003G16KT 020V080 9999 BKN080 12/07 Q1019 NOSIG
13-10-12 METAR LIMC 121720Z 33006KT 9999 BKN080 11/08 Q1019 NOSIG
13-10-12 METAR LIMC 121750Z 33006KT 9999 BKN060 11/08 Q1019 NOSIG
13-10-12 METAR LIMC 121820Z 33006KT 9999 BKN050 11/08 Q1019 NOSIG
13-10-12 METAR LIMC 121850Z NIL
13-10-12 METAR LIMC 121850Z 33008KT 9999 SCT030 BKN080 10/08 Q1020 NOSIG
13-10-12 METAR LIMC 121950Z 33003KT 300V030 9999 SCT030 BKN080 10/07 Q1020 NOSIG
13-10-12 METAR LIMC 122020Z 01007KT 330V110 9999 FEW030 BKN080 10/07 Q1020 NOSIG
13-10-12 METAR LIMC 122050Z 01005KT 9999 FEW030 BKN080 10/08 Q1020 NOSIG
13-10-12 METAR LIMC 122120Z 36007KT 9999 SCT035 BKN080 10/07 Q1020 NOSIG
13-10-12 METAR LIMC 122150Z 35007KT 9999 SCT035 BKN080 10/07 Q1020 NOSIG
13-10-12 METAR LIMC 122220Z 34007KT 9999 SCT035 BKN080 09/07 Q1020 NOSIG
13-10-12 METAR LIMC 122250Z 36006KT 9999 SCT035 BKN080 09/07 Q1020 NOSIG
13-10-12 METAR LIMC 122320Z 35008KT 9999 SCT035 BKN080 09/07 Q1020 NOSIG
13-10-12 METAR LIMC 122350Z 34008KT 9999 SCT035 BKN080 09/07 Q1020 NOSIG
13-10-13 METAR LIMC 130020Z 34009KT 9999 SCT035 BKN080 09/07 Q1020 NOSIG
13-10-13 METAR LIMC 130050Z NIL
13-10-13 METAR LIMC 130050Z 34007KT 9999 SCT035 BKN080 09/07 Q1020 NOSIG
13-10-13 METAR LIMC 130120Z 35009KT 9999 SCT030 BKN090 09/07 Q1020 NOSIG
13-10-13 METAR LIMC 130150Z 36009KT 9999 OVC030 09/07 Q1020 NOSIG
13-10-13 METAR LIMC 130220Z 36006KT 9999 BKN030 09/07 Q1020 NOSIG
13-10-13 METAR LIMC 130250Z VRB02KT 9999 BKN030 09/07 Q1020 NOSIG
13-10-13 METAR LIMC 130320Z 01005KT 9999 BKN030 09/07 Q1020 NOSIG
13-10-13 METAR LIMC 130350Z 34008KT 9999 BKN030 09/07 Q1020 NOSIG
13-10-13 METAR LIMC 130550Z NIL
13-10-13 METAR LIMC 130550Z 01005KT 9999 BKN080 09/07 Q1022 NOSIG
13-10-13 METAR LIMC 130620Z NIL
13-10-13 METAR LIMC 130620Z 01007KT 9999 BKN080 09/07 Q1022 NOSIG
13-10-13 METAR LIMC 130650Z 36008KT 9999 BKN080 10/07 Q1022 NOSIG
13-10-13 METAR LIMC 130720Z 36006KT 9999 SCT080 10/07 Q1022 NOSIG
13-10-13 METAR LIMC 130750Z 36005KT 330V040 9999 BKN080 11/08 Q1023 NOSIG
13-10-13 METAR LIMC 130850Z 34007KT 9999 BKN080 11/08 Q1023 NOSIG
13-10-13 METAR LIMC 130920Z 35007KT 9999 BKN080 11/08 Q1023 NOSIG
13-10-13 METAR LIMC 130950Z 35007KT 9999 BKN080 11/08 Q1023 NOSIG
13-10-13 METAR LIMC 131020Z 01006KT 9999 BKN080 11/08 Q1023 NOSIG
13-10-13 METAR LIMC 131050Z 36007KT 340V040 9999 BKN080 11/08 Q1023 NOSIG
13-10-13 METAR LIMC 131120Z 36006KT 9999 BKN080 11/08 Q1023 NOSIG
13-10-13 METAR LIMC 131150Z 36006KT 330V030 9999 BKN080 12/08 Q1023 NOSIG
13-10-13 METAR LIMC 131220Z 36005KT 9999 SCT050 BKN080 12/09 Q1023 NOSIG
13-10-13 METAR LIMC 131250Z 36005KT 9999 SCT050 BKN080 12/09 Q1023 NOSIG
13-10-13 METAR LIMC 131320Z 35006KT 9999 SCT050 BKN080 12/09 Q1023 NOSIG
13-10-13 METAR LIMC 131350Z 34006KT 9999 SCT050 BKN080 12/09 Q1023 NOSIG
13-10-13 METAR LIMC 131420Z 34006KT 9999 SCT050 BKN080 12/09 Q1023 NOSIG
13-10-13 METAR LIMC 131450Z 35005KT 9999 SCT050 BKN080 12/08 Q1023 NOSIG
13-10-13 METAR LIMC 131520Z 33005KT 9999 BKN050 BKN080 12/09 Q1023 NOSIG
13-10-13 METAR LIMC 131550Z 33005KT 9999 BKN050 BKN080 12/09 Q1023 NOSIG
13-10-13 METAR LIMC 131620Z 33005KT 9999 BKN050 BKN080 11/09 Q1023 NOSIG
13-10-13 METAR LIMC 131650Z 34005KT 9999 SCT050 BKN080 11/09 Q1023 NOSIG
13-10-13 METAR LIMC 131720Z 02005KT 9999 SCT050 BKN080 11/09 Q1024 NOSIG
13-10-13 METAR LIMC 131750Z 01005KT 330V030 9999 SCT050 BKN080 11/09 Q1024 NOSIG
13-10-13 METAR LIMC 131820Z 01004KT 9999 SCT050 BKN080 11/09 Q1024 NOSIG
13-10-13 METAR LIMC 131850Z 01005KT 9999 SCT050 BKN080 11/08 Q1024 NOSIG
13-10-13 METAR LIMC 131920Z VRB02KT 9999 BKN050 BKN080 11/09 Q1024 NOSIG
13-10-13 METAR LIMC 131950Z 33003KT 9999 BKN050 11/09 Q1024 NOSIG
13-10-13 METAR LIMC 132020Z VRB02KT 9999 BKN050 11/09 Q1024 NOSIG
13-10-13 METAR LIMC 132050Z 34004KT 9999 BKN050 11/09 Q1024 NOSIG
13-10-13 METAR LIMC 132120Z 34004KT 9999 BKN050 11/09 Q1024 NOSIG
13-10-13 METAR LIMC 132150Z 33005KT 9999 BKN050 11/09 Q1024 NOSIG
13-10-13 METAR LIMC 132220Z 33005KT 9999 BKN050 11/08 Q1024 NOSIG
13-10-13 METAR LIMC 132250Z 34004KT 9999 BKN050 BKN090 11/08 Q1024 NOSIG
13-10-13 METAR LIMC 132320Z 34003KT 9999 BKN050 BKN090 11/08 Q1024 NOSIG
13-10-13 METAR LIMC 132350Z 35003KT 9999 BKN050 BKN090 10/08 Q1023 NOSIG
13-10-14 METAR LIMC 140020Z 34005KT 9999 SCT080 09/07 Q1023 NOSIG
13-10-14 METAR LIMC 140050Z 34005KT 9999 SCT080 08/07 Q1023 NOSIG
13-10-14 METAR LIMC 140120Z 36003KT 9999 SCT080 08/07 Q1023 NOSIG
13-10-14 METAR LIMC 140150Z 35003KT 9999 SCT080 06/05 Q1023 NOSIG
13-10-14 METAR LIMC 140220Z 36003KT 9999 SCT080 07/06 Q1022 NOSIG
13-10-14 METAR LIMC 140250Z 05002KT 9999 BKN080 08/08 Q1022 NOSIG
13-10-14 METAR LIMC 140320Z 27002KT 9999 BKN080 06/06 Q1022 NOSIG
13-10-14 METAR LIMC 140350Z VRB02KT 9999 BKN080 07/06 Q1022 NOSIG
13-10-14 METAR LIMC 140420Z 02002KT 9999 BCFG SCT080 05/05 Q1022 NOSIG
13-10-14 METAR LIMC 140450Z 35003KT 320V020 9999 FEW090 07/06 Q1022 NOSIG
13-10-14 METAR LIMC 140520Z 35006KT 9999 FEW070 09/09 Q1022 NOSIG
13-10-14 METAR LIMC 140550Z 35004KT 9999 FEW050 08/07 Q1022 NOSIG
13-10-14 METAR LIMC 140620Z 00000KT 9999 FEW050 08/07 Q1022 NOSIG
13-10-14 METAR LIMC 140650Z VRB02KT 9999 SCT050 BKN090 09/08 Q1023 NOSIG
13-10-14 METAR LIMC 140720Z VRB02KT 9999 SCT050 BKN090 10/09 Q1023 NOSIG
13-10-14 METAR LIMC 140750Z 32003KT 290V360 9999 BKN050 OVC090 11/09 Q1023 NOSIG
13-10-14 METAR LIMC 140820Z NIL
13-10-14 METAR LIMC 140820Z 35004KT 320V020 9999 BKN050 OVC090 12/09 Q1023 NOSIG
13-10-14 METAR LIMC 140850Z 36003KT 310V040 9999 BKN050 BKN090 12/09 Q1023 NOSIG
13-10-14 METAR LIMC 140920Z 34004KT 300V020 9999 BKN050 BKN090 13/09 Q1023 NOSIG
13-10-14 METAR LIMC 140950Z 34004KT 310V030 9999 BKN050 BKN090 13/09 Q1023 NOSIG
13-10-14 METAR LIMC 141020Z 01005KT 280V040 9999 SCT050 BKN090 13/09 Q1023 NOSIG
13-10-14 METAR LIMC 141050Z 01004KT 320V050 9999 SCT050 BKN090 14/09 Q1022 NOSIG
13-10-14 METAR LIMC 141120Z 36004KT 9999 SCT050 BKN090 13/09 Q1022 NOSIG
13-10-14 METAR LIMC 141150Z VRB02KT 9999 SCT050 BKN090 14/09 Q1022 NOSIG
13-10-14 METAR LIMC 141220Z VRB02KT 9999 SCT050 BKN080 14/09 Q1022 NOSIG
13-10-14 METAR LIMC 141250Z VRB02KT 9999 SCT050 BKN080 14/09 Q1021 NOSIG
13-10-14 METAR LIMC 141320Z NIL
13-10-14 METAR LIMC 141350Z NIL
13-10-14 METAR LIMC 141420Z VRB01KT 9999 BKN060 15/10 Q1021 NOSIG
13-10-14 METAR LIMC 141450Z VRB01KT 9999 BKN060 15/09 Q1020 NOSIG
13-10-14 METAR LIMC 141520Z 12003KT 060V200 9999 BKN060 15/09 Q1021 NOSIG
13-10-14 METAR LIMC 141550Z VRB02KT 9999 BKN060 14/11 Q1020 NOSIG
13-10-14 METAR LIMC 141620Z 23002KT 9999 BKN060 14/11 Q1020 NOSIG
13-10-14 METAR LIMC 141650Z 25003KT 220V290 9999 SCT045 SCT070 14/11 Q1021 NOSIG
13-10-14 METAR LIMC 141720Z 31004KT 9999 SCT045 BKN070 13/11 Q1021 NOSIG
13-10-14 METAR LIMC 141750Z 32004KT 9999 SCT045 BKN070 12/10 Q1021 NOSIG
13-10-14 METAR LIMC 141820Z 34003KT 9999 SCT045 BKN070 12/10 Q1021 NOSIG
13-10-14 METAR LIMC 141850Z 34003KT 9999 SCT045 12/10 Q1021 NOSIG
13-10-14 METAR LIMC 141920Z VRB02KT 9999 FEW070 11/09 Q1021 NOSIG
13-10-14 METAR LIMC 141950Z 33003KT 9999 SCT070 11/10 Q1021 NOSIG
13-10-14 METAR LIMC 142020Z 34004KT 9999 SCT060 12/10 Q1021 NOSIG
13-10-14 METAR LIMC 142050Z 35004KT 9999 SCT060 11/10 Q1021 NOSIG
13-10-14 METAR LIMC 142120Z 34003KT 9999 SCT060 11/09 Q1021 NOSIG
13-10-14 METAR LIMC 142150Z VRB02KT 9999 SCT060 10/09 Q1021 NOSIG
13-10-14 METAR LIMC 142220Z 01003KT 320V070 9999 SCT060 11/09 Q1021 NOSIG
13-10-14 METAR LIMC 142250Z 32003KT 9999 SCT080 10/09 Q1021 NOSIG
13-10-14 METAR LIMC 142320Z 35004KT 9999 SCT080 10/09 Q1020 NOSIG
13-10-14 METAR LIMC 142350Z 31001KT 9999 SCT080 10/09 Q1020 NOSIG
13-10-15 METAR LIMC 150020Z 30002KT 9999 SCT080 10/09 Q1020 NOSIG
13-10-15 METAR LIMC 150050Z NIL
13-10-15 METAR LIMC 150050Z 33003KT 9999 SCT080 11/10 Q1020 NOSIG
13-10-15 METAR LIMC 150120Z 33004KT 9999 SCT080 10/09 Q1020 NOSIG
13-10-15 METAR LIMC 150150Z 34005KT 9999 SCT080 09/08 Q1019 NOSIG
13-10-15 METAR LIMC 150220Z 34003KT 9999 FEW060 09/08 Q1019 NOSIG
13-10-15 METAR LIMC 150250Z VRB02KT 9999 FEW060 08/07 Q1019 NOSIG
13-10-15 METAR LIMC 150350Z 34003KT 9999 R17L///// R35R/0650V1500D BCFG NSC 07/06 Q1019 NOSIG
13-10-15 METAR LIMC 150450Z 35004KT 9999 BCFG NSC 07/06 Q1018 NOSIG
13-10-15 METAR LIMC 150520Z 35005KT 9999 MIFG SCT080 07/06 Q1018 NOSIG
13-10-15 METAR LIMC 150550Z 35003KT 9999 SCT080 08/07 Q1018 NOSIG
13-10-15 METAR LIMC 150620Z 34003KT 9999 SCT080 08/07 Q1018 NOSIG
13-10-15 METAR LIMC 150650Z 36003KT 330V030 9999 SCT080 09/08 Q1018 NOSIG
13-10-15 METAR LIMC 150720Z 35004KT 9999 BKN080 10/09 Q1018 NOSIG
13-10-15 METAR LIMC 150750Z 34004KT 9999 BKN080 11/10 Q1019 NOSIG
13-10-15 METAR LIMC 150820Z 36004KT 9999 BKN080 11/10 Q1018 NOSIG
13-10-15 METAR LIMC 150850Z 34004KT 9999 BKN080 12/10 Q1019 NOSIG
13-10-15 METAR LIMC 150920Z 34004KT 300V030 9999 BKN080 13/10 Q1018 NOSIG
13-10-15 METAR LIMC 150950Z NIL
13-10-15 METAR LIMC 150950Z VRB02KT 9999 BKN080 14/10 Q1018 NOSIG
13-10-15 METAR LIMC 151020Z VRB02KT 9999 BKN080 14/10 Q1018 NOSIG
13-10-15 METAR LIMC 151050Z 24003KT 9999 BKN080 14/11 Q1018 NOSIG
13-10-15 METAR LIMC 151120Z VRB02KT 9999 BKN080 14/10 Q1017 NOSIG
13-10-15 METAR LIMC 151150Z VRB01KT 9999 FEW025 SCT080 15/09 Q1017 NOSIG
13-10-15 METAR LIMC 151220Z VRB02KT 9999 FEW030 BKN080 15/09 Q1016 NOSIG
13-10-15 METAR LIMC 151250Z VRB02KT 9999 FEW030 BKN080 17/09 Q1016 NOSIG
13-10-15 METAR LIMC 151320Z VRB01KT 9999 BKN080 16/08 Q1015 NOSIG
13-10-15 METAR LIMC 151350Z 22003KT 9999 BKN080 15/09 Q1015 NOSIG
13-10-15 METAR LIMC 151420Z 21004KT 9999 BKN080 15/10 Q1015 NOSIG
13-10-15 METAR LIMC 151450Z VRB02KT 9999 BKN080 15/10 Q1014 NOSIG
13-10-15 METAR LIMC 151520Z NIL
13-10-15 METAR LIMC 151550Z VRB02KT 9999 BKN080 14/11 Q1014 NOSIG
13-10-15 METAR LIMC 151620Z VRB02KT 9999 BKN080 14/10 Q1014 NOSIG
13-10-15 METAR LIMC 151650Z 24003KT 9999 BKN080 12/10 Q1014 NOSIG
13-10-15 METAR LIMC 151720Z 00000KT 9999 BKN080 12/09 Q1014 NOSIG
13-10-15 METAR LIMC 151750Z 00000KT 9999 BKN080 12/09 Q1014 NOSIG
13-10-15 METAR LIMC 151820Z 00000KT 9999 BKN080 10/09 Q1013 NOSIG
13-10-15 METAR LIMC 151850Z VRB01KT 9999 BKN080 09/08 Q1013 NOSIG
13-10-15 METAR LIMC 151920Z 35003KT 9999 BKN080 09/08 Q1013 NOSIG
13-10-15 METAR LIMC 151950Z 15001KT CAVOK 08/07 Q1013 NOSIG
13-10-15 METAR LIMC 152020Z 32002KT CAVOK 08/07 Q1013 NOSIG
13-10-15 METAR LIMC 152050Z 34004KT 300V010 CAVOK 07/06 Q1013 NOSIG
13-10-15 METAR LIMC 152120Z VRB02KT CAVOK 07/07 Q1012 NOSIG
13-10-15 METAR LIMC 152220Z VRB02KT 9999 BCFG NSC 08/08 Q1011 NOSIG
13-10-15 METAR LIMC 152250Z 34003KT 8000 BCFG NSC 07/06 Q1011 NOSIG
13-10-15 METAR LIMC 152320Z VRB01KT 8000 R17L///// R35R/0500V1500U BCFG NSC 06/05 Q1010 NOSIG
13-10-15 METAR LIMC 152350Z 33005KT 300V030 8000 BCFG NSC 06/05 Q1010 NOSIG
13-10-16 METAR LIMC 160020Z VRB01KT 9999 BCFG NSC 07/07 Q1010 NOSIG
13-10-16 METAR LIMC 160050Z VRB01KT 9999 2500NE BCFG NSC 06/05 Q1009 NOSIG
13-10-16 METAR LIMC 160120Z 01003KT 330V030 9999 2500NE BCFG NSC 05/05 Q1009 NOSIG
13-10-16 METAR LIMC 160520Z 32004KT 9999 FEW080 08/07 Q1009 NOSIG
13-10-16 METAR LIMC 160550Z 29004KT CAVOK 06/05 Q1009 NOSIG
13-10-16 METAR LIMC 160620Z 25006KT CAVOK 08/07 Q1009 NOSIG
13-10-16 METAR LIMC 160650Z 29004KT CAVOK 10/09 Q1010 NOSIG
13-10-16 METAR LIMC 160750Z 23004KT CAVOK 12/10 Q1010 NOSIG
13-10-16 METAR LIMC 160850Z 24006KT 210V270 CAVOK 15/10 Q1010 NOSIG
13-10-16 METAR LIMC 160920Z 25007KT 220V280 CAVOK 16/10 Q1011 NOSIG
13-10-16 METAR LIMC 160950Z 25008KT CAVOK 17/09 Q1011 NOSIG
13-10-16 METAR LIMC 161020Z 23007KT 210V270 CAVOK 18/10 Q1011 NOSIG
13-10-16 METAR LIMC 161050Z 23007KT 200V260 CAVOK 18/11 Q1011 NOSIG
13-10-16 METAR LIMC 161120Z 23008KT 200V260 CAVOK 19/11 Q1010 NOSIG
13-10-16 METAR LIMC 161150Z 24007KT 220V290 CAVOK 20/09 Q1010 NOSIG
13-10-16 METAR LIMC 161220Z 24007KT 200V280 CAVOK 21/09 Q1010 NOSIG
13-10-16 METAR LIMC 161250Z 23005KT 210V270 CAVOK 21/09 Q1009 NOSIG
13-10-16 METAR LIMC 161350Z 25005KT 220V300 CAVOK 21/09 Q1009 NOSIG
13-10-16 METAR LIMC 161450Z 27004KT 240V310 CAVOK 22/08 Q1010 NOSIG
13-10-16 METAR LIMC 161620Z 34003KT CAVOK 19/10 Q1010 NOSIG
13-10-16 METAR LIMC 161650Z 36003KT 320V040 9999 FEW080 17/09 Q1010 NOSIG
13-10-16 METAR LIMC 161720Z 34004KT 260V010 9999 FEW080 14/10 Q1010 NOSIG
13-10-16 METAR LIMC 161750Z NIL
13-10-16 METAR LIMC 161750Z 28005KT 240V300 9999 FEW080 14/11 Q1011 NOSIG
13-10-16 METAR LIMC 161820Z VRB03KT 9999 FEW080 13/10 Q1011 NOSIG
13-10-16 METAR LIMC 161850Z 33004KT 9999 SCT080 13/10 Q1011 NOSIG
13-10-16 METAR LIMC 161950Z 34005KT 9999 SCT080 13/09 Q1012 NOSIG
13-10-16 METAR LIMC 162050Z 35006KT CAVOK 11/08 Q1012 NOSIG
13-10-16 METAR LIMC 162150Z 36004KT 320V060 CAVOK 11/08 Q1013 NOSIG
13-10-16 METAR LIMC 162220Z 36004KT 330V030 CAVOK 10/07 Q1012 NOSIG
13-10-16 METAR LIMC 162250Z 35007KT CAVOK 10/07 Q1013 NOSIG
13-10-16 METAR LIMC 162320Z 35007KT CAVOK 11/07 Q1012 NOSIG
13-10-16 METAR LIMC 162350Z 36004KT 330V050 CAVOK 09/06 Q1013 NOSIG
13-10-17 METAR LIMC 170020Z 05005KT 010V080 CAVOK 10/06 Q1013 NOSIG
13-10-17 METAR LIMC 170050Z 35005KT CAVOK 09/05 Q1014 NOSIG
13-10-17 METAR LIMC 170220Z 36004KT CAVOK 07/05 Q1014 NOSIG
13-10-17 METAR LIMC 170250Z 36004KT CAVOK 07/05 Q1014 NOSIG
13-10-17 METAR LIMC 170320Z 36004KT CAVOK 08/05 Q1014 NOSIG
13-10-17 METAR LIMC 170420Z 01005KT 340V040 CAVOK 09/05 Q1015 NOSIG
13-10-17 METAR LIMC 170520Z 35006KT CAVOK 08/05 Q1015 NOSIG
13-10-17 METAR LIMC 170550Z 35006KT CAVOK 08/05 Q1015 NOSIG
13-10-17 METAR LIMC 170620Z 35005KT 330V040 CAVOK 09/06 Q1016 NOSIG
13-10-17 METAR LIMC 170650Z 36003KT 320V030 CAVOK 09/06 Q1016 NOSIG
13-10-17 METAR LIMC 170820Z 36004KT 330V040 CAVOK 15/08 Q1017 NOSIG
13-10-17 METAR LIMC 170850Z VRB02KT CAVOK 16/09 Q1016 NOSIG
13-10-17 METAR LIMC 170950Z 24004KT 200V270 CAVOK 18/07 Q1016 NOSIG
13-10-17 METAR LIMC 171120Z 16003KT 090V230 CAVOK 20/08 Q1016 NOSIG
13-10-17 METAR LIMC 171150Z VRB03KT CAVOK 20/08 Q1016 NOSIG
13-10-17 METAR LIMC 171250Z 25006KT 220V280 CAVOK 20/10 Q1016 NOSIG
13-10-17 METAR LIMC 171450Z 22005KT CAVOK 21/10 Q1015 NOSIG
13-10-17 METAR LIMC 171520Z 21005KT CAVOK 20/11 Q1015 NOSIG
13-10-17 METAR LIMC 171550Z 21004KT CAVOK 19/11 Q1016 NOSIG
13-10-17 METAR LIMC 171650Z VRB02KT CAVOK 16/11 Q1016 NOSIG
13-10-17 METAR LIMC 171720Z 00000KT CAVOK 14/11 Q1016 NOSIG
13-10-17 METAR LIMC 171750Z VRB01KT CAVOK 12/10 Q1016 NOSIG
13-10-17 METAR LIMC 171850Z 01003KT CAVOK 12/10 Q1016 NOSIG
13-10-17 METAR LIMC 171950Z 36004KT 320V040 CAVOK 13/11 Q1016 NOSIG
13-10-17 METAR LIMC 172020Z VRB02KT CAVOK 10/09 Q1017 NOSIG
13-10-17 METAR LIMC 172050Z VRB02KT CAVOK 10/09 Q1017 NOSIG
13-10-17 METAR LIMC 172150Z 35005KT CAVOK 09/08 Q1017 NOSIG
13-10-17 METAR LIMC 172220Z 35006KT CAVOK 09/08 Q1017 NOSIG
13-10-17 METAR LIMC 172320Z 02003KT CAVOK 09/09 Q1017 NOSIG
13-10-17 METAR LIMC 172350Z 35005KT 7000 MIFG NSC 07/07 Q1017 NOSIG
13-10-18 METAR LIMC 180150Z 01003KT CAVOK 07/06 Q1017 NOSIG
13-10-18 METAR LIMC 180250Z 35004KT CAVOK 06/05 Q1017 NOSIG
13-10-18 METAR LIMC 180350Z 01003KT CAVOK 05/05 Q1017 NOSIG
13-10-18 METAR LIMC 180420Z 32003KT 290V010 CAVOK 07/04 Q1017 NOSIG
13-10-18 METAR LIMC 180520Z 36004KT CAVOK 06/05 Q1017 NOSIG
13-10-18 METAR LIMC 180550Z 35003KT 310V030 CAVOK 06/05 Q1017 NOSIG
13-10-18 METAR LIMC 180620Z VRB02KT CAVOK 05/04 Q1017 NOSIG
13-10-18 METAR LIMC 180650Z 35003KT 320V030 CAVOK 07/06 Q1018 NOSIG
13-10-18 METAR LIMC 180720Z 35005KT CAVOK 10/07 Q1018 NOSIG
13-10-18 METAR LIMC 180750Z 35003KT 320V030 CAVOK 12/08 Q1018 NOSIG
13-10-18 METAR LIMC 180820Z 35003KT 310V030 CAVOK 13/07 Q1018 NOSIG
13-10-18 METAR LIMC 180850Z 00000KT CAVOK 16/08 Q1018 NOSIG
13-10-18 METAR LIMC 180920Z 16003KT 120V230 CAVOK 16/08 Q1018 NOSIG
13-10-18 METAR LIMC 181020Z VRB02KT CAVOK 17/09 Q1019 NOSIG
13-10-18 METAR LIMC 181050Z VRB03KT 8000 NSC 17/07 Q1018 NOSIG
13-10-18 METAR LIMC 181120Z 08003KT 020V160 8000 NSC 17/09 Q1018 NOSIG
13-10-18 METAR LIMC 181150Z 16003KT 090V200 8000 NSC 18/10 Q1018 NOSIG
13-10-18 METAR LIMC 181220Z 17003KT 110V260 8000 NSC 19/10 Q1018 NOSIG
13-10-18 METAR LIMC 181250Z 11004KT 070V170 8000 NSC 18/10 Q1018 NOSIG
13-10-18 METAR LIMC 181420Z 21003KT 170V250 7000 NSC 19/10 Q1017 NOSIG
13-10-18 METAR LIMC 181450Z 17003KT 7000 NSC 18/11 Q1017 NOSIG
13-10-18 METAR LIMC 181520Z 18002KT 7000 NSC 18/10 Q1017 NOSIG
13-10-18 METAR LIMC 181620Z VRB02KT 6000 NSC 16/11 Q1018 NOSIG
13-10-18 METAR LIMC 181650Z VRB02KT 5000 BR NSC 15/10 Q1018 NOSIG
13-10-18 METAR LIMC 181720Z VRB01KT 5000 BR NSC 15/10 Q1018 NOSIG
13-10-18 METAR LIMC 181750Z 00000KT 5000 BR NSC 14/10 Q1019 NOSIG
13-10-18 METAR LIMC 181820Z VRB01KT 5000 BR NSC 14/10 Q1019 NOSIG
13-10-18 METAR LIMC 181850Z VRB01KT 5000 BR BKN080 14/11 Q1019 NOSIG
13-10-18 METAR LIMC 181920Z 00000KT 5000 BR BKN080 13/11 Q1019 NOSIG
13-10-18 METAR LIMC 181950Z VRB01KT 5000 BR BKN080 12/11 Q1019 NOSIG
13-10-18 METAR LIMC 182020Z VRB02KT 5000 BR SCT080 11/09 Q1020 NOSIG
13-10-18 METAR LIMC 182050Z VRB02KT 5000 BR SCT080 11/10 Q1020 NOSIG
13-10-18 METAR LIMC 182120Z VRB01KT 5000 BR SCT080 10/09 Q1020 NOSIG
13-10-18 METAR LIMC 182150Z 36004KT 4000 BR FEW080 09/08 Q1020 NOSIG
13-10-18 METAR LIMC 182220Z VRB02KT 3500 BR FEW080 08/07 Q1020 NOSIG
13-10-18 METAR LIMC 182250Z 00000KT 3500 BR FEW080 08/07 Q1020 NOSIG
13-10-18 METAR LIMC 182320Z 01003KT 3500 BR FEW080 07/07 Q1020 NOSIG
13-10-18 METAR LIMC 182350Z 01003KT 3000 BR FEW080 08/07 Q1021 NOSIG
13-10-19 METAR LIMC 190020Z 36003KT 3000 BR FEW080 07/06 Q1021 NOSIG
13-10-19 METAR LIMC 190050Z 01003KT 3000 BR FEW080 07/06 Q1021 NOSIG
13-10-19 METAR LIMC 190120Z 36003KT 3000 BR FEW080 07/07 Q1021 NOSIG
13-10-19 METAR LIMC 190150Z 01003KT 3000 BR FEW080 08/07 Q1021 NOSIG
13-10-19 METAR LIMC 190220Z 01003KT 3000 BR FEW080 08/08 Q1021 NOSIG
13-10-19 METAR LIMC 190250Z 36003KT 3000 BR FEW080 08/07 Q1021 NOSIG
13-10-19 METAR LIMC 190320Z 36004KT 3000 BR FEW080 08/08 Q1021 NOSIG
13-10-19 METAR LIMC 190350Z 36002KT 3000 BR FEW080 07/07 Q1021 NOSIG
13-10-19 METAR LIMC 190420Z 36003KT 3000 BR FEW080 08/07 Q1021 NOSIG
13-10-19 METAR LIMC 190450Z 36006KT 4000 BR SCT080 08/08 Q1021 NOSIG
13-10-19 METAR LIMC 190520Z 36005KT 4000 BR SCT080 09/08 Q1022 NOSIG
13-10-19 METAR LIMC 190550Z 01004KT 320V060 3500 BR SCT080 10/09 Q1022 NOSIG
13-10-19 METAR LIMC 190620Z 01004KT 330V080 3500 BR SCT080 11/10 Q1022 NOSIG
13-10-19 METAR LIMC 190650Z 34004KT 3500 BR SCT080 11/10 Q1022 NOSIG
13-10-19 METAR LIMC 190720Z 36004KT 340V050 4000 BR BKN080 12/10 Q1023 NOSIG
13-10-19 METAR LIMC 190750Z 35004KT 300V050 4000 BR BKN080 12/10 Q1023 NOSIG
13-10-19 METAR LIMC 190820Z 35005KT 320V030 5000 BR BKN080 12/10 Q1023 NOSIG
13-10-19 METAR LIMC 190850Z 34004KT 5000 BR BKN080 13/11 Q1024 NOSIG
13-10-19 METAR LIMC 190920Z 33005KT 5000 BR BKN080 13/11 Q1024 NOSIG
13-10-19 METAR LIMC 190950Z 34004KT 310V010 5000 BR BKN080 14/11 Q1024 NOSIG
13-10-19 METAR LIMC 191020Z 34004KT 5000 BR BKN080 14/11 Q1024 NOSIG
13-10-19 METAR LIMC 191050Z VRB02KT 5000 BR BKN080 15/11 Q1024 NOSIG
13-10-19 METAR LIMC 191120Z VRB01KT 5000 BR BKN080 16/11 Q1024 NOSIG
13-10-19 METAR LIMC 191150Z VRB01KT 4000 BR BKN080 16/12 Q1023 NOSIG
13-10-19 METAR LIMC 191220Z 13003KT 070V160 2500 BR BKN080 16/12 Q1023 NOSIG
13-10-19 METAR LIMC 191250Z VRB02KT 3000 BR SCT080 17/12 Q1023 NOSIG
13-10-19 METAR LIMC 191320Z VRB02KT 3000 BR SCT040 18/11 Q1023 NOSIG
13-10-19 METAR LIMC 191350Z 05003KT 020V080 3000 BR SCT040 17/10 Q1023 NOSIG
13-10-19 METAR LIMC 191420Z 02004KT 310V080 3000 BR FEW050 17/11 Q1023 NOSIG
13-10-19 METAR LIMC 191450Z 16003KT 130V200 3000 BR FEW050 17/11 Q1023 NOSIG
13-10-19 METAR LIMC 191520Z 18005KT 3000 BR SCT080 16/12 Q1023 NOSIG
13-10-19 METAR LIMC 191550Z 17003KT 3000 BR SCT080 16/12 Q1023 NOSIG
13-10-19 METAR LIMC 191620Z 17003KT 3000 BR SCT090 15/12 Q1024 NOSIG
13-10-19 METAR LIMC 191650Z VRB01KT 3000 BR SCT090 14/12 Q1024 NOSIG
13-10-19 METAR LIMC 191720Z VRB01KT 1800 BR SCT090 14/12 Q1024 NOSIG
13-10-19 METAR LIMC 191750Z 00000KT 1800 BR SCT090 14/12 Q1025 NOSIG
13-10-19 METAR LIMC 191820Z VRB02KT 1800 BR SCT090 13/12 Q1025 NOSIG
13-10-19 METAR LIMC 191850Z 15001KT 1800 BR SCT090 13/12 Q1025 NOSIG
13-10-19 METAR LIMC 191920Z VRB01KT 3000 BR OVC040 13/12 Q1025 NOSIG
13-10-19 METAR LIMC 191950Z VRB02KT 3000 BR OVC040 13/12 Q1025 NOSIG
13-10-19 METAR LIMC 192020Z VRB01KT 2500 BR OVC040 13/12 Q1025 NOSIG
13-10-19 METAR LIMC 192050Z 32002KT 2500 BR OVC040 13/12 Q1025 NOSIG
13-10-19 METAR LIMC 192120Z 35003KT 2500 BR OVC040 13/12 Q1025 NOSIG
13-10-19 METAR LIMC 192150Z 35004KT 2500 BR OVC040 13/12 Q1025 NOSIG
13-10-19 METAR LIMC 192220Z 36002KT 2500 BR OVC040 13/12 Q1025 NOSIG
13-10-19 METAR LIMC 192250Z VRB01KT 2000 BR OVC040 13/12 Q1025 NOSIG
13-10-19 METAR LIMC 192320Z 35004KT 1800 BR OVC040 13/12 Q1025 NOSIG
13-10-19 METAR LIMC 192350Z 33004KT 2000 BR OVC050 13/12 Q1025 NOSIG
13-10-20 METAR LIMC 200020Z VRB01KT 2000 BR OVC050 13/12 Q1025 NOSIG
13-10-20 METAR LIMC 200050Z 33002KT 2000 BR OVC050 13/12 Q1025 NOSIG
13-10-20 METAR LIMC 200120Z 33003KT 2000 BR OVC050 12/11 Q1025 NOSIG
13-10-20 METAR LIMC 200150Z 36002KT 2500 BR OVC050 13/12 Q1025 NOSIG
13-10-20 METAR LIMC 200220Z VRB01KT 2500 BR OVC050 13/11 Q1024 NOSIG
13-10-20 METAR LIMC 200250Z 35003KT 2500 BR OVC050 13/11 Q1024 NOSIG
13-10-20 METAR LIMC 200320Z 34002KT 2500 BR OVC050 12/11 Q1024 NOSIG
13-10-20 METAR LIMC 200350Z VRB01KT 2500 BR OVC050 13/11 Q1024 NOSIG
13-10-20 METAR LIMC 200420Z 35002KT 2500 BR OVC050 12/11 Q1024 NOSIG
13-10-20 METAR LIMC 200450Z 34003KT 2500 BR OVC050 12/11 Q1024 NOSIG
13-10-20 METAR LIMC 200520Z 33002KT 2500 BR OVC050 13/11 Q1024 NOSIG
13-10-20 METAR LIMC 200550Z 34002KT 2500 BR OVC050 13/11 Q1024 NOSIG
13-10-20 METAR LIMC 200620Z 35003KT 320V030 2000 BR OVC050 13/11 Q1024 NOSIG
13-10-20 METAR LIMC 200650Z 35003KT 2000 BR OVC050 13/11 Q1025 NOSIG
13-10-20 METAR LIMC 200720Z 00000KT 2500 BR OVC050 13/11 Q1025 NOSIG
13-10-20 METAR LIMC 200750Z 36003KT 310V050 2500 BR OVC050 13/11 Q1025 NOSIG
13-10-20 METAR LIMC 200820Z VRB01KT 2500 BR OVC050 14/11 Q1025 NOSIG
13-10-20 METAR LIMC 200850Z 36005KT 2500 BR OVC050 14/12 Q1025 NOSIG
13-10-20 METAR LIMC 200920Z 33003KT 2500 BR OVC050 14/12 Q1025 NOSIG
13-10-20 METAR LIMC 200950Z VRB02KT 2500 BR OVC050 14/12 Q1026 NOSIG
13-10-20 METAR LIMC 201020Z 36003KT 2500 BR OVC050 14/12 Q1026 NOSIG
13-10-20 METAR LIMC 201050Z VRB02KT 2500 BR OVC050 15/12 Q1026 NOSIG
13-10-20 METAR LIMC 201050Z NIL
13-10-20 METAR LIMC 201150Z VRB02KT 1800 BR OVC020 15/12 Q1025 NOSIG
13-10-20 METAR LIMC 201220Z 02006KT 320V070 2000 BR OVC020 15/12 Q1024 NOSIG
13-10-20 METAR LIMC 201250Z 02003KT 340V070 2000 BR OVC020 14/12 Q1024 NOSIG
13-10-20 METAR LIMC 201320Z 05003KT 010V090 2200 BR OVC020 15/12 Q1023 NOSIG
13-10-20 METAR LIMC 201350Z 36003KT 290V050 2500 BR OVC020 15/12 Q1023 NOSIG
13-10-20 METAR LIMC 201420Z VRB02KT 3000 BR OVC025 15/12 Q1023 NOSIG
13-10-20 METAR LIMC 201450Z 25004KT 3000 BR OVC025 14/13 Q1024 NOSIG
13-10-20 METAR LIMC 201520Z 28006KT 2000 BR OVC015 14/13 Q1024 NOSIG
13-10-20 METAR LIMC 201550Z 31005KT 2000 BR OVC012 13/12 Q1024 NOSIG
13-10-20 METAR LIMC 201620Z 03003KT 340V070 2000 BR OVC012 13/12 Q1024 NOSIG
13-10-20 METAR LIMC 201650Z 33004KT 2000 BR OVC012 13/12 Q1024 NOSIG
13-10-20 METAR LIMC 201720Z 33006KT 3000 BR OVC020 13/12 Q1024 NOSIG
13-10-20 METAR LIMC 201750Z VRB04G17KT 3000 -RA BR OVC020 13/12 Q1023 NOSIG
13-10-20 METAR LIMC 201820Z 28004KT 250V310 3000 -RA BR OVC020 13/12 Q1025 NOSIG
13-10-20 METAR LIMC 201850Z 01003KT 310V060 3500 BR OVC025 13/12 Q1024 NOSIG
13-10-20 METAR LIMC 201920Z VRB03KT 3500 BR OVC025 13/12 Q1024 NOSIG
13-10-20 METAR LIMC 201950Z VRB02KT 3500 -RA BR OVC025 13/12 Q1024 NOSIG
13-10-20 METAR LIMC 202020Z 33002KT 3500 BR OVC025 13/12 Q1024 NOSIG
13-10-20 METAR LIMC 202050Z 31005KT 3500 BR OVC025 13/12 Q1024 NOSIG
13-10-20 METAR LIMC 202120Z 33004KT 3500 BR OVC025 13/12 Q1024 NOSIG
13-10-20 METAR LIMC 202150Z VRB02KT 3500 BR OVC025 13/12 Q1024 NOSIG
13-10-20 METAR LIMC 202220Z VRB01KT 3500 BR OVC025 13/12 Q1024 NOSIG
13-10-20 METAR LIMC 202250Z 34002KT 3500 BR OVC025 13/12 Q1024 NOSIG
13-10-20 METAR LIMC 202320Z 32003KT 5000 BR OVC030 13/12 Q1024 NOSIG
13-10-20 METAR LIMC 202350Z 35003KT 5000 BR OVC030 13/12 Q1024 NOSIG
13-10-21 METAR LIMC 210020Z 34003KT 300V090 5000 BCFG OVC030 11/11 Q1023 NOSIG
13-10-21 METAR LIMC 210050Z 00000KT 5000 BCFG OVC030 11/11 Q1024 NOSIG
13-10-21 METAR LIMC 210120Z 33003KT 5000 BCFG OVC030 11/10 Q1023 NOSIG
13-10-21 METAR LIMC 210150Z 35004KT 5000 R35L/0750V1500D BCFG FEW030 10/10 Q1023 NOSIG
13-10-21 METAR LIMC 210220Z 01003KT 5000 BCFG FEW030 10/10 Q1023 NOSIG
13-10-21 METAR LIMC 210250Z 34004KT 5000 BCFG SCT030 10/09 Q1023 NOSIG
13-10-21 METAR LIMC 210320Z 35002KT 5000 BCFG BKN030 11/11 Q1022 NOSIG
13-10-21 METAR LIMC 210350Z 35004KT 5000 BCFG BKN030 10/10 Q1023 NOSIG
13-10-21 METAR LIMC 210420Z VRB02KT 5000 BR BKN030 11/10 Q1023 NOSIG
13-10-21 METAR LIMC 210450Z VRB01KT 5000 BR BKN030 11/11 Q1023 NOSIG
13-10-21 METAR LIMC 210520Z VRB02KT 5000 BR BKN030 12/11 Q1023 NOSIG
13-10-21 METAR LIMC 210550Z 01003KT 340V060 3500 BR BKN030 12/11 Q1023 NOSIG
13-10-21 METAR LIMC 210620Z 36004KT 330V040 4000 BR BKN030 OVC060 12/11 Q1024 NOSIG
13-10-21 METAR LIMC 210650Z 34004KT 4000 BR BKN030 OVC060 12/11 Q1024 NOSIG
13-10-21 METAR LIMC 210720Z 34004KT 4500 BR BKN030 OVC060 12/12 Q1024 NOSIG
13-10-21 METAR LIMC 210750Z 36006KT 330V030 4500 BR BKN035 OVC060 13/12 Q1024 NOSIG
13-10-21 METAR LIMC 210820Z 36006KT 5000 BR BKN035 OVC060 14/12 Q1024 NOSIG
13-10-21 METAR LIMC 210850Z 36006KT 5000 BR BKN035 BKN070 14/12 Q1024 NOSIG
13-10-21 METAR LIMC 210920Z 01004KT 340V040 7000 BKN035 BKN070 15/12 Q1024 NOSIG
13-10-21 METAR LIMC 210950Z 01004KT 340V040 7000 BKN035 BKN070 15/12 Q1024 NOSIG
13-10-21 METAR LIMC 211020Z VRB02KT 9000 BKN035 BKN070 15/12 Q1025 NOSIG
13-10-21 METAR LIMC 211050Z VRB02KT 9000 R35L/1100V1500N R35R/1500N BKN035 BKN070 16/12 Q1024 NOSIG
13-10-21 METAR LIMC 211120Z VRB02KT 9000 BKN035 BKN070 16/12 Q1024 NOSIG
13-10-21 METAR LIMC 211150Z 21003KT 9000 BKN035 BKN070 16/13 Q1024 NOSIG
13-10-21 METAR LIMC 211220Z VRB02KT 9000 BKN035 BKN060 16/13 Q1024 NOSIG
13-10-21 METAR LIMC 211250Z VRB02KT 9000 BKN040 BKN060 16/13 Q1023 NOSIG
13-10-21 METAR LIMC 211320Z 23004KT 150V260 9000 BKN040 BKN060 16/13 Q1023 NOSIG
13-10-21 METAR LIMC 211350Z 21003KT 9000 BKN040 BKN060 15/13 Q1024 NOSIG
13-10-21 METAR LIMC 211420Z 20003KT 8000 SCT040 BKN070 15/13 Q1024 NOSIG
13-10-21 METAR LIMC 211450Z VRB02KT 7000 SCT040 BKN070 15/13 Q1024 NOSIG
13-10-21 METAR LIMC 211520Z 23003KT 7000 SCT040 BKN070 15/13 Q1024 NOSIG
13-10-21 METAR LIMC 211550Z 25003KT 7000 BKN060 15/13 Q1024 NOSIG
13-10-21 METAR LIMC 211650Z NIL
13-10-21 METAR LIMC 211650Z VRB01KT 5000 BR BKN060 14/13 Q1024 NOSIG
13-10-21 METAR LIMC 211720Z VRB02KT 5000 BR SCT020 BKN060 14/13 Q1024 NOSIG
13-10-21 METAR LIMC 211750Z VRB02KT 5000 BR SCT020 BKN060 15/14 Q1024 NOSIG
13-10-21 METAR LIMC 211820Z 29002KT 5000 BR SCT020 BKN060 14/14 Q1024 NOSIG
13-10-21 METAR LIMC 211850Z VRB01KT 5000 BR SCT020 BKN060 14/13 Q1024 NOSIG
13-10-21 METAR LIMC 211920Z VRB01KT 5000 BR SCT020 BKN060 14/13 Q1024 NOSIG
13-10-21 METAR LIMC 211950Z VRB01KT 5000 BR SCT020 BKN060 14/13 Q1024 NOSIG
13-10-21 METAR LIMC 212020Z 33005KT 5000 BR BKN020 OVC060 14/13 Q1024 NOSIG
13-10-21 METAR LIMC 212050Z VRB02KT 6000 BKN020 OVC060 14/13 Q1024 NOSIG
13-10-21 METAR LIMC 212150Z 33004KT 7000 BKN020 OVC060 14/13 Q1023 NOSIG
13-10-21 METAR LIMC 212220Z VRB02KT 7000 BKN020 OVC060 14/13 Q1023 NOSIG
13-10-21 METAR LIMC 212320Z 01001KT 7000 BKN020 OVC060 14/13 Q1023 NOSIG
13-10-21 METAR LIMC 212350Z 33003KT 7000 BKN020 OVC060 14/13 Q1023 NOSIG
13-10-22 METAR LIMC 220020Z 33003KT 6000 BKN020 OVC060 14/13 Q1023 NOSIG
13-10-22 METAR LIMC 220050Z 34004KT 6000 BKN020 OVC060 14/13 Q1023 NOSIG
13-10-22 METAR LIMC 220120Z 34004KT 6000 BKN020 OVC060 13/13 Q1023 NOSIG
13-10-22 METAR LIMC 220150Z 35003KT 6000 BKN020 OVC060 13/13 Q1023 NOSIG
13-10-22 METAR LIMC 220220Z 34003KT 6000 BKN020 OVC060 13/13 Q1022 NOSIG
13-10-22 METAR LIMC 220320Z 35004KT 4000 DRDU BKN020 OVC060 14/13 Q1022 NOSIG
13-10-22 METAR LIMC 220520Z 34004KT 310V030 4000 BR DZ BKN020 OVC060 14/13 Q1022 NOSIG
13-10-22 METAR LIMC 220550Z 34003KT 5000 BR BKN020 OVC060 14/13 Q1022 REDZ NOSIG
13-10-22 METAR LIMC 220620Z VRB02KT 5000 BR BKN020 OVC060 14/13 Q1022 NOSIG
13-10-22 METAR LIMC 220650Z VRB01KT 6000 BKN020 OVC060 14/13 Q1022 NOSIG
13-10-22 METAR LIMC 220750Z NIL
13-10-22 METAR LIMC 220820Z 35004KT 6000 DZ BKN020 OVC060 14/14 Q1023 NOSIG
13-10-22 METAR LIMC 220850Z 36004KT 330V040 6000 DZ BKN020 OVC060 14/13 Q1023 NOSIG
13-10-22 METAR LIMC 220920Z 36004KT 330V030 6000 DZ BKN020 OVC060 14/14 Q1023 NOSIG
13-10-22 METAR LIMC 220950Z 35004KT 6000 DZ BKN020 OVC060 14/14 Q1023 NOSIG
13-10-22 METAR LIMC 221020Z 35004KT 5000 DZ BR BKN005 OVC030 15/14 Q1023 NOSIG
13-10-22 METAR LIMC 221050Z 34005KT 5000 DZ BR BKN005 OVC030 15/14 Q1022 NOSIG
13-10-22 METAR LIMC 221120Z 34004KT 5000 DZ BR BKN005 OVC030 15/14 Q1022 NOSIG
13-10-22 METAR LIMC 221150Z 36004KT 4000 DZ BR BKN005 OVC030 15/14 Q1022 NOSIG
13-10-22 METAR LIMC 221220Z 34004KT 2500 DZ BR BKN005 OVC025 15/14 Q1022 NOSIG
13-10-22 METAR LIMC 221250Z 01005KT 2500 DZ BR BKN005 OVC025 15/14 Q1021 NOSIG
13-10-22 METAR LIMC 221320Z 01005KT 2500 DZ BR BKN005 OVC025 15/14 Q1021 NOSIG
13-10-22 METAR LIMC 221520Z VRB02KT 2000 DZ BR BKN005 OVC025 15/14 Q1020 NOSIG
13-10-22 METAR LIMC 221550Z VRB01KT 2000 RA BR BKN005 OVC025 15/14 Q1021 REDZ NOSIG
13-10-22 METAR LIMC 221620Z 15003KT 110V200 1500 RA BCFG BKN005 OVC025 15/14 Q1021
13-10-22 METAR LIMC 221650Z 13003KT 060V170 1500 RA BCFG BKN005 OVC025 15/14 Q1021
13-10-22 METAR LIMC 221720Z VRB02KT 1800 RA BCFG BKN004 OVC020 15/14 Q1021 NOSIG
13-10-22 METAR LIMC 221750Z VRB02KT 1200 R35L///// R35R///// RA BCFG BKN004 OVC020 14/14 Q1021 NOSIG
13-10-22 METAR LIMC 221820Z 15003KT 100V180 1200 R35L///// R35R///// RA BCFG BKN004 OVC020 14/14 Q1021 NOSIG
13-10-22 METAR LIMC 221920Z VRB02KT 1800 DZ BR BKN005 OVC020 14/14 Q1021 NOSIG
13-10-22 METAR LIMC 221950Z VRB03KT 1800 DZ BR BKN005 OVC020 14/14 Q1021 NOSIG
13-10-22 METAR LIMC 222020Z VRB02KT 1800 RA BR BKN010 OVC040 14/14 Q1021 NOSIG
13-10-22 METAR LIMC 222050Z 13003KT 070V180 1400 R35L///// R35R///// RA BR BKN005 OVC030 14/14 Q1021 NOSIG
13-10-22 METAR LIMC 222120Z VRB02KT 1400 R35L///// R35R///// RA BR BKN005 OVC030
13-10-22 METAR LIMC 222150Z 00000KT 1100 R35L///// RA BR BKN003 OVC030 14/14 Q1020
13-10-22 METAR LIMC 222220Z VRB01KT 0800 R35L///// FG -RA BKN003 OVC030 14/14 Q1020 RERA NOSIG
13-10-22 METAR LIMC 222250Z 34002KT 0800 R35L/1500N FG RA BKN003 OVC030 14/14 Q1020
13-10-22 METAR LIMC 222320Z 33003KT 300V010 0900 R35L///// FG RA BKN003 OVC030 14/14 Q1020 NOSIG
13-10-22 METAR LIMC 222350Z VRB02KT 0900 R35L///// FG RA BKN003 OVC030 14/14 Q1020
13-10-23 METAR LIMC 230020Z VRB02KT 0900 R35L///// FG RA BKN003 OVC030 14/14 Q1020 NOSIG
13-10-23 METAR LIMC 230050Z 13003KT 100V210 1100 R35L///// RA BR SCT006 OVC030 15/14 Q1020 NOSIG
13-10-23 METAR LIMC 230120Z 13006KT 090V150 1100 R35L///// -RA BR SCT006 OVC030 15/14 Q1019 RERA NOSIG
13-10-23 METAR LIMC 230150Z 12006KT 090V160 1100 R35L///// -RA BR BKN005 OVC030 15/14 Q1019 NOSIG
13-10-23 METAR LIMC 230220Z 12004KT 060V180 1100 R35L///// -RA BR BKN005 OVC030
13-10-23 METAR LIMC 230250Z 11004KT 050V180 1100 R35L///// -RA BR BKN005 OVC030 15/14 Q1018 NOSIG
13-10-23 METAR LIMC 230320Z 12009KT 1100 R35L///// -RA BR BKN005 OVC030 15/15 Q1018
13-10-23 METAR LIMC 230350Z 13007KT 100V160 1800 -RA BR BKN010 OVC030 15/14 Q1018
13-10-23 METAR LIMC 230520Z 14005KT 100V200 3200 -RA BR BKN007 OVC030 15/14 Q1017
13-10-23 METAR LIMC 230550Z 13007KT 090V170 3000 RA BR BKN007 OVC030 15/15 Q1017 RESHRA NOSIG
13-10-23 METAR LIMC 230620Z 13010G22KT 070V170 3000 RA BR BKN007 OVC030 15/15 Q1017
13-10-23 METAR LIMC 230650Z 13009KT 100V170 2000 RA BR BKN007 OVC030 15/14 Q1017
13-10-23 METAR LIMC 230720Z 12010KT 2500 RA BR BKN007 OVC030 15/14 Q1017 NOSIG
13-10-23 METAR LIMC 230750Z 12011KT 2500 -RA BR BKN007 OVC030 15/14 Q1017 RERA
13-10-23 METAR LIMC 230820Z 13011G23KT 090V170 2500 RA BR BKN008 OVC030 16/14 Q1017
13-10-23 METAR LIMC 230850Z 14008KT 120V180 3000 -RA BR BKN008 OVC030 16/14 Q1018 RERA NOSIG
13-10-23 METAR LIMC 230920Z 14009KT 100V160 3000 -RA BR BKN010 OVC030 16/14 Q1018
13-10-23 METAR LIMC 230950Z 14007KT 100V190 3000 -RA BR BKN010 OVC030 15/15 Q1018
13-10-23 METAR LIMC 231020Z 14006KT 2000 RA BR BKN010 OVC030 15/15 Q1018 NOSIG
13-10-23 METAR LIMC 231050Z 13004KT 070V180 1700 RA BR BKN010 OVC030 16/15 Q1018
13-10-23 METAR LIMC 231120Z 11007KT 080V140 1700 RA BR BKN010 OVC030 16/15 Q1017
13-10-23 METAR LIMC 231150Z 13006G17KT 080V160 1700 RA BR BKN010 OVC030 16/15 Q1017
13-10-23 METAR LIMC 231220Z 11005G15KT 060V160 1700 -RA BR FEW004 BKN010 OVC030 16/15 Q1017 RERA NOSIG
13-10-23 METAR LIMC 231250Z 11006KT 2000 -RA BR FEW004 BKN010 OVC030 16/15 Q1017
13-10-23 METAR LIMC 231320Z 11006KT 070V140 4000 BR FEW005 BKN010 OVC030 16/15 Q1016
13-10-23 METAR LIMC 231350Z 12005KT 090V150 3000 -RA BR FEW005 BKN010 OVC030 16/15 Q1017 NOSIG
13-10-23 METAR LIMC 231420Z 12004KT 080V150 4000 -RA BR FEW005 BKN010 OVC030 16/15 Q1016 NOSIG
13-10-23 METAR LIMC 231450Z 10003KT 060V150 1600 RA BR FEW005 BKN010 OVC030 16/15
13-10-23 METAR LIMC 231520Z VRB02KT 1800 RA BR FEW003 BKN010 OVC030 16/15 Q1016
13-10-23 METAR LIMC 231550Z VRB02KT 1800 RA BR FEW003 BKN010 OVC030 16/15 Q1016
13-10-23 METAR LIMC 231620Z VRB01KT 2500 RA BR FEW005 BKN010 OVC030 16/15 Q1016
13-10-23 METAR LIMC 231650Z 17003KT 130V200 2500 RA BR SCT005 BKN010 OVC030 16/15
13-10-23 METAR LIMC 231720Z 18003KT 150V210 1000 R35L///// R35R///// RA BR BKN005 OVC025 16/15 Q1016 NOSIG
13-10-23 METAR LIMC 231750Z 26006KT 3000 -RA BR FEW004 BKN010 OVC025 16/15 Q1017
13-10-23 METAR LIMC 231820Z VRB01KT 3000 +RA BR FEW004 BKN010 OVC025 16/15 Q1017
13-10-23 METAR LIMC 231920Z VRB02KT 3000 BR BKN008 OVC025 16/16 Q1017 NOSIG
13-10-23 METAR LIMC 231950Z 10003KT 060V160 3000 BR BKN008 OVC025 16/16 Q1017 NOSIG
13-10-23 METAR LIMC 232020Z 11004KT 060V130 3000 BR BKN008 OVC025 16/16 Q1017 NOSIG
13-10-23 METAR LIMC 232120Z 13003KT 090V210 1600 RA BR BKN005 OVC020 16/16 Q1018
13-10-23 METAR LIMC 232150Z 00000KT 2000 -RA BR BKN005 OVC020 16/16 Q1017 RERA
13-10-23 METAR LIMC 232220Z VRB02KT 2000 DZ BR BKN005 OVC020 16/16 Q1017 NOSIG
13-10-23 METAR LIMC 232250Z 12004KT 090V150 2000 BR BKN005 OVC020 16/16 Q1018 REDZ
13-10-24 METAR LIMC 240020Z 15003KT 120V180 1200 R35L///// BR BKN004 OVC020 16/16 Q1017 NOSIG
13-10-24 METAR LIMC 240050Z 13003KT 0600 R35L///// -RA FG BKN003 OVC020 16/16 Q1018
13-10-24 METAR LIMC 240120Z 09003KT 050V120 0400 R35L///// RA FG BKN003 OVC020 16/16 Q1018 NOSIG
13-10-24 METAR LIMC 240150Z 04002KT 0400 R35L///// RA FG BKN003 OVC020 16/16 Q1017
13-10-24 METAR LIMC 240220Z 09003KT 0400 R35L/1500N RA FG BKN003 OVC020 16/16 Q1017
13-10-24 METAR LIMC 240250Z 10003KT 070V140 0600 R35L/1000V1500U RA FG BKN003 OVC020 16/16 Q1018 NOSIG
13-10-24 METAR LIMC 240320Z VRB02KT 0600 R35L///// RA FG BKN003 OVC020 16/16 Q1018
13-10-24 METAR LIMC 240350Z VRB02KT 0800 R35L///// RA FG BKN003 OVC020 16/16 Q1018
13-10-24 METAR LIMC 240420Z 06004KT 1200 R35L///// R35R///// RA BR BKN004 OVC020 16/15 Q1018 NOSIG
13-10-24 METAR LIMC 240450Z 03006KT 2500 DZ BR BKN005 OVC020 15/15 Q1018 RERA NOSIG
13-10-24 METAR LIMC 240520Z 05006KT 2500 BR BKN005 OVC020 15/14 Q1018 REDZ NOSIG
13-10-24 METAR LIMC 240550Z 06005KT 4000 BR SCT008 OVC025 15/14 Q1019 NOSIG
13-10-24 METAR LIMC 240620Z 04005G16KT 310V080 8000 SCT008 OVC025 15/14 Q1019 NOSIG
13-10-24 METAR LIMC 240650Z 03003KT 8000 SCT008 OVC025 15/14 Q1020 NOSIG
13-10-24 METAR LIMC 240720Z 05005KT 360V070 8000 SCT008 OVC025 15/14 Q1020 NOSIG
13-10-24 METAR LIMC 240750Z VRB02KT 2500 VCSH BR BKN006 OVC025 15/14 Q1020 NOSIG
13-10-24 METAR LIMC 240820Z 36004KT 330V040 2200 VCSH BR BKN003 OVC020 15/14 Q1021
13-10-24 METAR LIMC 240850Z 01004KT 340V050 3500 BR BKN003 OVC020 15/14 Q1021 NOSIG
13-10-24 METAR LIMC 240920Z 03004KT 330V050 1600 BR BKN003 OVC020 15/15 Q1021 NOSIG
13-10-24 METAR LIMC 240950Z 04004KT 340V090 1200 R35L///// R35R/1500N BR BKN003 OVC020 15/15 Q1022 NOSIG
13-10-24 METAR LIMC 241020Z 01005KT 310V070 1500 BR BKN003 OVC020 16/15 Q1022 NOSIG
13-10-24 METAR LIMC 241050Z 03004KT 340V070 2000 BR BKN003 OVC020 16/15 Q1021 NOSIG
13-10-24 METAR LIMC 241120Z 03005KT 330V070 1800 BR BKN003 OVC020 16/15 Q1021 NOSIG
13-10-24 METAR LIMC 241150Z 05003KT 350V110 3500 BR BKN003 OVC020 16/15 Q1021 NOSIG
13-10-24 METAR LIMC 241220Z 03004KT 340V060 3000 BR BKN005 OVC020 16/16 Q1021 NOSIG
13-10-24 METAR LIMC 241250Z 07003KT 360V110 3000 BR BKN005 OVC020 17/16 Q1021 NOSIG
13-10-24 METAR LIMC 241320Z VRB02KT 3000 BR BKN005 OVC020 17/16 Q1021 NOSIG
13-10-24 METAR LIMC 241350Z VRB02KT 3500 BR BKN005 OVC020 17/16 Q1021 NOSIG
13-10-24 METAR LIMC 241420Z VRB01KT 3500 BR BKN005 OVC020 17/16 Q1021 NOSIG
13-10-24 METAR LIMC 241450Z VRB01KT 3500 BR FEW005 BKN025 17/16 Q1021 NOSIG
13-10-24 METAR LIMC 241520Z VRB02KT 3500 BR SCT005 OVC025 17/16 Q1021 NOSIG
13-10-24 METAR LIMC 241550Z 28003KT 3500 BR SCT004 OVC025 17/16 Q1021 NOSIG
13-10-24 METAR LIMC 241620Z VRB02KT 3500 BR SCT004 OVC025 17/16 Q1021 NOSIG
13-10-24 METAR LIMC 241650Z 34002KT 3500 BR SCT005 OVC030 16/16 Q1021 NOSIG
13-10-24 METAR LIMC 241720Z 35004KT 5000 BR FEW005 OVC050 16/15 Q1022 NOSIG
13-10-24 METAR LIMC 241750Z 01005KT 340V040 6000 OVC050 16/16 Q1022 NOSIG
13-10-24 METAR LIMC 241820Z 36003KT 6000 BKN040 BKN070 16/15 Q1022 NOSIG
13-10-24 METAR LIMC 241850Z 01004KT 6000 SCT040 BKN070 16/15 Q1022 NOSIG
13-10-24 METAR LIMC 241920Z VRB02KT 5000 R35L///// R35R/0800V1500N BCFG SCT035 BKN070 16/15 Q1022 NOSIG
13-10-24 METAR LIMC 241950Z 06003KT 030V110 5000 BR SCT035 BKN070 16/15 Q1023 NOSIG
13-10-24 METAR LIMC 242020Z VRB03KT 5000 BR SCT035 BKN070 16/15 Q1023 NOSIG
13-10-24 METAR LIMC 242050Z 33002KT 5000 BR SCT035 BKN070 16/15 Q1023 NOSIG
13-10-24 METAR LIMC 242120Z 01003KT 5000 BR SCT035 BKN070 15/15 Q1023 NOSIG
13-10-24 METAR LIMC 242120Z NIL
13-10-24 METAR LIMC 242150Z 01003KT 5000 BR SCT035 BKN070 15/15 Q1023 NOSIG
13-10-24 METAR LIMC 242220Z VRB02KT 5000 BR SCT035 BKN070 15/15 Q1023 NOSIG
13-10-24 METAR LIMC 242250Z 34003KT 5000 BR SCT035 BKN070 14/14 Q1023 NOSIG
13-10-24 METAR LIMC 242320Z 35004KT 5000 BR SCT035 BKN070 14/14 Q1023 NOSIG
13-10-24 METAR LIMC 242350Z 34003KT 2500 R17L///// R35R/0900V1500N BR SCT035 BKN070 13/13 Q1023 NOSIG
13-10-25 METAR LIMC 250020Z 36002KT 2000 R17L/0800V1500U R35R///// BCFG SCT035 BKN070 13/13 Q1023 NOSIG
13-10-25 METAR LIMC 250050Z VRB02KT 2000 BR SCT050 13/13 Q1023 NOSIG
13-10-25 METAR LIMC 250120Z 34003KT 2500 BCFG SCT045 14/13 Q1023 NOSIG
13-10-25 METAR LIMC 250150Z 35003KT 2500 BCFG SCT040 14/14 Q1023 NOSIG
13-10-25 METAR LIMC 250220Z 36004KT 300V040 2500 BCFG SCT040 14/14 Q1022 NOSIG
13-10-25 METAR LIMC 250250Z NIL
13-10-25 METAR LIMC 250250Z 35003KT 330V030 2500 BCFG SCT040 14/13 Q1023 NOSIG
13-10-25 METAR LIMC 250320Z 32004KT 2500 BCFG SCT040 13/13 Q1023 NOSIG
13-10-25 METAR LIMC 250350Z 33004KT 2500 BCFG SCT040 14/13 Q1023 NOSIG
13-10-25 METAR LIMC 250420Z 35005KT 3500 BR SCT040 14/14 Q1023 NOSIG
13-10-25 METAR LIMC 250450Z VRB02KT 4500 BR BKN015 13/13 Q1023 NOSIG
13-10-25 METAR LIMC 250520Z NIL
13-10-25 METAR LIMC 250520Z 35004KT 6000 BKN010 14/14 Q1023 NOSIG
13-10-25 METAR LIMC 250550Z 35004KT 5000 MIFG BKN010 BKN050 14/13 Q1022 NOSIG
13-10-25 METAR LIMC 250620Z 33004KT 310V010 5000 2000W BR BKN015 13/13 Q1023 NOSIG
13-10-25 METAR LIMC 250650Z 01003KT 340V050 6000 FEW020 SCT070 15/14 Q1023 NOSIG
13-10-25 METAR LIMC 250720Z VRB01KT 7000 BKN060 15/14 Q1023 NOSIG
13-10-25 METAR LIMC 250750Z 33005KT 7000 BKN060 15/14 Q1024 NOSIG
13-10-25 METAR LIMC 250820Z 32004KT 290V360 4000 1500W BR SCT060 16/15 Q1024 NOSIG
13-10-25 METAR LIMC 250850Z 36003KT 310V040 4000 1500W BR SCT060 16/15 Q1024 NOSIG
13-10-25 METAR LIMC 250920Z 35004KT 310V050 4000 BR BKN060 16/15 Q1024 NOSIG
13-10-25 METAR LIMC 250950Z 35003KT 310V080 6000 BKN060 17/15 Q1024 NOSIG
13-10-25 METAR LIMC 251020Z VRB02KT 6000 FEW015 BKN060 17/15 Q1024 NOSIG
13-10-25 METAR LIMC 251050Z VRB01KT 7000 FEW020 BKN060 18/15 Q1024 NOSIG
13-10-25 METAR LIMC 251120Z 00000KT 8000 FEW020 BKN060 18/15 Q1023 NOSIG
13-10-25 METAR LIMC 251150Z VRB01KT 8000 FEW020 BKN060 19/15 Q1023 NOSIG
13-10-25 METAR LIMC 251220Z VRB02KT 9000 FEW030 BKN060 18/15 Q1023 NOSIG
13-10-25 METAR LIMC 251250Z VRB01KT 9000 FEW030 BKN060 19/15 Q1023 NOSIG
13-10-25 METAR LIMC 251320Z VRB02KT 9000 FEW030 BKN060 19/15 Q1023 NOSIG
13-10-25 METAR LIMC 251350Z VRB02KT 9000 SCT030 BKN080 19/14 Q1023 NOSIG
13-10-25 METAR LIMC 251420Z 18003KT 150V220 9000 SCT030 SCT080 18/15 Q1022 NOSIG
13-10-25 METAR LIMC 251450Z 21003KT 9000 SCT030 SCT080 19/15 Q1022 NOSIG
13-10-25 METAR LIMC 251520Z 21004KT 9000 FEW030 SCT080 18/15 Q1022 NOSIG
13-10-25 METAR LIMC 251550Z 20004KT 9000 FEW030 SCT080 17/15 Q1022 NOSIG
13-10-25 METAR LIMC 251620Z 00000KT 9000 FEW030 SCT080 17/15 Q1022 NOSIG
13-10-25 METAR LIMC 251650Z 00000KT 9000 FEW030 SCT080 16/15 Q1022 NOSIG
13-10-25 METAR LIMC 251720Z VRB01KT 9000 FEW030 SCT080 15/14 Q1023 NOSIG
13-10-25 METAR LIMC 251750Z VRB01KT 7000 2500E R35L///// R35R/1000V1500D BCFG FEW030 SCT080 15/14 Q1023 NOSIG
13-10-25 METAR LIMC 251820Z VRB01KT 7000 2000E BCFG FEW030 SCT080 14/14 Q1023 NOSIG
13-10-25 METAR LIMC 251850Z 00000KT 7000 2000E BCFG FEW030 SCT080 15/15 Q1023 NOSIG
13-10-25 METAR LIMC 251950Z NIL
13-10-25 METAR LIMC 251950Z 33002KT 4000 BR BKN030 BKN080 15/14 Q1023 NOSIG
13-10-25 METAR LIMC 252020Z 34003KT 310V040 4000 BR BKN030 BKN080 15/14 Q1023 NOSIG
13-10-25 METAR LIMC 252050Z VRB02KT 4000 BR SCT030 BKN080 15/14 Q1023 NOSIG
13-10-25 METAR LIMC 252120Z VRB01KT 4000 BR SCT030 BKN080 15/15 Q1023 NOSIG
13-10-25 METAR LIMC 252150Z 35003KT 4000 BR SCT030 BKN080 14/14 Q1023 NOSIG
13-10-25 METAR LIMC 252220Z 00000KT 3500 BR SCT030 BKN080 14/14 Q1023 NOSIG
13-10-25 METAR LIMC 252250Z VRB02KT 2500 BR BKN025 BKN070 14/13 Q1023 NOSIG
13-10-25 METAR LIMC 252320Z 32004KT 0800 R35L///// PRFG BKN025 BKN070 14/13 Q1023 NOSIG
13-10-25 METAR LIMC 252350Z 35004KT 3000 0800NW BCFG SCT025 BKN070 13/13 Q1023
13-10-26 METAR LIMC 260020Z 35004KT 2000 0600W VCFG FEW025 SCT070 13/13 Q1023 NOSIG
13-10-26 METAR LIMC 260050Z 35004KT 1500 0800NW R35L/0750V1500U BCFG FEW070 12/12 Q1023 NOSIG
13-10-26 METAR LIMC 260120Z 35004KT 2000 R35L/0600V1500D BCFG FEW070 12/12 Q1023
13-10-26 METAR LIMC 260150Z 35004KT 2000 BCFG FEW070 10/10 Q1023 NOSIG
13-10-26 METAR LIMC 260220Z 35005KT 2500 BCFG NSC 11/10 Q1023 NOSIG
13-10-26 METAR LIMC 260250Z 35002KT 2500 BCFG NSC 10/10 Q1023 NOSIG
13-10-26 METAR LIMC 260320Z 35005KT 2500 BCFG NSC 10/10 Q1023 NOSIG
13-10-26 METAR LIMC 260350Z 36004KT 2500 BCFG NSC 10/09 Q1023 NOSIG
13-10-26 METAR LIMC 260420Z 36004KT 2500 BCFG NSC 10/10 Q1023 NOSIG
13-10-26 METAR LIMC 260450Z 34006KT 3500 0900NE BCFG NSC 10/10 Q1023 NOSIG
13-10-26 METAR LIMC 260520Z 34005KT 2000 0800SE BCFG NSC 10/10 Q1023 NOSIG
13-10-26 METAR LIMC 260550Z 34005KT 1800 0800NE R35L///// R35R/0800V1500D BCFG NSC 10/10 Q1023 NOSIG
13-10-26 METAR LIMC 260620Z 34005KT 1200 0800E R35L/0550V1100N R35R/0350V1500U PRFG NSC 09/09 Q1023 NOSIG
13-10-26 METAR LIMC 260650Z 34005KT 2500 BR NSC 10/10 Q1024 NOSIG
13-10-26 METAR LIMC 260720Z 33004KT 4500 BR NSC 12/12 Q1024 NOSIG
13-10-26 METAR LIMC 260750Z 33005KT 6000 NSC 14/13 Q1024 NOSIG
13-10-26 METAR LIMC 260820Z 34004KT 320V030 6000 NSC 15/14 Q1024 NOSIG
13-10-26 METAR LIMC 260850Z 32004KT 6000 NSC 16/14 Q1024 NOSIG
13-10-26 METAR LIMC 260920Z 30004KT 250V010 6000 FEW070 17/15 Q1024 NOSIG
13-10-26 METAR LIMC 260950Z 28003KT 240V310 7000 SCT070 17/15 Q1024 NOSIG
13-10-26 METAR LIMC 261020Z 25003KT 210V290 9000 SCT070 18/14 Q1024 NOSIG
13-10-26 METAR LIMC 261050Z 22005KT 180V260 9999 SCT090 18/15 Q1023 NOSIG
13-10-26 METAR LIMC 261120Z 26004KT 220V280 9999 SCT090 19/15 Q1023 NOSIG
13-10-26 METAR LIMC 261150Z 23005KT 9999 SCT090 19/15 Q1023 NOSIG
13-10-26 METAR LIMC 261220Z 23005KT 190V260 9999 SCT080 19/14 Q1023 NOSIG
13-10-26 METAR LIMC 261250Z 23005KT 200V270 9999 SCT080 19/14 Q1022 NOSIG
13-10-26 METAR LIMC 261320Z 23004KT 170V280 9999 SCT080 20/14 Q1022 NOSIG
13-10-26 METAR LIMC 261350Z 21004KT 180V240 9999 SCT080 20/14 Q1022 NOSIG
13-10-26 METAR LIMC 261420Z 23003KT 200V260 9999 SCT080 20/14 Q1022 NOSIG
13-10-26 METAR LIMC 261450Z 20003KT 150V230 9999 SCT080 19/14 Q1022 NOSIG
13-10-26 METAR LIMC 261520Z 19003KT 9999 FEW090 19/14 Q1022 NOSIG
13-10-26 METAR LIMC 261550Z 17003KT 9999 FEW090 18/14 Q1022 NOSIG
13-10-26 METAR LIMC 261620Z 16004KT 9000 NSC 17/14 Q1023 NOSIG
13-10-26 METAR LIMC 261650Z 17003KT 8000 NSC 16/13 Q1023 NOSIG
13-10-26 METAR LIMC 261720Z 00000KT 8000 NSC 14/14 Q1023 NOSIG
13-10-26 METAR LIMC 261750Z 02002KT 8000 NSC 14/13 Q1023 NOSIG
13-10-26 METAR LIMC 261820Z 00000KT 8000 NSC 13/12 Q1024 NOSIG
13-10-26 METAR LIMC 261850Z VRB02KT 8000 NSC 12/12 Q1024 NOSIG
13-10-26 METAR LIMC 261920Z VRB02KT 8000 2000E BCFG NSC 14/13 Q1024 NOSIG
13-10-26 METAR LIMC 261950Z 36003KT 8000 2000E BCFG NSC 13/12 Q1024 NOSIG
13-10-26 METAR LIMC 262020Z VRB02KT 8000 NSC 14/13 Q1024 NOSIG
13-10-26 METAR LIMC 262050Z VRB01KT 8000 NSC 14/13 Q1024 NOSIG
13-10-26 METAR LIMC 262120Z VRB02KT CAVOK 14/13 Q1024 NOSIG
13-10-26 METAR LIMC 262150Z VRB02KT CAVOK 15/14 Q1024 NOSIG
13-10-26 METAR LIMC 262220Z 35003KT CAVOK 15/14 Q1024 NOSIG
13-10-26 METAR LIMC 262250Z 36003KT CAVOK 15/14 Q1024 NOSIG
13-10-26 METAR LIMC 262320Z 34004KT CAVOK 15/14 Q1024 NOSIG
13-10-26 METAR LIMC 262350Z 34003KT 9999 SCT030 15/14 Q1024 NOSIG
13-10-27 METAR LIMC 270020Z 34004KT 9999 SCT030 15/14 Q1023 NOSIG
13-10-27 METAR LIMC 270050Z 33004KT 9999 SCT030 15/14 Q1024 NOSIG
13-10-27 METAR LIMC 270120Z 36005KT 9999 SCT030 15/14 Q1023 NOSIG
13-10-27 METAR LIMC 270150Z 01004KT 9999 SCT030 15/14 Q1023 NOSIG
13-10-27 METAR LIMC 270220Z 35004KT 310V060 9999 SCT030 15/14 Q1023 NOSIG
13-10-27 METAR LIMC 270250Z 35005KT 9999 SCT030 15/14 Q1022 NOSIG
13-10-27 METAR LIMC 270320Z 01003KT 9999 SCT030 15/14 Q1022 NOSIG
13-10-27 METAR LIMC 270350Z 33003KT 9999 SCT030 15/14 Q1022 NOSIG
13-10-27 METAR LIMC 270420Z 34003KT 9999 BKN030 15/14 Q1022 NOSIG
13-10-27 METAR LIMC 270450Z 04002KT 9999 BKN030 15/14 Q1021 NOSIG
13-10-27 METAR LIMC 270520Z 34003KT 9999 RA BKN030 15/14 Q1021 NOSIG
13-10-27 METAR LIMC 270550Z 34004KT 9999 -RA BKN030 15/14 Q1021 RERA NOSIG
13-10-27 METAR LIMC 270620Z 36006KT 320V050 4000 -RA OVC025 15/14 Q1021 RERA NOSIG
13-10-27 METAR LIMC 270650Z 36004KT 4000 -RA OVC025 15/14 Q1021 NOSIG
13-10-27 METAR LIMC 270720Z 01005KT 340V040 3500 -RA BR OVC025 15/14 Q1021 NOSIG
13-10-27 METAR LIMC 270750Z 36004KT 340V050 2500 -RA BR OVC020 15/14 Q1021 NOSIG
13-10-27 METAR LIMC 270820Z 36005KT 340V070 2500 -RA BR SCT009 OVC020 15/14 Q1021 NOSIG
13-10-27 METAR LIMC 270850Z 35003KT 330V030 2500 -RA BR SCT009 OVC020 15/15 Q1021
13-10-27 METAR LIMC 270920Z VRB02KT 2500 -RA BR SCT009 OVC020 15/15 Q1021 NOSIG
13-10-27 METAR LIMC 270950Z 35003KT 320V080 3000 -RA BR SCT011 OVC020 15/15 Q1020
13-10-27 METAR LIMC 271020Z 36004KT 3000 -RA BR SCT011 OVC020 15/15 Q1020 NOSIG
13-10-27 METAR LIMC 271050Z 01003KT 330V060 3000 -RA BR SCT009 OVC020 16/15 Q1020
13-10-27 METAR LIMC 271120Z VRB02KT 3000 -RA BR SCT009 OVC020 16/15 Q1020 NOSIG
13-10-27 METAR LIMC 271150Z VRB02KT 3000 BR SCT008 OVC020 16/15 Q1020 NOSIG
13-10-27 METAR LIMC 271220Z VRB02KT 3000 BR SCT007 OVC020 16/15 Q1020 NOSIG
13-10-27 METAR LIMC 271250Z 10003KT 030V180 2500 R35L/1500N R35R/1400V1500N BR SCT006 OVC020 16/16 Q1019 NOSIG
13-10-27 METAR LIMC 271320Z NIL
13-10-27 METAR LIMC 271350Z NIL
13-10-27 METAR LIMC 271420Z NIL
13-10-27 METAR LIMC 271450Z NIL
13-10-27 METAR LIMC 271520Z NIL
13-10-27 METAR LIMC 271550Z NIL
13-10-27 METAR LIMC 271620Z NIL
13-10-27 METAR LIMC 271620Z 31004KT 310V020 3000 BR SCT010 OVC030 16/15 Q1018 NOSIG
13-10-27 METAR LIMC 271620Z AUTO 34004KT 310V020 3000 BR SCT010 OVC030 16/15 Q1018
13-10-27 METAR LIMC 271650Z NIL
13-10-27 METAR LIMC 271750Z 34005KT 4000 BR SCT010 OVC030 16/15 Q1019 NOSIG
13-10-27 METAR LIMC 271820Z 34007KT 4000 BR SCT010 OVC030 16/15 Q1019 NOSIG
13-10-27 METAR LIMC 271820Z AUTO 34007KT 4000 BR SCT010 OVC030 16/15 Q1019 NOSIG
13-10-27 METAR LIMC 271850Z AUTO 34004KT 4000 BR SCT010 OVC030 16/15 Q1019 NOSIG
13-10-27 METAR LIMC 271920Z AUTO 35006KT 4000 BR SCT010 OVC030 16/15 Q1019 NOSIG
13-10-27 METAR LIMC 271950Z VRB02KT 4000 BR SCT010 OVC030 15/15 Q1019 NOSIG
13-10-27 METAR LIMC 272020Z VRB02KT 4500 BR BKN030 15/15 Q1019 NOSIG
13-10-27 METAR LIMC 272050Z 33004KT 4500 BR BKN030 15/15 Q1019 NOSIG
13-10-27 METAR LIMC 272120Z 36004KT 4500 BR BKN030 15/14 Q1019 NOSIG
13-10-27 METAR LIMC 272150Z 34003KT 4500 BR BKN030 15/14 Q1019 NOSIG
13-10-27 METAR LIMC 272220Z VRB01KT 4500 BR BKN030 15/14 Q1019 NOSIG
13-10-27 METAR LIMC 272250Z 34003KT 5000 BR BKN030 15/14 Q1019 NOSIG
13-10-27 METAR LIMC 272320Z 35005KT 5000 BR BKN030 15/14 Q1019 NOSIG
13-10-27 METAR LIMC 272350Z 33006KT 5000 BR BKN030 15/14 Q1019 NOSIG
13-10-28 METAR LIMC 280020Z 34006KT 5000 BR BKN030 14/14 Q1019 NOSIG
13-10-28 METAR LIMC 280050Z 35005KT 5000 BR BKN030 14/14 Q1019 NOSIG
13-10-28 METAR LIMC 280120Z VRB02KT 5000 BR BKN030 14/14 Q1018 NOSIG
13-10-28 METAR LIMC 280150Z 33003KT 5000 BR BKN030 15/14 Q1018 NOSIG
13-10-28 METAR LIMC 280220Z 32004KT 5000 BR BKN030 15/14 Q1018 NOSIG
13-10-28 METAR LIMC 280250Z 34005KT 6000 BKN030 15/14 Q1018 NOSIG
13-10-28 METAR LIMC 280320Z 02003KT 340V040 6000 BKN030 15/14 Q1017 NOSIG
13-10-28 METAR LIMC 280350Z 34003KT 6000 BKN030 15/14 Q1017 NOSIG
13-10-28 METAR LIMC 280420Z VRB01KT 6000 BKN030 15/14 Q1017 NOSIG
13-10-28 METAR LIMC 280450Z VRB01KT 6000 BKN030 14/14 Q1017 NOSIG
13-10-28 METAR LIMC 280520Z 34003KT 6000 BKN050 14/13 Q1017 NOSIG
13-10-28 METAR LIMC 280550Z VRB02KT 5000 BR BKN050 14/14 Q1017 NOSIG
13-10-28 METAR LIMC 280620Z 36003KT 330V030 8000 BKN050 15/14 Q1017 NOSIG
13-10-28 METAR LIMC 280650Z 35003KT 330V040 8000 BKN050 15/14 Q1017 NOSIG
13-10-28 METAR LIMC 280720Z 34002KT 8000 BKN050 15/14 Q1018 NOSIG
13-10-28 METAR LIMC 280750Z 35003KT 330V030 8000 BKN060 16/14 Q1018 NOSIG
13-10-28 METAR LIMC 280820Z VRB04KT 9999 BKN060 16/14 Q1018 NOSIG
13-10-28 METAR LIMC 280850Z 08003KT 040V130 9999 BKN060 17/15 Q1018 NOSIG
13-10-28 METAR LIMC 280920Z VRB02KT 9999 BKN060 17/15 Q1018 NOSIG
13-10-28 METAR LIMC 280950Z VRB02KT 9999 BKN070 18/15 Q1018 NOSIG
13-10-28 METAR LIMC 281020Z 10003KT 350V160 9999 BKN070 19/15 Q1018 NOSIG
13-10-28 METAR LIMC 281050Z VRB02KT 9999 BKN070 19/15 Q1017 NOSIG
13-10-28 METAR LIMC 281120Z VRB02KT 9999 BKN060 19/15 Q1017 NOSIG
13-10-28 METAR LIMC 281150Z 17004KT 130V210 9999 BKN050 19/15 Q1016 NOSIG
13-10-28 METAR LIMC 281220Z 21003KT 9999 BKN050 19/15 Q1016 NOSIG
13-10-28 METAR LIMC 281250Z VRB02KT 9999 BKN050 21/15 Q1016 NOSIG
13-10-28 METAR LIMC 281320Z 19004KT 130V270 9999 BKN030 21/14 Q1016 NOSIG
13-10-28 METAR LIMC 281350Z 15003KT 100V200 9999 BKN030 20/14 Q1016 NOSIG
13-10-28 METAR LIMC 281420Z 17003KT 110V270 9999 FEW020TCU SCT030 21/14 Q1016 NOSIG
13-10-28 METAR LIMC 281450Z 16005KT 9999 FEW020TCU SCT030 19/14 Q1016 NOSIG
13-10-28 METAR LIMC 281520Z 16004KT 100V200 9999 FEW030 19/14 Q1015 NOSIG
13-10-28 METAR LIMC 281550Z 16003KT 9999 FEW030 18/14 Q1015 NOSIG
13-10-28 METAR LIMC 281620Z 00000KT 9999 FEW030 17/14 Q1015 NOSIG
13-10-28 METAR LIMC 281650Z VRB02KT CAVOK 15/14 Q1015 NOSIG
13-10-28 METAR LIMC 281720Z VRB02KT CAVOK 16/13 Q1016 NOSIG
13-10-28 METAR LIMC 281750Z VRB02KT CAVOK 15/13 Q1016 NOSIG
13-10-28 METAR LIMC 281820Z VRB03G14KT CAVOK 16/14 Q1016 NOSIG
13-10-28 METAR LIMC 281850Z 35004KT 300V360 9999 FEW030 14/13 Q1016 NOSIG
13-10-28 METAR LIMC 281920Z VRB02KT 9999 SCT040 14/13 Q1016 NOSIG
13-10-28 METAR LIMC 281950Z 35004KT 9999 SCT040 14/13 Q1016 NOSIG
13-10-28 METAR LIMC 282020Z 36004KT 9999 BKN050 15/13 Q1016 NOSIG
13-10-28 METAR LIMC 282050Z 36004KT 330V040 8000 BKN050 15/14 Q1016 NOSIG
13-10-28 METAR LIMC 282120Z 35006KT 8000 BKN050 15/14 Q1015 NOSIG
13-10-28 METAR LIMC 282150Z 36005KT 8000 BKN050 16/14 Q1015 NOSIG
13-10-28 METAR LIMC 282220Z 01003KT 8000 BKN050 15/14 Q1015 NOSIG
13-10-28 METAR LIMC 282250Z 34004KT 310V010 8000 BKN050 15/14 Q1015 NOSIG
13-10-28 METAR LIMC 282320Z 34003KT 310V010 8000 BKN050 15/14 Q1015 NOSIG
13-10-28 METAR LIMC 282350Z VRB01KT 8000 BKN050 15/14 Q1014 NOSIG
13-10-29 METAR LIMC 290020Z 31005KT 8000 BKN050 15/14 Q1014 NOSIG
13-10-29 METAR LIMC 290050Z 36005KT 8000 BKN050 15/14 Q1014 NOSIG
13-10-29 METAR LIMC 290120Z 33003KT 8000 BKN050 15/14 Q1014 NOSIG
13-10-29 METAR LIMC 290150Z 35004KT 8000 BKN050 15/14 Q1014 NOSIG
13-10-29 METAR LIMC 290220Z 34005KT 8000 BKN050 15/14 Q1013 NOSIG
13-10-29 METAR LIMC 290250Z 35004KT 8000 BKN050 15/14 Q1013 NOSIG
13-10-29 METAR LIMC 290350Z 36005KT 8000 BKN050 15/14 Q1013 NOSIG
13-10-29 METAR LIMC 290520Z VRB02KT 8000 BKN050 15/14 Q1013 NOSIG
13-10-29 METAR LIMC 290550Z VRB03KT 8000 BKN050 16/14 Q1013 NOSIG
13-10-29 METAR LIMC 290620Z 34003KT 8000 BKN050 15/14 Q1013 NOSIG
13-10-29 METAR LIMC 290650Z 04002KT 4000 BR BKN050 16/15 Q1014 NOSIG
13-10-29 METAR LIMC 290720Z 36003KT 310V060 4000 BR SCT006 BKN040 16/14 Q1014 NOSIG
13-10-29 METAR LIMC 290750Z 33003KT 300V030 4000 BR SCT006 BKN040 16/15 Q1014 NOSIG
13-10-29 METAR LIMC 290820Z VRB03KT 4000 BR SCT006 BKN040 17/15 Q1014 NOSIG
13-10-29 METAR LIMC 290850Z 06003KT 340V120 2000 BR SCT006 BKN030 17/15 Q1014 NOSIG
13-10-29 METAR LIMC 290950Z 13004KT 1800 BR BKN006 BKN030 17/16 Q1014 NOSIG
13-10-29 METAR LIMC 291120Z 12004KT 080V190 2000 BR BKN008 BKN030 18/15 Q1014 NOSIG
13-10-29 METAR LIMC 291150Z 10003KT 040V200 2000 BR BKN008 BKN030 18/16 Q1013 NOSIG
13-10-29 METAR LIMC 291220Z 13004KT 100V160 2000 BR BKN008 BKN030 18/16 Q1014 NOSIG
13-10-29 METAR LIMC 291350Z 13005KT 2000 BR BKN008 BKN030 18/16 Q1013 NOSIG
13-10-29 METAR LIMC 291450Z 11005KT 2500 BR SCT008 BKN015 OVC045 18/16 Q1013 NOSIG
13-10-29 METAR LIMC 291520Z 11006KT 060V150 2500 BR SCT008 BKN015 BKN045 18/16 Q1013 NOSIG
13-10-29 METAR LIMC 291550Z NIL
13-10-29 METAR LIMC 291550Z 12004KT 080V150 2200 BR SCT008 BKN015 BKN050 17/15 Q1014
13-10-29 METAR LIMC 291620Z VRB05KT 2000 BR SCT008 BKN015 BKN050 17/15 Q1014 NOSIG
13-10-29 METAR LIMC 291650Z 11003KT 030V180 3000 BR BKN015 BKN050 17/15 Q1014 NOSIG
13-10-29 METAR LIMC 291720Z 11004KT 3000 BR BKN015 BKN050 17/15 Q1014 NOSIG
13-10-29 METAR LIMC 291750Z 10003KT 060V150 3000 BR SCT015 BKN050 17/15 Q1014 NOSIG
13-10-29 METAR LIMC 291820Z VRB02KT 3000 BR SCT015 BKN050 16/15 Q1014 NOSIG
13-10-29 METAR LIMC 291850Z VRB02KT 3000 BR BKN015 BKN050 17/16 Q1015 NOSIG
13-10-29 METAR LIMC 291920Z VRB02KT 2000 BR BKN015 BKN050 16/16 Q1014 RERA NOSIG
13-10-29 METAR LIMC 291950Z 08004KT 050V110 2400 BR BKN012 BKN050 17/16 Q1014 NOSIG
13-10-29 METAR LIMC 292050Z 09004KT 060V130 3000 BR SCT010 BKN030 16/15 Q1015 NOSIG
13-10-29 METAR LIMC 292120Z 08004KT 360V160 4000 BR SCT010 BKN030 16/15 Q1015 NOSIG
13-10-29 METAR LIMC 292150Z 08003KT 020V130 4000 BR SCT010 BKN030 16/15 Q1015 NOSIG
13-10-29 METAR LIMC 292220Z 07005KT 4000 BR SCT010 BKN030 16/15 Q1015 NOSIG
13-10-29 METAR LIMC 292320Z 08005KT 030V110 3000 BR SCT006 BKN030 16/15 Q1015 NOSIG
13-10-29 METAR LIMC 292350Z 02003KT 330V040 2500 BR BKN006 BKN030 16/15 Q1015 NOSIG
13-10-30 METAR LIMC 300020Z 07005KT 2500 BR BKN006 BKN030 16/15 Q1015 NOSIG
13-10-30 METAR LIMC 300150Z 09006KT 040V120 2500 BR BKN006 BKN030 16/15 Q1015 NOSIG
13-10-30 METAR LIMC 300120Z 08005KT 040V110 2500 BR BKN006 BKN030 16/15 Q1015 NOSIG
13-10-30 METAR LIMC 300220Z 09003KT 050V130 2500 BR BKN006 BKN030 16/14 Q1015 NOSIG
13-10-30 METAR LIMC 300250Z 07003KT 030V110 2500 BR BKN006 BKN030 16/14 Q1015 NOSIG
13-10-30 METAR LIMC 300320Z 04003KT 2500 BR BKN006 BKN030 15/14 Q1015 NOSIG
13-10-30 METAR LIMC 300350Z 35003KT 320V030 2500 -RA BR BKN006 BKN030 15/14 Q1016 NOSIG
13-10-30 METAR LIMC 300420Z 03006KT 340V070 2500 -RA BR BKN008 BKN030 15/14 Q1016
13-10-30 METAR LIMC 300450Z 03008KT 5000 BR BKN008 BKN030 14/13 Q1016 NOSIG
13-10-30 METAR LIMC 300520Z 03008KT 5000 BR BKN015 BKN060 14/12 Q1016 NOSIG
13-10-30 METAR LIMC 300550Z 02010G20KT 9999 BKN020 BKN060 14/11 Q1016 NOSIG
13-10-30 METAR LIMC 300650Z 01006KT 9999 BKN025 BKN060 14/12 Q1017 NOSIG
13-10-30 METAR LIMC 300720Z VRB02KT 9999 BKN045 14/12 Q1017 NOSIG
13-10-30 METAR LIMC 300750Z 33005KT 9999 BKN045 14/12 Q1018 NOSIG
13-10-30 METAR LIMC 300820Z VRB05KT 9999 BKN045 15/12 Q1018 NOSIG
13-10-30 METAR LIMC 300850Z 05004KT 360V080 9999 BKN045 15/12 Q1018 NOSIG
13-10-30 METAR LIMC 300920Z 02007KT 9999 BKN045 16/11 Q1019 NOSIG
13-10-30 METAR LIMC 300950Z 02004KT 320V070 9999 BKN045 16/12 Q1019 NOSIG
13-10-30 METAR LIMC 301020Z 34005KT 9999 BKN045 16/12 Q1018 NOSIG
13-10-30 METAR LIMC 301050Z 35004KT 320V020 9999 BKN045 17/12 Q1018 NOSIG
13-10-30 METAR LIMC 301120Z 35005KT 9999 BKN045 17/11 Q1018 NOSIG
13-10-30 METAR LIMC 301150Z 36004KT 310V050 9999 SCT045 SCT080 18/10 Q1018 NOSIG
13-10-30 METAR LIMC 301220Z VRB02KT 9999 SCT045 SCT065 19/09 Q1018 NOSIG
13-10-30 METAR LIMC 301250Z VRB03KT 9999 SCT045 SCT065 19/09 Q1018 NOSIG
13-10-30 METAR LIMC 301320Z 12004KT 080V160 9999 SCT045 BKN070 19/11 Q1018 NOSIG
13-10-30 METAR LIMC 301350Z 12004KT 060V190 9999 SCT050 BKN080 19/09 Q1018 NOSIG
13-10-30 METAR LIMC 301420Z 14004KT 9999 BKN050 BKN080 18/11 Q1018 NOSIG
13-10-30 METAR LIMC 301450Z 12006KT 080V170 9999 BKN050 BKN080 17/13 Q1018 NOSIG
13-10-30 METAR LIMC 301520Z VRB04KT 9999 BKN050 BKN080 16/12 Q1018 NOSIG
13-10-30 METAR LIMC 301550Z 07006KT 9999 BKN050 BKN080 16/12 Q1019 NOSIG
13-10-30 METAR LIMC 301720Z 08005KT 040V110 9999 DZ BKN020 BKN050 15/13 Q1020 NOSIG
13-10-30 METAR LIMC 301750Z 05005KT 310V100 8000 RA BKN020 BKN050 15/14 Q1020 REDZ
13-10-30 METAR LIMC 301820Z 35005KT 310V020 6000 RA BKN020 BKN050 14/13 Q1020 NOSIG
13-10-30 METAR LIMC 301850Z 01006KT 330V060 7000 RA BKN015 BKN050 14/13 Q1020 NOSIG
13-10-30 METAR LIMC 301920Z 36003KT 330V040 9999 -RA BKN020 BKN050 14/13 Q1020 RERA
13-10-30 METAR LIMC 301950Z 01005KT 340V050 9999 RA BKN020 BKN050 14/13 Q1021 NOSIG
13-10-30 METAR LIMC 302020Z 04004KT 340V070 9999 RA BKN020 BKN050 14/13 Q1021 NOSIG
13-10-30 METAR LIMC 302050Z 09005KT 060V150 7000 RA BKN020 BKN050 13/13 Q1022 NOSIG
13-10-30 METAR LIMC 302120Z 03007KT 360V090 3000 +RA BKN015 OVC045 13/12 Q1022
13-10-30 METAR LIMC 302150Z 03009KT 340V060 3000 +RA BKN015 OVC045 13/12 Q1022
13-10-30 METAR LIMC 302220Z 02005KT 350V050 4000 RA BR BKN015 BKN045 13/12 Q1022
13-10-30 METAR LIMC 302250Z 02004KT 350V050 2500 +RA BR BKN015 BKN045 13/13 Q1022
13-10-30 METAR LIMC 302320Z 36004KT 330V040 4000 RA BR BKN015 BKN045 13/13 Q1023
13-10-30 METAR LIMC 302350Z 36006KT 4500 RA BR BKN015 BKN045 14/13 Q1023 NOSIG
13-10-31 METAR LIMC 310020Z 36006KT 3500 +RA BR BKN015 BKN045 13/13 Q1023 NOSIG
13-10-31 METAR LIMC 310050Z 35005KT 3500 +RA BR BKN015 BKN045 13/13 Q1023 NOSIG
13-10-31 METAR LIMC 310120Z 35005KT 3500 RA BR BKN015 BKN045 13/13 Q1023 NOSIG
13-10-31 METAR LIMC 310150Z 35008KT 3000 +RA BR SCT006 BKN012 BKN045 13/12 Q1023 NOSIG
13-10-31 METAR LIMC 310220Z 36006KT 3000 RA BR BKN008 BKN040 13/12 Q1023 NOSIG
13-10-31 METAR LIMC 310250Z 36005KT 310V090 3000 RA BR BKN008 BKN040 13/12 Q1023
13-10-31 METAR LIMC 310320Z 32010KT 8000 RA BKN015 BKN040 13/12 Q1023 NOSIG
13-10-31 METAR LIMC 310350Z 35006KT 8000 RA BKN015 BKN040 13/12 Q1024 NOSIG
13-10-31 METAR LIMC 310420Z 01005KT 330V040 8000 -RA BKN020 BKN045 13/12 Q1024 RERA
13-10-31 METAR LIMC 310450Z 35008KT 8000 -RA BKN020 BKN045 13/12 Q1024 NOSIG
13-10-31 METAR LIMC 310550Z 36005KT 9999 BKN020 BKN050 13/12 Q1024 NOSIG
13-10-31 METAR LIMC 310620Z 35006KT 330V030 9999 BKN025 BKN050 13/12 Q1024 NOSIG
13-10-31 METAR LIMC 310650Z 36007KT 9999 FEW025 BKN060 13/12 Q1025 NOSIG
13-10-31 METAR LIMC 310720Z 36008KT 9999 OVC060 13/12 Q1025 NOSIG
13-10-31 METAR LIMC 310750Z 36006KT 9999 OVC060 13/11 Q1025 NOSIG
13-10-31 METAR LIMC 310820Z 35005KT 9999 OVC060 13/12 Q1026 NOSIG
13-10-31 METAR LIMC 310850Z 01005KT 350V050 9999 OVC060 13/11 Q1026 NOSIG
13-10-31 METAR LIMC 310920Z 36006KT 9999 OVC060 13/12 Q1026 NOSIG
13-10-31 METAR LIMC 310950Z 01007KT 350V050 9999 BKN060 14/11 Q1026 NOSIG
13-10-31 METAR LIMC 311020Z 01007KT 9999 BKN060 14/11 Q1026 NOSIG
13-10-31 METAR LIMC 311050Z 01008KT 9999 BKN060 14/11 Q1026 NOSIG
13-10-31 METAR LIMC 311120Z 36007KT 330V040 9999 BKN060 15/11 Q1025 NOSIG
13-10-31 METAR LIMC 311150Z 01007KT 9999 BKN060 15/10 Q1025 NOSIG
13-10-31 METAR LIMC 311220Z 01006KT 330V040 9999 BKN060 16/10 Q1025 NOSIG
13-10-31 METAR LIMC 311250Z 36006KT 320V030 9999 SCT070 16/09 Q1024 NOSIG
13-10-31 METAR LIMC 311320Z 01004KT 340V040 9999 SCT070 16/09 Q1024 NOSIG
13-10-31 METAR LIMC 311350Z 35007KT 9999 BKN070 15/10 Q1024 NOSIG
13-10-31 METAR LIMC 311420Z 36006KT 330V030 9999 BKN070 16/10 Q1024 NOSIG
13-10-31 METAR LIMC 311450Z 34005KT 9999 BKN080 15/11 Q1024 NOSIG
13-10-31 METAR LIMC 311520Z 33006KT 9999 BKN090 15/11 Q1024 NOSIG
13-10-31 METAR LIMC 311550Z 33006KT CAVOK 14/10 Q1024 NOSIG
13-10-31 METAR LIMC 311620Z 34005KT CAVOK 13/10 Q1024 NOSIG
13-10-31 METAR LIMC 311650Z 02002KT CAVOK 11/10 Q1024 NOSIG
13-10-31 METAR LIMC 311720Z 04003KT 350V060 CAVOK 11/10 Q1024 NOSIG
13-10-31 METAR LIMC 311750Z VRB03KT CAVOK 12/10 Q1024 NOSIG
13-10-31 METAR LIMC 311820Z VRB02KT CAVOK 10/09 Q1025 NOSIG
13-10-31 METAR LIMC 311850Z 36004KT 320V020 CAVOK 10/09 Q1025 NOSIG
13-10-31 METAR LIMC 311920Z 35005KT CAVOK 10/09 Q1025 NOSIG
13-10-31 METAR LIMC 311950Z 35005KT 330V030 CAVOK 10/09 Q1025 NOSIG
13-10-31 METAR LIMC 312020Z 01003KT 310V070 CAVOK 10/09 Q1025 NOSIG
13-10-31 METAR LIMC 312050Z 34004KT CAVOK 10/09 Q1025 NOSIG
13-10-31 METAR LIMC 312120Z 35004KT CAVOK 09/08 Q1025 NOSIG
13-10-31 METAR LIMC 312150Z 36004KT CAVOK 08/08 Q1025 NOSIG
13-10-31 METAR LIMC 312220Z 35003KT CAVOK 08/08 Q1025 NOSIG
13-10-31 METAR LIMC 312250Z 36002KT CAVOK 07/07 Q1024 NOSIG
13-10-31 METAR LIMC 312320Z 35004KT CAVOK 07/07 Q1024 NOSIG
13-10-31 METAR LIMC 312350Z 35002KT CAVOK 07/06 Q1024 NOSIG
13-11-01 METAR LIMC 010020Z 35003KT CAVOK 06/06 Q1024 NOSIG
13-11-01 METAR LIMC 010050Z 01002KT CAVOK 06/06 Q1024 NOSIG
13-11-01 METAR LIMC 010120Z 36002KT CAVOK 05/05 Q1023 NOSIG
13-11-01 METAR LIMC 010150Z 36003KT CAVOK 06/05 Q1023 NOSIG
13-11-01 METAR LIMC 010220Z 36003KT CAVOK 06/05 Q1023 NOSIG
13-11-01 METAR LIMC 010250Z 36002KT CAVOK 05/05 Q1023 NOSIG
13-11-01 METAR LIMC 010320Z VRB02KT CAVOK 05/05 Q1023 NOSIG
13-11-01 METAR LIMC 010350Z 36002KT CAVOK 04/04 Q1023 NOSIG
13-11-01 METAR LIMC 010420Z 02002KT CAVOK 05/05 Q1023 NOSIG
13-11-01 METAR LIMC 010450Z 01002KT CAVOK 05/05 Q1023 NOSIG
13-11-01 METAR LIMC 010520Z 35003KT CAVOK 04/04 Q1023 NOSIG
13-11-01 METAR LIMC 010550Z 36004KT 8000 2000W BCFG NSC 06/05 Q1023 NOSIG
13-11-01 METAR LIMC 010620Z 36005KT 9000 1800E BCFG NSC 08/08 Q1023 NOSIG
13-11-01 METAR LIMC 010650Z 34005KT 9999 2200W MIFG NSC 08/07 Q1023 NOSIG
13-11-01 METAR LIMC 010720Z 35003KT 9999 2500W VCFG NSC 09/09 Q1024 NOSIG
13-11-01 METAR LIMC 010750Z 36003KT 330V030 9999 2500W VCFG NSC 11/10 Q1024 NOSIG
13-11-01 METAR LIMC 010820Z 36003KT 290V100 9999 2500W VCFG NSC 13/11 Q1024 NOSIG
13-11-01 METAR LIMC 010850Z VRB02KT CAVOK 15/11 Q1024 NOSIG
13-11-01 METAR LIMC 010920Z VRB02KT CAVOK 14/11 Q1024 NOSIG
13-11-01 METAR LIMC 010950Z VRB02KT CAVOK 15/11 Q1024 NOSIG
13-11-01 METAR LIMC 011020Z VRB03KT 9999 SCT090 15/10 Q1023 NOSIG
13-11-01 METAR LIMC 011050Z 12003KT 080V160 9999 SCT090 15/11 Q1023 NOSIG
13-11-01 METAR LIMC 011120Z VRB02KT 9999 BKN090 15/11 Q1023 NOSIG
13-11-01 METAR LIMC 011150Z VRB01KT 9999 BKN090 15/11 Q1022 NOSIG
13-11-01 METAR LIMC 011220Z VRB02KT 9999 BKN090 16/11 Q1022 NOSIG
13-11-01 METAR LIMC 011250Z VRB02KT 9999 BKN070 16/11 Q1022 NOSIG
13-11-01 METAR LIMC 011320Z VRB02KT 9999 SCT050 BKN090 16/11 Q1021 NOSIG
13-11-01 METAR LIMC 011350Z VRB02KT 9999 FEW050 BKN090 16/11 Q1021 NOSIG
13-11-01 METAR LIMC 011450Z 19003KT 9999 FEW050 BKN090 15/12 Q1021 NOSIG
13-11-01 METAR LIMC 011520Z 21003KT 9999 FEW050 15/12 Q1021 NOSIG
13-11-01 METAR LIMC 011550Z 14003KT 090V180 9999 SCT050 14/11 Q1020 NOSIG
13-11-01 METAR LIMC 011620Z VRB01KT 9999 BKN050 14/11 Q1021 NOSIG
13-11-01 METAR LIMC 011650Z VRB01KT 9999 BKN050 14/11 Q1021 NOSIG
13-11-01 METAR LIMC 011720Z 11002KT 9999 BKN050 14/11 Q1021 NOSIG
13-11-01 METAR LIMC 011750Z 13003KT 100V160 9999 BKN050 14/10 Q1021 NOSIG
13-11-01 METAR LIMC 011820Z VRB02KT 9999 BKN050 14/11 Q1021 NOSIG
13-11-01 METAR LIMC 011850Z VRB02KT 9999 BKN050 14/11 Q1021 NOSIG
13-11-01 METAR LIMC 011920Z 07003KT 030V110 9999 BKN050 13/11 Q1021 NOSIG
13-11-01 METAR LIMC 011950Z 09003KT 9999 BKN050 13/11 Q1020 NOSIG
13-11-01 METAR LIMC 012020Z VRB02KT 9999 BKN050 13/10 Q1021 NOSIG
13-11-01 METAR LIMC 012050Z VRB02KT 9999 BKN050 13/11 Q1021 NOSIG
13-11-01 METAR LIMC 012120Z VRB01KT 9999 BKN050 13/11 Q1020 NOSIG
13-11-01 METAR LIMC 012150Z 00000KT 9999 BKN050 13/11 Q1020 NOSIG
13-11-01 METAR LIMC 012220Z 00000KT 9999 BKN050 13/11 Q1020 NOSIG
13-11-01 METAR LIMC 012250Z VRB02G13KT 9999 BKN050 13/10 Q1020 NOSIG
13-11-01 METAR LIMC 012320Z 03003KT 9999 BKN050 13/11 Q1020 NOSIG
13-11-01 METAR LIMC 012350Z 07003KT 9999 BKN050 12/11 Q1020 NOSIG
13-11-02 METAR LIMC 020020Z 04003KT 9999 BKN050 12/11 Q1019 NOSIG
13-11-02 METAR LIMC 020050Z 35002KT 9999 BKN050 12/10 Q1019 NOSIG
13-11-02 METAR LIMC 020120Z 02002KT 9999 BKN050 12/10 Q1019 NOSIG
13-11-02 METAR LIMC 020150Z 05002KT 9999 BKN050 12/10 Q1018 NOSIG
13-11-02 METAR LIMC 020220Z 32003KT 9999 BKN050 12/11 Q1018 NOSIG
13-11-02 METAR LIMC 020250Z 36003KT 9999 BKN050 12/11 Q1018 NOSIG
13-11-02 METAR LIMC 020320Z VRB02KT 9999 BKN050 12/11 Q1017 NOSIG
13-11-02 METAR LIMC 020350Z 01003KT 9999 BKN050 12/11 Q1017 NOSIG
13-11-02 METAR LIMC 020420Z 34003KT 9999 BKN050 12/11 Q1017 NOSIG
13-11-02 METAR LIMC 020450Z 35005KT 9999 BKN050 12/11 Q1017 NOSIG
13-11-02 METAR LIMC 020520Z 35004KT 9999 BKN050 12/11 Q1017 NOSIG
13-11-02 METAR LIMC 020550Z 35005KT 330V030 9999 BKN050 12/10 Q1017 NOSIG
13-11-02 METAR LIMC 020620Z 35004KT 9999 BKN050 12/11 Q1017 NOSIG
13-11-02 METAR LIMC 020650Z 34005KT 9999 BKN050 12/11 Q1017 NOSIG
13-11-02 METAR LIMC 020720Z 35007KT 8000 BKN050 12/10 Q1017 NOSIG
13-11-02 METAR LIMC 020750Z 35005KT 6000 BKN050 12/11 Q1017 NOSIG
13-11-02 METAR LIMC 020820Z 35005KT 7000 BKN050 13/11 Q1017 NOSIG
13-11-02 METAR LIMC 020850Z 36006KT 340V040 5000 BR SCT050 13/11 Q1017 NOSIG
13-11-02 METAR LIMC 020920Z 36004KT 320V080 5000 BR SCT050 14/11 Q1017 NOSIG
13-11-02 METAR LIMC 020950Z 34004KT 300V040 4000 BR SCT050 15/11 Q1017 NOSIG
13-11-02 METAR LIMC 021020Z VRB02KT 4000 BR SCT050 15/11 Q1017 NOSIG
13-11-02 METAR LIMC 021050Z 10003KT 040V170 7000 FEW030 BKN050 15/10 Q1017 NOSIG
13-11-02 METAR LIMC 021120Z VRB02KT 7000 SCT030 SCT050 15/10 Q1016 NOSIG
13-11-02 METAR LIMC 021150Z 32004KT 9999 SCT030 BKN050 15/11 Q1016 NOSIG
13-11-02 METAR LIMC 021220Z 35003KT 270V040 9999 SCT030 BKN050 15/10 Q1016 NOSIG
13-11-02 METAR LIMC 021250Z 10004KT 020V170 9999 SCT030 BKN050 15/10 Q1016 NOSIG
13-11-02 METAR LIMC 021320Z VRB02KT 9999 SCT030 BKN050 16/10 Q1016 NOSIG
13-11-02 METAR LIMC 021350Z VRB02KT 9999 SCT030 BKN070 15/11 Q1016 NOSIG
13-11-02 METAR LIMC 021420Z 28003KT 240V300 9999 SCT030 BKN070 15/11 Q1016 NOSIG
13-11-02 METAR LIMC 021450Z 28002KT 9999 SCT030 BKN070 15/11 Q1015 NOSIG
13-11-02 METAR LIMC 021520Z 19002KT 9999 SCT030 BKN070 15/11 Q1015 NOSIG
13-11-02 METAR LIMC 021550Z 18003KT 8000 SCT030 BKN070 14/11 Q1015 NOSIG
13-11-02 METAR LIMC 021620Z 00000KT 8000 SCT030 BKN070 14/11 Q1016 NOSIG
13-11-02 METAR LIMC 021650Z VRB01KT 7000 SCT030 BKN070 12/11 Q1016 NOSIG
13-11-02 METAR LIMC 021720Z 06001KT 7000 SCT030 BKN070 12/10 Q1016 NOSIG
13-11-02 METAR LIMC 021750Z 00000KT 7000 SCT030 BKN070 11/10 Q1016 NOSIG
13-11-02 METAR LIMC 021820Z 00000KT 7000 SCT030 BKN070 11/10 Q1016 NOSIG
13-11-02 METAR LIMC 021850Z VRB01KT 7000 SCT030 BKN070 12/10 Q1016 NOSIG
13-11-02 METAR LIMC 021920Z VRB02KT 7000 SCT030 BKN070 11/10 Q1016 NOSIG
13-11-02 METAR LIMC 021950Z 06002KT 7000 SCT030 BKN070 11/10 Q1016 NOSIG
13-11-02 METAR LIMC 022020Z VRB01KT 5000 BR SCT030 BKN070 11/10 Q1016 NOSIG
13-11-02 METAR LIMC 022050Z 00000KT 5000 BR SCT030 BKN070 12/11 Q1016 NOSIG
13-11-02 METAR LIMC 022120Z 00000KT 5000 BR SCT030 BKN070 12/11 Q1016 NOSIG
13-11-02 METAR LIMC 022150Z 01003KT 5000 BR SCT030 BKN070 12/11 Q1015 NOSIG
13-11-02 METAR LIMC 022220Z 00000KT 5000 BR SCT030 BKN070 12/11 Q1015 NOSIG
13-11-02 METAR LIMC 022250Z VRB01KT 5000 BR SCT030 BKN070 12/11 Q1015 NOSIG
13-11-02 METAR LIMC 022320Z VRB01KT 5000 BR SCT030 BKN070 12/11 Q1014 NOSIG
13-11-02 METAR LIMC 022350Z VRB01KT 5000 BR SCT030 BKN070 12/11 Q1014 NOSIG
13-11-03 METAR LIMC 030020Z 00000KT 5000 BR SCT030 BKN070 12/11 Q1013 NOSIG
13-11-03 METAR LIMC 030050Z 00000KT 5000 BR SCT030 BKN070 12/11 Q1013 NOSIG
13-11-03 METAR LIMC 030120Z VRB02KT 5000 BR SCT030 BKN070 12/11 Q1012 NOSIG
13-11-03 METAR LIMC 030150Z 00000KT 4000 BR SCT030 BKN070 12/11 Q1012 NOSIG
13-11-03 METAR LIMC 030220Z VRB02KT 2500 DZ BR SCT030 BKN070 12/12 Q1012 NOSIG
13-11-03 METAR LIMC 030250Z 00000KT 1800 DZ BR BKN010 12/12 Q1011 NOSIG
13-11-03 METAR LIMC 030320Z 26003KT 1800 RA BR BKN010 12/12 Q1011 NOSIG
13-11-03 METAR LIMC 030350Z 35004KT 1800 RA BR BKN010 12/11 Q1011 NOSIG
13-11-03 METAR LIMC 030420Z 34004KT 2500 RA BR BKN025 12/11 Q1011 NOSIG
13-11-03 METAR LIMC 030450Z VRB06KT 2500 RA BKN025 12/11 Q1010 NOSIG
13-11-03 METAR LIMC 030520Z VRB02KT 2500 -RA BKN025 11/11 Q1010 RERA NOSIG
13-11-03 METAR LIMC 030550Z 14006KT 2500 BR BKN025 11/11 Q1009 RERA NOSIG
13-11-03 METAR LIMC 030620Z 25004KT 220V280 0400 R35L///// R35R/1500N FG SCT006 SCT030 11/11 Q1009 NOSIG
13-11-03 METAR LIMC 030650Z 27003KT 250V310 0800 R35L///// R35R/1500N FG SCT006 SCT030 11/11 Q1010 BECMG 3000
13-11-03 METAR LIMC 030720Z 28003KT 0800 R35L/1500N R35R/1500N FG SCT006 SCT030 12/11 Q1010 BECMG 3000
13-11-03 METAR LIMC 030750Z VRB02KT 1500 BR SCT006 SCT030 12/11 Q1009 BECMG 3000
13-11-03 METAR LIMC 030820Z 22003KT 1800 BR SCT006 SCT030 12/11 Q1009 BECMG 3000
13-11-03 METAR LIMC 030850Z 24004KT 210V290 1200 R35L/1500N R35R/1500N BR SCT006 SCT030 12/12 Q1009 NOSIG
13-11-03 METAR LIMC 030920Z VRB02KT 1200 R35L/1500N R35R/1400V1500N BR SCT006 SCT030 13/12 Q1009 NOSIG
13-11-03 METAR LIMC 030950Z 27004KT 240V330 2000 BR SCT006 BKN030 13/12 Q1009 NOSIG
13-11-03 METAR LIMC 031020Z 36003KT 280V070 3000 BR FEW008 SCT040 14/12 Q1009 NOSIG
13-11-03 METAR LIMC 031050Z VRB04KT 3000 BR FEW008 SCT040 15/11 Q1008 NOSIG
13-11-03 METAR LIMC 031120Z VRB02KT 7000 SCT040 16/12 Q1008 NOSIG
13-11-03 METAR LIMC 031150Z 30004KT 250V020 8000 SCT040 16/11 Q1008 NOSIG
13-11-03 METAR LIMC 031220Z 25003KT 190V310 8000 SCT040 17/11 Q1008 NOSIG
13-11-03 METAR LIMC 031250Z VRB02KT 9999 SCT040 16/11 Q1007 NOSIG
13-11-03 METAR LIMC 031320Z VRB01KT CAVOK 17/11 Q1007 NOSIG
13-11-03 METAR LIMC 031350Z 22004KT 190V260 CAVOK 17/11 Q1007 NOSIG
13-11-03 METAR LIMC 031420Z 22003KT 190V270 CAVOK 17/11 Q1007 NOSIG
13-11-03 METAR LIMC 031450Z VRB02KT CAVOK 17/11 Q1007 NOSIG
13-11-03 METAR LIMC 031520Z 28003KT CAVOK 17/11 Q1007 NOSIG
13-11-03 METAR LIMC 031550Z 25004KT CAVOK 15/11 Q1007 NOSIG
13-11-03 METAR LIMC 031620Z 25004KT CAVOK 13/10 Q1007 NOSIG
13-11-03 METAR LIMC 031650Z 34006KT CAVOK 13/10 Q1008 NOSIG
13-11-03 METAR LIMC 031720Z 33007KT CAVOK 11/09 Q1008 NOSIG
13-11-03 METAR LIMC 031750Z 31003KT 9999 SCT080 11/09 Q1008 NOSIG
13-11-03 METAR LIMC 031820Z 35003KT 9999 SCT080 11/09 Q1008 NOSIG
13-11-03 METAR LIMC 031850Z VRB01KT 9999 SCT080 10/09 Q1009 NOSIG
13-11-03 METAR LIMC 031920Z 35003KT 9999 2000E BCFG SCT080 09/09 Q1008 NOSIG
13-11-03 METAR LIMC 031950Z 34003KT 9999 R35L///// R35R/1400V1500N SCT080 06/05
13-11-03 METAR LIMC 032020Z 36003KT 330V060 9999 SCT080 07/06 Q1009 NOSIG
13-11-03 METAR LIMC 032050Z 36005KT CAVOK 07/05 Q1009 NOSIG
13-11-03 METAR LIMC 032120Z 34005KT CAVOK 07/03 Q1009 NOSIG
13-11-03 METAR LIMC 032150Z 35005KT 330V040 CAVOK 07/02 Q1009 NOSIG
13-11-03 METAR LIMC 032220Z 35006KT CAVOK 07/03 Q1009 NOSIG
13-11-03 METAR LIMC 032250Z 06002KT CAVOK 05/03 Q1009 NOSIG
13-11-03 METAR LIMC 032320Z 32005KT CAVOK 04/02 Q1009 NOSIG
13-11-03 METAR LIMC 032350Z VRB02KT CAVOK 04/03 Q1009 NOSIG
13-11-04 METAR LIMC 040020Z 02003KT 340V050 CAVOK 04/01 Q1008 NOSIG
13-11-04 METAR LIMC 040050Z 35005KT CAVOK 05/02 Q1008 NOSIG
13-11-04 METAR LIMC 040120Z 35006KT CAVOK 05/02 Q1008 NOSIG
13-11-04 METAR LIMC 040150Z 36004KT CAVOK 06/02 Q1008 NOSIG
13-11-04 METAR LIMC 040220Z 36003KT CAVOK 07/02 Q1008 NOSIG
13-11-04 METAR LIMC 040250Z 36004KT 9999 SCT070 07/03 Q1008 NOSIG
13-11-04 METAR LIMC 040320Z VRB02KT 9999 BKN060 07/03 Q1008 NOSIG
13-11-04 METAR LIMC 040350Z VRB02KT 9999 BKN060 07/04 Q1007 NOSIG
13-11-04 METAR LIMC 040420Z 33005KT 9999 BKN060 07/03 Q1007 NOSIG
13-11-04 METAR LIMC 040450Z 36002KT 9999 SCT080 06/04 Q1007 NOSIG
13-11-04 METAR LIMC 040520Z 01003KT 9999 SCT080 05/03 Q1007 NOSIG
13-11-04 METAR LIMC 040550Z 01004KT 330V080 9999 BKN080 09/04 Q1007 NOSIG
13-11-04 METAR LIMC 040620Z 03003KT 350V070 9999 BKN050 09/06 Q1007 NOSIG
13-11-04 METAR LIMC 040650Z 35006KT 9999 SCT040 BKN070 09/05 Q1007 NOSIG
13-11-04 METAR LIMC 040720Z 01005KT 7000 SCT040 BKN070 09/06 Q1007 NOSIG
13-11-04 METAR LIMC 040750Z 02003KT 320V070 7000 SCT040 BKN070 10/08 Q1007 NOSIG
13-11-04 METAR LIMC 040820Z 36004KT 7000 SCT040 BKN070 10/07 Q1006 NOSIG
13-11-04 METAR LIMC 040850Z 36003KT 330V050 7000 SCT025 BKN060 11/08 Q1006 NOSIG
13-11-04 METAR LIMC 040920Z 01004KT 340V050 7000 SCT025 BKN060 12/07 Q1006 NOSIG
13-11-04 METAR LIMC 040950Z 01004KT 320V060 8000 SCT025 BKN070 12/07 Q1005 NOSIG
13-11-04 METAR LIMC 041020Z 35005KT 320V030 8000 SCT025 BKN070 12/06 Q1005 NOSIG
13-11-04 METAR LIMC 041050Z 34003KT 320V030 8000 -RA SCT025 BKN070 12/07 Q1005 NOSIG
13-11-04 METAR LIMC 041120Z VRB04KT 8000 -RA SCT025 BKN070 12/09 Q1004 NOSIG
13-11-04 METAR LIMC 041150Z 07007KT 010V100 6000 -RA SCT025 BKN070 12/10 Q1003
13-11-04 METAR LIMC 041220Z 06006KT 6000 -RA SCT020 BKN070 12/10 Q1002 NOSIG
13-11-04 METAR LIMC 041250Z VRB06G21KT 8000 SCT040 BKN070 12/10 Q1002 NOSIG
13-11-04 METAR LIMC 041320Z VRB06KT 8000 BKN015 BKN040 OVC070 12/10 Q1001 NOSIG
13-11-04 METAR LIMC 041350Z 08005KT 8000 BKN012 BKN040 OVC070 12/10 Q1001 NOSIG
13-11-04 METAR LIMC 041420Z NIL
13-11-04 METAR LIMC 041420Z 07005KT 010V120 8000 BKN012 BKN040 OVC070 11/10 Q1000
13-11-04 METAR LIMC 041450Z 07005KT 040V110 8000 BKN012 BKN040 OVC070 12/10 Q1000
13-11-04 METAR LIMC 041520Z VRB02KT 8000 SCT012 BKN025 OVC070 11/10 Q1000 NOSIG
13-11-04 METAR LIMC 041650Z 35003KT 330V030 5000 BR SCT012 BKN020 11/10 Q0999 NOSIG
13-11-04 METAR LIMC 041720Z 35006KT 8000 SCT012 BKN020 11/10 Q0999 NOSIG
13-11-04 METAR LIMC 041750Z 35005KT 8000 -RA SCT012 BKN020 11/10 Q1000 NOSIG
13-11-04 METAR LIMC 041820Z 35006KT 8000 -RA SCT012 BKN020 11/10 Q1000 NOSIG
13-11-04 METAR LIMC 041850Z 36005KT 8000 -RA BKN012 BKN020 10/09 Q1000 NOSIG
13-11-04 METAR LIMC 041920Z 36006KT 8000 RA BKN012 BKN020 10/09 Q0999 NOSIG
13-11-04 METAR LIMC 041950Z 35006KT 8000 DZ BKN012 BKN020 10/09 Q0999 RERA NOSIG
13-11-04 METAR LIMC 042020Z 01005KT 330V040 8000 DZ BKN012 BKN020 10/09 Q0999 NOSIG
13-11-04 METAR LIMC 042220Z VRB01KT 9999 BKN040 09/09 Q0998 NOSIG
13-11-04 METAR LIMC 042250Z 34005KT 9999 BKN040 09/09 Q0998 NOSIG
13-11-04 METAR LIMC 042320Z 34002KT 9999 BKN040 09/08 Q0998 NOSIG
13-11-04 METAR LIMC 042350Z 33003KT 8000 MIFG SCT070 08/07 Q0998 NOSIG
13-11-05 METAR LIMC 050020Z 33003KT 300V010 8000 MIFG SCT070 08/07 Q0998 NOSIG
13-11-05 METAR LIMC 050050Z 32003KT 290V350 8000 MIFG SCT070 06/06 Q0998 NOSIG
13-11-05 METAR LIMC 050120Z 35004KT 8000 MIFG FEW070 05/05 Q0997 NOSIG
13-11-05 METAR LIMC 050150Z 07003KT 9000 MIFG NSC 06/06 Q0997 NOSIG
13-11-05 METAR LIMC 050220Z 36003KT 9000 MIFG NSC 06/05 Q0997 NOSIG
13-11-05 METAR LIMC 050250Z 32003KT 9000 R17L///// R35R/0500V0900U BCFG NSC 04/04 Q0997 NOSIG
13-11-05 METAR LIMC 050320Z VRB01KT 9000 BCFG NSC 04/04 Q0997 NOSIG
13-11-05 METAR LIMC 050350Z 35002KT 9000 BCFG NSC 03/03 Q0997 NOSIG
13-11-05 METAR LIMC 050420Z VRB01KT 9000 R17L///// R35R/0900V1500D BCFG NSC 03/03
13-11-05 METAR LIMC 050450Z VRB02KT 9000 BCFG NSC 03/03 Q0997 NOSIG
13-11-05 METAR LIMC 050520Z 01003KT 9999 BCFG NSC 03/03 Q0997 NOSIG
13-11-05 METAR LIMC 050550Z 35004KT 9999 MIFG NSC 04/04 Q0998 NOSIG
13-11-05 METAR LIMC 050620Z 35006KT 9999 MIFG NSC 05/05 Q0998 NOSIG
13-11-05 METAR LIMC 050650Z 35004KT 9999 MIFG NSC 05/05 Q0998 NOSIG
13-11-05 METAR LIMC 050720Z 35005KT 320V020 9999 VCFG NSC 06/06 Q0998 NOSIG
13-11-05 METAR LIMC 050750Z 35004KT 300V040 9999 VCFG NSC 08/07 Q0999 NOSIG
13-11-05 METAR LIMC 050820Z 31004KT 270V340 CAVOK 10/08 Q0999 NOSIG
13-11-05 METAR LIMC 050850Z 29005KT CAVOK 11/08 Q0998 NOSIG
13-11-05 METAR LIMC 050920Z 29005KT 260V320 CAVOK 12/08 Q0999 NOSIG
13-11-05 METAR LIMC 050950Z 26005KT 220V300 CAVOK 13/09 Q0999 NOSIG
13-11-05 METAR LIMC 051020Z 24005KT 200V270 CAVOK 13/08 Q0999 NOSIG
13-11-05 METAR LIMC 051050Z 22006KT 190V250 CAVOK 14/08 Q0998 NOSIG
13-11-05 METAR LIMC 051120Z 22006KT 180V240 CAVOK 14/08 Q0998 NOSIG
13-11-05 METAR LIMC 051150Z 23007KT CAVOK 15/08 Q0998 NOSIG
13-11-05 METAR LIMC 051220Z 23007KT 200V260 CAVOK 15/09 Q0997 NOSIG
13-11-05 METAR LIMC 051250Z 23008KT 200V260 CAVOK 15/08 Q0997 NOSIG
13-11-05 METAR LIMC 051320Z 22005KT CAVOK 15/08 Q0997 NOSIG
13-11-05 METAR LIMC 051350Z 21005KT 180V240 CAVOK 16/07 Q0997 NOSIG
13-11-05 METAR LIMC 051420Z 19003KT 150V230 CAVOK 16/07 Q0997 NOSIG
13-11-05 METAR LIMC 051450Z 22006KT CAVOK 15/08 Q0997 NOSIG
13-11-05 METAR LIMC 051520Z 20005KT CAVOK 14/09 Q0997 NOSIG
13-11-05 METAR LIMC 051550Z 21004KT CAVOK 13/08 Q0998 NOSIG
13-11-05 METAR LIMC 051620Z 22004KT CAVOK 13/08 Q0998 NOSIG
13-11-05 METAR LIMC 051650Z 00000KT CAVOK 12/08 Q0998 NOSIG
13-11-05 METAR LIMC 051720Z VRB01KT CAVOK 12/08 Q0998 NOSIG
13-11-05 METAR LIMC 051750Z VRB02KT 9999 SCT080 10/08 Q0998 NOSIG
13-11-05 METAR LIMC 051820Z 08004KT 050V120 9999 SCT080 12/08 Q0999 NOSIG
13-11-05 METAR LIMC 051850Z 12004KT 9999 SCT080 12/08 Q0999 NOSIG
13-11-05 METAR LIMC 051920Z 08003KT 010V150 9999 SCT080 11/09 Q0999 NOSIG
13-11-05 METAR LIMC 051950Z VRB02KT 9999 BKN080 11/09 Q1000 NOSIG
13-11-05 METAR LIMC 052020Z 07004KT 030V140 9999 BKN080 11/09 Q1000 NOSIG
13-11-05 METAR LIMC 052050Z VRB01KT 8000 BKN090 10/09 Q1000 NOSIG
13-11-05 METAR LIMC 052120Z VRB01KT 8000 BKN090 10/09 Q1001 NOSIG
13-11-05 METAR LIMC 052150Z VRB02KT 8000 BKN090 11/09 Q1001 NOSIG
13-11-05 METAR LIMC 052220Z VRB02KT 8000 BKN090 10/09 Q1001 NOSIG
13-11-05 METAR LIMC 052250Z VRB02KT 8000 BKN090 10/09 Q1001 NOSIG
13-11-05 METAR LIMC 052320Z 03002KT 7000 SCT090 10/09 Q1001 NOSIG
13-11-05 METAR LIMC 052350Z 01004KT 350V050 6000 BKN090 10/09 Q1001 NOSIG
13-11-06 METAR LIMC 060020Z 28003KT 6000 BKN090 10/09 Q1002 NOSIG
13-11-06 METAR LIMC 060220Z 01004KT 9999 SCT060 OVC090 10/09 Q1002 NOSIG
13-11-06 METAR LIMC 060250Z VRB02KT 9999 SCT040 OVC090 10/09 Q1002 NOSIG
13-11-06 METAR LIMC 060320Z 33003KT 300V020 9999 SCT040 BKN090 10/08 Q1002 NOSIG
13-11-06 METAR LIMC 060350Z VRB01KT 9999 SCT040 BKN090 10/09 Q1003 NOSIG
13-11-06 METAR LIMC 060420Z VRB01KT 9999 SCT040 BKN090 09/08 Q1003 NOSIG
13-11-06 METAR LIMC 060450Z 27004KT 250V310 9999 SCT040 BKN090 10/08 Q1004 NOSIG
13-11-06 METAR LIMC 060520Z 24003KT 210V270 9999 BKN090 10/08 Q1004 NOSIG
13-11-06 METAR LIMC 060550Z VRB01KT 9999 SCT060 BKN095 09/08 Q1004 NOSIG
13-11-06 METAR LIMC 060620Z 18002KT 9999 BKN095 09/08 Q1004 NOSIG
13-11-06 METAR LIMC 060650Z 36003KT 330V040 9999 BKN095 10/08 Q1005 NOSIG
13-11-06 METAR LIMC 060720Z 36005KT 330V040 9999 BKN095 12/08 Q1005 NOSIG
13-11-06 METAR LIMC 060750Z 29004KT 250V330 9999 BKN090 13/08 Q1005 NOSIG
13-11-06 METAR LIMC 060820Z 33006KT 9999 BKN090 14/08 Q1006 NOSIG
13-11-06 METAR LIMC 060850Z 32009KT 9999 SCT090 15/08 Q1006 NOSIG
13-11-06 METAR LIMC 060920Z 32006KT 9999 SCT090 16/08 Q1006 NOSIG
13-11-06 METAR LIMC 060950Z 31004KT 270V350 9999 SCT090 16/08 Q1007 NOSIG
13-11-06 METAR LIMC 061020Z 31003KT 250V030 CAVOK 17/08 Q1007 NOSIG
13-11-06 METAR LIMC 061050Z VRB03KT CAVOK 18/08 Q1007 NOSIG
13-11-06 METAR LIMC 061120Z 31003KT 250V060 CAVOK 18/09 Q1007 NOSIG
13-11-06 METAR LIMC 061150Z VRB02KT CAVOK 18/09 Q1006 NOSIG
13-11-06 METAR LIMC 061220Z 27004KT 220V340 CAVOK 18/07 Q1007 NOSIG
13-11-06 METAR LIMC 061250Z VRB03KT CAVOK 18/08 Q1006 NOSIG
13-11-06 METAR LIMC 061320Z 13002KT CAVOK 19/08 Q1006 NOSIG
13-11-06 METAR LIMC 061350Z VRB01KT CAVOK 19/07 Q1006 NOSIG
13-11-06 METAR LIMC 061420Z 22003KT 190V250 CAVOK 19/07 Q1006 NOSIG
13-11-06 METAR LIMC 061450Z 26003KT 220V290 CAVOK 19/08 Q1006 NOSIG
13-11-06 METAR LIMC 061520Z 25003KT CAVOK 18/08 Q1007 NOSIG
13-11-06 METAR LIMC 061550Z 27004KT CAVOK 16/08 Q1007 NOSIG
13-11-06 METAR LIMC 061620Z VRB03KT CAVOK 13/08 Q1007 NOSIG
13-11-06 METAR LIMC 061650Z 36005KT CAVOK 14/09 Q1008 NOSIG
13-11-06 METAR LIMC 061720Z 35005KT CAVOK 11/08 Q1008 NOSIG
13-11-06 METAR LIMC 061750Z 35007KT CAVOK 12/08 Q1008 NOSIG
13-11-06 METAR LIMC 061820Z 33006KT CAVOK 11/08 Q1009 NOSIG
13-11-06 METAR LIMC 061850Z 35006KT CAVOK 11/08 Q1009 NOSIG
13-11-06 METAR LIMC 061920Z 36006KT CAVOK 12/08 Q1009 NOSIG
13-11-06 METAR LIMC 061950Z 02004KT 300V090 CAVOK 11/08 Q1010 NOSIG
13-11-06 METAR LIMC 062020Z 34005KT 310V070 CAVOK 11/08 Q1010 NOSIG
13-11-06 METAR LIMC 062050Z VRB02KT CAVOK 10/07 Q1011 NOSIG
13-11-06 METAR LIMC 062120Z 02004KT 350V050 CAVOK 09/08 Q1011 NOSIG
13-11-06 METAR LIMC 062150Z 04004KT 010V090 CAVOK 09/07 Q1012 NOSIG
13-11-06 METAR LIMC 062220Z 05004KT CAVOK 10/07 Q1012 NOSIG
13-11-06 METAR LIMC 062250Z 03004KT CAVOK 08/07 Q1012 NOSIG
13-11-06 METAR LIMC 062320Z VRB02KT CAVOK 09/07 Q1012 NOSIG
13-11-06 METAR LIMC 062350Z 36005KT CAVOK 08/06 Q1013 NOSIG
13-11-07 METAR LIMC 070020Z NIL
13-11-07 METAR LIMC 070050Z NIL
13-11-07 METAR LIMC 070050Z 36004KT CAVOK 06/05 Q1013 NOSIG
13-11-07 METAR LIMC 070120Z 01005KT 340V070 CAVOK 06/05 Q1013 NOSIG
13-11-07 METAR LIMC 070150Z 00000KT CAVOK 06/05 Q1014 NOSIG
13-11-07 METAR LIMC 070220Z VRB02KT CAVOK 05/05 Q1014 NOSIG
13-11-07 METAR LIMC 070250Z VRB02KT CAVOK 06/05 Q1014 NOSIG
13-11-07 METAR LIMC 070320Z 02003KT CAVOK 05/04 Q1014 NOSIG
13-11-07 METAR LIMC 070350Z 36004KT CAVOK 05/05 Q1014 NOSIG
13-11-07 METAR LIMC 070420Z 01004KT CAVOK 04/04 Q1014 NOSIG
13-11-07 METAR LIMC 070450Z VRB01KT CAVOK 04/03 Q1014 NOSIG
13-11-07 METAR LIMC 070520Z 03001KT CAVOK 04/03 Q1014 NOSIG
13-11-07 METAR LIMC 070550Z 35003KT 310V030 9999 MIFG NSC 05/04 Q1015 NOSIG
13-11-07 METAR LIMC 070620Z 01004KT 340V060 9999 MIFG NSC 05/05 Q1015 NOSIG
13-11-07 METAR LIMC 070650Z VRB02KT 9999 MIFG NSC 05/04 Q1015 NOSIG
13-11-07 METAR LIMC 070720Z 36004KT CAVOK 06/06 Q1016 NOSIG
13-11-07 METAR LIMC 070750Z NIL
13-11-07 METAR LIMC 070750Z 06003KT 020V110 CAVOK 10/08 Q1016 NOSIG
13-11-07 METAR LIMC 070820Z VRB02KT 9999 SCT050 11/08 Q1016 NOSIG
13-11-07 METAR LIMC 070850Z VRB02KT 9999 BKN050 12/09 Q1016 NOSIG
13-11-07 METAR LIMC 070920Z 10003KT 040V150 8000 SCT050 12/09 Q1016 NOSIG
13-11-07 METAR LIMC 070950Z 16003KT 090V200 8000 FEW050 13/10 Q1017 NOSIG
13-11-07 METAR LIMC 071020Z 11003KT 050V160 8000 NSC 14/10 Q1017 NOSIG
13-11-07 METAR LIMC 071050Z 12003KT 080V170 6000 NSC 15/10 Q1016 NOSIG
13-11-07 METAR LIMC 071120Z 13003KT 050V180 6000 NSC 15/10 Q1016 NOSIG
13-11-07 METAR LIMC 071150Z VRB02KT 5000 BR NSC 16/10 Q1016 NOSIG
13-11-07 METAR LIMC 071220Z 14004KT 080V200 5000 BR NSC 16/11 Q1016 NOSIG
13-11-07 METAR LIMC 071250Z VRB03KT 5000 BR NSC 16/11 Q1016 NOSIG
13-11-07 METAR LIMC 071320Z VRB02KT 5000 BR NSC 16/11 Q1016 NOSIG
13-11-07 METAR LIMC 071350Z 15004KT 5000 BR NSC 16/11 Q1016 NOSIG
13-11-07 METAR LIMC 071420Z 16004KT 4000 BR NSC 15/12 Q1016 NOSIG
13-11-07 METAR LIMC 071450Z 17004KT 3500 BR SCT060 15/12 Q1016 NOSIG
13-11-07 METAR LIMC 071520Z 16003KT 3500 BR SCT060 14/11 Q1016 NOSIG
13-11-07 METAR LIMC 071550Z VRB01KT 3500 BR SCT060 14/11 Q1016 NOSIG
13-11-07 METAR LIMC 071620Z 19002KT 3500 BR BKN050 13/11 Q1016 NOSIG
13-11-07 METAR LIMC 071650Z 15004KT 110V180 3500 BR BKN050 13/11 Q1017 NOSIG
13-11-07 METAR LIMC 071720Z VRB01KT 3500 BR BKN050 13/11 Q1017 NOSIG
13-11-07 METAR LIMC 071750Z 22001KT 3500 BR BKN050 12/11 Q1017 NOSIG
13-11-07 METAR LIMC 071820Z 00000KT 3500 BR BKN050 12/11 Q1017 NOSIG
13-11-07 METAR LIMC 071850Z 00000KT 3500 BR BKN050 11/11 Q1017 NOSIG
13-11-07 METAR LIMC 071920Z VRB02KT 3500 BR SCT050 12/10 Q1018 NOSIG
13-11-07 METAR LIMC 071950Z VRB02KT 3000 BR SCT050 12/11 Q1018 NOSIG
13-11-07 METAR LIMC 072020Z 02003KT 330V060 3000 BR SCT050 12/11 Q1018 NOSIG
13-11-07 METAR LIMC 072050Z VRB02KT 3000 BR SCT050 12/10 Q1018 NOSIG
13-11-07 METAR LIMC 072120Z 36003KT 330V070 3000 BR SCT050 12/11 Q1018 NOSIG
13-11-07 METAR LIMC 072150Z VRB02KT 3000 BR SCT050 12/11 Q1018 NOSIG
13-11-07 METAR LIMC 072220Z VRB02KT 3000 BR SCT050 12/11 Q1018 NOSIG
13-11-07 METAR LIMC 072250Z 36004KT 3000 BR SCT050 12/11 Q1018 NOSIG
13-11-07 METAR LIMC 072320Z 35002KT 3000 BR SCT050 12/11 Q1018 NOSIG
13-11-07 METAR LIMC 072350Z 00000KT 3000 BR SCT050 12/11 Q1018 NOSIG
13-11-08 METAR LIMC 080020Z 34002KT 3000 BR SCT050 12/11 Q1018 NOSIG
13-11-08 METAR LIMC 080050Z 36003KT 3000 BR SCT050 12/11 Q1018 NOSIG
13-11-08 METAR LIMC 080120Z 34005KT 3000 BR SCT050 12/11 Q1018 NOSIG
13-11-08 METAR LIMC 080150Z 36003KT 3000 BR SCT050 12/11 Q1018 NOSIG
13-11-08 METAR LIMC 080220Z 00000KT 3000 BR BKN050 12/11 Q1018 NOSIG
13-11-08 METAR LIMC 080250Z VRB01KT 3000 BR BKN050 12/11 Q1017 NOSIG
13-11-08 METAR LIMC 080320Z VRB01KT 3000 BR BKN050 12/11 Q1017 NOSIG
13-11-08 METAR LIMC 080350Z VRB02KT 3000 BR BKN050 12/11 Q1017 NOSIG
13-11-08 METAR LIMC 080420Z 02003KT 330V030 3000 BR BKN050 12/11 Q1017 NOSIG
13-11-08 METAR LIMC 080450Z 02002KT 3000 BR BKN035 12/11 Q1017 NOSIG
13-11-08 METAR LIMC 080520Z 35003KT 3000 BR BKN035 12/11 Q1017 NOSIG
13-11-08 METAR LIMC 080550Z 02003KT 330V090 3000 BR BKN035 13/11 Q1017 NOSIG
13-11-08 METAR LIMC 080620Z 02003KT 340V100 2500 BR BKN015 BKN035 13/11 Q1018 NOSIG
13-11-08 METAR LIMC 080650Z VRB02KT 2500 BR BKN015 BKN035 12/11 Q1018 NOSIG
13-11-08 METAR LIMC 080720Z 03003KT 300V070 2000 BR BKN012 BKN035 13/11 Q1018 NOSIG
13-11-08 METAR LIMC 080750Z 04003KT 350V070 2000 BR BKN009 BKN040 13/12 Q1018 NOSIG
13-11-08 METAR LIMC 080820Z VRB02KT 2000 BR BKN009 BKN040 13/12 Q1018 NOSIG
13-11-08 METAR LIMC 080850Z 36003KT 330V040 2000 BR BKN009 BKN040 13/12 Q1018 NOSIG
13-11-08 METAR LIMC 080920Z VRB02KT 2000 BR BKN008 BKN040 13/12 Q1018 NOSIG
13-11-08 METAR LIMC 080950Z 12003KT 060V150 2000 BR BKN008 BKN040 13/12 Q1018 NOSIG
13-11-08 METAR LIMC 081020Z VRB02KT 2200 BR BKN007 BKN035 13/12 Q1018 NOSIG
13-11-08 METAR LIMC 081050Z VRB01KT 2200 BR BKN007 BKN035 13/12 Q1018 NOSIG
13-11-08 METAR LIMC 081120Z VRB02KT 2200 BR BKN007 BKN035 13/12 Q1018 NOSIG
13-11-08 METAR LIMC 081150Z VRB02KT 2200 BR BKN007 BKN035 13/12 Q1018 NOSIG
13-11-08 METAR LIMC 081220Z VRB02KT 2200 BR BKN007 BKN035 13/12 Q1017 NOSIG
13-11-08 METAR LIMC 081250Z VRB01KT 2000 BR BKN006 BKN035 13/12 Q1017 NOSIG
13-11-08 METAR LIMC 081320Z 00000KT 2000 BR BKN006 BKN035 13/12 Q1017 NOSIG
13-11-08 METAR LIMC 081350Z VRB02KT 2000 BR BKN006 BKN030 13/12 Q1017 NOSIG
13-11-08 METAR LIMC 081420Z 33004KT 2000 BR BKN006 BKN030 13/12 Q1016 NOSIG
13-11-08 METAR LIMC 081550Z 00000KT 2500 BR BKN006 BKN030 13/12 Q1016 NOSIG
13-11-08 METAR LIMC 081620Z 00000KT 2000 BR BKN006 BKN030 13/12 Q1016 NOSIG
13-11-08 METAR LIMC 081650Z 33002KT 2000 BR BKN006 BKN030 13/12 Q1016 NOSIG
13-11-08 METAR LIMC 081850Z 19003KT 1500 BR -RA BKN006 BKN030 13/12 Q1016 NOSIG
13-11-08 METAR LIMC 081920Z VRB02KT 1500 BR -RA BKN006 BKN030 13/12 Q1016 NOSIG
13-11-08 METAR LIMC 081950Z 11002KT 1500 BR -RA BKN006 BKN030 13/12 Q1015 NOSIG
13-11-08 METAR LIMC 082020Z 09003KT 1600 BR -RA BKN006 BKN030 12/12 Q1015 NOSIG
13-11-08 METAR LIMC 082050Z 11002KT 1600 BR -RA BKN006 BKN030 12/12 Q1015 NOSIG
13-11-08 METAR LIMC 082120Z 08003KT 040V150 1600 BR -RA BKN006 BKN030 12/12 Q1015 NOSIG
13-11-08 METAR LIMC 082150Z VRB02KT 1600 BR -RA BKN006 BKN030 12/12 Q1014 NOSIG
13-11-08 METAR LIMC 082220Z 07003KT 050V110 1600 BR -RA BKN006 BKN030 12/12 Q1014
13-11-08 METAR LIMC 082250Z 08003KT 1600 BR -RA BKN006 BKN030 12/12 Q1014 NOSIG
13-11-08 METAR LIMC 082320Z 10004KT 1600 BR -RA BKN006 BKN030 12/12 Q1013 NOSIG
13-11-08 METAR LIMC 082350Z 09004KT 050V130 1600 BR -RA BKN006 BKN030 12/12 Q1013
13-11-09 METAR LIMC 090020Z 10003KT 070V140 1600 BR -RA BKN006 BKN030 12/12 Q1013 NOSIG
13-11-09 METAR LIMC 090050Z VRB02KT 1600 BR -RA BKN006 BKN030 12/12 Q1013 NOSIG
13-11-09 METAR LIMC 090120Z NIL
13-11-09 METAR LIMC 090150Z 07003KT 1600 BR -RA BKN006 BKN030 12/12 Q1012 NOSIG
13-11-09 METAR LIMC 090220Z 09004KT 1600 BR -RA BKN006 BKN030 12/12 Q1012 NOSIG
13-11-09 METAR LIMC 090250Z 02003KT 1600 BR -RA BKN006 BKN030 12/12 Q1012 NOSIG
13-11-09 METAR LIMC 090320Z 34003KT 1600 BR -RA BKN006 BKN030 12/12 Q1012 NOSIG
13-11-09 METAR LIMC 090350Z 34004KT 1600 BR -RA BKN006 BKN030 12/12 Q1012 NOSIG
13-11-09 METAR LIMC 090420Z VRB02KT 1600 BR -RA BKN006 BKN030 12/12 Q1012 NOSIG
13-11-09 METAR LIMC 090450Z 00000KT 1600 BR -RA BKN006 BKN030 12/12 Q1012 NOSIG
13-11-09 METAR LIMC 090520Z 34002KT 2000 BR BKN008 BKN030 12/12 Q1012 NOSIG
13-11-09 METAR LIMC 090550Z 34003KT 310V020 2000 BR BKN008 BKN030 12/12 Q1012 NOSIG
13-11-09 METAR LIMC 090620Z 34004KT 3000 BR BKN008 BKN030 12/12 Q1012 NOSIG
13-11-09 METAR LIMC 090650Z 33004KT 310V010 5000 BR SCT010 BKN040 12/12 Q1012 NOSIG
13-11-09 METAR LIMC 090720Z 36004KT 5000 BR SCT010 BKN040 12/12 Q1012 NOSIG
13-11-09 METAR LIMC 090750Z 32004KT 6000 SCT010 BKN040 13/12 Q1012 NOSIG
13-11-09 METAR LIMC 090820Z VRB03KT 7000 SCT030 SCT070 13/12 Q1012 NOSIG
13-11-09 METAR LIMC 090850Z 02003KT 310V090 7000 BKN040 13/12 Q1012 NOSIG
13-11-09 METAR LIMC 090920Z VRB02KT 9999 BKN030 14/12 Q1012 NOSIG
13-11-09 METAR LIMC 090950Z VRB02KT 9999 BKN030 14/12 Q1012 NOSIG
13-11-09 METAR LIMC 091020Z 20003KT 170V270 9999 BKN030 14/12 Q1012 NOSIG
13-11-09 METAR LIMC 091050Z 21004KT 180V240 9999 BKN030 14/12 Q1011 NOSIG
13-11-09 METAR LIMC 091120Z 25003KT 180V290 9999 BKN030 16/12 Q1011 NOSIG
13-11-09 METAR LIMC 091150Z VRB02KT 9999 BKN030 16/11 Q1011 NOSIG
13-11-09 METAR LIMC 091220Z 22005KT 9999 BKN030 15/11 Q1010 NOSIG
13-11-09 METAR LIMC 091250Z 20003KT 150V230 9999 SCT030 BKN070 16/11 Q1010 NOSIG
13-11-09 METAR LIMC 091320Z 21005KT 9999 SCT090 15/12 Q1010 NOSIG
13-11-09 METAR LIMC 091350Z 23004KT 180V270 CAVOK 16/12 Q1010 NOSIG
13-11-09 METAR LIMC 091420Z 24005KT 210V270 CAVOK 16/11 Q1010 NOSIG
13-11-09 METAR LIMC 091450Z 24004KT CAVOK 16/12 Q1010 NOSIG
13-11-09 METAR LIMC 091520Z 20003KT CAVOK 14/11 Q1010 NOSIG
13-11-09 METAR LIMC 091550Z 20003KT 9999 FEW080 14/11 Q1009 NOSIG
13-11-09 METAR LIMC 091620Z 18002KT CAVOK 13/11 Q1009 NOSIG
13-11-09 METAR LIMC 091650Z 18003KT CAVOK 12/11 Q1009 NOSIG
13-11-09 METAR LIMC 091720Z 21004KT CAVOK 11/10 Q1010 NOSIG
13-11-09 METAR LIMC 091750Z 20005KT CAVOK 11/10 Q1010 NOSIG
13-11-09 METAR LIMC 091820Z 22001KT CAVOK 11/10 Q1010 NOSIG
13-11-09 METAR LIMC 091850Z 01003KT 330V040 CAVOK 10/09 Q1010 NOSIG
13-11-09 METAR LIMC 091920Z 02003KT 340V040 CAVOK 10/09 Q1010 NOSIG
13-11-09 METAR LIMC 091950Z 36004KT 9999 2500E MIFG NSC 09/09 Q1009 NOSIG
13-11-09 METAR LIMC 092020Z VRB02KT 9999 2500E R35L///// R35R/1100V1500N MIFG NSC 08/07 Q1009 NOSIG
13-11-09 METAR LIMC 092050Z VRB02KT 9999 2500E R35L///// R35R/0450V1200U BCFG NSC 07/07 Q1009 NOSIG
13-11-09 METAR LIMC 092120Z VRB01KT 8000 2500E BCFG BKN080 07/07 Q1010 NOSIG
13-11-09 METAR LIMC 092150Z 14003KT 040V200 6000 BCFG BKN080 10/09 Q1010 NOSIG
13-11-09 METAR LIMC 092220Z 03002KT 6000 BCFG BKN080 08/08 Q1010 NOSIG
13-11-09 METAR LIMC 092250Z 01004KT 6000 BCFG BKN080 09/08 Q1009 NOSIG
13-11-09 METAR LIMC 092320Z VRB02KT 5000 BR BKN080 08/07 Q1010 NOSIG
13-11-09 METAR LIMC 092350Z 36004KT 5000 BR BKN080 07/07 Q1009 NOSIG
13-11-10 METAR LIMC 100020Z 36006KT 8000 NSC 08/07 Q1009 NOSIG
13-11-10 METAR LIMC 100050Z 35005KT CAVOK 07/07 Q1009 NOSIG
13-11-10 METAR LIMC 100120Z 36005KT CAVOK 07/06 Q1009 NOSIG
13-11-10 METAR LIMC 100150Z 36003KT CAVOK 06/06 Q1009 NOSIG
13-11-10 METAR LIMC 100220Z 36004KT 330V040 CAVOK 06/06 Q1009 NOSIG
13-11-10 METAR LIMC 100250Z 01003KT CAVOK 05/04 Q1008 NOSIG
13-11-10 METAR LIMC 100320Z VRB02KT CAVOK 04/04 Q1008 NOSIG
13-11-10 METAR LIMC 100350Z 03003KT 340V150 9999 SCT040 06/05 Q1008 NOSIG
13-11-10 METAR LIMC 100420Z 05003KT 350V070 9999 SCT040 07/06 Q1008 NOSIG
13-11-10 METAR LIMC 100450Z 04003KT 9999 BKN040 07/07 Q1008 NOSIG
13-11-10 METAR LIMC 100520Z VRB02KT 9999 BKN040 08/07 Q1007 NOSIG
13-11-10 METAR LIMC 100550Z 03003KT 280V080 9999 SCT030 08/07 Q1007 NOSIG
13-11-10 METAR LIMC 100620Z 36003KT 290V080 8000 SCT050 08/08 Q1007 NOSIG
13-11-10 METAR LIMC 100650Z 36003KT 330V080 8000 BKN035 OVC070 09/08 Q1008 NOSIG
13-11-10 METAR LIMC 100750Z 02003KT 350V050 1600 BR BKN003 OVC040 09/09 Q1007 NOSIG
13-11-10 METAR LIMC 100950Z 34005KT 8000 FEW008 SCT035 BKN060 10/07 Q1006 NOSIG
13-11-10 METAR LIMC 101020Z 35007KT 9999 FEW008 SCT035 BKN060 10/06 Q1006 NOSIG
13-11-10 METAR LIMC 101050Z 34007KT 9999 FEW008 SCT035 BKN060 11/06 Q1006 NOSIG
13-11-10 METAR LIMC 101120Z 35007KT 330V050 9999 SCT035 BKN080 12/06 Q1005 NOSIG
13-11-10 METAR LIMC 101150Z 34008KT 9999 SCT025 BKN080 12/07 Q1004 NOSIG
13-11-10 METAR LIMC 101220Z 35010KT 9999 SCT025 BKN070 11/07 Q1004 NOSIG
13-11-10 METAR LIMC 101250Z 36006KT 320V030 9999 SCT070 12/07 Q1004 NOSIG
13-11-10 METAR LIMC 101320Z 32007KT 9999 BKN080 12/07 Q1003 NOSIG
13-11-10 METAR LIMC 101350Z 34006KT 300V010 CAVOK 12/07 Q1003 NOSIG
13-11-10 METAR LIMC 101420Z 35009KT 300V020 9999 FEW035 12/07 Q1003 NOSIG
13-11-10 METAR LIMC 101450Z 32007KT 9999 FEW075 11/06 Q1003 NOSIG
13-11-10 METAR LIMC 101550Z NIL
13-11-10 METAR LIMC 101550Z 32009KT 9999 SCT070 10/06 Q1003 NOSIG
13-11-10 METAR LIMC 101620Z 35005KT 9999 SCT070 09/06 Q1003 NOSIG
13-11-10 METAR LIMC 101650Z 30004KT 9999 SCT070 07/05 Q1004 NOSIG
13-11-10 METAR LIMC 101720Z 33007KT 9999 SCT080 08/05 Q1004 NOSIG
13-11-10 METAR LIMC 101750Z 34008KT 9999 SCT080 08/02 Q1004 NOSIG
13-11-10 METAR LIMC 101820Z 34010KT 9999 SCT080 09/01 Q1004 NOSIG
13-11-10 METAR LIMC 101850Z 33011KT CAVOK 10/M00 Q1005 NOSIG
13-11-10 METAR LIMC 101920Z 32013KT CAVOK 10/M01 Q1005 NOSIG
13-11-10 METAR LIMC 101950Z 32013G23KT CAVOK 11/M03 Q1005 NOSIG
13-11-10 METAR LIMC 102020Z 33012KT CAVOK 10/M03 Q1006 NOSIG
13-11-10 METAR LIMC 102050Z 34022G34KT CAVOK 12/M06 Q1006 NOSIG
13-11-10 METAR LIMC 102120Z 35025G36KT CAVOK 12/M07 Q1006 NOSIG
13-11-10 METAR LIMC 102150Z 35023G36KT CAVOK 12/M07 Q1006 NOSIG
13-11-10 METAR LIMC 102220Z 35019G32KT CAVOK 12/M08 Q1007 NOSIG
13-11-10 METAR LIMC 102250Z 35018G28KT CAVOK 12/M08 Q1008 NOSIG
13-11-10 METAR LIMC 102320Z 35017G27KT CAVOK 12/M08 Q1008 NOSIG
13-11-10 METAR LIMC 102350Z 34020G32KT CAVOK 12/M08 Q1009 WS RWY 35L NOSIG
13-11-11 METAR LIMC 110020Z 35018G31KT CAVOK 12/M08 Q1009 WS RWY 35L NOSIG
13-11-11 METAR LIMC 110050Z 35020G32KT CAVOK 12/M09 Q1009 NOSIG
13-11-11 METAR LIMC 110120Z 34023KT CAVOK 12/M09 Q1009 NOSIG
13-11-11 METAR LIMC 110150Z 35021G32KT CAVOK 12/M09 Q1009 NOSIG
13-11-11 METAR LIMC 110220Z 35021G40KT CAVOK 12/M09 Q1009 NOSIG
13-11-11 METAR LIMC 110250Z 35025G38KT 320V020 CAVOK 12/M09 Q1009 NOSIG
13-11-11 METAR LIMC 110320Z 35026G38KT CAVOK 12/M09 Q1009 NOSIG
13-11-11 METAR LIMC 110350Z 36023KT CAVOK 12/M10 Q1010 NOSIG
13-11-11 METAR LIMC 110420Z 36020KT CAVOK 12/M10 Q1010 NOSIG
13-11-11 METAR LIMC 110450Z 36018KT CAVOK 12/M09 Q1011 NOSIG
13-11-11 METAR LIMC 110520Z 35018KT CAVOK 11/M09 Q1011 NOSIG
13-11-11 METAR LIMC 110550Z 35018KT CAVOK 11/M09 Q1012 NOSIG
13-11-11 METAR LIMC 110620Z 35017KT CAVOK 11/M08 Q1012 NOSIG
13-11-11 METAR LIMC 110650Z 35015KT CAVOK 11/M07 Q1012 NOSIG
13-11-11 METAR LIMC 110720Z 35013KT CAVOK 12/M08 Q1013 NOSIG
13-11-11 METAR LIMC 110750Z 36015KT CAVOK 13/M09 Q1014 NOSIG
13-11-11 METAR LIMC 110820Z 36018KT CAVOK 13/M09 Q1014 NOSIG
13-11-11 METAR LIMC 110850Z 36019KT CAVOK 14/M10 Q1014 NOSIG
13-11-11 METAR LIMC 110920Z 36020KT CAVOK 14/M10 Q1014 NOSIG
13-11-11 METAR LIMC 110950Z 36017G27KT CAVOK 15/M11 Q1014 NOSIG
13-11-11 METAR LIMC 111020Z 36017KT CAVOK 16/M10 Q1015 NOSIG
13-11-11 METAR LIMC 111050Z 36021KT CAVOK 16/M12 Q1015 NOSIG
13-11-11 METAR LIMC 111120Z 35020KT CAVOK 16/M11 Q1015 NOSIG
13-11-11 METAR LIMC 111150Z 36017KT CAVOK 17/M11 Q1015 NOSIG
13-11-11 METAR LIMC 111220Z 35018KT CAVOK 17/M11 Q1014 NOSIG
13-11-11 METAR LIMC 111250Z 36017KT CAVOK 18/M10 Q1014 NOSIG
13-11-11 METAR LIMC 111320Z 35020KT CAVOK 17/M12 Q1014 NOSIG
13-11-11 METAR LIMC 111350Z 36016KT CAVOK 17/M11 Q1015 NOSIG
13-11-11 METAR LIMC 111420Z 35013KT CAVOK 17/M11 Q1015 NOSIG
13-11-11 METAR LIMC 111450Z 36011KT CAVOK 17/M12 Q1015 NOSIG
13-11-11 METAR LIMC 111520Z 01012KT 9999 FEW080 17/M12 Q1016 NOSIG
13-11-11 METAR LIMC 111550Z 01011KT CAVOK 16/M12 Q1016 NOSIG
13-11-11 METAR LIMC 111620Z 35007KT CAVOK 12/M09 Q1016 NOSIG
13-11-11 METAR LIMC 111650Z 35007KT CAVOK 10/M08 Q1017 NOSIG
13-11-11 METAR LIMC 111720Z 01010KT CAVOK 14/M11 Q1017 NOSIG
13-11-11 METAR LIMC 111750Z 01011KT CAVOK 13/M11 Q1017 NOSIG
13-11-11 METAR LIMC 111820Z 35009KT 330V030 CAVOK 11/M11 Q1018 NOSIG
13-11-11 METAR LIMC 111850Z 01010KT CAVOK 13/M12 Q1018 NOSIG
13-11-11 METAR LIMC 111920Z 01009KT 340V050 CAVOK 14/M12 Q1018 NOSIG
13-11-11 METAR LIMC 111950Z 36008KT CAVOK 12/M09 Q1019 NOSIG
13-11-11 METAR LIMC 112020Z 01006KT CAVOK 12/M10 Q1019 NOSIG
13-11-11 METAR LIMC 112050Z 03006KT 350V060 CAVOK 11/M08 Q1019 NOSIG
13-11-11 METAR LIMC 112120Z 01005KT CAVOK 11/M09 Q1020 NOSIG
13-11-11 METAR LIMC 112150Z 17003KT 110V200 CAVOK 09/M09 Q1020 NOSIG
13-11-11 METAR LIMC 112220Z 22003KT CAVOK 08/M07 Q1021 NOSIG
13-11-11 METAR LIMC 112250Z VRB02KT CAVOK 05/M05 Q1021 NOSIG
13-11-11 METAR LIMC 112320Z 02002KT CAVOK 04/M05 Q1021 NOSIG
13-11-11 METAR LIMC 112350Z 36003KT CAVOK 02/M04 Q1021 NOSIG
13-11-12 METAR LIMC 120020Z 03003KT CAVOK 02/M03 Q1021 NOSIG
13-11-12 METAR LIMC 120050Z 35004KT 300V030 CAVOK 01/M03 Q1021 NOSIG
13-11-12 METAR LIMC 120120Z 03003KT 340V080 CAVOK 01/M04 Q1021 NOSIG
13-11-12 METAR LIMC 120150Z 36004KT CAVOK 01/M03 Q1022 NOSIG
13-11-12 METAR LIMC 120220Z 36007KT CAVOK 03/M04 Q1021 NOSIG
13-11-12 METAR LIMC 120250Z 36003KT 310V040 CAVOK M00/M04 Q1022 NOSIG
13-11-12 METAR LIMC 120320Z 35008KT CAVOK 01/M04 Q1022 NOSIG
13-11-12 METAR LIMC 120350Z 35004KT CAVOK 00/M04 Q1022 NOSIG
13-11-12 METAR LIMC 120420Z VRB02KT CAVOK 01/M03 Q1022 NOSIG
13-11-12 METAR LIMC 120450Z 35005KT CAVOK 01/M03 Q1022 NOSIG
13-11-12 METAR LIMC 120520Z 35010KT CAVOK 02/M03 Q1022 NOSIG
13-11-12 METAR LIMC 120550Z 34005KT CAVOK 02/M03 Q1022 NOSIG
13-11-12 METAR LIMC 120620Z 35004KT 330V040 CAVOK 03/M03 Q1023 NOSIG
13-11-12 METAR LIMC 120650Z 34005KT CAVOK 03/M03 Q1023 NOSIG
13-11-12 METAR LIMC 120720Z 35005KT CAVOK 05/M02 Q1023 NOSIG
13-11-12 METAR LIMC 120750Z 34003KT 300V010 CAVOK 07/M01 Q1023 NOSIG
13-11-12 METAR LIMC 120820Z 36004KT 320V030 CAVOK 09/M00 Q1023 NOSIG
13-11-12 METAR LIMC 120850Z 33005KT CAVOK 11/M01 Q1023 NOSIG
13-11-12 METAR LIMC 120920Z 35004KT 320V030 CAVOK 12/M01 Q1023 NOSIG
13-11-12 METAR LIMC 120950Z VRB01KT CAVOK 14/M01 Q1023 NOSIG
13-11-12 METAR LIMC 121020Z VRB02KT CAVOK 15/M02 Q1023 NOSIG
13-11-12 METAR LIMC 121050Z VRB03KT CAVOK 15/M03 Q1022 NOSIG
13-11-12 METAR LIMC 121120Z 26004KT 190V310 CAVOK 15/M01 Q1022 NOSIG
13-11-12 METAR LIMC 121150Z 22003KT 140V270 CAVOK 16/M02 Q1022 NOSIG
13-11-12 METAR LIMC 121220Z 26003KT 200V340 CAVOK 16/M02 Q1021 NOSIG
13-11-12 METAR LIMC 121250Z 24005KT 200V260 CAVOK 16/M02 Q1021 NOSIG
13-11-12 METAR LIMC 121320Z 22003KT 180V280 CAVOK 17/M02 Q1021 NOSIG
13-11-12 METAR LIMC 121350Z 23004KT 200V280 CAVOK 16/M02 Q1020 NOSIG
13-11-12 METAR LIMC 121420Z 24005KT CAVOK 16/M03 Q1020 NOSIG
13-11-12 METAR LIMC 121450Z 25005KT CAVOK 15/M04 Q1020 NOSIG
13-11-12 METAR LIMC 121520Z 21004KT CAVOK 14/M00 Q1020 NOSIG
13-11-12 METAR LIMC 121550Z 23003KT CAVOK 13/M01 Q1020 NOSIG
13-11-12 METAR LIMC 121620Z 17002KT CAVOK 13/M03 Q1020 NOSIG
13-11-12 METAR LIMC 121650Z 00000KT CAVOK 09/00 Q1020 NOSIG
13-11-12 METAR LIMC 121720Z VRB02KT CAVOK 07/00 Q1021 NOSIG
13-11-12 METAR LIMC 121750Z VRB02KT CAVOK 08/M00 Q1021 NOSIG
13-11-12 METAR LIMC 121820Z 03003KT 330V060 CAVOK 08/01 Q1021 NOSIG
13-11-12 METAR LIMC 121850Z 01003KT 320V070 CAVOK 05/00 Q1021 NOSIG
13-11-12 METAR LIMC 121920Z 36005KT CAVOK 05/00 Q1021 NOSIG
13-11-12 METAR LIMC 121950Z 35008KT CAVOK 05/00 Q1021 NOSIG
13-11-12 METAR LIMC 122020Z 36004KT 310V060 CAVOK 05/M00 Q1021 NOSIG
13-11-12 METAR LIMC 122050Z 00000KT CAVOK 04/00 Q1021 NOSIG
13-11-12 METAR LIMC 122120Z 36004KT CAVOK 04/00 Q1021 NOSIG
13-11-12 METAR LIMC 122150Z 36005KT 330V030 CAVOK 05/00 Q1021 NOSIG
13-11-12 METAR LIMC 122220Z 35007KT CAVOK 04/M00 Q1021 NOSIG
13-11-12 METAR LIMC 122250Z 35007KT CAVOK 04/00 Q1021 NOSIG
13-11-12 METAR LIMC 122320Z 35007KT CAVOK 04/00 Q1021 NOSIG
13-11-12 METAR LIMC 122350Z 36006KT CAVOK 04/00 Q1021 NOSIG
13-11-13 METAR LIMC 130020Z 35005KT CAVOK 04/00 Q1021 NOSIG
13-11-13 METAR LIMC 130050Z 35006KT CAVOK 04/00 Q1021 NOSIG
13-11-13 METAR LIMC 130120Z 35007KT CAVOK 03/M00 Q1021 NOSIG
13-11-13 METAR LIMC 130150Z 35006KT CAVOK 04/00 Q1021 NOSIG
13-11-13 METAR LIMC 130220Z 36006KT CAVOK 04/01 Q1020 NOSIG
13-11-13 METAR LIMC 130250Z 35006KT CAVOK 03/00 Q1020 NOSIG
13-11-13 METAR LIMC 130320Z 35006KT CAVOK 03/00 Q1020 NOSIG
13-11-13 METAR LIMC 130350Z 36006KT CAVOK 04/01 Q1020 NOSIG
13-11-13 METAR LIMC 130420Z 35005KT CAVOK 05/01 Q1020 NOSIG
13-11-13 METAR LIMC 130450Z 35007KT CAVOK 04/00 Q1020 NOSIG
13-11-13 METAR LIMC 130520Z 35007KT CAVOK 02/M00 Q1020 NOSIG
13-11-13 METAR LIMC 130550Z 34008KT CAVOK 04/01 Q1020 NOSIG
13-11-13 METAR LIMC 130620Z 36006KT CAVOK 04/01 Q1020 NOSIG
13-11-13 METAR LIMC 130650Z 35005KT CAVOK 05/01 Q1020 NOSIG
13-11-13 METAR LIMC 130720Z 35003KT CAVOK 06/02 Q1021 NOSIG
13-11-13 METAR LIMC 130750Z VRB03KT CAVOK 09/04 Q1021 NOSIG
13-11-13 METAR LIMC 130820Z VRB02KT CAVOK 10/03 Q1021 NOSIG
13-11-13 METAR LIMC 130850Z VRB02KT CAVOK 12/03 Q1021 NOSIG
13-11-13 METAR LIMC 130920Z VRB01KT CAVOK 12/03 Q1021 NOSIG
13-11-13 METAR LIMC 130950Z VRB02KT CAVOK 13/04 Q1021 NOSIG
13-11-13 METAR LIMC 131020Z 27003KT 220V330 CAVOK 14/04 Q1021 NOSIG
13-11-13 METAR LIMC 131050Z VRB01KT CAVOK 16/04 Q1021 NOSIG
13-11-13 METAR LIMC 131120Z VRB02KT CAVOK 17/05 Q1020 NOSIG
13-11-13 METAR LIMC 131150Z 23003KT 190V270 CAVOK 16/05 Q1020 NOSIG
13-11-13 METAR LIMC 131220Z VRB02KT CAVOK 17/04 Q1020 NOSIG
13-11-13 METAR LIMC 131250Z 26003KT 210V290 CAVOK 17/05 Q1020 NOSIG
13-11-13 METAR LIMC 131320Z 26003KT 210V290 CAVOK 16/05 Q1019 NOSIG
13-11-13 METAR LIMC 131350Z 22003KT CAVOK 16/06 Q1019 NOSIG
13-11-13 METAR LIMC 131420Z 18004KT CAVOK 15/04 Q1020 NOSIG
13-11-13 METAR LIMC 131450Z 22004KT 9999 SCT090 15/05 Q1020 NOSIG
13-11-13 METAR LIMC 131520Z 19002KT 9999 BKN090 15/04 Q1020 NOSIG
13-11-13 METAR LIMC 131550Z 22002KT 9000 BKN090 14/04 Q1020 NOSIG
13-11-13 METAR LIMC 131620Z 00000KT 9000 BKN080 13/05 Q1020 NOSIG
13-11-13 METAR LIMC 131650Z 00000KT 9000 OVC080 12/05 Q1020 NOSIG
13-11-13 METAR LIMC 131720Z VRB02KT 9000 OVC080 13/05 Q1021 NOSIG
13-11-13 METAR LIMC 131750Z 35001KT 9999 BKN080 12/06 Q1021 NOSIG
13-11-13 METAR LIMC 131820Z VRB02KT 9999 BKN080 12/05 Q1021 NOSIG
13-11-13 METAR LIMC 131850Z 02003KT 300V060 9999 BKN080 12/07 Q1021 NOSIG
13-11-13 METAR LIMC 131920Z VRB02KT 9999 BKN080 11/07 Q1021 NOSIG
13-11-13 METAR LIMC 131950Z 01003KT 350V050 9999 BKN080 11/08 Q1022 NOSIG
13-11-13 METAR LIMC 132020Z 00000KT 9999 BKN060 10/08 Q1022 RERA NOSIG
13-11-13 METAR LIMC 132050Z VRB02KT 9999 BKN060 10/08 Q1022 RERA NOSIG
13-11-13 METAR LIMC 132120Z 36003KT 330V040 9999 BKN060 11/07 Q1022 RERA NOSIG
13-11-13 METAR LIMC 132150Z 34004KT 290V350 9999 BKN060 10/08 Q1022 NOSIG
13-11-13 METAR LIMC 132220Z 35003KT 9999 BKN060 10/08 Q1022 NOSIG
13-11-13 METAR LIMC 132250Z 34005KT 9999 BKN060 09/08 Q1022 NOSIG
13-11-13 METAR LIMC 132320Z 36005KT 9999 BKN060 09/08 Q1022 NOSIG
13-11-13 METAR LIMC 132350Z 36004KT 9999 BKN060 10/08 Q1022 NOSIG
13-11-14 METAR LIMC 140020Z 36003KT 9999 BKN060 10/08 Q1022 NOSIG
13-11-14 METAR LIMC 140050Z 35004KT 9999 BKN060 10/08 Q1022 NOSIG
13-11-14 METAR LIMC 140120Z 01004KT 9999 BKN060 10/08 Q1022 NOSIG
13-11-14 METAR LIMC 140150Z 33005KT 9999 BKN060 09/08 Q1022 NOSIG
13-11-14 METAR LIMC 140220Z 35003KT 9999 BKN060 10/08 Q1021 NOSIG
13-11-14 METAR LIMC 140250Z 36005KT 9999 BKN060 10/08 Q1021 NOSIG
13-11-14 METAR LIMC 140320Z 34003KT 310V010 9999 BKN060 10/08 Q1021 NOSIG
13-11-14 METAR LIMC 140350Z 35004KT 9999 BKN060 10/08 Q1021 NOSIG
13-11-14 METAR LIMC 140420Z 33004KT 9999 BKN060 10/09 Q1020 NOSIG
13-11-14 METAR LIMC 140450Z 00000KT 9999 BKN060 10/08 Q1020 NOSIG
13-11-14 METAR LIMC 140520Z 00000KT 9999 BKN060 10/08 Q1020 NOSIG
13-11-14 METAR LIMC 140550Z 36003KT 9999 BKN060 10/09 Q1020 NOSIG
13-11-14 METAR LIMC 140620Z 07003KT 320V130 9999 SCT045 BKN070 12/07 Q1020 NOSIG
13-11-14 METAR LIMC 140650Z VRB02KT 9999 BKN045 BKN070 11/08 Q1020 NOSIG
13-11-14 METAR LIMC 140720Z 07003KT 010V100 9999 BKN045 BKN070 12/08 Q1020 NOSIG
13-11-14 METAR LIMC 140750Z VRB04KT 9999 BKN045 BKN070 12/08 Q1020 NOSIG
13-11-14 METAR LIMC 140820Z VRB02KT 9999 BKN045 BKN070 12/08 Q1020 NOSIG
13-11-14 METAR LIMC 140850Z VRB02KT 9999 BKN045 BKN070 12/08 Q1019 NOSIG
13-11-14 METAR LIMC 140920Z 04003KT 330V100 9999 BKN045 BKN070 12/08 Q1019 NOSIG
13-11-14 METAR LIMC 140950Z 04004KT 320V070 9999 BKN045 BKN070 12/08 Q1019 NOSIG
13-11-14 METAR LIMC 141020Z 06003KT 010V100 9999 BKN045 BKN070 12/08 Q1019 NOSIG
13-11-14 METAR LIMC 141050Z 07005KT 290V090 9999 SCT045 BKN070 12/08 Q1018 NOSIG
13-11-14 METAR LIMC 141120Z 06004KT 020V120 9999 SCT045 BKN070 12/07 Q1017 NOSIG
13-11-14 METAR LIMC 141250Z NIL
13-11-14 METAR LIMC 141250Z 04004KT 340V150 9999 SCT045 BKN070 11/07 Q1016 NOSIG
13-11-14 METAR LIMC 141320Z 05005KT 300V100 9999 SCT050 BKN070 11/07 Q1015 NOSIG
13-11-14 METAR LIMC 141350Z 02005KT 340V050 9999 SCT050 BKN070 11/07 Q1015 NOSIG
13-11-14 METAR LIMC 141520Z NIL
13-11-14 METAR LIMC 141520Z 05006KT 350V080 9999 SCT050 BKN080 11/07 Q1014 NOSIG
13-11-14 METAR LIMC 141650Z 07005KT 040V100 9999 -RA SCT050 BKN080 09/08 Q1013
13-11-14 METAR LIMC 141720Z 09005KT 040V130 9999 -RA SCT050 BKN080 09/08 Q1013
13-11-14 METAR LIMC 141750Z 07005KT 9999 SCT050 BKN080 09/08 Q1013 NOSIG
13-11-14 METAR LIMC 141820Z 05005KT 9999 SCT050 BKN080 09/08 Q1012 NOSIG
13-11-14 METAR LIMC 141850Z 03005KT 330V070 8000 SCT050 BKN080 09/08 Q1012 NOSIG
13-11-14 METAR LIMC 141920Z VRB01KT 8000 RA SCT050 BKN080 09/08 Q1012 NOSIG
13-11-14 METAR LIMC 141950Z 35007KT 8000 RA SCT050 BKN080 09/08 Q1012 NOSIG
13-11-14 METAR LIMC 142020Z NIL
13-11-14 METAR LIMC 142050Z NIL
13-11-14 METAR LIMC 142020Z 35009KT 6000 RA BKN040 BKN070 09/08 Q1012 NOSIG
13-11-14 METAR LIMC 142050Z 02004KT 6000 RA BKN040 BKN070 08/07 Q1012 NOSIG
13-11-14 METAR LIMC 142120Z 02005KT 6000 RA BKN040 BKN070 08/07 Q1012 NOSIG
13-11-14 METAR LIMC 142150Z 01010KT 340V050 6000 RA BKN040 BKN070 08/05 Q1012 NOSIG
13-11-14 METAR LIMC 142220Z 01017KT 9999 RA BKN040 BKN070 07/04 Q1011 NOSIG
13-11-14 METAR LIMC 142250Z 01010KT 9999 RA BKN040 BKN070 07/04 Q1011 NOSIG
13-11-14 METAR LIMC 142320Z 01015KT 9999 RA BKN040 BKN070 07/04 Q1010 NOSIG
13-11-14 METAR LIMC 142350Z 36013KT 9999 RA BKN040 BKN070 07/04 Q1011 NOSIG
13-11-15 METAR LIMC 150020Z 36011KT 9999 RA BKN040 BKN070 06/04 Q1011 NOSIG
13-11-15 METAR LIMC 150050Z 36012KT 9999 RA BKN040 BKN070 06/04 Q1011 NOSIG
13-11-15 METAR LIMC 150120Z 01010KT 9999 -RA BKN040 BKN070 06/04 Q1011 RERA NOSIG
13-11-15 METAR LIMC 150150Z NIL
13-11-15 METAR LIMC 150220Z 01013KT 9999 -RA BKN040 BKN070 06/03 Q1010 RERA NOSIG
13-11-15 METAR LIMC 150250Z 35016KT 9999 SCT035 BKN060 06/04 Q1009 RERA NOSIG
13-11-15 METAR LIMC 150320Z 36010KT 9999 SCT035 BKN060 06/03 Q1010 NOSIG
13-11-15 METAR LIMC 150350Z 01004KT 330V070 9999 SCT035 BKN060 06/04 Q1011 NOSIG
13-11-15 METAR LIMC 150420Z 33005KT 9999 -RA SCT035 BKN060 06/04 Q1011 NOSIG
13-11-15 METAR LIMC 150450Z 36006KT 9999 -RA SCT035 BKN060 06/05 Q1011 NOSIG
13-11-15 METAR LIMC 150520Z 35009KT 9999 -RA SCT035 BKN060 06/04 Q1011 NOSIG
13-11-15 METAR LIMC 150550Z 36009KT 9999 -RA SCT035 BKN060 06/04 Q1011 NOSIG
13-11-15 METAR LIMC 150620Z 35011KT 9999 -RA SCT030 BKN060 06/04 Q1011 NOSIG
13-11-15 METAR LIMC 150650Z 02005KT 350V050 9999 -RA SCT035 BKN060 06/04 Q1012 NOSIG
13-11-15 METAR LIMC 150720Z 36007KT 9999 -RA SCT040 BKN070 06/04 Q1013 NOSIG
13-11-15 METAR LIMC 150750Z 36007KT 9999 -RA SCT040 BKN070 06/04 Q1014 NOSIG
13-11-15 METAR LIMC 150820Z 36006KT 330V030 5000 -RA BR SCT040 BKN070 06/05 Q1015
13-11-15 METAR LIMC 150850Z 01005KT 5000 -RA BR SCT040 BKN070 06/05 Q1015 NOSIG
13-11-15 METAR LIMC 150920Z 01007KT 6000 -RA SCT040 BKN070 06/05 Q1015 NOSIG
13-11-15 METAR LIMC 150950Z 35006KT 320V030 8000 -RA SCT040 BKN070 06/05 Q1017
13-11-15 METAR LIMC 151020Z 36007KT 9999 -RA SCT040 BKN070 07/05 Q1016 NOSIG
13-11-15 METAR LIMC 151050Z 33009KT 9999 SCT040 BKN070 07/06 Q1017 NOSIG
13-11-15 METAR LIMC 151120Z 34008KT 8000 -RA SCT040 BKN070 07/06 Q1017 NOSIG
13-11-15 METAR LIMC 151150Z 34009KT 8000 RA SCT040 BKN070 07/06 Q1018 NOSIG
13-11-15 METAR LIMC 151220Z 33005KT 320V020 8000 RA SCT040 BKN070 07/06 Q1018 NOSIG
13-11-15 METAR LIMC 151250Z 33007KT 8000 -RA SCT040 BKN070 07/06 Q1019 RERA NOSIG
13-11-15 METAR LIMC 151320Z 34008KT 5000 -RA SCT020 BKN070 07/06 Q1019 NOSIG
13-11-15 METAR LIMC 151350Z 35006KT 5000 -RA SCT015 BKN070 07/06 Q1020 NOSIG
13-11-15 METAR LIMC 151420Z 35008KT 7000 -RA SCT015 BKN070 07/06 Q1020 NOSIG
13-11-15 METAR LIMC 151450Z 36004KT 330V050 5000 -RA SCT015 BKN070 07/06 Q1021
13-11-15 METAR LIMC 151520Z 34005KT 8000 -RA SCT015 BKN070 07/06 Q1021 NOSIG
13-11-15 METAR LIMC 151550Z 35006KT 8000 -RA SCT015 BKN070 07/06 Q1021 NOSIG
13-11-15 METAR LIMC 151620Z 36007KT 8000 SCT050 BKN070 07/06 Q1022 NOSIG
13-11-15 METAR LIMC 151650Z 35005KT 9999 -RA SCT050 BKN070 07/06 Q1023 NOSIG
13-11-15 METAR LIMC 151720Z 36005KT 330V040 9999 -RA SCT050 BKN070 08/06 Q1023
13-11-15 METAR LIMC 151750Z 03003KT 360V060 9999 SCT050 BKN070 07/06 Q1024 NOSIG
13-11-15 METAR LIMC 151820Z 34004KT 320V020 9999 BKN070 07/06 Q1024 NOSIG
13-11-15 METAR LIMC 151850Z 01006KT 9999 BKN070 08/06 Q1024 NOSIG
13-11-15 METAR LIMC 151920Z VRB02KT 9999 BKN070 08/06 Q1024 NOSIG
13-11-15 METAR LIMC 151950Z 28004KT 9999 BKN070 08/06 Q1025 NOSIG
13-11-15 METAR LIMC 152020Z 28007KT 9999 BKN070 08/06 Q1025 NOSIG
13-11-15 METAR LIMC 152050Z 32003KT 9999 BKN070 08/06 Q1025 NOSIG
13-11-15 METAR LIMC 152120Z 34003KT 310V030 9999 BKN070 08/06 Q1025 NOSIG
13-11-15 METAR LIMC 152150Z VRB02KT 9999 BKN070 08/07 Q1025 NOSIG
13-11-15 METAR LIMC 152220Z 33004KT 9999 BKN070 08/06 Q1025 NOSIG
13-11-15 METAR LIMC 152250Z VRB02KT 9999 BKN080 08/07 Q1025 NOSIG
13-11-15 METAR LIMC 152320Z 35003KT 9999 BKN080 08/06 Q1025 NOSIG
13-11-15 METAR LIMC 152350Z VRB02KT 9999 BKN080 07/06 Q1025 NOSIG
13-11-16 METAR LIMC 160020Z 36002KT 9999 BKN080 08/07 Q1025 NOSIG
13-11-16 METAR LIMC 160050Z VRB01KT 9999 BKN080 07/07 Q1025 NOSIG
13-11-16 METAR LIMC 160120Z 34003KT 9999 BKN080 07/07 Q1025 NOSIG
13-11-16 METAR LIMC 160150Z 31003KT 280V010 9999 BKN080 07/07 Q1025 NOSIG
13-11-16 METAR LIMC 160220Z VRB01KT 9999 BKN080 07/07 Q1024 NOSIG
13-11-16 METAR LIMC 160250Z 36004KT 9999 BKN080 07/07 Q1025 NOSIG
13-11-16 METAR LIMC 160320Z VRB02KT 9999 BKN070 07/07 Q1025 NOSIG
13-11-16 METAR LIMC 160350Z VRB02KT 9999 BKN070 07/07 Q1025 NOSIG
13-11-16 METAR LIMC 160420Z 00000KT 9999 BKN070 07/06 Q1025 NOSIG
13-11-16 METAR LIMC 160450Z 03002KT CAVOK 06/05 Q1025 NOSIG
13-11-16 METAR LIMC 160520Z 03002KT CAVOK 04/03 Q1025 NOSIG
13-11-16 METAR LIMC 160550Z 01004KT 340V060 CAVOK 03/03 Q1024 NOSIG
13-11-16 METAR LIMC 160620Z VRB02KT 9999 MIFG NSC 04/04 Q1024 NOSIG
13-11-16 METAR LIMC 160650Z 01002KT 9999 BCFG NSC 04/04 Q1025 NOSIG
13-11-16 METAR LIMC 160720Z VRB02KT 9999 MIFG NSC 06/05 Q1025 NOSIG
13-11-16 METAR LIMC 160750Z VRB02KT CAVOK 08/07 Q1025 NOSIG
13-11-16 METAR LIMC 160820Z VRB01KT CAVOK 10/07 Q1025 NOSIG
13-11-16 METAR LIMC 160850Z 36004KT CAVOK 10/07 Q1025 NOSIG
13-11-16 METAR LIMC 160920Z 01003KT 310V050 CAVOK 11/07 Q1025 NOSIG
13-11-16 METAR LIMC 160950Z VRB02KT CAVOK 13/07 Q1025 NOSIG
13-11-16 METAR LIMC 161020Z VRB02KT CAVOK 13/07 Q1025 NOSIG
13-11-16 METAR LIMC 161050Z NIL
13-11-16 METAR LIMC 161050Z VRB03KT CAVOK 13/08 Q1025 NOSIG
13-11-16 METAR LIMC 161120Z VRB04KT CAVOK 13/08 Q1024 NOSIG
13-11-16 METAR LIMC 161150Z VRB02KT CAVOK 14/07 Q1024 NOSIG
13-11-16 METAR LIMC 161220Z 12004KT 040V210 CAVOK 14/08 Q1024 NOSIG
13-11-16 METAR LIMC 161250Z 10005G18KT 010V150 CAVOK 14/08 Q1024 NOSIG
13-11-16 METAR LIMC 161320Z 13005KT 090V160 CAVOK 14/08 Q1023 NOSIG
13-11-16 METAR LIMC 161350Z 15005KT 9999 FEW015 14/09 Q1023 NOSIG
13-11-16 METAR LIMC 161420Z NIL
13-11-16 METAR LIMC 161420Z 13006KT 9999 FEW015 13/08 Q1023 NOSIG
13-11-16 METAR LIMC 161450Z 13005KT 090V170 9999 FEW015 13/08 Q1023 NOSIG
13-11-16 METAR LIMC 161520Z 13005KT 090V150 9999 FEW015 13/08 Q1024 NOSIG
13-11-16 METAR LIMC 161550Z 12004KT CAVOK 12/07 Q1024 NOSIG
13-11-16 METAR LIMC 161620Z VRB02KT CAVOK 11/07 Q1024 NOSIG
13-11-16 METAR LIMC 161650Z 07003KT CAVOK 09/07 Q1024 NOSIG
13-11-16 METAR LIMC 161720Z 05003KT 010V090 CAVOK 08/06 Q1024 NOSIG
13-11-16 METAR LIMC 161750Z 08003KT CAVOK 08/07 Q1025 NOSIG
13-11-16 METAR LIMC 161820Z 02005KT 320V090 CAVOK 08/06 Q1025 NOSIG
13-11-16 METAR LIMC 161850Z 35003KT CAVOK 05/05 Q1025 NOSIG
13-11-16 METAR LIMC 161920Z 36004KT CAVOK 05/04 Q1025 NOSIG
13-11-16 METAR LIMC 161950Z 01002KT 9999 MIFG NSC 04/04 Q1025 NOSIG
13-11-16 METAR LIMC 162020Z 34004KT 320V050 9999 MIFG NSC 04/04 Q1025 NOSIG
13-11-16 METAR LIMC 162050Z 01003KT CAVOK 04/03 Q1025 NOSIG
13-11-16 METAR LIMC 162120Z VRB02KT CAVOK 06/05 Q1025 NOSIG
13-11-16 METAR LIMC 162150Z 35005KT CAVOK 05/05 Q1025 NOSIG
13-11-16 METAR LIMC 162220Z 01002KT 9999 SCT070 05/04 Q1025 NOSIG
13-11-16 METAR LIMC 162250Z 00000KT 9999 SCT060 05/04 Q1025 NOSIG
13-11-16 METAR LIMC 162320Z VRB02KT 9999 SCT060 06/05 Q1025 NOSIG
13-11-16 METAR LIMC 162350Z 36002KT 7000 SCT040 BKN060 06/06 Q1025 NOSIG
13-11-17 METAR LIMC 170020Z 35004KT 7000 SCT040 BKN060 06/06 Q1025 NOSIG
13-11-17 METAR LIMC 170050Z 36005KT 7000 SCT040 BKN060 06/06 Q1025 NOSIG
13-11-17 METAR LIMC 170120Z 36004KT 7000 SCT040 BKN060 08/07 Q1025 NOSIG
13-11-17 METAR LIMC 170150Z 35004KT 7000 SCT040 BKN060 07/07 Q1025 NOSIG
13-11-17 METAR LIMC 170220Z 35003KT 7000 SCT040 BKN060 07/07 Q1025 NOSIG
13-11-17 METAR LIMC 170250Z 35002KT 7000 SCT040 BKN060 08/07 Q1025 NOSIG
13-11-17 METAR LIMC 170320Z VRB01KT 7000 SCT040 BKN060 08/07 Q1024 NOSIG
13-11-17 METAR LIMC 170350Z 00000KT 7000 SCT030 BKN060 07/07 Q1024 NOSIG
13-11-17 METAR LIMC 170420Z 00000KT 7000 SCT030 BKN060 08/07 Q1024 NOSIG
13-11-17 METAR LIMC 170450Z 00000KT 7000 SCT030 BKN060 08/07 Q1024 NOSIG
13-11-17 METAR LIMC 170520Z 00000KT 7000 SCT030 BKN060 08/07 Q1024 NOSIG
13-11-17 METAR LIMC 170550Z 00000KT 9999 BKN050 07/07 Q1024 NOSIG
13-11-17 METAR LIMC 170620Z VRB02KT 9999 BKN075 08/07 Q1024 NOSIG
13-11-17 METAR LIMC 170650Z VRB01KT 9999 BKN075 07/06 Q1024 NOSIG
13-11-17 METAR LIMC 170720Z VRB02KT 9999 BKN075 07/07 Q1025 NOSIG
13-11-17 METAR LIMC 170750Z 36003KT 9999 BKN075 08/07 Q1025 NOSIG
13-11-17 METAR LIMC 170820Z VRB01KT 9999 BKN075 10/07 Q1025 NOSIG
13-11-17 METAR LIMC 170850Z VRB02KT 9999 BKN075 10/06 Q1025 NOSIG
13-11-17 METAR LIMC 170920Z VRB01KT 9999 BKN075 11/06 Q1025 NOSIG
13-11-17 METAR LIMC 170950Z 23003KT 9999 BKN075 11/06 Q1025 NOSIG
13-11-17 METAR LIMC 171020Z 22003KT 190V250 9999 BKN075 11/06 Q1024 NOSIG
13-11-17 METAR LIMC 171050Z 16004KT 130V190 9999 BKN075 11/06 Q1024 NOSIG
13-11-17 METAR LIMC 171120Z 16004KT 9999 BKN075 11/06 Q1024 NOSIG
13-11-17 METAR LIMC 171150Z VRB02KT 9999 BKN065 12/06 Q1023 NOSIG
13-11-17 METAR LIMC 171220Z VRB02KT 9999 BKN060 13/07 Q1022 NOSIG
13-11-17 METAR LIMC 171250Z 23003KT 160V300 9999 FEW025 SCT060 BKN080 12/06 Q1022 NOSIG
13-11-17 METAR LIMC 171320Z 20005KT 160V220 9999 SCT030 BKN080 11/06 Q1022 NOSIG
13-11-17 METAR LIMC 171350Z 17003KT 130V220 9999 SCT060 BKN080 12/07 Q1022 NOSIG
13-11-17 METAR LIMC 171420Z 21002KT 9999 SCT070 BKN090 11/06 Q1022 NOSIG
13-11-17 METAR LIMC 171450Z 15004KT 9999 BKN070 BKN090 11/06 Q1022 NOSIG
13-11-17 METAR LIMC 171520Z 14003KT 090V180 9999 BKN070 BKN090 11/06 Q1022 NOSIG
13-11-17 METAR LIMC 171550Z 12001KT 9999 BKN070 11/06 Q1021 NOSIG
13-11-17 METAR LIMC 171620Z NIL
13-11-17 METAR LIMC 171620Z VRB02KT 9999 BKN070 10/06 Q1022 NOSIG
13-11-17 METAR LIMC 171650Z VRB01KT 9999 BKN070 10/06 Q1022 NOSIG
13-11-17 METAR LIMC 171720Z 00000KT 9999 BKN070 10/06 Q1022 NOSIG
13-11-17 METAR LIMC 171750Z 00000KT 9999 OVC070 09/06 Q1022 NOSIG
13-11-17 METAR LIMC 171820Z 00000KT 9999 OVC070 09/07 Q1022 NOSIG
13-11-17 METAR LIMC 172020Z 00000KT 9999 FEW040 OVC060 09/07 Q1022 NOSIG
13-11-17 METAR LIMC 172050Z VRB01KT 9999 OVC060 09/07 Q1022 NOSIG
13-11-17 METAR LIMC 172120Z VRB02KT 9999 OVC060 09/07 Q1022 NOSIG
13-11-17 METAR LIMC 172150Z 07003KT 030V110 8000 OVC060 10/07 Q1022 NOSIG
13-11-17 METAR LIMC 172220Z VRB01KT 5000 RA OVC060 09/08 Q1022 NOSIG
13-11-17 METAR LIMC 172250Z VRB01KT 5000 RA OVC060 08/08 Q1022 NOSIG
13-11-17 METAR LIMC 172320Z 00000KT 4000 -RA BR OVC060 08/08 Q1022 RERA NOSIG
13-11-17 METAR LIMC 172350Z VRB01KT 4000 -RA BR OVC060 08/08 Q1021 NOSIG
13-11-18 METAR LIMC 180050Z VRB01KT 4000 BR OVC060 08/08 Q1021 NOSIG
13-11-18 METAR LIMC 180120Z 01001KT 4000 BR OVC060 08/08 Q1021 NOSIG
13-11-18 METAR LIMC 180150Z 35004KT 4000 BR OVC060 08/08 Q1020 NOSIG
13-11-18 METAR LIMC 180220Z 35003KT 4000 BR OVC060 08/08 Q1020 NOSIG
13-11-18 METAR LIMC 180250Z 36002KT 4000 BR OVC060 08/08 Q1019 NOSIG
13-11-18 METAR LIMC 180320Z 00000KT 4000 BR OVC060 08/08 Q1019 NOSIG
13-11-18 METAR LIMC 180350Z 00000KT 3500 BR OVC060 08/08 Q1019 NOSIG
13-11-18 METAR LIMC 180420Z 00000KT 3500 BR SCT030 OVC060 08/08 Q1019 NOSIG
13-11-18 METAR LIMC 180450Z 00000KT 3000 BR SCT030 OVC060 08/08 Q1019 NOSIG
13-11-18 METAR LIMC 180520Z 00000KT 3000 -RA BR SCT030 OVC060 08/08 Q1019 NOSIG
13-11-18 METAR LIMC 180550Z VRB02KT 3000 -RA BR SCT030 OVC060 08/08 Q1019 NOSIG
13-11-18 METAR LIMC 180620Z 02004KT 360V060 3000 RA SCT030 OVC060 08/08 Q1019 NOSIG
13-11-18 METAR LIMC 180650Z 04003KT 280V080 3500 RA SCT030 OVC060 09/08 Q1019 NOSIG
13-11-18 METAR LIMC 180720Z VRB03KT 3000 RA BR SCT030 OVC060 09/08 Q1019 NOSIG
13-11-18 METAR LIMC 180750Z 06004KT 350V160 3000 DZ BR SCT030 OVC060 09/08 Q1019 RERA NOSIG
13-11-18 METAR LIMC 180850Z 04003KT 340V090 3000 BR SCT030 OVC060 09/08 Q1019 NOSIG
13-11-18 METAR LIMC 180920Z 03003KT 340V080 3000 BR SCT030 OVC060 09/08 Q1019 NOSIG
13-11-18 METAR LIMC 180950Z 02004KT 350V080 3000 BR SCT030 OVC060 09/08 Q1019 NOSIG
13-11-18 METAR LIMC 181020Z 02005KT 350V070 3000 BR SCT030 OVC060 09/08 Q1018 NOSIG
13-11-18 METAR LIMC 181050Z 02004KT 3000 BR SCT040 OVC070 09/08 Q1018 NOSIG
13-11-18 METAR LIMC 181120Z 02004KT 340V050 3000 BR SCT040 OVC070 09/08 Q1017 NOSIG
13-11-18 METAR LIMC 181150Z 01004KT 350V060 3000 RA BR BKN040 OVC070 09/08 Q1017
13-11-18 METAR LIMC 181220Z 36003KT 330V030 3000 RA BR BKN040 OVC070 09/08 Q1017
13-11-18 METAR LIMC 181250Z 05003KT 360V090 3000 RA BR BKN040 OVC070 09/08 Q1016
13-11-18 METAR LIMC 181320Z VRB02KT 3000 RA BR BKN040 OVC070 09/08 Q1016 NOSIG
13-11-18 METAR LIMC 181350Z 36003KT 320V050 3000 RA BR BKN040 OVC070 09/08 Q1016
13-11-18 METAR LIMC 181420Z 36003KT 320V040 3000 RA BR BKN040 OVC070 09/08 Q1016
13-11-18 METAR LIMC 181450Z 36005KT 3000 RA BR BKN040 OVC070 09/08 Q1015 NOSIG
13-11-18 METAR LIMC 181520Z 02003KT 3000 RA BR BKN040 OVC070 09/08 Q1015 NOSIG
13-11-18 METAR LIMC 181550Z 04003KT 360V070 3000 RA BR BKN040 OVC070 09/08 Q1015
13-11-18 METAR LIMC 181620Z VRB02KT 3000 BR BKN040 OVC070 09/08 Q1015 RERA NOSIG
13-11-18 METAR LIMC 181650Z 04003KT 360V070 5000 -RA BR BKN040 OVC070 09/08 Q1014
13-11-18 METAR LIMC 181720Z VRB02KT 5000 BR BKN040 OVC070 09/08 Q1015 NOSIG
13-11-18 METAR LIMC 181750Z 00000KT 3000 RA BR BKN040 OVC070 09/08 Q1014 NOSIG
13-11-18 METAR LIMC 181820Z 33002KT 3000 RA BR BKN040 OVC070 09/09 Q1014 NOSIG
13-11-18 METAR LIMC 181850Z 34005KT 3000 RA BR BKN040 OVC070 09/09 Q1014 NOSIG
13-11-18 METAR LIMC 181920Z 36006KT 3000 RA BR BKN040 OVC070 09/09 Q1014 NOSIG
13-11-18 METAR LIMC 181950Z 35006KT 3000 RA BR BKN040 OVC070 09/09 Q1013 NOSIG
13-11-18 METAR LIMC 182020Z 36006KT 3000 RA BR BKN020 OVC050 09/09 Q1013 NOSIG
13-11-18 METAR LIMC 182050Z 35004KT 3000 RA BR BKN015 OVC050 09/09 Q1013 NOSIG
13-11-18 METAR LIMC 182120Z 34005KT 5000 RA BR BKN025 OVC050 09/09 Q1013 NOSIG
13-11-18 METAR LIMC 182150Z 35006KT 9999 OVC050 09/09 Q1013 RERA NOSIG
13-11-18 METAR LIMC 182220Z 36007KT 9999 OVC050 09/09 Q1012 NOSIG
13-11-18 METAR LIMC 182250Z 34007KT 9999 RA SCT030 OVC050 09/09 Q1012 NOSIG
13-11-18 METAR LIMC 182320Z 35007KT 9999 SCT030 OVC050 09/08 Q1011 RERA NOSIG
13-11-19 METAR LIMC 190020Z 35006KT 9999 BKN050 09/08 Q1010 NOSIG
13-11-19 METAR LIMC 190050Z 35005KT 9999 RA SCT030 BKN050 09/08 Q1010 NOSIG
13-11-19 METAR LIMC 190150Z NIL
13-11-19 METAR LIMC 190150Z 35008KT 9999 -RA SCT030 BKN050 09/08 Q1009 RERA NOSIG
13-11-19 METAR LIMC 190220Z 34006KT 9999 SCT030 BKN050 09/08 Q1008 NOSIG
13-11-19 METAR LIMC 190250Z 35007KT 9999 -RA SCT030 BKN050 09/08 Q1008 NOSIG
13-11-19 METAR LIMC 190320Z 34005KT 9999 -RA SCT030 BKN050 09/08 Q1007 NOSIG
13-11-19 METAR LIMC 190350Z 01004KT 320V060 9999 -RA SCT030 BKN050 09/08 Q1007 NOSIG
13-11-19 METAR LIMC 190420Z VRB02KT 9999 -RA SCT030 BKN050 09/08 Q1006 NOSIG
13-11-19 METAR LIMC 190450Z VRB02KT 9999 -RA SCT030 BKN050 09/08 Q1006 NOSIG
13-11-19 METAR LIMC 190520Z 01003KT 330V060 9999 RA SCT030 BKN050 09/08 Q1005 NOSIG
13-11-19 METAR LIMC 190550Z 36007KT 9999 FEW030 BKN060 10/08 Q1005 RERA NOSIG
13-11-19 METAR LIMC 190620Z 02007KT 330V070 9999 SCT030 BKN060 10/08 Q1004 RERA
13-11-19 METAR LIMC 190650Z 36007KT 9999 4500N RA BKN025 OVC050 10/08 Q1004 NOSIG
13-11-19 METAR LIMC 190720Z 35008KT 9999 RA BKN025 OVC050 09/08 Q1004 NOSIG
13-11-19 METAR LIMC 190750Z 34004KT 9999 RA BKN025 OVC050 10/08 Q1004 NOSIG
13-11-19 METAR LIMC 190820Z 15007KT 120V180 8000 RA BKN025 OVC050 09/09 Q1004 NOSIG
13-11-19 METAR LIMC 190850Z 20004KT 160V300 4500 RA BKN025 OVC050 09/09 Q1004 NOSIG
13-11-19 METAR LIMC 190920Z 36006KT 4500 RA BKN025 OVC050 09/09 Q1004 NOSIG
13-11-19 METAR LIMC 190950Z 35007KT 4500 RA BKN025 OVC050 09/09 Q1004 NOSIG
13-11-19 METAR LIMC 191020Z 35006KT 2300 RA BKN010 OVC050 09/09 Q1004 NOSIG
13-11-19 METAR LIMC 191050Z 36008KT 2300 RA BKN010 OVC050 10/09 Q1004 NOSIG
13-11-19 METAR LIMC 191120Z 36006KT 8000 RA BKN020 OVC050 10/09 Q1004 NOSIG
13-11-19 METAR LIMC 191150Z 01004KT 8000 -RA BKN025 OVC050 10/09 Q1003 RERA NOSIG
13-11-19 METAR LIMC 191220Z 01005KT 330V040 9999 BKN025 OVC050 10/09 Q1003 NOSIG
13-11-19 METAR LIMC 191250Z 36006KT 9999 4500N BKN025 OVC050 10/09 Q1003 NOSIG
13-11-19 METAR LIMC 191320Z 34007KT 9999 FEW006 SCT015 OVC040 10/09 Q1003 NOSIG
13-11-19 METAR LIMC 191350Z 35005KT 8000 -RA FEW006 SCT015 OVC040 10/09 Q1003 NOSIG
13-11-19 METAR LIMC 191420Z 34006KT 3500 -RA SCT006 BKN015 OVC040 10/09 Q1002 NOSIG
13-11-19 METAR LIMC 191450Z 34008KT 9999 -RA FEW006 SCT015 BKN040 10/09 Q1002 NOSIG
13-11-19 METAR LIMC 191520Z 01005KT 9999 SCT015 SCT040 10/09 Q1002 NOSIG
13-11-19 METAR LIMC 191550Z NIL
13-11-19 METAR LIMC 191550Z VRB02KT 9999 SCT025 BKN050 10/09 Q1002 NOSIG
13-11-19 METAR LIMC 191620Z 27001KT 9999 BKN025 OVC050 10/09 Q1002 NOSIG
13-11-19 METAR LIMC 191650Z VRB01KT 9999 -RA BKN025 OVC050 10/09 Q1002 NOSIG
13-11-19 METAR LIMC 191720Z 31003KT 9999 -RA BKN020 OVC050 10/09 Q1002 NOSIG
13-11-19 METAR LIMC 191750Z VRB02KT 9999 -RA BKN020 OVC050 10/09 Q1002 NOSIG
13-11-19 METAR LIMC 191820Z 33003KT 9999 DZ SCT020 BKN050 09/09 Q1002 NOSIG
13-11-19 METAR LIMC 191850Z 36004KT 9999 SCT020 BKN050 10/09 Q1002 REDZ NOSIG
13-11-19 METAR LIMC 191920Z 32003KT 9999 SCT020 BKN050 09/09 Q1002 REDZ NOSIG
13-11-19 METAR LIMC 191950Z 32004KT 9999 DZ SCT020 BKN050 09/08 Q1002 NOSIG
13-11-19 METAR LIMC 192020Z 35004KT 9999 RA SCT020 BKN050 09/08 Q1001 REDZ NOSIG
13-11-19 METAR LIMC 192050Z 33003KT 9999 RA SCT020 BKN050 09/09 Q1002 NOSIG
13-11-19 METAR LIMC 192050Z NIL
13-11-19 METAR LIMC 192120Z NIL
13-11-19 METAR LIMC 192120Z 35004KT 9999 RA SCT020 BKN050 09/08 Q1001 NOSIG
13-11-19 METAR LIMC 192150Z NIL
13-11-19 METAR LIMC 192150Z 34004KT 9999 SCT020 OVC050 09/09 Q1001 RERA NOSIG
13-11-19 METAR LIMC 192220Z 34004KT 9999 SCT020 OVC050 09/08 Q1001 NOSIG
13-11-19 METAR LIMC 192250Z 36004KT 9999 SCT020 OVC050 09/08 Q1001 NOSIG
13-11-19 METAR LIMC 192320Z 36005KT 9999 SCT035 OVC050 09/08 Q1001 NOSIG
13-11-19 METAR LIMC 192350Z 36004KT 320V060 9999 SCT035 OVC050 09/08 Q1001 NOSIG
13-11-20 METAR LIMC 200020Z 00000KT 9999 SCT035 OVC050 09/08 Q1001 NOSIG
13-11-20 METAR LIMC 200120Z 35003KT 330V030 5000 RA SCT035 OVC050 09/08 Q1001 NOSIG
13-11-20 METAR LIMC 200150Z VRB02KT 5000 RA SCT035 OVC050 09/08 Q1001 NOSIG
13-11-20 METAR LIMC 200220Z 01003KT 5000 -RA SCT035 OVC050 09/08 Q1001 RERA NOSIG
13-11-20 METAR LIMC 200250Z 35003KT 300V070 5000 -RA SCT035 BKN050 09/08 Q1000 RERA NOSIG
13-11-20 METAR LIMC 200320Z VRB02KT 9999 SCT035 BKN050 09/08 Q1000 NOSIG
13-11-20 METAR LIMC 200350Z 08004KT 040V110 9999 RA SCT035 BKN050 09/08 Q1000 NOSIG
13-11-20 METAR LIMC 200420Z 10004KT 070V130 7000 RA SCT020 BKN040 09/08 Q1000 NOSIG
13-11-20 METAR LIMC 200450Z VRB07G21KT 4500 +RA SCT020 BKN040 09/08 Q1000 NOSIG
13-11-20 METAR LIMC 200520Z 06008KT 340V080 9000 RA SCT020 BKN040 09/08 Q1001 NOSIG
13-11-20 METAR LIMC 200550Z 08005KT 9000 RA SCT020 BKN040 09/08 Q1001 NOSIG
13-11-20 METAR LIMC 200620Z VRB02KT 5000 RA SCT010 BKN035 09/08 Q1001 NOSIG
13-11-20 METAR LIMC 200650Z 04005KT 330V070 3500 RA BR BKN010 OVC035 09/08 Q1001
13-11-20 METAR LIMC 200720Z 04003KT 330V090 3500 RA BR BKN010 OVC035 09/08 Q1001
13-11-20 METAR LIMC 200750Z VRB01KT 3500 RA BR SCT006 BKN010 OVC035 09/09 Q1001
13-11-20 METAR LIMC 200820Z 36002KT 3000 RA BR SCT006 BKN010 OVC035 09/09 Q1002
13-11-20 METAR LIMC 200850Z VRB02KT 3000 RA BR SCT006 BKN010 OVC035 10/09 Q1002
13-11-20 METAR LIMC 200920Z 01004KT 350V080 3000 RA BR SCT006 BKN010 OVC035 10/09 Q1002 NOSIG
13-11-20 METAR LIMC 200950Z 35005KT 320V020 4000 BR SCT006 BKN010 OVC035 10/09 Q1002 RERA NOSIG
13-11-20 METAR LIMC 201020Z 01003KT 310V080 5000 BR SCT006 SCT010 OVC035 10/09 Q1002
13-11-20 METAR LIMC 201050Z 35005KT 7000 FEW006 SCT015 OVC060 10/09 Q1001 NOSIG
13-11-20 METAR LIMC 201120Z 34007KT 7000 FEW006 SCT015 OVC060 10/09 Q1001 NOSIG
13-11-20 METAR LIMC 201150Z 35006KT 8000 SCT015 BKN060 10/09 Q1001 NOSIG
13-11-20 METAR LIMC 201220Z 35005KT 330V030 9999 SCT015 BKN060 10/08 Q1001 NOSIG
13-11-20 METAR LIMC 201250Z 35005KT 9999 SCT025 BKN060 10/08 Q1001 NOSIG
13-11-20 METAR LIMC 201320Z 34003KT 320V030 8000 SCT020 BKN060 10/08 Q1001 NOSIG
13-11-20 METAR LIMC 201350Z VRB01KT 8000 RA SCT020 BKN060 10/08 Q1001 NOSIG
13-11-20 METAR LIMC 201420Z 00000KT 5000 RA BR SCT020 BKN060 09/08 Q1001 NOSIG
13-11-20 METAR LIMC 201450Z 31003KT 270V340 5000 RA BR SCT010 BKN040 09/08 Q1001
13-11-20 METAR LIMC 201520Z VRB02KT 7000 SCT010 BKN040 09/08 Q1001 RERA NOSIG
13-11-20 METAR LIMC 201550Z 35003KT 8000 SCT010 BKN040 09/08 Q1001 NOSIG
13-11-20 METAR LIMC 201620Z VRB02KT 8000 SCT010 BKN040 09/08 Q1001 NOSIG
13-11-20 METAR LIMC 201650Z 00000KT 9999 SCT010 BKN040 09/08 Q1001 NOSIG
13-11-20 METAR LIMC 201720Z NIL
13-11-20 METAR LIMC 201720Z 20004KT 9999 BKN030 09/08 Q1001 NOSIG
13-11-20 METAR LIMC 201750Z NIL
13-11-20 METAR LIMC 201750Z 17003KT 150V210 9999 BKN030 08/07 Q1001 NOSIG
13-11-20 METAR LIMC 201820Z NIL
13-11-20 METAR LIMC 201820Z 19003KT 9999 -RA SCT030 BKN070 09/04 Q1002 NOSIG
13-11-20 METAR LIMC 201850Z 13003KT 090V160 9999 SCT030 BKN070 08/04 Q1002 NOSIG
13-11-20 METAR LIMC 201920Z VRB04KT 9999 BKN060 08/05 Q1002 NOSIG
13-11-20 METAR LIMC 201950Z NIL
13-11-20 METAR LIMC 202020Z NIL
13-11-20 METAR LIMC 202050Z 35004KT 320V040 9999 BKN060 07/06 Q1002 NOSIG
13-11-20 METAR LIMC 202120Z NIL
13-11-20 METAR LIMC 202150Z 03003KT 010V070 9999 BKN060 07/05 Q1002 NOSIG
13-11-20 METAR LIMC 202220Z 04003KT 9999 BKN060 06/05 Q1002 NOSIG
13-11-20 METAR LIMC 202250Z VRB02KT 9999 BKN060 06/05 Q1002 NOSIG
13-11-20 METAR LIMC 202320Z 01002KT 9999 BKN060 06/05 Q1002 NOSIG
13-11-20 METAR LIMC 202350Z NIL
13-11-20 METAR LIMC 202350Z VRB02KT 9999 BKN060 05/05 Q1001 NOSIG
13-11-21 METAR LIMC 210020Z 33003KT 9999 BKN060 05/04 Q1001 NOSIG
13-11-21 METAR LIMC 210050Z 35004KT 9999 BKN060 05/04 Q1001 NOSIG
13-11-21 METAR LIMC 210120Z 01004KT 340V100 9999 BKN060 05/04 Q1001 NOSIG
13-11-21 METAR LIMC 210150Z 34003KT 9999 BKN060 05/04 Q1001 NOSIG
13-11-21 METAR LIMC 210220Z VRB01KT 9999 BKN060 04/04 Q1000 NOSIG
13-11-21 METAR LIMC 210250Z 32004KT 9999 BKN060 04/04 Q1000 NOSIG
13-11-21 METAR LIMC 210320Z 35004KT 9999 BKN060 04/04 Q0999 NOSIG
13-11-21 METAR LIMC 210350Z 36003KT 9999 BKN060 05/04 Q0999 NOSIG
13-11-21 METAR LIMC 210420Z VRB01KT 9999 BKN060 05/05 Q0999 NOSIG
13-11-21 METAR LIMC 210450Z 06006KT 9999 BKN070 06/04 Q0999 NOSIG
13-11-21 METAR LIMC 210520Z 06003KT 9999 BKN070 06/04 Q0999 NOSIG
13-11-21 METAR LIMC 210550Z 06003KT 9999 BKN070 06/04 Q0999 NOSIG
13-11-21 METAR LIMC 210620Z VRB02KT 9999 -RA SCT030 BKN070 06/04 Q0998 NOSIG
13-11-21 METAR LIMC 210650Z 07005KT 9999 -RA SCT030 BKN070 06/04 Q0998 NOSIG
13-11-21 METAR LIMC 210720Z 09004KT 9999 SCT030 BKN070 06/04 Q0998 NOSIG
13-11-21 METAR LIMC 210750Z 10004KT 070V130 9999 SCT030 BKN070 06/04 Q0998 NOSIG
13-11-21 METAR LIMC 210820Z 11005KT 080V140 9999 SCT030 BKN070 06/04 Q0998 NOSIG
13-11-21 METAR LIMC 210850Z 14005KT 110V170 7000 RA SCT020 BKN060 06/04 Q0998 NOSIG
13-11-21 METAR LIMC 210920Z VRB02KT 9999 RA SCT020 BKN060 05/04 Q0997 NOSIG
13-11-21 METAR LIMC 210950Z 10003KT 050V130 8000 RA SCT020 BKN060 05/04 Q0997 NOSIG
13-11-21 METAR LIMC 211020Z 08004KT 340V120 7000 RA SCT020 BKN060 06/05 Q0997 NOSIG
13-11-21 METAR LIMC 211050Z 11004KT 080V150 9999 SCT020 BKN060 06/05 Q0996 RERA NOSIG
13-11-21 METAR LIMC 211120Z 10005KT 060V130 9000 -RA SCT020 BKN060 06/05 Q0996
13-11-21 METAR LIMC 211150Z 09005KT 060V120 9000 -RA SCT020 BKN060 06/05 Q0995
13-11-21 METAR LIMC 211220Z NIL
13-11-21 METAR LIMC 211250Z 07008KT 040V100 8000 RA SCT020 BKN060 06/05 Q0994 NOSIG
13-11-21 METAR LIMC 211320Z 07009KT 040V100 9000 -RA SCT015 BKN050 06/05 Q0993 RERA
13-11-21 METAR LIMC 211350Z 09010G22KT 060V140 3000 RA BR SCT007 BKN030 06/05 Q0993
13-11-21 METAR LIMC 211420Z 10010KT 070V130 3000 RA BR SCT007 BKN030 06/05 Q0993
13-11-21 METAR LIMC 211450Z 08009KT 050V120 3000 RA BR SCT007 BKN030 06/04 Q0993
13-11-21 METAR LIMC 211520Z 09013G25KT 070V130 5000 RA BR SCT007 BKN030 06/04 Q0993
13-11-21 METAR LIMC 211550Z 10012G25KT 050V130 6000 RA SCT007 BKN030 06/04 Q0993
13-11-21 METAR LIMC 211620Z 09014G26KT 060V130 9000 RA BKN012 OVC035 06/04 Q0993
13-11-21 METAR LIMC 211650Z 09013G26KT 050V120 9000 RA BKN012 OVC035 06/04 Q0993
13-11-21 METAR LIMC 211720Z NIL
13-11-21 METAR LIMC 211720Z 09013KT 060V120 7000 RA VCTS BKN012CB OVC035 06/04 Q0993 BECMG TS
13-11-21 METAR LIMC 211750Z 09012G22KT 070V130 7000 -RA BKN012 OVC035 06/04 Q0994 RERA NOSIG
13-11-21 METAR LIMC 211820Z 09010KT 070V130 9999 -RA BKN012 OVC035 06/04 Q0994
13-11-21 METAR LIMC 211850Z 10010KT 9999 -RA BKN020 OVC040 06/04 Q0994 NOSIG
13-11-21 METAR LIMC 211920Z 07010KT 030V130 9999 -RA BKN015 OVC040 05/04 Q0994
13-11-21 METAR LIMC 211950Z NIL
13-11-21 METAR LIMC 211950Z 06010KT 020V090 9999 -RA BKN015 OVC040 05/03 Q0995
13-11-21 METAR LIMC 212020Z 05008KT 030V090 6000 RA BKN012 OVC035 04/03 Q0995 NOSIG
13-11-21 METAR LIMC 212050Z 05010KT 9999 RA BKN020 OVC070 04/03 Q0995 NOSIG
13-11-21 METAR LIMC 212120Z 06007KT 030V120 9999 RA BKN030 OVC070 04/03 Q0995 NOSIG
13-11-21 METAR LIMC 212150Z VRB08KT 9999 RA BKN030 OVC070 04/03 Q0996 NOSIG
13-11-21 METAR LIMC 212220Z 05007KT 340V080 9999 RA BKN030 OVC070 03/03 Q0996 NOSIG
13-11-21 METAR LIMC 212250Z 06004KT 9999 DZ BKN030 OVC070 03/03 Q0996 RERA NOSIG
13-11-22 METAR LIMC 220020Z 02004KT 9999 RA SCT015 OVC050 03/02 Q0997 NOSIG
13-11-22 METAR LIMC 220050Z 35008KT 9999 SCT025 BKN060 03/02 Q0997 RERA NOSIG
13-11-22 METAR LIMC 220120Z 35005KT 9999 SCT035 BKN060 03/03 Q0997 NOSIG
13-11-22 METAR LIMC 220150Z 34006KT 9999 BKN035 BKN060 03/03 Q0997 NOSIG
13-11-22 METAR LIMC 220220Z 03005KT 350V070 9999 RA BKN030 BKN060 03/03 Q0997 NOSIG
13-11-22 METAR LIMC 220250Z 34009KT 9999 RA BKN030 BKN060 03/03 Q0997 NOSIG
13-11-22 METAR LIMC 220320Z 34009KT 9999 RA BKN030 BKN060 03/02 Q0997 NOSIG
13-11-22 METAR LIMC 220350Z 01004KT 9999 RA BKN030 BKN060 03/02 Q0998 NOSIG
13-11-22 METAR LIMC 220420Z 03004KT 330V070 9999 RA BKN030 BKN060 03/02 Q0998 NOSIG
13-11-22 METAR LIMC 220450Z 36006KT 9999 RA BKN030 BKN060 03/02 Q0998 NOSIG
13-11-22 METAR LIMC 220520Z 03004KT 350V060 9999 DZ BKN030 BKN060 03/02 Q0998 RERA NOSIG
13-11-22 METAR LIMC 220550Z 03006KT 9999 -RA BKN030 BKN060 02/02 Q0999 NOSIG
13-11-22 METAR LIMC 220620Z 02004KT 350V060 9999 -RA BKN030 BKN060 02/01 Q0999
13-11-22 METAR LIMC 220650Z 01006KT 340V050 9999 -RA BKN030 BKN060 02/01 Q1000
13-11-22 METAR LIMC 220720Z 04008KT 360V070 9999 -RA BKN030 BKN060 02/01 Q1000
13-11-22 METAR LIMC 220750Z 02005KT 350V050 9999 -RA BKN030 BKN060 02/02 Q1000
13-11-22 METAR LIMC 220820Z 34007KT 320V020 7000 -RA BKN030 BKN060 02/02 Q1001
13-11-22 METAR LIMC 220850Z 35011KT 7000 -RA BKN030 BKN060 02/02 Q1001 NOSIG
13-11-22 METAR LIMC 220920Z 36010KT 8000 -RA BKN030 BKN060 02/02 Q1001 NOSIG
13-11-22 METAR LIMC 220950Z 36008KT 5000 -RA BKN030 BKN060 02/02 Q1002 NOSIG
13-11-22 METAR LIMC 221020Z 34009KT 7000 RA BKN030 BKN060 02/02 Q1002 NOSIG
13-11-22 METAR LIMC 221050Z 33006KT 9000 RA BKN030 BKN070 03/02 Q1002 NOSIG
13-11-22 METAR LIMC 221120Z 33007KT 9999 -RA FEW008 SCT040 OVC070 03/02 Q1002 RERA
13-11-22 METAR LIMC 221150Z 34007KT 9999 -RA FEW008 SCT040 OVC070 03/02 Q1002 NOSIG
13-11-22 METAR LIMC 221220Z 34011KT 9999 R35L/1500N R35R/1400V1500N -RA FEW008 SCT040 OVC070 04/03 Q1002 NOSIG
13-11-22 METAR LIMC 221250Z 34010KT 9999 -RA SCT035 OVC070 04/03 Q1002 NOSIG
13-11-22 METAR LIMC 221320Z 35010KT 9999 -RA BKN025 BKN070 04/03 Q1002 NOSIG
13-11-22 METAR LIMC 221420Z 35010KT CAVOK 04/03 Q1002 NOSIG
13-11-22 METAR LIMC 221450Z 34009KT 9999 SCT060 04/03 Q1002 NOSIG
13-11-22 METAR LIMC 221520Z 34007KT 9999 BKN060 03/02 Q1002 NOSIG
13-11-22 METAR LIMC 221550Z 34006KT 9999 BKN055 03/02 Q1002 NOSIG
13-11-22 METAR LIMC 221620Z 35005KT 9999 BKN050 04/02 Q1002 NOSIG
13-11-22 METAR LIMC 221650Z 01004KT 9999 BKN050 03/02 Q1003 NOSIG
13-11-22 METAR LIMC 221720Z 35006KT 9999 BKN050 03/01 Q1003 NOSIG
13-11-22 METAR LIMC 221750Z 36006KT 9999 SCT050 BKN090 02/01 Q1003 NOSIG
13-11-22 METAR LIMC 221820Z 36008KT 9999 SCT050 BKN090 03/02 Q1003 NOSIG
13-11-22 METAR LIMC 221850Z 36009KT 9999 SCT050 BKN090 03/02 Q1003 NOSIG
13-11-22 METAR LIMC 221920Z 35009KT 9999 FEW035 BKN090 03/02 Q1003 NOSIG
13-11-22 METAR LIMC 221950Z 36007KT 9999 FEW035 SCT090 03/02 Q1003 NOSIG
13-11-22 METAR LIMC 222020Z 36007KT 9999 FEW035 SCT090 03/02 Q1003 NOSIG
13-11-22 METAR LIMC 222050Z 36009KT 9999 FEW035 SCT090 03/02 Q1003 NOSIG
13-11-22 METAR LIMC 222120Z 36007KT 9999 BKN080 03/02 Q1003 NOSIG
13-11-22 METAR LIMC 222150Z 36006KT 9999 BKN080 03/01 Q1002 NOSIG
13-11-22 METAR LIMC 222220Z 36006KT 9999 BKN080 04/01 Q1002 NOSIG
13-11-22 METAR LIMC 222250Z NIL
13-11-22 METAR LIMC 222320Z 36006KT 9999 BKN090 04/00 Q1002 NOSIG
13-11-22 METAR LIMC 222350Z 36004KT 9999 BKN090 03/M00 Q1001 NOSIG
13-11-23 METAR LIMC 230020Z 01005KT 9999 SCT090 02/M00 Q1001 NOSIG
13-11-23 METAR LIMC 230050Z 02005KT 9999 SCT090 03/M00 Q1001 NOSIG
13-11-23 METAR LIMC 230120Z 01007KT 9999 SCT090 03/M00 Q1001 NOSIG
13-11-23 METAR LIMC 230150Z VRB02KT 9999 BKN090 02/M00 Q1001 NOSIG
13-11-23 METAR LIMC 230220Z 00000KT 9999 BKN090 02/00 Q1000 NOSIG
13-11-23 METAR LIMC 230250Z VRB02KT 9999 BKN090 01/00 Q1000 NOSIG
13-11-23 METAR LIMC 230320Z VRB02KT 9999 BKN090 01/00 Q1000 NOSIG
13-11-23 METAR LIMC 230350Z 35004KT 9999 BKN090 01/M00 Q1000 NOSIG
13-11-23 METAR LIMC 230420Z 36004KT 9999 BKN090 00/M00 Q1000 NOSIG
13-11-23 METAR LIMC 230450Z 35007KT 9999 BKN090 02/M00 Q1000 NOSIG
13-11-23 METAR LIMC 230520Z 35009KT 9999 BKN070 01/M00 Q0999 NOSIG
13-11-23 METAR LIMC 230550Z NIL
13-11-23 METAR LIMC 230550Z 35004KT 9999 BKN060 02/M01 Q1000 NOSIG
13-11-23 METAR LIMC 230620Z 01004KT 330V060 9999 BKN060 04/M00 Q1000 NOSIG
13-11-23 METAR LIMC 230650Z 35005KT 9999 SCT040 BKN060 03/M00 Q1000 NOSIG
13-11-23 METAR LIMC 230720Z 36003KT 340V040 9999 BKN060 03/00 Q1000 NOSIG
13-11-23 METAR LIMC 230750Z 35005KT 9999 BKN060 04/01 Q1000 NOSIG
13-11-23 METAR LIMC 230820Z 04004KT 340V130 9999 BKN060 04/01 Q1001 NOSIG
13-11-23 METAR LIMC 230850Z VRB01KT 9999 BKN060 04/02 Q1001 NOSIG
13-11-23 METAR LIMC 230920Z VRB02KT 9999 BKN060 05/02 Q1001 NOSIG
13-11-23 METAR LIMC 230950Z 36005KT 330V050 9999 SCT040 BKN060 06/01 Q1001 NOSIG
13-11-23 METAR LIMC 231020Z 35004KT 9999 BKN020 BKN060 05/01 Q1001 NOSIG
13-11-23 METAR LIMC 231050Z 27006KT 9999 -RA BKN020 BKN060 06/02 Q1000 NOSIG
13-11-23 METAR LIMC 231120Z 35006KT 310V010 9999 SCT035 BKN060 06/02 Q1000 NOSIG
13-11-23 METAR LIMC 231150Z 08004KT 320V120 9999 SCT035 BKN060 07/02 Q1000 NOSIG
13-11-23 METAR LIMC 231220Z 15006KT 9999 SCT035 BKN060 06/02 Q1000 NOSIG
13-11-23 METAR LIMC 231250Z 17004KT 9999 SCT035 BKN060 06/02 Q1000 NOSIG
13-11-23 METAR LIMC 231320Z 15006KT 9999 SCT035 BKN060 06/02 Q1001 NOSIG
13-11-23 METAR LIMC 231350Z 15006KT 9999 SCT035 BKN060 06/02 Q1001 NOSIG
13-11-23 METAR LIMC 231420Z 21006KT 9999 BKN025 BKN060 05/02 Q1001 NOSIG
13-11-23 METAR LIMC 231450Z 23003KT 210V270 9999 BKN025 BKN050 06/03 Q1001 NOSIG
13-11-23 METAR LIMC 231520Z 19002KT 9999 BKN030 BKN060 05/03 Q1001 NOSIG
13-11-23 METAR LIMC 231550Z VRB02KT 9999 SCT040 BKN070 05/03 Q1001 NOSIG
13-11-23 METAR LIMC 231620Z 13005KT 090V160 9999 BKN050 BKN080 05/03 Q1001 NOSIG
13-11-23 METAR LIMC 231650Z 13003KT 070V160 9999 BKN050 BKN080 05/03 Q1001 NOSIG
13-11-23 METAR LIMC 231720Z 11004KT 060V140 9999 BKN050 BKN080 05/03 Q1002 NOSIG
13-11-23 METAR LIMC 231750Z 11003KT 070V160 9999 BKN050 BKN080 05/03 Q1002 NOSIG
13-11-23 METAR LIMC 231820Z 10003KT 070V140 9999 BKN050 BKN080 05/03 Q1003 NOSIG
13-11-23 METAR LIMC 231850Z 10004KT 080V160 9999 BKN050 BKN080 05/03 Q1003 NOSIG
13-11-23 METAR LIMC 231920Z 09003KT 9999 BKN060 BKN080 04/03 Q1003 NOSIG
13-11-23 METAR LIMC 231950Z VRB02KT 9999 BKN060 BKN080 04/03 Q1003 NOSIG
13-11-23 METAR LIMC 232020Z 00000KT 9999 BKN060 OVC080 04/03 Q1004 NOSIG
13-11-23 METAR LIMC 232050Z 35003KT 9999 BKN060 OVC080 04/03 Q1004 NOSIG
13-11-23 METAR LIMC 232120Z 33004KT 9999 BKN060 OVC080 04/03 Q1004 NOSIG
13-11-23 METAR LIMC 232150Z VRB01KT 9999 BKN060 OVC080 04/03 Q1004 NOSIG
13-11-23 METAR LIMC 232220Z 02003KT 9999 OVC060 04/03 Q1004 NOSIG
13-11-23 METAR LIMC 232250Z 03002KT 9999 OVC060 04/03 Q1005 NOSIG
13-11-23 METAR LIMC 232320Z 33004KT 9999 OVC060 04/03 Q1005 NOSIG
13-11-23 METAR LIMC 232350Z 35002KT 9999 OVC060 04/03 Q1005 NOSIG
13-11-24 METAR LIMC 240020Z 34003KT 9999 OVC060 04/03 Q1005 NOSIG
13-11-24 METAR LIMC 240050Z 02001KT 9999 OVC070 04/03 Q1005 NOSIG
13-11-24 METAR LIMC 240120Z VRB02KT 9999 OVC070 03/03 Q1005 NOSIG
13-11-24 METAR LIMC 240150Z 36002KT 9999 OVC070 02/02 Q1005 NOSIG
13-11-24 METAR LIMC 240220Z 35002KT 9999 OVC070 01/01 Q1006 NOSIG
13-11-24 METAR LIMC 240250Z 35003KT 9999 BKN090 01/01 Q1006 NOSIG
13-11-24 METAR LIMC 240320Z VRB02KT 9999 BKN090 01/01 Q1006 NOSIG
13-11-24 METAR LIMC 240350Z 34003KT 9999 BKN090 02/02 Q1006 NOSIG
13-11-24 METAR LIMC 240420Z 35005KT 9999 BKN090 01/01 Q1006 NOSIG
13-11-24 METAR LIMC 240450Z 36003KT 9999 BKN070 01/00 Q1006 NOSIG
13-11-24 METAR LIMC 240520Z VRB02KT 9999 BKN070 01/01 Q1006 NOSIG
13-11-24 METAR LIMC 240550Z 35004KT 9999 BKN060 01/01 Q1007 NOSIG
13-11-24 METAR LIMC 240620Z 35004KT 310V050 9999 MIFG BKN070 02/02 Q1007 NOSIG
13-11-24 METAR LIMC 240650Z 35005KT 9999 MIFG BKN070 02/02 Q1007 NOSIG
13-11-24 METAR LIMC 240720Z 35005KT 9999 MIFG SCT070 SCT090 03/02 Q1008 NOSIG
13-11-24 METAR LIMC 240750Z 36005KT 9999 SCT070 SCT090 03/03 Q1008 NOSIG
13-11-24 METAR LIMC 240820Z 34004KT 9999 SCT070 SCT090 04/03 Q1008 NOSIG
13-11-24 METAR LIMC 240850Z 32003KT 280V340 9999 BKN070 05/05 Q1008 NOSIG
13-11-24 METAR LIMC 240920Z 33006KT 9999 BKN070 06/05 Q1009 NOSIG
13-11-24 METAR LIMC 240950Z 33006KT 9999 SCT090 08/05 Q1009 NOSIG
13-11-24 METAR LIMC 241020Z 32008KT 9999 FEW090 09/05 Q1009 NOSIG
13-11-24 METAR LIMC 241050Z 30006KT CAVOK 10/05 Q1008 NOSIG
13-11-24 METAR LIMC 241120Z 27008KT 240V310 CAVOK 11/05 Q1008 NOSIG
13-11-24 METAR LIMC 241150Z 28007KT CAVOK 11/05 Q1008 NOSIG
13-11-24 METAR LIMC 241220Z 26007KT 240V300 CAVOK 12/05 Q1008 NOSIG
13-11-24 METAR LIMC 241250Z 26005KT 220V290 CAVOK 12/05 Q1008 NOSIG
13-11-24 METAR LIMC 241320Z 27003KT 220V300 9999 SCT070 12/05 Q1008 NOSIG
13-11-24 METAR LIMC 241350Z 24005KT 210V290 9999 SCT070 12/04 Q1008 NOSIG
13-11-24 METAR LIMC 241420Z 27004KT 9999 SCT070 11/04 Q1008 NOSIG
13-11-24 METAR LIMC 241450Z 27004KT 9999 FEW070 11/05 Q1008 NOSIG
13-11-24 METAR LIMC 241520Z 32006KT 9999 SCT080 09/06 Q1008 NOSIG
13-11-24 METAR LIMC 241550Z 32006KT 9999 FEW080 08/05 Q1009 NOSIG
13-11-24 METAR LIMC 241620Z 32007KT CAVOK 07/04 Q1009 NOSIG
13-11-24 METAR LIMC 241650Z 33007KT CAVOK 06/03 Q1009 NOSIG
13-11-24 METAR LIMC 241720Z 33007KT CAVOK 05/03 Q1009 NOSIG
13-11-24 METAR LIMC 241750Z 35008KT CAVOK 06/04 Q1009 NOSIG
13-11-24 METAR LIMC 241820Z 33006KT CAVOK 05/03 Q1009 NOSIG
13-11-24 METAR LIMC 241850Z 34006KT CAVOK 07/04 Q1010 NOSIG
13-11-24 METAR LIMC 241920Z 34006KT CAVOK 06/04 Q1010 NOSIG
13-11-24 METAR LIMC 241950Z 34005KT CAVOK 05/03 Q1010 NOSIG
13-11-24 METAR LIMC 242020Z 35005KT CAVOK 06/03 Q1010 NOSIG
13-11-24 METAR LIMC 242050Z 03004KT CAVOK 05/03 Q1010 NOSIG
13-11-24 METAR LIMC 242120Z 32003KT 290V050 CAVOK 04/02 Q1010 NOSIG
13-11-24 METAR LIMC 242150Z VRB02KT CAVOK 04/00 Q1010 NOSIG
13-11-24 METAR LIMC 242220Z 23003KT 140V260 CAVOK 04/00 Q1011 NOSIG
13-11-24 METAR LIMC 242250Z VRB02KT CAVOK 02/M01 Q1011 NOSIG
13-11-24 METAR LIMC 242320Z 00000KT CAVOK 02/M01 Q1011 NOSIG
13-11-24 METAR LIMC 242350Z VRB02KT CAVOK 01/M01 Q1010 NOSIG
13-11-25 METAR LIMC 250020Z 00000KT CAVOK 01/M01 Q1010 NOSIG
13-11-25 METAR LIMC 250050Z 28004KT 260V320 CAVOK 01/M02 Q1010 NOSIG
13-11-25 METAR LIMC 250120Z 02003KT 350V060 CAVOK 02/M02 Q1010 NOSIG
13-11-25 METAR LIMC 250150Z 32005KT 280V040 CAVOK 04/M03 Q1010 NOSIG
13-11-25 METAR LIMC 250220Z VRB02KT CAVOK 02/M03 Q1010 NOSIG
13-11-25 METAR LIMC 250250Z VRB02KT CAVOK 02/M03 Q1010 NOSIG
13-11-25 METAR LIMC 250320Z 36008KT 320V030 CAVOK 08/M05 Q1010 NOSIG
13-11-25 METAR LIMC 250350Z 35011KT CAVOK 08/M05 Q1010 NOSIG
13-11-25 METAR LIMC 250420Z VRB03KT CAVOK 08/M07 Q1010 NOSIG
13-11-25 METAR LIMC 250450Z 29008KT 260V020 CAVOK 07/M05 Q1010 NOSIG
13-11-25 METAR LIMC 250520Z 01009KT 300V070 CAVOK 09/M07 Q1010 NOSIG
13-11-25 METAR LIMC 250550Z 03013KT CAVOK 09/M07 Q1011 NOSIG
13-11-25 METAR LIMC 250620Z 03013KT CAVOK 10/M08 Q1012 NOSIG
13-11-25 METAR LIMC 250650Z 04013KT 010V070 CAVOK 10/M09 Q1013 NOSIG
13-11-25 METAR LIMC 251020Z NIL
13-11-25 METAR LIMC 251050Z NIL
13-11-25 METAR LIMC 251020Z 01012KT 340V060 CAVOK 13/M12 Q1015 NOSIG
13-11-25 METAR LIMC 251050Z 01015G27KT 350V050 CAVOK 13/M12 Q1015 NOSIG
13-11-25 METAR LIMC 251120Z 01015KT CAVOK 13/M13 Q1015 NOSIG
13-11-25 METAR LIMC 251150Z 01015KT CAVOK 13/M14 Q1015 NOSIG
13-11-25 METAR LIMC 251220Z 02012KT 350V050 CAVOK 13/M14 Q1015 NOSIG
13-11-25 METAR LIMC 251250Z 36015KT CAVOK 13/M15 Q1016 NOSIG
13-11-25 METAR LIMC 251320Z 02011KT CAVOK 13/M15 Q1016 NOSIG
13-11-25 METAR LIMC 251350Z 02013KT 350V050 CAVOK 12/M15 Q1016 NOSIG
13-11-25 METAR LIMC 251420Z 03012KT CAVOK 11/M16 Q1016 NOSIG
13-11-25 METAR LIMC 251450Z 04007KT 010V070 CAVOK 10/M16 Q1016 NOSIG
13-11-25 METAR LIMC 251520Z 02007KT 340V060 CAVOK 10/M17 Q1016 NOSIG
13-11-25 METAR LIMC 251550Z 02006KT 350V050 CAVOK 08/M16 Q1017 NOSIG
13-11-25 METAR LIMC 251620Z 04009KT CAVOK 08/M15 Q1017 NOSIG
13-11-25 METAR LIMC 251650Z 01010KT CAVOK 07/M15 Q1017 NOSIG
13-11-25 METAR LIMC 251720Z 02010KT CAVOK 07/M16 Q1018 NOSIG
13-11-25 METAR LIMC 251750Z 03010G21KT 340V070 CAVOK 07/M17 Q1018 NOSIG
13-11-25 METAR LIMC 251820Z 10004KT 070V130 CAVOK 06/M16 Q1018 NOSIG
13-11-25 METAR LIMC 251850Z 18003KT 140V220 CAVOK 04/M16 Q1018 NOSIG
13-11-25 METAR LIMC 251920Z 14004KT 080V180 CAVOK 05/M16 Q1018 NOSIG
13-11-25 METAR LIMC 251950Z 15003KT 050V200 CAVOK 02/M12 Q1019 NOSIG
13-11-25 METAR LIMC 252020Z VRB02KT CAVOK 02/M14 Q1019 NOSIG
13-11-25 METAR LIMC 252050Z VRB02KT CAVOK 01/M14 Q1019 NOSIG
13-11-25 METAR LIMC 252120Z VRB02KT CAVOK 01/M14 Q1020 NOSIG
13-11-25 METAR LIMC 252150Z 36004KT 310V050 CAVOK 05/M17 Q1020 NOSIG
13-11-25 METAR LIMC 252220Z 35003KT 300V060 CAVOK 02/M15 Q1020 NOSIG
13-11-25 METAR LIMC 252250Z VRB01KT CAVOK 01/M12 Q1020 NOSIG
13-11-25 METAR LIMC 252320Z VRB01KT CAVOK 00/M13 Q1020 NOSIG
13-11-25 METAR LIMC 252350Z VRB02KT CAVOK 02/M14 Q1020 NOSIG
13-11-26 METAR LIMC 260020Z VRB02KT CAVOK M02/M11 Q1020 NOSIG
13-11-26 METAR LIMC 260050Z VRB03KT CAVOK M02/M11 Q1019 NOSIG
13-11-26 METAR LIMC 260120Z 12003KT 050V170 CAVOK M03/M11 Q1019 NOSIG
13-11-26 METAR LIMC 260150Z 35004KT 250V060 CAVOK M00/M10 Q1019 NOSIG
13-11-26 METAR LIMC 260220Z 36003KT 290V030 CAVOK M01/M11 Q1019 NOSIG
13-11-26 METAR LIMC 260250Z VRB02KT CAVOK M00/M12 Q1019 NOSIG
13-11-26 METAR LIMC 260320Z VRB02KT CAVOK M02/M12 Q1019 NOSIG
13-11-26 METAR LIMC 260350Z VRB02KT CAVOK M02/M10 Q1019 NOSIG
13-11-26 METAR LIMC 260420Z 14004KT 090V160 CAVOK M02/M09 Q1019 NOSIG
13-11-26 METAR LIMC 260450Z VRB02KT CAVOK M01/M11 Q1019 NOSIG
13-11-26 METAR LIMC 260520Z VRB02KT CAVOK M02/M11 Q1020 NOSIG
13-11-26 METAR LIMC 260550Z VRB02KT CAVOK M01/M11 Q1020 NOSIG
13-11-26 METAR LIMC 260620Z VRB02KT CAVOK M03/M09 Q1020 NOSIG
13-11-26 METAR LIMC 260650Z VRB01KT CAVOK M04/M09 Q1021 NOSIG
13-11-26 METAR LIMC 260720Z VRB04KT CAVOK M00/M10 Q1021 NOSIG
13-11-26 METAR LIMC 260750Z VRB02KT CAVOK M01/M07 Q1021 NOSIG
13-11-26 METAR LIMC 260820Z NIL
13-11-26 METAR LIMC 260820Z VRB01KT CAVOK 02/M06 Q1021 NOSIG
13-11-26 METAR LIMC 260850Z VRB02KT CAVOK 03/M10 Q1022 NOSIG
13-11-26 METAR LIMC 260920Z VRB01KT CAVOK 05/M10 Q1022 NOSIG
13-11-26 METAR LIMC 260950Z VRB01KT CAVOK 06/M09 Q1022 NOSIG
13-11-26 METAR LIMC 261020Z 25003KT 200V290 CAVOK 07/M09 Q1021 NOSIG
13-11-26 METAR LIMC 261050Z 23006KT 190V260 CAVOK 07/M08 Q1021 NOSIG
13-11-26 METAR LIMC 261120Z 23006KT 190V280 CAVOK 08/M09 Q1021 NOSIG
13-11-26 METAR LIMC 261150Z 23006KT 200V260 CAVOK 08/M11 Q1021 NOSIG
13-11-26 METAR LIMC 261220Z 23007KT 180V270 CAVOK 08/M08 Q1020 NOSIG
13-11-26 METAR LIMC 261250Z 22007KT 190V250 CAVOK 08/M08 Q1020 NOSIG
13-11-26 METAR LIMC 261320Z 19008KT 170V230 CAVOK 08/M08 Q1020 NOSIG
13-11-26 METAR LIMC 261350Z 21007KT CAVOK 08/M08 Q1020 NOSIG
13-11-26 METAR LIMC 261420Z 21006KT 160V250 CAVOK 07/M08 Q1020 NOSIG
13-11-26 METAR LIMC 261450Z 21008KT CAVOK 07/M07 Q1020 NOSIG
13-11-26 METAR LIMC 261520Z VRB01KT CAVOK 06/M06 Q1020 NOSIG
13-11-26 METAR LIMC 261550Z VRB02KT CAVOK 04/M06 Q1020 NOSIG
13-11-26 METAR LIMC 261620Z 18004KT CAVOK 04/M07 Q1021 NOSIG
13-11-26 METAR LIMC 261650Z 13003KT 080V170 CAVOK 01/M07 Q1021 NOSIG
13-11-26 METAR LIMC 261720Z 09003KT 010V170 CAVOK 03/M06 Q1022 NOSIG
13-11-26 METAR LIMC 261750Z 08003KT 040V110 CAVOK M00/M06 Q1022 NOSIG
13-11-26 METAR LIMC 261820Z VRB02KT CAVOK M01/M06 Q1023 NOSIG
13-11-26 METAR LIMC 261850Z VRB02KT CAVOK M03/M07 Q1023 NOSIG
13-11-26 METAR LIMC 261920Z VRB02KT CAVOK M03/M07 Q1023 NOSIG
13-11-26 METAR LIMC 261950Z 02003KT 310V090 CAVOK M03/M07 Q1024 NOSIG
13-11-26 METAR LIMC 262020Z 01004KT 320V060 CAVOK M01/M06 Q1024 NOSIG
13-11-26 METAR LIMC 262050Z 35006KT CAVOK M03/M07 Q1024 NOSIG
13-11-26 METAR LIMC 262120Z 01005KT 340V070 CAVOK M04/M07 Q1024 NOSIG
13-11-26 METAR LIMC 262150Z 36004KT CAVOK M04/M06 Q1024 NOSIG
13-11-26 METAR LIMC 262220Z VRB02KT CAVOK M03/M06 Q1024 NOSIG
13-11-26 METAR LIMC 262250Z 26003KT 170V340 CAVOK M03/M06 Q1024 NOSIG
13-11-26 METAR LIMC 262320Z 35003KT 320V020 CAVOK M04/M07 Q1024 NOSIG
13-11-26 METAR LIMC 262350Z VRB02KT CAVOK M05/M06 Q1024 NOSIG
13-11-27 METAR LIMC 270020Z 36006KT 280V090 CAVOK M04/M08 Q1024 NOSIG
13-11-27 METAR LIMC 270050Z 36007KT 320V050 CAVOK M01/M11 Q1024 NOSIG
13-11-27 METAR LIMC 270120Z 01009KT 340V040 CAVOK 03/M14 Q1024 NOSIG
13-11-27 METAR LIMC 270150Z 03010KT CAVOK 02/M15 Q1024 NOSIG
13-11-27 METAR LIMC 270220Z 03008KT CAVOK 02/M14 Q1024 NOSIG
13-11-27 METAR LIMC 270250Z 02008KT CAVOK 02/M15 Q1024 NOSIG
13-11-27 METAR LIMC 270320Z 02008KT CAVOK 02/M15 Q1024 NOSIG
13-11-27 METAR LIMC 270350Z 01007KT CAVOK 02/M15 Q1025 NOSIG
13-11-27 METAR LIMC 270420Z 02007KT CAVOK 02/M15 Q1025 NOSIG
13-11-27 METAR LIMC 270450Z 33006KT 310V060 CAVOK M02/M14 Q1025 NOSIG
13-11-27 METAR LIMC 270520Z 34006KT CAVOK M02/M13 Q1025 NOSIG
13-11-27 METAR LIMC 270550Z 32008KT CAVOK M02/M14 Q1025 NOSIG
13-11-27 METAR LIMC 270620Z 35007KT CAVOK M00/M13 Q1026 NOSIG
13-11-27 METAR LIMC 270650Z 36006KT CAVOK M04/M13 Q1026 NOSIG
13-11-27 METAR LIMC 270720Z 35004KT CAVOK M04/M12 Q1026 NOSIG
13-11-27 METAR LIMC 270750Z 35006KT CAVOK M02/M10 Q1027 NOSIG
13-11-27 METAR LIMC 270820Z 34006KT CAVOK 00/M09 Q1027 NOSIG
13-11-27 METAR LIMC 270850Z 34006KT CAVOK 04/M09 Q1027 NOSIG
13-11-27 METAR LIMC 270920Z 34007KT 320V020 CAVOK 05/M12 Q1027 NOSIG
13-11-27 METAR LIMC 270950Z 01008KT 330V040 CAVOK 06/M14 Q1027 NOSIG
13-11-27 METAR LIMC 271020Z 36005KT 320V020 CAVOK 07/M14 Q1027 NOSIG
13-11-27 METAR LIMC 271050Z 32005KT 280V020 CAVOK 07/M14 Q1027 NOSIG
13-11-27 METAR LIMC 271120Z 28004KT 250V360 CAVOK 08/M15 Q1027 NOSIG
13-11-27 METAR LIMC 271150Z 23003KT 150V270 CAVOK 08/M15 Q1027 NOSIG
13-11-27 METAR LIMC 271220Z 21005KT 180V260 CAVOK 08/M13 Q1027 NOSIG
13-11-27 METAR LIMC 271250Z 26005KT 230V290 CAVOK 08/M12 Q1027 NOSIG
13-11-27 METAR LIMC 271320Z 23005KT 200V260 CAVOK 08/M13 Q1027 NOSIG
13-11-27 METAR LIMC 271350Z 23008KT CAVOK 08/M12 Q1027 NOSIG
13-11-27 METAR LIMC 271420Z 22008KT CAVOK 07/M10 Q1027 NOSIG
13-11-27 METAR LIMC 271450Z 23006KT CAVOK 07/M10 Q1027 NOSIG
13-11-27 METAR LIMC 271520Z 23006KT CAVOK 05/M10 Q1027 NOSIG
13-11-27 METAR LIMC 271550Z 24006KT CAVOK 05/M11 Q1027 NOSIG
13-11-27 METAR LIMC 271620Z 00000KT CAVOK 04/M12 Q1027 NOSIG
13-11-27 METAR LIMC 271650Z VRB01KT CAVOK 02/M10 Q1027 NOSIG
13-11-27 METAR LIMC 271720Z VRB01KT CAVOK 03/M11 Q1028 NOSIG
13-11-27 METAR LIMC 271750Z 02003KT 330V050 CAVOK M02/M09 Q1028 NOSIG
13-11-27 METAR LIMC 271820Z 36003KT CAVOK M03/M09 Q1028 NOSIG
13-11-27 METAR LIMC 271850Z 05003KT 350V120 CAVOK M03/M09 Q1028 NOSIG
13-11-27 METAR LIMC 271920Z 35003KT 320V070 CAVOK M03/M10 Q1028 NOSIG
13-11-27 METAR LIMC 271950Z VRB02KT CAVOK M01/M09 Q1028 NOSIG
13-11-27 METAR LIMC 272020Z 36005KT CAVOK M03/M09 Q1028 NOSIG
13-11-27 METAR LIMC 272050Z 36004KT CAVOK M05/M09 Q1028 NOSIG
13-11-27 METAR LIMC 272120Z 36003KT 320V040 CAVOK M02/M09 Q1028 NOSIG
13-11-27 METAR LIMC 272150Z VRB02KT CAVOK M04/M09 Q1029 NOSIG
13-11-27 METAR LIMC 272220Z VRB02KT CAVOK M03/M08 Q1029 NOSIG
13-11-27 METAR LIMC 272250Z 01002KT CAVOK M05/M09 Q1029 NOSIG
13-11-27 METAR LIMC 272320Z VRB01KT CAVOK M06/M08 Q1029 NOSIG
13-11-27 METAR LIMC 272350Z 02002KT CAVOK M05/M09 Q1028 NOSIG
13-11-28 METAR LIMC 280020Z 02002KT CAVOK M06/M09 Q1028 NOSIG
13-11-28 METAR LIMC 280050Z 35005KT CAVOK M06/M09 Q1028 NOSIG
13-11-28 METAR LIMC 280120Z 02002KT CAVOK M06/M09 Q1028 NOSIG
13-11-28 METAR LIMC 280150Z 00000KT CAVOK M07/M09 Q1029 NOSIG
13-11-28 METAR LIMC 280220Z VRB01KT CAVOK M07/M09 Q1028 NOSIG
13-11-28 METAR LIMC 280250Z VRB02KT CAVOK M04/M08 Q1028 NOSIG
13-11-28 METAR LIMC 280320Z VRB03KT CAVOK M03/M07 Q1028 NOSIG
13-11-28 METAR LIMC 280350Z VRB02KT CAVOK M05/M09 Q1028 NOSIG
13-11-28 METAR LIMC 280420Z NIL
13-11-28 METAR LIMC 280450Z 01004KT CAVOK M06/M09 Q1029 NOSIG
13-11-28 METAR LIMC 280520Z NIL
13-11-28 METAR LIMC 280550Z 02004KT 340V080 CAVOK M04/M08 Q1029 NOSIG
13-11-28 METAR LIMC 280620Z 02004KT 350V050 CAVOK M04/M09 Q1029 NOSIG
13-11-28 METAR LIMC 280650Z 05004KT 330V070 CAVOK M01/M08 Q1030 NOSIG
13-11-28 METAR LIMC 280720Z 36005KT CAVOK M04/M08 Q1030 NOSIG
13-11-28 METAR LIMC 280750Z 02005KT 320V060 CAVOK 00/M06 Q1030 NOSIG
13-11-28 METAR LIMC 280820Z 35004KT CAVOK 01/M05 Q1031 NOSIG
13-11-28 METAR LIMC 280850Z 35004KT CAVOK 03/M06 Q1031 NOSIG
13-11-28 METAR LIMC 280920Z 35004KT 310V030 CAVOK 04/M06 Q1031 NOSIG
13-11-28 METAR LIMC 280950Z 03003G15KT 340V130 CAVOK 05/M08 Q1031 NOSIG
13-11-28 METAR LIMC 281020Z VRB03KT CAVOK 05/M07 Q1031 NOSIG
13-11-28 METAR LIMC 281050Z 11003KT 030V170 CAVOK 06/M07 Q1030 NOSIG
13-11-28 METAR LIMC 281120Z VRB01KT CAVOK 06/M07 Q1030 NOSIG
13-11-28 METAR LIMC 281150Z VRB01KT CAVOK 07/M07 Q1030 NOSIG
13-11-28 METAR LIMC 281220Z 12003KT 070V150 CAVOK 07/M07 Q1029 NOSIG
13-11-28 METAR LIMC 281250Z VRB02KT CAVOK 06/M07 Q1029 NOSIG
13-11-28 METAR LIMC 281320Z VRB02KT CAVOK 07/M07 Q1029 NOSIG
13-11-28 METAR LIMC 281350Z 20004KT 160V260 CAVOK 07/M06 Q1029 NOSIG
13-11-28 METAR LIMC 281420Z 19004KT 140V220 CAVOK 06/M06 Q1028 NOSIG
13-11-28 METAR LIMC 281450Z 21005KT CAVOK 06/M06 Q1028 NOSIG
13-11-28 METAR LIMC 281520Z 21005KT CAVOK 04/M05 Q1028 NOSIG
13-11-28 METAR LIMC 281550Z 21004KT CAVOK 03/M05 Q1028 NOSIG
13-11-28 METAR LIMC 281620Z 23004KT 9999 SCT090 02/M05 Q1028 NOSIG
13-11-28 METAR LIMC 281650Z 22003KT 9999 SCT090 02/M04 Q1028 NOSIG
13-11-28 METAR LIMC 281720Z 22003KT 170V240 9999 BKN090 02/M04 Q1028 NOSIG
13-11-28 METAR LIMC 281750Z VRB01KT 9999 BKN090 02/M03 Q1029 NOSIG
13-11-28 METAR LIMC 281820Z 00000KT 9999 SCT090 02/M04 Q1029 NOSIG
13-11-28 METAR LIMC 281850Z 21003KT 9999 SCT090 00/M04 Q1028 NOSIG
13-11-28 METAR LIMC 281920Z 00000KT 9999 BKN090 01/M03 Q1029 NOSIG
13-11-28 METAR LIMC 281950Z 00000KT CAVOK 01/M04 Q1029 NOSIG
13-11-28 METAR LIMC 282020Z 00000KT CAVOK 01/M04 Q1029 NOSIG
13-11-28 METAR LIMC 282050Z 35001KT CAVOK M02/M05 Q1029 NOSIG
13-11-28 METAR LIMC 282120Z VRB01KT CAVOK M03/M05 Q1028 NOSIG
13-11-28 METAR LIMC 282150Z 01001KT CAVOK M03/M05 Q1028 NOSIG
13-11-28 METAR LIMC 282220Z 36002KT CAVOK M04/M06 Q1028 NOSIG
13-11-28 METAR LIMC 282250Z VRB01KT CAVOK M05/M07 Q1028 NOSIG
13-11-28 METAR LIMC 282320Z 11001KT CAVOK M05/M06 Q1028 NOSIG
13-11-28 METAR LIMC 282350Z VRB02KT CAVOK M05/M06 Q1028 NOSIG
13-11-29 METAR LIMC 290020Z 00000KT CAVOK M05/M07 Q1028 NOSIG
13-11-29 METAR LIMC 290050Z VRB02KT CAVOK M04/M06 Q1027 NOSIG
13-11-29 METAR LIMC 290120Z 00000KT CAVOK M06/M07 Q1027 NOSIG
13-11-29 METAR LIMC 290150Z 00000KT CAVOK M06/M08 Q1027 NOSIG
13-11-29 METAR LIMC 290220Z 02002KT CAVOK M06/M07 Q1027 NOSIG
13-11-29 METAR LIMC 290250Z 00000KT CAVOK M06/M08 Q1027 NOSIG
13-11-29 METAR LIMC 290320Z 02001KT CAVOK M07/M08 Q1027 NOSIG
13-11-29 METAR LIMC 290350Z 00000KT CAVOK M07/M08 Q1026 NOSIG
13-11-29 METAR LIMC 290420Z 02002KT CAVOK M06/M07 Q1026 NOSIG
13-11-29 METAR LIMC 290450Z VRB01KT CAVOK M06/M07 Q1026 NOSIG
13-11-29 METAR LIMC 290520Z 02002KT CAVOK M07/M08 Q1026 NOSIG
13-11-29 METAR LIMC 290550Z 36004KT CAVOK M06/M07 Q1026 NOSIG
13-11-29 METAR LIMC 290620Z VRB02KT CAVOK M07/M07 Q1026 NOSIG
13-11-29 METAR LIMC 290650Z 36004KT CAVOK M04/M05 Q1026 NOSIG
13-11-29 METAR LIMC 290720Z 36004KT CAVOK M04/M06 Q1026 NOSIG
13-11-29 METAR LIMC 290750Z 34003KT CAVOK M01/M03 Q1026 NOSIG
13-11-29 METAR LIMC 290820Z VRB01KT CAVOK 00/M03 Q1026 NOSIG
13-11-29 METAR LIMC 290850Z 00000KT CAVOK 03/M02 Q1026 NOSIG
13-11-29 METAR LIMC 290920Z 00000KT CAVOK 04/M02 Q1026 NOSIG
13-11-29 METAR LIMC 290950Z VRB02KT CAVOK 05/M02 Q1026 NOSIG
13-11-29 METAR LIMC 291020Z VRB02KT CAVOK 06/M03 Q1026 NOSIG
13-11-29 METAR LIMC 291050Z 13003KT 070V170 CAVOK 06/M03 Q1025 NOSIG
13-11-29 METAR LIMC 291120Z 14003KT 070V160 CAVOK 06/M03 Q1025 NOSIG
13-11-29 METAR LIMC 291150Z 17003KT 100V260 CAVOK 06/M04 Q1024 NOSIG
13-11-29 METAR LIMC 291220Z VRB02KT CAVOK 07/M04 Q1024 NOSIG
13-11-29 METAR LIMC 291250Z 15003KT 090V200 CAVOK 07/M04 Q1023 NOSIG
13-11-29 METAR LIMC 291320Z VRB03KT CAVOK 07/M05 Q1023 NOSIG
13-11-29 METAR LIMC 291350Z 22003KT 160V270 CAVOK 07/M04 Q1023 NOSIG
13-11-29 METAR LIMC 291420Z 22004KT CAVOK 07/M03 Q1022 NOSIG
13-11-29 METAR LIMC 291450Z 20004KT CAVOK 06/M03 Q1022 NOSIG
13-11-29 METAR LIMC 291520Z 23004KT CAVOK 05/M03 Q1022 NOSIG
13-11-29 METAR LIMC 291550Z 20002KT CAVOK 04/M03 Q1021 NOSIG
13-11-29 METAR LIMC 291620Z VRB02KT CAVOK 02/M03 Q1021 NOSIG
13-11-29 METAR LIMC 291650Z VRB02KT CAVOK 02/M03 Q1021 NOSIG
13-11-29 METAR LIMC 291720Z 00000KT CAVOK M01/M04 Q1021 NOSIG
13-11-29 METAR LIMC 291750Z 17002KT CAVOK M01/M04 Q1020 NOSIG
13-11-29 METAR LIMC 291820Z VRB02KT CAVOK M00/M04 Q1020 NOSIG
13-11-29 METAR LIMC 291850Z VRB01KT CAVOK M01/M04 Q1020 NOSIG
13-11-29 METAR LIMC 291920Z 01004KT 340V110 CAVOK M01/M04 Q1020 NOSIG
13-11-29 METAR LIMC 291950Z 00000KT CAVOK M02/M04 Q1020 NOSIG
13-11-29 METAR LIMC 292020Z 02002KT CAVOK M02/M04 Q1019 NOSIG
13-11-29 METAR LIMC 292050Z VRB01KT CAVOK M03/M05 Q1019 NOSIG
13-11-29 METAR LIMC 292120Z VRB02KT CAVOK M03/M04 Q1019 NOSIG
13-11-29 METAR LIMC 292150Z VRB01KT CAVOK M03/M04 Q1018 NOSIG
13-11-29 METAR LIMC 292220Z VRB02KT 9999 SCT080 M02/M03 Q1017 NOSIG
13-11-29 METAR LIMC 292250Z 36004KT 9999 SCT080 M01/M03 Q1017 NOSIG
13-11-29 METAR LIMC 292320Z 00000KT 9999 BKN060 M01/M02 Q1017 NOSIG
13-11-29 METAR LIMC 292350Z 35002KT 9999 BKN060 M00/M02 Q1016 NOSIG
13-11-30 METAR LIMC 300020Z VRB02KT 9999 BKN060 M00/M02 Q1016 NOSIG
13-11-30 METAR LIMC 300050Z VRB02KT 9999 BKN060 M00/M02 Q1015 NOSIG
13-11-30 METAR LIMC 300120Z 35003KT 9999 BKN060 M00/M02 Q1015 NOSIG
13-11-30 METAR LIMC 300150Z 33002KT 9999 BKN060 00/M01 Q1015 NOSIG
13-11-30 METAR LIMC 300220Z 08003KT 040V130 9999 BKN060 01/M02 Q1014 NOSIG
13-11-30 METAR LIMC 300250Z 00000KT 9999 BKN060 01/M01 Q1014 NOSIG
13-11-30 METAR LIMC 300320Z 35003KT 320V020 9999 BKN060 01/M01 Q1014 NOSIG
13-11-30 METAR LIMC 300350Z VRB02KT 9999 BKN060 01/M01 Q1014 NOSIG
13-11-30 METAR LIMC 300420Z 03004KT 9999 BKN060 02/M02 Q1014 NOSIG
13-11-30 METAR LIMC 300450Z VRB02KT 9999 BKN060 02/M02 Q1014 NOSIG
13-11-30 METAR LIMC 300520Z 07003KT 340V120 9999 BKN060 02/M02 Q1013 NOSIG
13-11-30 METAR LIMC 300550Z VRB03KT 9999 BKN060 02/M02 Q1014 NOSIG
13-11-30 METAR LIMC 300620Z 04003KT 340V080 9999 BKN050 02/M02 Q1014 NOSIG
13-11-30 METAR LIMC 300650Z VRB04G14KT 7000 BKN050 02/M02 Q1014 NOSIG
13-11-30 METAR LIMC 300720Z 06004KT 030V160 7000 BKN050 02/M02 Q1015 NOSIG
13-11-30 METAR LIMC 300750Z VRB05KT 5000 BR BKN050 02/M02 Q1015 NOSIG
13-11-30 METAR LIMC 300820Z 07005KT 030V170 5000 BR BKN050 02/M02 Q1015 NOSIG
13-11-30 METAR LIMC 300850Z 07005KT 030V110 5000 BR BKN050 01/M00 Q1016 NOSIG
13-11-30 METAR LIMC 300920Z 05003KT 290V100 3000 -RASN BR SCT010 BKN040 01/00 Q1016 NOSIG
13-11-30 METAR LIMC 300950Z VRB01KT 2500 -RASN BR SCT010 BKN040 01/00 Q1016 NOSIG
13-11-30 METAR LIMC 301020Z 05003KT 330V100 2500 -RASN BR SCT010 BKN040 01/01 Q1016
13-11-30 METAR LIMC 301050Z 09004KT 030V150 2500 -RASN BR SCT010 BKN040 02/01 Q1016
13-11-30 METAR LIMC 301120Z 11004KT 030V170 3000 -RA BR SCT010 BKN040 02/01 Q1017
13-11-30 METAR LIMC 301150Z 09004KT 010V150 3000 -RA BR SCT010 BKN040 02/01 Q1017
13-11-30 METAR LIMC 301220Z 07005KT 010V110 4000 BR SCT015 BKN040 02/01 Q1017 NOSIG
13-11-30 METAR LIMC 301250Z 05003KT 350V090 5000 BR SCT015 BKN040 02/01 Q1017 NOSIG
13-11-30 METAR LIMC 301320Z VRB03KT 5000 BR SCT015 BKN040 03/00 Q1017 NOSIG
13-11-30 METAR LIMC 301350Z 06003KT 010V100 5000 BR SCT015 BKN040 03/01 Q1017 NOSIG
13-11-30 METAR LIMC 301420Z 05003KT 340V100 5000 BR SCT015 BKN040 03/01 Q1018 NOSIG
13-11-30 METAR LIMC 301450Z VRB03KT 5000 BR SCT015 BKN040 03/01 Q1018 NOSIG
13-11-30 METAR LIMC 301520Z VRB02KT 5000 BR SCT030 BKN060 03/01 Q1019 NOSIG
13-11-30 METAR LIMC 301550Z 00000KT 5000 BR SCT030 BKN060 02/00 Q1019 NOSIG
13-11-30 METAR LIMC 301620Z VRB01KT 5000 BR SCT030 BKN060 01/00 Q1020 NOSIG
13-11-30 METAR LIMC 301650Z 32003KT 5000 BR SCT030 BKN060 02/01 Q1020 NOSIG
13-11-30 METAR LIMC 301720Z 33004KT 5000 BR SCT030 BKN060 02/01 Q1021 NOSIG
13-11-30 METAR LIMC 301750Z 35002KT 5000 BR SCT030 BKN060 02/01 Q1021 NOSIG
13-11-30 METAR LIMC 301820Z 32007KT 5000 BR SCT030 BKN060 01/00 Q1021 NOSIG
13-11-30 METAR LIMC 301850Z 34006KT 5000 BR SCT030 BKN060 M00/M01 Q1021 NOSIG
13-11-30 METAR LIMC 301920Z 36006KT 330V030 8000 SCT030 SCT060 01/M00 Q1022 NOSIG
13-11-30 METAR LIMC 301950Z 36005KT 8000 SCT030 SCT060 01/M01 Q1022 NOSIG
13-11-30 METAR LIMC 302020Z 36003KT 330V040 8000 FEW060 M00/M01 Q1022 NOSIG
13-11-30 METAR LIMC 302050Z 36004KT 8000 FEW060 M01/M02 Q1022 NOSIG
13-11-30 METAR LIMC 302120Z 36004KT 6000 NSC M02/M02 Q1022 NOSIG
13-11-30 METAR LIMC 302150Z 36006KT 6000 NSC M01/M02 Q1022 NOSIG
13-11-30 METAR LIMC 302220Z 01005KT 6000 NSC M01/M02 Q1022 NOSIG
13-11-30 METAR LIMC 302250Z 34007KT 6000 NSC M03/M03 Q1023 NOSIG
13-11-30 METAR LIMC 302320Z 35006KT 6000 NSC M02/M03 Q1023 NOSIG
13-11-30 METAR LIMC 302350Z 33007KT 6000 NSC M02/M03 Q1023 NOSIG
13-12-01 METAR LIMC 010020Z 35006KT 6000 NSC M02/M03 Q1023 NOSIG
13-12-01 METAR LIMC 010050Z 36005KT 6000 NSC M02/M03 Q1023 NOSIG
13-12-01 METAR LIMC 010120Z 36006KT 6000 NSC M03/M04 Q1023 NOSIG
13-12-01 METAR LIMC 010150Z 36003KT 6000 NSC M02/M02 Q1023 NOSIG
13-12-01 METAR LIMC 010220Z 34008KT 6000 NSC M03/M03 Q1023 NOSIG
13-12-01 METAR LIMC 010250Z 35008KT 6000 NSC M02/M03 Q1022 NOSIG
13-12-01 METAR LIMC 010320Z 35008KT 6000 NSC M02/M03 Q1022 NOSIG
13-12-01 METAR LIMC 010350Z 03003KT 350V080 6000 NSC M02/M02 Q1022 NOSIG
13-12-01 METAR LIMC 010420Z 00000KT 6000 NSC M02/M03 Q1022 NOSIG
13-12-01 METAR LIMC 010450Z 35004KT 6000 NSC M03/M04 Q1022 NOSIG
13-12-01 METAR LIMC 010520Z NIL
13-12-01 METAR LIMC 010520Z 35006KT 6000 NSC M03/M03 Q1022 NOSIG
13-12-01 METAR LIMC 010550Z 35008KT 8000 NSC M02/M02 Q1022 NOSIG
13-12-01 METAR LIMC 010620Z 35006KT 8000 NSC M01/M02 Q1023 NOSIG
13-12-01 METAR LIMC 010650Z 35007KT 8000 NSC M01/M02 Q1023 NOSIG
13-12-01 METAR LIMC 010720Z 35006KT CAVOK M00/M02 Q1023 NOSIG
13-12-01 METAR LIMC 010750Z 34007KT CAVOK M00/M01 Q1023 NOSIG
13-12-01 METAR LIMC 010820Z 35008KT CAVOK 02/M01 Q1023 NOSIG
13-12-01 METAR LIMC 010850Z 36006KT CAVOK 03/M01 Q1023 NOSIG
13-12-01 METAR LIMC 010920Z 36005KT 330V030 CAVOK 05/M00 Q1023 NOSIG
13-12-01 METAR LIMC 010950Z 36004KT 310V040 CAVOK 06/M00 Q1023 NOSIG
13-12-01 METAR LIMC 011020Z 01003KT 320V060 CAVOK 07/M01 Q1023 NOSIG
13-12-01 METAR LIMC 011050Z 34003KT 300V050 CAVOK 08/M01 Q1022 NOSIG
13-12-01 METAR LIMC 011120Z VRB02KT CAVOK 09/M01 Q1022 NOSIG
13-12-01 METAR LIMC 011150Z VRB02KT CAVOK 10/M02 Q1021 NOSIG
13-12-01 METAR LIMC 011220Z VRB02KT CAVOK 10/M01 Q1021 NOSIG
13-12-01 METAR LIMC 011250Z VRB01KT CAVOK 11/M01 Q1020 NOSIG
13-12-01 METAR LIMC 011320Z 15004KT 120V180 CAVOK 10/01 Q1020 NOSIG
13-12-01 METAR LIMC 011350Z 15009KT CAVOK 08/02 Q1020 NOSIG
13-12-01 METAR LIMC 011420Z 15008KT CAVOK 08/01 Q1020 NOSIG
13-12-01 METAR LIMC 011450Z 14006KT 100V160 CAVOK 07/00 Q1020 NOSIG
13-12-01 METAR LIMC 011520Z 14004KT 090V170 CAVOK 06/M01 Q1020 NOSIG
13-12-01 METAR LIMC 011550Z 12002KT CAVOK 05/M01 Q1020 NOSIG
13-12-01 METAR LIMC 011620Z 11003KT 080V170 CAVOK 05/M01 Q1021 NOSIG
13-12-01 METAR LIMC 011650Z VRB02KT CAVOK 02/M01 Q1020 NOSIG
13-12-01 METAR LIMC 011720Z 35003KT 310V020 CAVOK 00/M02 Q1020 NOSIG
13-12-01 METAR LIMC 011750Z VRB01KT CAVOK M02/M04 Q1020 NOSIG
13-12-01 METAR LIMC 011820Z VRB02KT CAVOK M03/M04 Q1020 NOSIG
13-12-01 METAR LIMC 011850Z 35004KT CAVOK M03/M04 Q1021 NOSIG
13-12-01 METAR LIMC 011920Z VRB01KT CAVOK M03/M04 Q1021 NOSIG
13-12-01 METAR LIMC 011950Z VRB02KT CAVOK M03/M05 Q1021 NOSIG
13-12-01 METAR LIMC 012020Z VRB02KT CAVOK M04/M05 Q1021 NOSIG
13-12-01 METAR LIMC 012050Z VRB02KT CAVOK M03/M04 Q1021 NOSIG
13-12-01 METAR LIMC 012120Z VRB02KT CAVOK M05/M05 Q1022 NOSIG
13-12-01 METAR LIMC 012150Z 35003KT 330V030 CAVOK M01/M02 Q1022 NOSIG
13-12-01 METAR LIMC 012220Z VRB01KT CAVOK M03/M04 Q1022 NOSIG
13-12-01 METAR LIMC 012250Z 35004KT CAVOK M05/M06 Q1022 NOSIG
13-12-01 METAR LIMC 012320Z VRB02KT CAVOK M05/M06 Q1022 NOSIG
13-12-01 METAR LIMC 012350Z 04001KT CAVOK M05/M06 Q1022 NOSIG
13-12-02 METAR LIMC 020020Z 36004KT CAVOK M05/M05 Q1022 NOSIG
13-12-02 METAR LIMC 020050Z 35007KT CAVOK M03/M03 Q1022 NOSIG
13-12-02 METAR LIMC 020120Z 34007KT CAVOK M02/M03 Q1022 NOSIG
13-12-02 METAR LIMC 020150Z 36005KT CAVOK M01/M02 Q1022 NOSIG
13-12-02 METAR LIMC 020220Z 35007KT CAVOK M00/M02 Q1022 NOSIG
13-12-02 METAR LIMC 020250Z 36003KT CAVOK 00/M01 Q1022 NOSIG
13-12-02 METAR LIMC 020320Z 33005KT CAVOK 00/M01 Q1022 NOSIG
13-12-02 METAR LIMC 020350Z 34003KT 310V010 CAVOK 00/M01 Q1023 NOSIG
13-12-02 METAR LIMC 020420Z 34005KT 9999 FEW050 00/M01 Q1023 NOSIG
13-12-02 METAR LIMC 020450Z 33007KT 9999 FEW050 00/M01 Q1023 NOSIG
13-12-02 METAR LIMC 020520Z 34007KT 9999 BKN050 01/M02 Q1024 NOSIG
13-12-02 METAR LIMC 020550Z 36006KT 9999 BKN050 01/M03 Q1024 NOSIG
13-12-02 METAR LIMC 020620Z 36004KT 9999 SCT060 01/M03 Q1024 NOSIG
13-12-02 METAR LIMC 020650Z 36006KT 9999 SCT070 M01/M05 Q1025 NOSIG
13-12-02 METAR LIMC 020720Z 36005KT 9999 SCT070 M01/M04 Q1025 NOSIG
13-12-02 METAR LIMC 020750Z 35006KT 9999 SCT070 M02/M05 Q1026 NOSIG
13-12-02 METAR LIMC 020820Z 35007KT 9999 SCT070 00/M04 Q1026 NOSIG
13-12-02 METAR LIMC 020850Z 34005KT 9999 FEW070 03/M02 Q1026 NOSIG
13-12-02 METAR LIMC 020920Z 33006KT CAVOK 05/M02 Q1027 NOSIG
13-12-02 METAR LIMC 020950Z 33007KT CAVOK 07/M02 Q1027 NOSIG
13-12-02 METAR LIMC 021020Z 33004KT 290V010 CAVOK 08/M03 Q1027 NOSIG
13-12-02 METAR LIMC 021050Z 32003KT 280V020 CAVOK 09/M03 Q1027 NOSIG
13-12-02 METAR LIMC 021120Z 31004KT 270V360 CAVOK 10/M03 Q1026 NOSIG
13-12-02 METAR LIMC 021150Z 02003KT 350V060 CAVOK 11/M05 Q1026 NOSIG
13-12-02 METAR LIMC 021220Z VRB02KT CAVOK 12/M04 Q1026 NOSIG
13-12-02 METAR LIMC 021250Z VRB02KT CAVOK 12/M05 Q1026 NOSIG
13-12-02 METAR LIMC 021320Z 24003KT 200V300 CAVOK 12/M06 Q1026 NOSIG
13-12-02 METAR LIMC 021350Z 24003KT 200V280 CAVOK 12/M05 Q1026 NOSIG
13-12-02 METAR LIMC 021420Z 25003KT CAVOK 12/M05 Q1026 NOSIG
13-12-02 METAR LIMC 021450Z 21003KT CAVOK 11/M05 Q1027 NOSIG
13-12-02 METAR LIMC 021520Z 17003KT CAVOK 10/M05 Q1027 NOSIG
13-12-02 METAR LIMC 021550Z 17004KT CAVOK 08/M04 Q1027 NOSIG
13-12-02 METAR LIMC 021620Z 21003KT CAVOK 05/M04 Q1027 NOSIG
13-12-02 METAR LIMC 021650Z VRB01KT CAVOK 05/M04 Q1028 NOSIG
13-12-02 METAR LIMC 021720Z 03003KT 340V150 CAVOK 04/M03 Q1028 NOSIG
13-12-02 METAR LIMC 021750Z 02003KT 360V060 CAVOK 02/M03 Q1029 NOSIG
13-12-02 METAR LIMC 021950Z NIL
13-12-02 METAR LIMC 022020Z NIL
13-12-02 METAR LIMC 022050Z NIL
13-12-02 METAR LIMC 022050Z 36004KT 320V050 CAVOK M01/M03 Q1031 NOSIG
13-12-02 METAR LIMC 022120Z 36005KT CAVOK M02/M04 Q1031 NOSIG
13-12-02 METAR LIMC 022150Z 36006KT CAVOK M00/M04 Q1031 NOSIG
13-12-02 METAR LIMC 022220Z 36007KT CAVOK M02/M04 Q1031 NOSIG
13-12-02 METAR LIMC 022250Z 35006KT CAVOK M03/M05 Q1031 NOSIG
13-12-02 METAR LIMC 022320Z 35006KT CAVOK M02/M04 Q1031 NOSIG
13-12-02 METAR LIMC 022350Z 36005KT CAVOK M02/M04 Q1031 NOSIG
13-12-03 METAR LIMC 030020Z 35007KT CAVOK M02/M04 Q1031 NOSIG
13-12-03 METAR LIMC 030050Z 36004KT CAVOK M02/M05 Q1031 NOSIG
13-12-03 METAR LIMC 030120Z 36005KT CAVOK M03/M05 Q1032 NOSIG
13-12-03 METAR LIMC 030150Z 01003KT CAVOK M04/M06 Q1032 NOSIG
13-12-03 METAR LIMC 030220Z 35006KT CAVOK M02/M04 Q1031 NOSIG
13-12-03 METAR LIMC 030250Z 35005KT CAVOK M03/M05 Q1031 NOSIG
13-12-03 METAR LIMC 030520Z NIL
13-12-03 METAR LIMC 030550Z NIL
13-12-03 METAR LIMC 030520Z 35005KT CAVOK M05/M06 Q1030 NOSIG
13-12-03 METAR LIMC 030550Z 36006KT CAVOK M03/M04 Q1030 NOSIG
13-12-03 METAR LIMC 030620Z NIL
13-12-03 METAR LIMC 030620Z 34005KT CAVOK M02/M04 Q1030 NOSIG
13-12-03 METAR LIMC 030650Z 35005KT CAVOK M03/M04 Q1030 NOSIG
13-12-03 METAR LIMC 030720Z 35005KT CAVOK M02/M03 Q1029 NOSIG
13-12-03 METAR LIMC 030750Z 35005KT CAVOK M00/M03 Q1029 NOSIG
13-12-03 METAR LIMC 030820Z 34003KT CAVOK 02/M01 Q1030 NOSIG
13-12-03 METAR LIMC 030850Z VRB01KT CAVOK 04/M00 Q1030 NOSIG
13-12-03 METAR LIMC 030920Z VRB01KT CAVOK 06/M01 Q1030 NOSIG
13-12-03 METAR LIMC 030950Z VRB02KT CAVOK 07/M02 Q1030 NOSIG
13-12-03 METAR LIMC 031020Z 19002KT CAVOK 08/M02 Q1029 NOSIG
13-12-03 METAR LIMC 031050Z VRB02KT CAVOK 08/M02 Q1029 NOSIG
13-12-03 METAR LIMC 031120Z VRB02KT CAVOK 09/M03 Q1029 NOSIG
13-12-03 METAR LIMC 031150Z VRB02KT CAVOK 09/M02 Q1028 NOSIG
13-12-03 METAR LIMC 031220Z VRB02KT CAVOK 09/M02 Q1028 NOSIG
13-12-03 METAR LIMC 031250Z 00000KT CAVOK 10/M02 Q1028 NOSIG
13-12-03 METAR LIMC 031320Z NIL
13-12-03 METAR LIMC 031320Z VRB02KT CAVOK 10/M03 Q1027 NOSIG
13-12-03 METAR LIMC 031350Z VRB01KT CAVOK 11/M03 Q1027 NOSIG
13-12-03 METAR LIMC 031420Z 00000KT CAVOK 10/M02 Q1027 NOSIG
13-12-03 METAR LIMC 031450Z VRB01KT CAVOK 10/M01 Q1027 NOSIG
13-12-03 METAR LIMC 031520Z 21003KT CAVOK 08/M01 Q1027 NOSIG
13-12-03 METAR LIMC 031550Z 24004KT CAVOK 06/M01 Q1027 NOSIG
13-12-03 METAR LIMC 031620Z VRB01KT CAVOK 04/M01 Q1027 NOSIG
13-12-03 METAR LIMC 031650Z VRB01KT CAVOK 00/M03 Q1027 NOSIG
13-12-03 METAR LIMC 031720Z VRB02KT CAVOK 00/M04 Q1028 NOSIG
13-12-03 METAR LIMC 031750Z VRB02KT CAVOK M02/M04 Q1028 NOSIG
13-12-03 METAR LIMC 031820Z 36002KT CAVOK M02/M04 Q1028 NOSIG
13-12-03 METAR LIMC 031850Z 36004KT CAVOK M01/M03 Q1028 NOSIG
13-12-03 METAR LIMC 031920Z 36005KT CAVOK M01/M02 Q1028 NOSIG
13-12-03 METAR LIMC 031950Z 36005KT CAVOK M02/M04 Q1028 NOSIG
13-12-03 METAR LIMC 032020Z VRB02KT CAVOK M03/M05 Q1028 NOSIG
13-12-03 METAR LIMC 032050Z 35004KT CAVOK M03/M05 Q1028 NOSIG
13-12-03 METAR LIMC 032120Z 36004KT CAVOK M02/M04 Q1028 NOSIG
13-12-03 METAR LIMC 032150Z 36005KT 330V030 CAVOK 00/M03 Q1028 NOSIG
13-12-03 METAR LIMC 032220Z 35005KT CAVOK M03/M05 Q1028 NOSIG
13-12-03 METAR LIMC 032250Z 36004KT CAVOK M05/M07 Q1028 NOSIG
13-12-03 METAR LIMC 032320Z 35004KT CAVOK M05/M06 Q1028 NOSIG
13-12-03 METAR LIMC 032350Z 36004KT CAVOK M05/M06 Q1028 NOSIG
13-12-04 METAR LIMC 040020Z NIL
13-12-04 METAR LIMC 040050Z 35003KT CAVOK M06/M07 Q1027 NOSIG
13-12-04 METAR LIMC 040120Z 36003KT CAVOK M06/M08 Q1027 NOSIG
13-12-04 METAR LIMC 040150Z 35004KT CAVOK M06/M07 Q1027 NOSIG
13-12-04 METAR LIMC 040220Z 35005KT CAVOK M07/M08 Q1027 NOSIG
13-12-04 METAR LIMC 040250Z 36003KT CAVOK M07/M08 Q1027 NOSIG
13-12-04 METAR LIMC 040320Z VRB02KT CAVOK M07/M08 Q1026 NOSIG
13-12-04 METAR LIMC 040350Z 01004KT CAVOK M06/M07 Q1026 NOSIG
13-12-04 METAR LIMC 040420Z 35003KT CAVOK M07/M08 Q1026 NOSIG
13-12-04 METAR LIMC 040450Z 35006KT CAVOK M05/M06 Q1026 NOSIG
13-12-04 METAR LIMC 040520Z 35004KT CAVOK M06/M07 Q1026 NOSIG
13-12-04 METAR LIMC 040550Z 01003KT CAVOK M05/M06 Q1026 NOSIG
13-12-04 METAR LIMC 040620Z 35002KT CAVOK M07/M08 Q1025 NOSIG
13-12-04 METAR LIMC 040650Z 01002KT CAVOK M05/M06 Q1025 NOSIG
13-12-04 METAR LIMC 040720Z 35004KT CAVOK M04/M05 Q1025 NOSIG
13-12-04 METAR LIMC 040750Z 36004KT CAVOK M02/M03 Q1025 NOSIG
13-12-04 METAR LIMC 040820Z 36005KT CAVOK 00/M01 Q1025 NOSIG
13-12-04 METAR LIMC 040850Z 34004KT CAVOK 03/01 Q1025 NOSIG
13-12-04 METAR LIMC 040920Z 32005KT CAVOK 06/01 Q1025 NOSIG
13-12-04 METAR LIMC 040950Z 31005KT CAVOK 07/00 Q1025 NOSIG
13-12-04 METAR LIMC 041020Z 32005KT CAVOK 08/M01 Q1025 NOSIG
13-12-04 METAR LIMC 041050Z 23005KT CAVOK 08/M01 Q1025 NOSIG
13-12-04 METAR LIMC 041120Z 23003KT 210V270 CAVOK 09/M00 Q1024 NOSIG
13-12-04 METAR LIMC 041150Z 23004KT 200V260 CAVOK 09/M01 Q1024 NOSIG
13-12-04 METAR LIMC 041220Z 23004KT 190V260 CAVOK 10/M02 Q1024 NOSIG
13-12-04 METAR LIMC 041250Z 22003KT 200V260 CAVOK 10/M03 Q1023 NOSIG
13-12-04 METAR LIMC 041320Z 21004KT CAVOK 10/M02 Q1023 NOSIG
13-12-04 METAR LIMC 041350Z 20003KT CAVOK 10/M02 Q1023 NOSIG
13-12-04 METAR LIMC 041420Z 22004KT CAVOK 10/M01 Q1022 NOSIG
13-12-04 METAR LIMC 041450Z 21003KT CAVOK 09/M01 Q1022 NOSIG
13-12-04 METAR LIMC 041520Z 21004KT CAVOK 07/M02 Q1022 NOSIG
13-12-04 METAR LIMC 041550Z 21003KT CAVOK 05/M02 Q1022 NOSIG
13-12-04 METAR LIMC 041620Z 00000KT CAVOK 03/M02 Q1022 NOSIG
13-12-04 METAR LIMC 041650Z 00000KT CAVOK 01/M03 Q1022 NOSIG
13-12-04 METAR LIMC 041720Z VRB02KT CAVOK M00/M03 Q1022 NOSIG
13-12-04 METAR LIMC 041750Z VRB02KT CAVOK M01/M03 Q1022 NOSIG
13-12-04 METAR LIMC 041820Z 00000KT CAVOK M03/M04 Q1022 NOSIG
13-12-04 METAR LIMC 041850Z VRB02KT CAVOK M02/M04 Q1022 NOSIG
13-12-04 METAR LIMC 041920Z 34004KT CAVOK M01/M02 Q1022 NOSIG
13-12-04 METAR LIMC 041950Z 36003KT 320V040 CAVOK M02/M03 Q1022 NOSIG
13-12-04 METAR LIMC 042020Z 36006KT CAVOK M01/M03 Q1022 NOSIG
13-12-04 METAR LIMC 042050Z VRB01KT CAVOK M02/M03 Q1022 NOSIG
13-12-04 METAR LIMC 042120Z 00000KT CAVOK M03/M04 Q1022 NOSIG
13-12-04 METAR LIMC 042150Z VRB02KT CAVOK M03/M04 Q1022 NOSIG
13-12-04 METAR LIMC 042220Z VRB02KT CAVOK M04/M06 Q1022 NOSIG
13-12-04 METAR LIMC 042250Z VRB01KT CAVOK M04/M05 Q1022 NOSIG
13-12-04 METAR LIMC 042320Z VRB01KT CAVOK M05/M06 Q1022 NOSIG
13-12-04 METAR LIMC 042350Z VRB01KT CAVOK M05/M05 Q1022 NOSIG
13-12-05 METAR LIMC 050020Z 00000KT CAVOK M05/M06 Q1021 NOSIG
13-12-05 METAR LIMC 050050Z 36002KT CAVOK M05/M06 Q1021 NOSIG
13-12-05 METAR LIMC 050120Z VRB02KT CAVOK M05/M06 Q1021 NOSIG
13-12-05 METAR LIMC 050150Z 00000KT CAVOK M05/M06 Q1021 NOSIG
13-12-05 METAR LIMC 050220Z 04002KT CAVOK M05/M07 Q1021 NOSIG
13-12-05 METAR LIMC 050250Z 02002KT CAVOK M05/M06 Q1021 NOSIG
13-12-05 METAR LIMC 050320Z VRB01KT CAVOK M05/M06 Q1021 NOSIG
13-12-05 METAR LIMC 050350Z 05002KT CAVOK M05/M05 Q1021 NOSIG
13-12-05 METAR LIMC 050420Z VRB01KT CAVOK M06/M07 Q1021 NOSIG
13-12-05 METAR LIMC 050450Z VRB01KT CAVOK M05/M05 Q1021 NOSIG
13-12-05 METAR LIMC 050520Z VRB02KT CAVOK M06/M07 Q1021 NOSIG
13-12-05 METAR LIMC 050550Z VRB02KT CAVOK M05/M06 Q1021 NOSIG
13-12-05 METAR LIMC 050620Z VRB02KT CAVOK M03/M04 Q1021 NOSIG
13-12-05 METAR LIMC 050650Z 36003KT 280V030 CAVOK M03/M03 Q1021 NOSIG
13-12-05 METAR LIMC 050720Z VRB01KT CAVOK M03/M03 Q1021 NOSIG
13-12-05 METAR LIMC 050750Z VRB02KT CAVOK M01/M02 Q1022 NOSIG
13-12-05 METAR LIMC 050820Z 02003KT 340V070 CAVOK 02/M00 Q1022 NOSIG
13-12-05 METAR LIMC 050850Z VRB02KT CAVOK 04/00 Q1022 NOSIG
13-12-05 METAR LIMC 050920Z 08004KT 040V120 CAVOK 05/M01 Q1023 NOSIG
13-12-05 METAR LIMC 050950Z VRB04KT CAVOK 07/M01 Q1023 NOSIG
13-12-05 METAR LIMC 051020Z 08004KT 340V140 CAVOK 08/M01 Q1023 NOSIG
13-12-05 METAR LIMC 051050Z 09003KT 040V130 CAVOK 09/M01 Q1022 NOSIG
13-12-05 METAR LIMC 051120Z 12003KT 060V170 CAVOK 10/M01 Q1022 NOSIG
13-12-05 METAR LIMC 051150Z VRB02KT CAVOK 10/M00 Q1022 NOSIG
13-12-05 METAR LIMC 051220Z 12003KT 080V240 CAVOK 11/M00 Q1022 NOSIG
13-12-05 METAR LIMC 051250Z 14003KT 7000 NSC 11/M00 Q1021 NOSIG
13-12-05 METAR LIMC 051320Z 11004KT 060V140 7000 NSC 11/M01 Q1021 NOSIG
13-12-05 METAR LIMC 051350Z 10003KT 070V150 7000 NSC 11/M01 Q1021 NOSIG
13-12-05 METAR LIMC 051420Z 09004KT 060V120 7000 NSC 11/M02 Q1020 NOSIG
13-12-05 METAR LIMC 051450Z 11003KT 070V150 7000 NSC 11/M01 Q1020 NOSIG
13-12-05 METAR LIMC 051520Z 16002KT 7000 NSC 09/M00 Q1020 NOSIG
13-12-05 METAR LIMC 051550Z 17002KT 7000 NSC 07/M00 Q1020 NOSIG
13-12-05 METAR LIMC 051620Z 22001KT 7000 NSC 05/00 Q1020 NOSIG
13-12-05 METAR LIMC 051650Z VRB01KT 5000 BR NSC 03/M00 Q1020 NOSIG
13-12-05 METAR LIMC 051720Z 35003KT 320V030 5000 BR NSC 01/M02 Q1020 NOSIG
13-12-05 METAR LIMC 051750Z 36004KT 5000 BR NSC 00/M02 Q1020 NOSIG
13-12-05 METAR LIMC 051820Z 04002KT 8000 NSC M01/M03 Q1020 NOSIG
13-12-05 METAR LIMC 051850Z 36003KT 8000 NSC M01/M02 Q1020 NOSIG
13-12-05 METAR LIMC 051920Z 36004KT 8000 NSC M01/M01 Q1019 NOSIG
13-12-05 METAR LIMC 051950Z 36003KT 8000 NSC M02/M04 Q1019 NOSIG
13-12-05 METAR LIMC 052020Z VRB01KT 8000 NSC M02/M03 Q1019 NOSIG
13-12-05 METAR LIMC 052050Z 35005KT 8000 NSC M02/M04 Q1019 NOSIG
13-12-05 METAR LIMC 052120Z 01004KT 8000 NSC M02/M04 Q1018 NOSIG
13-12-05 METAR LIMC 052150Z 35003KT 8000 NSC M03/M04 Q1018 NOSIG
13-12-05 METAR LIMC 052220Z 35003KT 320V020 CAVOK M03/M04 Q1018 NOSIG
13-12-05 METAR LIMC 052250Z 36003KT 310V030 CAVOK M04/M06 Q1017 NOSIG
13-12-05 METAR LIMC 052320Z VRB02KT CAVOK M03/M04 Q1017 NOSIG
13-12-05 METAR LIMC 052350Z VRB01KT CAVOK M04/M04 Q1016 NOSIG
13-12-06 METAR LIMC 060020Z 00000KT CAVOK M05/M06 Q1016 NOSIG
13-12-06 METAR LIMC 060050Z VRB02KT CAVOK M05/M06 Q1016 NOSIG
13-12-06 METAR LIMC 060120Z VRB02KT CAVOK M06/M07 Q1015 NOSIG
13-12-06 METAR LIMC 060150Z VRB01KT CAVOK M05/M06 Q1015 NOSIG
13-12-06 METAR LIMC 060220Z VRB02KT CAVOK M05/M05 Q1015 NOSIG
13-12-06 METAR LIMC 060250Z 36002KT CAVOK M05/M06 Q1014 NOSIG
13-12-06 METAR LIMC 060320Z VRB02KT CAVOK M05/M06 Q1014 NOSIG
13-12-06 METAR LIMC 060350Z 01003KT CAVOK M05/M06 Q1014 NOSIG
13-12-06 METAR LIMC 060420Z 35004KT 320V020 CAVOK M04/M04 Q1013 NOSIG
13-12-06 METAR LIMC 060450Z 35006KT CAVOK M03/M04 Q1013 NOSIG
13-12-06 METAR LIMC 060520Z 01004KT 340V040 CAVOK M03/M03 Q1013 NOSIG
13-12-06 METAR LIMC 060550Z 35005KT CAVOK M04/M04 Q1013 NOSIG
13-12-06 METAR LIMC 060620Z 36006KT CAVOK M01/M02 Q1013 NOSIG
13-12-06 METAR LIMC 060650Z 35006KT CAVOK M01/M02 Q1013 NOSIG
13-12-06 METAR LIMC 060720Z 36007KT CAVOK M00/M01 Q1013 NOSIG
13-12-06 METAR LIMC 060750Z 34004KT 290V360 CAVOK 00/M01 Q1013 NOSIG
13-12-06 METAR LIMC 060820Z 36004KT CAVOK 02/M00 Q1013 NOSIG
13-12-06 METAR LIMC 060850Z 35005KT CAVOK 05/02 Q1013 NOSIG
13-12-06 METAR LIMC 060920Z VRB02KT CAVOK 08/03 Q1013 NOSIG
13-12-06 METAR LIMC 060950Z 24003KT 210V280 CAVOK 10/M01 Q1013 NOSIG
13-12-06 METAR LIMC 061020Z 25005KT CAVOK 10/M01 Q1013 NOSIG
13-12-06 METAR LIMC 061050Z 24006KT CAVOK 11/01 Q1012 NOSIG
13-12-06 METAR LIMC 061120Z 23007KT CAVOK 11/00 Q1012 NOSIG
13-12-06 METAR LIMC 061150Z 22006KT 180V240 CAVOK 12/M00 Q1012 NOSIG
13-12-06 METAR LIMC 061220Z 22008KT CAVOK 13/01 Q1012 NOSIG
13-12-06 METAR LIMC 061250Z 23007KT CAVOK 13/02 Q1012 NOSIG
13-12-06 METAR LIMC 061320Z 23009KT CAVOK 13/03 Q1011 NOSIG
13-12-06 METAR LIMC 061350Z 24004KT 180V310 CAVOK 13/03 Q1012 NOSIG
13-12-06 METAR LIMC 061420Z 23007KT CAVOK 13/04 Q1012 NOSIG
13-12-06 METAR LIMC 061450Z VRB02KT CAVOK 12/04 Q1012 NOSIG
13-12-06 METAR LIMC 061520Z 22005KT 180V250 CAVOK 10/04 Q1012 NOSIG
13-12-06 METAR LIMC 061550Z 12003KT 030V190 CAVOK 09/04 Q1013 NOSIG
13-12-06 METAR LIMC 061620Z VRB02KT CAVOK 08/03 Q1013 NOSIG
13-12-06 METAR LIMC 061650Z 10004KT 060V140 CAVOK 07/04 Q1013 NOSIG
13-12-06 METAR LIMC 061720Z VRB01KT CAVOK 05/02 Q1014 NOSIG
13-12-06 METAR LIMC 061750Z VRB02KT CAVOK 04/01 Q1014 NOSIG
13-12-06 METAR LIMC 061820Z 30003KT 220V020 CAVOK 03/01 Q1014 NOSIG
13-12-06 METAR LIMC 061850Z VRB03KT CAVOK 04/02 Q1014 NOSIG
13-12-06 METAR LIMC 061920Z VRB02KT CAVOK 03/02 Q1015 NOSIG
13-12-06 METAR LIMC 061950Z VRB02KT CAVOK 01/00 Q1015 NOSIG
13-12-06 METAR LIMC 062020Z VRB04KT CAVOK 02/01 Q1016 NOSIG
13-12-06 METAR LIMC 062050Z VRB02KT CAVOK 06/04 Q1016 NOSIG
13-12-06 METAR LIMC 062120Z VRB02KT CAVOK 03/02 Q1016 NOSIG
13-12-06 METAR LIMC 062150Z 33003KT 270V070 CAVOK 02/00 Q1017 NOSIG
13-12-06 METAR LIMC 062220Z VRB03KT CAVOK 01/01 Q1017 NOSIG
13-12-06 METAR LIMC 062250Z 33004KT 290V090 CAVOK 00/M00 Q1017 NOSIG
13-12-06 METAR LIMC 062320Z 35004KT 320V020 CAVOK M02/M02 Q1017 NOSIG
13-12-06 METAR LIMC 062350Z 01004KT CAVOK M02/M02 Q1017 NOSIG
13-12-07 METAR LIMC 070020Z VRB02KT CAVOK M03/M03 Q1017 NOSIG
13-12-07 METAR LIMC 070050Z VRB02KT CAVOK M02/M02 Q1017 NOSIG
13-12-07 METAR LIMC 070120Z 02003KT CAVOK M02/M03 Q1018 NOSIG
13-12-07 METAR LIMC 070150Z VRB02KT CAVOK M02/M02 Q1018 NOSIG
13-12-07 METAR LIMC 070220Z VRB02KT CAVOK M02/M03 Q1018 NOSIG
13-12-07 METAR LIMC 070250Z VRB02KT CAVOK M01/M02 Q1018 NOSIG
13-12-07 METAR LIMC 070320Z 01003KT CAVOK M02/M02 Q1018 NOSIG
13-12-07 METAR LIMC 070350Z 31004KT 280V350 CAVOK M03/M03 Q1018 NOSIG
13-12-07 METAR LIMC 070420Z VRB02KT CAVOK M04/M04 Q1018 NOSIG
13-12-07 METAR LIMC 070450Z 02005KT CAVOK M02/M03 Q1018 NOSIG
13-12-07 METAR LIMC 070520Z 02005KT CAVOK M01/M02 Q1019 NOSIG
13-12-07 METAR LIMC 070550Z 24004KT 120V280 CAVOK M01/M02 Q1019 NOSIG
13-12-07 METAR LIMC 070620Z VRB02KT CAVOK 00/M01 Q1019 NOSIG
13-12-07 METAR LIMC 070650Z VRB02KT CAVOK M01/M01 Q1020 NOSIG
13-12-07 METAR LIMC 070720Z 35004KT CAVOK M01/M01 Q1020 NOSIG
13-12-07 METAR LIMC 070750Z VRB02KT CAVOK M02/M03 Q1021 NOSIG
13-12-07 METAR LIMC 070820Z 02003KT 350V060 CAVOK 02/01 Q1021 NOSIG
13-12-07 METAR LIMC 070850Z VRB02KT CAVOK 04/03 Q1022 NOSIG
13-12-07 METAR LIMC 070920Z 34004KT CAVOK 07/04 Q1022 NOSIG
13-12-07 METAR LIMC 070950Z 36005KT 330V030 CAVOK 09/02 Q1022 NOSIG
13-12-07 METAR LIMC 071020Z 35005KT CAVOK 12/M00 Q1022 NOSIG
13-12-07 METAR LIMC 071050Z 29003KT 240V330 CAVOK 13/M02 Q1022 NOSIG
13-12-07 METAR LIMC 071120Z 32003KT 270V350 CAVOK 14/M03 Q1022 NOSIG
13-12-07 METAR LIMC 071150Z 27006KT CAVOK 14/M02 Q1021 NOSIG
13-12-07 METAR LIMC 071220Z 24009KT CAVOK 14/02 Q1021 NOSIG
13-12-07 METAR LIMC 071250Z 24010KT CAVOK 14/02 Q1021 NOSIG
13-12-07 METAR LIMC 071320Z 24009KT CAVOK 14/01 Q1021 NOSIG
13-12-07 METAR LIMC 071350Z 19007KT CAVOK 12/04 Q1021 NOSIG
13-12-07 METAR LIMC 071420Z 20005KT 160V230 CAVOK 12/04 Q1021 NOSIG
13-12-07 METAR LIMC 071450Z 21004KT CAVOK 12/04 Q1022 NOSIG
13-12-07 METAR LIMC 071520Z 22002KT CAVOK 11/03 Q1022 NOSIG
13-12-07 METAR LIMC 071550Z 11003KT 070V150 CAVOK 10/04 Q1022 NOSIG
13-12-07 METAR LIMC 071620Z 10004KT CAVOK 06/02 Q1023 NOSIG
13-12-07 METAR LIMC 071650Z 11004G14KT 080V210 CAVOK 07/03 Q1023 NOSIG
13-12-07 METAR LIMC 071720Z VRB02KT CAVOK 04/02 Q1023 NOSIG
13-12-07 METAR LIMC 071750Z VRB01KT CAVOK 03/00 Q1023 NOSIG
13-12-07 METAR LIMC 071820Z VRB02KT CAVOK 02/01 Q1024 NOSIG
13-12-07 METAR LIMC 071850Z 00000KT CAVOK 04/02 Q1024 NOSIG
13-12-07 METAR LIMC 071920Z 05003KT 320V100 CAVOK 03/02 Q1025 NOSIG
13-12-07 METAR LIMC 071950Z 04003KT 8000 NSC 03/01 Q1025 NOSIG
13-12-07 METAR LIMC 072020Z 05004KT 8000 NSC 01/00 Q1025 NOSIG
13-12-07 METAR LIMC 072050Z 05006KT 8000 NSC 03/02 Q1025 NOSIG
13-12-07 METAR LIMC 072120Z 06004KT 310V090 7000 NSC 04/02 Q1026 NOSIG
13-12-07 METAR LIMC 072150Z 05004KT 7000 NSC 03/01 Q1026 NOSIG
13-12-07 METAR LIMC 072220Z VRB01KT 7000 NSC 02/M00 Q1026 NOSIG
13-12-07 METAR LIMC 072250Z VRB02KT 7000 NSC M01/M01 Q1026 NOSIG
13-12-07 METAR LIMC 072320Z 35008KT 7000 NSC M00/M01 Q1026 NOSIG
13-12-07 METAR LIMC 072350Z 36005KT 7000 NSC M01/M02 Q1026 NOSIG
13-12-08 METAR LIMC 080020Z 35008KT 7000 NSC M02/M03 Q1026 NOSIG
13-12-08 METAR LIMC 080050Z 36004KT 7000 NSC M03/M04 Q1026 NOSIG
13-12-08 METAR LIMC 080120Z 36006KT 7000 NSC M02/M02 Q1026 NOSIG
13-12-08 METAR LIMC 080150Z 36005KT 7000 NSC M03/M04 Q1026 NOSIG
13-12-08 METAR LIMC 080220Z 36004KT 7000 NSC M04/M05 Q1026 NOSIG
13-12-08 METAR LIMC 080250Z 35005KT 7000 NSC M03/M03 Q1026 NOSIG
13-12-08 METAR LIMC 080320Z VRB02KT 7000 NSC M05/M05 Q1026 NOSIG
13-12-08 METAR LIMC 080350Z VRB01KT 7000 NSC M05/M05 Q1026 NOSIG
13-12-08 METAR LIMC 080420Z 35004KT 7000 NSC M04/M05 Q1026 NOSIG
13-12-08 METAR LIMC 080450Z 00000KT 7000 NSC M05/M06 Q1026 NOSIG
13-12-08 METAR LIMC 080520Z 02003KT 350V070 5000 BR NSC M06/M07 Q1026 NOSIG
13-12-08 METAR LIMC 080550Z 36003KT 300V070 5000 BR NSC M04/M04 Q1027 NOSIG
13-12-08 METAR LIMC 080620Z VRB01KT 4500 1500E BCFG NSC M04/M04 Q1027 NOSIG
13-12-08 METAR LIMC 080650Z VRB03KT 1500 0600SE R35L/0150V0250N R35R///// PRFG NSC 01/00 Q1027 NOSIG
13-12-08 METAR LIMC 080720Z VRB02KT 0050 R35L/0100V0150N R35R/0100V0150N FZFG NSC M01/M01 Q1027 NOSIG
13-12-08 METAR LIMC 080750Z VRB02KT 0050 R35L/0150N R35R/0125N FZFG NSC M00/M01 Q1028 NOSIG
13-12-08 METAR LIMC 080820Z 35004KT 0050 R35L/0150N R35R/0150N FZFG NSC 00/M00 Q1028
13-12-08 METAR LIMC 080850Z VRB01KT 0050 R35L/0150N R35R/0150N FG NSC 01/01 Q1028
13-12-08 METAR LIMC 080920Z VRB01KT 0050 R35L/0150N R35R/0150N FG NSC 02/02 Q1028
13-12-08 METAR LIMC 080950Z 10001KT 0050 R35L/0150V0225N R35R/0200N FG NSC 02/02 Q1029 NOSIG
13-12-08 METAR LIMC 081020Z VRB02KT 0100 R35L/0275N R35R/0250N FG NSC 02/02 Q1029
13-12-08 METAR LIMC 081050Z VRB01KT 0100 R35L/0350V0500N R35R/0225V0400U FG NSC 02/02 Q1028 NOSIG
13-12-08 METAR LIMC 081120Z VRB02KT 0100 R35L/0300V0800U R35R/0200V0750U FG NSC
13-12-08 METAR LIMC 081150Z VRB02KT 0250 R35L/0500V0700N R35R/0375V1000U FG NSC
13-12-08 METAR LIMC 081220Z VRB02KT 0250 R35L/0600V1000D R35R/0900N FG NSC 02/02 Q1028 BECMG 600
13-12-08 METAR LIMC 081250Z 16003KT 090V220 0300 R35L/0300V0550D R35R/0700V1000U FG NSC 02/02 Q1028 NOSIG
13-12-08 METAR LIMC 081320Z VRB03KT 0300 R35L/0400V0650N R35R/0500V1000D FG NSC 03/03 Q1028 NOSIG
13-12-08 METAR LIMC 081350Z VRB02KT 0300 R35L/1200V1500U R35R/0900V1300D FG NSC 02/02 Q1028 BECMG 0600
13-12-08 METAR LIMC 081420Z 09003KT 070V130 0600 R35L/0800V1400D R35R/0650V1000D FG
13-12-08 METAR LIMC 081450Z VRB02KT 0200 R35L/0500V1100U R35R/0300V0650D FG NSC
13-12-08 METAR LIMC 081520Z 13003KT 0200 R35L/0300V0450U R35R/0250V0400N FG NSC 01/02 Q1028 NOSIG
13-12-08 METAR LIMC 081550Z VRB02KT 0100 R35L/0200V0275N R35R/0200V0450N FG NSC 01/01 Q1028 NOSIG
13-12-08 METAR LIMC 081620Z VRB02KT 0100 R35L/0250N R35R/0250N FG NSC 01/01 Q1029
13-12-08 METAR LIMC 081650Z VRB02KT 0100 R35L/0200N R35R/0250N FG NSC 01/01 Q1029
13-12-08 METAR LIMC 081720Z 06003KT 010V100 0100 R35L/0200N R35R/0200V0250N FG NSC 01/01 Q1029 NOSIG
13-12-08 METAR LIMC 081750Z VRB01KT 0100 R35L/0200N R35R/0200N FG NSC 00/00 Q1029
13-12-08 METAR LIMC 081820Z 05003KT 020V090 0100 R35L/0200V0250N R35R/0200N FG NSC 00/00 Q1030 NOSIG
13-12-08 METAR LIMC 081850Z 04003KT 310V080 0100 R35L/0200V0250N R35R/0200N FG NSC
13-12-08 METAR LIMC 081920Z VRB02KT 0100 R35L/0200N R35R/0200N FG NSC 00/00 Q1030
13-12-08 METAR LIMC 081950Z 11003KT 090V150 0100 R35L/0200V0250N R35R/0200N FG NSC M00/M00 Q1030 NOSIG
13-12-08 METAR LIMC 082020Z VRB01KT 0100 R35L/0200N R35R/0200N FZFG NSC M01/M01
13-12-08 METAR LIMC 082050Z VRB02KT 0100 R35L/0200N R35R/0200N FZFG NSC M01/M01
13-12-08 METAR LIMC 082120Z VRB02KT 0100 R35L/0200V0250N R35R/0200N FZFG NSC M01/M01
13-12-08 METAR LIMC 082150Z VRB01KT 0100 R35L/0225N R35R/0200V0250N FZFG VV///
13-12-08 METAR LIMC 082220Z 34003KT 0100 R35L/0250N R35R/0200V0300N FZFG VV/// M01/M01 Q1030 NOSIG
13-12-08 METAR LIMC 082250Z VRB02KT 0300 R35L/0375V0450N R35R/0400V0800U PRFG NSC M02/M02 Q1030 NOSIG
13-12-08 METAR LIMC 082320Z 33003KT 2000 0900SW BCFG NSC M03/M03 Q1030 NOSIG
13-12-08 METAR LIMC 082350Z 33003KT 2000 BR NSC M03/M03 Q1030 NOSIG
13-12-09 METAR LIMC 090020Z VRB01KT 2000 BR NSC M04/M04 Q1030 NOSIG
13-12-09 METAR LIMC 090050Z VRB01KT 2000 BR NSC M05/M05 Q1030 NOSIG
13-12-09 METAR LIMC 090120Z VRB02KT 4500 BR NSC M05/M05 Q1030 NOSIG
13-12-09 METAR LIMC 090150Z 19003KT 4500 2000S R35L/0500V1500D BR NSC M04/M04 Q1030 NOSIG
13-12-09 METAR LIMC 090220Z 17002KT 2000 0600S R35L/0250N R35R///// BCFG NSC M04/M05 Q1030 NOSIG
13-12-09 METAR LIMC 090250Z 20002KT 0300 R35L/0200V0250N R35R/0275N FZFG NSC M04/M05
13-12-09 METAR LIMC 090320Z 01001KT 0300 R35L/0250N R35R/0350V0450N PRFG NSC M05/M05
13-12-09 METAR LIMC 090350Z VRB01KT 0400 R35L/0350V0500N R35R/0250N PRFG NSC M05/M05 Q1029 NOSIG
13-12-09 METAR LIMC 090420Z 00000KT 0500 R35L/0375N R35R/0400V0550N PRFG NSC M05/M05
13-12-09 METAR LIMC 090450Z 00000KT 2000 0500E R35L/0400V0550N R35R/0750V1500D BCFG NSC M04/M05 Q1030 NOSIG
13-12-09 METAR LIMC 090520Z VRB02KT 2500 BR NSC M04/M05 Q1029 NOSIG
13-12-09 METAR LIMC 090550Z VRB02KT 6000 NSC M04/M04 Q1029 NOSIG
13-12-09 METAR LIMC 090620Z 00000KT 6000 NSC M04/M05 Q1030 NOSIG
13-12-09 METAR LIMC 090650Z VRB01KT 5000 BR NSC M04/M04 Q1030 NOSIG
13-12-09 METAR LIMC 090720Z 26001KT 9999 4000S NSC M03/M03 Q1030 NOSIG
13-12-09 METAR LIMC 090750Z VRB02KT 9999 4000S NSC M03/M03 Q1030 NOSIG
13-12-09 METAR LIMC 090820Z 00000KT 9000 BKN080 M01/M01 Q1030 NOSIG
13-12-09 METAR LIMC 090850Z VRB02KT 9000 BKN080 M00/M00 Q1030 NOSIG
13-12-09 METAR LIMC 090920Z 34004KT 9999 BKN080 01/01 Q1030 NOSIG
13-12-09 METAR LIMC 090950Z 32003KT 280V350 9000 BKN080 03/03 Q1030 NOSIG
13-12-09 METAR LIMC 091020Z 28003KT 240V300 9000 BKN080 04/04 Q1030 NOSIG
13-12-09 METAR LIMC 091050Z VRB02KT 9000 BKN080 04/03 Q1030 NOSIG
13-12-09 METAR LIMC 091120Z NIL
13-12-09 METAR LIMC 091120Z VRB02KT 9000 BKN080 05/04 Q1029 NOSIG
13-12-09 METAR LIMC 091120Z VRB02KT 8000 BKN080 05/04 Q1029 NOSIG
13-12-09 METAR LIMC 091150Z 23004KT 200V260 8000 BKN080 05/04 Q1029 NOSIG
13-12-09 METAR LIMC 091220Z 23003KT 8000 BKN080 06/04 Q1029 NOSIG
13-12-09 METAR LIMC 091250Z 24003KT 210V270 8000 BKN080 06/03 Q1029 NOSIG
13-12-09 METAR LIMC 091320Z 23003KT 8000 BKN080 06/03 Q1029 NOSIG
13-12-09 METAR LIMC 091350Z 20004KT 7000 BKN070 05/03 Q1029 NOSIG
13-12-09 METAR LIMC 091420Z 19002KT 7000 BKN070 06/03 Q1029 NOSIG
13-12-09 METAR LIMC 091450Z VRB02KT 8000 BKN080 06/03 Q1029 NOSIG
13-12-09 METAR LIMC 091520Z 23003KT 8000 FEW080 05/02 Q1029 NOSIG
13-12-09 METAR LIMC 091550Z 22003KT 7000 FEW080 03/01 Q1028 NOSIG
13-12-09 METAR LIMC 091620Z VRB02KT 7000 NSC 02/01 Q1028 NOSIG
13-12-09 METAR LIMC 091650Z VRB02KT 7000 NSC 01/00 Q1028 NOSIG
13-12-09 METAR LIMC 091720Z VRB02KT 6000 NSC 02/01 Q1028 NOSIG
13-12-09 METAR LIMC 091750Z VRB02KT 6000 NSC M01/M01 Q1029 NOSIG
13-12-09 METAR LIMC 091820Z 18003KT 5000 BR NSC M01/M02 Q1028 NOSIG
13-12-09 METAR LIMC 091850Z 13003KT 080V160 3000 BCFG NSC 00/M00 Q1029 NOSIG
13-12-09 METAR LIMC 091920Z VRB02KT 1800 R35L/0500V1500D R35R/0750V1500U BCFG NSC M02/M02 Q1029 NOSIG
13-12-09 METAR LIMC 091950Z 01003KT 340V060 1800 BCFG NSC M02/M02 Q1029 NOSIG
13-12-09 METAR LIMC 092020Z VRB03KT 1800 BCFG NSC 00/00 Q1029 NOSIG
13-12-09 METAR LIMC 092050Z VRB02KT 1800 BCFG NSC M03/M03 Q1029 NOSIG
13-12-09 METAR LIMC 092120Z 36004KT 320V020 2000 BCFG NSC M02/M02 Q1030 NOSIG
13-12-09 METAR LIMC 092150Z VRB01KT 2000 R35L///// R35R/0800V1500U BCFG NSC M02/M02
13-12-09 METAR LIMC 092220Z VRB02KT 2000 BCFG NSC M02/M02 Q1030 NOSIG
13-12-09 METAR LIMC 092250Z 35005KT 3000 BCFG NSC M03/M03 Q1030 NOSIG
13-12-09 METAR LIMC 092320Z 10004KT 5000 BR NSC M02/M02 Q1030 NOSIG
13-12-09 METAR LIMC 092350Z VRB01KT 3000 BR NSC M02/M03 Q1030 NOSIG
13-12-10 METAR LIMC 100020Z 36003KT 3000 BR NSC M03/M03 Q1030 NOSIG
13-12-10 METAR LIMC 100050Z 36003KT 3000 BR NSC M04/M04 Q1031 NOSIG
13-12-10 METAR LIMC 100120Z VRB01KT 3000 BR NSC M04/M05 Q1031 NOSIG
13-12-10 METAR LIMC 100150Z 36003KT 3000 BR NSC M05/M05 Q1031 NOSIG
13-12-10 METAR LIMC 100220Z 36004KT 3000 BR NSC M05/M06 Q1031 NOSIG
13-12-10 METAR LIMC 100250Z 00000KT 3000 BR NSC M05/M06 Q1031 NOSIG
13-12-10 METAR LIMC 100320Z VRB01KT 3000 BR NSC M06/M07 Q1032 NOSIG
13-12-10 METAR LIMC 100350Z 35005KT 4000 BR NSC M05/M06 Q1031 NOSIG
13-12-10 METAR LIMC 100420Z 03002KT 4000 BR NSC M05/M06 Q1032 NOSIG
13-12-10 METAR LIMC 100450Z 36003KT 5000 BR NSC M05/M06 Q1032 NOSIG
13-12-10 METAR LIMC 100520Z VRB02KT 6000 NSC M06/M07 Q1032 NOSIG
13-12-10 METAR LIMC 100550Z 00000KT 7000 NSC M05/M06 Q1032 NOSIG
13-12-10 METAR LIMC 100620Z 35004KT 330V050 7000 NSC M06/M07 Q1032 NOSIG
13-12-10 METAR LIMC 100650Z 36003KT 7000 MIFG NSC M04/M05 Q1032 NOSIG
13-12-10 METAR LIMC 100720Z 36003KT 320V070 8000 MIFG NSC M03/M04 Q1033 NOSIG
13-12-10 METAR LIMC 100750Z VRB01KT 8000 MIFG NSC M03/M04 Q1033 NOSIG
13-12-10 METAR LIMC 100820Z 00000KT 9000 MIFG NSC M01/M02 Q1033 NOSIG
13-12-10 METAR LIMC 100850Z NIL
13-12-10 METAR LIMC 100850Z 00000KT 9000 MIFG NSC 01/00 Q1034 NOSIG
13-12-10 METAR LIMC 100920Z 03003KT 320V090 9000 MIFG NSC 03/01 Q1034 NOSIG
13-12-10 METAR LIMC 100950Z 12003KT 080V150 9000 MIFG NSC 05/01 Q1034 NOSIG
13-12-10 METAR LIMC 101020Z 16003KT 9000 NSC 06/01 Q1034 NOSIG
13-12-10 METAR LIMC 101050Z 14003KT 090V200 8000 NSC 06/01 Q1034 NOSIG
13-12-10 METAR LIMC 101120Z VRB02KT 5000 HZ NSC 07/02 Q1034 NOSIG
13-12-10 METAR LIMC 101150Z VRB02KT 4000 HZ NSC 08/02 Q1034 NOSIG
13-12-10 METAR LIMC 101220Z 25003KT 190V300 5000 HZ NSC 08/02 Q1033 NOSIG
13-12-10 METAR LIMC 101250Z 26003KT 220V280 5000 HZ NSC 09/03 Q1033 NOSIG
13-12-10 METAR LIMC 101320Z 24004KT 5000 HZ NSC 09/02 Q1033 NOSIG
13-12-10 METAR LIMC 101350Z 23004KT 200V260 5000 HZ NSC 09/02 Q1033 NOSIG
13-12-10 METAR LIMC 101420Z 21003KT 8000 NSC 09/03 Q1033 NOSIG
13-12-10 METAR LIMC 101450Z 22003KT 8000 NSC 08/03 Q1034 NOSIG
13-12-10 METAR LIMC 101520Z 19003KT 8000 NSC 06/02 Q1034 NOSIG
13-12-10 METAR LIMC 101550Z 18002KT 5000 BR NSC 04/01 Q1034 NOSIG
13-12-10 METAR LIMC 101620Z 14002KT 5000 BR NSC 04/03 Q1034 NOSIG
13-12-10 METAR LIMC 101650Z VRB02KT 5000 BR NSC 03/02 Q1035 NOSIG
13-12-10 METAR LIMC 101720Z VRB02KT 5000 BR NSC 01/01 Q1035 NOSIG
13-12-10 METAR LIMC 101750Z 01004KT 4500 BR NSC 00/M00 Q1035 NOSIG
13-12-10 METAR LIMC 101820Z 35003KT 4000 BR NSC M00/M01 Q1036 NOSIG
13-12-10 METAR LIMC 101850Z 01003KT 340V040 4000 BR NSC M02/M03 Q1036 NOSIG
13-12-10 METAR LIMC 101920Z 36003KT 320V090 4000 BR NSC M02/M02 Q1036 NOSIG
13-12-10 METAR LIMC 101950Z VRB02KT 4000 BR NSC M02/M02 Q1036 NOSIG
13-12-10 METAR LIMC 102020Z VRB02KT 4000 BR NSC M02/M02 Q1037 NOSIG
13-12-10 METAR LIMC 102050Z 34003KT 280V040 3500 BR NSC M01/M02 Q1037 NOSIG
13-12-10 METAR LIMC 102120Z 35005KT 3500 BR NSC M01/M01 Q1037 NOSIG
13-12-10 METAR LIMC 102150Z 01003KT 330V050 3000 BR NSC M01/M02 Q1037 NOSIG
13-12-10 METAR LIMC 102220Z 36003KT 340V040 3000 BR NSC M01/M02 Q1037 NOSIG
13-12-10 METAR LIMC 102250Z 36005KT 3000 BR NSC M03/M04 Q1037 NOSIG
13-12-10 METAR LIMC 102320Z 00000KT 3500 BR NSC M03/M04 Q1037 NOSIG
13-12-10 METAR LIMC 102350Z 01003KT 3500 BR NSC M04/M05 Q1037 NOSIG
13-12-11 METAR LIMC 110020Z VRB02KT 3500 BR NSC M04/M04 Q1037 NOSIG
13-12-11 METAR LIMC 110050Z 01003KT 4000 BR NSC M04/M04 Q1037 NOSIG
13-12-11 METAR LIMC 110120Z 36005KT 4000 BR NSC M03/M04 Q1037 NOSIG
13-12-11 METAR LIMC 110150Z 36003KT 4000 BR NSC M04/M04 Q1037 NOSIG
13-12-11 METAR LIMC 110220Z 36002KT 4000 BR NSC M04/M05 Q1037 NOSIG
13-12-11 METAR LIMC 110250Z VRB02KT 4500 BR NSC M05/M06 Q1037 NOSIG
13-12-11 METAR LIMC 110320Z VRB01KT 5000 BR NSC M04/M05 Q1037 NOSIG
13-12-11 METAR LIMC 110350Z 15002KT 3000 BCFG NSC M05/M06 Q1036 NOSIG
13-12-11 METAR LIMC 110420Z 01001KT 2500 R35L/0175V1500U R35R///// BCFG NSC M04/M05 Q1036 NOSIG
13-12-11 METAR LIMC 110450Z VRB02KT 1900 0350S R35L/0300V0400N R35R/0150V0225N BCFG NSC M05/M06 Q1036 NOSIG
13-12-11 METAR LIMC 110520Z 00000KT 2200 0300S R35L/0250N R35R/0250V0400N BCFG NSC M06/M06 Q1036 NOSIG
13-12-11 METAR LIMC 110550Z 00000KT 2200 0300S R35L/0250V0400D R35R/0300V1500D BCFG NSC M06/M06 Q1036 NOSIG
13-12-11 METAR LIMC 110620Z VRB02KT 2500 0400SE R35L/0650V1500N R35R///// BCFG NSC
13-12-11 METAR LIMC 110650Z VRB01KT 5000 0400SE BCFG NSC M04/M05 Q1036 NOSIG
13-12-11 METAR LIMC 110720Z VRB02KT 9999 3000E MIFG NSC M04/M04 Q1036 NOSIG
13-12-11 METAR LIMC 110750Z 35002KT 9999 3000SE VCFG NSC M04/M04 Q1036 NOSIG
13-12-11 METAR LIMC 110820Z 00000KT 9999 3000SE VCFG NSC M02/M02 Q1036 NOSIG
13-12-11 METAR LIMC 110850Z VRB01KT 9999 4000S VCFG NSC 00/00 Q1036 NOSIG
13-12-11 METAR LIMC 110920Z VRB02KT 9999 4000S VCFG NSC 02/02 Q1036 NOSIG
13-12-11 METAR LIMC 110950Z VRB02KT 9999 VCFG NSC 05/02 Q1036 NOSIG
13-12-11 METAR LIMC 111020Z VRB02KT 9999 4000SW VCFG NSC 06/02 Q1036 NOSIG
13-12-11 METAR LIMC 111050Z 24003KT 160V270 9999 4500SW NSC 06/02 Q1036 NOSIG
13-12-11 METAR LIMC 111120Z VRB02KT 9999 4500SW NSC 07/01 Q1035 NOSIG
13-12-11 METAR LIMC 111150Z 21003KT 170V250 9999 NSC 07/01 Q1035 NOSIG
13-12-11 METAR LIMC 111220Z 24003KT 200V270 8000 NSC 08/01 Q1034 NOSIG
13-12-11 METAR LIMC 111250Z 24004KT CAVOK 08/01 Q1034 NOSIG
13-12-11 METAR LIMC 111320Z 22003KT 180V260 8000 NSC 09/01 Q1034 NOSIG
13-12-11 METAR LIMC 111350Z 22003KT 190V250 8000 NSC 09/01 Q1033 NOSIG
13-12-11 METAR LIMC 111420Z 22004KT 8000 NSC 09/02 Q1033 NOSIG
13-12-11 METAR LIMC 111450Z 20004KT 8000 NSC 08/02 Q1033 NOSIG
13-12-11 METAR LIMC 111520Z 20004KT 6000 NSC 06/02 Q1033 NOSIG
13-12-11 METAR LIMC 111550Z 17002KT 3500 BR NSC 05/02 Q1033 NOSIG
13-12-11 METAR LIMC 111620Z 16002KT 3500 BR NSC 03/01 Q1033 NOSIG
13-12-11 METAR LIMC 111650Z VRB01KT 3500 BR NSC 02/01 Q1033 NOSIG
13-12-11 METAR LIMC 111720Z 00000KT 3500 BR NSC 00/M01 Q1033 NOSIG
13-12-11 METAR LIMC 111750Z 00000KT 3500 BR NSC M00/M01 Q1034 NOSIG
13-12-11 METAR LIMC 111820Z VRB01KT 3500 BCFG NSC 01/00 Q1034 NOSIG
13-12-11 METAR LIMC 111850Z VRB02KT 3500 BCFG NSC M02/M03 Q1034 NOSIG
13-12-11 METAR LIMC 111920Z VRB02KT 3500 BCFG NSC M01/M01 Q1034 NOSIG
13-12-11 METAR LIMC 111950Z VRB02KT 3500 R35L///// R35R/0450V1500D BCFG NSC M03/M03 Q1034 NOSIG
13-12-11 METAR LIMC 112020Z 04001KT 3000 MIFG NSC M03/M04 Q1034 NOSIG
13-12-11 METAR LIMC 112050Z 00000KT 3000 BCFG NSC M04/M04 Q1034 NOSIG
13-12-11 METAR LIMC 112120Z VRB02KT 2900 BCFG NSC M04/M04 Q1034 NOSIG
13-12-11 METAR LIMC 112150Z VRB02KT 2900 BCFG NSC M01/M01 Q1034 NOSIG
13-12-11 METAR LIMC 112220Z VRB01KT 3000 BR NSC M03/M03 Q1034 NOSIG
13-12-11 METAR LIMC 112250Z 01002KT 3100 1500SE BR NSC M05/M05 Q1034 NOSIG
13-12-11 METAR LIMC 112320Z VRB01KT 3000 BR NSC M05/M06 Q1034 NOSIG
13-12-11 METAR LIMC 112350Z 05001KT 3000 BR NSC M05/M05 Q1034 NOSIG
13-12-12 METAR LIMC 120020Z 00000KT 3000 BR NSC M05/M06 Q1034 NOSIG
13-12-12 METAR LIMC 120050Z VRB01KT 3000 BR NSC M05/M05 Q1033 NOSIG
13-12-12 METAR LIMC 120120Z VRB02KT 3000 BR NSC M06/M06 Q1034 NOSIG
13-12-12 METAR LIMC 120150Z 00000KT 4000 BR NSC M05/M05 Q1034 NOSIG
13-12-12 METAR LIMC 120220Z 00000KT 4000 BR NSC M05/M06 Q1033 NOSIG
13-12-12 METAR LIMC 120250Z 00000KT 4500 BR NSC M06/M06 Q1033 NOSIG
13-12-12 METAR LIMC 120320Z VRB01KT 4500 BR NSC M06/M06 Q1033 NOSIG
13-12-12 METAR LIMC 120350Z 00000KT 4500 BCFG NSC M06/M06 Q1033 NOSIG
13-12-12 METAR LIMC 120420Z 00000KT 4500 R17L///// R35R/0375V1500D BCFG NSC M06/M07 Q1033 NOSIG
13-12-12 METAR LIMC 120450Z 00000KT 5000 0900S BCFG NSC M06/M06 Q1033 NOSIG
13-12-12 METAR LIMC 120520Z VRB01KT 8000 1500S R35L/0600V1500D BCFG NSC M06/M07
13-12-12 METAR LIMC 120550Z VRB01KT 8000 BCFG NSC M07/M07 Q1033 NOSIG
13-12-12 METAR LIMC 120620Z VRB02KT 8000 MIFG NSC M04/M04 Q1033 NOSIG
13-12-12 METAR LIMC 120650Z VRB02KT 6000 MIFG NSC M06/M06 Q1033 NOSIG
13-12-12 METAR LIMC 120720Z 00000KT 6000 VCFG NSC M05/M06 Q1033 NOSIG
13-12-12 METAR LIMC 120750Z NIL
13-12-12 METAR LIMC 120750Z VRB02KT 6000 VCFG NSC M04/M04 Q1033 NOSIG
13-12-12 METAR LIMC 120820Z VRB01KT 6000 VCFG NSC M02/M03 Q1033 NOSIG
13-12-12 METAR LIMC 120850Z VRB02KT 6000 VCFG NSC M00/M00 Q1033 NOSIG
13-12-12 METAR LIMC 120920Z 00000KT 6000 VCFG NSC 02/02 Q1033 NOSIG
13-12-12 METAR LIMC 120950Z VRB01KT 6000 VCFG NSC 04/02 Q1033 NOSIG
13-12-12 METAR LIMC 121020Z VRB02KT 6000 VCFG NSC 05/02 Q1033 NOSIG
13-12-12 METAR LIMC 121050Z 23004KT 6000 VCFG NSC 05/01 Q1033 NOSIG
13-12-12 METAR LIMC 121120Z 22003KT 6000 VCFG NSC 05/01 Q1032 NOSIG
13-12-12 METAR LIMC 121150Z 23003KT 6000 VCFG NSC 06/02 Q1032 NOSIG
13-12-12 METAR LIMC 121220Z 23004KT 4500 BR NSC 06/02 Q1031 NOSIG
13-12-12 METAR LIMC 121250Z 21003KT 4000 BR NSC 07/02 Q1031 NOSIG
13-12-12 METAR LIMC 121320Z 21003KT 4000 BR NSC 07/02 Q1031 NOSIG
13-12-12 METAR LIMC 121350Z 23004KT 4000 BR NSC 07/02 Q1030 NOSIG
13-12-12 METAR LIMC 121420Z 20004KT 4000 BR NSC 07/02 Q1030 NOSIG
13-12-12 METAR LIMC 121450Z 20004KT 4000 BR NSC 06/01 Q1030 NOSIG
13-12-12 METAR LIMC 121520Z 20003KT 4000 BR NSC 05/01 Q1030 NOSIG
13-12-12 METAR LIMC 121550Z 21002KT 4000 BR NSC 03/01 Q1030 NOSIG
13-12-12 METAR LIMC 121620Z 20001KT 4000 BR NSC 02/00 Q1030 NOSIG
13-12-12 METAR LIMC 121650Z 00000KT 6000 NSC 00/M02 Q1030 NOSIG
13-12-12 METAR LIMC 121720Z VRB01KT 6000 NSC M00/M01 Q1030 NOSIG
13-12-12 METAR LIMC 121750Z VRB01KT 7000 NSC M02/M03 Q1030 NOSIG
13-12-12 METAR LIMC 121820Z 36003KT 330V040 9000 NSC M02/M02 Q1030 NOSIG
13-12-12 METAR LIMC 121850Z 36003KT 9000 NSC M02/M03 Q1030 NOSIG
13-12-12 METAR LIMC 121920Z 34002KT 9000 NSC M02/M02 Q1029 NOSIG
13-12-12 METAR LIMC 121950Z 36003KT 320V050 9000 NSC M01/M01 Q1029 NOSIG
13-12-12 METAR LIMC 122020Z VRB02KT 9000 NSC M04/M05 Q1029 NOSIG
13-12-12 METAR LIMC 122050Z 36003KT 330V060 7000 VCFG NSC M03/M04 Q1029 NOSIG
13-12-12 METAR LIMC 122120Z VRB01KT 7000 VCFG NSC M04/M04 Q1029 NOSIG
13-12-12 METAR LIMC 122150Z VRB02KT 7000 BCFG NSC M04/M05 Q1029 NOSIG
13-12-12 METAR LIMC 122220Z 00000KT 7000 BCFG NSC M05/M05 Q1029 NOSIG
13-12-12 METAR LIMC 122250Z 00000KT 7000 NSC M05/M06 Q1029 NOSIG
13-12-12 METAR LIMC 122320Z 00000KT 7000 BCFG NSC M05/M05 Q1029 NOSIG
13-12-12 METAR LIMC 122350Z 00000KT 7000 BCFG NSC M05/M05 Q1029 NOSIG
13-12-13 METAR LIMC 130020Z NIL
13-12-13 METAR LIMC 130020Z VRB01KT 7000 BCFG NSC M05/M06 Q1028 NOSIG
13-12-13 METAR LIMC 130050Z 00000KT 7000 BCFG NSC M05/M05 Q1028 NOSIG
13-12-13 METAR LIMC 130120Z VRB01KT 8000 NSC M05/M06 Q1028 NOSIG
13-12-13 METAR LIMC 130150Z VRB02KT CAVOK M05/M06 Q1028 NOSIG
13-12-13 METAR LIMC 130220Z VRB01KT CAVOK M06/M07 Q1028 NOSIG
13-12-13 METAR LIMC 130250Z 00000KT CAVOK M06/M07 Q1027 NOSIG
13-12-13 METAR LIMC 130320Z VRB02KT CAVOK M06/M07 Q1027 NOSIG
13-12-13 METAR LIMC 130350Z 34003KT CAVOK M05/M06 Q1027 NOSIG
13-12-13 METAR LIMC 130420Z 35003KT 330V040 CAVOK M05/M06 Q1027 NOSIG
13-12-13 METAR LIMC 130450Z 01003KT 330V080 CAVOK M04/M05 Q1027 NOSIG
13-12-13 METAR LIMC 130520Z 01003KT CAVOK M05/M06 Q1027 NOSIG
13-12-13 METAR LIMC 130550Z VRB02KT CAVOK M05/M05 Q1027 NOSIG
13-12-13 METAR LIMC 130620Z 36003KT CAVOK M04/M04 Q1027 NOSIG
13-12-13 METAR LIMC 130650Z 36003KT 320V060 9999 2500SW VCFG NSC M02/M03 Q1026 NOSIG
13-12-13 METAR LIMC 130720Z 35004KT CAVOK M03/M04 Q1026 NOSIG
13-12-13 METAR LIMC 130750Z 34003KT CAVOK M02/M03 Q1026 NOSIG
13-12-13 METAR LIMC 130820Z VRB02KT CAVOK M00/M01 Q1026 NOSIG
13-12-13 METAR LIMC 130850Z 00000KT CAVOK 03/01 Q1026 NOSIG
13-12-13 METAR LIMC 130920Z 00000KT CAVOK 06/02 Q1026 NOSIG
13-12-13 METAR LIMC 130950Z 27003KT 250V310 CAVOK 07/01 Q1026 NOSIG
13-12-13 METAR LIMC 131020Z 23004KT 200V260 CAVOK 06/01 Q1026 NOSIG
13-12-13 METAR LIMC 131050Z 24004KT CAVOK 07/00 Q1026 NOSIG
13-12-13 METAR LIMC 131120Z 24004KT 210V270 CAVOK 08/01 Q1025 NOSIG
13-12-13 METAR LIMC 131150Z 23003KT 200V260 CAVOK 09/01 Q1025 NOSIG
13-12-13 METAR LIMC 131220Z 25003KT 220V290 CAVOK 09/01 Q1025 NOSIG
13-12-13 METAR LIMC 131250Z 24004KT CAVOK 10/01 Q1024 NOSIG
13-12-13 METAR LIMC 131320Z 22003KT CAVOK 10/00 Q1024 NOSIG
13-12-13 METAR LIMC 131350Z 23003KT CAVOK 10/00 Q1024 NOSIG
13-12-13 METAR LIMC 131420Z 23004KT 200V260 CAVOK 09/01 Q1024 NOSIG
13-12-13 METAR LIMC 131450Z 23003KT CAVOK 08/00 Q1024 NOSIG
13-12-13 METAR LIMC 131520Z 20004KT CAVOK 08/01 Q1024 NOSIG
13-12-13 METAR LIMC 131550Z 21004KT 8000 NSC 05/M00 Q1024 NOSIG
13-12-13 METAR LIMC 131620Z 19001KT 8000 NSC 03/M00 Q1024 NOSIG
13-12-13 METAR LIMC 131650Z 21001KT 8000 NSC 02/M01 Q1024 NOSIG
13-12-13 METAR LIMC 131720Z 00000KT 8000 NSC 01/M02 Q1024 NOSIG
13-12-13 METAR LIMC 131750Z 01003KT 320V040 8000 NSC 02/00 Q1024 NOSIG
13-12-13 METAR LIMC 131820Z VRB02KT 8000 NSC 01/M02 Q1024 NOSIG
13-12-13 METAR LIMC 131850Z VRB02KT 8000 NSC M01/M02 Q1024 NOSIG
13-12-13 METAR LIMC 131920Z VRB02KT 8000 NSC M02/M03 Q1024 NOSIG
13-12-13 METAR LIMC 131950Z VRB02KT 8000 NSC M02/M03 Q1025 NOSIG
13-12-13 METAR LIMC 132020Z VRB02KT 8000 NSC M02/M03 Q1025 NOSIG
13-12-13 METAR LIMC 132050Z VRB02KT CAVOK M03/M03 Q1025 NOSIG
13-12-13 METAR LIMC 132120Z VRB01KT CAVOK M04/M05 Q1025 NOSIG
13-12-13 METAR LIMC 132150Z VRB01KT CAVOK M03/M04 Q1025 NOSIG
13-12-13 METAR LIMC 132220Z 36002KT CAVOK M04/M05 Q1025 NOSIG
13-12-13 METAR LIMC 132250Z VRB01KT CAVOK M04/M05 Q1025 NOSIG
13-12-13 METAR LIMC 132320Z 00000KT CAVOK M04/M05 Q1025 NOSIG
13-12-13 METAR LIMC 132350Z VRB01KT CAVOK M05/M06 Q1025 NOSIG
13-12-14 METAR LIMC 140020Z 00000KT CAVOK M05/M06 Q1025 NOSIG
13-12-14 METAR LIMC 140050Z VRB02KT CAVOK M05/M05 Q1025 NOSIG
13-12-14 METAR LIMC 140120Z 01003KT CAVOK M06/M07 Q1025 NOSIG
13-12-14 METAR LIMC 140150Z 35002KT CAVOK M05/M06 Q1025 NOSIG
13-12-14 METAR LIMC 140220Z 35005KT CAVOK M04/M05 Q1025 NOSIG
13-12-14 METAR LIMC 140250Z 36005KT CAVOK M05/M06 Q1025 NOSIG
13-12-14 METAR LIMC 140320Z 36003KT CAVOK M05/M06 Q1025 NOSIG
13-12-14 METAR LIMC 140350Z 36006KT CAVOK M04/M05 Q1024 NOSIG
13-12-14 METAR LIMC 140420Z VRB02KT CAVOK M02/M02 Q1025 NOSIG
13-12-14 METAR LIMC 140450Z VRB01KT CAVOK M02/M03 Q1025 NOSIG
13-12-14 METAR LIMC 140520Z 00000KT CAVOK M04/M05 Q1025 NOSIG
13-12-14 METAR LIMC 140550Z 01002KT CAVOK M04/M05 Q1025 NOSIG
13-12-14 METAR LIMC 140620Z VRB02KT CAVOK M05/M06 Q1025 NOSIG
13-12-14 METAR LIMC 140650Z 35005KT CAVOK M04/M04 Q1025 NOSIG
13-12-14 METAR LIMC 140720Z 35004KT CAVOK M03/M04 Q1026 NOSIG
13-12-14 METAR LIMC 140750Z 35005KT CAVOK M01/M02 Q1026 NOSIG
13-12-14 METAR LIMC 140820Z VRB02KT CAVOK 01/M00 Q1026 NOSIG
13-12-14 METAR LIMC 140850Z 36004KT 290V050 CAVOK 04/01 Q1026 NOSIG
13-12-14 METAR LIMC 140920Z VRB02KT CAVOK 07/01 Q1027 NOSIG
13-12-14 METAR LIMC 140950Z 34004KT 310V020 CAVOK 08/00 Q1027 NOSIG
13-12-14 METAR LIMC 141020Z VRB02KT CAVOK 10/01 Q1027 NOSIG
13-12-14 METAR LIMC 141050Z VRB02KT CAVOK 11/00 Q1027 NOSIG
13-12-14 METAR LIMC 141120Z VRB02KT CAVOK 10/00 Q1026 NOSIG
13-12-14 METAR LIMC 141150Z VRB02KT CAVOK 12/M02 Q1026 NOSIG
13-12-14 METAR LIMC 141220Z 26004KT 9999 SCT090 11/M03 Q1026 NOSIG
13-12-14 METAR LIMC 141250Z 24003KT 190V310 CAVOK 12/M03 Q1025 NOSIG
13-12-14 METAR LIMC 141320Z 25003KT 220V280 CAVOK 12/M02 Q1025 NOSIG
13-12-14 METAR LIMC 141350Z VRB02KT CAVOK 13/M01 Q1025 NOSIG
13-12-14 METAR LIMC 141420Z 21002KT CAVOK 13/M01 Q1025 NOSIG
13-12-14 METAR LIMC 141450Z 21003KT CAVOK 11/M02 Q1025 NOSIG
13-12-14 METAR LIMC 141520Z 28002KT CAVOK 10/M04 Q1026 NOSIG
13-12-14 METAR LIMC 141550Z VRB01KT CAVOK 09/M03 Q1026 NOSIG
13-12-14 METAR LIMC 141620Z VRB02KT CAVOK 04/M02 Q1026 NOSIG
13-12-14 METAR LIMC 141650Z VRB02KT CAVOK 02/M03 Q1026 NOSIG
13-12-14 METAR LIMC 141720Z 36003KT CAVOK 01/M03 Q1026 NOSIG
13-12-14 METAR LIMC 141750Z VRB02KT CAVOK M01/M04 Q1027 NOSIG
13-12-14 METAR LIMC 141820Z 35004KT 330V040 CAVOK 00/M03 Q1027 NOSIG
13-12-14 METAR LIMC 141850Z 36003KT 300V040 CAVOK M00/M03 Q1027 NOSIG
13-12-14 METAR LIMC 141920Z 35005KT CAVOK 00/M03 Q1027 NOSIG
13-12-14 METAR LIMC 141950Z 36004KT CAVOK M00/M03 Q1028 NOSIG
13-12-14 METAR LIMC 142020Z VRB02KT CAVOK M01/M03 Q1028 NOSIG
13-12-14 METAR LIMC 142050Z 01004KT CAVOK M01/M03 Q1028 NOSIG
13-12-14 METAR LIMC 142120Z 35005KT CAVOK 00/M02 Q1028 NOSIG
13-12-14 METAR LIMC 142150Z 36003KT CAVOK M02/M05 Q1028 NOSIG
13-12-14 METAR LIMC 142220Z 36004KT CAVOK M03/M05 Q1029 NOSIG
13-12-14 METAR LIMC 142250Z 35004KT CAVOK M02/M04 Q1029 NOSIG
13-12-14 METAR LIMC 142320Z 36004KT CAVOK M02/M03 Q1029 NOSIG
13-12-14 METAR LIMC 142350Z 36005KT CAVOK M02/M04 Q1029 NOSIG
13-12-15 METAR LIMC 150020Z VRB02KT CAVOK M03/M05 Q1029 NOSIG
13-12-15 METAR LIMC 150050Z 06003KT 020V080 CAVOK M01/M03 Q1030 NOSIG
13-12-15 METAR LIMC 150120Z 07004KT 040V100 CAVOK M02/M04 Q1030 NOSIG
13-12-15 METAR LIMC 150150Z VRB02KT CAVOK M04/M06 Q1031 NOSIG
13-12-15 METAR LIMC 150220Z 36004KT CAVOK M03/M05 Q1031 NOSIG
13-12-15 METAR LIMC 150250Z VRB02KT CAVOK M04/M04 Q1031 NOSIG
13-12-15 METAR LIMC 150320Z VRB01KT CAVOK M00/M01 Q1031 NOSIG
13-12-15 METAR LIMC 150350Z 06003KT 4500 BR NSC M00/M01 Q1031 NOSIG
13-12-15 METAR LIMC 150420Z 01004KT 340V040 4000 BR NSC M03/M04 Q1032 NOSIG
13-12-15 METAR LIMC 150450Z VRB02KT 3500 BR NSC M04/M04 Q1032 NOSIG
13-12-15 METAR LIMC 150520Z 07002KT 3500 BR NSC M03/M04 Q1032 NOSIG
13-12-15 METAR LIMC 150550Z VRB02KT 3500 BR NSC M04/M04 Q1032 NOSIG
13-12-15 METAR LIMC 150620Z 34005KT 310V010 3500 R35L///// R35R/0250V1500D BR NSC M04/M04 Q1033 NOSIG
13-12-15 METAR LIMC 150650Z 35005KT 2000 BR NSC M02/M02 Q1033 NOSIG
13-12-15 METAR LIMC 150720Z VRB02KT 2500 BR NSC M03/M03 Q1033 NOSIG
13-12-15 METAR LIMC 150750Z 35005KT 2500 BR NSC M02/M03 Q1034 NOSIG
13-12-15 METAR LIMC 150820Z VRB02KT 2500 BR NSC 00/M00 Q1034 NOSIG
13-12-15 METAR LIMC 150850Z 31004KT 3000 BR NSC 03/02 Q1034 NOSIG
13-12-15 METAR LIMC 150920Z 33003KT 270V010 4000 BR SCT080 04/03 Q1034 NOSIG
13-12-15 METAR LIMC 150950Z VRB02KT 5000 BR SCT080 04/03 Q1034 NOSIG
13-12-15 METAR LIMC 151020Z VRB02KT 6000 SCT080 06/03 Q1034 NOSIG
13-12-15 METAR LIMC 151050Z 32003KT 290V360 7000 SCT080 08/02 Q1034 NOSIG
13-12-15 METAR LIMC 151120Z 35003KT 300V030 7000 SCT080 09/01 Q1034 NOSIG
13-12-15 METAR LIMC 151150Z VRB02KT 8000 NSC 10/02 Q1033 NOSIG
13-12-15 METAR LIMC 151220Z VRB01KT 8000 NSC 11/01 Q1033 NOSIG
13-12-15 METAR LIMC 151250Z VRB02KT 8000 NSC 11/01 Q1033 NOSIG
13-12-15 METAR LIMC 151320Z 24004KT 210V270 8000 NSC 10/03 Q1033 NOSIG
13-12-15 METAR LIMC 151350Z VRB02KT 8000 NSC 11/02 Q1033 NOSIG
13-12-15 METAR LIMC 151420Z 21002KT 8000 NSC 11/02 Q1033 NOSIG
13-12-15 METAR LIMC 151450Z 21004KT 8000 NSC 09/02 Q1033 NOSIG
13-12-15 METAR LIMC 151520Z 21004KT 8000 NSC 07/02 Q1033 NOSIG
13-12-15 METAR LIMC 151550Z 22003KT 200V270 6000 NSC 05/01 Q1033 NOSIG
13-12-15 METAR LIMC 151620Z VRB01KT 4000 BR NSC 04/01 Q1033 NOSIG
13-12-15 METAR LIMC 151650Z VRB01KT 4000 BR NSC 04/02 Q1033 NOSIG
13-12-15 METAR LIMC 151720Z 36003KT 7000 NSC 02/01 Q1033 NOSIG
13-12-15 METAR LIMC 151750Z 36004KT 7000 NSC M00/M01 Q1034 NOSIG
13-12-15 METAR LIMC 151820Z 35006KT 7000 NSC 02/M00 Q1034 NOSIG
13-12-15 METAR LIMC 151850Z 04003KT 330V130 CAVOK 03/M00 Q1034 NOSIG
13-12-15 METAR LIMC 151920Z 00000KT CAVOK M01/M02 Q1034 NOSIG
13-12-15 METAR LIMC 151950Z 02002KT CAVOK M01/M02 Q1034 NOSIG
13-12-15 METAR LIMC 152020Z 36003KT CAVOK M02/M03 Q1035 NOSIG
13-12-15 METAR LIMC 152050Z 36005KT 330V030 CAVOK M03/M05 Q1035 NOSIG
13-12-15 METAR LIMC 152120Z 36005KT CAVOK 00/M03 Q1035 NOSIG
13-12-15 METAR LIMC 152150Z 35004KT CAVOK M03/M04 Q1035 NOSIG
13-12-15 METAR LIMC 152220Z 36005KT CAVOK M03/M05 Q1035 NOSIG
13-12-15 METAR LIMC 152250Z 36005KT CAVOK M02/M03 Q1035 NOSIG
13-12-15 METAR LIMC 152320Z 36004KT CAVOK M04/M06 Q1035 NOSIG
13-12-15 METAR LIMC 152350Z 36004KT CAVOK M03/M04 Q1035 NOSIG
13-12-16 METAR LIMC 160020Z 36005KT CAVOK M05/M07 Q1035 NOSIG
13-12-16 METAR LIMC 160050Z 36004KT 340V050 CAVOK M05/M07 Q1035 NOSIG
13-12-16 METAR LIMC 160120Z VRB02KT CAVOK M05/M07 Q1035 NOSIG
13-12-16 METAR LIMC 160150Z 36002KT CAVOK M05/M07 Q1035 NOSIG
13-12-16 METAR LIMC 160220Z VRB02KT CAVOK M05/M07 Q1035 NOSIG
13-12-16 METAR LIMC 160250Z VRB01KT CAVOK M06/M08 Q1035 NOSIG
13-12-16 METAR LIMC 160320Z 03002KT CAVOK M04/M05 Q1035 NOSIG
13-12-16 METAR LIMC 160350Z 01003KT CAVOK M06/M07 Q1035 NOSIG
13-12-16 METAR LIMC 160420Z 01002KT CAVOK M06/M08 Q1035 NOSIG
13-12-16 METAR LIMC 160450Z VRB02KT CAVOK M06/M08 Q1035 NOSIG
13-12-16 METAR LIMC 160520Z 01004KT CAVOK M06/M07 Q1035 NOSIG
13-12-16 METAR LIMC 160550Z 35003KT 330V030 CAVOK M05/M07 Q1035 NOSIG
13-12-16 METAR LIMC 160620Z 35006KT CAVOK M02/M05 Q1035 NOSIG
13-12-16 METAR LIMC 160650Z 35006KT CAVOK M03/M05 Q1035 NOSIG
13-12-16 METAR LIMC 160720Z 35006KT CAVOK M02/M04 Q1035 NOSIG
13-12-16 METAR LIMC 160750Z 35004KT 330V030 CAVOK M01/M03 Q1036 NOSIG
13-12-16 METAR LIMC 160820Z 35003KT CAVOK M00/M02 Q1036 NOSIG
13-12-16 METAR LIMC 160850Z 35002KT CAVOK 03/M01 Q1036 NOSIG
13-12-16 METAR LIMC 160920Z VRB01KT CAVOK 06/00 Q1036 NOSIG
13-12-16 METAR LIMC 160950Z VRB01KT CAVOK 07/00 Q1036 NOSIG
13-12-16 METAR LIMC 161020Z VRB02KT CAVOK 08/M01 Q1036 NOSIG
13-12-16 METAR LIMC 161050Z VRB02KT CAVOK 09/M01 Q1036 NOSIG
13-12-16 METAR LIMC 161120Z 25003KT 210V280 CAVOK 10/M02 Q1035 NOSIG
13-12-16 METAR LIMC 161150Z 24003KT 200V290 CAVOK 10/M01 Q1035 NOSIG
13-12-16 METAR LIMC 161220Z 24004KT CAVOK 10/M02 Q1035 NOSIG
13-12-16 METAR LIMC 161250Z 24004KT CAVOK 11/M02 Q1034 NOSIG
13-12-16 METAR LIMC 161320Z 24003KT 210V270 CAVOK 11/M01 Q1034 NOSIG
13-12-16 METAR LIMC 161350Z 24002KT CAVOK 10/M00 Q1034 NOSIG
13-12-16 METAR LIMC 161420Z 23003KT CAVOK 09/M00 Q1034 NOSIG
13-12-16 METAR LIMC 161450Z 22004KT CAVOK 08/M01 Q1034 NOSIG
13-12-16 METAR LIMC 161520Z 23004KT CAVOK 07/00 Q1034 NOSIG
13-12-16 METAR LIMC 161550Z 22003KT CAVOK 05/M00 Q1034 NOSIG
13-12-16 METAR LIMC 161620Z 23002KT CAVOK 04/M01 Q1034 NOSIG
13-12-16 METAR LIMC 161650Z 35003KT CAVOK 02/M01 Q1034 NOSIG
13-12-16 METAR LIMC 161720Z 36004KT 340V050 CAVOK 00/M03 Q1034 NOSIG
13-12-16 METAR LIMC 161750Z 35006KT CAVOK 01/M03 Q1035 NOSIG
13-12-16 METAR LIMC 161820Z 35005KT CAVOK 00/M02 Q1035 NOSIG
13-12-16 METAR LIMC 161850Z VRB01KT CAVOK M01/M04 Q1035 NOSIG
13-12-16 METAR LIMC 161920Z 35005KT CAVOK 00/M03 Q1035 NOSIG
13-12-16 METAR LIMC 161950Z 35003KT 320V020 CAVOK M03/M04 Q1035 NOSIG
13-12-16 METAR LIMC 162020Z 35005KT CAVOK 01/M02 Q1035 NOSIG
13-12-16 METAR LIMC 162050Z 02002KT CAVOK M02/M05 Q1035 NOSIG
13-12-16 METAR LIMC 162120Z 01003KT CAVOK M02/M03 Q1035 NOSIG
13-12-16 METAR LIMC 162150Z VRB02KT CAVOK M03/M05 Q1035 NOSIG
13-12-16 METAR LIMC 162220Z 35003KT CAVOK M04/M05 Q1035 NOSIG
13-12-16 METAR LIMC 162250Z 01002KT CAVOK M04/M05 Q1035 NOSIG
13-12-16 METAR LIMC 162320Z 03001KT CAVOK M05/M06 Q1035 NOSIG
13-12-16 METAR LIMC 162350Z 02002KT CAVOK M04/M05 Q1035 NOSIG
13-12-17 METAR LIMC 170020Z VRB01KT CAVOK M05/M06 Q1035 NOSIG
13-12-17 METAR LIMC 170050Z 01001KT CAVOK M05/M06 Q1035 NOSIG
13-12-17 METAR LIMC 170120Z 00000KT CAVOK M05/M06 Q1035 NOSIG
13-12-17 METAR LIMC 170150Z VRB01KT CAVOK M05/M07 Q1035 NOSIG
13-12-17 METAR LIMC 170220Z 01002KT CAVOK M05/M07 Q1035 NOSIG
13-12-17 METAR LIMC 170250Z 36004KT CAVOK M04/M06 Q1034 NOSIG
13-12-17 METAR LIMC 170320Z 36002KT CAVOK M05/M06 Q1034 NOSIG
13-12-17 METAR LIMC 170350Z 03003KT CAVOK M04/M05 Q1034 NOSIG
13-12-17 METAR LIMC 170420Z 36001KT CAVOK M06/M07 Q1034 NOSIG
13-12-17 METAR LIMC 170450Z 36002KT CAVOK M05/M06 Q1034 NOSIG
13-12-17 METAR LIMC 170520Z 01003KT CAVOK M06/M07 Q1034 NOSIG
13-12-17 METAR LIMC 170550Z 36004KT CAVOK M04/M05 Q1034 NOSIG
13-12-17 METAR LIMC 170620Z 36004KT CAVOK M03/M04 Q1034 NOSIG
13-12-17 METAR LIMC 170650Z 35004KT CAVOK M04/M06 Q1034 NOSIG
13-12-17 METAR LIMC 170720Z 35005KT CAVOK M04/M05 Q1034 NOSIG
13-12-17 METAR LIMC 170750Z 35005KT CAVOK M02/M03 Q1034 NOSIG
13-12-17 METAR LIMC 170820Z 36004KT 340V040 CAVOK 01/M02 Q1034 NOSIG
13-12-17 METAR LIMC 170850Z 33002KT CAVOK 02/M00 Q1034 NOSIG
13-12-17 METAR LIMC 170920Z VRB02KT CAVOK 05/00 Q1034 NOSIG
13-12-17 METAR LIMC 170950Z 24003KT CAVOK 06/00 Q1034 NOSIG
13-12-17 METAR LIMC 171020Z 28005KT CAVOK 07/00 Q1034 NOSIG
13-12-17 METAR LIMC 171050Z 24004KT CAVOK 08/01 Q1033 NOSIG
13-12-17 METAR LIMC 171120Z 24003KT CAVOK 08/00 Q1033 NOSIG
13-12-17 METAR LIMC 171150Z 23004KT 200V270 CAVOK 09/00 Q1032 NOSIG
13-12-17 METAR LIMC 171220Z 22004KT CAVOK 10/M00 Q1032 NOSIG
13-12-17 METAR LIMC 171250Z 23005KT 190V250 CAVOK 10/M01 Q1032 NOSIG
13-12-17 METAR LIMC 171320Z 23005KT CAVOK 10/M01 Q1031 NOSIG
13-12-17 METAR LIMC 171350Z 22005KT CAVOK 10/M02 Q1031 NOSIG
13-12-17 METAR LIMC 171420Z 24003KT CAVOK 10/M01 Q1031 NOSIG
13-12-17 METAR LIMC 171450Z 20003KT CAVOK 09/M00 Q1030 NOSIG
13-12-17 METAR LIMC 171520Z 22005KT CAVOK 07/M01 Q1031 NOSIG
13-12-17 METAR LIMC 171550Z 21002KT CAVOK 05/M02 Q1030 NOSIG
13-12-17 METAR LIMC 171620Z VRB01KT CAVOK 03/M02 Q1030 NOSIG
13-12-17 METAR LIMC 171650Z 00000KT CAVOK 01/M03 Q1030 NOSIG
13-12-17 METAR LIMC 171720Z VRB02KT CAVOK 00/M03 Q1030 NOSIG
13-12-17 METAR LIMC 171750Z 01003KT 330V040 CAVOK 02/M02 Q1030 NOSIG
13-12-17 METAR LIMC 171820Z VRB02KT CAVOK 00/M03 Q1030 NOSIG
13-12-17 METAR LIMC 171850Z 02003KT CAVOK M02/M04 Q1030 NOSIG
13-12-17 METAR LIMC 171920Z 36003KT CAVOK M02/M05 Q1030 NOSIG
13-12-17 METAR LIMC 171950Z VRB02KT CAVOK M03/M05 Q1030 NOSIG
13-12-17 METAR LIMC 172020Z 36004KT CAVOK M03/M05 Q1030 NOSIG
13-12-17 METAR LIMC 172050Z 01003KT CAVOK M03/M05 Q1030 NOSIG
13-12-17 METAR LIMC 172120Z 34003KT 310V010 CAVOK M04/M05 Q1030 NOSIG
13-12-17 METAR LIMC 172150Z 36004KT 330V030 CAVOK M02/M04 Q1030 NOSIG
13-12-17 METAR LIMC 172220Z 36003KT CAVOK M03/M05 Q1030 NOSIG
13-12-17 METAR LIMC 172250Z 01003KT CAVOK M04/M05 Q1030 NOSIG
13-12-17 METAR LIMC 172320Z 01003KT CAVOK M04/M06 Q1029 NOSIG
13-12-17 METAR LIMC 172350Z 02003KT 340V040 CAVOK M04/M06 Q1029 NOSIG
13-12-18 METAR LIMC 180020Z 01003KT CAVOK M04/M05 Q1029 NOSIG
13-12-18 METAR LIMC 180050Z 01002KT CAVOK M04/M06 Q1028 NOSIG
13-12-18 METAR LIMC 180120Z VRB01KT CAVOK M04/M06 Q1028 NOSIG
13-12-18 METAR LIMC 180150Z 04002KT CAVOK M05/M06 Q1028 NOSIG
13-12-18 METAR LIMC 180220Z 35002KT CAVOK M05/M06 Q1028 NOSIG
13-12-18 METAR LIMC 180250Z 05002KT CAVOK M05/M06 Q1028 NOSIG
13-12-18 METAR LIMC 180320Z 35006KT CAVOK M04/M05 Q1028 NOSIG
13-12-18 METAR LIMC 180350Z VRB02KT CAVOK M05/M06 Q1027 NOSIG
13-12-18 METAR LIMC 180420Z 35002KT CAVOK M04/M05 Q1027 NOSIG
13-12-18 METAR LIMC 180450Z VRB01KT CAVOK M05/M07 Q1027 NOSIG
13-12-18 METAR LIMC 180520Z 06001KT CAVOK M04/M06 Q1027 NOSIG
13-12-18 METAR LIMC 180550Z 02003KT 330V070 CAVOK M02/M05 Q1027 NOSIG
13-12-18 METAR LIMC 180620Z VRB01KT CAVOK M02/M04 Q1027 NOSIG
13-12-18 METAR LIMC 180650Z 01003KT 9999 SCT080 M03/M05 Q1028 NOSIG
13-12-18 METAR LIMC 180720Z 35003KT 320V040 9999 SCT080 M01/M03 Q1028 NOSIG
13-12-18 METAR LIMC 180750Z VRB02KT 9999 SCT080 M02/M04 Q1027 NOSIG
13-12-18 METAR LIMC 180820Z VRB02KT 9999 BKN080 00/M02 Q1027 NOSIG
13-12-18 METAR LIMC 180850Z VRB02KT 9999 BKN080 02/M01 Q1027 NOSIG
13-12-18 METAR LIMC 180920Z VRB02KT 9999 BKN080 03/M00 Q1028 NOSIG
13-12-18 METAR LIMC 180950Z VRB02KT 9999 BKN080 05/M02 Q1027 NOSIG
13-12-18 METAR LIMC 181020Z VRB02KT 9999 BKN080 07/M03 Q1027 NOSIG
13-12-18 METAR LIMC 181050Z VRB01KT 9999 BKN080 07/M02 Q1027 NOSIG
13-12-18 METAR LIMC 181120Z VRB01KT 9999 BKN080 07/M01 Q1026 NOSIG
13-12-18 METAR LIMC 181150Z VRB02KT 9999 BKN080 08/M01 Q1026 NOSIG
13-12-18 METAR LIMC 181220Z VRB02KT 9999 BKN080 08/M02 Q1026 NOSIG
13-12-18 METAR LIMC 181250Z VRB01KT 9999 BKN080 08/M02 Q1025 NOSIG
13-12-18 METAR LIMC 181320Z 21002KT 9999 SCT080 08/M01 Q1025 NOSIG
13-12-18 METAR LIMC 181350Z 00000KT 9999 SCT080 08/M01 Q1025 NOSIG
13-12-18 METAR LIMC 181420Z VRB02KT 9999 SCT080 07/M00 Q1025 NOSIG
13-12-18 METAR LIMC 181450Z NIL
13-12-18 METAR LIMC 181450Z VRB01KT 9999 SCT080 07/00 Q1024 NOSIG
13-12-18 METAR LIMC 181520Z VRB03KT 9999 FEW080 07/M00 Q1024 NOSIG
13-12-18 METAR LIMC 181550Z 19001KT 9000 NSC 04/M01 Q1024 NOSIG
13-12-18 METAR LIMC 181620Z 36003KT 290V070 9000 NSC 04/M01 Q1024 NOSIG
13-12-18 METAR LIMC 181650Z VRB02KT 9000 NSC 00/M03 Q1024 NOSIG
13-12-18 METAR LIMC 181720Z VRB02KT 9000 NSC 00/M02 Q1024 NOSIG
13-12-18 METAR LIMC 181750Z 02004KT 330V060 CAVOK 01/M02 Q1024 NOSIG
13-12-18 METAR LIMC 181820Z VRB02KT CAVOK M00/M02 Q1024 NOSIG
13-12-18 METAR LIMC 181850Z 35005KT 310V020 CAVOK M01/M03 Q1025 NOSIG
13-12-18 METAR LIMC 181920Z VRB02KT CAVOK M02/M03 Q1024 NOSIG
13-12-18 METAR LIMC 181950Z VRB02KT CAVOK M02/M04 Q1025 NOSIG
13-12-18 METAR LIMC 182020Z 36004KT 330V030 CAVOK M01/M03 Q1025 NOSIG
13-12-18 METAR LIMC 182050Z VRB02KT CAVOK M01/M03 Q1025 NOSIG
13-12-18 METAR LIMC 182120Z 35005KT CAVOK M01/M03 Q1024 NOSIG
13-12-18 METAR LIMC 182150Z VRB02KT 8000 SCT035 M01/M02 Q1024 NOSIG
13-12-18 METAR LIMC 182220Z 36005KT 350V090 8000 SCT035 M01/M03 Q1024 NOSIG
13-12-18 METAR LIMC 182250Z 35004KT 320V020 8000 SCT035 M02/M03 Q1024 NOSIG
13-12-18 METAR LIMC 182320Z 34004KT 8000 BKN035 M00/M02 Q1024 NOSIG
13-12-18 METAR LIMC 182350Z 36003KT 320V050 8000 BKN035 01/M01 Q1024 NOSIG
13-12-19 METAR LIMC 190020Z VRB01KT 9999 BKN035 02/M00 Q1023 NOSIG
13-12-19 METAR LIMC 190050Z VRB02KT 9999 BKN035 02/M00 Q1024 NOSIG
13-12-19 METAR LIMC 190120Z VRB02KT 9999 BKN035 02/00 Q1024 NOSIG
13-12-19 METAR LIMC 190150Z VRB03KT 9999 BKN035 03/M00 Q1023 NOSIG
13-12-19 METAR LIMC 190220Z 36004KT 340V040 9999 BKN035 02/00 Q1023 NOSIG
13-12-19 METAR LIMC 190250Z VRB01KT 7000 DZ BKN035 02/01 Q1023 NOSIG
13-12-19 METAR LIMC 190320Z VRB02KT 7000 DZ BKN035 02/01 Q1023 NOSIG
13-12-19 METAR LIMC 190350Z 03005KT 330V060 4500 DZ BKN035 03/02 Q1022 NOSIG
13-12-19 METAR LIMC 190420Z 14004KT 070V190 4500 DZ BKN035 03/02 Q1022 NOSIG
13-12-19 METAR LIMC 190450Z 07004KT 050V110 2500 RA BKN035 03/02 Q1022 NOSIG
13-12-19 METAR LIMC 190520Z 34004KT 3000 DZ BKN025 03/02 Q1022 RERA NOSIG
13-12-19 METAR LIMC 190550Z VRB04KT 3000 DZ BKN025 03/02 Q1022 NOSIG
13-12-19 METAR LIMC 190620Z 10003KT 330V140 3000 DZ BKN025 03/02 Q1022 NOSIG
13-12-19 METAR LIMC 190650Z 02002KT 3000 DZ BKN025 03/02 Q1023 NOSIG
13-12-19 METAR LIMC 190920Z VRB01KT 2200 BR BKN025 04/02 Q1023 NOSIG
13-12-19 METAR LIMC 190950Z VRB02KT 2400 BR BKN025 04/02 Q1023 NOSIG
13-12-19 METAR LIMC 191020Z 08004KT 360V100 2400 BR BKN025 04/02 Q1023 NOSIG
13-12-19 METAR LIMC 191050Z 07005KT 350V100 2400 BR BKN025 04/03 Q1022 NOSIG
13-12-19 METAR LIMC 191120Z 07003KT 340V100 1400 R35L/1500N R35R/1500N -RA BR OVC015 03/03 Q1022 NOSIG
13-12-19 METAR LIMC 191150Z 04006KT 320V090 1400 R35L///// R35R///// -RA BR OVC015
13-12-19 METAR LIMC 191220Z VRB02KT 1400 R35L///// R35R///// -RA BR OVC015 03/03 Q1021 NOSIG
13-12-19 METAR LIMC 191250Z VRB03KT 1400 R35L///// R35R///// -RA BR OVC015 03/03
13-12-19 METAR LIMC 191320Z VRB01KT 1600 RA BR SCT006 OVC015 03/03 Q1021 NOSIG
13-12-19 METAR LIMC 191350Z VRB02KT 1600 RA BR SCT006 OVC015 03/03 Q1021 NOSIG
13-12-19 METAR LIMC 191420Z VRB01KT 1800 RA BR SCT006 OVC015 03/02 Q1021 NOSIG
13-12-19 METAR LIMC 191450Z 35002KT 1800 RA BR SCT006 OVC015 03/03 Q1021 NOSIG
13-12-19 METAR LIMC 191520Z 01003KT 350V050 1800 RA BR SCT006 OVC015 03/02 Q1021
13-12-19 METAR LIMC 191550Z 35004KT 1800 RA BR SCT006 OVC015 03/03 Q1021 NOSIG
13-12-19 METAR LIMC 191620Z 36004KT 340V040 1800 RA BR SCT006 OVC015 03/03 Q1021
13-12-19 METAR LIMC 191650Z 01004KT 340V050 2000 RA BR SCT006 OVC015 03/03 Q1021
13-12-19 METAR LIMC 191720Z 01004KT 360V070 2000 RA BR SCT006 OVC015 03/03 Q1021
13-12-19 METAR LIMC 191750Z VRB02KT 2200 RA BR SCT012 OVC025 03/02 Q1021 NOSIG
13-12-19 METAR LIMC 191820Z 00000KT 2500 RA BR SCT012 OVC025 03/02 Q1021 NOSIG
13-12-19 METAR LIMC 191850Z 00000KT 2500 RA BR SCT010 OVC025 03/03 Q1021 NOSIG
13-12-19 METAR LIMC 191920Z VRB02KT 2500 RA BR SCT015 OVC030 03/03 Q1022 NOSIG
13-12-19 METAR LIMC 191950Z 31003KT 3500 RA BR SCT015 OVC035 03/02 Q1022 NOSIG
13-12-19 METAR LIMC 192020Z 35005KT 6000 RA BKN025 OVC060 03/02 Q1022 NOSIG
13-12-19 METAR LIMC 192050Z 33006KT 6000 RA BKN025 OVC060 03/02 Q1022 NOSIG
13-12-19 METAR LIMC 192120Z 32007KT 5000 RA BR BKN025 OVC060 03/02 Q1022 NOSIG
13-12-19 METAR LIMC 192150Z 34005KT 6000 RA BKN025 OVC060 03/02 Q1022 NOSIG
13-12-19 METAR LIMC 192220Z 35007KT 6000 RA BKN025 OVC060 03/02 Q1022 NOSIG
13-12-19 METAR LIMC 192250Z 35006KT 6000 RA BKN025 OVC060 03/02 Q1022 NOSIG
13-12-19 METAR LIMC 192320Z 35006KT 5000 RA BR BKN025 OVC060 02/02 Q1022 NOSIG
13-12-19 METAR LIMC 192350Z 35007KT 5000 RA BR BKN025 OVC060 02/02 Q1022 NOSIG
13-12-20 METAR LIMC 200020Z 35007KT 5000 RA BR BKN025 OVC060 02/02 Q1023 NOSIG
13-12-20 METAR LIMC 200050Z NIL
13-12-20 METAR LIMC 200120Z NIL
13-12-20 METAR LIMC 200150Z NIL
13-12-20 METAR LIMC 200220Z NIL
13-12-20 METAR LIMC 200250Z 34006KT 5000 RASN BR BKN025 OVC060 02/02 Q1023 NOSIG
13-12-20 METAR LIMC 200320Z 34006KT 5000 RASN BR BKN025 OVC060 03/02 Q1024 NOSIG
13-12-20 METAR LIMC 200350Z 34006KT 5000 RASN BR BKN025 OVC060 02/02 Q1024 NOSIG
13-12-20 METAR LIMC 200550Z 33004KT 5000 RA BR BKN025 OVC060 03/02 Q1025 NOSIG
13-12-20 METAR LIMC 200620Z 32007KT 5000 RA BR BKN020 OVC040 03/03 Q1025 NOSIG
13-12-20 METAR LIMC 200650Z 34005KT 4000 RA BR BKN020 OVC040 03/03 Q1026 NOSIG
13-12-20 METAR LIMC 200720Z 34006KT 4000 RA BR BKN025 OVC040 03/03 Q1026 NOSIG
13-12-20 METAR LIMC 200750Z 33005KT 5000 RA BKN025 OVC040 04/03 Q1027 NOSIG
13-12-20 METAR LIMC 200820Z 33006KT 5000 RA BKN025 OVC040 04/03 Q1027 NOSIG
13-12-20 METAR LIMC 200850Z 33006KT 5000 RA BKN025 OVC070 04/04 Q1028 NOSIG
13-12-20 METAR LIMC 200920Z 32005KT 6000 -RA BKN025 OVC070 04/04 Q1028 NOSIG
13-12-20 METAR LIMC 200950Z 33005KT 6000 -RA BKN025 OVC070 04/04 Q1028 NOSIG
13-12-20 METAR LIMC 201020Z 35007KT 7000 -RA BKN020 OVC070 04/04 Q1028 NOSIG
13-12-20 METAR LIMC 201050Z 34005KT 330V030 8000 -RA BKN020 OVC070 05/04 Q1028 NOSIG
13-12-20 METAR LIMC 201120Z 33005KT 8000 -RA BKN020 OVC070 05/04 Q1028 NOSIG
13-12-20 METAR LIMC 201150Z 34004KT 8000 -RA BKN020 OVC070 05/04 Q1028 NOSIG
13-12-20 METAR LIMC 201220Z 33004KT 8000 -RA BKN020 OVC070 05/04 Q1028 NOSIG
13-12-20 METAR LIMC 201250Z 32004KT 8000 DZ BKN035 OVC070 05/04 Q1029 NOSIG
13-12-20 METAR LIMC 201320Z 32004KT 9999 DZ BKN040 BKN070 05/04 Q1029 NOSIG
13-12-20 METAR LIMC 201350Z VRB02KT 9999 DZ BKN040 BKN070 05/04 Q1029 NOSIG
13-12-20 METAR LIMC 201420Z 31003KT 9999 SCT040 BKN070 05/04 Q1029 NOSIG
13-12-20 METAR LIMC 201450Z 30003KT 9999 SCT040 BKN070 05/04 Q1030 NOSIG
13-12-20 METAR LIMC 201520Z VRB02KT 9999 SCT040 BKN070 05/04 Q1030 NOSIG
13-12-20 METAR LIMC 201550Z 27004KT 8000 SCT040 BKN070 05/04 Q1030 NOSIG
13-12-20 METAR LIMC 201620Z 23003KT 9999 3000S BCFG SCT040 BKN070 05/04 Q1030 NOSIG
13-12-20 METAR LIMC 201650Z 24003KT 210V270 8000 SCT040 BKN070 05/04 Q1031 NOSIG
13-12-20 METAR LIMC 201720Z 22003KT 5000 BCFG BKN070 05/04 Q1031 NOSIG
13-12-20 METAR LIMC 201750Z 24004KT 5000 BCFG BKN070 05/04 Q1031 NOSIG
13-12-20 METAR LIMC 201820Z 22002KT 6000 BCFG BKN070 05/04 Q1032 NOSIG
13-12-20 METAR LIMC 201850Z VRB02KT 7000 BKN080 05/04 Q1032 NOSIG
13-12-20 METAR LIMC 201920Z 25004KT 7000 BKN080 05/04 Q1032 NOSIG
13-12-20 METAR LIMC 201950Z VRB01KT 7000 BKN080 05/04 Q1032 NOSIG
13-12-20 METAR LIMC 202020Z VRB02KT 7000 SCT035 BKN080 05/04 Q1033 NOSIG
13-12-20 METAR LIMC 202050Z VRB01KT 7000 SCT035 BKN080 04/04 Q1033 NOSIG
13-12-20 METAR LIMC 202120Z 21002KT 5000 VCFG SCT035 BKN080 04/04 Q1033 NOSIG
13-12-20 METAR LIMC 202150Z 16002KT 4000 1500W VCFG SCT040 BKN080 04/04 Q1033 NOSIG
13-12-20 METAR LIMC 202220Z 13001KT 2500 1000W BCFG SCT040 BKN080 04/04 Q1033 NOSIG
13-12-20 METAR LIMC 202250Z VRB01KT 1500 1000W BCFG BKN040 04/04 Q1034 NOSIG
13-12-20 METAR LIMC 202320Z 00000KT 2500 1000W BCFG BKN040 04/04 Q1034 NOSIG
13-12-20 METAR LIMC 202350Z VRB02KT 4000 BCFG BKN040 04/04 Q1034 NOSIG
13-12-21 METAR LIMC 210020Z VRB02KT 3500 R35L/0650V1500D BCFG BKN040 04/04 Q1034 NOSIG
13-12-21 METAR LIMC 210050Z 00000KT 3500 R35L/0900V1300D BCFG BKN040 04/04 Q1034
13-12-21 METAR LIMC 210120Z NIL
13-12-21 METAR LIMC 210150Z 32003KT 4000 BCFG BKN040 04/04 Q1034 NOSIG
13-12-21 METAR LIMC 210220Z VRB01KT 4000 BR BKN040 03/03 Q1034 NOSIG
13-12-21 METAR LIMC 210250Z VRB02KT 4000 R35L/0600V1500U BCFG BKN040 02/02 Q1034
13-12-21 METAR LIMC 210320Z 20003KT 4000 R35L/0400V1100D BCFG BKN040 02/02 Q1034
13-12-21 METAR LIMC 210350Z 00000KT 0400 R35L/0325N FG SCT050 02/02 Q1034 NOSIG
13-12-21 METAR LIMC 210420Z 00000KT 0200 R35L/0250V0325N R35R/0250V0325N FG NSC 02/01 Q1034 NOSIG
13-12-21 METAR LIMC 210450Z VRB02KT 0200 R35L/0550V0750U R35R/0500V0600N FG FEW050 02/02 Q1035 NOSIG
13-12-21 METAR LIMC 210520Z VRB02KT 2000 BCFG SCT050 02/02 Q1035 NOSIG
13-12-21 METAR LIMC 210550Z 00000KT 2000 BCFG SCT050 02/02 Q1035 NOSIG
13-12-21 METAR LIMC 210620Z VRB02KT 4000 BR BKN070 03/03 Q1035 NOSIG
13-12-21 METAR LIMC 210650Z VRB01KT 4000 BR BKN070 03/03 Q1035 NOSIG
13-12-21 METAR LIMC 210720Z 00000KT 5000 BR BKN070 04/04 Q1035 NOSIG
13-12-21 METAR LIMC 210750Z 00000KT 7000 BKN070 04/04 Q1036 NOSIG
13-12-21 METAR LIMC 210820Z 00000KT 7000 BKN070 05/04 Q1036 NOSIG
13-12-21 METAR LIMC 210850Z VRB02KT 7000 BKN070 05/05 Q1036 NOSIG
13-12-21 METAR LIMC 210920Z VRB01KT 7000 BKN070 05/05 Q1036 NOSIG
13-12-21 METAR LIMC 210950Z 16002KT 7000 BKN070 05/05 Q1037 NOSIG
13-12-21 METAR LIMC 211020Z VRB02KT 9999 3000S BCFG BKN070 05/05 Q1036 NOSIG
13-12-21 METAR LIMC 211050Z 24002KT 9999 3000S BCFG BKN070 05/05 Q1036 NOSIG
13-12-21 METAR LIMC 211120Z 15002KT 9999 4000S BCFG BKN070 05/05 Q1036 NOSIG
13-12-21 METAR LIMC 211150Z VRB01KT 9999 4000S BCFG BKN070 06/05 Q1036 NOSIG
13-12-21 METAR LIMC 211220Z VRB02KT 5000 BR BKN080 06/05 Q1035 NOSIG
13-12-21 METAR LIMC 211250Z VRB02KT 5000 BR BKN080 06/05 Q1035 NOSIG
13-12-21 METAR LIMC 211320Z 06003KT 360V090 4000 BR BKN070 06/05 Q1035 NOSIG
13-12-21 METAR LIMC 211350Z VRB02KT 3000 BR BKN070 06/05 Q1035 NOSIG
13-12-21 METAR LIMC 211550Z 22002KT 1500 -RA BR SCT040 BKN070 06/05 Q1035 NOSIG
13-12-21 METAR LIMC 211620Z 00000KT 1500 -RA BR SCT007 BKN040 06/05 Q1035 NOSIG
13-12-21 METAR LIMC 211650Z VRB02KT 1500 -RA BR SCT007 BKN040 06/05 Q1035 NOSIG
13-12-21 METAR LIMC 211720Z VRB01KT 1800 R35L///// R35R/1400V1500N -RA BCFG SCT007 BKN040 06/05 Q1035 NOSIG
13-12-21 METAR LIMC 211750Z VRB02KT 1800 -RA BCFG SCT007 BKN040 06/05 Q1035 NOSIG
13-12-21 METAR LIMC 211820Z VRB01KT 1800 -RA BCFG SCT007 BKN040 06/06 Q1035 NOSIG
13-12-21 METAR LIMC 211850Z VRB02KT 1800 -RA BCFG SCT007 BKN040 06/06 Q1035 NOSIG
13-12-21 METAR LIMC 211920Z 00000KT 1800 DZ BCFG SCT007 BKN040 06/05 Q1035 NOSIG
13-12-21 METAR LIMC 212050Z VRB01KT 1800 BCFG SCT007 BKN040 06/06 Q1035 NOSIG
13-12-21 METAR LIMC 212120Z 31004KT 1800 BCFG SCT007 BKN040 06/06 Q1035 NOSIG
13-12-21 METAR LIMC 212150Z 35003KT 2000 BCFG SCT007 BKN040 06/06 Q1035 NOSIG
13-12-21 METAR LIMC 212220Z 02002KT 3500 BCFG SCT008 BKN040 06/06 Q1034 NOSIG
13-12-21 METAR LIMC 212250Z 32002KT 2000 BCFG SCT008 BKN040 06/06 Q1034 NOSIG
13-12-21 METAR LIMC 212320Z 36003KT 2000 BCFG SCT008 BKN040 06/06 Q1034 NOSIG
13-12-21 METAR LIMC 212350Z 35002KT 2000 BCFG SCT008 BKN040 06/06 Q1034 NOSIG
13-12-22 METAR LIMC 220020Z 34002KT 1800 BCFG SCT008 BKN040 06/06 Q1033 NOSIG
13-12-22 METAR LIMC 220050Z 34003KT 1800 BCFG SCT008 BKN040 06/06 Q1033 NOSIG
13-12-22 METAR LIMC 220120Z 01002KT 1200 R35L///// BCFG SCT008 BKN040 06/06 Q1033 NOSIG
13-12-22 METAR LIMC 220150Z VRB01KT 1200 R35L///// BCFG SCT008 BKN040 06/06 Q1033
13-12-22 METAR LIMC 220220Z 00000KT 0800 R35L///// FG SCT008 BKN040 06/06 Q1033
13-12-22 METAR LIMC 220250Z 01002KT 0800 R35L/1500N FG SCT008 BKN040 06/06 Q1033
13-12-22 METAR LIMC 220320Z 35002KT 0800 R35L///// FG SCT008 BKN040 06/06 Q1033
13-12-22 METAR LIMC 220350Z 31002KT 0800 R35L///// FG SCT008 BKN040 06/06 Q1032
13-12-22 METAR LIMC 220420Z 34004KT 1200 R35L///// BCFG SCT008 BKN040 06/06 Q1032
13-12-22 METAR LIMC 220450Z 35002KT 2000 BCFG SCT008 BKN040 06/06 Q1032 NOSIG
13-12-22 METAR LIMC 220520Z 35002KT 4000 BR SCT008 BKN050 06/06 Q1032 NOSIG
13-12-22 METAR LIMC 220550Z 36003KT 320V050 5000 BR SCT008 BKN050 06/06 Q1032 NOSIG
13-12-22 METAR LIMC 220620Z VRB02KT 6000 SCT008 BKN050 07/06 Q1032 NOSIG
13-12-22 METAR LIMC 220650Z VRB02KT 5000 BR SCT008 BKN050 06/06 Q1032 NOSIG
13-12-22 METAR LIMC 220720Z 00000KT 3500 BR SCT008 BKN050 06/06 Q1032 NOSIG
13-12-22 METAR LIMC 220750Z VRB01KT 3500 BR BKN010 OVC070 06/06 Q1032 NOSIG
13-12-22 METAR LIMC 220820Z 00000KT 2500 BR BKN010 OVC070 06/06 Q1032 NOSIG
13-12-22 METAR LIMC 220850Z 00000KT 2500 BR BKN008 OVC070 07/06 Q1032 NOSIG
13-12-22 METAR LIMC 220920Z VRB01KT 2500 BR BKN008 OVC070 07/06 Q1032 NOSIG
13-12-22 METAR LIMC 220950Z VRB02KT 2500 BR BKN008 OVC070 07/07 Q1032 NOSIG
13-12-22 METAR LIMC 221350Z VRB01KT 0800 R35L///// R35R///// FG VV/// 08/07 Q1030
13-12-22 METAR LIMC 221750Z 22002KT 1000 0800SE R35L/0900V1500U R35R/0750V1500D BCFG
13-12-22 METAR LIMC 221820Z 22002KT 1100 0900S R35L///// R35R/0700V1500U BCFG -DZ OVC005 07/07 Q1029 NOSIG BKN008 07/07 Q1029 NOSIG
13-12-22 METAR LIMC 222020Z 24004KT 0100 R35L/0400V0800U R35R///// FG VV/// 07/07
13-12-22 METAR LIMC 222050Z 27003KT 240V310 0300 R35L///// R35R///// FG VV/// 07/07
13-12-22 METAR LIMC 222120Z VRB02KT 1500 BCFG OVC004 07/07 Q1029 NOSIG
13-12-22 METAR LIMC 222150Z VRB01KT 0700 R35L///// R35R/1500N FG OVC003 07/06 Q1029
13-12-22 METAR LIMC 222350Z 23002KT 0800 R35L///// FG OVC002 07/06 Q1028 NOSIG
13-12-23 METAR LIMC 230020Z 21002KT 0300 R35L/0650V0750N FG VV/// 07/06 Q1028 NOSIG
13-12-23 METAR LIMC 230050Z 21002KT 0200 R35L/0700V1100D BCFG VV/// 06/06 Q1028 NOSIG
13-12-23 METAR LIMC 230120Z 00000KT 0200 R35L///// FG VV/// 07/06 Q1028 NOSIG
13-12-23 METAR LIMC 230150Z 18002KT 0500 R35L/0700V0900N FG VV/// 07/06 Q1028 NOSIG
13-12-23 METAR LIMC 230220Z 00000KT 0300 R35L///// FG VV/// 07/06 Q1028 NOSIG
13-12-23 METAR LIMC 230250Z 22003KT 0300 R35L///// FG VV/// 06/06 Q1027 NOSIG
13-12-23 METAR LIMC 230320Z 19002KT 0300 R35L/0700V0900U FG VV/// 06/06 Q1027 NOSIG
13-12-23 METAR LIMC 230350Z 20001KT 0100 R35L/0650V0750N FG VV/// 06/06 Q1027 NOSIG
13-12-23 METAR LIMC 230420Z 26002KT 0100 R35L///// FG VV/// 06/06 Q1027 NOSIG
13-12-23 METAR LIMC 230450Z 00000KT 0600 R35L///// FG OVC005 06/06 Q1027 NOSIG
13-12-23 METAR LIMC 230520Z 00000KT 2000 R35L/0650V1000N R35R/0500V0750U BCFG BKN006 06/06 Q1027 NOSIG
13-12-23 METAR LIMC 230550Z 18002KT 0100 R35L/0900V1500D R35R///// FG VV/// 06/06
13-12-23 METAR LIMC 230620Z 22002KT 0150 R35L/0800V1000U R35R/1100V1500N FG VV///
13-12-23 METAR LIMC 230650Z 21003KT 1000 0800SW R35L///// R35R///// BCFG BKN002 OVC005 06/06 Q1027 NOSIG
13-12-23 METAR LIMC 230720Z 00000KT 5000 2000SW VCFG BKN020 OVC060 06/06 Q1027
13-12-23 METAR LIMC 230750Z VRB01KT 6000 2500N R35L///// R35R/1400V1500N BCFG BKN020 OVC040 06/06 Q1027 NOSIG
13-12-23 METAR LIMC 230820Z 32002KT 8000 2500N VCFG BKN020 OVC040 07/07 Q1027 NOSIG
13-12-23 METAR LIMC 230850Z NIL
13-12-23 METAR LIMC 230920Z NIL
13-12-23 METAR LIMC 230950Z NIL
13-12-23 METAR LIMC 231020Z NIL
13-12-23 METAR LIMC 231020Z VRB02KT 5000 2400W VCFG SCT005 SCT080 09/07 Q1027 NOSIG
13-12-23 METAR LIMC 231050Z VRB02KT 6000 SCT005 BKN060 09/07 Q1027 NOSIG
13-12-23 METAR LIMC 231120Z 21003KT 170V250 5000 BR SCT020 BKN060 09/07 Q1026 NOSIG
13-12-23 METAR LIMC 231150Z 29003KT 230V360 6000 FEW010 BKN030 09/07 Q1026 NOSIG
13-12-23 METAR LIMC 231220Z VRB02KT 6000 SCT010 BKN030 09/07 Q1026 NOSIG
13-12-23 METAR LIMC 231250Z 33003KT 300V010 7000 SCT030 BKN050 09/07 Q1026 NOSIG
13-12-23 METAR LIMC 231320Z VRB04KT 6000 SCT030 BKN050 08/07 Q1025 NOSIG
13-12-23 METAR LIMC 231350Z 16004KT 8000 2500SE SCT030 BKN050 08/07 Q1025 NOSIG
13-12-23 METAR LIMC 231420Z VRB01KT 2500 BR SCT030 BKN050 08/07 Q1025 NOSIG
13-12-23 METAR LIMC 231450Z VRB01KT 2500 BR BKN020 08/07 Q1025 NOSIG
13-12-23 METAR LIMC 231520Z VRB01KT 1800 BR BKN020 08/07 Q1025 NOSIG
13-12-23 METAR LIMC 231550Z 18002KT 1800 BR BKN020 07/07 Q1025 NOSIG
13-12-23 METAR LIMC 231620Z VRB02KT 1800 BR SCT003 BKN010 07/07 Q1025 NOSIG
13-12-23 METAR LIMC 231650Z 13003KT 100V170 1800 BR SCT003 BKN015 07/07 Q1025 NOSIG
13-12-23 METAR LIMC 231720Z 18002KT 1800 BR SCT003 BKN015 07/07 Q1025 NOSIG
13-12-23 METAR LIMC 231750Z VRB01KT 1800 BR SCT003 BKN015 07/06 Q1025 NOSIG
13-12-23 METAR LIMC 231820Z 00000KT 3500 BR SCT008 BKN015 07/06 Q1025 NOSIG
13-12-23 METAR LIMC 231850Z VRB01KT 3500 BR BKN015 07/06 Q1025 NOSIG
13-12-23 METAR LIMC 231920Z 00000KT 3500 DZ BR BKN015 07/06 Q1025 NOSIG
13-12-23 METAR LIMC 231950Z VRB02KT 3500 DZ BR BKN015 07/05 Q1025 NOSIG
13-12-23 METAR LIMC 232220Z VRB02KT 1200 R35L///// BR SCT002 BKN005 07/07 Q1024
13-12-23 METAR LIMC 232250Z 12002KT 0400 R35L/0800V1500D FG VV/// 07/07 Q1024 NOSIG
13-12-23 METAR LIMC 232320Z 16004KT 0100 R35L/0400N R35R/0400N FG VV/// 07/07 Q1024
13-12-23 METAR LIMC 232350Z 15004KT 0100 R35L/0350V0450N R35R/0375N FG DZ VV/// 07/06 Q1024 NOSIG
13-12-24 METAR LIMC 240020Z 13003KT 090V160 0100 R35L/0450N R35R/0400N FG DZ VV/// 06/06 Q1023 NOSIG
13-12-24 METAR LIMC 240050Z 16003KT 0400 R35L/0750V1500U R35R/0600N FG VV/// 06/06 Q1023 REDZ NOSIG
13-12-24 METAR LIMC 240120Z 17001KT 0600 R35L///// R35R/0800V1100D BCFG VV/// 06/06
13-12-24 METAR LIMC 240150Z 17002KT 0500 R35L/0800V1100D R35R/0650V0900D FG VV///
13-12-24 METAR LIMC 240220Z VRB02KT 0150 R35L/1000V1200D R35R/1400V1500N FG VV///
13-12-24 METAR LIMC 240250Z 24001KT 0150 R35L/0800V0900N R35R/0800N FG VV/// 06/06
13-12-24 METAR LIMC 240320Z 00000KT 0100 R35L/0650V0800N R35R/0550N FG VV/// 06/06 Q1022 NOSIG
13-12-24 METAR LIMC 240350Z VRB01KT 0100 R35L/0550V0700N R35R/0450V0600N FG VV/// 06/06 Q1022 NOSIG
13-12-24 METAR LIMC 240420Z 00000KT 0100 R35L/0600V0800N R35R/0600V0900U FG DZ VV///
13-12-24 METAR LIMC 240450Z 33001KT 0100 R35L/0700V0800N R35R/0800V1200N FG DZ VV///
13-12-24 METAR LIMC 240520Z 33003KT 0500 R35L/1000V1200N R35R/1000V1500U FG DZ VV///
13-12-24 METAR LIMC 240550Z VRB02KT 1000 0800S R35L///// R35R///// BCFG DZ BKN001 OVC005 06/06 Q1022 NOSIG
13-12-24 METAR LIMC 240620Z 10002KT 1200 R35L///// R35R///// DZ BCFG BKN001 OVC005 07/06 Q1022 NOSIG
13-12-24 METAR LIMC 240650Z VRB02KT 1200 R35L///// R35R///// -RA BR OVC004 07/06 Q1021 NOSIG
13-12-24 METAR LIMC 240750Z 12003KT 070V170 1200 R35L///// R35R///// DZ BR OVC004
13-12-24 METAR LIMC 240850Z 12004KT 080V150 1500 -RA BR OVC004 07/07 Q1021 NOSIG
13-12-24 METAR LIMC 240920Z VRB02KT 1500 -RA BR OVC005 07/07 Q1021 NOSIG
13-12-24 METAR LIMC 240950Z 15003KT 110V180 1800 -RA BR BKN005 BKN020 07/07 Q1021
13-12-24 METAR LIMC 241020Z VRB01KT 1800 -RA BR BKN005 BKN020 07/07 Q1021 NOSIG
13-12-24 METAR LIMC 241050Z VRB02KT 2000 BR SCT005 BKN020 07/07 Q1020 NOSIG
13-12-24 METAR LIMC 241120Z 10003KT 060V180 2500 0600W BCFG SCT005 BKN020 07/06 Q1020 NOSIG
13-12-24 METAR LIMC 241150Z 10003KT 070V170 2500 0600W BCFG SCT005 BKN020 07/06 Q1019 NOSIG
13-12-24 METAR LIMC 241220Z VRB04KT 2000 0600W BCFG SCT005 BKN020 07/06 Q1019 NOSIG
13-12-24 METAR LIMC 241250Z 14004KT 090V180 2000 BR SCT005 BKN020 07/06 Q1019 NOSIG
13-12-24 METAR LIMC 241320Z VRB02KT 2000 DZ BR SCT005 BKN020 07/06 Q1018 NOSIG
13-12-24 METAR LIMC 241350Z VRB02KT 1700 RA BR BKN005 BKN020 07/06 Q1018 REDZ NOSIG
13-12-24 METAR LIMC 241420Z 00000KT 2500 RA BR BKN006 BKN025 07/06 Q1018 NOSIG
13-12-24 METAR LIMC 241450Z 14004KT 070V150 2200 0800SW RA BR BKN005 BKN020 06/06 Q1017 NOSIG
13-12-24 METAR LIMC 241520Z VRB02KT 2500 0700W RA BR BKN005 BKN020 06/06 Q1017
13-12-24 METAR LIMC 241550Z VRB03KT 2500 DZ BR BKN005 OVC020 06/06 Q1017 RERA NOSIG
13-12-24 METAR LIMC 241620Z VRB02KT 5000 -RA BR BKN005 OVC020 06/06 Q1017 REDZ
13-12-24 METAR LIMC 241650Z VRB02KT 5000 BR BKN005 OVC020 06/06 Q1017 NOSIG
13-12-24 METAR LIMC 241720Z 12004KT 070V140 5000 BR BKN004 OVC020 07/06 Q1016 NOSIG
13-12-24 METAR LIMC 241750Z 10003KT 060V160 5000 BR BKN004 OVC020 07/06 Q1016 NOSIG
13-12-24 METAR LIMC 241820Z 13003KT 070V160 3000 RA BR BKN004 OVC020 06/06 Q1016
13-12-24 METAR LIMC 241850Z 11003KT 080V140 3000 RA BR BKN004 OVC020 06/06 Q1015
13-12-24 METAR LIMC 241920Z 12005KT 090V150 2500 RA BR BKN003 OVC020 06/06 Q1015
13-12-24 METAR LIMC 241950Z 12005KT 100V160 2500 RA BR BKN003 OVC020 06/06 Q1015
13-12-24 METAR LIMC 242020Z 12003KT 090V150 2500 RA BR BKN003 OVC020 06/06 Q1015
13-12-24 METAR LIMC 242050Z VRB02KT 2500 RA BR BKN003 OVC020 06/06 Q1015 NOSIG
13-12-24 METAR LIMC 242120Z 00000KT 2500 RA BR BKN003 OVC020 06/06 Q1014 NOSIG
13-12-24 METAR LIMC 242150Z VRB02KT 2500 RA BR BKN003 OVC020 06/06 Q1014 NOSIG
13-12-24 METAR LIMC 242220Z 11003KT 090V150 2500 RA BR BKN003 OVC020 06/06 Q1014
13-12-24 METAR LIMC 242250Z 12004KT 090V170 2500 RA BR BKN003 OVC020 06/06 Q1013
13-12-25 METAR LIMC 250020Z 12007KT 0900 R35L///// -RA FG OVC001 06/06 Q1012 NOSIG
13-12-25 METAR LIMC 250050Z 11005KT 060V140 2000 BR OVC001 06/06 Q1011 NOSIG
13-12-25 METAR LIMC 250120Z 10006KT 060V140 0800 R35L///// -RA FG OVC001 06/06 Q1011 RERA NOSIG
13-12-25 METAR LIMC 250150Z 11009KT 080V140 2000 -RA BR OVC001 07/06 Q1010 NOSIG
13-12-25 METAR LIMC 250220Z 10009KT 060V120 3500 -RA BR OVC001 07/06 Q1010 NOSIG
13-12-25 METAR LIMC 250250Z 11005KT 060V160 2000 RA BR OVC001 07/06 Q1009 NOSIG
13-12-25 METAR LIMC 250320Z 11007KT 080V160 2000 RA BR OVC001 07/06 Q1009 NOSIG
13-12-25 METAR LIMC 250350Z 10008KT 050V140 2000 RA BR OVC001 07/06 Q1008 NOSIG
13-12-25 METAR LIMC 250420Z 11009KT 090V150 2000 RA BR OVC001 07/06 Q1008 NOSIG
13-12-25 METAR LIMC 250450Z 11009KT 070V150 2000 RA BR BKN008 07/06 Q1007 NOSIG
13-12-25 METAR LIMC 250520Z 11008KT 080V140 2000 RA BR BKN008 07/06 Q1007 NOSIG
13-12-25 METAR LIMC 250550Z 11007G18KT 070V150 2000 RA BR BKN008 07/07 Q1007 NOSIG
13-12-25 METAR LIMC 250620Z 10009KT 060V130 3000 RA BR BKN006 OVC020 07/07 Q1006
13-12-25 METAR LIMC 250650Z 10011KT 070V140 3000 RA BR BKN006 OVC020 07/07 Q1006
13-12-25 METAR LIMC 250720Z 10013G23KT 2000 +RA BR BKN006 OVC020 07/07 Q1005 NOSIG
13-12-25 METAR LIMC 250750Z 11011KT 080V140 2500 RA BR BKN006 OVC020 08/07 Q1005
13-12-25 METAR LIMC 250820Z 11013G23KT 090V150 2500 RA BR BKN006 OVC020 08/07 Q1004
13-12-25 METAR LIMC 250850Z 11012KT 080V140 2500 RA BR BKN006 OVC020 08/07 Q1004
13-12-25 METAR LIMC 250920Z 11010KT 2500 RA BR BKN006 OVC020 08/07 Q1004 NOSIG
13-12-25 METAR LIMC 250950Z 12010KT 2100 RA BR BKN006 OVC020 08/07 Q1003 NOSIG
13-12-25 METAR LIMC 251020Z 11009KT 080V140 2100 RA BR BKN006 OVC020 08/07 Q1003
13-12-25 METAR LIMC 251050Z 11011KT 080V140 2100 RA BR BKN006 OVC020 08/07 Q1002
13-12-25 METAR LIMC 251120Z 11010KT 080V140 2100 RA BR BKN006 OVC020 08/07 Q1001
13-12-25 METAR LIMC 251150Z 12007KT 080V160 1700 RA BR BKN006 OVC020 08/08 Q1002
13-12-25 METAR LIMC 251220Z 12008KT 090V150 1700 RA BR BKN006 OVC020 08/08 Q1001
13-12-25 METAR LIMC 251250Z 12005KT 030V180 1700 RA BR BKN006 OVC020 08/08 Q1001
13-12-25 METAR LIMC 251320Z 13005KT 100V170 1700 RA BR BKN006 OVC020 08/08 Q1000
13-12-25 METAR LIMC 251350Z 12006KT 090V150 1800 RA BR BKN006 OVC020 08/08 Q1000
13-12-25 METAR LIMC 251420Z 10004KT 070V150 2000 -RA BR SCT003 BKN007 OVC020 09/08 Q1000 RERA NOSIG
13-12-25 METAR LIMC 251450Z 12004KT 080V150 1600 RA BR SCT004 BKN010 OVC020 09/08 Q1000 NOSIG
13-12-25 METAR LIMC 251520Z 09007KT 060V120 2800 -RA BR BKN008 OVC020 09/08 Q0999
13-12-25 METAR LIMC 251620Z NIL
13-12-25 METAR LIMC 251620Z 12009KT 090V160 4000 -RA BR BKN008 OVC025 09/08 Q0998
13-12-25 METAR LIMC 251650Z 13009KT 080V160 4000 RA BR BKN008 OVC025 09/08 Q0997
13-12-25 METAR LIMC 251720Z 13011KT 100V160 4000 RA BR BKN008 OVC025 09/08 Q0997
13-12-25 METAR LIMC 251750Z 14009KT 100V190 4000 RA BR BKN008 OVC025 09/08 Q0997
13-12-25 METAR LIMC 251820Z 12010KT 080V160 4000 RA BR BKN008 OVC025 09/08 Q0997
13-12-25 METAR LIMC 251850Z 11007KT 050V150 4000 RA BR BKN012 OVC025 09/08 Q0996
13-12-25 METAR LIMC 251920Z 09006KT 060V120 4000 RA BR BKN012 OVC025 09/08 Q0996
13-12-25 METAR LIMC 251950Z 15006KT 120V200 2500 RA BR BKN010 OVC025 09/08 Q0996
13-12-25 METAR LIMC 252020Z 10010KT 060V150 3500 RA BR BKN010 OVC025 09/09 Q0995
13-12-25 METAR LIMC 252050Z 10010KT 060V140 4000 RA BR BKN010 OVC025 09/09 Q0995
13-12-25 METAR LIMC 252120Z 11011KT 060V170 4000 +RA BKN010 OVC025 09/08 Q0994
13-12-25 METAR LIMC 252150Z 10012KT 070V130 4000 +RA BKN010 OVC025 09/08 Q0994
13-12-25 METAR LIMC 252220Z 10013KT 070V130 6000 RA BKN010 OVC025 09/08 Q0994 NOSIG
13-12-25 METAR LIMC 252250Z 11011KT 9999 RA BKN006 OVC025 09/08 Q0994 NOSIG
13-12-25 METAR LIMC 252320Z 11011KT 9999 RA BKN006 OVC025 09/08 Q0993 NOSIG
13-12-25 METAR LIMC 252350Z 10011KT 080V140 9999 -RA SCT004 OVC025 09/08 Q0993 RERA
13-12-26 METAR LIMC 260020Z 10011KT 070V130 9999 -RA SCT004 OVC025 10/08 Q0992 NOSIG
13-12-26 METAR LIMC 260050Z 09012KT 060V130 9999 SCT004 OVC025 09/08 Q0991 NOSIG
13-12-26 METAR LIMC 260120Z 09010KT 060V120 9999 BKN004 OVC025 09/08 Q0991 NOSIG
13-12-26 METAR LIMC 260150Z 09010KT 050V120 9999 BKN004 OVC025 09/08 Q0991 NOSIG
13-12-26 METAR LIMC 260220Z 09009KT 060V130 4000 RA BR BKN004 OVC025 09/08 Q0990
13-12-26 METAR LIMC 260250Z 08011KT 040V120 4000 RA BR BKN004 OVC025 09/08 Q0990
13-12-26 METAR LIMC 260320Z 07009KT 040V100 4000 RA BR BKN004 OVC025 09/08 Q0989
13-12-26 METAR LIMC 260350Z 08007KT 030V120 4000 RA BR BKN004 OVC025 09/08 Q0989
13-12-26 METAR LIMC 260420Z 31006KT 240V030 4000 RA BR BKN004 OVC025 07/06 Q0989
13-12-26 METAR LIMC 260450Z 34009KT 4000 RA BR BKN004 OVC025 06/05 Q0989 NOSIG
13-12-26 METAR LIMC 260520Z 33013KT 6000 RA BKN008 OVC030 06/05 Q0988 NOSIG
13-12-26 METAR LIMC 260550Z 34010KT 6000 RA BKN008 OVC030 06/05 Q0988 WS RWY 35R
13-12-26 METAR LIMC 260620Z 34011KT 6000 RA BKN008 OVC030 05/05 Q0988 WS RWY 35R
13-12-26 METAR LIMC 260650Z 34014KT 6000 RA BKN009 OVC030 06/05 Q0988 NOSIG
13-12-26 METAR LIMC 260720Z 35012KT 4000 RA BKN008 OVC030 06/05 Q0987 NOSIG
13-12-26 METAR LIMC 260750Z 34013KT 4000 RA BKN009 OVC030 06/05 Q0987 NOSIG
13-12-26 METAR LIMC 260820Z 35015KT 3500 RA BR BKN008 OVC030 06/05 Q0987 NOSIG
13-12-26 METAR LIMC 260850Z 35014KT 4000 RA BR BKN008 OVC030 06/05 Q0987 NOSIG
13-12-26 METAR LIMC 260920Z 35014KT 4500 RA BR BKN012 OVC030 06/05 Q0988 NOSIG
13-12-26 METAR LIMC 260950Z 36013KT 4500 RA BR BKN012 OVC030 06/05 Q0988 NOSIG
13-12-26 METAR LIMC 261020Z 35017KT 3000 R35L/1400V1500N R35R/1500N RA BR BKN010 OVC030 06/05 Q0987 NOSIG
13-12-26 METAR LIMC 261050Z 35020KT 3000 R35L/1100V1500D R35R/1200V1500N RA BR BKN009 OVC030 06/05 Q0987 NOSIG
13-12-26 METAR LIMC 261120Z 34018KT 3500 R35L///// R35R/1100V1500U RA BR BKN009 OVC030 06/05 Q0988 NOSIG
13-12-26 METAR LIMC 261150Z 34020KT 3500 RA BR BKN009 OVC030 06/05 Q0988 NOSIG
13-12-26 METAR LIMC 261220Z 34020KT 3000 R35L///// R35R/0800V1100N RA BR BKN008
13-12-26 METAR LIMC 261250Z 34019KT 3000 RA BR BKN008 OVC030 06/05 Q0989 NOSIG
13-12-26 METAR LIMC 261320Z 34019KT 3000 R35L/1000V1200D R35R/0800V0900D RA BR BKN008 OVC030 06/05 Q0989 NOSIG
13-12-26 METAR LIMC 261350Z 34021KT 3000 R35L/1100V1500U R35R/0800V1200U RA BR BKN010 OVC050 06/04 Q0990 NOSIG
13-12-26 METAR LIMC 261420Z NIL
13-12-26 METAR LIMC 261450Z 35021KT 3000 R35L/0900V1000N R35R/0900V1200U RA BR BKN010 OVC050 06/04 Q0992 NOSIG
13-12-26 METAR LIMC 261520Z 35019KT 3000 R35L/1300V1500N R35R/1300V1500N RA BR
13-12-26 METAR LIMC 261550Z 35018KT 3000 R35L/1100V1500U R35R///// RA BR BKN010 OVC050 06/04 Q0993 NOSIG
13-12-26 METAR LIMC 261620Z 35018G30KT 3000 RA BR BKN010 OVC050 06/04 Q0993 NOSIG
13-12-26 METAR LIMC 261650Z 35014KT 5000 RA BR BKN010 OVC050 07/04 Q0994 NOSIG
13-12-26 METAR LIMC 261720Z 02013KT 350V050 9999 RA SCT030 BKN080 08/03 Q0995 NOSIG
13-12-26 METAR LIMC 261750Z 02008KT 340V050 9999 RA SCT030 BKN080 07/04 Q0995 NOSIG
13-12-26 METAR LIMC 261820Z 07006KT 360V150 9999 -RA SCT030 BKN080 07/04 Q0996 RERA
13-12-26 METAR LIMC 261850Z 35005KT 310V060 9999 -RA SCT030 BKN080 07/04 Q0996
13-12-26 METAR LIMC 261920Z 34005KT 9999 SCT030 BKN080 06/04 Q0997 NOSIG
13-12-26 METAR LIMC 261950Z 34004KT 9999 SCT030 BKN080 07/04 Q0997 NOSIG
13-12-26 METAR LIMC 262020Z 31005KT 9999 FEW025 BKN080 05/03 Q0997 NOSIG
13-12-26 METAR LIMC 262050Z 33006KT 9999 BKN080 05/02 Q0998 NOSIG
13-12-26 METAR LIMC 262120Z 30004KT 9999 BKN080 05/03 Q0999 NOSIG
13-12-26 METAR LIMC 262150Z 31002KT 9999 BKN080 05/03 Q0999 NOSIG
13-12-26 METAR LIMC 262220Z 34005KT 9999 BKN080 06/02 Q0999 NOSIG
13-12-26 METAR LIMC 262250Z 36007KT 9999 BKN080 07/01 Q1000 NOSIG
13-12-26 METAR LIMC 262320Z 02004KT 350V050 9999 BKN080 04/01 Q1000 NOSIG
13-12-26 METAR LIMC 262350Z 36004KT 9999 BKN080 02/00 Q1001 NOSIG
13-12-27 METAR LIMC 270020Z 35004KT 9999 SCT080 02/00 Q1001 NOSIG
13-12-27 METAR LIMC 270050Z 33004KT 9999 SCT080 02/00 Q1002 NOSIG
13-12-27 METAR LIMC 270120Z 36006KT 9999 SCT080 04/M00 Q1002 NOSIG
13-12-27 METAR LIMC 270150Z 35007KT 9999 SCT080 06/M01 Q1002 NOSIG
13-12-27 METAR LIMC 270220Z 36008KT 9999 SCT080 06/M01 Q1003 NOSIG
13-12-27 METAR LIMC 270250Z 01005KT 9999 FEW080 06/M02 Q1003 NOSIG
13-12-27 METAR LIMC 270320Z 36005KT CAVOK 04/M01 Q1003 NOSIG
13-12-27 METAR LIMC 270350Z 34005KT CAVOK 01/M02 Q1004 NOSIG
13-12-27 METAR LIMC 270420Z VRB02KT CAVOK 01/M02 Q1005 NOSIG
13-12-27 METAR LIMC 270450Z VRB02KT CAVOK M01/M02 Q1005 NOSIG
13-12-27 METAR LIMC 270520Z VRB02KT CAVOK M01/M02 Q1006 NOSIG
13-12-27 METAR LIMC 270550Z 35004KT 310V060 CAVOK M00/M02 Q1006 NOSIG
13-12-27 METAR LIMC 270620Z VRB02KT CAVOK M00/M02 Q1006 NOSIG
13-12-27 METAR LIMC 270650Z VRB02KT CAVOK 00/M02 Q1007 NOSIG
13-12-27 METAR LIMC 270720Z VRB01KT CAVOK M01/M03 Q1007 NOSIG
13-12-27 METAR LIMC 270750Z VRB02KT CAVOK 02/M01 Q1008 NOSIG
13-12-27 METAR LIMC 270820Z 00000KT CAVOK 03/00 Q1008 NOSIG
13-12-27 METAR LIMC 270850Z 00000KT CAVOK 06/02 Q1009 NOSIG
13-12-27 METAR LIMC 270920Z 34002KT CAVOK 07/02 Q1009 NOSIG
13-12-27 METAR LIMC 270950Z 34003KT 300V010 CAVOK 09/02 Q1009 NOSIG
13-12-27 METAR LIMC 271020Z 33004KT 300V360 CAVOK 11/02 Q1010 NOSIG
13-12-27 METAR LIMC 271050Z VRB02KT CAVOK 12/02 Q1010 NOSIG
13-12-27 METAR LIMC 271120Z 15004KT 110V180 CAVOK 11/04 Q1010 NOSIG
13-12-27 METAR LIMC 271150Z 15004KT 090V170 CAVOK 11/05 Q1010 NOSIG
13-12-27 METAR LIMC 271220Z 12003KT 080V160 CAVOK 12/04 Q1011 NOSIG
13-12-27 METAR LIMC 271250Z 16001KT CAVOK 13/03 Q1011 NOSIG
13-12-27 METAR LIMC 271320Z VRB02KT CAVOK 13/03 Q1011 NOSIG
13-12-27 METAR LIMC 271350Z VRB01KT CAVOK 13/02 Q1011 NOSIG
13-12-27 METAR LIMC 271420Z VRB02KT CAVOK 13/03 Q1011 NOSIG
13-12-27 METAR LIMC 271450Z 30004KT CAVOK 12/02 Q1012 NOSIG
13-12-27 METAR LIMC 271520Z 31005KT CAVOK 10/02 Q1012 NOSIG
13-12-27 METAR LIMC 271550Z 32005KT CAVOK 07/01 Q1012 NOSIG
13-12-27 METAR LIMC 271620Z 34005KT CAVOK 07/01 Q1012 NOSIG
13-12-27 METAR LIMC 271650Z 35005KT CAVOK 06/01 Q1012 NOSIG
13-12-27 METAR LIMC 271720Z 35006KT CAVOK 06/01 Q1013 NOSIG
13-12-27 METAR LIMC 271750Z 35007KT CAVOK 04/00 Q1013 NOSIG
13-12-27 METAR LIMC 271820Z 34006KT CAVOK 03/M00 Q1014 NOSIG
13-12-27 METAR LIMC 271850Z 36006KT CAVOK 04/00 Q1014 NOSIG
13-12-27 METAR LIMC 271920Z 35007KT CAVOK 02/M01 Q1014 NOSIG
13-12-27 METAR LIMC 271950Z 36004KT 330V060 CAVOK 02/M01 Q1014 NOSIG
13-12-27 METAR LIMC 272020Z 01003KT 330V040 CAVOK 02/M01 Q1014 NOSIG
13-12-27 METAR LIMC 272050Z 35008KT CAVOK 03/00 Q1015 NOSIG
13-12-27 METAR LIMC 272120Z 02005KT 340V090 CAVOK 05/00 Q1014 NOSIG
13-12-27 METAR LIMC 272150Z 35006KT CAVOK 01/M01 Q1015 NOSIG
13-12-27 METAR LIMC 272220Z 02005KT 350V050 CAVOK 05/00 Q1015 NOSIG
13-12-27 METAR LIMC 272250Z 36005KT CAVOK 01/M01 Q1015 NOSIG
13-12-27 METAR LIMC 272320Z 36004KT CAVOK 01/M01 Q1015 NOSIG
13-12-27 METAR LIMC 272350Z NIL
13-12-27 METAR LIMC 272350Z 35004KT CAVOK 01/M01 Q1015 NOSIG
13-12-28 METAR LIMC 280020Z 03003KT 9999 BKN080 01/M01 Q1015 NOSIG
13-12-28 METAR LIMC 280050Z 35005KT 9999 BKN080 02/00 Q1015 NOSIG
13-12-28 METAR LIMC 280120Z 34005KT 9999 BKN080 02/00 Q1015 NOSIG
13-12-28 METAR LIMC 280150Z 36004KT 9999 BKN080 03/01 Q1015 NOSIG
13-12-28 METAR LIMC 280220Z 35005KT 9999 BKN080 02/00 Q1015 NOSIG
13-12-28 METAR LIMC 280250Z 36004KT 330V030 9999 BKN080 03/01 Q1015 NOSIG
13-12-28 METAR LIMC 280320Z 01003KT 9999 BKN080 03/01 Q1015 NOSIG
13-12-28 METAR LIMC 280350Z 02002KT 9999 BKN080 02/01 Q1015 NOSIG
13-12-28 METAR LIMC 280420Z 35004KT 9999 BKN080 03/01 Q1014 NOSIG
13-12-28 METAR LIMC 280450Z 36005KT 9999 BKN080 03/01 Q1014 NOSIG
13-12-28 METAR LIMC 280520Z 35005KT 9999 BKN080 03/01 Q1014 NOSIG
13-12-28 METAR LIMC 280550Z VRB02KT 9999 BKN080 04/01 Q1015 NOSIG
13-12-28 METAR LIMC 280620Z 35005KT 330V040 9999 BKN080 05/01 Q1015 NOSIG
13-12-28 METAR LIMC 280650Z VRB04KT 9999 SCT050 BKN080 05/02 Q1015 NOSIG
13-12-28 METAR LIMC 280720Z VRB02KT 9999 SCT050 BKN080 05/02 Q1015 NOSIG
13-12-28 METAR LIMC 280750Z 04003KT 360V070 9999 SCT050 BKN080 06/01 Q1015 NOSIG
13-12-28 METAR LIMC 280820Z VRB01KT 9999 SCT050 BKN080 06/02 Q1016 NOSIG
13-12-28 METAR LIMC 280850Z VRB01KT 9999 SCT050 BKN080 06/02 Q1016 NOSIG
13-12-28 METAR LIMC 280920Z VRB02KT 9999 SCT050 BKN080 06/02 Q1016 NOSIG
13-12-28 METAR LIMC 280950Z 01003KT 330V080 6000 -RA BKN040 BKN070 07/03 Q1016 NOSIG
13-12-28 METAR LIMC 281020Z 02004KT 8000 BKN040 BKN070 07/03 Q1016 NOSIG
13-12-28 METAR LIMC 281050Z 36004KT 330V050 8000 BKN040 BKN070 07/03 Q1016 NOSIG
13-12-28 METAR LIMC 281120Z 02003KT 300V090 6000 -RA BKN040 BKN070 07/04 Q1015
13-12-28 METAR LIMC 281150Z 01005KT 340V060 6000 -RA BKN040 BKN070 07/04 Q1015
13-12-28 METAR LIMC 281220Z 01005KT 330V060 6000 -RA BKN040 BKN070 07/04 Q1015
13-12-28 METAR LIMC 281250Z 36005KT 340V040 6000 -RA BKN040 BKN070 07/04 Q1015
13-12-28 METAR LIMC 281320Z 34005KT 7000 -RA BKN030 OVC060 07/05 Q1014 NOSIG
13-12-28 METAR LIMC 281350Z 34006KT 7000 -RA BKN035 OVC060 06/05 Q1015 NOSIG
13-12-28 METAR LIMC 281420Z 06003KT 010V130 7000 -RA BKN035 OVC060 06/05 Q1014
13-12-28 METAR LIMC 281450Z VRB04KT 7000 -RA BKN035 OVC060 06/05 Q1014 NOSIG
13-12-28 METAR LIMC 281520Z 35006KT 4000 -RA BR BKN020 OVC040 06/05 Q1014 NOSIG
13-12-28 METAR LIMC 281550Z 36006KT 3000 -RA BR BKN020 OVC040 06/05 Q1014 NOSIG
13-12-28 METAR LIMC 281620Z 35006KT 3000 -RA BR BKN020 OVC040 06/05 Q1014 NOSIG
13-12-28 METAR LIMC 281650Z 01006KT 330V080 3000 -RA BR BKN020 OVC040 06/05 Q1013
13-12-28 METAR LIMC 281720Z 34004KT 3000 -RA BR BKN020 OVC040 06/05 Q1013 NOSIG
13-12-28 METAR LIMC 281750Z VRB01KT 2500 -RA BR SCT005 BKN010 OVC020 06/05 Q1013
13-12-28 METAR LIMC 281820Z 35005KT 3000 -RA BR SCT005 BKN010 OVC020 06/05 Q1013
13-12-28 METAR LIMC 281850Z 34006KT 320V020 3000 BR SCT005 BKN010 OVC020 06/05 Q1013
13-12-28 METAR LIMC 281920Z 36005KT 2500 +RA BR SCT005 BKN010 OVC020 06/05 Q1013
13-12-28 METAR LIMC 281950Z 34005KT 2500 RA BR SCT005 BKN010 OVC020 06/05 Q1013
13-12-28 METAR LIMC 282020Z 32007KT 2500 RA BR SCT005 BKN010 OVC020 06/06 Q1013
13-12-28 METAR LIMC 282050Z 34009KT 2500 RA BR SCT005 BKN010 OVC020 06/05 Q1013
13-12-28 METAR LIMC 282120Z NIL
13-12-28 METAR LIMC 282150Z NIL
13-12-28 METAR LIMC 282220Z NIL
13-12-28 METAR LIMC 282250Z 36009KT 2500 RA SCT005 OVC020 05/04 Q1013 NOSIG
13-12-28 METAR LIMC 282320Z NIL
13-12-28 METAR LIMC 282350Z NIL
13-12-29 METAR LIMC 290020Z NIL
13-12-29 METAR LIMC 290050Z NIL
13-12-29 METAR LIMC 290120Z NIL
13-12-29 METAR LIMC 290150Z NIL
13-12-29 METAR LIMC 290220Z NIL
13-12-29 METAR LIMC 290250Z NIL
13-12-29 METAR LIMC 290320Z NIL
13-12-29 METAR LIMC 290350Z NIL
13-12-29 METAR LIMC 290420Z NIL
13-12-29 METAR LIMC 290420Z 33003KT 8000 SCT005 OVC040 05/04 Q1014 NOSIG
13-12-29 METAR LIMC 290450Z 29004KT 8000 BKN040 05/04 Q1014 NOSIG
13-12-29 METAR LIMC 290520Z 29004KT 8000 BKN040 05/04 Q1015 NOSIG
13-12-29 METAR LIMC 290550Z 31005KT 9999 BKN040 05/04 Q1015 NOSIG
13-12-29 METAR LIMC 290620Z 28005KT 9999 BKN040 05/04 Q1015 NOSIG
13-12-29 METAR LIMC 290650Z 30004KT 9999 BKN040 05/04 Q1016 NOSIG
13-12-29 METAR LIMC 290720Z 31004KT 290V350 9999 BKN040 05/04 Q1016 NOSIG
13-12-29 METAR LIMC 290750Z 35005KT 9999 SCT070 04/03 Q1016 NOSIG
13-12-29 METAR LIMC 290820Z 34004KT 9999 MIFG FEW060 03/03 Q1017 NOSIG
13-12-29 METAR LIMC 290850Z 35003KT 330V030 CAVOK 05/04 Q1017 NOSIG
13-12-29 METAR LIMC 290920Z 33003KT 9999 SCT020 05/04 Q1017 NOSIG
13-12-29 METAR LIMC 290950Z 30005KT CAVOK 06/05 Q1018 NOSIG
13-12-29 METAR LIMC 291020Z 30007KT CAVOK 07/04 Q1018 NOSIG
13-12-29 METAR LIMC 291050Z 31004KT 270V350 CAVOK 08/04 Q1017 NOSIG
13-12-29 METAR LIMC 291120Z 30003KT 250V340 CAVOK 09/04 Q1017 NOSIG
13-12-29 METAR LIMC 291220Z 30003KT 250V340 CAVOK 10/04 Q1017 NOSIG
13-12-29 METAR LIMC 291250Z 28003KT 230V010 CAVOK 10/04 Q1017 NOSIG
13-12-29 METAR LIMC 291320Z 25003KT 210V280 CAVOK 10/04 Q1017 NOSIG
13-12-29 METAR LIMC 291350Z 24003KT 190V280 CAVOK 10/05 Q1017 NOSIG
13-12-29 METAR LIMC 291420Z 22005KT CAVOK 10/05 Q1018 NOSIG
13-12-29 METAR LIMC 291450Z 24006KT CAVOK 09/05 Q1018 NOSIG
13-12-29 METAR LIMC 291520Z 23006KT CAVOK 08/05 Q1019 NOSIG
13-12-29 METAR LIMC 291550Z 23005KT CAVOK 07/04 Q1019 NOSIG
13-12-29 METAR LIMC 291620Z 21003KT CAVOK 06/04 Q1019 NOSIG
13-12-29 METAR LIMC 291650Z VRB02KT CAVOK 06/05 Q1020 NOSIG
13-12-29 METAR LIMC 291720Z 23003KT 190V270 CAVOK 04/03 Q1020 NOSIG
13-12-29 METAR LIMC 291750Z VRB01KT CAVOK 03/02 Q1020 NOSIG
13-12-29 METAR LIMC 291820Z 35003KT 320V020 CAVOK 04/03 Q1021 NOSIG
13-12-29 METAR LIMC 291850Z 34003KT CAVOK 02/01 Q1021 NOSIG
13-12-29 METAR LIMC 291920Z 35003KT 300V050 CAVOK 02/02 Q1021 NOSIG
13-12-29 METAR LIMC 291950Z VRB02KT CAVOK 01/00 Q1022 NOSIG
13-12-29 METAR LIMC 292020Z VRB02KT CAVOK 00/00 Q1022 NOSIG
13-12-29 METAR LIMC 292050Z VRB02KT CAVOK 01/01 Q1022 NOSIG
13-12-29 METAR LIMC 292120Z VRB02KT CAVOK 00/00 Q1022 NOSIG
13-12-29 METAR LIMC 292150Z 33003KT 300V050 CAVOK M02/M02 Q1022 NOSIG
13-12-29 METAR LIMC 292220Z 36006KT CAVOK 02/M01 Q1022 NOSIG
13-12-29 METAR LIMC 292250Z VRB02KT CAVOK M02/M03 Q1022 NOSIG
13-12-29 METAR LIMC 292320Z 34004KT CAVOK M01/M02 Q1023 NOSIG
13-12-29 METAR LIMC 292350Z 34006KT CAVOK 00/M02 Q1023 NOSIG
13-12-30 METAR LIMC 300020Z 34007KT CAVOK 00/M03 Q1023 NOSIG
13-12-30 METAR LIMC 300050Z 34005KT CAVOK M00/M03 Q1023 NOSIG
13-12-30 METAR LIMC 300120Z 33004KT 310V030 CAVOK M02/M03 Q1023 NOSIG
13-12-30 METAR LIMC 300150Z 36004KT CAVOK 00/M02 Q1023 NOSIG
13-12-30 METAR LIMC 300220Z VRB01KT CAVOK M02/M03 Q1024 NOSIG
13-12-30 METAR LIMC 300250Z 35002KT CAVOK M01/M02 Q1024 NOSIG
13-12-30 METAR LIMC 300320Z 34007KT CAVOK M02/M04 Q1024 NOSIG
13-12-30 METAR LIMC 300350Z 36007KT CAVOK M01/M03 Q1024 NOSIG
13-12-30 METAR LIMC 300420Z 11004KT 360V160 CAVOK 01/M03 Q1025 NOSIG
13-12-30 METAR LIMC 300450Z 00000KT CAVOK M01/M03 Q1025 NOSIG
13-12-30 METAR LIMC 300520Z 02004KT 330V060 CAVOK M02/M04 Q1026 NOSIG
13-12-30 METAR LIMC 300550Z 35006KT CAVOK M02/M03 Q1026 NOSIG
13-12-30 METAR LIMC 300620Z 36005KT 340V060 CAVOK M01/M03 Q1026 NOSIG
13-12-30 METAR LIMC 300650Z VRB02KT 9999 FEW025 M01/M02 Q1026 NOSIG
13-12-30 METAR LIMC 300720Z 34006KT 9999 FEW025 M01/M03 Q1027 NOSIG
13-12-30 METAR LIMC 300750Z 35006KT CAVOK 01/M02 Q1027 NOSIG
13-12-30 METAR LIMC 300820Z 35007KT CAVOK 02/M01 Q1028 NOSIG
13-12-30 METAR LIMC 300850Z 34007KT CAVOK 04/M00 Q1028 NOSIG
13-12-30 METAR LIMC 300920Z 34008KT CAVOK 05/M00 Q1028 NOSIG
13-12-30 METAR LIMC 300950Z 36006KT CAVOK 07/M01 Q1028 NOSIG
13-12-30 METAR LIMC 301020Z 34005KT 310V010 CAVOK 08/00 Q1027 NOSIG
13-12-30 METAR LIMC 301050Z 35006KT CAVOK 09/00 Q1027 NOSIG
13-12-30 METAR LIMC 301120Z 31005KT 290V350 9999 FEW025 10/02 Q1027 NOSIG
13-12-30 METAR LIMC 301150Z 32005KT 290V360 9999 FEW035 10/02 Q1027 NOSIG
13-12-30 METAR LIMC 301220Z 31006KT 9999 FEW035 10/02 Q1027 NOSIG
13-12-30 METAR LIMC 301250Z 33004KT 300V020 9999 FEW035 09/02 Q1026 NOSIG
13-12-30 METAR LIMC 301320Z 29004KT CAVOK 10/02 Q1026 NOSIG
13-12-30 METAR LIMC 301350Z 28003KT 240V320 CAVOK 10/02 Q1026 NOSIG
13-12-30 METAR LIMC 301420Z VRB02KT CAVOK 10/02 Q1026 NOSIG
13-12-30 METAR LIMC 301450Z 22003KT CAVOK 10/02 Q1026 NOSIG
13-12-30 METAR LIMC 301520Z 22005KT CAVOK 09/02 Q1026 NOSIG
13-12-30 METAR LIMC 301550Z 22005KT CAVOK 07/02 Q1026 NOSIG
13-12-30 METAR LIMC 301620Z 24005KT CAVOK 04/01 Q1026 NOSIG
13-12-30 METAR LIMC 301650Z 35004KT CAVOK 03/00 Q1026 NOSIG
13-12-30 METAR LIMC 301720Z 34005KT CAVOK 03/M01 Q1026 NOSIG
13-12-30 METAR LIMC 301750Z 35005KT CAVOK 02/M01 Q1026 NOSIG
13-12-30 METAR LIMC 301820Z 34008KT CAVOK 03/M02 Q1026 NOSIG
13-12-30 METAR LIMC 301850Z 35006KT CAVOK 03/M02 Q1026 NOSIG
13-12-30 METAR LIMC 301920Z 35007KT CAVOK 02/M02 Q1026 NOSIG
13-12-30 METAR LIMC 301950Z 35007KT CAVOK 02/M02 Q1026 NOSIG
13-12-30 METAR LIMC 302020Z 35007KT CAVOK 02/M03 Q1026 NOSIG
13-12-30 METAR LIMC 302050Z 36006KT CAVOK 01/M03 Q1026 NOSIG
13-12-30 METAR LIMC 302120Z 36006KT CAVOK 01/M02 Q1026 NOSIG
13-12-30 METAR LIMC 302150Z 34005KT CAVOK 01/M03 Q1026 NOSIG
13-12-30 METAR LIMC 302220Z 36005KT 340V040 CAVOK M00/M03 Q1025 NOSIG
13-12-30 METAR LIMC 302250Z VRB01KT CAVOK M02/M04 Q1025 NOSIG
13-12-30 METAR LIMC 302320Z VRB02KT CAVOK M01/M03 Q1025 NOSIG
13-12-30 METAR LIMC 302350Z 36003KT CAVOK M02/M04 Q1025 NOSIG
13-12-31 METAR LIMC 310020Z VRB02KT CAVOK M02/M03 Q1025 NOSIG
13-12-31 METAR LIMC 310050Z 34004KT CAVOK M03/M04 Q1024 NOSIG
13-12-31 METAR LIMC 310120Z 35005KT CAVOK M02/M03 Q1024 NOSIG
13-12-31 METAR LIMC 310150Z 02003KT CAVOK M01/M03 Q1024 NOSIG
13-12-31 METAR LIMC 310220Z VRB01KT CAVOK M02/M04 Q1024 NOSIG
13-12-31 METAR LIMC 310250Z 36003KT CAVOK M02/M03 Q1024 NOSIG
13-12-31 METAR LIMC 310320Z 35006KT CAVOK M03/M04 Q1024 NOSIG
13-12-31 METAR LIMC 310350Z 35005KT CAVOK M02/M04 Q1023 NOSIG
13-12-31 METAR LIMC 310420Z 35003KT CAVOK M03/M05 Q1023 NOSIG
13-12-31 METAR LIMC 310450Z VRB02KT CAVOK M03/M04 Q1023 NOSIG
13-12-31 METAR LIMC 310520Z 00000KT CAVOK M05/M06 Q1023 NOSIG
13-12-31 METAR LIMC 310550Z 05001KT CAVOK M04/M06 Q1023 NOSIG
13-12-31 METAR LIMC 310620Z 35003KT 320V020 CAVOK M03/M05 Q1023 NOSIG
13-12-31 METAR LIMC 310650Z 01005KT 340V040 CAVOK M02/M05 Q1023 NOSIG
13-12-31 METAR LIMC 310720Z 02003KT 330V070 CAVOK M03/M04 Q1023 NOSIG
13-12-31 METAR LIMC 310750Z 35005KT CAVOK M02/M04 Q1023 NOSIG
13-12-31 METAR LIMC 310820Z 36005KT 330V030 CAVOK 00/M03 Q1023 NOSIG
13-12-31 METAR LIMC 310850Z 33003KT CAVOK 02/M02 Q1023 NOSIG
13-12-31 METAR LIMC 310920Z 34005KT CAVOK 04/M01 Q1024 NOSIG
13-12-31 METAR LIMC 310950Z 34005KT CAVOK 05/M01 Q1024 NOSIG
13-12-31 METAR LIMC 311020Z 01003KT 320V050 CAVOK 06/M03 Q1023 NOSIG
13-12-31 METAR LIMC 311050Z VRB02KT CAVOK 07/M03 Q1023 NOSIG
13-12-31 METAR LIMC 311120Z VRB02KT CAVOK 08/M03 Q1023 NOSIG
13-12-31 METAR LIMC 311150Z 08003KT 350V100 CAVOK 08/M03 Q1022 NOSIG
13-12-31 METAR LIMC 311220Z VRB02KT CAVOK 08/M02 Q1022 NOSIG
13-12-31 METAR LIMC 311250Z VRB02KT CAVOK 08/M02 Q1021 NOSIG
13-12-31 METAR LIMC 311320Z VRB01KT CAVOK 09/M02 Q1021 NOSIG
13-12-31 METAR LIMC 311350Z VRB02KT CAVOK 09/M03 Q1021 NOSIG
13-12-31 METAR LIMC 311420Z 00000KT CAVOK 09/M03 Q1021 NOSIG
13-12-31 METAR LIMC 311450Z VRB02KT CAVOK 09/M02 Q1021 NOSIG
13-12-31 METAR LIMC 311520Z 22004KT CAVOK 07/M02 Q1020 NOSIG
13-12-31 METAR LIMC 311550Z 22004KT CAVOK 05/M02 Q1020 NOSIG
13-12-31 METAR LIMC 311620Z VRB02KT CAVOK 03/M01 Q1021 NOSIG
13-12-31 METAR LIMC 311650Z 00000KT CAVOK 04/M01 Q1021 NOSIG
13-12-31 METAR LIMC 311720Z VRB01KT CAVOK M00/M03 Q1021 NOSIG
13-12-31 METAR LIMC 311750Z 36003KT CAVOK 00/M02 Q1021 NOSIG
13-12-31 METAR LIMC 311820Z 34002KT CAVOK M02/M04 Q1021 NOSIG
13-12-31 METAR LIMC 311850Z 36003KT 340V050 CAVOK M03/M04 Q1021 NOSIG
13-12-31 METAR LIMC 311920Z 36005KT CAVOK M01/M03 Q1021 NOSIG
13-12-31 METAR LIMC 311950Z 36003KT CAVOK M02/M05 Q1021 NOSIG
13-12-31 METAR LIMC 312020Z VRB02KT CAVOK M01/M04 Q1021 NOSIG
13-12-31 METAR LIMC 312050Z 36003KT CAVOK M04/M05 Q1021 NOSIG
13-12-31 METAR LIMC 312120Z 35005KT CAVOK M02/M04 Q1021 NOSIG
13-12-31 METAR LIMC 312150Z 35005KT CAVOK M03/M04 Q1021 NOSIG
13-12-31 METAR LIMC 312220Z 02003KT CAVOK M04/M07 Q1021 NOSIG
13-12-31 METAR LIMC 312250Z VRB02KT CAVOK M04/M05 Q1021 NOSIG
13-12-31 METAR LIMC 312320Z VRB02KT CAVOK M05/M06 Q1021 NOSIG
13-12-31 METAR LIMC 312350Z 36002KT CAVOK M05/M06 Q1021 NOSIG
14-01-01 METAR LIMC 010020Z 36003KT 340V040 CAVOK M05/M05 Q1020 NOSIG
14-01-01 METAR LIMC 010050Z 34006KT CAVOK M03/M04 Q1020 NOSIG
14-01-01 METAR LIMC 010120Z 01003KT CAVOK M03/M04 Q1020 NOSIG
14-01-01 METAR LIMC 010150Z 34005KT CAVOK M02/M04 Q1020 NOSIG
14-01-01 METAR LIMC 010220Z 35004KT CAVOK M04/M06 Q1020 NOSIG
14-01-01 METAR LIMC 010250Z 34004KT CAVOK M03/M04 Q1020 NOSIG
14-01-01 METAR LIMC 010320Z 01003KT CAVOK M05/M05 Q1020 NOSIG
14-01-01 METAR LIMC 010350Z 35003KT CAVOK M05/M07 Q1020 NOSIG
14-01-01 METAR LIMC 010420Z 35006KT CAVOK M04/M05 Q1019 NOSIG
14-01-01 METAR LIMC 010450Z VRB02KT CAVOK M06/M07 Q1019 NOSIG
14-01-01 METAR LIMC 010520Z 36006KT CAVOK M04/M05 Q1020 NOSIG
14-01-01 METAR LIMC 010550Z VRB01KT CAVOK M05/M06 Q1020 NOSIG
14-01-01 METAR LIMC 010620Z VRB01KT CAVOK M05/M07 Q1020 NOSIG
14-01-01 METAR LIMC 010650Z 01003KT CAVOK M06/M07 Q1020 NOSIG
14-01-01 METAR LIMC 010720Z 36004KT 320V060 CAVOK M03/M04 Q1020 NOSIG
14-01-01 METAR LIMC 010750Z VRB02KT CAVOK M05/M06 Q1020 NOSIG
14-01-01 METAR LIMC 010820Z VRB01KT CAVOK M02/M04 Q1020 NOSIG
14-01-01 METAR LIMC 010850Z 33002KT CAVOK 01/M02 Q1021 NOSIG
14-01-01 METAR LIMC 010920Z VRB02KT CAVOK 03/M02 Q1021 NOSIG
14-01-01 METAR LIMC 010950Z VRB01KT CAVOK 05/M02 Q1021 NOSIG
14-01-01 METAR LIMC 011020Z 04003KT 350V070 CAVOK 05/M04 Q1020 NOSIG
14-01-01 METAR LIMC 011050Z VRB01KT CAVOK 06/M03 Q1020 NOSIG
14-01-01 METAR LIMC 011120Z VRB02KT CAVOK 07/M03 Q1020 NOSIG
14-01-01 METAR LIMC 011150Z VRB02KT CAVOK 07/M03 Q1019 NOSIG
14-01-01 METAR LIMC 011220Z VRB02KT CAVOK 07/M04 Q1019 NOSIG
14-01-01 METAR LIMC 011250Z VRB02KT CAVOK 07/M04 Q1019 NOSIG
14-01-01 METAR LIMC 011320Z VRB02KT CAVOK 08/M03 Q1019 NOSIG
14-01-01 METAR LIMC 011350Z 15003KT CAVOK 07/M02 Q1019 NOSIG
14-01-01 METAR LIMC 011420Z VRB02KT CAVOK 07/M02 Q1019 NOSIG
14-01-01 METAR LIMC 011450Z 15003KT CAVOK 06/M02 Q1019 NOSIG
14-01-01 METAR LIMC 011520Z 16002KT CAVOK 06/M02 Q1019 NOSIG
14-01-01 METAR LIMC 011550Z VRB02KT CAVOK 04/M01 Q1019 NOSIG
14-01-01 METAR LIMC 011620Z 00000KT CAVOK 03/M02 Q1019 NOSIG
14-01-01 METAR LIMC 011650Z 00000KT CAVOK 01/M02 Q1019 NOSIG
14-01-01 METAR LIMC 011720Z VRB02KT CAVOK M00/M03 Q1020 NOSIG
14-01-01 METAR LIMC 011750Z 35001KT CAVOK M02/M04 Q1020 NOSIG
14-01-01 METAR LIMC 011820Z 34003KT CAVOK 00/M03 Q1020 NOSIG
14-01-01 METAR LIMC 011850Z 36004KT CAVOK M02/M04 Q1020 NOSIG
14-01-01 METAR LIMC 011920Z 36003KT 310V080 CAVOK M01/M03 Q1020 NOSIG
14-01-01 METAR LIMC 011950Z VRB01KT CAVOK M02/M04 Q1020 NOSIG
14-01-01 METAR LIMC 012020Z 35005KT CAVOK M01/M02 Q1020 NOSIG
14-01-01 METAR LIMC 012050Z 36005KT CAVOK M01/M02 Q1020 NOSIG
14-01-01 METAR LIMC 012120Z 35005KT 9999 SCT080 M01/M03 Q1020 NOSIG
14-01-01 METAR LIMC 012150Z VRB02KT 9999 SCT080 M02/M03 Q1020 NOSIG
14-01-01 METAR LIMC 012220Z VRB02KT 9999 SCT080 M01/M02 Q1020 NOSIG
14-01-01 METAR LIMC 012250Z 00000KT 9999 SCT060 M01/M02 Q1020 NOSIG
14-01-01 METAR LIMC 012320Z 32001KT 9999 SCT060 M00/M01 Q1020 NOSIG
14-01-01 METAR LIMC 012350Z VRB02KT 9999 SCT050 00/M01 Q1019 NOSIG