
13-04-26 METAR LIMC 260020Z 29003KT 280V030 9999 SCT080 11/09 Q1022 NOSIG
13-04-26 METAR LIMC 260050Z 29003KT 280V050 9999 BKN080 11/10 Q1022 NOSIG
13-04-26 METAR LIMC 260120Z 28003KT 9999 BKN080 12/11 Q1021 NOSIG
13-04-26 METAR LIMC 260150Z VRB02KT 9999 BKN080 13/11 Q1021 NOSIG
13-04-26 METAR LIMC 260220Z 27004KT 9999 BKN070 13/12 Q1021 NOSIG
13-04-26 METAR LIMC 260250Z 28003KT 270V050 9999 BKN070 13/11 Q1021 NOSIG
13-04-26 METAR LIMC 260320Z 29004KT 9999 BKN070 14/11 Q1021 NOSIG
13-04-26 METAR LIMC 260350Z 30004KT 9999 BKN070 14/11 Q1020 NOSIG
13-04-26 METAR LIMC 260420Z 29003KT 9999 BKN070 13/11 Q1020 NOSIG
13-04-26 METAR LIMC 260450Z 29003KT 9999 BKN070 14/11 Q1020 NOSIG
13-04-26 METAR LIMC 260520Z 29003KT 9999 -RA BKN070 14/12 Q1020 NOSIG
13-04-26 METAR LIMC 260550Z NIL
13-04-26 METAR LIMC 260550Z 29003KT 9999 -RA BKN070 14/12 Q1020 NOSIG
13-04-26 METAR LIMC 260620Z 27003KT 9999 BKN070 15/13 Q1020 NOSIG
13-04-26 METAR LIMC 260650Z 29003KT 9999 BKN070 14/12 Q1020 NOSIG
13-04-26 METAR LIMC 260720Z 28003KT 270V050 9999 -RA BKN070 15/13 Q1020 NOSIG
13-04-26 METAR LIMC 260750Z VRB03KT 9999 -RA BKN070 15/13 Q1020 NOSIG
13-04-26 METAR LIMC 260820Z 29004KT 9999 -RA BKN070 16/14 Q1020 NOSIG
13-04-26 METAR LIMC 260850Z NIL
13-04-26 METAR LIMC 260850Z 30003KT 9999 BKN060 16/14 Q1019 NOSIG
13-04-26 METAR LIMC 260920Z VRB02KT 9999 -RA BKN060 17/12 Q1020 NOSIG
13-04-26 METAR LIMC 260950Z 21003KT 180V270 9999 -RA BKN060 17/14 Q1020 NOSIG
13-04-26 METAR LIMC 261020Z 23003KT 9999 -RA BKN060 16/15 Q1020 NOSIG
13-04-26 METAR LIMC 261050Z 28005KT 9999 BKN060 16/15 Q1019 NOSIG
13-04-26 METAR LIMC 261120Z 31006KT 9999 -RA BKN060 15/15 Q1018 NOSIG
13-04-26 METAR LIMC 261150Z 29006KT 9999 BKN060 16/14 Q1018 NOSIG
13-04-26 METAR LIMC 261220Z 30006KT 9999 BKN050 16/12 Q1017 NOSIG
13-04-26 METAR LIMC 261250Z 30006KT 9999 BKN050 17/12 Q1017 NOSIG
13-04-26 METAR LIMC 261320Z 30006KT 9999 BKN050 17/12 Q1016 NOSIG
13-04-26 METAR LIMC 261350Z 29004KT 280V010 9999 BKN060 17/12 Q1016 NOSIG
13-04-26 METAR LIMC 261420Z 30005KT 9999 SCT025 BKN060 17/12 Q1015 NOSIG
13-04-26 METAR LIMC 261450Z 30005KT 9999 SCT025 BKN070 17/11 Q1015 NOSIG
13-04-26 METAR LIMC 261520Z 28005KT 9999 SCT025 BKN070 17/12 Q1015 NOSIG
13-04-26 METAR LIMC 261550Z 29004KT 9999 SCT025 BKN070 17/12 Q1014 NOSIG
13-04-26 METAR LIMC 261620Z 28005KT 9999 SCT025 BKN070 16/13 Q1014 NOSIG
13-04-26 METAR LIMC 261650Z 28004KT 9999 SCT025 BKN070 16/13 Q1014 NOSIG
13-04-26 METAR LIMC 261720Z 30004KT 9999 SCT025 BKN070 15/14 Q1014 NOSIG
13-04-26 METAR LIMC 261750Z 30004KT 9999 -RA BKN030 BKN070 15/14 Q1013 NOSIG
13-04-26 METAR LIMC 261820Z 31004KT 9999 -RA BKN030 BKN070 14/14 Q1013 NOSIG
13-04-26 METAR LIMC 261850Z 31003KT 290V350 9999 BKN025 OVC070 15/14 Q1013 NOSIG
13-04-26 METAR LIMC 261920Z 30004KT 9999 BKN025 OVC070 14/14 Q1013 NOSIG
13-04-26 METAR LIMC 261950Z 30003KT 9999 BKN025 OVC070 14/14 Q1013 NOSIG
13-04-26 METAR LIMC 262020Z 29004KT 9999 BKN025 OVC070 14/13 Q1013 NOSIG
13-04-26 METAR LIMC 262050Z 29003KT 280V040 9999 BKN025 OVC070 14/14 Q1012 NOSIG
13-04-26 METAR LIMC 262120Z 30003KT 9999 BKN025 OVC070 14/13 Q1012 NOSIG
13-04-26 METAR LIMC 262150Z 29004KT 9999 -RA BKN025 OVC070 14/13 Q1011 NOSIG
13-04-26 METAR LIMC 262220Z 29003KT 280V020 9999 -RA BKN025 OVC070 13/13 Q1011 NOSIG
13-04-26 METAR LIMC 262250Z 27004KT 5000 +RA BKN015 OVC030 13/13 Q1011 NOSIG
13-04-26 METAR LIMC 262320Z 32002KT 5000 +RA BKN015 OVC030 13/13 Q1011 NOSIG
13-04-26 METAR LIMC 262350Z 30003KT 5000 +RA BKN015 OVC030 13/13 Q1010 NOSIG
13-04-27 METAR LIMC 270020Z VRB02KT 5000 BR BKN015 OVC030 13/13 Q1010 RERA NOSIG
13-04-27 METAR LIMC 270050Z 29003KT 5000 BR BKN015 OVC030 13/13 Q1009 NOSIG
13-04-27 METAR LIMC 270120Z VRB02KT 5000 BR BKN015 OVC030 13/13 Q1009 NOSIG
13-04-27 METAR LIMC 270150Z VRB01KT 5000 -RA BR BKN020 BKN040 13/13 Q1008 NOSIG
13-04-27 METAR LIMC 270220Z VRB02KT 5000 -RA BR BKN020 BKN040 13/13 Q1008 NOSIG
13-04-27 METAR LIMC 270250Z VRB02KT 5000 -RA BR BKN020 BKN040 14/14 Q1007 NOSIG
13-04-27 METAR LIMC 270320Z NIL
13-04-27 METAR LIMC 270320Z VRB02KT 5000 -RA BR BKN020 BKN040 14/14 Q1007 NOSIG
13-04-27 METAR LIMC 270350Z 10003KT 080V170 5000 -RA BR BKN020 BKN040 14/14 Q1007 NOSIG
13-04-27 METAR LIMC 270420Z 10003KT 080V160 3000 -RA BR BKN020 OVC040 14/14 Q1006
13-04-27 METAR LIMC 270450Z 11003KT 080V140 4000 RA BR BKN020 OVC040 13/13 Q1006
13-04-27 METAR LIMC 270520Z 12003KT 080V140 1800 -RA BR BKN005 OVC040 13/13 Q1006 RERA NOSIG
13-04-27 METAR LIMC 270550Z 11004KT 080V140 1800 -RA BR BKN005 OVC040 13/13 Q1006
13-04-27 METAR LIMC 270620Z 11003KT 070V140 1800 BR BKN006 OVC070 14/14 Q1006 NOSIG
13-04-27 METAR LIMC 270650Z 11004KT 080V140 2500 BR BKN008 BKN070 14/14 Q1006 NOSIG
13-04-27 METAR LIMC 270720Z 11004KT 2500 BR BKN010 BKN030 14/13 Q1006 NOSIG
13-04-27 METAR LIMC 270750Z 11003KT 080V180 3000 BR BKN010 BKN030 14/14 Q1006 NOSIG
13-04-27 METAR LIMC 270820Z 12004KT 090V170 3500 BR BKN010 BKN030 14/13 Q1006 NOSIG
13-04-27 METAR LIMC 270850Z 11005KT 080V150 4000 BR BKN010 BKN030 14/13 Q1006 NOSIG
13-04-27 METAR LIMC 270920Z 12005KT 080V190 5000 BR BKN010 BKN030 15/13 Q1006 NOSIG
13-04-27 METAR LIMC 270950Z 13004KT 080V170 5000 BR SCT015 BKN070 16/14 Q1006 NOSIG
13-04-27 METAR LIMC 271020Z 12006KT 090V160 5000 BR BKN015 BKN070 14/13 Q1006 NOSIG
13-04-27 METAR LIMC 271050Z 10005KT 5000 -RA BR BKN015 OVC070 14/13 Q1005 NOSIG
13-04-27 METAR LIMC 271120Z 11004KT 070V180 7000 BKN010 OVC030 14/13 Q1005 NOSIG
13-04-27 METAR LIMC 271150Z 11005KT 090V160 7000 BKN010 OVC030 14/13 Q1005 NOSIG
13-04-27 METAR LIMC 271220Z 12006KT 080V170 7000 BKN010 OVC030 15/14 Q1005 NOSIG
13-04-27 METAR LIMC 271250Z 12006KT 090V180 6000 BKN020 OVC035 15/13 Q1005 NOSIG
13-04-27 METAR LIMC 271320Z 11005KT 080V170 6000 -RA BKN020 OVC035 14/14 Q1004
13-04-27 METAR LIMC 271350Z 11006KT 080V150 6000 FEW015TCU SCT020 OVC035 15/14 Q1004
13-04-27 METAR LIMC 271420Z 11006KT 080V160 6000 FEW015TCU SCT020 OVC035 15/14 Q1004
13-04-27 METAR LIMC 271450Z 11005KT 080V180 6000 FEW015TCU SCT020 OVC035 14/14 Q1004
13-04-27 METAR LIMC 271520Z 11006KT 070V150 6000 FEW011TCU SCT020 OVC035 14/13 Q1004
13-04-27 METAR LIMC 271550Z 10005KT 070V130 6000 FEW011TCU SCT020 OVC035 14/13 Q1003
13-04-27 METAR LIMC 271620Z 10004KT 070V160 6000 FEW011TCU SCT020 OVC035 14/13 Q1003 WS RWY 17R NOSIG
13-04-27 METAR LIMC 271650Z 11004KT 070V130 6000 -RA VCSH FEW011TCU SCT020 OVC035 14/13 Q1003 WS RWY 17R NOSIG
13-04-27 METAR LIMC 271720Z 09004KT 060V130 6000 -RA FEW011TCU SCT020 OVC035 14/14 Q1003 NOSIG
13-04-27 METAR LIMC 271750Z 10004KT 6000 BKN015 OVC035 14/14 Q1003 NOSIG
13-04-27 METAR LIMC 271820Z 10004KT 060V130 6000 BKN015 OVC035 14/14 Q1003 NOSIG
13-04-27 METAR LIMC 271850Z 11004KT 070V140 6000 BKN015 OVC035 14/14 Q1004 NOSIG
13-04-27 METAR LIMC 271920Z 10003KT 060V150 8000 SCT008 OVC035 14/14 Q1004 NOSIG
13-04-27 METAR LIMC 271950Z 11004KT 070V150 8000 BKN008 OVC035 14/14 Q1004 NOSIG
13-04-27 METAR LIMC 272020Z 11004KT 070V150 8000 BKN008 OVC035 14/14 Q1005 NOSIG
13-04-27 METAR LIMC 272050Z 12004KT 080V160 8000 BKN008 OVC035 14/14 Q1005 NOSIG
13-04-27 METAR LIMC 272120Z 12004KT 080V160 8000 BKN008 OVC035 14/13 Q1005 NOSIG
13-04-27 METAR LIMC 272150Z 11004KT 9999 BKN010 14/13 Q1006 NOSIG
13-04-27 METAR LIMC 272220Z 11003KT 090V180 9999 BKN010 BKN040 14/13 Q1006 NOSIG
13-04-27 METAR LIMC 272250Z 11003KT 090V180 9999 BKN010 BKN040 14/13 Q1006 NOSIG
13-04-27 METAR LIMC 272320Z 12003KT 080V190 9999 BKN010 BKN040 14/13 Q1006 NOSIG
13-04-27 METAR LIMC 272350Z 13003KT 9999 BKN010 BKN040 14/13 Q1006 NOSIG
13-04-28 METAR LIMC 280020Z 12003KT 100V160 9999 BKN035 14/13 Q1006 NOSIG
13-04-28 METAR LIMC 280050Z VRB02KT 9999 BKN035 13/13 Q1007 NOSIG
13-04-28 METAR LIMC 280120Z VRB02KT 9999 BKN040 13/13 Q1007 NOSIG
13-04-28 METAR LIMC 280150Z VRB02KT 9999 BKN040 13/13 Q1007 NOSIG
13-04-28 METAR LIMC 280220Z 07003KT 050V160 9999 SCT008 BKN030 13/13 Q1007 NOSIG
13-04-28 METAR LIMC 280250Z VRB02KT 9999 SCT008 BKN030 13/13 Q1007 NOSIG
13-04-28 METAR LIMC 280320Z VRB02KT 9999 SCT008 BKN030 13/13 Q1007 NOSIG
13-04-28 METAR LIMC 280350Z VRB02KT 9999 SCT008 BKN020 13/13 Q1008 NOSIG
13-04-28 METAR LIMC 280420Z 13003KT 090V180 9999 SCT008 BKN020 13/13 Q1008 NOSIG
13-04-28 METAR LIMC 280450Z VRB02KT 6000 SCT008 BKN020 13/13 Q1009 NOSIG
13-04-28 METAR LIMC 280520Z 13003KT 100V190 6000 SCT015 BKN030 14/13 Q1009 NOSIG
13-04-28 METAR LIMC 280550Z 17003KT 100V190 6000 SCT030 14/14 Q1010 NOSIG
13-04-28 METAR LIMC 280620Z 17003KT 120V200 8000 SCT030 15/13 Q1010 NOSIG
13-04-28 METAR LIMC 280650Z 18004KT 9999 SCT030 15/12 Q1011 NOSIG
13-04-28 METAR LIMC 280720Z 18006KT 9999 FEW020 BKN030 15/12 Q1011 NOSIG
13-04-28 METAR LIMC 280750Z 19006KT 9999 SCT015 BKN030 16/12 Q1012 NOSIG
13-04-28 METAR LIMC 280820Z 19005KT 9999 SCT015 BKN030 16/12 Q1012 NOSIG
13-04-28 METAR LIMC 280850Z 18004KT 9999 FEW015 BKN030 16/12 Q1013 NOSIG
13-04-28 METAR LIMC 280920Z 20006KT 9999 FEW015 BKN030 17/12 Q1013 NOSIG
13-04-28 METAR LIMC 280950Z 19005KT 9999 FEW015 BKN030 17/12 Q1013 NOSIG
13-04-28 METAR LIMC 281050Z 19004KT 170V230 9999 FEW015TCU SCT020 BKN040 17/11 Q1014 NOSIG
13-04-28 METAR LIMC 281120Z 17003KT 080V190 9999 -RA SCT015TCU SCT020 OVC040 17/11 Q1013 NOSIG
13-04-28 METAR LIMC 281150Z 17003KT 080V200 9999 -SHRA SCT015TCU SCT020 OVC040 16/12 Q1014 NOSIG
13-04-28 METAR LIMC 281220Z VRB02KT 6000 2500W RA VCSH SCT015TCU SCT020 BKN040 15/14 Q1014 RESHRA NOSIG
13-04-28 METAR LIMC 281250Z VRB02KT 9999 SCT040TCU BKN060 16/14 Q1014 RERA NOSIG
13-04-28 METAR LIMC 281320Z VRB02KT 9999 FEW028TCU BKN033 BKN060 16/13 Q1014 RERA
13-04-28 METAR LIMC 281350Z 31003KT 9999 RA BKN033 BKN060 15/14 Q1014 NOSIG
13-04-28 METAR LIMC 281420Z 31003KT 290V040 9999 BKN033 BKN060 16/15 Q1014 RERA
13-04-28 METAR LIMC 281450Z 31005KT 9999 BKN033 BKN060 15/14 Q1014 NOSIG
13-04-28 METAR LIMC 281520Z 31005KT 9999 BKN033 BKN060 15/14 Q1014 NOSIG
13-04-28 METAR LIMC 281550Z 31005KT 9999 BKN033 BKN060 15/14 Q1014 NOSIG
13-04-28 METAR LIMC 281620Z 32004KT 9999 RA SCT025 BKN033 BKN060 14/14 Q1014 NOSIG
13-04-28 METAR LIMC 281650Z 30005KT 9999 RA VCSH FEW025CB BKN033 BKN060 14/14 Q1014
13-04-28 METAR LIMC 281720Z 27007KT 240V300 3000 RA SCT006 BKN015 BKN025 13/13 Q1014
13-04-28 METAR LIMC 281750Z 32005KT 9999 RA FEW010 BKN025 OVC035 13/13 Q1014 NOSIG
13-04-28 METAR LIMC 281820Z 32004KT 9999 -RA BKN025 BKN035 OVC060 13/13 Q1015 RERA
13-04-28 METAR LIMC 281850Z 32004KT 9999 BKN025 OVC060 13/13 Q1015 NOSIG
13-04-28 METAR LIMC 281920Z 31005KT 9999 BKN025 OVC060 13/13 Q1015 NOSIG
13-04-28 METAR LIMC 281950Z 31005KT 9999 -RA BKN025 OVC060 13/13 Q1015 RERA NOSIG
13-04-28 METAR LIMC 282020Z 30003KT 9999 RA BKN025 OVC060 13/13 Q1016 NOSIG
13-04-28 METAR LIMC 282050Z 31003KT 9999 RA BKN025 OVC060 13/13 Q1016 NOSIG
13-04-28 METAR LIMC 282120Z 31005KT 9999 RA BKN025 OVC060 13/13 Q1016 NOSIG
13-04-28 METAR LIMC 282150Z 32005KT 9000 +RA BKN025 OVC060 12/12 Q1016 NOSIG
13-04-28 METAR LIMC 282220Z 32004KT 9000 +RA BKN025 OVC060 12/12 Q1015 NOSIG
13-04-28 METAR LIMC 282250Z 32005KT 9000 +RA BKN025 OVC060 12/12 Q1016 NOSIG
13-04-28 METAR LIMC 282320Z 32005KT 9000 +RA BKN025 OVC060 12/12 Q1016 NOSIG
13-04-28 METAR LIMC 282350Z 33003KT 300V360 9999 RA BKN025 OVC060 12/12 Q1016 RESHRA
13-04-29 METAR LIMC 290020Z 31004KT 9999 RA BKN025 OVC060 12/12 Q1016 NOSIG
13-04-29 METAR LIMC 290050Z 29004KT 250V320 9999 -RA BKN030 OVC060 12/12 Q1016 RERA NOSIG
13-04-29 METAR LIMC 290120Z 31006KT 9999 -RA BKN030 OVC060 12/12 Q1016 NOSIG
13-04-29 METAR LIMC 290150Z 32004KT 9999 -RA BKN020 OVC050 12/12 Q1016 NOSIG
13-04-29 METAR LIMC 290220Z 31005KT 9999 -RA BKN020 OVC050 12/12 Q1016 NOSIG
13-04-29 METAR LIMC 290250Z 30004KT 9999 -RA BKN020 OVC050 12/12 Q1016 NOSIG
13-04-29 METAR LIMC 290320Z 31005KT 9999 RA BKN020 OVC050 12/12 Q1016 NOSIG
13-04-29 METAR LIMC 290350Z 31005KT 9999 RA BKN020 OVC050 12/12 Q1016 NOSIG
13-04-29 METAR LIMC 290420Z 30003KT 280V340 9999 -RA BKN020 OVC050 12/12 Q1016 RERA
13-04-29 METAR LIMC 290450Z 29005KT 9999 -RA BKN020 OVC050 12/12 Q1017 RERA NOSIG
13-04-29 METAR LIMC 290520Z 33003KT 280V090 9999 BKN015 OVC025 12/12 Q1017 NOSIG
13-04-29 METAR LIMC 290550Z 30004KT 9999 -RA BKN015 OVC025 12/12 Q1018 NOSIG
13-04-29 METAR LIMC 290620Z 30004KT 4000 +RA BKN015 OVC025 12/12 Q1018 NOSIG
13-04-29 METAR LIMC 290650Z 30004KT 3000 +RA BKN015 OVC025 12/12 Q1018 NOSIG
13-04-29 METAR LIMC 290720Z 31004KT 3000 RA BR BKN015 OVC025 12/12 Q1018 NOSIG
13-04-29 METAR LIMC 290750Z 30003KT 3500 RA BR BKN013 OVC025 12/12 Q1019 NOSIG
13-04-29 METAR LIMC 290820Z 07003KT 3500 RA BR BKN005 OVC013 13/13 Q1019 NOSIG
13-04-29 METAR LIMC 290850Z 18001KT 3000 +RA BR BKN003 OVC013 14/14 Q1019 NOSIG
13-04-29 METAR LIMC 290920Z 31003KT 2000 +RA BR BKN003 OVC013 14/14 Q1020 NOSIG
13-04-29 METAR LIMC 290950Z VRB02KT 3000 RA BR BKN004 OVC010 14/14 Q1020 NOSIG
13-04-29 METAR LIMC 291020Z VRB02KT 3000 +RA BR BKN004 OVC010 14/14 Q1021 NOSIG
13-04-29 METAR LIMC 291050Z VRB02KT 2500 +RA BR BKN004 OVC012 14/14 Q1020 NOSIG
13-04-29 METAR LIMC 291120Z VRB03KT 3000 1000W RA VCFG BKN004 OVC012 14/14 Q1020
13-04-29 METAR LIMC 291150Z 29004KT 270V070 3000 RA VCFG BKN002 OVC010 14/14 Q1020
13-04-29 METAR LIMC 291220Z 31003KT 2500 RA VCFG BKN002 OVC010 13/13 Q1021 NOSIG
13-04-29 METAR LIMC 291250Z 32003KT 280V340 3000 RA BR BKN004 OVC010 13/13 Q1021
13-04-29 METAR LIMC 291320Z 33004KT 3000 -RA BR BKN004 OVC015 13/13 Q1021 RERA
13-04-29 METAR LIMC 291350Z 33003KT 3000 -RA BR BKN005 OVC015 13/13 Q1020 NOSIG
13-04-29 METAR LIMC 291420Z 33003KT 3000 -RA BR BKN006 OVC015 14/14 Q1020 NOSIG
13-04-29 METAR LIMC 291450Z 29006KT 3500 -RA BR BKN006 OVC015 14/14 Q1021 NOSIG
13-04-29 METAR LIMC 291520Z 29005KT 2500 BR BKN006 OVC015 13/13 Q1021 NOSIG
13-04-29 METAR LIMC 291550Z 33004KT 3500 BR BKN010 OVC025 13/13 Q1021 NOSIG
13-04-29 METAR LIMC 291620Z 32005KT 4500 BR BKN015 BKN025 14/14 Q1020 NOSIG
13-04-29 METAR LIMC 291650Z 32006KT 7000 SCT025 SCT060 14/14 Q1020 NOSIG
13-04-29 METAR LIMC 291720Z 32005KT 8000 FEW025 SCT060 14/14 Q1020 NOSIG
13-04-29 METAR LIMC 291750Z 33004KT 9999 SCT050 13/13 Q1021 NOSIG
13-04-29 METAR LIMC 291820Z 34004KT 9999 SCT050 13/13 Q1020 NOSIG
13-04-29 METAR LIMC 291850Z 33004KT 9999 SCT060 13/13 Q1020 NOSIG
13-04-29 METAR LIMC 291920Z 31004KT 9999 BKN050 OVC080 13/13 Q1020 NOSIG
13-04-29 METAR LIMC 291920Z NIL
13-04-29 METAR LIMC 291950Z 31003KT 9999 BKN050 OVC080 13/13 Q1020 NOSIG
13-04-29 METAR LIMC 292020Z 30003KT 9999 BKN060 13/13 Q1020 NOSIG
13-04-29 METAR LIMC 292050Z 30003KT 9999 BKN070 13/13 Q1020 NOSIG
13-04-29 METAR LIMC 292120Z 30004KT 9999 BKN070 12/12 Q1020 NOSIG
13-04-29 METAR LIMC 292150Z 30004KT 9999 SCT070 13/13 Q1020 NOSIG
13-04-29 METAR LIMC 292220Z 30004KT 9999 SCT070 12/12 Q1020 NOSIG
13-04-29 METAR LIMC 292250Z VRB02KT 9999 BKN070 12/12 Q1020 NOSIG
13-04-29 METAR LIMC 292320Z 31004KT 9999 BKN070 13/13 Q1020 NOSIG
13-04-29 METAR LIMC 292350Z 29004KT 9999 SCT040 BKN070 13/13 Q1020 NOSIG
13-04-30 METAR LIMC 300020Z 32004KT 9999 FEW040 SCT070 13/13 Q1019 NOSIG
13-04-30 METAR LIMC 300050Z 32004KT 9999 FEW040 BKN070 13/13 Q1019 NOSIG
13-04-30 METAR LIMC 300120Z 30003KT 9999 FEW040 BKN070 13/13 Q1019 NOSIG
13-04-30 METAR LIMC 300150Z 30003KT 290V040 9999 FEW040 BKN070 13/13 Q1019 NOSIG
13-04-30 METAR LIMC 300220Z VRB03KT 9999 BKN080 13/13 Q1019 NOSIG
13-04-30 METAR LIMC 300250Z 29003KT 9999 BKN080 13/13 Q1019 NOSIG
13-04-30 METAR LIMC 300320Z 30003KT 290V040 9999 BKN040 BKN080 13/13 Q1019 NOSIG
13-04-30 METAR LIMC 300350Z NIL
13-04-30 METAR LIMC 300350Z VRB02KT 9999 -RA BKN040 BKN080 13/13 Q1019 NOSIG
13-04-30 METAR LIMC 300420Z 36003KT 300V070 9999 -RA BKN040 BKN080 13/13 Q1019 NOSIG
13-04-30 METAR LIMC 300450Z 02003KT 300V070 9999 -RA BKN040 OVC080 14/14 Q1019
13-04-30 METAR LIMC 300520Z VRB03KT 9000 -RA BKN040 OVC080 14/14 Q1019 NOSIG
13-04-30 METAR LIMC 300550Z 31003KT 3000 RA BKN025 OVC050 14/14 Q1019 NOSIG
13-04-30 METAR LIMC 300620Z VRB02KT 2500 RA BKN020 OVC050 14/14 Q1019 NOSIG
13-04-30 METAR LIMC 300650Z 29003KT 2500 RA BKN020 OVC050 14/14 Q1019 NOSIG
13-04-30 METAR LIMC 300720Z 31003KT 290V350 3500 RA BKN020 OVC050 14/14 Q1019 NOSIG
13-04-30 METAR LIMC 300750Z 30004KT 3500 -RA BKN020 OVC050 14/14 Q1019 RERA NOSIG
13-04-30 METAR LIMC 300820Z NIL
13-04-30 METAR LIMC 300850Z 29003KT 6000 BKN025 OVC060 15/15 Q1019 NOSIG
13-04-30 METAR LIMC 300920Z 30003KT 8000 BKN025 OVC060 15/15 Q1019 NOSIG
13-04-30 METAR LIMC 301020Z 31004KT 290V350 8000 BKN025 OVC060 15/15 Q1019 NOSIG
13-04-30 METAR LIMC 301050Z 31005KT 9999 BKN030 OVC060 15/15 Q1019 NOSIG
13-04-30 METAR LIMC 301120Z NIL
13-04-30 METAR LIMC 301120Z 30004KT 9999 BKN030 OVC060 15/15 Q1019 NOSIG
13-04-30 METAR LIMC 301150Z 31003KT 9000 BKN030 OVC060 16/15 Q1019 NOSIG
13-04-30 METAR LIMC 301220Z 31004KT 9999 BKN030 OVC060 16/16 Q1019 NOSIG
13-04-30 METAR LIMC 301250Z 32003KT 290V030 9999 SCT020 BKN050 17/15 Q1019 NOSIG
13-04-30 METAR LIMC 301320Z 31004KT 9999 SCT020 BKN050 18/16 Q1019 NOSIG
13-04-30 METAR LIMC 301350Z 30005KT 9999 SCT020 BKN050 18/16 Q1019 NOSIG
13-04-30 METAR LIMC 301420Z 30007KT 9999 SCT020 BKN050 17/16 Q1019 NOSIG
13-04-30 METAR LIMC 301450Z 30006KT 9999 SCT020 BKN050 17/16 Q1019 NOSIG
13-04-30 METAR LIMC 301520Z 31005KT 9999 SCT020 BKN050 18/16 Q1019 NOSIG
13-04-30 METAR LIMC 301550Z 30005KT 9999 SCT020 BKN050 18/16 Q1019 NOSIG
13-04-30 METAR LIMC 301620Z 31003KT 9999 BKN030 BKN060 18/15 Q1019 NOSIG
13-04-30 METAR LIMC 301650Z 30005KT 9999 SCT030 BKN060 17/15 Q1019 NOSIG
13-04-30 METAR LIMC 301720Z 30005KT 9999 SCT030 BKN060 16/15 Q1019 NOSIG
13-04-30 METAR LIMC 301750Z 31004KT 9999 BKN040 16/15 Q1019 NOSIG
13-04-30 METAR LIMC 301820Z 31004KT 9999 BKN040 16/15 Q1019 NOSIG
13-04-30 METAR LIMC 301850Z 30003KT 9999 SCT030 BKN050 16/14 Q1020 NOSIG
13-04-30 METAR LIMC 301920Z 31005KT 9999 BKN030 BKN050 15/14 Q1020 NOSIG
13-04-30 METAR LIMC 301950Z 31004KT 9999 BKN030 BKN050 14/14 Q1020 NOSIG
13-04-30 METAR LIMC 302020Z 32004KT 300V360 9999 SCT050 14/14 Q1020 NOSIG
13-04-30 METAR LIMC 302050Z 32003KT 300V360 9999 SCT050 14/14 Q1020 NOSIG
13-04-30 METAR LIMC 302120Z 29003KT 9999 SCT050 13/13 Q1020 NOSIG
13-04-30 METAR LIMC 302150Z 29004KT 9999 SCT050 13/13 Q1020 NOSIG
13-04-30 METAR LIMC 302220Z 29003KT 9999 BKN040 14/14 Q1020 NOSIG
13-04-30 METAR LIMC 302250Z 29003KT 9999 BKN040 14/14 Q1021 NOSIG
13-04-30 METAR LIMC 302320Z VRB02KT 9999 BKN040 14/14 Q1020 NOSIG
13-04-30 METAR LIMC 302350Z VRB02KT 9999 BKN040 14/14 Q1020 NOSIG
13-05-01 METAR LIMC 010020Z 30003KT 290V360 6000 RA BKN030 14/14 Q1020 NOSIG
13-05-01 METAR LIMC 010050Z 31005KT 5000 RA BKN030 14/14 Q1020 NOSIG
13-05-01 METAR LIMC 010120Z 34005KT 5000 RA BKN030 14/14 Q1019 NOSIG
13-05-01 METAR LIMC 010150Z 34004KT 9000 -RA BKN030 14/14 Q1020 RERA NOSIG
13-05-01 METAR LIMC 010220Z 29007KT 8000 -RA BKN030 14/14 Q1020 NOSIG
13-05-01 METAR LIMC 010250Z 34004KT 290V360 8000 BKN030 14/14 Q1020 NOSIG
13-05-01 METAR LIMC 010320Z 34004KT 9000 BKN040 14/14 Q1019 NOSIG
13-05-01 METAR LIMC 010350Z NIL
13-05-01 METAR LIMC 010350Z 29003KT 280V350 9999 BKN030 14/14 Q1020 NOSIG
13-05-01 METAR LIMC 010420Z 29003KT 9999 BKN030 13/13 Q1020 NOSIG
13-05-01 METAR LIMC 010450Z 29005KT 9999 BKN050 13/13 Q1020 NOSIG
13-05-01 METAR LIMC 010520Z 29004KT 270V030 9999 BKN050 14/14 Q1020 NOSIG
13-05-01 METAR LIMC 010550Z 27003KT 9999 BKN050 15/15 Q1020 NOSIG
13-05-01 METAR LIMC 010620Z 29003KT 280V010 9999 SCT050 15/15 Q1020 NOSIG
13-05-01 METAR LIMC 010650Z 29003KT 280V060 9999 FEW070 16/15 Q1020 NOSIG
13-05-01 METAR LIMC 010720Z 31003KT 290V040 9999 SCT070 17/15 Q1020 NOSIG
13-05-01 METAR LIMC 010750Z 30005KT 290V010 9999 BKN070 18/15 Q1020 NOSIG
13-05-01 METAR LIMC 010820Z 30005KT 9999 BKN070 19/15 Q1020 NOSIG
13-05-01 METAR LIMC 010850Z 30006KT 9999 SCT080 20/15 Q1020 NOSIG
13-05-01 METAR LIMC 010920Z 30005KT 280V350 9999 SCT080 20/14 Q1020 NOSIG
13-05-01 METAR LIMC 010950Z VRB04KT 9999 SCT040 BKN070 20/13 Q1020 NOSIG
13-05-01 METAR LIMC 011020Z VRB02KT 9999 SCT040 BKN070 21/13 Q1019 NOSIG
13-05-01 METAR LIMC 011050Z VRB03KT 9999 SCT040 BKN070 21/12 Q1019 NOSIG
13-05-01 METAR LIMC 011120Z 14003KT 050V190 9999 SCT030 BKN050 22/11 Q1019 NOSIG
13-05-01 METAR LIMC 011150Z 15003KT 070V200 9999 SCT030 BKN050 23/11 Q1018 NOSIG
13-05-01 METAR LIMC 011220Z 18004KT 070V210 9999 SCT030 BKN050 22/11 Q1018 NOSIG
13-05-01 METAR LIMC 011250Z 18003KT 070V200 9999 SCT030 BKN050 22/11 Q1018 NOSIG
13-05-01 METAR LIMC 011320Z VRB03KT 9999 SCT030 BKN060 21/12 Q1018 NOSIG
13-05-01 METAR LIMC 011350Z 30004KT 250V040 9999 SCT035 BKN070 21/12 Q1018 NOSIG
13-05-01 METAR LIMC 011420Z 21004KT 200V280 9999 -RA SCT035 BKN070 21/13 Q1018 NOSIG
13-05-01 METAR LIMC 011450Z VRB02KT 9999 BKN045 22/13 Q1018 NOSIG
13-05-01 METAR LIMC 011520Z 20004KT 9999 BKN045 21/12 Q1018 NOSIG
13-05-01 METAR LIMC 011550Z 27003KT 210V290 9999 BKN040 21/13 Q1017 NOSIG
13-05-01 METAR LIMC 011620Z VRB03KT 9999 BKN045 22/13 Q1017 NOSIG
13-05-01 METAR LIMC 011650Z VRB02KT 9999 BKN045 20/13 Q1017 NOSIG
13-05-01 METAR LIMC 011720Z 29003KT 9999 BKN045 20/13 Q1017 NOSIG
13-05-01 METAR LIMC 011750Z NIL
13-05-01 METAR LIMC 011750Z 30003KT 9999 BKN045 19/13 Q1017 NOSIG
13-05-01 METAR LIMC 011820Z 28003KT 9999 SCT045 19/13 Q1017 NOSIG
13-05-01 METAR LIMC 011850Z 29004KT 9999 SCT045 17/14 Q1017 NOSIG
13-05-01 METAR LIMC 011920Z 29003KT 270V040 9999 BKN040 17/14 Q1018 NOSIG
13-05-01 METAR LIMC 011950Z 29003KT 9999 BKN040 16/14 Q1018 NOSIG
13-05-01 METAR LIMC 012020Z 28004KT 9999 BKN040 15/14 Q1018 NOSIG
13-05-01 METAR LIMC 012050Z 29004KT 9999 BKN040 15/14 Q1018 NOSIG
13-05-01 METAR LIMC 012120Z VRB03KT 9999 BKN040 14/13 Q1018 NOSIG
13-05-01 METAR LIMC 012150Z 29003KT 9999 BKN050 14/13 Q1018 NOSIG
13-05-01 METAR LIMC 012220Z 29004KT 9999 BKN050 13/13 Q1018 NOSIG
13-05-01 METAR LIMC 012250Z 29003KT 9999 BKN050 13/13 Q1018 NOSIG
13-05-01 METAR LIMC 012320Z 29004KT 9999 BKN050 13/13 Q1018 NOSIG
13-05-01 METAR LIMC 012350Z 29003KT 9999 SCT070 13/13 Q1018 NOSIG
13-05-02 METAR LIMC 020020Z 30004KT 9999 SCT070 13/13 Q1017 NOSIG
13-05-02 METAR LIMC 020050Z 29003KT 280V340 9999 SCT070 13/13 Q1017 NOSIG
13-05-02 METAR LIMC 020120Z 30003KT 9999 SCT070 13/13 Q1017 NOSIG
13-05-02 METAR LIMC 020150Z 31004KT 9999 SCT070 12/12 Q1017 NOSIG
13-05-02 METAR LIMC 020220Z NIL
13-05-02 METAR LIMC 020220Z 30004KT 9999 SCT070 11/11 Q1017 NOSIG
13-05-02 METAR LIMC 020250Z 30004KT 9999 SCT070 12/12 Q1016 NOSIG
13-05-02 METAR LIMC 020320Z 31003KT 9999 SCT070 13/13 Q1016 NOSIG
13-05-02 METAR LIMC 020350Z 30004KT 9999 SCT070 12/12 Q1016 NOSIG
13-05-02 METAR LIMC 020420Z 31004KT 9999 SCT070 13/12 Q1016 NOSIG
13-05-02 METAR LIMC 020450Z 30003KT 9999 SCT070 12/12 Q1016 NOSIG
13-05-02 METAR LIMC 020520Z 29003KT 9999 SCT070 13/13 Q1016 NOSIG
13-05-02 METAR LIMC 020550Z 30004KT 9999 SCT060 14/14 Q1016 NOSIG
13-05-02 METAR LIMC 020620Z 30003KT 280V050 9999 BKN060 15/14 Q1016 NOSIG
13-05-02 METAR LIMC 020650Z 29003KT 9999 SCT060 16/14 Q1017 NOSIG
13-05-02 METAR LIMC 020720Z 30005KT 9999 SCT060 17/14 Q1017 NOSIG
13-05-02 METAR LIMC 020750Z 30003KT 270V060 9999 SCT050 19/14 Q1017 NOSIG
13-05-02 METAR LIMC 020820Z VRB03KT 9999 FEW070 20/14 Q1017 NOSIG
13-05-02 METAR LIMC 020850Z VRB03KT 9999 SCT070 21/13 Q1016 NOSIG
13-05-02 METAR LIMC 020920Z VRB03KT 9999 SCT035 21/13 Q1016 NOSIG
13-05-02 METAR LIMC 020950Z 21002KT 9999 SCT035 21/13 Q1016 NOSIG
13-05-02 METAR LIMC 021020Z VRB04KT 9999 SCT030 22/13 Q1016 NOSIG
13-05-02 METAR LIMC 021050Z 19005KT 9999 SCT030 22/14 Q1016 NOSIG
13-05-02 METAR LIMC 021120Z 19004KT 9999 SCT030 22/13 Q1015 NOSIG
13-05-02 METAR LIMC 021150Z 18004KT 080V250 9999 SCT030 22/14 Q1015 NOSIG
13-05-02 METAR LIMC 021220Z 19005KT 170V240 9999 SCT030 23/14 Q1015 NOSIG
13-05-02 METAR LIMC 021250Z 19006KT 9999 SCT030 22/14 Q1014 NOSIG
13-05-02 METAR LIMC 021320Z 19005KT 9999 SCT030 23/13 Q1014 NOSIG
13-05-02 METAR LIMC 021350Z 20006KT 9999 SCT030 23/14 Q1013 NOSIG
13-05-02 METAR LIMC 021420Z 18005KT 9999 SCT035 22/14 Q1013 NOSIG
13-05-02 METAR LIMC 021450Z 21006KT 9999 SCT035 23/14 Q1013 NOSIG
13-05-02 METAR LIMC 021520Z 20007KT 9999 SCT035 23/14 Q1013 NOSIG
13-05-02 METAR LIMC 021550Z 23005KT 9999 FEW035 23/14 Q1013 NOSIG
13-05-02 METAR LIMC 021620Z 23005KT 9999 FEW035 23/13 Q1013 NOSIG
13-05-02 METAR LIMC 021650Z 22005KT 9999 FEW035 21/11 Q1013 NOSIG
13-05-02 METAR LIMC 021720Z 22007KT 9999 FEW035 20/10 Q1014 NOSIG
13-05-02 METAR LIMC 021750Z 21004KT 9999 SCT030TCU BKN040 19/09 Q1013 NOSIG
13-05-02 METAR LIMC 021820Z 24004KT 210V280 9999 SCT030TCU OVC040 19/09 Q1013 NOSIG
13-05-02 METAR LIMC 021850Z 30005KT 9999 SCT030TCU BKN040 18/09 Q1013 NOSIG
13-05-02 METAR LIMC 021920Z VRB02KT 9999 SCT030TCU BKN040 18/09 Q1013 NOSIG
13-05-02 METAR LIMC 021950Z 21004KT 9999 SCT030TCU BKN060 16/10 Q1014 NOSIG
13-05-02 METAR LIMC 022020Z VRB02KT 9999 SCT060 15/10 Q1014 NOSIG
13-05-02 METAR LIMC 022050Z 19004KT 9999 SCT060 13/11 Q1014 NOSIG
13-05-02 METAR LIMC 022120Z 19004KT 9999 SCT060 13/10 Q1014 NOSIG
13-05-02 METAR LIMC 022220Z 20003KT 9999 SCT060 11/09 Q1014 NOSIG
13-05-02 METAR LIMC 022250Z VRB02KT 9999 SCT060 11/10 Q1014 NOSIG
13-05-02 METAR LIMC 022320Z VRB02KT CAVOK 11/10 Q1014 NOSIG
13-05-02 METAR LIMC 022350Z 29004KT CAVOK 11/10 Q1014 NOSIG
13-05-03 METAR LIMC 030020Z VRB03KT CAVOK 10/10 Q1013 NOSIG
13-05-03 METAR LIMC 030050Z VRB02KT CAVOK 10/10 Q1014 NOSIG
13-05-03 METAR LIMC 030120Z VRB01KT CAVOK 10/10 Q1013 NOSIG
13-05-03 METAR LIMC 030150Z VRB02KT CAVOK 10/10 Q1013 NOSIG
13-05-03 METAR LIMC 030220Z 30004KT CAVOK 09/09 Q1013 NOSIG
13-05-03 METAR LIMC 030250Z 29003KT 290V360 CAVOK 09/09 Q1013 NOSIG
13-05-03 METAR LIMC 030320Z 28003KT CAVOK 09/09 Q1013 NOSIG
13-05-03 METAR LIMC 030350Z 28003KT 210V310 CAVOK 09/09 Q1013 NOSIG
13-05-03 METAR LIMC 030420Z VRB02KT CAVOK 10/10 Q1013 NOSIG
13-05-03 METAR LIMC 030450Z 29004KT 9999 FEW030 11/11 Q1013 NOSIG
13-05-03 METAR LIMC 030520Z VRB02KT 9999 BKN060 13/12 Q1013 NOSIG
13-05-03 METAR LIMC 030550Z 28004KT 9999 BKN060 14/12 Q1013 NOSIG
13-05-03 METAR LIMC 030620Z VRB02KT 9999 FEW040CB SCT060 16/12 Q1013 NOSIG
13-05-03 METAR LIMC 030650Z 15003KT 060V190 9999 BKN060 16/12 Q1013 NOSIG
13-05-03 METAR LIMC 030720Z VRB03KT 9999 BKN060 18/12 Q1014 NOSIG
13-05-03 METAR LIMC 030750Z VRB02KT 9999 SCT060 BKN080 18/11 Q1014 NOSIG
13-05-03 METAR LIMC 030820Z VRB02KT 9999 SCT060 BKN080 17/11 Q1014 NOSIG
13-05-03 METAR LIMC 030850Z 21003KT 9999 SCT060 BKN080 17/12 Q1014 NOSIG
13-05-03 METAR LIMC 030920Z VRB02KT 9999 SCT025 BKN060 17/12 Q1014 NOSIG
13-05-03 METAR LIMC 030950Z 27003KT 220V290 9999 SCT025 BKN060 18/12 Q1014 NOSIG
13-05-03 METAR LIMC 031020Z VRB02KT 9999 SCT025 BKN060 17/12 Q1014 NOSIG
13-05-03 METAR LIMC 031050Z VRB02KT 9999 SCT025 BKN060 18/12 Q1014 NOSIG
13-05-03 METAR LIMC 031120Z VRB03KT 9999 SCT025 BKN060 19/12 Q1014 NOSIG
13-05-03 METAR LIMC 031150Z 21005KT 9999 FEW025TCU BKN030 19/12 Q1013 NOSIG
13-05-03 METAR LIMC 031220Z 20004KT 080V220 9999 FEW025TCU BKN030 19/13 Q1013 NOSIG
13-05-03 METAR LIMC 031250Z 23003KT 200V270 9999 FEW025TCU BKN030 20/13 Q1013 NOSIG
13-05-03 METAR LIMC 031320Z 20005KT 9999 FEW025TCU BKN030 19/13 Q1013 NOSIG
13-05-03 METAR LIMC 031350Z 19006KT 9999 FEW025TCU SCT030 20/11 Q1013 NOSIG
13-05-03 METAR LIMC 031420Z 19006KT 160V220 9999 FEW025TCU SCT035 21/12 Q1012 NOSIG
13-05-03 METAR LIMC 031450Z 20006KT 9999 FEW025TCU SCT035 21/11 Q1012 NOSIG
13-05-03 METAR LIMC 031520Z 20006KT 9999 FEW025TCU SCT035 19/11 Q1012 NOSIG
13-05-03 METAR LIMC 031550Z VRB02KT 9999 FEW025TCU SCT035 20/11 Q1012 NOSIG
13-05-03 METAR LIMC 031620Z 20005KT 9999 FEW025TCU BKN035 20/11 Q1012 NOSIG
13-05-03 METAR LIMC 031650Z 20005KT 9999 FEW025TCU BKN050 19/12 Q1012 NOSIG
13-05-03 METAR LIMC 031720Z 22003KT 9999 SCT050 19/11 Q1012 NOSIG
13-05-03 METAR LIMC 031750Z 24002KT 9999 FEW040 SCT080 18/11 Q1013 NOSIG
13-05-03 METAR LIMC 031820Z 31003KT 300V010 9999 SCT040 17/11 Q1013 NOSIG
13-05-03 METAR LIMC 031850Z 30004KT 9999 SCT040 16/10 Q1013 NOSIG
13-05-03 METAR LIMC 031920Z VRB03KT 9999 SCT040 14/10 Q1014 NOSIG
13-05-03 METAR LIMC 031950Z 29003KT 280V360 9999 FEW070 14/10 Q1014 NOSIG
13-05-03 METAR LIMC 032020Z 28003KT 240V310 9999 FEW070 13/10 Q1014 NOSIG
13-05-03 METAR LIMC 032050Z VRB03KT 9999 SCT040 13/11 Q1014 NOSIG
13-05-03 METAR LIMC 032120Z 20004KT 9999 SCT040 13/11 Q1014 NOSIG
13-05-03 METAR LIMC 032150Z VRB02KT CAVOK 12/11 Q1014 NOSIG
13-05-03 METAR LIMC 032220Z 24003KT 200V310 CAVOK 11/10 Q1015 NOSIG
13-05-03 METAR LIMC 032250Z 29004KT CAVOK 10/10 Q1014 NOSIG
13-05-03 METAR LIMC 032320Z VRB02KT CAVOK 10/10 Q1015 NOSIG
13-05-03 METAR LIMC 032350Z 29003KT CAVOK 09/09 Q1014 NOSIG
13-05-04 METAR LIMC 040020Z 29003KT CAVOK 10/09 Q1014 NOSIG
13-05-04 METAR LIMC 040050Z 29003KT CAVOK 09/09 Q1014 NOSIG
13-05-04 METAR LIMC 040120Z 30004KT CAVOK 09/09 Q1014 NOSIG
13-05-04 METAR LIMC 040150Z 29003KT CAVOK 09/08 Q1014 NOSIG
13-05-04 METAR LIMC 040220Z VRB02KT CAVOK 10/09 Q1014 NOSIG
13-05-04 METAR LIMC 040250Z VRB02KT CAVOK 09/09 Q1014 NOSIG
13-05-04 METAR LIMC 040320Z 28003KT CAVOK 09/09 Q1014 NOSIG
13-05-04 METAR LIMC 040350Z 29003KT 280V010 CAVOK 08/08 Q1014 NOSIG
13-05-04 METAR LIMC 040420Z 29004KT 9999 SCT060 09/09 Q1015 NOSIG
13-05-04 METAR LIMC 040450Z 29003KT 9999 BKN040 11/10 Q1015 NOSIG
13-05-04 METAR LIMC 040520Z 30003KT 9999 BKN040 12/10 Q1015 NOSIG
13-05-04 METAR LIMC 040550Z 30003KT 9999 BKN045 13/10 Q1016 NOSIG
13-05-04 METAR LIMC 040620Z 30003KT 280V340 9999 BKN045 13/10 Q1016 NOSIG
13-05-04 METAR LIMC 040650Z 31004KT 9999 SCT045 13/10 Q1016 NOSIG
13-05-04 METAR LIMC 040720Z 31004KT 9999 SCT045 15/11 Q1016 NOSIG
13-05-04 METAR LIMC 040750Z VRB02KT 9999 SCT045 17/11 Q1016 NOSIG
13-05-04 METAR LIMC 040820Z 19004KT 9999 SCT080 18/11 Q1016 NOSIG
13-05-04 METAR LIMC 040850Z 19004KT 9999 SCT080 19/09 Q1017 NOSIG
13-05-04 METAR LIMC 040920Z VRB01KT 9999 SCT080 20/09 Q1017 NOSIG
13-05-04 METAR LIMC 040950Z VRB02KT 9999 FEW050 20/09 Q1017 NOSIG
13-05-04 METAR LIMC 041020Z VRB02KT 9999 FEW050 20/09 Q1016 NOSIG
13-05-04 METAR LIMC 041050Z VRB02KT 9999 FEW050 21/09 Q1016 NOSIG
13-05-04 METAR LIMC 041120Z 20004KT 170V270 9999 FEW050 22/08 Q1016 NOSIG
13-05-04 METAR LIMC 041150Z 18003KT 070V210 9999 FEW050 22/09 Q1016 NOSIG
13-05-04 METAR LIMC 041220Z 28004KT 240V300 9999 SCT042 22/09 Q1016 NOSIG
13-05-04 METAR LIMC 041250Z VRB03KT 9999 SCT035 22/08 Q1015 NOSIG
13-05-04 METAR LIMC 041320Z 20004KT 110V240 9999 SCT035 22/08 Q1015 NOSIG
13-05-04 METAR LIMC 041350Z VRB02KT 9999 SCT035 23/08 Q1015 NOSIG
13-05-04 METAR LIMC 041420Z 24004KT 210V280 9999 SCT035 23/09 Q1015 NOSIG
13-05-04 METAR LIMC 041450Z 27003KT 220V290 9999 FEW035TCU SCT040 23/09 Q1015 NOSIG
13-05-04 METAR LIMC 041520Z 24004KT 200V270 9999 VCSH FEW035CB SCT040 23/10 Q1015 NOSIG
13-05-04 METAR LIMC 041550Z 30008KT 9999 VCSH FEW035CB SCT040 BKN095 22/09 Q1015
13-05-04 METAR LIMC 041620Z 30005KT 9999 SCT040 SCT070 21/10 Q1015 NOSIG
13-05-04 METAR LIMC 041650Z 31006KT CAVOK 21/09 Q1015 NOSIG
13-05-04 METAR LIMC 041720Z 28006KT CAVOK 20/09 Q1015 NOSIG
13-05-04 METAR LIMC 041750Z 28005KT CAVOK 19/09 Q1015 NOSIG
13-05-04 METAR LIMC 041820Z 29003KT CAVOK 19/10 Q1015 NOSIG
13-05-04 METAR LIMC 041850Z 20003KT CAVOK 16/10 Q1015 NOSIG
13-05-04 METAR LIMC 041920Z VRB02KT CAVOK 16/10 Q1016 NOSIG
13-05-04 METAR LIMC 041950Z 28004KT CAVOK 14/10 Q1016 NOSIG
13-05-04 METAR LIMC 042020Z 29003KT CAVOK 13/10 Q1016 NOSIG
13-05-04 METAR LIMC 042050Z 30003KT CAVOK 13/09 Q1017 NOSIG
13-05-04 METAR LIMC 042120Z 28004KT CAVOK 13/08 Q1017 NOSIG
13-05-04 METAR LIMC 042150Z 30004KT CAVOK 12/08 Q1017 NOSIG
13-05-04 METAR LIMC 042220Z VRB02KT CAVOK 12/09 Q1017 NOSIG
13-05-04 METAR LIMC 042250Z 30004KT CAVOK 12/09 Q1017 NOSIG
13-05-04 METAR LIMC 042320Z 31004KT CAVOK 12/08 Q1017 NOSIG
13-05-04 METAR LIMC 042350Z 31003KT CAVOK 13/08 Q1017 NOSIG
13-05-05 METAR LIMC 050020Z 31004KT CAVOK 12/08 Q1017 NOSIG
13-05-05 METAR LIMC 050050Z 31003KT CAVOK 13/07 Q1017 NOSIG
13-05-05 METAR LIMC 050120Z 30004KT CAVOK 11/07 Q1017 NOSIG
13-05-05 METAR LIMC 050150Z 30003KT CAVOK 11/07 Q1016 NOSIG
13-05-05 METAR LIMC 050220Z 30003KT CAVOK 09/07 Q1016 NOSIG
13-05-05 METAR LIMC 050250Z 31004KT CAVOK 11/06 Q1016 NOSIG
13-05-05 METAR LIMC 050320Z 30003KT CAVOK 11/06 Q1016 NOSIG
13-05-05 METAR LIMC 050350Z 30003KT CAVOK 10/06 Q1016 NOSIG
13-05-05 METAR LIMC 050420Z 30003KT CAVOK 11/06 Q1017 NOSIG
13-05-05 METAR LIMC 050450Z 29003KT CAVOK 10/07 Q1017 NOSIG
13-05-05 METAR LIMC 050520Z VRB02KT CAVOK 11/08 Q1017 NOSIG
13-05-05 METAR LIMC 050550Z VRB03KT CAVOK 14/08 Q1018 NOSIG
13-05-05 METAR LIMC 050620Z 29003KT CAVOK 16/07 Q1018 NOSIG
13-05-05 METAR LIMC 050650Z 29004KT CAVOK 17/08 Q1018 NOSIG
13-05-05 METAR LIMC 050720Z 29005KT 9999 FEW045 18/09 Q1018 NOSIG
13-05-05 METAR LIMC 050750Z 30004KT CAVOK 19/08 Q1018 NOSIG
13-05-05 METAR LIMC 050820Z VRB01KT CAVOK 21/08 Q1018 NOSIG
13-05-05 METAR LIMC 050850Z VRB03KT CAVOK 22/09 Q1018 NOSIG
13-05-05 METAR LIMC 050920Z 18002KT 9999 FEW070 22/10 Q1018 NOSIG
13-05-05 METAR LIMC 050950Z VRB03KT 9999 FEW090 23/08 Q1018 NOSIG
13-05-05 METAR LIMC 051020Z VRB03KT 9999 FEW040 SCT070 23/08 Q1018 NOSIG
13-05-05 METAR LIMC 051050Z 15005KT 080V190 9999 SCT040 BKN085 22/10 Q1018 NOSIG
13-05-05 METAR LIMC 051120Z 15005KT 090V170 9999 SCT040 BKN085 22/09 Q1018 NOSIG
13-05-05 METAR LIMC 051150Z 16006KT 120V180 9999 SCT050 SCT090 22/09 Q1018 NOSIG
13-05-05 METAR LIMC 051220Z 16006KT 9999 SCT050 SCT090 21/10 Q1018 NOSIG
13-05-05 METAR LIMC 051250Z 18005KT 140V200 9999 SCT060 BKN090 21/10 Q1018 NOSIG
13-05-05 METAR LIMC 051320Z 18006KT 9999 SCT060 BKN090 20/10 Q1018 NOSIG
13-05-05 METAR LIMC 051350Z 21006KT 9999 SCT060 BKN090 19/10 Q1017 NOSIG
13-05-05 METAR LIMC 051420Z 20006KT 9999 SCT035 BKN070 19/12 Q1018 NOSIG
13-05-05 METAR LIMC 051450Z 22004KT 9999 FEW035 BKN070 19/12 Q1017 NOSIG
13-05-05 METAR LIMC 051520Z 24005KT 210V270 9999 FEW035 BKN070 19/13 Q1017 NOSIG
13-05-05 METAR LIMC 051550Z 23004KT 210V270 9999 FEW035 BKN070 19/13 Q1017 NOSIG
13-05-05 METAR LIMC 051620Z 23004KT 9999 FEW035 SCT070 19/11 Q1017 NOSIG
13-05-05 METAR LIMC 051650Z NIL
13-05-05 METAR LIMC 051650Z 20006KT 9999 SCT035 SCT070 19/12 Q1017 NOSIG
13-05-05 METAR LIMC 051720Z 20005KT 9999 SCT035 OVC070 18/12 Q1017 NOSIG
13-05-05 METAR LIMC 051750Z 17010KT 9999 SCT035 OVC070 16/11 Q1018 NOSIG
13-05-05 METAR LIMC 051820Z 17009KT 9999 SCT055 OVC080 15/12 Q1018 NOSIG
13-05-05 METAR LIMC 051850Z 16004KT 110V200 9999 -RA SCT055 OVC080 14/13 Q1019 NOSIG
13-05-05 METAR LIMC 051920Z VRB02KT 9999 RA SCT055 OVC080 14/13 Q1019 NOSIG
13-05-05 METAR LIMC 051950Z VRB02KT 9999 RA SCT055 OVC080 13/13 Q1019 NOSIG
13-05-05 METAR LIMC 052020Z 22002KT 9999 -RA FEW001 BKN055 BKN080 13/13 Q1019 RERA
13-05-05 METAR LIMC 052050Z 26003KT 220V280 9999 -RA BKN050 BKN080 13/13 Q1020
13-05-05 METAR LIMC 052120Z 32004KT 9999 -RA BKN050 BKN080 13/13 Q1019 NOSIG
13-05-05 METAR LIMC 052150Z 32003KT 290V350 9999 RA BKN050 BKN080 13/13 Q1019 NOSIG
13-05-05 METAR LIMC 052220Z 29005KT 270V340 9999 -RA BKN050 BKN080 14/13 Q1019 RERA
13-05-05 METAR LIMC 052250Z 27004KT 9999 -RA BKN050 BKN080 14/13 Q1019 NOSIG
13-05-05 METAR LIMC 052320Z 29004KT 9999 RA BKN040 BKN080 13/13 Q1019 NOSIG
13-05-05 METAR LIMC 052350Z 29004KT 9999 RA BKN040 BKN080 13/13 Q1019 NOSIG
13-05-06 METAR LIMC 060020Z 30004KT 9999 RA BKN040 BKN080 13/13 Q1018 NOSIG
13-05-06 METAR LIMC 060050Z 30004KT 9999 RA BKN040 BKN080 13/13 Q1018 NOSIG
13-05-06 METAR LIMC 060120Z NIL
13-05-06 METAR LIMC 060120Z 31004KT 9999 RA BKN040 BKN080 13/13 Q1018 NOSIG
13-05-06 METAR LIMC 060150Z 30004KT 9999 RA BKN040 BKN080 13/13 Q1017 NOSIG
13-05-06 METAR LIMC 060220Z 30003KT 9999 RA BKN040 BKN080 13/13 Q1017 NOSIG
13-05-06 METAR LIMC 060250Z 30003KT 9999 RA BKN040 BKN080 13/13 Q1017 NOSIG
13-05-06 METAR LIMC 060320Z 30003KT 6000 RA BKN040 BKN080 13/13 Q1017 NOSIG
13-05-06 METAR LIMC 060350Z 30003KT 6000 RA BKN040 BKN080 13/13 Q1017 NOSIG
13-05-06 METAR LIMC 060420Z 30003KT 8000 DZ BKN040 BKN070 13/13 Q1016 RERA NOSIG
13-05-06 METAR LIMC 060450Z 29004KT 8000 BKN030 BKN050 13/13 Q1016 REDZ NOSIG
13-05-06 METAR LIMC 060520Z 29003KT 270V070 9999 BKN035 BKN080 14/13 Q1017 NOSIG
13-05-06 METAR LIMC 060550Z VRB02KT 9999 BKN035 BKN080 14/14 Q1017 NOSIG
13-05-06 METAR LIMC 060620Z VRB03KT 9999 -RA BKN035 BKN080 14/14 Q1017 NOSIG
13-05-06 METAR LIMC 060650Z 20003KT 9999 -RA SCT030 BKN080 14/14 Q1017 NOSIG
13-05-06 METAR LIMC 060720Z 21004KT 9999 -RA SCT030 BKN080 15/14 Q1017 NOSIG
13-05-06 METAR LIMC 060750Z 20004KT 9999 SCT030 OVC080 15/14 Q1017 NOSIG
13-05-06 METAR LIMC 060820Z 20005KT 9999 SCT030 OVC080 15/14 Q1017 NOSIG
13-05-06 METAR LIMC 060850Z 24002KT 9999 SCT030 OVC080 15/15 Q1017 NOSIG
13-05-06 METAR LIMC 060920Z 22003KT 200V260 9999 SCT030 OVC080 16/15 Q1017 NOSIG
13-05-06 METAR LIMC 060950Z 24002KT 9999 FEW012 SCT030 OVC080 16/14 Q1017 NOSIG
13-05-06 METAR LIMC 061020Z 26003KT 9999 SCT012 BKN080 16/15 Q1017 NOSIG
13-05-06 METAR LIMC 061050Z 22003KT 200V260 9999 SCT015 BKN080 16/14 Q1017 NOSIG
13-05-06 METAR LIMC 061120Z VRB01KT 9999 SCT015 BKN080 17/14 Q1017 NOSIG
13-05-06 METAR LIMC 061150Z 20004KT 9999 SCT015 BKN080 17/13 Q1017 NOSIG
13-05-06 METAR LIMC 061220Z 22003KT 190V270 9999 SCT015 BKN080 18/14 Q1017 NOSIG
13-05-06 METAR LIMC 061250Z 22003KT 190V270 9999 SCT020 BKN060 18/14 Q1016 NOSIG
13-05-06 METAR LIMC 061320Z 25003KT 210V280 9999 SCT020 BKN060 19/13 Q1016 NOSIG
13-05-06 METAR LIMC 061350Z 24004KT 200V290 9999 SCT030 SCT050 20/13 Q1016 NOSIG
13-05-06 METAR LIMC 061420Z 26004KT 210V280 9999 SCT030 SCT050 20/13 Q1016 NOSIG
13-05-06 METAR LIMC 061450Z 25003KT 110V280 9999 SCT030 SCT050 20/13 Q1015 NOSIG
13-05-06 METAR LIMC 061520Z 25003KT 200V280 9999 SCT040 20/13 Q1015 NOSIG
13-05-06 METAR LIMC 061550Z 24003KT 210V270 9999 SCT040 19/13 Q1015 NOSIG
13-05-06 METAR LIMC 061620Z 21004KT 9999 FEW040 SCT080 19/13 Q1015 NOSIG
13-05-06 METAR LIMC 061650Z 24003KT 9999 FEW040 SCT060 19/12 Q1015 NOSIG
13-05-06 METAR LIMC 061720Z 23002KT 9999 SCT030TCU BKN060 19/11 Q1015 NOSIG
13-05-06 METAR LIMC 061750Z 04004KT 280V090 9999 SCT030TCU BKN060 18/13 Q1015 NOSIG
13-05-06 METAR LIMC 061820Z 13003KT 070V180 9999 SCT030 BKN060 17/14 Q1015 NOSIG
13-05-06 METAR LIMC 061850Z 17003KT 050V200 9999 SCT030 BKN060 16/15 Q1015 NOSIG
13-05-06 METAR LIMC 061920Z VRB02KT 9999 SCT060 15/15 Q1015 NOSIG
13-05-06 METAR LIMC 061950Z VRB02KT 9999 SCT060 14/14 Q1015 NOSIG
13-05-06 METAR LIMC 062020Z 21004KT 9999 SCT060 14/14 Q1015 NOSIG
13-05-06 METAR LIMC 062050Z VRB01KT CAVOK 13/13 Q1015 NOSIG
13-05-06 METAR LIMC 062120Z VRB01KT CAVOK 12/12 Q1015 NOSIG
13-05-06 METAR LIMC 062150Z 00000KT CAVOK 12/12 Q1015 NOSIG
13-05-06 METAR LIMC 062220Z 21003KT CAVOK 11/11 Q1015 NOSIG
13-05-06 METAR LIMC 062250Z VRB01KT CAVOK 12/12 Q1015 NOSIG
13-05-06 METAR LIMC 062320Z 28003KT 270V020 CAVOK 10/10 Q1015 NOSIG
13-05-06 METAR LIMC 062350Z 30004KT CAVOK 10/10 Q1015 NOSIG
13-05-07 METAR LIMC 070020Z 29003KT CAVOK 11/11 Q1015 NOSIG
13-05-07 METAR LIMC 070050Z 29003KT CAVOK 12/12 Q1015 NOSIG
13-05-07 METAR LIMC 070120Z VRB02KT CAVOK 12/12 Q1015 NOSIG
13-05-07 METAR LIMC 070150Z 28003KT CAVOK 12/12 Q1014 NOSIG
13-05-07 METAR LIMC 070220Z 31003KT 290V050 CAVOK 12/12 Q1014 NOSIG
13-05-07 METAR LIMC 070250Z 00000KT CAVOK 11/11 Q1014 NOSIG
13-05-07 METAR LIMC 070320Z 28004KT CAVOK 10/10 Q1014 NOSIG
13-05-07 METAR LIMC 070350Z 30003KT CAVOK 10/10 Q1014 NOSIG
13-05-07 METAR LIMC 070420Z 30004KT CAVOK 10/10 Q1014 NOSIG
13-05-07 METAR LIMC 070450Z 29003KT 280V010 CAVOK 10/10 Q1014 NOSIG
13-05-07 METAR LIMC 070520Z 30003KT 280V060 CAVOK 12/12 Q1014 NOSIG
13-05-07 METAR LIMC 070550Z 29004KT CAVOK 14/14 Q1014 NOSIG
13-05-07 METAR LIMC 070620Z 29003KT CAVOK 16/14 Q1014 NOSIG
13-05-07 METAR LIMC 070650Z VRB03KT CAVOK 17/14 Q1014 NOSIG
13-05-07 METAR LIMC 070720Z 00000KT CAVOK 18/14 Q1014 NOSIG
13-05-07 METAR LIMC 070750Z VRB01KT CAVOK 19/13 Q1014 NOSIG
13-05-07 METAR LIMC 070820Z 00000KT CAVOK 20/13 Q1014 NOSIG
13-05-07 METAR LIMC 070850Z VRB02KT CAVOK 19/12 Q1014 NOSIG
13-05-07 METAR LIMC 070920Z 23003KT 9999 SCT040 20/12 Q1014 NOSIG
13-05-07 METAR LIMC 070950Z 21005KT 170V250 9999 SCT040 20/13 Q1014 NOSIG
13-05-07 METAR LIMC 071020Z 21005KT 9999 FEW030 SCT050 21/11 Q1014 NOSIG
13-05-07 METAR LIMC 071050Z 19006KT 9999 FEW030 SCT050 20/13 Q1014 NOSIG
13-05-07 METAR LIMC 071120Z 20005KT 9999 FEW030 SCT050 21/14 Q1014 NOSIG
13-05-07 METAR LIMC 071150Z 19006KT 9999 FEW030 SCT050 21/13 Q1013 NOSIG
13-05-07 METAR LIMC 071220Z 21007KT 190V250 9999 FEW030 SCT060 21/12 Q1013 NOSIG
13-05-07 METAR LIMC 071250Z 20007KT 170V240 9999 SCT035 22/13 Q1013 NOSIG
13-05-07 METAR LIMC 071320Z 20006KT 9999 SCT035 20/13 Q1013 NOSIG
13-05-07 METAR LIMC 071350Z 24004KT 9999 SCT035 20/13 Q1013 NOSIG
13-05-07 METAR LIMC 071420Z 22003KT 9999 SCT035 20/12 Q1013 NOSIG
13-05-07 METAR LIMC 071450Z 20005KT 9999 SCT035 21/12 Q1013 NOSIG
13-05-07 METAR LIMC 071520Z 19004KT 170V240 9999 SCT035 21/13 Q1012 NOSIG
13-05-07 METAR LIMC 071550Z 20004KT 9999 SCT035 22/12 Q1012 NOSIG
13-05-07 METAR LIMC 071620Z VRB03KT 9999 FEW025TCU SCT035 21/12 Q1013 BECMG TS
13-05-07 METAR LIMC 071650Z 05004KT 360V070 9999 FEW025TCU SCT035 19/10 Q1013 BECMG TS
13-05-07 METAR LIMC 071720Z 05004KT 020V080 9999 VCTS FEW025CB SCT035 18/10 Q1013 NOSIG
13-05-07 METAR LIMC 071750Z 05003KT 320V100 9999 VCTS FEW025CB SCT035 17/10 Q1013
13-05-07 METAR LIMC 071820Z VRB02KT 9999 VCTS FEW025CB SCT035 BKN080 17/10 Q1014 RETS NOSIG
13-05-07 METAR LIMC 071850Z 18004KT 9999 VCTS FEW025CB SCT035 BKN080 16/10 Q1014
13-05-07 METAR LIMC 071920Z 19003KT 9999 VCTS FEW035CB SCT040 BKN080 16/11 Q1014
13-05-07 METAR LIMC 071950Z 20004KT 9999 SCT040 BKN080 16/12 Q1014 NOSIG
13-05-07 METAR LIMC 072020Z 20004KT 9999 BKN080 15/12 Q1015 NOSIG
13-05-07 METAR LIMC 072050Z 00000KT 9999 BKN080 15/12 Q1015 NOSIG
13-05-07 METAR LIMC 072120Z 28005KT 9999 BKN080 14/12 Q1015 NOSIG
13-05-07 METAR LIMC 072220Z VRB03KT CAVOK 12/11 Q1015 NOSIG
13-05-07 METAR LIMC 072250Z 29004KT CAVOK 12/12 Q1015 NOSIG
13-05-07 METAR LIMC 072320Z 29003KT 9999 SCT080 13/13 Q1015 NOSIG
13-05-07 METAR LIMC 072350Z 30003KT 9999 SCT080 13/12 Q1015 NOSIG
13-05-08 METAR LIMC 080020Z VRB03KT 9999 SCT080 12/11 Q1015 NOSIG
13-05-08 METAR LIMC 080050Z 29003KT 9999 SCT080 11/12 Q1015 NOSIG
13-05-08 METAR LIMC 080120Z VRB02KT CAVOK 11/11 Q1015 NOSIG
13-05-08 METAR LIMC 080150Z 29003KT CAVOK 10/10 Q1015 NOSIG
13-05-08 METAR LIMC 080220Z 29003KT 270V360 CAVOK 10/10 Q1015 NOSIG
13-05-08 METAR LIMC 080250Z 29003KT CAVOK 11/11 Q1014 NOSIG
13-05-08 METAR LIMC 080320Z 29004KT 9999 SCT050 10/10 Q1014 NOSIG
13-05-08 METAR LIMC 080350Z 30003KT 9999 FEW050 10/10 Q1014 NOSIG
13-05-08 METAR LIMC 080420Z VRB02KT CAVOK 09/09 Q1015 NOSIG
13-05-08 METAR LIMC 080450Z VRB01KT CAVOK 09/09 Q1015 NOSIG
13-05-08 METAR LIMC 080520Z VRB02KT CAVOK 12/12 Q1015 NOSIG
13-05-08 METAR LIMC 080550Z 29004KT CAVOK 14/12 Q1015 NOSIG
13-05-08 METAR LIMC 080620Z 29003KT CAVOK 15/12 Q1016 NOSIG
13-05-08 METAR LIMC 080650Z 28004KT CAVOK 17/11 Q1016 NOSIG
13-05-08 METAR LIMC 080720Z 31003KT 280V040 9999 FEW070 17/11 Q1016 NOSIG
13-05-08 METAR LIMC 080750Z VRB02KT 9999 FEW070 18/11 Q1016 NOSIG
13-05-08 METAR LIMC 080820Z VRB02KT 9999 FEW070 19/11 Q1016 NOSIG
13-05-08 METAR LIMC 080850Z 00000KT CAVOK 20/10 Q1016 NOSIG
13-05-08 METAR LIMC 080920Z VRB03KT CAVOK 20/10 Q1015 NOSIG
13-05-08 METAR LIMC 080950Z 21003KT 160V270 CAVOK 21/12 Q1015 NOSIG
13-05-08 METAR LIMC 081020Z 20005KT 130V250 9999 FEW025 20/11 Q1015 NOSIG
13-05-08 METAR LIMC 081050Z 20005KT 170V270 9999 FEW025 21/11 Q1015 NOSIG
13-05-08 METAR LIMC 081120Z VRB03KT 9999 FEW025 21/10 Q1015 NOSIG
13-05-08 METAR LIMC 081150Z 25003KT 210V280 9999 FEW025 22/11 Q1015 NOSIG
13-05-08 METAR LIMC 081220Z VRB03KT 9999 FEW025 23/12 Q1015 NOSIG
13-05-08 METAR LIMC 081250Z 19005KT 9999 FEW025 22/10 Q1015 NOSIG
13-05-08 METAR LIMC 081320Z 20005KT 150V290 9999 FEW025 23/11 Q1015 NOSIG
13-05-08 METAR LIMC 081350Z 22002KT 9999 FEW025 23/10 Q1014 NOSIG
13-05-08 METAR LIMC 081420Z 19005KT 110V210 9999 FEW025 23/11 Q1014 NOSIG
13-05-08 METAR LIMC 081450Z 19006KT 9999 FEW030 23/11 Q1014 NOSIG
13-05-08 METAR LIMC 081520Z 19005KT 9999 FEW030 23/11 Q1013 NOSIG
13-05-08 METAR LIMC 081550Z 20005KT 9999 FEW030 23/11 Q1013 NOSIG
13-05-08 METAR LIMC 081620Z 20006KT 9999 SCT030 22/11 Q1014 NOSIG
13-05-08 METAR LIMC 081650Z 21005KT 9999 BKN030 21/12 Q1014 NOSIG
13-05-08 METAR LIMC 081720Z 21005KT 9999 FEW030 21/12 Q1014 NOSIG
13-05-08 METAR LIMC 081750Z 21004KT 9999 FEW030 20/12 Q1014 NOSIG
13-05-08 METAR LIMC 081820Z 22003KT 9999 FEW030 20/12 Q1015 NOSIG
13-05-08 METAR LIMC 081850Z VRB02KT 9999 FEW030 18/13 Q1015 NOSIG
13-05-08 METAR LIMC 081920Z NIL
13-05-08 METAR LIMC 081920Z 19003KT 070V210 CAVOK 17/13 Q1015 NOSIG
13-05-08 METAR LIMC 081950Z VRB02KT CAVOK 17/14 Q1016 NOSIG
13-05-08 METAR LIMC 082020Z VRB02KT CAVOK 16/13 Q1016 NOSIG
13-05-08 METAR LIMC 082050Z VRB02KT CAVOK 15/14 Q1016 NOSIG
13-05-08 METAR LIMC 082120Z 29003KT 270V050 CAVOK 15/13 Q1016 NOSIG
13-05-08 METAR LIMC 082150Z 00000KT CAVOK 14/13 Q1016 NOSIG
13-05-08 METAR LIMC 082220Z VRB02KT CAVOK 14/13 Q1016 NOSIG
13-05-08 METAR LIMC 082250Z VRB02KT CAVOK 14/13 Q1016 NOSIG
13-05-08 METAR LIMC 082320Z VRB02KT CAVOK 14/13 Q1016 NOSIG
13-05-08 METAR LIMC 082350Z VRB02KT CAVOK 16/13 Q1017 NOSIG
13-05-09 METAR LIMC 090020Z 28003KT CAVOK 15/13 Q1016 NOSIG
13-05-09 METAR LIMC 090050Z VRB02KT CAVOK 14/13 Q1016 NOSIG
13-05-09 METAR LIMC 090120Z VRB02KT CAVOK 14/12 Q1016 NOSIG
13-05-09 METAR LIMC 090150Z 29003KT CAVOK 13/12 Q1016 NOSIG
13-05-09 METAR LIMC 090220Z 30003KT CAVOK 13/13 Q1016 NOSIG
13-05-09 METAR LIMC 090250Z NIL
13-05-09 METAR LIMC 090320Z 29003KT 280V040 CAVOK 13/13 Q1016 NOSIG
13-05-09 METAR LIMC 090350Z 29003KT CAVOK 14/13 Q1016 NOSIG
13-05-09 METAR LIMC 090420Z 29003KT CAVOK 14/13 Q1016 NOSIG
13-05-09 METAR LIMC 090450Z 29003KT CAVOK 14/13 Q1016 NOSIG
13-05-09 METAR LIMC 090520Z 27003KT 210V280 CAVOK 14/13 Q1016 NOSIG
13-05-09 METAR LIMC 090550Z VRB02KT CAVOK 16/14 Q1016 NOSIG
13-05-09 METAR LIMC 090620Z 29004KT CAVOK 17/14 Q1016 NOSIG
13-05-09 METAR LIMC 090650Z VRB01KT CAVOK 20/14 Q1017 NOSIG
13-05-09 METAR LIMC 090720Z 23002KT 9999 SCT070 20/14 Q1017 NOSIG
13-05-09 METAR LIMC 090750Z VRB02KT 9999 SCT070 20/15 Q1017 NOSIG
13-05-09 METAR LIMC 090820Z VRB03KT CAVOK 21/13 Q1017 NOSIG
13-05-09 METAR LIMC 090850Z VRB02KT CAVOK 21/12 Q1017 NOSIG
13-05-09 METAR LIMC 090920Z 26003KT 220V280 CAVOK 22/13 Q1016 NOSIG
13-05-09 METAR LIMC 090950Z 23003KT 200V260 9999 FEW030 22/13 Q1016 NOSIG
13-05-09 METAR LIMC 091020Z 25003KT 210V280 9999 FEW030 23/13 Q1016 NOSIG
13-05-09 METAR LIMC 091050Z VRB02KT 9999 SCT030 22/12 Q1016 NOSIG
13-05-09 METAR LIMC 091120Z 22003KT 180V280 9999 SCT030 23/13 Q1016 NOSIG
13-05-09 METAR LIMC 091150Z 20004KT 170V260 9999 SCT030 24/12 Q1016 NOSIG
13-05-09 METAR LIMC 091220Z 20004KT 170V260 9999 SCT040 23/12 Q1015 NOSIG
13-05-09 METAR LIMC 091250Z 19004KT 150V240 9999 SCT040 24/12 Q1015 NOSIG
13-05-09 METAR LIMC 091320Z 20003KT 070V240 9999 SCT040 24/12 Q1015 NOSIG
13-05-09 METAR LIMC 091350Z 19004KT 160V240 9999 SCT040 24/12 Q1015 NOSIG
13-05-09 METAR LIMC 091420Z 21003KT 180V270 9999 SCT040 BKN090 24/11 Q1015 NOSIG
13-05-09 METAR LIMC 091450Z 23003KT 180V280 9999 SCT040 BKN090 24/12 Q1014 NOSIG
13-05-09 METAR LIMC 091520Z 24002KT 9999 SCT040 BKN090 24/11 Q1014 NOSIG
13-05-09 METAR LIMC 091550Z 29004KT 9999 SCT040 BKN090 23/11 Q1014 NOSIG
13-05-09 METAR LIMC 091620Z 32003KT 9999 BKN070 23/12 Q1014 NOSIG
13-05-09 METAR LIMC 091650Z 30004KT 9999 BKN070 22/12 Q1014 NOSIG
13-05-09 METAR LIMC 091720Z 31004KT 9999 BKN070 22/12 Q1014 NOSIG
13-05-09 METAR LIMC 091750Z 31005KT 9999 BKN070 21/11 Q1014 NOSIG
13-05-09 METAR LIMC 091820Z 30004KT 9999 BKN070 20/11 Q1014 NOSIG
13-05-09 METAR LIMC 091850Z 31003KT 9999 BKN070 20/10 Q1014 NOSIG
13-05-09 METAR LIMC 091920Z 31003KT 9999 BKN070 19/10 Q1014 NOSIG
13-05-09 METAR LIMC 091950Z 30003KT 9999 BKN070 19/11 Q1014 NOSIG
13-05-09 METAR LIMC 092020Z 30003KT 280V010 9999 BKN060 19/11 Q1014 NOSIG
13-05-09 METAR LIMC 092050Z 29003KT 280V030 9999 BKN060 19/11 Q1013 NOSIG
13-05-09 METAR LIMC 092120Z 28003KT 250V050 9999 BKN070 18/11 Q1013 NOSIG
13-05-09 METAR LIMC 092150Z 20003KT 9999 BKN070 18/12 Q1013 NOSIG
13-05-09 METAR LIMC 092220Z 20004KT 9999 BKN070 18/12 Q1013 NOSIG
13-05-09 METAR LIMC 092250Z VRB02KT 9999 BKN070 18/12 Q1013 NOSIG
13-05-09 METAR LIMC 092350Z VRB02KT 9999 -RA BKN030 OVC070 17/12 Q1013 NOSIG
13-05-10 METAR LIMC 100050Z 29003KT 9999 -RA BKN030 OVC070 16/14 Q1013 NOSIG
13-05-10 METAR LIMC 100120Z 06002KT 9999 -RA BKN030 OVC070 16/14 Q1012 NOSIG
13-05-10 METAR LIMC 100150Z 05003KT 040V100 9999 -RA BKN030 OVC070 16/14 Q1012 NOSIG
13-05-10 METAR LIMC 100220Z VRB02KT 9999 -RA BKN030 OVC070 15/15 Q1012 NOSIG
13-05-10 METAR LIMC 100250Z 31004KT 9999 -RA BKN030 OVC070 15/15 Q1012 NOSIG
13-05-10 METAR LIMC 100320Z 29003KT 9999 -RA BKN030 OVC070 15/15 Q1012 NOSIG
13-05-10 METAR LIMC 100350Z 29005KT 9999 -RA BKN030 OVC070 15/15 Q1012 NOSIG
13-05-10 METAR LIMC 100420Z 30004KT 7000 -RA BKN030 OVC070 15/15 Q1012 NOSIG
13-05-10 METAR LIMC 100450Z 29004KT 280V010 7000 BKN025 15/15 Q1012 NOSIG
13-05-10 METAR LIMC 100550Z 30005KT 5000 -RA BKN025 BKN040 15/15 Q1013 NOSIG
13-05-10 METAR LIMC 100620Z 30003KT 280V010 5000 -RA BKN025 BKN040 15/15 Q1013
13-05-10 METAR LIMC 100650Z VRB02KT 3000 RA BR BKN015 OVC035 15/15 Q1013 NOSIG
13-05-10 METAR LIMC 100720Z VRB02KT 3000 -RA BR BKN015 OVC035 15/15 Q1013 RERA
13-05-10 METAR LIMC 100750Z 29005KT 3000 -RA BR BKN010 OVC035 15/15 Q1013 NOSIG
13-05-10 METAR LIMC 100820Z 33004KT 300V360 2500 RA BR BKN010 OVC035 14/14 Q1013
13-05-10 METAR LIMC 100850Z 30004KT 270V350 2000 RA BR BKN006 OVC030 14/14 Q1013
13-05-10 METAR LIMC 100920Z 34004KT 1500 RA BR BKN006 OVC030 14/14 Q1013 NOSIG
13-05-10 METAR LIMC 100950Z 06003KT 3000 RA BR SCT006 BKN030 15/15 Q1013 NOSIG
13-05-10 METAR LIMC 101020Z 31003KT 280V050 7000 RA SCT010 BKN030 16/15 Q1013 NOSIG
13-05-10 METAR LIMC 101050Z VRB04KT 9999 SCT020 BKN050 16/15 Q1013 RERA NOSIG
13-05-10 METAR LIMC 101120Z 32003KT 290V030 9999 SCT020 BKN050 17/15 Q1013 RERA
13-05-10 METAR LIMC 101150Z 36003KT 280V080 9999 SCT015 BKN050 18/14 Q1013 NOSIG
13-05-10 METAR LIMC 101220Z 07002KT 9999 BKN015 BKN050 19/15 Q1013 NOSIG
13-05-10 METAR LIMC 101250Z VRB03KT 9999 BKN015 SCT050 19/13 Q1012 NOSIG
13-05-10 METAR LIMC 101320Z NIL
13-05-10 METAR LIMC 101320Z 15003KT 070V190 9999 SCT020 19/14 Q1012 NOSIG
13-05-10 METAR LIMC 101350Z 13004KT 040V190 9999 SCT020 19/13 Q1012 NOSIG
13-05-10 METAR LIMC 101420Z VRB03KT 9999 VCSH FEW025CB SCT030 BKN060 20/13 Q1012
13-05-10 METAR LIMC 101450Z 17004KT 9999 VCSH FEW025CB SCT030 BKN060 19/13 Q1012
13-05-10 METAR LIMC 101520Z 19004KT 9999 VCTS FEW025CB SCT030 BKN060 19/13 Q1012 BECMG TS
13-05-10 METAR LIMC 101550Z 21005KT 9999 VCTS FEW025CB SCT030 BKN060 19/13 Q1012
13-05-10 METAR LIMC 101620Z 21004KT 9999 -RA VCTS FEW025CB SCT030 BKN060 18/14 Q1012
13-05-10 METAR LIMC 101650Z 25004KT 220V280 9999 RA SCT040 BKN060 17/16 Q1012 NOSIG
13-05-10 METAR LIMC 101720Z 29004KT 9999 -RA SCT040 BKN060 17/16 Q1011 RERA NOSIG
13-05-10 METAR LIMC 101750Z VRB02KT 9999 -RA SCT040 BKN060 16/16 Q1012 NOSIG
13-05-10 METAR LIMC 101820Z 29003KT 270V070 9999 -RA SCT040 BKN060 16/16 Q1012
13-05-10 METAR LIMC 101850Z 30004KT 9999 -RA SCT040 BKN060 16/16 Q1012 NOSIG
13-05-10 METAR LIMC 101920Z 29004KT 9999 -RA SCT040 BKN060 15/15 Q1012 NOSIG
13-05-10 METAR LIMC 101950Z VRB02KT 9999 -RA SCT040 BKN060 15/15 Q1012 NOSIG
13-05-10 METAR LIMC 102020Z VRB03KT 9999 SCT040 BKN060 14/14 Q1012 NOSIG
13-05-10 METAR LIMC 102050Z 18003KT 9999 BKN060 14/14 Q1012 NOSIG
13-05-10 METAR LIMC 102120Z 21002KT 9999 FEW060 13/13 Q1012 NOSIG
13-05-10 METAR LIMC 102150Z VRB01KT 9999 MIFG FEW060 13/13 Q1012 NOSIG
13-05-10 METAR LIMC 102220Z VRB02KT 9999 R35L/0400V1500D MIFG SCT060 12/12 Q1012
13-05-10 METAR LIMC 102250Z VRB02KT 9999 1500W VCFG FEW060 11/11 Q1012 NOSIG
13-05-10 METAR LIMC 102320Z 28003KT 9999 2000W BCFG FEW060 11/11 Q1012 NOSIG
13-05-10 METAR LIMC 102350Z 29003KT 280V030 9999 4000W BCFG SCT060 12/12 Q1012
13-05-11 METAR LIMC 110020Z VRB02KT 9999 SCT060 11/11 Q1011 NOSIG
13-05-11 METAR LIMC 110050Z 28003KT 9999 BCFG SCT060 11/11 Q1011 NOSIG
13-05-11 METAR LIMC 110120Z VRB02KT 9999 BCFG NSC 10/10 Q1011 NOSIG
13-05-11 METAR LIMC 110150Z 27003KT 9999 0900E BCFG NSC 10/10 Q1011 NOSIG
13-05-11 METAR LIMC 110220Z VRB02KT 9999 BCFG NSC 11/11 Q1011 NOSIG
13-05-11 METAR LIMC 110250Z 29003KT 280V050 2000 0800E R35L/0250V0600D BCFG NSC 10/11 Q1011 NOSIG
13-05-11 METAR LIMC 110320Z VRB02KT 0500 R35L/0600V0800D FG NSC 11/11 Q1011 NOSIG
13-05-11 METAR LIMC 110350Z 29003KT 0500 R35L/0400V0550N FG NSC 13/13 Q1010 NOSIG
13-05-11 METAR LIMC 110420Z 29004KT 0500 R35L/0400V0600N FG NSC 13/13 Q1011 NOSIG
13-05-11 METAR LIMC 110450Z 30004KT 1200 R35L///// BR OVC002 13/13 Q1011 NOSIG
13-05-11 METAR LIMC 110520Z 31003KT 0900 R35L/1500N BCFG BKN002 13/13 Q1011 NOSIG
13-05-11 METAR LIMC 110550Z 30003KT 280V350 1800 BR BKN005 14/14 Q1011 NOSIG
13-05-11 METAR LIMC 110620Z VRB03KT 2500 BR BKN005 15/14 Q1011 NOSIG
13-05-11 METAR LIMC 110650Z 29004KT 3000 BR SCT010 15/15 Q1011 NOSIG
13-05-11 METAR LIMC 110720Z 29003KT 280V040 3500 BR SCT010 SCT070 16/15 Q1011 NOSIG
13-05-11 METAR LIMC 110750Z VRB02KT 9999 SCT012 SCT070 17/14 Q1011 NOSIG
13-05-11 METAR LIMC 110820Z VRB02KT 9999 FEW012 18/15 Q1011 NOSIG
13-05-11 METAR LIMC 110820Z NIL
13-05-11 METAR LIMC 110850Z 20004KT 170V230 9999 SCT012 18/15 Q1011 NOSIG
13-05-11 METAR LIMC 110920Z 23003KT 170V270 9999 FEW018 SCT030 19/14 Q1011 NOSIG
13-05-11 METAR LIMC 110950Z VRB04KT 9999 FEW024 19/14 Q1011 NOSIG
13-05-11 METAR LIMC 111020Z 22004KT 200V270 9999 FEW024 19/13 Q1011 NOSIG
13-05-11 METAR LIMC 111050Z 21005KT 180V270 9999 FEW024 21/12 Q1010 NOSIG
13-05-11 METAR LIMC 111120Z 23004KT 200V270 9999 FEW024 21/12 Q1010 NOSIG
13-05-11 METAR LIMC 111150Z NIL
13-05-11 METAR LIMC 111150Z 21006KT 9999 FEW024 21/11 Q1010 NOSIG
13-05-11 METAR LIMC 111220Z 21005KT 190V270 9999 FEW024 22/12 Q1010 NOSIG
13-05-11 METAR LIMC 111250Z 22005KT 190V250 9999 FEW024 22/11 Q1009 NOSIG
13-05-11 METAR LIMC 111320Z 23004KT 200V270 9999 FEW024 22/10 Q1009 NOSIG
13-05-11 METAR LIMC 111350Z 24005KT 9999 FEW024 22/10 Q1009 NOSIG
13-05-11 METAR LIMC 111420Z 24004KT 210V270 CAVOK 23/09 Q1009 NOSIG
13-05-11 METAR LIMC 111450Z NIL
13-05-11 METAR LIMC 111450Z 23004KT 200V270 CAVOK 23/07 Q1009 NOSIG
13-05-11 METAR LIMC 111520Z 22005KT CAVOK 23/07 Q1008 NOSIG
13-05-11 METAR LIMC 111550Z 21005KT CAVOK 23/08 Q1008 NOSIG
13-05-11 METAR LIMC 111620Z 22005KT 9999 FEW025 23/09 Q1008 NOSIG
13-05-11 METAR LIMC 111650Z 24004KT 9999 FEW025 22/09 Q1008 NOSIG
13-05-11 METAR LIMC 111720Z 23004KT 9999 FEW025 22/09 Q1009 NOSIG
13-05-11 METAR LIMC 111750Z 24002KT 9999 FEW035 SCT060 21/10 Q1009 NOSIG
13-05-11 METAR LIMC 111820Z 27003KT 9999 FEW035 SCT060 20/10 Q1009 NOSIG
13-05-11 METAR LIMC 111850Z 29003KT 9999 FEW035 SCT060 19/11 Q1009 NOSIG
13-05-11 METAR LIMC 111920Z 35003KT 300V040 9999 SCT035 SCT040 20/03 Q1010 NOSIG
13-05-11 METAR LIMC 111950Z 05004KT 020V080 9999 VCTS FEW035CB SCT040 17/11 Q1011 NOSIG
13-05-11 METAR LIMC 112020Z 13003KT 040V170 9999 VCTS FEW035CB SCT040 17/10 Q1011
13-05-11 METAR LIMC 112050Z 17004KT 9999 VCTS FEW035CB SCT060 17/12 Q1012 NOSIG
13-05-11 METAR LIMC 112120Z VRB02KT 9999 FEW040CB BKN060 17/09 Q1012 NOSIG
13-05-11 METAR LIMC 112150Z VRB02KT 9999 FEW040CB BKN080 17/04 Q1012 NOSIG
13-05-11 METAR LIMC 112220Z 05003KT 320V080 9999 SCT080 16/03 Q1012 NOSIG
13-05-11 METAR LIMC 112250Z 01003KT 310V040 CAVOK 16/01 Q1012 NOSIG
13-05-11 METAR LIMC 112320Z 30003KT 280V040 9999 SCT080 16/01 Q1013 NOSIG
13-05-11 METAR LIMC 112350Z VRB02KT 9999 SCT080 14/04 Q1013 NOSIG
13-05-12 METAR LIMC 120020Z 25002KT 9999 SCT080 13/04 Q1013 NOSIG
13-05-12 METAR LIMC 120050Z VRB03KT CAVOK 11/05 Q1013 NOSIG
13-05-12 METAR LIMC 120120Z VRB02KT CAVOK 09/05 Q1013 NOSIG
13-05-12 METAR LIMC 120150Z VRB04KT CAVOK 09/04 Q1013 NOSIG
13-05-12 METAR LIMC 120220Z 21003KT 130V220 CAVOK 09/04 Q1013 NOSIG
13-05-12 METAR LIMC 120250Z VRB02KT CAVOK 08/05 Q1012 NOSIG
13-05-12 METAR LIMC 120320Z VRB02KT CAVOK 08/05 Q1012 NOSIG
13-05-12 METAR LIMC 120350Z NIL
13-05-12 METAR LIMC 120350Z 20004KT CAVOK 07/05 Q1012 NOSIG
13-05-12 METAR LIMC 120420Z VRB01KT CAVOK 06/05 Q1012 NOSIG
13-05-12 METAR LIMC 120450Z 29003KT 270V070 CAVOK 08/05 Q1012 NOSIG
13-05-12 METAR LIMC 120520Z 20004KT CAVOK 10/07 Q1012 NOSIG
13-05-12 METAR LIMC 120550Z 21004KT CAVOK 13/08 Q1012 NOSIG
13-05-12 METAR LIMC 120620Z VRB01KT CAVOK 17/06 Q1012 NOSIG
13-05-12 METAR LIMC 120650Z NIL
13-05-12 METAR LIMC 120650Z VRB02KT CAVOK 18/04 Q1012 NOSIG
13-05-12 METAR LIMC 120720Z VRB02KT CAVOK 18/01 Q1012 NOSIG
13-05-12 METAR LIMC 120750Z 34003KT 280V070 CAVOK 19/01 Q1012 NOSIG
13-05-12 METAR LIMC 120820Z VRB02KT CAVOK 20/02 Q1012 NOSIG
13-05-12 METAR LIMC 120850Z NIL
13-05-12 METAR LIMC 120850Z 32003KT 270V360 CAVOK 20/M00 Q1012 NOSIG
13-05-12 METAR LIMC 120920Z 22003KT 190V270 CAVOK 21/01 Q1012 NOSIG
13-05-12 METAR LIMC 120950Z 21003KT CAVOK 21/M01 Q1012 NOSIG
13-05-12 METAR LIMC 121020Z 19003KT 100V250 CAVOK 22/00 Q1011 NOSIG
13-05-12 METAR LIMC 121050Z VRB04KT CAVOK 21/M01 Q1011 NOSIG
13-05-12 METAR LIMC 121120Z VRB02KT 9999 FEW025 22/04 Q1011 NOSIG
13-05-12 METAR LIMC 121150Z 20006KT 180V270 9999 FEW025 21/04 Q1011 NOSIG
13-05-12 METAR LIMC 121220Z 19005KT 170V240 9999 SCT030 22/03 Q1011 NOSIG
13-05-12 METAR LIMC 121250Z 22003KT 170V270 9999 SCT030 22/05 Q1011 NOSIG
13-05-12 METAR LIMC 121320Z 22004KT 200V260 9999 SCT030 22/04 Q1011 NOSIG
13-05-12 METAR LIMC 121350Z 23005KT 200V270 9999 SCT030 22/03 Q1010 NOSIG
13-05-12 METAR LIMC 121420Z 24005KT 9999 FEW030 22/04 Q1010 NOSIG
13-05-12 METAR LIMC 121450Z NIL
13-05-12 METAR LIMC 121450Z 21007KT 9999 FEW030 22/05 Q1010 NOSIG
13-05-12 METAR LIMC 121520Z 21007KT 9999 FEW030 22/05 Q1010 NOSIG
13-05-12 METAR LIMC 121550Z 23003KT 210V270 9999 FEW030 22/04 Q1010 NOSIG
13-05-12 METAR LIMC 121620Z 24005KT 9999 SCT030 22/04 Q1010 NOSIG
13-05-12 METAR LIMC 121650Z 28007KT 250V310 9999 SCT030 22/01 Q1010 NOSIG
13-05-12 METAR LIMC 121720Z 31008KT 9999 SCT030 21/M01 Q1010 NOSIG
13-05-12 METAR LIMC 121750Z 31009KT 9999 FEW030 20/M00 Q1011 NOSIG
13-05-12 METAR LIMC 121820Z 32005KT CAVOK 19/M01 Q1011 NOSIG
13-05-12 METAR LIMC 121850Z 35004KT 320V030 CAVOK 19/M03 Q1012 NOSIG
13-05-12 METAR LIMC 121920Z 34005KT 320V020 CAVOK 19/M05 Q1013 NOSIG
13-05-12 METAR LIMC 121950Z 32004KT 300V020 CAVOK 18/M06 Q1013 NOSIG
13-05-12 METAR LIMC 122020Z VRB02KT CAVOK 16/M05 Q1014 NOSIG
13-05-12 METAR LIMC 122050Z 04005KT 340V070 CAVOK 17/M05 Q1014 NOSIG
13-05-12 METAR LIMC 122120Z 02004KT 310V080 CAVOK 16/M05 Q1014 NOSIG
13-05-12 METAR LIMC 122150Z 02006KT CAVOK 16/M04 Q1014 NOSIG
13-05-12 METAR LIMC 122220Z 02005KT 340V050 CAVOK 16/M04 Q1014 NOSIG
13-05-12 METAR LIMC 122250Z 02005KT 310V050 CAVOK 16/M04 Q1015 NOSIG
13-05-12 METAR LIMC 122320Z 01004KT 310V050 CAVOK 15/M05 Q1015 NOSIG
13-05-12 METAR LIMC 122350Z 02004KT 320V060 CAVOK 15/M05 Q1015 NOSIG
13-05-13 METAR LIMC 130020Z 01004KT 310V050 CAVOK 15/M05 Q1015 NOSIG
13-05-13 METAR LIMC 130050Z VRB02KT CAVOK 14/M04 Q1016 NOSIG
13-05-13 METAR LIMC 130120Z VRB02KT CAVOK 11/M02 Q1016 NOSIG
13-05-13 METAR LIMC 130150Z VRB02KT CAVOK 10/M01 Q1016 NOSIG
13-05-13 METAR LIMC 130220Z 30003KT 290V010 CAVOK 08/M00 Q1016 NOSIG
13-05-13 METAR LIMC 130250Z 06002KT CAVOK 08/00 Q1016 NOSIG
13-05-13 METAR LIMC 130320Z VRB02KT CAVOK 07/01 Q1016 NOSIG
13-05-13 METAR LIMC 130350Z 29003KT CAVOK 06/01 Q1017 NOSIG
13-05-13 METAR LIMC 130420Z 23003KT 200V280 CAVOK 06/01 Q1017 NOSIG
13-05-13 METAR LIMC 130450Z VRB02KT CAVOK 08/03 Q1017 NOSIG
13-05-13 METAR LIMC 130520Z 00000KT CAVOK 11/06 Q1018 NOSIG
13-05-13 METAR LIMC 130550Z VRB01KT CAVOK 14/07 Q1018 NOSIG
13-05-13 METAR LIMC 130620Z VRB02KT CAVOK 14/08 Q1018 NOSIG
13-05-13 METAR LIMC 130650Z VRB02KT CAVOK 15/09 Q1018 NOSIG
13-05-13 METAR LIMC 130720Z 29002KT CAVOK 16/08 Q1018 NOSIG
13-05-13 METAR LIMC 130750Z VRB03KT CAVOK 16/05 Q1018 NOSIG
13-05-13 METAR LIMC 130820Z VRB03KT CAVOK 17/06 Q1018 NOSIG
13-05-13 METAR LIMC 130850Z VRB03KT CAVOK 18/06 Q1018 NOSIG
13-05-13 METAR LIMC 130920Z VRB03KT CAVOK 18/05 Q1018 NOSIG
13-05-13 METAR LIMC 130950Z VRB02KT CAVOK 19/02 Q1018 NOSIG
13-05-13 METAR LIMC 131020Z VRB02KT CAVOK 19/01 Q1017 NOSIG
13-05-13 METAR LIMC 131050Z 28004KT 240V320 CAVOK 20/04 Q1017 NOSIG
13-05-13 METAR LIMC 131120Z 27004KT 210V290 CAVOK 20/03 Q1017 NOSIG
13-05-13 METAR LIMC 131150Z 24005KT 200V270 CAVOK 20/04 Q1016 NOSIG
13-05-13 METAR LIMC 131220Z 21006KT 180V250 CAVOK 20/04 Q1016 NOSIG
13-05-13 METAR LIMC 131250Z 24004KT 200V280 CAVOK 21/05 Q1016 NOSIG
13-05-13 METAR LIMC 131320Z 23004KT 190V270 CAVOK 21/05 Q1015 NOSIG
13-05-13 METAR LIMC 131350Z 24004KT 200V270 CAVOK 21/04 Q1015 NOSIG
13-05-13 METAR LIMC 131420Z 21004KT 190V250 CAVOK 21/05 Q1015 NOSIG
13-05-13 METAR LIMC 131450Z NIL
13-05-13 METAR LIMC 131450Z 21005KT CAVOK 21/05 Q1015 NOSIG
13-05-13 METAR LIMC 131520Z 23004KT CAVOK 21/06 Q1015 NOSIG
13-05-13 METAR LIMC 131520Z NIL
13-05-13 METAR LIMC 131550Z 23005KT 200V270 CAVOK 21/05 Q1014 NOSIG
13-05-13 METAR LIMC 131620Z 23004KT CAVOK 21/04 Q1014 NOSIG
13-05-13 METAR LIMC 131650Z 22004KT CAVOK 21/05 Q1014 NOSIG
13-05-13 METAR LIMC 131720Z 22004KT CAVOK 20/05 Q1014 NOSIG
13-05-13 METAR LIMC 131750Z 23003KT CAVOK 20/06 Q1014 NOSIG
13-05-13 METAR LIMC 131820Z 23002KT CAVOK 19/06 Q1014 NOSIG
13-05-13 METAR LIMC 131850Z VRB02KT 9999 SCT070 17/08 Q1014 NOSIG
13-05-13 METAR LIMC 131920Z 20003KT 9999 SCT070 17/09 Q1015 NOSIG
13-05-13 METAR LIMC 131950Z 20003KT 9999 SCT070 16/07 Q1015 NOSIG
13-05-13 METAR LIMC 132020Z VRB02KT 9999 SCT070 15/09 Q1015 NOSIG
13-05-13 METAR LIMC 132050Z 19003KT 080V210 9999 SCT070 15/08 Q1015 NOSIG
13-05-13 METAR LIMC 132120Z VRB02KT 9999 SCT070 13/10 Q1015 NOSIG
13-05-13 METAR LIMC 132150Z 19003KT CAVOK 13/09 Q1015 NOSIG
13-05-13 METAR LIMC 132220Z 28003KT CAVOK 12/08 Q1015 NOSIG
13-05-13 METAR LIMC 132250Z VRB01KT CAVOK 11/09 Q1015 NOSIG
13-05-13 METAR LIMC 132320Z 29003KT CAVOK 11/08 Q1015 NOSIG
13-05-13 METAR LIMC 132350Z 29001KT CAVOK 10/07 Q1015 NOSIG
13-05-14 METAR LIMC 140020Z VRB02KT CAVOK 09/08 Q1015 NOSIG
13-05-14 METAR LIMC 140050Z 08002KT CAVOK 10/07 Q1015 NOSIG
13-05-14 METAR LIMC 140120Z 08003KT CAVOK 12/08 Q1015 NOSIG
13-05-14 METAR LIMC 140150Z VRB02KT CAVOK 12/07 Q1015 NOSIG
13-05-14 METAR LIMC 140220Z 29003KT 280V050 CAVOK 11/07 Q1015 NOSIG
13-05-14 METAR LIMC 140250Z 29004KT CAVOK 09/06 Q1015 NOSIG
13-05-14 METAR LIMC 140320Z 29003KT CAVOK 08/07 Q1015 NOSIG
13-05-14 METAR LIMC 140350Z 30003KT CAVOK 09/07 Q1015 NOSIG
13-05-14 METAR LIMC 140420Z 29003KT CAVOK 08/07 Q1015 NOSIG
13-05-14 METAR LIMC 140450Z 29003KT 280V010 CAVOK 10/07 Q1015 NOSIG
13-05-14 METAR LIMC 140520Z 30003KT 280V350 CAVOK 11/08 Q1015 NOSIG
13-05-14 METAR LIMC 140550Z 28003KT CAVOK 14/09 Q1015 NOSIG
13-05-14 METAR LIMC 140620Z VRB02KT CAVOK 16/08 Q1015 NOSIG
13-05-14 METAR LIMC 140650Z 17003KT 130V190 CAVOK 17/08 Q1015 NOSIG
13-05-14 METAR LIMC 140720Z VRB03KT CAVOK 18/06 Q1015 NOSIG
13-05-14 METAR LIMC 140750Z VRB02KT CAVOK 19/08 Q1015 NOSIG
13-05-14 METAR LIMC 140820Z VRB02KT CAVOK 19/07 Q1015 NOSIG
13-05-14 METAR LIMC 140850Z VRB02KT CAVOK 19/07 Q1015 NOSIG
13-05-14 METAR LIMC 140920Z VRB03KT CAVOK 20/07 Q1015 NOSIG
13-05-14 METAR LIMC 140950Z 18004KT 090V210 CAVOK 20/07 Q1015 NOSIG
13-05-14 METAR LIMC 141020Z VRB02KT CAVOK 20/07 Q1014 NOSIG
13-05-14 METAR LIMC 141050Z VRB04KT 9999 FEW030 21/09 Q1014 NOSIG
13-05-14 METAR LIMC 141120Z 18005KT 9999 FEW030 21/08 Q1014 NOSIG
13-05-14 METAR LIMC 141150Z 18005KT 130V200 9999 SCT030 21/08 Q1013 NOSIG
13-05-14 METAR LIMC 141220Z 20005KT 160V230 9999 SCT040 22/09 Q1013 NOSIG
13-05-14 METAR LIMC 141250Z 17004KT 080V200 9999 SCT050 21/09 Q1013 NOSIG
13-05-14 METAR LIMC 141320Z 15004KT 060V200 9999 SCT050 22/09 Q1012 NOSIG
13-05-14 METAR LIMC 141350Z 18005KT 140V200 9999 SCT050 22/10 Q1012 NOSIG
13-05-14 METAR LIMC 141420Z 18005KT 120V210 9999 SCT050 21/08 Q1012 NOSIG
13-05-14 METAR LIMC 141450Z 17004KT 9999 SCT050 22/10 Q1012 NOSIG
13-05-14 METAR LIMC 141520Z 18005KT 9999 FEW040 SCT070 21/09 Q1011 NOSIG
13-05-14 METAR LIMC 141550Z VRB04KT 9999 FEW040 SCT070 22/10 Q1011 NOSIG
13-05-14 METAR LIMC 141620Z 19005KT 9999 FEW040 SCT070 21/10 Q1011 NOSIG
13-05-14 METAR LIMC 141650Z 18003KT 080V190 9999 FEW040 SCT070 21/10 Q1010 NOSIG
13-05-14 METAR LIMC 141720Z 18003KT 110V190 9999 FEW040 SCT070 20/10 Q1010 NOSIG
13-05-14 METAR LIMC 141750Z 18003KT 080V200 9999 SCT030 SCT050 20/10 Q1010 NOSIG
13-05-14 METAR LIMC 141820Z 19006KT 9999 TSRA SCT020CB BKN040 19/11 Q1010 NOSIG
13-05-14 METAR LIMC 141850Z VRB02KT 9999 TSRA SCT020CB BKN040 16/14 Q1010 NOSIG
13-05-14 METAR LIMC 141920Z 25004KT 9999 TSRA SCT020CB BKN040 16/12 Q1010 BECMG NSW
13-05-14 METAR LIMC 141950Z 27005KT 230V300 9999 RA SCT020 BKN040 16/14 Q1011 RETS NOSIG
13-05-14 METAR LIMC 142020Z 31005KT 9999 RA SCT020 BKN040 15/14 Q1010 NOSIG
13-05-14 METAR LIMC 142050Z 33004KT 9999 RA SCT020 BKN040 14/14 Q1010 NOSIG
13-05-14 METAR LIMC 142120Z 33005KT 9999 RA BKN020 BKN040 14/14 Q1010 NOSIG
13-05-14 METAR LIMC 142150Z 33003KT 300V040 9999 RA BKN020 BKN040 14/14 Q1010 NOSIG
13-05-14 METAR LIMC 142220Z 31003KT 290V010 9999 -RA BKN020 BKN040 14/14 Q1010 RERA
13-05-14 METAR LIMC 142250Z 28003KT 9999 -RA BKN020 BKN040 14/14 Q1010 RERA NOSIG
13-05-14 METAR LIMC 142320Z 29003KT 9999 BKN020 BKN040 14/14 Q1010 RERA NOSIG
13-05-14 METAR LIMC 142350Z 29003KT 9999 BKN020 BKN040 13/13 Q1010 RERA NOSIG
13-05-15 METAR LIMC 150020Z VRB02KT 9999 BKN020 BKN040 13/13 Q1010 RERA NOSIG
13-05-15 METAR LIMC 150050Z 05002KT 9999 BKN020 BKN040 13/13 Q1010 RERA NOSIG
13-05-15 METAR LIMC 150120Z 07002KT 9999 BKN020 BKN040 13/12 Q1009 RERA NOSIG
13-05-15 METAR LIMC 150150Z VRB02KT 9999 SCT070 13/11 Q1009 NOSIG
13-05-15 METAR LIMC 150220Z 07002KT 9999 SCT070 13/11 Q1009 NOSIG
13-05-15 METAR LIMC 150250Z VRB02KT 9999 SCT070 13/10 Q1009 NOSIG
13-05-15 METAR LIMC 150350Z 06002KT 9999 BKN070 12/09 Q1008 NOSIG
13-05-15 METAR LIMC 150420Z 29003KT 280V360 9999 SCT070 12/11 Q1009 NOSIG
13-05-15 METAR LIMC 150450Z 30004KT 9999 SCT050 12/11 Q1009 NOSIG
13-05-15 METAR LIMC 150550Z VRB03KT 9999 FEW020 SCT070 14/11 Q1009 NOSIG
13-05-15 METAR LIMC 150620Z VRB02KT 9999 SCT035 BKN070 14/10 Q1009 NOSIG
13-05-15 METAR LIMC 150650Z 29003KT 9999 BKN035 OVC070 14/11 Q1009 NOSIG
13-05-15 METAR LIMC 150720Z 31004KT 9999 -RA BKN035 OVC070 14/11 Q1009 NOSIG
13-05-15 METAR LIMC 150750Z NIL
13-05-15 METAR LIMC 150750Z 30005KT 9999 -RA BKN035 OVC070 15/11 Q1009 NOSIG
13-05-15 METAR LIMC 150820Z 31004KT 290V350 9999 -RA BKN035 OVC070 15/12 Q1009 NOSIG
13-05-15 METAR LIMC 150850Z 31004KT 9999 SCT035 SCT070 16/12 Q1009 NOSIG
13-05-15 METAR LIMC 150920Z 31005KT 9999 BKN035 OVC070 17/11 Q1009 NOSIG
13-05-15 METAR LIMC 150950Z 31004KT 9999 BKN035 OVC070 16/11 Q1008 NOSIG
13-05-15 METAR LIMC 151020Z 30005KT 9999 BKN035 OVC070 17/10 Q1008 NOSIG
13-05-15 METAR LIMC 151050Z 30007KT 9999 BKN025 OVC070 17/11 Q1008 NOSIG
13-05-15 METAR LIMC 151120Z 30006KT 9999 BKN025 OVC070 16/10 Q1008 NOSIG
13-05-15 METAR LIMC 151150Z 29008KT 9999 -RA BKN025 OVC070 15/10 Q1008 NOSIG
13-05-15 METAR LIMC 151220Z 32007KT 9999 4000N RA BKN025 OVC060 15/12 Q1008 NOSIG
13-05-15 METAR LIMC 151250Z 31007KT 9999 BKN025 BKN060 15/12 Q1008 RERA NOSIG
13-05-15 METAR LIMC 151320Z 32007KT 9999 BKN060 15/11 Q1007 NOSIG
13-05-15 METAR LIMC 151350Z 31008KT 9999 BKN070 16/10 Q1007 NOSIG
13-05-15 METAR LIMC 151420Z 31007KT 9999 SCT060 15/10 Q1007 NOSIG
13-05-15 METAR LIMC 151450Z 34005KT 9999 -RA SCT020 BKN060 14/11 Q1007 RERA NOSIG
13-05-15 METAR LIMC 151520Z 34003KT 290V050 9999 -RA SCT020 BKN060 13/12 Q1008
13-05-15 METAR LIMC 151550Z 31004KT 9999 -RA SCT020 BKN060 13/13 Q1008 NOSIG
13-05-15 METAR LIMC 151620Z 33003KT 9999 -RA SCT030 BKN060 13/13 Q1007 NOSIG
13-05-15 METAR LIMC 151650Z 34003KT 310V020 9999 -RA SCT030 BKN060 13/13 Q1007
13-05-15 METAR LIMC 151720Z 33003KT 300V020 9999 SCT030 BKN060 13/12 Q1007 NOSIG
13-05-15 METAR LIMC 151750Z 33004KT 9999 SCT040 BKN060 13/13 Q1007 NOSIG
13-05-15 METAR LIMC 151820Z 33004KT 9999 SCT040 BKN060 13/13 Q1007 NOSIG
13-05-15 METAR LIMC 151850Z 32004KT 9999 SCT040 BKN060 12/12 Q1006 NOSIG
13-05-15 METAR LIMC 151920Z 33005KT 9999 SCT040 BKN060 12/12 Q1006 NOSIG
13-05-15 METAR LIMC 151950Z 32005KT 9999 -RA SCT040 BKN060 12/12 Q1006 NOSIG
13-05-15 METAR LIMC 152020Z 31003KT 9999 -RA SCT040 BKN060 12/11 Q1007 NOSIG
13-05-15 METAR LIMC 152050Z 30003KT 9999 -RA BKN040 OVC060 12/11 Q1007 NOSIG
13-05-15 METAR LIMC 152120Z 31003KT 9999 -RA BKN040 OVC070 12/11 Q1006 NOSIG
13-05-15 METAR LIMC 152150Z 31003KT 9999 BKN040 OVC070 12/11 Q1006 NOSIG
13-05-15 METAR LIMC 152220Z 30003KT 280V340 9999 BKN040 OVC070 12/10 Q1006 NOSIG
13-05-15 METAR LIMC 152250Z 30004KT 9999 BKN040 OVC070 12/10 Q1005 NOSIG
13-05-15 METAR LIMC 152320Z 29003KT 9999 -RA BKN040 OVC070 12/11 Q1005 NOSIG
13-05-15 METAR LIMC 152350Z 33004KT 290V070 9999 -RA BKN040 OVC070 12/11 Q1005
13-05-16 METAR LIMC 160020Z 30005KT 9999 -RA BKN035 OVC070 11/11 Q1004 NOSIG
13-05-16 METAR LIMC 160050Z 31006KT 9999 RA BKN025 OVC070 11/11 Q1004 NOSIG
13-05-16 METAR LIMC 160120Z 32004KT 9999 RA BKN025 OVC070 11/11 Q1004 NOSIG
13-05-16 METAR LIMC 160150Z 33005KT 310V010 9999 RA BKN025 OVC070 11/11 Q1003 NOSIG
13-05-16 METAR LIMC 160220Z 32006KT 9999 RA BKN025 OVC070 11/11 Q1002 NOSIG
13-05-16 METAR LIMC 160250Z 32005KT 300V360 9999 RA BKN025 OVC070 11/11 Q1002 NOSIG
13-05-16 METAR LIMC 160320Z 32007KT 9999 RA BKN025 OVC070 11/11 Q1001 NOSIG
13-05-16 METAR LIMC 160350Z 32006KT 8000 RA BKN025 OVC070 11/11 Q1000 NOSIG
13-05-16 METAR LIMC 160420Z 33006KT 300V010 8000 RA BKN025 OVC070 11/10 Q1000 NOSIG
13-05-16 METAR LIMC 160450Z 36005KT 320V030 6000 RA BKN025 OVC050 10/10 Q1000 NOSIG
13-05-16 METAR LIMC 160520Z 34003KT 300V040 4000 RA BKN015 OVC050 10/10 Q1000 NOSIG
13-05-16 METAR LIMC 160550Z 35005KT 310V020 4000 RA BKN015 OVC050 11/11 Q0999 NOSIG
13-05-16 METAR LIMC 160620Z 31004KT 3500 RA BKN015 OVC050 11/11 Q0999 NOSIG
13-05-16 METAR LIMC 160650Z 34003KT 300V030 1800 RA BKN010 OVC050 11/11 Q1000 NOSIG
13-05-16 METAR LIMC 160720Z 35004KT 300V040 4000 RA FEW005 BKN010 OVC050 11/11 Q0999 NOSIG
13-05-16 METAR LIMC 160750Z 33005KT 300V010 4000 RA BKN015 OVC050 11/11 Q0999 NOSIG
13-05-16 METAR LIMC 160820Z NIL
13-05-16 METAR LIMC 160820Z 35010KT 4000 RA BKN015 OVC050 11/10 Q0998 NOSIG
13-05-16 METAR LIMC 160820Z 33006KT 310V010 4000 RA BKN015 OVC050 11/11 Q0998 NOSIG
13-05-16 METAR LIMC 160850Z 32005KT 4000 RA BKN015 OVC050 11/11 Q0998 NOSIG
13-05-16 METAR LIMC 160920Z 31004KT 7000 RA BKN015 OVC050 11/11 Q0998 NOSIG
13-05-16 METAR LIMC 160950Z 32004KT 300V010 2500 RA BKN015 OVC050 11/11 Q0998 NOSIG
13-05-16 METAR LIMC 161020Z 32005KT 4000 RA BKN015 OVC050 11/11 Q0998 NOSIG
13-05-16 METAR LIMC 161050Z 33006KT 310V010 3000 R35L/1400V1500N RA BKN015 OVC050 11/11 Q0998 NOSIG
13-05-16 METAR LIMC 161120Z 33007KT 2800 R35L/1200V1500U RA BKN015 OVC050 11/11
13-05-16 METAR LIMC 161150Z 32006KT 2000 R35L/1200V1500N RA BKN015 OVC050 11/11
13-05-16 METAR LIMC 161220Z 33005KT 310V010 2500 RA BR BKN015 OVC050 11/11 Q0998
13-05-16 METAR LIMC 161250Z 31006KT 2500 RA BR SCT006 BKN015 OVC050 11/11 Q0998
13-05-16 METAR LIMC 161320Z 30005KT 2500 RA BR SCT006 BKN015 OVC050 11/11 Q0999
13-05-16 METAR LIMC 161350Z 31006KT 2500 RA BR SCT006 BKN015 OVC050 11/11 Q0999
13-05-16 METAR LIMC 161420Z 31006KT 2500 RA BR SCT006 BKN015 OVC050 11/11 Q0999
13-05-16 METAR LIMC 161450Z 32005KT 290V350 2500 RA BR SCT006 BKN015 OVC050 11/11 Q0999 NOSIG
13-05-16 METAR LIMC 161520Z 33004KT 300V010 2500 RA BR SCT003 BKN015 OVC050 11/11
13-05-16 METAR LIMC 161520Z 33004KT 300V010 5000 -RA BR FEW009 BKN015 OVC050 11/11
13-05-16 METAR LIMC 161550Z 31003KT 5000 -RA BR FEW009 BKN015 OVC050 11/11 Q0999 RERA NOSIG
13-05-16 METAR LIMC 161620Z 31003KT 9999 FEW009 BKN030 OVC060 12/12 Q0999 RERA
13-05-16 METAR LIMC 161650Z 31003KT 280V050 9999 FEW009 BKN030 BKN060 12/12 Q0999
13-05-16 METAR LIMC 161720Z NIL
13-05-16 METAR LIMC 161720Z 29004KT 9999 SCT030 BKN060 13/12 Q0999 NOSIG
13-05-16 METAR LIMC 161750Z NIL
13-05-16 METAR LIMC 161820Z 29004KT 9999 SCT030 BKN060 12/12 Q1000 NOSIG
13-05-16 METAR LIMC 161850Z 30004KT 9999 SCT030 BKN060 12/12 Q1000 NOSIG
13-05-16 METAR LIMC 161920Z 30004KT 9999 SCT030 BKN060 12/12 Q1000 NOSIG
13-05-16 METAR LIMC 161950Z 30004KT 9999 SCT030 BKN060 12/12 Q1000 NOSIG
13-05-16 METAR LIMC 162020Z 30003KT 9999 SCT030 BKN060 12/12 Q1000 NOSIG
13-05-16 METAR LIMC 162050Z 30003KT 9999 SCT030 BKN060 12/12 Q1000 NOSIG
13-05-16 METAR LIMC 162150Z 31004KT 9999 FEW006 SCT012 OVC030 12/12 Q1000 NOSIG
13-05-16 METAR LIMC 162220Z 30004KT 9999 BKN040 12/12 Q1000 NOSIG
13-05-16 METAR LIMC 162250Z 30003KT 280V040 9999 RA SCT006 BKN040 OVC060 11/11 Q1000
13-05-16 METAR LIMC 162320Z 29003KT 8000 RA BKN006 BKN040 OVC060 12/12 Q0999 NOSIG
13-05-16 METAR LIMC 162320Z NIL
13-05-16 METAR LIMC 162350Z 30003KT 8000 RA BKN006 BKN015 OVC040 12/12 Q0999 NOSIG
13-05-17 METAR LIMC 170020Z NIL
13-05-17 METAR LIMC 170020Z 29004KT 4500 RA BR BKN006 BKN015 OVC040 12/12 Q0999 NOSIG
13-05-17 METAR LIMC 170050Z VRB02KT 4500 RA BR BKN004 OVC015 12/12 Q0999 NOSIG
13-05-17 METAR LIMC 170120Z VRB02KT 4500 -RA BR BKN004 OVC015 13/13 Q0998 RERA
13-05-17 METAR LIMC 170150Z VRB02KT 3000 -RA BR BKN004 OVC015 13/14 Q0998 NOSIG
13-05-17 METAR LIMC 170220Z 14003KT 100V190 3000 -RA BR BKN004 OVC015 14/14 Q0998
13-05-17 METAR LIMC 170250Z VRB02KT 3000 -RA BR BKN004 OVC015 13/13 Q0998 NOSIG
13-05-17 METAR LIMC 170320Z VRB02KT 3000 -RA BR BKN004 OVC015 13/13 Q0998 NOSIG
13-05-17 METAR LIMC 170350Z VRB02KT 3000 -RA BR BKN006 OVC015 13/13 Q0998 NOSIG
13-05-17 METAR LIMC 170420Z VRB02KT 3000 -RA BR BKN006 OVC015 13/13 Q0998 NOSIG
13-05-17 METAR LIMC 170520Z 10003KT 070V180 3500 -RA BR BKN006 OVC015 14/14 Q0999
13-05-17 METAR LIMC 170550Z 11003KT 080V140 9000 -RA BKN008 OVC015 13/13 Q0999
13-05-17 METAR LIMC 170620Z 10003KT 070V130 9999 -RA FEW005 SCT025 BKN050 13/13 Q0999 NOSIG
13-05-17 METAR LIMC 170650Z 10004KT 060V190 9999 -RA FEW005 SCT025 BKN050 14/13
13-05-17 METAR LIMC 170720Z 10003KT 050V190 9999 FEW005 SCT025 BKN050 14/13 Q1000
13-05-17 METAR LIMC 170750Z 09004KT 050V140 9999 FEW005 SCT025 BKN050 14/13 Q1000
13-05-17 METAR LIMC 170820Z 14003KT 070V200 9999 FEW005 SCT025 BKN050 15/14 Q1001
13-05-17 METAR LIMC 170850Z 14003KT 070V180 9999 FEW005 SCT025 BKN050 15/13 Q1001
13-05-17 METAR LIMC 170920Z 15004KT 070V190 9999 FEW008 SCT025 BKN050 16/12 Q1001
13-05-17 METAR LIMC 170950Z 17004KT 110V200 9999 FEW008 SCT025 BKN050 16/10 Q1002
13-05-17 METAR LIMC 171020Z 18005KT 9999 SCT025 SCT035 17/12 Q1002 NOSIG
13-05-17 METAR LIMC 171050Z 18006KT 9999 SCT025 18/11 Q1002 NOSIG
13-05-17 METAR LIMC 171120Z 17005KT 9999 SCT025 18/10 Q1002 NOSIG
13-05-17 METAR LIMC 171150Z 20008KT 9999 SCT025 19/08 Q1002 NOSIG
13-05-17 METAR LIMC 171220Z 18007KT 9999 SCT025 19/08 Q1002 NOSIG
13-05-17 METAR LIMC 171250Z 18006KT 9999 SCT025 19/08 Q1002 NOSIG
13-05-17 METAR LIMC 171320Z 18007KT 140V210 9999 SCT025 19/07 Q1002 NOSIG
13-05-17 METAR LIMC 171350Z 18009KT 9999 SCT025 19/05 Q1002 NOSIG
13-05-17 METAR LIMC 171420Z 18009KT 9999 SCT025 19/07 Q1002 NOSIG
13-05-17 METAR LIMC 171450Z 18008KT 9999 SCT025 19/06 Q1003 NOSIG
13-05-17 METAR LIMC 171520Z 17007KT 9999 SCT025 19/07 Q1003 NOSIG
13-05-17 METAR LIMC 171550Z 18007KT 9999 SCT035 18/06 Q1004 NOSIG
13-05-17 METAR LIMC 171620Z 18007KT 9999 SCT035 17/06 Q1004 NOSIG
13-05-17 METAR LIMC 171650Z 17008KT 9999 FEW035 17/06 Q1004 NOSIG
13-05-17 METAR LIMC 171720Z 18008KT 9999 FEW035 17/06 Q1005 NOSIG
13-05-17 METAR LIMC 171750Z 17008KT 9999 FEW065 16/06 Q1005 NOSIG
13-05-17 METAR LIMC 171820Z 17008KT 130V190 9999 FEW065 15/06 Q1006 NOSIG
13-05-17 METAR LIMC 171850Z 18006KT 9999 FEW065 14/06 Q1006 NOSIG
13-05-17 METAR LIMC 171920Z 17006KT 110V190 9999 SCT065 14/06 Q1007 NOSIG
13-05-17 METAR LIMC 171950Z 19006KT 9999 SCT065 14/06 Q1007 NOSIG
13-05-17 METAR LIMC 172020Z 18004KT 130V190 9999 SCT065 13/06 Q1008 NOSIG
13-05-17 METAR LIMC 172050Z VRB02KT 9999 SCT065 13/06 Q1008 NOSIG
13-05-17 METAR LIMC 172120Z 13002KT 9999 SCT065 13/06 Q1008 NOSIG
13-05-17 METAR LIMC 172150Z VRB02KT 9999 SCT065 13/06 Q1008 NOSIG
13-05-17 METAR LIMC 172220Z VRB02KT 9999 SCT065 11/07 Q1009 NOSIG
13-05-17 METAR LIMC 172250Z VRB02KT 9999 SCT065 11/07 Q1009 NOSIG
13-05-17 METAR LIMC 172320Z 06002KT CAVOK 11/07 Q1010 NOSIG
13-05-17 METAR LIMC 172350Z VRB02KT CAVOK 10/07 Q1010 NOSIG
13-05-18 METAR LIMC 180020Z VRB02KT CAVOK 11/07 Q1010 NOSIG
13-05-18 METAR LIMC 180050Z VRB02KT CAVOK 10/07 Q1010 NOSIG
13-05-18 METAR LIMC 180120Z 17003KT CAVOK 11/07 Q1010 NOSIG
13-05-18 METAR LIMC 180150Z 16003KT 110V170 9999 SCT040 11/07 Q1011 NOSIG
13-05-18 METAR LIMC 180220Z VRB02KT 9999 SCT040 11/07 Q1011 NOSIG
13-05-18 METAR LIMC 180250Z VRB02KT 9999 SCT040 10/08 Q1011 NOSIG
13-05-18 METAR LIMC 180320Z VRB01KT 9999 SCT040 09/08 Q1011 NOSIG
13-05-18 METAR LIMC 180350Z NIL
13-05-18 METAR LIMC 180350Z VRB02KT 9999 SCT040 08/08 Q1012 NOSIG
13-05-18 METAR LIMC 180420Z VRB01KT 9999 SCT040 08/08 Q1012 NOSIG
13-05-18 METAR LIMC 180450Z 07002KT 9999 SCT040 10/09 Q1012 NOSIG
13-05-18 METAR LIMC 180520Z 07003KT 9999 FEW040 13/09 Q1012 NOSIG
13-05-18 METAR LIMC 180550Z 16003KT 070V210 9999 SCT050 14/08 Q1013 NOSIG
13-05-18 METAR LIMC 180620Z 18003KT 070V230 9999 SCT050 15/07 Q1013 NOSIG
13-05-18 METAR LIMC 180650Z 19004KT 9999 BKN050 15/08 Q1014 NOSIG
13-05-18 METAR LIMC 180720Z 19004KT 070V210 9999 SCT050 15/07 Q1014 NOSIG
13-05-18 METAR LIMC 180750Z VRB03KT 9999 SCT050 15/07 Q1014 NOSIG
13-05-18 METAR LIMC 180820Z 20004KT 140V290 9999 SCT035 16/08 Q1014 NOSIG
13-05-18 METAR LIMC 180850Z 22004KT 9999 SCT035 SCT070 16/08 Q1014 NOSIG
13-05-18 METAR LIMC 180920Z 20004KT 170V230 9999 FEW035 BKN070 17/09 Q1014 NOSIG
13-05-18 METAR LIMC 180950Z VRB02KT 9999 FEW035 BKN070 17/08 Q1014 NOSIG
13-05-18 METAR LIMC 180950Z NIL
13-05-18 METAR LIMC 181020Z VRB03KT 9999 SCT035 BKN070 17/08 Q1014 NOSIG
13-05-18 METAR LIMC 181050Z VRB03KT 9999 SCT035 BKN070 17/07 Q1014 NOSIG
13-05-18 METAR LIMC 181120Z 18005KT 9999 SCT035 BKN070 17/07 Q1014 NOSIG
13-05-18 METAR LIMC 181150Z 17003KT 9999 -RA SCT030 BKN070 16/07 Q1015 NOSIG
13-05-18 METAR LIMC 181220Z 17003KT 060V200 9999 -RA SCT030 BKN070 17/08 Q1015 NOSIG
13-05-18 METAR LIMC 181250Z 28005KT 9999 SCT030 BKN070 17/06 Q1014 NOSIG
13-05-18 METAR LIMC 181320Z 31007KT 9999 SCT030 BKN070 15/11 Q1014 NOSIG
13-05-18 METAR LIMC 181350Z 32007KT 9999 BKN030 BKN070 14/11 Q1014 NOSIG
13-05-18 METAR LIMC 181420Z 33004KT 9999 RA BKN030 BKN070 14/12 Q1014 NOSIG
13-05-18 METAR LIMC 181450Z 32005KT 9999 RA BKN030 BKN070 13/12 Q1014 NOSIG
13-05-18 METAR LIMC 181520Z 31004KT 9999 RA BKN030 BKN070 13/11 Q1015 NOSIG
13-05-18 METAR LIMC 181550Z 31004KT 9999 RA SCT030 BKN070 13/11 Q1015 NOSIG
13-05-18 METAR LIMC 181620Z VRB02KT 9999 RA SCT030 BKN070 12/11 Q1015 NOSIG
13-05-18 METAR LIMC 181650Z 31004KT 9999 RA SCT030 BKN070 12/12 Q1014 NOSIG
13-05-18 METAR LIMC 181720Z 33003KT 310V010 9999 RA SCT030 BKN070 12/12 Q1014 NOSIG
13-05-18 METAR LIMC 181750Z NIL
13-05-18 METAR LIMC 181820Z 32004KT 300V360 9999 RA SCT030 BKN070 11/11 Q1013 NOSIG
13-05-18 METAR LIMC 181820Z NIL
13-05-18 METAR LIMC 181850Z 32004KT 8000 RA SCT030 OVC070 11/11 Q1013 NOSIG
13-05-18 METAR LIMC 181920Z 33004KT 310V010 5000 RA BR BKN020 OVC060 11/11 Q1013
13-05-18 METAR LIMC 181950Z 31004KT 6000 RA BKN020 OVC060 11/11 Q1012 NOSIG
13-05-18 METAR LIMC 182020Z 01004KT 320V030 6000 RA BKN020 OVC060 11/11 Q1012 NOSIG
13-05-18 METAR LIMC 182050Z 33003KT 280V060 5000 RA BR BKN020 OVC060 11/11 Q1012
13-05-18 METAR LIMC 182120Z 32005KT 300V020 6000 RA BKN020 OVC060 11/11 Q1012 NOSIG
13-05-18 METAR LIMC 182150Z 32003KT 300V010 7000 BKN020 OVC060 11/11 Q1011 RERA
13-05-18 METAR LIMC 182220Z 32003KT 300V030 7000 BKN020 OVC060 11/11 Q1011 RERA
13-05-18 METAR LIMC 182250Z NIL
13-05-18 METAR LIMC 182250Z 03004KT 320V060 7000 BKN020 OVC060 11/11 Q1011 RERA
13-05-18 METAR LIMC 182320Z 01003KT 300V060 7000 BKN020 OVC060 12/12 Q1010 RERA
13-05-18 METAR LIMC 182350Z VRB03KT 7000 BKN020 OVC060 12/12 Q1010 RERA NOSIG
13-05-19 METAR LIMC 190020Z 05003KT 320V090 7000 -RA BKN025 OVC060 12/12 Q1009 NOSIG
13-05-19 METAR LIMC 190050Z 06005KT 040V100 7000 -RA BKN025 OVC060 12/12 Q1008
13-05-19 METAR LIMC 190120Z VRB03KT 7000 -RA BKN025 OVC060 12/12 Q1009 NOSIG
13-05-19 METAR LIMC 190150Z VRB03KT 7000 -RA BKN025 OVC060 12/12 Q1008 NOSIG
13-05-19 METAR LIMC 190220Z 11005KT 060V160 7000 RA BKN025 OVC060 12/12 Q1008 NOSIG
13-05-19 METAR LIMC 190250Z 13003KT 090V160 7000 RA BKN025 OVC060 12/12 Q1009 NOSIG
13-05-19 METAR LIMC 190320Z 12003KT 090V150 7000 RA BKN025 OVC060 12/12 Q1009 NOSIG
13-05-19 METAR LIMC 190350Z VRB02KT 7000 RA BKN025 OVC060 12/12 Q1009 NOSIG
13-05-19 METAR LIMC 190420Z VRB02KT 9999 -RA FEW012 BKN025 OVC060 12/12 Q1009 RERA
13-05-19 METAR LIMC 190450Z VRB02KT 9999 FEW012 BKN025 OVC060 12/12 Q1009 NOSIG
13-05-19 METAR LIMC 190520Z 18003KT 9999 -RA FEW006 BKN020 OVC060 12/12 Q1009 NOSIG
13-05-19 METAR LIMC 190550Z 17004KT 120V200 8000 FEW006 BKN020 OVC060 13/13 Q1009
13-05-19 METAR LIMC 190620Z 14003KT 100V180 9999 SCT010 BKN040 13/13 Q1010 NOSIG
13-05-19 METAR LIMC 190650Z 17003KT 110V190 9999 SCT040 13/13 Q1010 NOSIG
13-05-19 METAR LIMC 190720Z 17004KT 080V190 9999 SCT040 15/10 Q1010 NOSIG
13-05-19 METAR LIMC 190750Z 18006KT 9999 SCT040 15/08 Q1010 NOSIG
13-05-19 METAR LIMC 190820Z 17005KT 110V190 9999 BKN040 16/09 Q1010 NOSIG
13-05-19 METAR LIMC 190850Z 19006KT 9999 BKN030 15/08 Q1010 NOSIG
13-05-19 METAR LIMC 190920Z 19006KT 9999 FEW020TCU BKN040 16/08 Q1010 NOSIG
13-05-19 METAR LIMC 190950Z 19006KT 150V240 9999 FEW020TCU BKN040 16/08 Q1010 NOSIG
13-05-19 METAR LIMC 191020Z 20006KT 160V270 9999 FEW020TCU BKN040 17/08 Q1010 NOSIG
13-05-19 METAR LIMC 191050Z 19005KT 160V240 9999 SCT030 17/07 Q1010 NOSIG
13-05-19 METAR LIMC 191120Z 20004KT 180V240 9999 BKN030 17/06 Q1010 NOSIG
13-05-19 METAR LIMC 191150Z 16003KT 060V200 9999 BKN030 17/06 Q1010 NOSIG
13-05-19 METAR LIMC 191220Z 18006KT 9999 BKN030 18/06 Q1010 NOSIG
13-05-19 METAR LIMC 191250Z 18005KT 140V210 9999 FEW020TCU SCT025 19/08 Q1011 NOSIG
13-05-19 METAR LIMC 191320Z 19006KT 150V220 9999 FEW020TCU SCT025 19/06 Q1011 NOSIG
13-05-19 METAR LIMC 191350Z 17003KT 050V200 9999 FEW020TCU SCT025 19/04 Q1011 NOSIG
13-05-19 METAR LIMC 191420Z NIL
13-05-19 METAR LIMC 191450Z NIL
13-05-19 METAR LIMC 191520Z NIL
13-05-19 METAR LIMC 191520Z 15005KT 080V180 9999 FEW020TCU SCT025 14/11 Q1011 NOSIG
13-05-19 METAR LIMC 191550Z NIL
13-05-19 METAR LIMC 191550Z 04005KT 360V060 9999 TS FEW020CB BKN025 13/10 Q1011
13-05-19 METAR LIMC 191620Z 03006KT 350V060 9999 1300N +TSRAGR FEW020CB BKN025 11/10 Q1011 WS RWY 35L NOSIG
13-05-19 METAR LIMC 191650Z VRB02KT 9999 1300N -TSRA FEW020CB BKN025 12/10 Q1012 RETSRAGR WS RWY 35L NOSIG
13-05-19 METAR LIMC 191720Z 36003KT 310V040 9999 TSRA SCT020CB BKN035 11/10 Q1012
13-05-19 METAR LIMC 191750Z 05003KT 350V080 9999 RA SCT020 BKN035 11/11 Q1012 RETS
13-05-19 METAR LIMC 191820Z 05003KT 320V100 9999 -RA SCT020 BKN035 11/10 Q1012 RERA
13-05-19 METAR LIMC 191850Z 04004KT 340V070 9999 -RA SCT020 BKN035 11/10 Q1012
13-05-19 METAR LIMC 191920Z 06004KT 9999 -RA SCT020 BKN035 11/10 Q1012 NOSIG
13-05-19 METAR LIMC 191950Z 32003KT 270V050 9999 -RA SCT020 BKN040 11/11 Q1013
13-05-19 METAR LIMC 192020Z 04005KT 9999 RA SCT020 BKN040 11/10 Q1013 NOSIG
13-05-19 METAR LIMC 192050Z VRB02KT 9999 RA SCT020 BKN040 11/11 Q1013 NOSIG
13-05-19 METAR LIMC 192120Z 06003KT 360V140 9999 RA SCT020 BKN040 11/10 Q1013 NOSIG
13-05-19 METAR LIMC 192150Z VRB02KT 9999 RA SCT020 BKN040 11/10 Q1013 NOSIG
13-05-19 METAR LIMC 192220Z 28004KT 9999 -RA SCT020 BKN040 10/10 Q1014 RERA NOSIG
13-05-19 METAR LIMC 192250Z 29004KT 9999 SCT030 BKN060 11/11 Q1014 NOSIG
13-05-19 METAR LIMC 192320Z 29004KT 9999 SCT030 BKN060 11/11 Q1014 NOSIG
13-05-19 METAR LIMC 192350Z 30003KT 280V040 9999 SCT030 BKN060 11/11 Q1014 NOSIG
13-05-20 METAR LIMC 200020Z VRB02KT 9999 SCT030 BKN060 11/11 Q1014 NOSIG
13-05-20 METAR LIMC 200050Z 29004KT 9999 SCT030 BKN070 10/10 Q1014 NOSIG
13-05-20 METAR LIMC 200120Z VRB02KT 9999 SCT030 BKN070 10/10 Q1014 NOSIG
13-05-20 METAR LIMC 200150Z VRB02KT 9999 SCT030 BKN070 09/09 Q1014 NOSIG
13-05-20 METAR LIMC 200220Z 28003KT 9999 SCT030 BKN070 10/10 Q1014 NOSIG
13-05-20 METAR LIMC 200250Z VRB02KT 9999 SCT030 BKN070 10/10 Q1014 NOSIG
13-05-20 METAR LIMC 200320Z 28004KT 9999 SCT030 BKN070 10/10 Q1014 NOSIG
13-05-20 METAR LIMC 200350Z 20003KT 9999 SCT030 BKN070 10/10 Q1014 NOSIG
13-05-20 METAR LIMC 200420Z VRB03KT 9999 SCT030 BKN070 10/10 Q1014 NOSIG
13-05-20 METAR LIMC 200450Z 00000KT 9999 SCT030 BKN070 11/11 Q1014 NOSIG
13-05-20 METAR LIMC 200520Z 29003KT 270V070 9999 MIFG SCT030 BKN070 11/11 Q1015 NOSIG
13-05-20 METAR LIMC 200550Z 28003KT 9999 MIFG SCT030 BKN070 11/11 Q1015 NOSIG
13-05-20 METAR LIMC 200620Z NIL
13-05-20 METAR LIMC 200620Z 30003KT 280V050 9999 SCT030 BKN070 12/11 Q1015 NOSIG
13-05-20 METAR LIMC 200650Z VRB02KT 9999 SCT030 BKN070 12/11 Q1015 NOSIG
13-05-20 METAR LIMC 200720Z VRB02KT 9999 FEW010 SCT025 BKN050 13/11 Q1015 NOSIG
13-05-20 METAR LIMC 200750Z 31003KT 280V050 9999 FEW010 SCT025 BKN050 13/11 Q1015
13-05-20 METAR LIMC 200820Z NIL
13-05-20 METAR LIMC 200820Z VRB02KT 9999 FEW010 SCT025 BKN050 14/11 Q1015 NOSIG
13-05-20 METAR LIMC 200850Z VRB02KT 9999 FEW010 SCT025 BKN050 14/10 Q1015 NOSIG
13-05-20 METAR LIMC 200920Z VRB02KT 9999 R35L/0800V1500N FEW010 SCT025 BKN050 15/10 Q1015 NOSIG
13-05-20 METAR LIMC 200950Z 17003KT 060V200 9999 FEW020TCU SCT030 15/10 Q1015 NOSIG
13-05-20 METAR LIMC 201020Z 19006KT 9999 FEW020TCU SCT030 17/09 Q1015 NOSIG
13-05-20 METAR LIMC 201050Z 20006KT 9999 FEW020TCU SCT030 17/09 Q1015 BECMG TS
13-05-20 METAR LIMC 201120Z 20008KT 9999 FEW020TCU SCT030 18/08 Q1015 BECMG TS
13-05-20 METAR LIMC 201150Z 19007KT 9999 FEW020TCU SCT030 18/10 Q1015 BECMG TS
13-05-20 METAR LIMC 201220Z 20006KT 170V230 9999 FEW020TCU SCT030 17/09 Q1014 BECMG TS
13-05-20 METAR LIMC 201250Z NIL
13-05-20 METAR LIMC 201320Z 22004KT 200V270 9999 FEW020TCU SCT025 18/09 Q1014 NOSIG
13-05-20 METAR LIMC 201350Z 21004KT 200V260 9999 FEW020TCU SCT025 19/08 Q1014 NOSIG
13-05-20 METAR LIMC 201420Z 20007KT 9999 FEW020TCU SCT025 18/08 Q1014 NOSIG
13-05-20 METAR LIMC 201450Z 19006KT 9999 SHRA FEW020CB SCT025 17/08 Q1014 NOSIG
13-05-20 METAR LIMC 201520Z 20007KT 9999 FEW020CB SCT025 17/07 Q1014 RESHRA NOSIG
13-05-20 METAR LIMC 201550Z 23004KT 180V290 9999 FEW020CB SCT025 17/09 Q1014 NOSIG
13-05-20 METAR LIMC 201620Z 19006KT 9999 FEW020CB SCT030 BKN080 18/08 Q1013 NOSIG
13-05-20 METAR LIMC 201650Z 20007KT 9999 FEW020CB SCT030 BKN080 17/07 Q1014 NOSIG
13-05-20 METAR LIMC 201720Z 19005KT 9999 SCT030 BKN080 16/07 Q1014 NOSIG
13-05-20 METAR LIMC 201750Z VRB03KT 9999 SCT030 BKN080 14/09 Q1014 NOSIG
13-05-20 METAR LIMC 201820Z VRB03KT 9999 SCT030 BKN080 13/10 Q1014 NOSIG
13-05-20 METAR LIMC 201850Z 32005KT 290V360 9999 SCT030 BKN080 13/11 Q1015 BECMG TS
13-05-20 METAR LIMC 201920Z 32004KT 300V360 9999 -RA FEW015CB SCT030 BKN070 12/10
13-05-20 METAR LIMC 201950Z VRB02KT 9999 SCT030 BKN070 12/10 Q1015 NOSIG
13-05-20 METAR LIMC 202020Z 03003KT 320V070 9999 SCT030 BKN070 12/10 Q1015 NOSIG
13-05-20 METAR LIMC 202050Z 30005KT 9999 SCT030 BKN070 11/10 Q1016 NOSIG
13-05-20 METAR LIMC 202120Z 30003KT 9999 SCT050 11/10 Q1016 NOSIG
13-05-20 METAR LIMC 202150Z VRB02KT 9999 SCT050 10/10 Q1016 NOSIG
13-05-20 METAR LIMC 202220Z 30004KT 9999 SCT050 10/09 Q1016 NOSIG
13-05-20 METAR LIMC 202250Z 30003KT 280V060 9999 SCT050 10/10 Q1016 NOSIG
13-05-20 METAR LIMC 202320Z 29003KT 9999 BKN050 10/09 Q1016 NOSIG
13-05-20 METAR LIMC 202350Z 29004KT 9999 BKN050 09/09 Q1016 NOSIG
13-05-21 METAR LIMC 210020Z 29004KT 9999 BKN050 10/10 Q1016 NOSIG
13-05-21 METAR LIMC 210050Z NIL
13-05-21 METAR LIMC 210120Z 30006KT 9999 BKN050 11/10 Q1015 NOSIG
13-05-21 METAR LIMC 210150Z 32003KT 280V060 9999 BKN050 11/10 Q1015 NOSIG
13-05-21 METAR LIMC 210220Z 29004KT 9999 BKN050 11/10 Q1015 NOSIG
13-05-21 METAR LIMC 210250Z 30004KT 9999 BKN050 11/10 Q1015 NOSIG
13-05-21 METAR LIMC 210320Z 29003KT 9999 BKN050 11/10 Q1014 NOSIG
13-05-21 METAR LIMC 210350Z NIL
13-05-21 METAR LIMC 210350Z 29004KT 9999 BKN050 10/10 Q1014 NOSIG
13-05-21 METAR LIMC 210420Z 29003KT 9999 BKN050 11/10 Q1014 NOSIG
13-05-21 METAR LIMC 210450Z 29004KT 9999 BKN045 11/11 Q1014 NOSIG
13-05-21 METAR LIMC 210650Z 18003KT 090V200 9999 SCT030 BKN070 13/10 Q1015 NOSIG
13-05-21 METAR LIMC 210720Z 12003KT 050V190 9999 BKN030 BKN070 14/10 Q1015 NOSIG
13-05-21 METAR LIMC 210750Z 14003KT 050V200 9999 BKN030 BKN070 14/09 Q1015 NOSIG
13-05-21 METAR LIMC 210820Z VRB03KT 9999 BKN030 BKN070 15/10 Q1015 NOSIG
13-05-21 METAR LIMC 210850Z 21004KT 190V250 9999 BKN030 BKN070 16/09 Q1015 NOSIG
13-05-21 METAR LIMC 210920Z 19006KT 9999 BKN020 BKN070 16/09 Q1014 NOSIG
13-05-21 METAR LIMC 210950Z 19007KT 9999 BKN025 16/08 Q1015 NOSIG
13-05-21 METAR LIMC 211020Z 18006KT 130V210 9999 BKN025 17/08 Q1014 NOSIG
13-05-21 METAR LIMC 211050Z 19007KT 9999 SCT025 BKN070 17/08 Q1014 NOSIG
13-05-21 METAR LIMC 211150Z NIL
13-05-21 METAR LIMC 211150Z 20007KT 9999 SCT025 BKN070 18/09 Q1013 NOSIG
13-05-21 METAR LIMC 211220Z 18005KT 140V240 9999 SCT030 BKN070 18/08 Q1013 NOSIG
13-05-21 METAR LIMC 211250Z 20007KT 9999 SCT030 BKN070 17/08 Q1013 NOSIG
13-05-21 METAR LIMC 211320Z VRB03KT 9999 SCT030 BKN070 17/08 Q1012 RESHRA NOSIG
13-05-21 METAR LIMC 211350Z VRB03KT 9999 VCSH FEW020TCU SCT025 BKN070 15/09 Q1012 NOSIG
13-05-21 METAR LIMC 211420Z 33005KT 9999 -RA FEW020TCU SCT025 BKN070 14/11 Q1012
13-05-21 METAR LIMC 211450Z NIL
13-05-21 METAR LIMC 211450Z 31008KT 2000 1000W +TSRA SCT020CB SCT025 12/12 Q1012
13-05-21 METAR LIMC 211520Z 32007KT 3000 TSRA SCT020CB SCT025 11/11 Q1012 WS RWY 35L
13-05-21 METAR LIMC 211550Z 34003KT 310V050 3500 RA FEW020CB SCT030 BKN070 12/12 Q1012 RETS WS RWY 35L NOSIG
13-05-21 METAR LIMC 211620Z 32003KT 300V360 9999 SCT030 SCT070 12/12 Q1012 RERA
13-05-21 METAR LIMC 211650Z 34003KT 300V010 9999 SCT030 SCT070 13/12 Q1012 NOSIG
13-05-21 METAR LIMC 211720Z 34004KT 310V010 9999 FEW030 SCT070 13/11 Q1011 NOSIG
13-05-21 METAR LIMC 211750Z 33004KT 290V350 9999 FEW030 SCT070 13/11 Q1011 NOSIG
13-05-21 METAR LIMC 211820Z VRB02KT 9999 FEW030 SCT070 12/11 Q1012 NOSIG
13-05-21 METAR LIMC 211850Z 31003KT 300V030 9999 SCT030 BKN070 12/11 Q1011 NOSIG
13-05-21 METAR LIMC 211920Z 29003KT 9999 SCT030 BKN070 11/10 Q1012 NOSIG
13-05-21 METAR LIMC 211950Z 29003KT 9999 SCT030 BKN070 10/10 Q1012 NOSIG
13-05-21 METAR LIMC 212020Z 29003KT 9999 BKN030 10/10 Q1012 NOSIG
13-05-21 METAR LIMC 212050Z 30004KT 9999 BKN030 10/10 Q1012 NOSIG
13-05-21 METAR LIMC 212120Z VRB02KT 9999 BKN030 10/10 Q1012 NOSIG
13-05-21 METAR LIMC 212150Z 30003KT 290V030 9999 BKN030 10/10 Q1012 NOSIG
13-05-21 METAR LIMC 212220Z 30004KT 9999 BKN035 10/10 Q1012 NOSIG
13-05-21 METAR LIMC 212250Z 30004KT 9999 SCT080 09/09 Q1011 NOSIG
13-05-21 METAR LIMC 212320Z 29003KT 9999 FEW080 08/08 Q1011 NOSIG
13-05-21 METAR LIMC 212350Z VRB02KT CAVOK 08/08 Q1011 NOSIG
13-05-22 METAR LIMC 220020Z 30003KT 280V360 CAVOK 08/08 Q1010 NOSIG
13-05-22 METAR LIMC 220050Z 29003KT 270V350 CAVOK 07/07 Q1010 NOSIG
13-05-22 METAR LIMC 220120Z VRB02KT CAVOK 07/07 Q1010 NOSIG
13-05-22 METAR LIMC 220150Z 28003KT 270V360 CAVOK 07/07 Q1010 NOSIG
13-05-22 METAR LIMC 220220Z 30003KT 280V360 CAVOK 07/07 Q1010 NOSIG
13-05-22 METAR LIMC 220250Z VRB02KT CAVOK 07/07 Q1009 NOSIG
13-05-22 METAR LIMC 220320Z 29003KT 280V350 CAVOK 07/07 Q1009 NOSIG
13-05-22 METAR LIMC 220350Z VRB02KT CAVOK 07/07 Q1009 NOSIG
13-05-22 METAR LIMC 220420Z 30003KT CAVOK 06/06 Q1009 NOSIG
13-05-22 METAR LIMC 220450Z VRB02KT CAVOK 09/09 Q1009 NOSIG
13-05-22 METAR LIMC 220520Z 30004KT CAVOK 10/09 Q1008 NOSIG
13-05-22 METAR LIMC 220550Z 30003KT 9999 SCT090 11/09 Q1009 NOSIG
13-05-22 METAR LIMC 220620Z NIL
13-05-22 METAR LIMC 220620Z 30003KT 9999 SCT090 11/08 Q1008 NOSIG
13-05-22 METAR LIMC 220650Z 30004KT 9999 SCT090 12/09 Q1009 NOSIG
13-05-22 METAR LIMC 220720Z 31005KT 290V360 CAVOK 13/08 Q1009 NOSIG
13-05-22 METAR LIMC 220750Z 30004KT 280V340 CAVOK 14/07 Q1009 NOSIG
13-05-22 METAR LIMC 220820Z VRB03KT CAVOK 15/07 Q1009 NOSIG
13-05-22 METAR LIMC 220850Z 27004KT 210V300 CAVOK 16/08 Q1009 NOSIG
13-05-22 METAR LIMC 220920Z 27003KT 230V300 CAVOK 16/07 Q1008 NOSIG
13-05-22 METAR LIMC 220920Z NIL
13-05-22 METAR LIMC 220950Z 25004KT 180V300 CAVOK 17/07 Q1008 NOSIG
13-05-22 METAR LIMC 221020Z VRB02KT CAVOK 17/07 Q1008 NOSIG
13-05-22 METAR LIMC 221050Z 28003KT 220V310 CAVOK 18/08 Q1008 NOSIG
13-05-22 METAR LIMC 221120Z 28004KT 240V310 CAVOK 18/08 Q1007 NOSIG
13-05-22 METAR LIMC 221150Z VRB03KT CAVOK 19/08 Q1007 NOSIG
13-05-22 METAR LIMC 221220Z 23003KT 190V300 9999 BKN090 20/07 Q1007 NOSIG
13-05-22 METAR LIMC 221250Z 27004KT 230V290 9999 BKN090 20/07 Q1006 NOSIG
13-05-22 METAR LIMC 221320Z VRB02KT 9999 BKN090 20/08 Q1006 NOSIG
13-05-22 METAR LIMC 221350Z 24003KT 210V270 9999 BKN090 20/09 Q1006 NOSIG
13-05-22 METAR LIMC 221420Z 25004KT 210V280 9999 BKN090 20/07 Q1005 NOSIG
13-05-22 METAR LIMC 221450Z 25004KT 9999 BKN090 19/10 Q1005 NOSIG
13-05-22 METAR LIMC 221520Z NIL
13-05-22 METAR LIMC 221520Z 25005KT 9999 BKN090 19/10 Q1004 NOSIG
13-05-22 METAR LIMC 221550Z 27006KT 9999 BKN090 19/10 Q1004 NOSIG
13-05-22 METAR LIMC 221620Z 26004KT 9999 BKN090 19/10 Q1004 NOSIG
13-05-22 METAR LIMC 221650Z 25004KT 9999 BKN080 18/10 Q1004 NOSIG
13-05-22 METAR LIMC 221720Z VRB02KT 9999 BKN080 18/10 Q1004 NOSIG
13-05-22 METAR LIMC 221750Z 22003KT 9999 BKN080 18/11 Q1004 NOSIG
13-05-22 METAR LIMC 221820Z 22003KT 9999 BKN080 17/11 Q1004 NOSIG
13-05-22 METAR LIMC 221850Z 21004KT 190V270 9999 BKN080 16/11 Q1004 NOSIG
13-05-22 METAR LIMC 221920Z VRB03KT 9999 BKN080 16/11 Q1005 NOSIG
13-05-22 METAR LIMC 221950Z 31004KT 290V360 9999 BKN080 18/02 Q1005 NOSIG
13-05-22 METAR LIMC 222020Z 34003KT 310V030 9999 BKN080 18/01 Q1005 NOSIG
13-05-22 METAR LIMC 222050Z 34003KT 9999 BKN080 18/01 Q1005 NOSIG
13-05-22 METAR LIMC 222120Z VRB02KT 9999 BKN080 18/01 Q1005 NOSIG
13-05-22 METAR LIMC 222150Z 01003KT 310V050 9999 BKN080 17/01 Q1005 NOSIG
13-05-22 METAR LIMC 222220Z 04004KT 9999 SCT080 17/01 Q1005 NOSIG
13-05-22 METAR LIMC 222250Z 02003KT 320V060 9999 SCT080 16/01 Q1005 NOSIG
13-05-22 METAR LIMC 222320Z 03003KT 340V050 9999 SCT080 16/01 Q1004 NOSIG
13-05-22 METAR LIMC 222350Z 30005KT 9999 SCT080 14/03 Q1004 NOSIG
13-05-23 METAR LIMC 230020Z 30005KT 9999 BKN080 12/03 Q1004 NOSIG
13-05-23 METAR LIMC 230050Z 29003KT 270V040 9999 SCT080 12/03 Q1004 NOSIG
13-05-23 METAR LIMC 230120Z NIL
13-05-23 METAR LIMC 230120Z 30004KT 9999 SCT080 12/02 Q1003 NOSIG
13-05-23 METAR LIMC 230150Z 31003KT 9999 SCT080 11/03 Q1003 NOSIG
13-05-23 METAR LIMC 230220Z 31004KT 9999 SCT080 11/02 Q1003 NOSIG
13-05-23 METAR LIMC 230250Z 31004KT 9999 SCT080 11/02 Q1003 NOSIG
13-05-23 METAR LIMC 230320Z 31004KT 9999 SCT060 12/02 Q1003 NOSIG
13-05-23 METAR LIMC 230350Z 31003KT 9999 SCT060 11/02 Q1003 NOSIG
13-05-23 METAR LIMC 230420Z 31004KT 9999 SCT060 10/02 Q1003 NOSIG
13-05-23 METAR LIMC 230450Z 31004KT 9999 SCT060 11/03 Q1003 NOSIG
13-05-23 METAR LIMC 230520Z 30004KT 9999 SCT050 13/03 Q1003 NOSIG
13-05-23 METAR LIMC 230550Z 30003KT 9999 SCT050 14/04 Q1003 NOSIG
13-05-23 METAR LIMC 230620Z 30004KT 280V340 9999 SCT050 16/02 Q1004 NOSIG
13-05-23 METAR LIMC 230650Z VRB02KT 9999 SCT050 17/01 Q1004 NOSIG
13-05-23 METAR LIMC 230720Z 05004KT 340V070 9999 SCT050 17/01 Q1004 NOSIG
13-05-23 METAR LIMC 230750Z NIL
13-05-23 METAR LIMC 230820Z VRB03KT CAVOK 20/03 Q1003 NOSIG
13-05-23 METAR LIMC 230850Z 17004KT 110V200 CAVOK 19/04 Q1003 NOSIG
13-05-23 METAR LIMC 230920Z 19004KT 120V220 CAVOK 20/05 Q1003 NOSIG
13-05-23 METAR LIMC 230950Z 18005KT 9999 FEW025 20/05 Q1003 NOSIG
13-05-23 METAR LIMC 231020Z 18005KT 150V210 9999 FEW025 20/07 Q1002 NOSIG
13-05-23 METAR LIMC 231050Z 12003KT 060V190 9999 FEW025 20/06 Q1002 NOSIG
13-05-23 METAR LIMC 231120Z 19006KT 150V220 9999 FEW025 21/07 Q1002 NOSIG
13-05-23 METAR LIMC 231150Z 17006KT 130V210 9999 FEW025 20/07 Q1001 NOSIG
13-05-23 METAR LIMC 231220Z 19006KT 9999 FEW025 22/07 Q1001 NOSIG
13-05-23 METAR LIMC 231250Z 21006KT 180V280 9999 FEW030 21/06 Q1001 NOSIG
13-05-23 METAR LIMC 231320Z 19006KT 9999 SCT030 21/06 Q1001 NOSIG
13-05-23 METAR LIMC 231350Z 23005KT 190V260 9999 SCT030 22/07 Q1000 NOSIG
13-05-23 METAR LIMC 231420Z 18005KT 070V210 9999 FEW030 22/05 Q1000 NOSIG
13-05-23 METAR LIMC 231450Z 26005KT 240V300 9999 SCT030 SCT050 21/05 Q1000 NOSIG
13-05-23 METAR LIMC 231520Z 33009KT 9999 SCT030 BKN050 17/07 Q1000 WS RWY 35L NOSIG
13-05-23 METAR LIMC 231550Z 35004KT 320V020 9999 SCT030 BKN050 17/07 Q1000 NOSIG
13-05-23 METAR LIMC 231620Z 32003KT 290V050 9999 SCT030 BKN060 19/07 Q1000 NOSIG
13-05-23 METAR LIMC 231650Z VRB02KT 9999 SCT030 BKN060 20/06 Q1000 NOSIG
13-05-23 METAR LIMC 231720Z 35003KT 290V050 9999 SCT030 SCT060 19/07 Q1000 NOSIG
13-05-23 METAR LIMC 231750Z 35003KT 300V060 9999 SCT030 SCT060 17/07 Q1000 NOSIG
13-05-23 METAR LIMC 231820Z 03004KT 300V080 9999 SCT030 SCT060 16/07 Q0999 NOSIG
13-05-23 METAR LIMC 231850Z 33003KT 290V040 9999 SCT040 15/07 Q0999 NOSIG
13-05-23 METAR LIMC 231920Z VRB05KT 9999 SCT040 14/07 Q1000 NOSIG
13-05-23 METAR LIMC 231950Z 19004KT 110V210 9999 BKN040 15/07 Q1000 NOSIG
13-05-23 METAR LIMC 232020Z 30005KT 9999 BKN040 14/09 Q1001 NOSIG
13-05-23 METAR LIMC 232050Z VRB02KT 9999 -RA BKN040 13/10 Q1001 NOSIG
13-05-23 METAR LIMC 232120Z VRB04KT 9999 -TSRA FEW020CB BKN040 14/05 Q1001 WS RWY 35L NOSIG
13-05-23 METAR LIMC 232150Z 02003KT 310V070 9999 -TSRA FEW020CB BKN040 13/10 Q1001 WS RWY 35L NOSIG
13-05-23 METAR LIMC 232220Z 34004KT 9999 -RA VCTS FEW020CB BKN040 13/05 Q1001 RETS
13-05-23 METAR LIMC 232250Z 33004KT 9999 -RA VCTS FEW020CB BKN040 13/06 Q1001 NOSIG
13-05-23 METAR LIMC 232320Z 02003KT 340V070 9999 FEW020 BKN040 14/05 Q1000 NOSIG
13-05-23 METAR LIMC 232350Z 21005KT 9999 FEW020 BKN040 12/07 Q1002 NOSIG
13-05-24 METAR LIMC 240020Z 34003KT 9999 FEW020 BKN040 13/06 Q1001 NOSIG
13-05-24 METAR LIMC 240050Z 19004KT 9999 FEW020 BKN040 12/08 Q1002 NOSIG
13-05-24 METAR LIMC 240120Z 36004KT 310V060 9999 -RA BKN035 12/01 Q1002 NOSIG
13-05-24 METAR LIMC 240150Z 36007KT 300V050 9999 -RA BKN035 11/02 Q1002 NOSIG
13-05-24 METAR LIMC 240220Z 01006KT 320V050 9999 -RA BKN035 11/01 Q1002 NOSIG
13-05-24 METAR LIMC 240250Z 04007KT 9999 -RA BKN035 10/01 Q1002 NOSIG
13-05-24 METAR LIMC 240320Z 02007KT 320V060 9999 -RA BKN035 10/01 Q1003 NOSIG
13-05-24 METAR LIMC 240350Z 03008KT 350V050 9999 -RA BKN035 09/02 Q1002 NOSIG
13-05-24 METAR LIMC 240420Z 03006KT 330V060 9999 BKN020 09/00 Q1002 WS RWY 35L NOSIG
13-05-24 METAR LIMC 240450Z 03006KT 360V060 9999 BKN020 10/M01 Q1002 WS RWY 35L
13-05-24 METAR LIMC 240520Z 03009KT 350V050 9999 BKN020 11/M01 Q1002 WS RWY 35L
13-05-24 METAR LIMC 240550Z 03009KT 340V060 9999 BKN020 11/M03 Q1002 NOSIG
13-05-24 METAR LIMC 240620Z 02008KT 350V050 9999 BKN020 11/M03 Q1002 NOSIG
13-05-24 METAR LIMC 240650Z 35005KT 310V040 9999 BKN040 11/M02 Q1003 NOSIG
13-05-24 METAR LIMC 240720Z 03007KT 340V060 9999 BKN050 10/M01 Q1003 NOSIG
13-05-24 METAR LIMC 240750Z 03007KT 340V060 9999 BKN050 11/M01 Q1003 NOSIG
13-05-24 METAR LIMC 240820Z 02006KT 330V050 9999 BKN050 11/M01 Q1004 NOSIG
13-05-24 METAR LIMC 240820Z NIL
13-05-24 METAR LIMC 240850Z 02007KT 310V050 9999 BKN050 11/M01 Q1004 NOSIG
13-05-24 METAR LIMC 240920Z 36005KT 330V050 9999 BKN050 12/M01 Q1004 NOSIG
13-05-24 METAR LIMC 240950Z 36004KT 320V060 9999 BKN050 12/M00 Q1004 NOSIG
13-05-24 METAR LIMC 241020Z 02005KT 330V060 9999 BKN050 12/M00 Q1004 NOSIG
13-05-24 METAR LIMC 241050Z 01004KT 330V050 9999 BKN050 13/M01 Q1004 NOSIG
13-05-24 METAR LIMC 241120Z NIL
13-05-24 METAR LIMC 241120Z 02004KT 310V060 9999 BKN050 14/M02 Q1004 NOSIG
13-05-24 METAR LIMC 241150Z NIL
13-05-24 METAR LIMC 241150Z VRB04KT 9999 BKN050 14/M01 Q1004 NOSIG
13-05-24 METAR LIMC 241220Z 09004KT 040V200 9999 BKN050 15/M02 Q1004 NOSIG
13-05-24 METAR LIMC 241250Z 09005KT 050V140 9999 BKN050 13/01 Q1005 NOSIG
13-05-24 METAR LIMC 241320Z 07005KT 040V180 9999 BKN050 15/01 Q1005 NOSIG
13-05-24 METAR LIMC 241350Z 13004KT 060V190 9999 BKN050 15/03 Q1005 NOSIG
13-05-24 METAR LIMC 241420Z 14005KT 090V180 9999 BKN050 14/04 Q1005 NOSIG
13-05-24 METAR LIMC 241450Z 15004KT 080V200 9999 SCT060 14/03 Q1005 NOSIG
13-05-24 METAR LIMC 241520Z 13004KT 110V170 9999 SCT060 13/03 Q1005 NOSIG
13-05-24 METAR LIMC 241550Z 14003KT 080V210 9999 SCT060 13/04 Q1006 NOSIG
13-05-24 METAR LIMC 241620Z 15004KT 130V200 9999 SCT060 12/03 Q1006 NOSIG
13-05-24 METAR LIMC 241650Z 15004KT 110V190 9999 SCT060 12/03 Q1006 NOSIG
13-05-24 METAR LIMC 241720Z 18004KT 110V200 9999 FEW060 13/04 Q1006 NOSIG
13-05-24 METAR LIMC 241750Z 19004KT CAVOK 11/04 Q1006 NOSIG
13-05-24 METAR LIMC 241820Z 18003KT CAVOK 10/05 Q1007 NOSIG
13-05-24 METAR LIMC 241850Z 20004KT 9999 FEW070 09/06 Q1007 NOSIG
13-05-24 METAR LIMC 241920Z VRB03KT 9999 SCT070 10/06 Q1007 NOSIG
13-05-24 METAR LIMC 241950Z 20003KT 9999 BKN070 09/07 Q1007 NOSIG
13-05-24 METAR LIMC 242020Z VRB02KT 9999 BKN050 09/07 Q1008 NOSIG
13-05-24 METAR LIMC 242050Z VRB01KT 9999 SCT050 08/06 Q1008 NOSIG
13-05-24 METAR LIMC 242120Z VRB02KT 9999 SCT060 08/07 Q1008 NOSIG
13-05-24 METAR LIMC 242150Z VRB02KT 9999 SCT060 07/06 Q1008 NOSIG
13-05-24 METAR LIMC 242220Z VRB02KT 9999 FEW060 06/06 Q1008 NOSIG
13-05-24 METAR LIMC 242250Z 25002KT 9999 FEW060 06/06 Q1008 NOSIG
13-05-24 METAR LIMC 242320Z 27003KT 210V280 9999 FEW060 07/07 Q1008 NOSIG
13-05-24 METAR LIMC 242350Z VRB02KT 9999 FEW060 07/07 Q1008 NOSIG
13-05-25 METAR LIMC 250020Z VRB02KT 9999 FEW060 07/07 Q1008 NOSIG
13-05-25 METAR LIMC 250050Z VRB03KT 9999 FEW060 07/07 Q1008 NOSIG
13-05-25 METAR LIMC 250120Z VRB01KT 9999 FEW060 08/07 Q1008 NOSIG
13-05-25 METAR LIMC 250150Z VRB02KT 9999 FEW060 08/07 Q1007 NOSIG
13-05-25 METAR LIMC 250220Z VRB02KT 9999 FEW060 08/07 Q1007 NOSIG
13-05-25 METAR LIMC 250250Z VRB02KT 9999 SCT050 08/06 Q1007 NOSIG
13-05-25 METAR LIMC 250320Z VRB02KT 9999 SCT050 08/06 Q1007 NOSIG
13-05-25 METAR LIMC 250350Z VRB03KT 9999 SCT050 08/07 Q1007 NOSIG
13-05-25 METAR LIMC 250420Z VRB02KT 9999 BKN050 08/07 Q1007 NOSIG
13-05-25 METAR LIMC 250450Z 17003KT 9999 SCT050 OVC070 09/07 Q1007 NOSIG
13-05-25 METAR LIMC 250520Z 19003KT 9999 SCT050 OVC070 09/07 Q1007 NOSIG
13-05-25 METAR LIMC 250550Z 19004KT 9999 SCT040 BKN060 09/07 Q1007 NOSIG
13-05-25 METAR LIMC 250620Z 20005KT 9999 SCT040 BKN060 09/05 Q1007 NOSIG
13-05-25 METAR LIMC 250650Z 23003KT 210V270 9999 SCT040 BKN060 09/05 Q1007 NOSIG
13-05-25 METAR LIMC 250720Z 25003KT 9999 DZ SCT040 BKN060 09/05 Q1008 NOSIG
13-05-25 METAR LIMC 250750Z 23002KT 9999 DZ SCT040 BKN060 09/06 Q1007 NOSIG
13-05-25 METAR LIMC 250820Z 28004KT 9999 DZ SCT040 BKN060 10/05 Q1007 NOSIG
13-05-25 METAR LIMC 250850Z 30004KT 280V010 9999 SCT040 BKN060 10/06 Q1007 REDZ NOSIG
13-05-25 METAR LIMC 250920Z 09005KT 070V140 9999 SCT040 BKN060 08/06 Q1007 NOSIG
13-05-25 METAR LIMC 250950Z 09005KT 9999 DZ SCT040 BKN060 08/06 Q1007 NOSIG
13-05-25 METAR LIMC 251020Z 11004KT 080V150 9999 DZ SCT040 BKN060 08/07 Q1008 NOSIG
13-05-25 METAR LIMC 251050Z 12004KT 080V150 9999 RA SCT040 BKN060 08/07 Q1008 REDZ
13-05-25 METAR LIMC 251120Z 17003KT 080V190 9999 -RA SCT030 BKN050 09/08 Q1008 RERA
13-05-25 METAR LIMC 251150Z VRB02KT 9999 -RA SCT030 BKN050 10/08 Q1008 RERA NOSIG
13-05-25 METAR LIMC 251220Z 30003KT 9999 -RA SCT030 BKN050 10/06 Q1008 NOSIG
13-05-25 METAR LIMC 251250Z 28004KT 9999 -RA SCT030 BKN050 10/06 Q1008 NOSIG
13-05-25 METAR LIMC 251320Z 20004KT 9999 -RA SCT030 BKN050 10/08 Q1007 NOSIG
13-05-25 METAR LIMC 251350Z 21005KT 9999 BKN050 11/07 Q1007 NOSIG
13-05-25 METAR LIMC 251420Z 21004KT 170V240 9999 BKN050 11/06 Q1006 NOSIG
13-05-25 METAR LIMC 251450Z 18003KT 9999 BKN050 11/06 Q1006 NOSIG
13-05-25 METAR LIMC 251520Z NIL
13-05-25 METAR LIMC 251520Z 19003KT 150V220 9999 BKN050 11/06 Q1007 NOSIG
13-05-25 METAR LIMC 251550Z 20004KT 170V250 9999 BKN050 12/06 Q1007 NOSIG
13-05-25 METAR LIMC 251620Z 21004KT 9999 SCT030 BKN060 12/05 Q1007 NOSIG
13-05-25 METAR LIMC 251650Z 15004KT 120V180 9999 SCT030 BKN060 12/06 Q1007 NOSIG
13-05-25 METAR LIMC 251720Z 15003KT 9999 SCT030 BKN060 11/06 Q1008 NOSIG
13-05-25 METAR LIMC 251750Z 16003KT 120V200 9999 SCT030 11/07 Q1008 NOSIG
13-05-25 METAR LIMC 251820Z 17003KT 9999 FEW030 10/06 Q1008 NOSIG
13-05-25 METAR LIMC 251850Z 18003KT 9999 FEW030 10/07 Q1008 NOSIG
13-05-25 METAR LIMC 251920Z VRB02KT 9999 FEW030 08/06 Q1009 NOSIG
13-05-25 METAR LIMC 251950Z 28004KT 9999 FEW030 07/06 Q1009 NOSIG
13-05-25 METAR LIMC 252020Z VRB03KT 9999 FEW030 05/05 Q1009 NOSIG
13-05-25 METAR LIMC 252050Z 29003KT 280V050 9999 FEW070 05/05 Q1010 NOSIG
13-05-25 METAR LIMC 252120Z VRB02KT CAVOK 05/05 Q1010 NOSIG
13-05-25 METAR LIMC 252150Z 30004KT CAVOK 04/04 Q1010 NOSIG
13-05-25 METAR LIMC 252220Z 29004KT CAVOK 05/05 Q1010 NOSIG
13-05-25 METAR LIMC 252250Z 28003KT CAVOK 04/04 Q1010 NOSIG
13-05-25 METAR LIMC 252320Z 30004KT CAVOK 03/03 Q1010 NOSIG
13-05-25 METAR LIMC 252350Z 29003KT CAVOK 03/03 Q1010 NOSIG
13-05-26 METAR LIMC 260020Z 29003KT CAVOK 04/04 Q1010 NOSIG
13-05-26 METAR LIMC 260050Z 31003KT CAVOK 04/04 Q1010 NOSIG
13-05-26 METAR LIMC 260120Z 27005KT CAVOK 04/04 Q1009 NOSIG
13-05-26 METAR LIMC 260150Z VRB02KT CAVOK 04/04 Q1010 NOSIG
13-05-26 METAR LIMC 260220Z 00000KT CAVOK 04/04 Q1010 NOSIG
13-05-26 METAR LIMC 260250Z VRB03KT CAVOK 04/04 Q1010 NOSIG
13-05-26 METAR LIMC 260320Z 29003KT 270V330 9999 FEW060 04/04 Q1010 NOSIG
13-05-26 METAR LIMC 260350Z 34004KT 9999 FEW070 04/04 Q1010 NOSIG
13-05-26 METAR LIMC 260420Z 28005KT 9999 FEW070 05/04 Q1010 NOSIG
13-05-26 METAR LIMC 260450Z 25002KT 9999 FEW070 06/06 Q1010 NOSIG
13-05-26 METAR LIMC 260520Z 21004KT 9999 FEW070 07/07 Q1011 NOSIG
13-05-26 METAR LIMC 260550Z 25002KT 9999 FEW070 10/06 Q1011 NOSIG
13-05-26 METAR LIMC 260620Z 28006KT 9999 FEW070 12/05 Q1011 NOSIG
13-05-26 METAR LIMC 260650Z 29006KT 9999 FEW070 15/03 Q1011 NOSIG
13-05-26 METAR LIMC 260720Z 29006KT 9999 FEW070 16/02 Q1011 NOSIG
13-05-26 METAR LIMC 260750Z 31006KT 290V360 9999 FEW070 17/M01 Q1012 NOSIG
13-05-26 METAR LIMC 260820Z 32006KT 300V010 9999 FEW070 17/M02 Q1012 NOSIG
13-05-26 METAR LIMC 260850Z 30006KT 9999 FEW070 18/M02 Q1012 NOSIG
13-05-26 METAR LIMC 260920Z 31005KT CAVOK 18/M02 Q1012 NOSIG
13-05-26 METAR LIMC 260950Z 31004KT 280V050 CAVOK 18/M03 Q1012 NOSIG
13-05-26 METAR LIMC 261020Z 25003KT 200V010 CAVOK 19/M03 Q1012 NOSIG
13-05-26 METAR LIMC 261050Z 23005KT 200V270 CAVOK 19/M03 Q1012 NOSIG
13-05-26 METAR LIMC 261120Z 22005KT 180V270 CAVOK 19/00 Q1011 NOSIG
13-05-26 METAR LIMC 261150Z 23005KT 9999 FEW025 19/M01 Q1011 NOSIG
13-05-26 METAR LIMC 261220Z 21006KT 180V260 9999 FEW025 19/M01 Q1011 NOSIG
13-05-26 METAR LIMC 261250Z 24005KT 210V270 CAVOK 19/M01 Q1011 NOSIG
13-05-26 METAR LIMC 261320Z 21007KT 180V260 CAVOK 19/M02 Q1011 NOSIG
13-05-26 METAR LIMC 261350Z 22006KT 200V270 CAVOK 19/M01 Q1010 NOSIG
13-05-26 METAR LIMC 261420Z 22005KT 190V270 CAVOK 20/00 Q1010 NOSIG
13-05-26 METAR LIMC 261450Z 21006KT CAVOK 20/M00 Q1010 NOSIG
13-05-26 METAR LIMC 261520Z 22006KT 190V270 CAVOK 20/01 Q1010 NOSIG
13-05-26 METAR LIMC 261550Z 22006KT CAVOK 20/01 Q1010 NOSIG
13-05-26 METAR LIMC 261620Z 23005KT CAVOK 20/M00 Q1010 NOSIG
13-05-26 METAR LIMC 261650Z 22006KT CAVOK 19/00 Q1010 NOSIG
13-05-26 METAR LIMC 261720Z 21005KT CAVOK 19/M00 Q1010 NOSIG
13-05-26 METAR LIMC 261750Z 20007KT CAVOK 18/02 Q1010 NOSIG
13-05-26 METAR LIMC 261820Z 20008KT CAVOK 17/01 Q1010 NOSIG
13-05-26 METAR LIMC 261850Z 20007KT CAVOK 16/01 Q1010 NOSIG
13-05-26 METAR LIMC 261920Z 20005KT CAVOK 14/04 Q1010 NOSIG
13-05-26 METAR LIMC 261950Z 21006KT CAVOK 13/04 Q1011 NOSIG
13-05-26 METAR LIMC 262020Z 21004KT CAVOK 12/03 Q1011 NOSIG
13-05-26 METAR LIMC 262050Z 22002KT CAVOK 11/03 Q1011 NOSIG
13-05-26 METAR LIMC 262120Z 23004KT CAVOK 13/04 Q1011 NOSIG
13-05-26 METAR LIMC 262150Z 19003KT CAVOK 12/04 Q1011 NOSIG
13-05-26 METAR LIMC 262220Z VRB02KT CAVOK 09/04 Q1011 NOSIG
13-05-26 METAR LIMC 262250Z NIL
13-05-26 METAR LIMC 262250Z VRB02KT CAVOK 09/05 Q1011 NOSIG
13-05-26 METAR LIMC 262320Z 19003KT CAVOK 08/05 Q1011 NOSIG
13-05-26 METAR LIMC 262350Z 21003KT CAVOK 08/05 Q1011 NOSIG
13-05-27 METAR LIMC 270020Z 20003KT CAVOK 07/06 Q1011 NOSIG
13-05-27 METAR LIMC 270050Z VRB01KT CAVOK 07/05 Q1011 NOSIG
13-05-27 METAR LIMC 270120Z VRB01KT CAVOK 05/04 Q1011 NOSIG
13-05-27 METAR LIMC 270150Z VRB01KT CAVOK 05/04 Q1010 NOSIG
13-05-27 METAR LIMC 270220Z VRB02KT CAVOK 04/04 Q1010 NOSIG
13-05-27 METAR LIMC 270250Z VRB02KT CAVOK 04/04 Q1010 NOSIG
13-05-27 METAR LIMC 270320Z VRB02KT CAVOK 04/04 Q1010 NOSIG
13-05-27 METAR LIMC 270350Z 29003KT 280V040 CAVOK 04/04 Q1010 NOSIG
13-05-27 METAR LIMC 270420Z VRB02KT CAVOK 04/04 Q1011 NOSIG
13-05-27 METAR LIMC 270450Z 20004KT CAVOK 06/06 Q1011 NOSIG
13-05-27 METAR LIMC 270520Z 00000KT CAVOK 09/07 Q1011 NOSIG
13-05-27 METAR LIMC 270550Z 27004KT CAVOK 12/04 Q1011 NOSIG
13-05-27 METAR LIMC 270620Z 26002KT CAVOK 14/03 Q1012 NOSIG
13-05-27 METAR LIMC 270650Z 26003KT CAVOK 14/05 Q1012 NOSIG
13-05-27 METAR LIMC 270720Z 23003KT 200V270 CAVOK 15/07 Q1012 NOSIG
13-05-27 METAR LIMC 270750Z 23005KT CAVOK 16/06 Q1012 NOSIG
13-05-27 METAR LIMC 270820Z 22007KT 200V260 CAVOK 16/07 Q1012 NOSIG
13-05-27 METAR LIMC 270850Z 21007KT CAVOK 16/07 Q1012 NOSIG
13-05-27 METAR LIMC 270920Z 22006KT CAVOK 17/07 Q1012 NOSIG
13-05-27 METAR LIMC 270950Z 23006KT CAVOK 17/07 Q1012 NOSIG
13-05-27 METAR LIMC 271020Z 23006KT 200V260 CAVOK 18/09 Q1011 NOSIG
13-05-27 METAR LIMC 271050Z 21008KT 9999 FEW040 19/10 Q1011 NOSIG
13-05-27 METAR LIMC 271120Z 22005KT 190V270 9999 SCT040 19/10 Q1011 NOSIG
13-05-27 METAR LIMC 271150Z NIL
13-05-27 METAR LIMC 271150Z 22006KT 180V250 9999 SCT040 19/09 Q1011 NOSIG
13-05-27 METAR LIMC 271220Z 21006KT 180V250 9999 SCT040 20/09 Q1011 NOSIG
13-05-27 METAR LIMC 271250Z 20007KT 170V230 9999 SCT040 20/08 Q1011 NOSIG
13-05-27 METAR LIMC 271320Z 20006KT 160V250 9999 SCT040 20/08 Q1011 NOSIG
13-05-27 METAR LIMC 271350Z 20007KT 170V240 9999 SCT040 20/08 Q1010 NOSIG
13-05-27 METAR LIMC 271420Z 20005KT 170V240 9999 FEW040 21/07 Q1010 NOSIG
13-05-27 METAR LIMC 271450Z 20004KT 160V250 9999 FEW040 21/06 Q1010 NOSIG
13-05-27 METAR LIMC 271520Z 21005KT 9999 FEW050 21/05 Q1010 NOSIG
13-05-27 METAR LIMC 271550Z 21007KT 9999 FEW040 20/06 Q1010 NOSIG
13-05-27 METAR LIMC 271620Z 20007KT 9999 FEW040 20/06 Q1010 NOSIG
13-05-27 METAR LIMC 271650Z 20007KT CAVOK 19/07 Q1010 NOSIG
13-05-27 METAR LIMC 271720Z 20007KT CAVOK 19/07 Q1010 NOSIG
13-05-27 METAR LIMC 271750Z 20007KT CAVOK 18/08 Q1010 NOSIG
13-05-27 METAR LIMC 271820Z 20007KT CAVOK 17/08 Q1010 NOSIG
13-05-27 METAR LIMC 271850Z 19008KT CAVOK 16/08 Q1010 NOSIG
13-05-27 METAR LIMC 271920Z 20007KT CAVOK 15/08 Q1011 NOSIG
13-05-27 METAR LIMC 271950Z 20008KT CAVOK 14/08 Q1011 NOSIG
13-05-27 METAR LIMC 272020Z 20007KT CAVOK 14/08 Q1011 NOSIG
13-05-27 METAR LIMC 272050Z 21004KT CAVOK 13/08 Q1011 NOSIG
13-05-27 METAR LIMC 272120Z 21003KT CAVOK 13/08 Q1011 NOSIG
13-05-27 METAR LIMC 272150Z VRB02KT CAVOK 11/09 Q1011 NOSIG
13-05-27 METAR LIMC 272220Z VRB01KT 9999 FEW060 11/09 Q1011 NOSIG
13-05-27 METAR LIMC 272250Z VRB01KT 9999 FEW060 11/09 Q1011 NOSIG
13-05-27 METAR LIMC 272320Z 00000KT 9999 FEW060 11/10 Q1011 NOSIG
13-05-27 METAR LIMC 272350Z 07001KT 9999 FEW060 11/10 Q1011 NOSIG
13-05-28 METAR LIMC 280020Z VRB02KT 9999 FEW060 11/10 Q1011 NOSIG
13-05-28 METAR LIMC 280050Z VRB03KT 9999 FEW060 11/11 Q1011 NOSIG
13-05-28 METAR LIMC 280120Z 28003KT 9999 FEW060 12/10 Q1011 NOSIG
13-05-28 METAR LIMC 280150Z VRB02KT 9999 SCT050 12/11 Q1010 NOSIG
13-05-28 METAR LIMC 280220Z VRB02KT 9999 SCT050 11/11 Q1010 NOSIG
13-05-28 METAR LIMC 280250Z VRB02KT 9999 SCT050 12/11 Q1010 NOSIG
13-05-28 METAR LIMC 280320Z 00000KT 9999 BKN050 11/10 Q1010 NOSIG
13-05-28 METAR LIMC 280350Z VRB03KT 9999 BKN050 11/11 Q1010 NOSIG
13-05-28 METAR LIMC 280420Z VRB01KT 9999 BKN050 12/11 Q1009 NOSIG
13-05-28 METAR LIMC 280450Z NIL
13-05-28 METAR LIMC 280450Z VRB02KT 9999 -RA BKN040 12/11 Q1009 NOSIG
13-05-28 METAR LIMC 280520Z 20003KT 9999 -RA BKN040 12/12 Q1009 NOSIG
13-05-28 METAR LIMC 280550Z 20003KT 110V220 9999 BKN040 13/12 Q1009 NOSIG
13-05-28 METAR LIMC 280620Z NIL
13-05-28 METAR LIMC 280620Z 21003KT 9999 BKN040 14/10 Q1009 NOSIG
13-05-28 METAR LIMC 280650Z VRB01KT 9999 BKN040 15/10 Q1009 NOSIG
13-05-28 METAR LIMC 280720Z 21004KT 9999 SCT040 SCT080 15/10 Q1009 NOSIG
13-05-28 METAR LIMC 280750Z 20004KT 9999 SCT040 SCT080 16/10 Q1009 NOSIG
13-05-28 METAR LIMC 280820Z 24003KT 9999 SCT030 BKN070 16/10 Q1009 NOSIG
13-05-28 METAR LIMC 280850Z 26003KT 220V280 9999 SCT030 BKN070 16/10 Q1009 NOSIG
13-05-28 METAR LIMC 280920Z 26003KT 9999 BKN030 BKN070 16/09 Q1009 NOSIG
13-05-28 METAR LIMC 280950Z 21005KT 9999 BKN020 BKN040 16/09 Q1008 NOSIG
13-05-28 METAR LIMC 281020Z 21005KT 9999 BKN020 BKN040 16/10 Q1008 NOSIG
13-05-28 METAR LIMC 281050Z 23003KT 200V270 9999 BKN020 BKN040 17/10 Q1008 NOSIG
13-05-28 METAR LIMC 281120Z 20005KT 9999 BKN025 BKN040 17/09 Q1008 NOSIG
13-05-28 METAR LIMC 281150Z 21004KT 180V250 9999 BKN025 18/09 Q1007 NOSIG
13-05-28 METAR LIMC 281220Z 20006KT 9999 BKN025 19/10 Q1007 NOSIG
13-05-28 METAR LIMC 281250Z 18005KT 130V250 9999 BKN025 18/10 Q1007 NOSIG
13-05-28 METAR LIMC 281320Z 19007KT 150V220 9999 BKN025 19/08 Q1006 NOSIG
13-05-28 METAR LIMC 281350Z 19007KT 9999 SCT025 BKN040 18/08 Q1006 WS RWY 35L NOSIG
13-05-28 METAR LIMC 281420Z 19006KT 9999 FEW025 SCT050 BKN080 18/08 Q1006 WS RWY 35L NOSIG
13-05-28 METAR LIMC 281450Z 17006KT 9999 FEW025 SCT050 BKN080 18/08 Q1006 WS RWY 35L
13-05-28 METAR LIMC 281520Z 18004KT 160V230 9999 FEW030 SCT060 18/08 Q1006 NOSIG
13-05-28 METAR LIMC 281550Z 20004KT 9999 FEW030 SCT060 18/09 Q1005 NOSIG
13-05-28 METAR LIMC 281620Z 25005KT 200V300 9999 SCT030 SCT050 17/11 Q1005 NOSIG
13-05-28 METAR LIMC 281650Z 29005KT 9999 SCT030 SCT050 17/11 Q1005 NOSIG
13-05-28 METAR LIMC 281720Z 30005KT 9999 -RA SCT030 SCT050 16/11 Q1004 NOSIG
13-05-28 METAR LIMC 281750Z 30005KT 9999 SCT030 SCT050 16/11 Q1004 NOSIG
13-05-28 METAR LIMC 281820Z 30005KT 9999 SCT030 SCT050 15/12 Q1004 NOSIG
13-05-28 METAR LIMC 281850Z VRB02KT 9999 SCT030 SCT050 15/13 Q1004 NOSIG
13-05-28 METAR LIMC 281920Z 22002KT 9999 RA BKN025 BKN050 14/13 Q1004 NOSIG
13-05-28 METAR LIMC 281950Z 29003KT 270V040 9999 -RA BKN025 BKN050 14/13 Q1004 RERA
13-05-28 METAR LIMC 282020Z VRB02KT 9999 -RA BKN025 BKN050 14/13 Q1004 NOSIG
13-05-28 METAR LIMC 282050Z 22002KT 9999 BKN020 BKN050 14/12 Q1004 NOSIG
13-05-28 METAR LIMC 282150Z VRB02KT 9999 -RA BKN020 OVC050 13/12 Q1004 RERA NOSIG
13-05-28 METAR LIMC 282220Z NIL
13-05-28 METAR LIMC 282250Z NIL
13-05-28 METAR LIMC 282220Z 29003KT 9999 -RA BKN020 OVC050 13/12 Q1003 RERA NOSIG
13-05-28 METAR LIMC 282250Z VRB02KT 9999 RA BKN020 OVC050 12/12 Q1003 NOSIG
13-05-28 METAR LIMC 282320Z 28004KT 9999 RA BKN020 OVC060 12/12 Q1003 NOSIG
13-05-28 METAR LIMC 282350Z 27003KT 9999 RA BKN020 OVC070 12/11 Q1003 NOSIG
13-05-29 METAR LIMC 290020Z 31003KT 280V060 9999 RA BKN020 OVC070 12/12 Q1002 NOSIG
13-05-29 METAR LIMC 290050Z 30003KT 9999 RA BKN020 OVC070 11/11 Q1002 NOSIG
13-05-29 METAR LIMC 290120Z 33003KT 280V060 9999 RA BKN020 OVC070 11/11 Q1002 NOSIG
13-05-29 METAR LIMC 290150Z VRB02KT 9999 -RA BKN020 OVC070 11/11 Q1001 RERA NOSIG
13-05-29 METAR LIMC 290220Z VRB02KT 9999 RA BKN020 OVC070 11/11 Q1001 NOSIG
13-05-29 METAR LIMC 290320Z VRB02KT 9999 BKN020 OVC070 11/11 Q1000 NOSIG
13-05-29 METAR LIMC 290350Z VRB02KT 2500 RA BR BKN015 OVC070 12/12 Q1000 NOSIG
13-05-29 METAR LIMC 290420Z VRB02KT 1500 RA BR BKN015 OVC070 12/12 Q1000 NOSIG
13-05-29 METAR LIMC 290450Z 28004KT 230V310 8000 3500W -RA VCSH SCT005TCU BKN010 OVC020 11/11 Q1000 RERA NOSIG
13-05-29 METAR LIMC 290520Z 32008KT 3500 RA BKN005 BKN010 OVC020 09/09 Q1001 NOSIG
13-05-29 METAR LIMC 290550Z 33007KT 7000 3000E RADZ FEW005 BKN012 BKN025 09/09 Q1001 RERA NOSIG
13-05-29 METAR LIMC 290620Z 34007KT 300V360 9999 -RA BKN012 OVC025 09/08 Q1000 RERADZ NOSIG
13-05-29 METAR LIMC 290650Z 33007KT 310V010 9999 -RA SCT012 BKN025 09/09 Q1001
13-05-29 METAR LIMC 290720Z 32007KT 9999 BKN020 10/09 Q1001 NOSIG
13-05-29 METAR LIMC 290750Z 32008KT 9999 BKN020 11/09 Q1001 NOSIG
13-05-29 METAR LIMC 290820Z NIL
13-05-29 METAR LIMC 290820Z 34006KT 9999 SCT020 SCT030 12/09 Q1001 NOSIG
13-05-29 METAR LIMC 290850Z 34006KT 300V360 9999 SCT030 SCT035 13/07 Q1001 NOSIG
13-05-29 METAR LIMC 290920Z 32005KT 290V020 9999 FEW045 14/08 Q1001 NOSIG
13-05-29 METAR LIMC 290950Z 31005KT 280V020 9999 FEW045 15/08 Q1001 NOSIG
13-05-29 METAR LIMC 291020Z 31004KT 270V020 CAVOK 16/07 Q1001 NOSIG
13-05-29 METAR LIMC 291050Z 29006KT 250V310 9999 SCT030 17/06 Q1001 NOSIG
13-05-29 METAR LIMC 291120Z VRB04KT 9999 SCT030 17/06 Q1001 NOSIG
13-05-29 METAR LIMC 291150Z 31006KT 9999 SCT030 17/06 Q1001 NOSIG
13-05-29 METAR LIMC 291220Z 31005KT 250V360 9999 SCT030 17/06 Q1001 NOSIG
13-05-29 METAR LIMC 291250Z VRB04KT 9999 SCT030 18/05 Q1001 NOSIG
13-05-29 METAR LIMC 291320Z 29005KT 260V320 9999 SCT030 18/03 Q1001 NOSIG
13-05-29 METAR LIMC 291350Z 27004KT 9999 SCT030 SCT080 18/04 Q1001 NOSIG
13-05-29 METAR LIMC 291420Z 25003KT 210V280 9999 SCT030 BKN080 18/04 Q1001 NOSIG
13-05-29 METAR LIMC 291450Z 27004KT 210V290 9999 SCT030 BKN080 17/05 Q1001 NOSIG
13-05-29 METAR LIMC 291520Z 28007KT 9999 FEW030 BKN080 17/05 Q1001 NOSIG
13-05-29 METAR LIMC 291550Z 28006KT 9999 FEW030 BKN080 17/05 Q1001 NOSIG
13-05-29 METAR LIMC 291620Z 28006KT 9999 FEW030 BKN080 17/05 Q1001 NOSIG
13-05-29 METAR LIMC 291650Z 29006KT 9999 SCT030 BKN080 16/05 Q1001 NOSIG
13-05-29 METAR LIMC 291720Z 21005KT 9999 SCT030 BKN080 15/07 Q1002 NOSIG
13-05-29 METAR LIMC 291750Z 15005KT 080V210 9999 VCTS FEW015CB SCT030 BKN080 14/05 Q1002 NOSIG
13-05-29 METAR LIMC 291820Z 05007KT 030V090 6000 -TSRA SCT015CB OVC040 10/08 Q1003
13-05-29 METAR LIMC 291850Z 14003KT 080V180 5000 TSRA BKN012CB OVC040 10/09 Q1004
13-05-29 METAR LIMC 291920Z 01003KT 290V070 9999 +RA SCT012CB OVC040 10/09 Q1004 RETS NOSIG
13-05-29 METAR LIMC 291950Z VRB02KT 9999 +RA SCT025 OVC040 10/10 Q1004 NOSIG
13-05-29 METAR LIMC 292020Z 31005KT 290V030 9999 RA SCT025 OVC040 10/10 Q1004 NOSIG
13-05-29 METAR LIMC 292050Z 28004KT 160V310 9999 -RA BKN040 10/10 Q1004 RERA NOSIG
13-05-29 METAR LIMC 292120Z 35003KT 280V070 9999 RA BKN040 10/09 Q1005 NOSIG
13-05-29 METAR LIMC 292150Z VRB02KT 9999 -RA BKN040 10/09 Q1005 RERA NOSIG
13-05-29 METAR LIMC 292220Z VRB02KT 9999 BKN040 10/10 Q1005 NOSIG
13-05-29 METAR LIMC 292250Z VRB02KT 9999 RA OVC040 10/10 Q1005 NOSIG
13-05-29 METAR LIMC 292320Z 27003KT 9999 RA OVC040 10/10 Q1004 NOSIG
13-05-29 METAR LIMC 292350Z 29005KT 9999 RA OVC040 10/10 Q1004 NOSIG
13-05-30 METAR LIMC 300020Z 30003KT 9999 RA OVC040 10/10 Q1004 NOSIG
13-05-30 METAR LIMC 300050Z 28003KT 270V060 9999 -RA BKN025 OVC040 10/10 Q1004 RERA NOSIG
13-05-30 METAR LIMC 300120Z 31003KT 280V090 9999 -RA SCT025 OVC040 10/10 Q1004
13-05-30 METAR LIMC 300150Z 29004KT 9999 -RA SCT025 OVC040 09/09 Q1004 NOSIG
13-05-30 METAR LIMC 300220Z 28006KT 9999 SCT040 BKN060 09/09 Q1004 NOSIG
13-05-30 METAR LIMC 300250Z 27004KT 9999 SCT040 BKN060 09/09 Q1003 NOSIG
13-05-30 METAR LIMC 300320Z 28005KT 9999 SCT040 BKN060 09/09 Q1003 NOSIG
13-05-30 METAR LIMC 300350Z VRB02KT 9999 FEW040 BKN060 09/09 Q1003 NOSIG
13-05-30 METAR LIMC 300420Z 28005KT 9999 MIFG FEW060 09/09 Q1003 NOSIG
13-05-30 METAR LIMC 300450Z VRB01KT 9999 VCFG FEW060 09/09 Q1003 NOSIG
13-05-30 METAR LIMC 300520Z VRB02KT 9999 VCFG FEW060 11/11 Q1003 NOSIG
13-05-30 METAR LIMC 300550Z 22002KT 9999 SCT060 11/10 Q1003 NOSIG
13-05-30 METAR LIMC 300620Z 21004KT 160V280 9999 FEW060 12/10 Q1004 NOSIG
13-05-30 METAR LIMC 300650Z 25003KT 200V280 9999 FEW060 13/09 Q1004 NOSIG
13-05-30 METAR LIMC 300720Z VRB02KT 9999 FEW060 14/09 Q1004 NOSIG
13-05-30 METAR LIMC 300750Z 25003KT 200V280 9999 FEW060 14/07 Q1004 NOSIG
13-05-30 METAR LIMC 300820Z 22003KT 190V270 9999 FEW060 15/08 Q1004 NOSIG
13-05-30 METAR LIMC 300850Z 24003KT 200V280 9999 FEW060 15/08 Q1003 NOSIG
13-05-30 METAR LIMC 300920Z VRB03KT 9999 FEW030 16/08 Q1003 NOSIG
13-05-30 METAR LIMC 300950Z 26003KT 200V300 9999 FEW030 17/08 Q1003 NOSIG
13-05-30 METAR LIMC 301020Z 23003KT 200V280 9999 FEW030 17/06 Q1003 NOSIG
13-05-30 METAR LIMC 301050Z VRB03KT 9999 FEW030 18/05 Q1003 NOSIG
13-05-30 METAR LIMC 301120Z 22004KT 190V280 9999 SCT030 18/05 Q1003 NOSIG
13-05-30 METAR LIMC 301150Z 20005KT 9999 SCT030 18/05 Q1003 NOSIG
13-05-30 METAR LIMC 301220Z 23004KT 190V270 9999 FEW020TCU SCT040 18/04 Q1003 NOSIG
13-05-30 METAR LIMC 301250Z 21006KT 9999 FEW020TCU SCT040 18/07 Q1002 NOSIG
13-05-30 METAR LIMC 301320Z 25006KT 9999 RA FEW020TCU BKN040 17/08 Q1002 NOSIG
13-05-30 METAR LIMC 301350Z 24004KT 9999 -RA FEW020TCU BKN040 16/06 Q1002 RERA
13-05-30 METAR LIMC 301420Z 26004KT 9999 SCT030 BKN060 16/07 Q1002 NOSIG
13-05-30 METAR LIMC 301450Z 21003KT 9999 SCT040 BKN070 16/08 Q1002 NOSIG
13-05-30 METAR LIMC 301520Z 20004KT 9999 SCT040 BKN070 17/07 Q1002 NOSIG
13-05-30 METAR LIMC 301550Z 20004KT 9999 SCT040 BKN070 17/08 Q1002 NOSIG
13-05-30 METAR LIMC 301620Z 20004KT 9999 SCT040 BKN080 18/09 Q1002 NOSIG
13-05-30 METAR LIMC 301650Z 22002KT 9999 SCT040 BKN080 18/07 Q1002 NOSIG
13-05-30 METAR LIMC 301720Z 20005KT 9999 SCT040 BKN080 17/07 Q1002 NOSIG
13-05-30 METAR LIMC 301750Z 19005KT 9999 SCT040 BKN080 17/06 Q1002 NOSIG
13-05-30 METAR LIMC 301820Z 18005KT 9999 SCT040 16/05 Q1003 NOSIG
13-05-30 METAR LIMC 301850Z NIL
13-05-30 METAR LIMC 301850Z 19004KT 9999 SCT040 15/06 Q1003 NOSIG
13-05-30 METAR LIMC 301920Z VRB04KT 9999 FEW060 14/07 Q1003 NOSIG
13-05-30 METAR LIMC 301950Z 18004KT 090V200 9999 FEW060 14/07 Q1004 NOSIG
13-05-30 METAR LIMC 302020Z 19004KT 9999 FEW060 12/07 Q1004 NOSIG
13-05-30 METAR LIMC 302050Z 20003KT 9999 FEW060 11/08 Q1004 NOSIG
13-05-30 METAR LIMC 302120Z VRB02KT CAVOK 10/08 Q1004 NOSIG
13-05-30 METAR LIMC 302150Z NIL
13-05-30 METAR LIMC 302150Z VRB02KT CAVOK 09/08 Q1004 NOSIG
13-05-30 METAR LIMC 302220Z 28003KT CAVOK 08/07 Q1003 NOSIG
13-05-30 METAR LIMC 302250Z 29003KT 270V060 CAVOK 07/07 Q1003 NOSIG
13-05-30 METAR LIMC 302320Z 29003KT 280V030 CAVOK 07/07 Q1003 NOSIG
13-05-30 METAR LIMC 302350Z NIL
13-05-30 METAR LIMC 302350Z VRB01KT CAVOK 07/07 Q1003 NOSIG
13-05-31 METAR LIMC 310020Z 28003KT 260V010 CAVOK 07/07 Q1002 NOSIG
13-05-31 METAR LIMC 310050Z VRB02KT CAVOK 07/07 Q1002 NOSIG
13-05-31 METAR LIMC 310120Z NIL
13-05-31 METAR LIMC 310150Z NIL
13-05-31 METAR LIMC 310220Z NIL
13-05-31 METAR LIMC 310250Z NIL
13-05-31 METAR LIMC 310250Z VRB01KT CAVOK 06/06 Q1002 NOSIG
13-05-31 METAR LIMC 310320Z NIL
13-05-31 METAR LIMC 310320Z 20003KT 090V230 9999 SCT080 06/06 Q1002 NOSIG
13-05-31 METAR LIMC 310350Z VRB02KT 9999 SCT080 06/06 Q1001 NOSIG
13-05-31 METAR LIMC 310420Z 29003KT 9999 BKN080 07/07 Q1001 NOSIG
13-05-31 METAR LIMC 310450Z 28003KT 9999 BKN080 08/08 Q1001 NOSIG
13-05-31 METAR LIMC 310520Z 29003KT 9999 BKN080 10/09 Q1001 NOSIG
13-05-31 METAR LIMC 310550Z 28003KT 9999 BKN080 10/09 Q1001 NOSIG
13-05-31 METAR LIMC 310620Z VRB02KT 9999 BKN080 11/08 Q1001 NOSIG
13-05-31 METAR LIMC 310650Z 27004KT 9999 BKN080 12/07 Q1001 NOSIG
13-05-31 METAR LIMC 310720Z 27003KT 220V280 9999 BKN080 13/06 Q1001 NOSIG
13-05-31 METAR LIMC 310750Z NIL
13-05-31 METAR LIMC 310750Z 28005KT 9999 BKN080 14/06 Q1002 NOSIG
13-05-31 METAR LIMC 310820Z 24003KT 9999 BKN080 14/07 Q1001 NOSIG
13-05-31 METAR LIMC 310850Z 22003KT 9999 BKN080 14/08 Q1001 NOSIG
13-05-31 METAR LIMC 310920Z 23003KT 200V260 9999 BKN080 15/06 Q1001 NOSIG
13-05-31 METAR LIMC 310950Z VRB02KT 9999 BKN080 17/06 Q1001 NOSIG
13-05-31 METAR LIMC 311020Z 23003KT 200V270 9999 BKN080 18/06 Q1001 NOSIG
13-05-31 METAR LIMC 311050Z 22004KT 9999 SCT040 BKN070 18/07 Q1001 NOSIG
13-05-31 METAR LIMC 311120Z 22005KT 9999 SCT040 BKN070 19/06 Q1001 NOSIG
13-05-31 METAR LIMC 311150Z 23004KT 9999 SCT040 BKN070 18/07 Q1001 NOSIG
13-05-31 METAR LIMC 311220Z 22003KT 9999 SCT040 BKN070 19/05 Q1001 NOSIG
13-05-31 METAR LIMC 311250Z 22004KT 200V260 9999 FEW040 BKN070 20/06 Q1001 NOSIG
13-05-31 METAR LIMC 311320Z 22005KT 9999 BKN070 21/02 Q1001 NOSIG
13-05-31 METAR LIMC 311350Z 21006KT 9999 BKN070 20/04 Q1001 NOSIG
13-05-31 METAR LIMC 311420Z 23004KT 9999 BKN070 21/03 Q1001 NOSIG
13-05-31 METAR LIMC 311450Z 22004KT 9999 BKN070 21/04 Q1000 NOSIG
13-05-31 METAR LIMC 311520Z 23004KT 9999 BKN070 21/04 Q1000 NOSIG
13-05-31 METAR LIMC 311550Z 22003KT 9999 SCT050 BKN070 20/05 Q1000 NOSIG
13-05-31 METAR LIMC 311620Z 22003KT 9999 SCT050 BKN070 21/06 Q1000 NOSIG
13-05-31 METAR LIMC 311650Z 20007KT 9999 SCT050 BKN070 19/10 Q1000 NOSIG
13-05-31 METAR LIMC 311720Z 20007KT 9999 SCT050 BKN070 19/09 Q1001 NOSIG
13-05-31 METAR LIMC 311750Z 21006KT 9999 SCT050 BKN070 18/09 Q1001 NOSIG
13-05-31 METAR LIMC 311820Z 22005KT 9999 SCT050 SCT070 17/09 Q1001 NOSIG
13-05-31 METAR LIMC 311850Z 22005KT 9999 SCT070 16/09 Q1001 NOSIG
13-05-31 METAR LIMC 311920Z 23005KT 9999 SCT070 16/09 Q1001 NOSIG
13-05-31 METAR LIMC 311950Z 21004KT 9999 SCT070 15/09 Q1002 NOSIG
13-05-31 METAR LIMC 312020Z 20006KT 9999 SCT070 14/09 Q1002 NOSIG
13-05-31 METAR LIMC 312050Z 19005KT 9999 SCT070 14/09 Q1002 NOSIG
13-05-31 METAR LIMC 312120Z 20007KT 9999 SCT070 13/08 Q1001 NOSIG
13-05-31 METAR LIMC 312150Z 20005KT 9999 SCT070 13/08 Q1002 NOSIG
13-05-31 METAR LIMC 312220Z VRB02KT 9999 SCT070 12/08 Q1002 NOSIG
13-05-31 METAR LIMC 312250Z VRB01KT 9999 SCT080 10/09 Q1001 NOSIG
13-05-31 METAR LIMC 312320Z VRB02KT CAVOK 10/09 Q1002 NOSIG
13-05-31 METAR LIMC 312350Z VRB02KT CAVOK 09/09 Q1002 NOSIG
13-06-01 METAR LIMC 010020Z NIL
13-06-01 METAR LIMC 010020Z VRB03KT CAVOK 08/08 Q1002 NOSIG
13-06-01 METAR LIMC 010050Z 21002KT CAVOK 09/09 Q1002 NOSIG
13-06-01 METAR LIMC 010120Z VRB03KT CAVOK 08/08 Q1002 NOSIG
13-06-01 METAR LIMC 010150Z 28004KT 9999 SCT070 09/09 Q1002 NOSIG
13-06-01 METAR LIMC 010220Z VRB03KT 9999 SCT070 08/08 Q1003 NOSIG
13-06-01 METAR LIMC 010250Z 30006KT 9999 SCT070 10/10 Q1002 NOSIG
13-06-01 METAR LIMC 010320Z 31005KT 9999 BKN060 11/09 Q1002 NOSIG
13-06-01 METAR LIMC 010350Z 32005KT 9999 BKN060 11/09 Q1003 NOSIG
13-06-01 METAR LIMC 010420Z 27003KT 220V300 9999 SCT070 12/08 Q1003 NOSIG
13-06-01 METAR LIMC 010450Z 31004KT 9999 SCT070 12/09 Q1003 NOSIG
13-06-01 METAR LIMC 010520Z 29006KT CAVOK 15/09 Q1003 NOSIG
13-06-01 METAR LIMC 010550Z 32004KT 300V360 CAVOK 15/08 Q1003 NOSIG
13-06-01 METAR LIMC 010620Z VRB02KT CAVOK 15/11 Q1003 NOSIG
13-06-01 METAR LIMC 010650Z 24003KT 200V270 CAVOK 14/10 Q1004 NOSIG
13-06-01 METAR LIMC 010720Z 24004KT 9999 SCT080 17/10 Q1004 NOSIG
13-06-01 METAR LIMC 010750Z 27005KT 9999 BKN080 19/10 Q1004 NOSIG
13-06-01 METAR LIMC 010820Z 18004KT 9999 BKN080 18/11 Q1005 NOSIG
13-06-01 METAR LIMC 010850Z 15003KT 090V180 9999 BKN080 17/11 Q1005 NOSIG
13-06-01 METAR LIMC 010920Z 17004KT 080V190 9999 BKN080 17/11 Q1006 NOSIG
13-06-01 METAR LIMC 010950Z 17004KT 090V190 9999 BKN080 18/11 Q1006 NOSIG
13-06-01 METAR LIMC 011020Z 18004KT 9999 BKN080 18/11 Q1006 NOSIG
13-06-01 METAR LIMC 011050Z VRB04KT 9999 BKN080 19/11 Q1006 NOSIG
13-06-01 METAR LIMC 011120Z 16003KT 070V190 9999 BKN080 19/10 Q1006 NOSIG
13-06-01 METAR LIMC 011150Z 18003KT 140V200 9999 SCT070 19/11 Q1006 NOSIG
13-06-01 METAR LIMC 011220Z 18005KT 9999 SCT070 19/11 Q1006 NOSIG
13-06-01 METAR LIMC 011250Z 20004KT 170V270 9999 SCT070 20/11 Q1006 NOSIG
13-06-01 METAR LIMC 011320Z 20005KT 9999 SCT080 20/11 Q1006 NOSIG
13-06-01 METAR LIMC 011350Z 22004KT 9999 SCT080 20/12 Q1006 NOSIG
13-06-01 METAR LIMC 011420Z 20005KT 9999 FEW090 21/11 Q1006 NOSIG
13-06-01 METAR LIMC 011450Z 19004KT 100V210 CAVOK 21/11 Q1006 NOSIG
13-06-01 METAR LIMC 011520Z 20003KT 110V220 CAVOK 22/10 Q1006 NOSIG
13-06-01 METAR LIMC 011550Z VRB03KT CAVOK 22/11 Q1006 NOSIG
13-06-01 METAR LIMC 011620Z VRB03KT CAVOK 22/11 Q1006 NOSIG
13-06-01 METAR LIMC 011650Z 19004KT 9999 SCT050 22/11 Q1006 NOSIG
13-06-01 METAR LIMC 011720Z 19003KT 9999 SCT050 22/11 Q1007 NOSIG
13-06-01 METAR LIMC 011750Z 16004KT 110V190 9999 SCT050 20/11 Q1007 NOSIG
13-06-01 METAR LIMC 011820Z 19003KT 9999 SCT050 20/11 Q1007 NOSIG
13-06-01 METAR LIMC 011850Z 20003KT 9999 SCT050 18/12 Q1008 NOSIG
13-06-01 METAR LIMC 011920Z VRB02KT 9999 SCT070 16/12 Q1008 NOSIG
13-06-01 METAR LIMC 011950Z 09001KT 9999 BKN070 15/12 Q1008 NOSIG
13-06-01 METAR LIMC 012020Z VRB02KT 9999 BKN070 15/13 Q1008 NOSIG
13-06-01 METAR LIMC 012050Z VRB03KT 9999 BKN070 14/12 Q1009 NOSIG
13-06-01 METAR LIMC 012120Z VRB03KT 9999 BKN070 13/12 Q1009 NOSIG
13-06-01 METAR LIMC 012150Z 29003KT 270V050 9999 BKN070 13/12 Q1009 NOSIG
13-06-01 METAR LIMC 012220Z VRB02KT 9999 BKN070 13/12 Q1009 NOSIG
13-06-01 METAR LIMC 012250Z VRB03KT 9999 BKN070 13/12 Q1008 NOSIG
13-06-01 METAR LIMC 012320Z 31003KT 270V050 9999 BKN070 12/12 Q1008 NOSIG
13-06-01 METAR LIMC 012350Z 33003KT 270V070 9999 BKN070 11/11 Q1008 NOSIG
13-06-02 METAR LIMC 020020Z VRB02KT 9999 SCT070 11/11 Q1008 NOSIG
13-06-02 METAR LIMC 020050Z 29003KT CAVOK 10/10 Q1008 NOSIG
13-06-02 METAR LIMC 020120Z 21003KT CAVOK 11/11 Q1008 NOSIG
13-06-02 METAR LIMC 020150Z 27003KT CAVOK 11/11 Q1008 NOSIG
13-06-02 METAR LIMC 020220Z VRB02KT CAVOK 10/10 Q1008 NOSIG
13-06-02 METAR LIMC 020250Z 19003KT 060V210 CAVOK 10/10 Q1008 NOSIG
13-06-02 METAR LIMC 020320Z 28003KT CAVOK 10/09 Q1008 NOSIG
13-06-02 METAR LIMC 020350Z 30003KT CAVOK 09/09 Q1008 NOSIG
13-06-02 METAR LIMC 020420Z VRB01KT CAVOK 10/08 Q1008 NOSIG
13-06-02 METAR LIMC 020450Z VRB02KT CAVOK 10/09 Q1008 NOSIG
13-06-02 METAR LIMC 020520Z 29004KT CAVOK 15/10 Q1008 NOSIG
13-06-02 METAR LIMC 020550Z 32003KT 290V050 CAVOK 18/09 Q1009 NOSIG
13-06-02 METAR LIMC 020620Z 30003KT 280V010 CAVOK 20/08 Q1009 NOSIG
13-06-02 METAR LIMC 020650Z 36004KT 320V020 CAVOK 22/07 Q1009 NOSIG
13-06-02 METAR LIMC 020720Z 36005KT 330V040 CAVOK 23/05 Q1009 NOSIG
13-06-02 METAR LIMC 020750Z 36005KT 330V030 CAVOK 23/05 Q1009 NOSIG
13-06-02 METAR LIMC 020820Z 32007KT 300V360 CAVOK 24/04 Q1009 NOSIG
13-06-02 METAR LIMC 020850Z 33006KT 300V020 CAVOK 25/03 Q1009 NOSIG
13-06-02 METAR LIMC 020920Z 32008KT CAVOK 25/05 Q1009 NOSIG
13-06-02 METAR LIMC 020950Z 33007KT 290V010 CAVOK 26/03 Q1009 NOSIG
13-06-02 METAR LIMC 021020Z 33006KT 300V030 CAVOK 26/03 Q1009 NOSIG
13-06-02 METAR LIMC 021050Z 36005KT 310V050 CAVOK 26/05 Q1009 NOSIG
13-06-02 METAR LIMC 021120Z 35005KT 310V050 CAVOK 27/04 Q1009 NOSIG
13-06-02 METAR LIMC 021150Z 34006KT 280V020 CAVOK 27/03 Q1009 NOSIG
13-06-02 METAR LIMC 021220Z 35006KT 300V050 CAVOK 27/05 Q1009 NOSIG
13-06-02 METAR LIMC 021250Z 02005KT 340V050 CAVOK 27/04 Q1009 NOSIG
13-06-02 METAR LIMC 021320Z 34005KT 260V040 CAVOK 26/04 Q1009 NOSIG
13-06-02 METAR LIMC 021350Z 01006KT 330V040 CAVOK 26/04 Q1009 NOSIG
13-06-02 METAR LIMC 021420Z 36006KT 310V040 CAVOK 27/04 Q1009 NOSIG
13-06-02 METAR LIMC 021450Z 34007KT CAVOK 26/04 Q1009 NOSIG
13-06-02 METAR LIMC 021520Z 33009KT 310V010 CAVOK 26/03 Q1009 NOSIG
13-06-02 METAR LIMC 021550Z 34006KT 310V020 CAVOK 26/04 Q1010 NOSIG
13-06-02 METAR LIMC 021620Z 34008KT CAVOK 25/03 Q1010 NOSIG
13-06-02 METAR LIMC 021650Z 36007KT 320V040 CAVOK 25/03 Q1010 NOSIG
13-06-02 METAR LIMC 021720Z 34006KT 300V020 CAVOK 24/03 Q1010 NOSIG
13-06-02 METAR LIMC 021750Z 34007KT 300V010 CAVOK 24/02 Q1011 NOSIG
13-06-02 METAR LIMC 021820Z 34006KT 310V020 CAVOK 23/02 Q1011 NOSIG
13-06-02 METAR LIMC 021850Z 34005KT 300V010 CAVOK 22/02 Q1011 NOSIG
13-06-02 METAR LIMC 021920Z 33005KT 300V360 CAVOK 21/02 Q1012 NOSIG
13-06-02 METAR LIMC 021950Z 33004KT 310V010 CAVOK 21/02 Q1012 NOSIG
13-06-02 METAR LIMC 022020Z 33005KT CAVOK 20/02 Q1012 NOSIG
13-06-02 METAR LIMC 022050Z 35005KT 320V030 CAVOK 20/01 Q1012 NOSIG
13-06-02 METAR LIMC 022120Z 33006KT CAVOK 20/01 Q1013 NOSIG
13-06-02 METAR LIMC 022150Z 32005KT CAVOK 18/02 Q1013 NOSIG
13-06-02 METAR LIMC 022220Z 33004KT CAVOK 19/01 Q1013 NOSIG
13-06-02 METAR LIMC 022250Z 32004KT CAVOK 18/01 Q1013 NOSIG
13-06-02 METAR LIMC 022320Z 01003KT 300V060 CAVOK 18/01 Q1013 NOSIG
13-06-02 METAR LIMC 022350Z 04003KT 320V060 CAVOK 18/01 Q1013 NOSIG
13-06-03 METAR LIMC 030020Z 07004KT CAVOK 18/02 Q1014 NOSIG
13-06-03 METAR LIMC 030050Z 15003KT 070V180 CAVOK 18/05 Q1014 NOSIG
13-06-03 METAR LIMC 030120Z VRB02KT CAVOK 16/08 Q1014 NOSIG
13-06-03 METAR LIMC 030150Z VRB02KT CAVOK 15/10 Q1014 NOSIG
13-06-03 METAR LIMC 030220Z VRB02KT CAVOK 15/12 Q1014 NOSIG
13-06-03 METAR LIMC 030250Z 09003KT 050V160 CAVOK 15/14 Q1014 NOSIG
13-06-03 METAR LIMC 030320Z 14003KT 070V180 CAVOK 16/14 Q1015 NOSIG
13-06-03 METAR LIMC 030350Z 16003KT 070V200 CAVOK 15/13 Q1015 NOSIG
13-06-03 METAR LIMC 030420Z VRB02KT CAVOK 15/13 Q1015 NOSIG
13-06-03 METAR LIMC 030450Z 27004KT CAVOK 15/14 Q1015 NOSIG
13-06-03 METAR LIMC 030520Z VRB02KT CAVOK 17/14 Q1015 NOSIG
13-06-03 METAR LIMC 030550Z VRB02KT CAVOK 18/12 Q1015 NOSIG
13-06-03 METAR LIMC 030620Z 18004KT 9999 SCT080 17/12 Q1016 NOSIG
13-06-03 METAR LIMC 030650Z 19004KT 9999 BKN070 17/11 Q1016 NOSIG
13-06-03 METAR LIMC 030720Z 19004KT 9999 BKN070 17/11 Q1016 NOSIG
13-06-03 METAR LIMC 030750Z VRB03KT 9999 BKN080 18/11 Q1016 NOSIG
13-06-03 METAR LIMC 030820Z VRB03KT 9999 BKN080 19/11 Q1016 NOSIG
13-06-03 METAR LIMC 030850Z 17003KT 060V220 9999 BKN080 19/10 Q1016 NOSIG
13-06-03 METAR LIMC 030920Z 17003KT 060V230 9999 BKN080 19/11 Q1016 NOSIG
13-06-03 METAR LIMC 030950Z 16003KT 050V190 9999 BKN080 20/10 Q1016 NOSIG
13-06-03 METAR LIMC 031020Z 18004KT 9999 BKN080 20/10 Q1016 NOSIG
13-06-03 METAR LIMC 031050Z 15004KT 060V210 9999 BKN080 21/10 Q1016 NOSIG
13-06-03 METAR LIMC 031120Z 15004KT 060V190 9999 SCT080 21/09 Q1016 NOSIG
13-06-03 METAR LIMC 031150Z 18005KT 090V210 9999 SCT080 22/09 Q1015 NOSIG
13-06-03 METAR LIMC 031220Z VRB04KT 9999 FEW050 22/08 Q1015 NOSIG
13-06-03 METAR LIMC 031250Z 18004KT 060V230 9999 FEW050 22/07 Q1015 NOSIG
13-06-03 METAR LIMC 031320Z 21005KT 180V270 9999 FEW050 23/08 Q1015 NOSIG
13-06-03 METAR LIMC 031350Z 20004KT 170V250 9999 FEW050 22/06 Q1014 NOSIG
13-06-03 METAR LIMC 031420Z 21004KT 170V240 9999 FEW050 23/08 Q1014 NOSIG
13-06-03 METAR LIMC 031450Z VRB03KT CAVOK 23/08 Q1014 NOSIG
13-06-03 METAR LIMC 031520Z 20005KT 170V240 CAVOK 23/08 Q1014 NOSIG
13-06-03 METAR LIMC 031550Z 19005KT 9999 SCT070 23/08 Q1013 NOSIG
13-06-03 METAR LIMC 031620Z 19005KT 9999 SCT060 22/08 Q1013 NOSIG
13-06-03 METAR LIMC 031650Z NIL
13-06-03 METAR LIMC 031720Z 20005KT 9999 BKN060 21/08 Q1013 NOSIG
13-06-03 METAR LIMC 031750Z 19005KT 9999 BKN060 21/09 Q1014 NOSIG
13-06-03 METAR LIMC 031820Z 20005KT 9999 BKN060 21/09 Q1014 NOSIG
13-06-03 METAR LIMC 031850Z 20004KT 9999 SCT060 20/10 Q1014 NOSIG
13-06-03 METAR LIMC 031920Z 19003KT 9999 SCT070 17/09 Q1014 NOSIG
13-06-03 METAR LIMC 031950Z 18004KT 9999 SCT090 17/11 Q1015 NOSIG
13-06-03 METAR LIMC 032020Z 17003KT 9999 SCT090 18/11 Q1015 NOSIG
13-06-03 METAR LIMC 032050Z 17003KT CAVOK 17/12 Q1015 NOSIG
13-06-03 METAR LIMC 032120Z 18003KT CAVOK 16/12 Q1015 NOSIG
13-06-03 METAR LIMC 032150Z 29003KT CAVOK 15/12 Q1015 NOSIG
13-06-03 METAR LIMC 032220Z VRB02KT CAVOK 14/12 Q1015 NOSIG
13-06-03 METAR LIMC 032250Z 28003KT 270V060 CAVOK 14/12 Q1015 NOSIG
13-06-03 METAR LIMC 032320Z 34003KT 280V090 CAVOK 14/12 Q1015 NOSIG
13-06-03 METAR LIMC 032350Z 29003KT CAVOK 13/12 Q1015 NOSIG
13-06-04 METAR LIMC 040020Z 30004KT CAVOK 13/12 Q1015 NOSIG
13-06-04 METAR LIMC 040050Z 28003KT CAVOK 12/11 Q1015 NOSIG
13-06-04 METAR LIMC 040120Z 29003KT 270V330 CAVOK 11/11 Q1015 NOSIG
13-06-04 METAR LIMC 040150Z 29003KT CAVOK 11/10 Q1015 NOSIG
13-06-04 METAR LIMC 040220Z 28003KT 190V310 CAVOK 11/11 Q1015 NOSIG
13-06-04 METAR LIMC 040250Z 30003KT CAVOK 12/11 Q1015 NOSIG
13-06-04 METAR LIMC 040320Z VRB02KT CAVOK 10/10 Q1015 NOSIG
13-06-04 METAR LIMC 040350Z 29003KT 280V040 CAVOK 10/10 Q1015 NOSIG
13-06-04 METAR LIMC 040420Z 29003KT 280V360 CAVOK 10/10 Q1015 NOSIG
13-06-04 METAR LIMC 040450Z VRB02KT CAVOK 11/11 Q1015 NOSIG
13-06-04 METAR LIMC 040520Z 29003KT CAVOK 14/10 Q1015 NOSIG
13-06-04 METAR LIMC 040550Z 29003KT 270V010 CAVOK 15/09 Q1015 NOSIG
13-06-04 METAR LIMC 040620Z 29003KT 280V360 CAVOK 17/11 Q1015 NOSIG
13-06-04 METAR LIMC 040650Z VRB02KT CAVOK 18/10 Q1015 NOSIG
13-06-04 METAR LIMC 040720Z VRB03KT CAVOK 19/11 Q1016 NOSIG
13-06-04 METAR LIMC 040750Z VRB03KT CAVOK 19/10 Q1016 NOSIG
13-06-04 METAR LIMC 040820Z NIL
13-06-04 METAR LIMC 040820Z VRB02KT CAVOK 20/10 Q1015 NOSIG
13-06-04 METAR LIMC 040850Z VRB02KT CAVOK 20/09 Q1015 NOSIG
13-06-04 METAR LIMC 040920Z VRB02KT 9999 SCT090 20/08 Q1015 NOSIG
13-06-04 METAR LIMC 040950Z NIL
13-06-04 METAR LIMC 041020Z VRB03KT 9999 BKN090 21/09 Q1015 NOSIG
13-06-04 METAR LIMC 041050Z 20005KT 9999 BKN090 21/08 Q1015 NOSIG
13-06-04 METAR LIMC 041120Z 25003KT 200V280 9999 BKN090 23/09 Q1015 NOSIG
13-06-04 METAR LIMC 041150Z 24003KT 210V270 9999 BKN090 23/09 Q1014 NOSIG
13-06-04 METAR LIMC 041220Z 23004KT 180V290 9999 SCT090 23/10 Q1014 NOSIG
13-06-04 METAR LIMC 041250Z VRB02KT CAVOK 23/08 Q1014 NOSIG
13-06-04 METAR LIMC 041320Z 21004KT 180V260 CAVOK 23/11 Q1014 NOSIG
13-06-04 METAR LIMC 041350Z 22005KT 200V260 CAVOK 24/08 Q1014 NOSIG
13-06-04 METAR LIMC 041420Z 22006KT 200V260 CAVOK 24/10 Q1013 NOSIG
13-06-04 METAR LIMC 041450Z 22005KT 200V260 CAVOK 24/10 Q1013 NOSIG
13-06-04 METAR LIMC 041520Z 23003KT 200V260 CAVOK 24/09 Q1013 NOSIG
13-06-04 METAR LIMC 041550Z 22004KT 190V250 CAVOK 24/10 Q1013 NOSIG
13-06-04 METAR LIMC 041620Z 22004KT CAVOK 24/09 Q1013 NOSIG
13-06-04 METAR LIMC 041650Z 21005KT CAVOK 24/09 Q1012 NOSIG
13-06-04 METAR LIMC 041720Z 22003KT CAVOK 24/10 Q1012 NOSIG
13-06-04 METAR LIMC 041750Z 20006KT CAVOK 23/10 Q1013 NOSIG
13-06-04 METAR LIMC 041820Z 20005KT CAVOK 22/11 Q1013 NOSIG
13-06-04 METAR LIMC 041850Z 20005KT CAVOK 20/11 Q1013 NOSIG
13-06-04 METAR LIMC 041920Z 20005KT CAVOK 19/11 Q1013 NOSIG
13-06-04 METAR LIMC 041950Z 19004KT CAVOK 18/11 Q1013 NOSIG
13-06-04 METAR LIMC 042020Z 20004KT CAVOK 18/11 Q1014 NOSIG
13-06-04 METAR LIMC 042050Z 19005KT CAVOK 18/11 Q1014 NOSIG
13-06-04 METAR LIMC 042120Z 19004KT CAVOK 18/12 Q1014 NOSIG
13-06-04 METAR LIMC 042150Z 19004KT 9999 SCT060 17/12 Q1014 NOSIG
13-06-04 METAR LIMC 042220Z 21005KT 9999 SCT060 18/12 Q1015 NOSIG
13-06-04 METAR LIMC 042250Z 21005KT 9999 SCT060 18/12 Q1015 NOSIG
13-06-04 METAR LIMC 042320Z 21005KT 9999 BKN060 17/12 Q1014 NOSIG
13-06-04 METAR LIMC 042350Z 20004KT 9999 BKN060 16/11 Q1014 NOSIG
13-06-05 METAR LIMC 050020Z VRB02KT 9999 BKN050 16/13 Q1015 NOSIG
13-06-05 METAR LIMC 050050Z VRB02KT 9999 BKN050 16/13 Q1015 NOSIG
13-06-05 METAR LIMC 050120Z VRB01KT 9999 BKN050 16/13 Q1015 NOSIG
13-06-05 METAR LIMC 050150Z VRB02KT 9999 BKN050 15/13 Q1015 NOSIG
13-06-05 METAR LIMC 050220Z 17003KT 110V190 9999 BKN050 17/11 Q1015 NOSIG
13-06-05 METAR LIMC 050250Z 18003KT 110V190 9999 BKN050 16/11 Q1015 NOSIG
13-06-05 METAR LIMC 050320Z 19004KT 9999 SCT050 15/11 Q1015 NOSIG
13-06-05 METAR LIMC 050350Z VRB02KT 9999 BKN050 15/11 Q1016 NOSIG
13-06-05 METAR LIMC 050420Z 29003KT 9999 BKN050 15/12 Q1016 NOSIG
13-06-05 METAR LIMC 050450Z 29003KT 9999 SCT050 14/12 Q1016 NOSIG
13-06-05 METAR LIMC 050520Z 28003KT 280V010 9999 FEW090 15/13 Q1016 NOSIG
13-06-05 METAR LIMC 050550Z 30003KT 9999 FEW090 17/13 Q1017 NOSIG
13-06-05 METAR LIMC 050620Z NIL
13-06-05 METAR LIMC 050620Z VRB02KT CAVOK 19/13 Q1017 NOSIG
13-06-05 METAR LIMC 050650Z 20004KT CAVOK 19/13 Q1017 NOSIG
13-06-05 METAR LIMC 050720Z VRB03KT 9999 FEW050 20/12 Q1017 NOSIG
13-06-05 METAR LIMC 050750Z 17003KT 140V200 9999 SCT050 20/12 Q1017 NOSIG
13-06-05 METAR LIMC 050820Z 14003KT 090V190 9999 SCT050 21/12 Q1017 NOSIG
13-06-05 METAR LIMC 050850Z VRB02KT 9999 SCT040 20/12 Q1017 NOSIG
13-06-05 METAR LIMC 050920Z NIL
13-06-05 METAR LIMC 050950Z VRB02KT 9999 FEW050 22/11 Q1016 NOSIG
13-06-05 METAR LIMC 051020Z VRB03KT CAVOK 22/11 Q1016 NOSIG
13-06-05 METAR LIMC 051050Z 19004KT 170V260 CAVOK 23/11 Q1016 NOSIG
13-06-05 METAR LIMC 051120Z VRB03KT CAVOK 23/10 Q1016 NOSIG
13-06-05 METAR LIMC 051150Z VRB04KT 9999 FEW060 24/11 Q1016 NOSIG
13-06-05 METAR LIMC 051220Z 22004KT 180V280 9999 FEW060 24/11 Q1015 NOSIG
13-06-05 METAR LIMC 051250Z 20004KT 160V240 9999 FEW060 24/11 Q1015 NOSIG
13-06-05 METAR LIMC 051320Z VRB04KT 9999 FEW060 25/10 Q1015 NOSIG
13-06-05 METAR LIMC 051350Z 21005KT 170V250 9999 SCT050 25/11 Q1015 NOSIG
13-06-05 METAR LIMC 051420Z 19006KT 160V220 9999 SCT050 24/10 Q1015 NOSIG
13-06-05 METAR LIMC 051450Z 20006KT 9999 SCT050 24/10 Q1015 NOSIG
13-06-05 METAR LIMC 051520Z 21004KT 190V250 9999 SCT050 25/10 Q1015 NOSIG
13-06-05 METAR LIMC 051550Z 20006KT 9999 SCT050 25/12 Q1014 NOSIG
13-06-05 METAR LIMC 051620Z 24004KT 210V270 9999 SCT050 24/12 Q1014 NOSIG
13-06-05 METAR LIMC 051650Z 25004KT 9999 SCT050 24/10 Q1014 NOSIG
13-06-05 METAR LIMC 051720Z 26004KT 9999 SCT050 24/11 Q1015 NOSIG
13-06-05 METAR LIMC 051750Z 04003KT 320V090 9999 FEW020TCU SCT050 23/12 Q1015 BECMG TSRA
13-06-05 METAR LIMC 051820Z 33003KT 280V050 9999 FEW020TCU SCT050 22/12 Q1015 NOSIG
13-06-05 METAR LIMC 051850Z 17003KT 070V200 9999 SCT020 SCT050 22/12 Q1015 NOSIG
13-06-05 METAR LIMC 051920Z 06003KT 040V110 9999 SCT020 SCT050 20/13 Q1015 NOSIG
13-06-05 METAR LIMC 051950Z 14003KT 060V190 9999 SCT020 SCT050 19/13 Q1016 NOSIG
13-06-05 METAR LIMC 052020Z VRB01KT 9999 SCT020 SCT070 18/13 Q1016 NOSIG
13-06-05 METAR LIMC 052050Z 20003KT 070V230 9999 SCT080 17/15 Q1017 NOSIG
13-06-05 METAR LIMC 052120Z 20003KT 9999 SCT080 16/15 Q1017 NOSIG
13-06-05 METAR LIMC 052150Z 20003KT 9999 SCT080 17/15 Q1017 NOSIG
13-06-05 METAR LIMC 052220Z 18003KT 140V200 9999 SCT080 17/15 Q1017 NOSIG
13-06-05 METAR LIMC 052250Z VRB02KT 9999 BKN080 18/13 Q1017 NOSIG
13-06-05 METAR LIMC 052320Z VRB01KT 9999 BKN080 17/14 Q1017 NOSIG
13-06-05 METAR LIMC 052350Z VRB01KT 9999 BKN080 16/12 Q1017 NOSIG
13-06-06 METAR LIMC 060020Z VRB02KT 9999 BKN080 16/13 Q1017 NOSIG
13-06-06 METAR LIMC 060050Z VRB02KT 9999 BKN070 17/15 Q1018 NOSIG
13-06-06 METAR LIMC 060120Z VRB03KT 9999 BKN070 17/15 Q1018 NOSIG
13-06-06 METAR LIMC 060150Z VRB02KT 9999 SCT035 SCT070 17/15 Q1018 NOSIG
13-06-06 METAR LIMC 060220Z VRB02KT 9999 SCT035 SCT070 16/15 Q1018 NOSIG
13-06-06 METAR LIMC 060250Z 04002KT 9999 SCT035 16/15 Q1018 NOSIG
13-06-06 METAR LIMC 060320Z VRB02KT 8000 SCT060 16/15 Q1018 NOSIG
13-06-06 METAR LIMC 060350Z VRB02KT 7000 BKN050 16/15 Q1018 NOSIG
13-06-06 METAR LIMC 060420Z VRB02KT 7000 SCT050 16/15 Q1019 NOSIG
13-06-06 METAR LIMC 060450Z VRB02KT 7000 SCT060 16/15 Q1019 NOSIG
13-06-06 METAR LIMC 060520Z VRB01KT 7000 BKN060 16/15 Q1019 NOSIG
13-06-06 METAR LIMC 060550Z VRB01KT 7000 SCT070 17/15 Q1019 NOSIG
13-06-06 METAR LIMC 060620Z VRB02KT 9999 SCT060 18/14 Q1019 NOSIG
13-06-06 METAR LIMC 060650Z 19004KT 060V210 9999 SCT050 19/14 Q1019 NOSIG
13-06-06 METAR LIMC 060720Z NIL
13-06-06 METAR LIMC 060720Z 18003KT 130V200 9999 SCT050 19/14 Q1019 NOSIG
13-06-06 METAR LIMC 060750Z VRB02KT 9999 SCT040 21/13 Q1019 NOSIG
13-06-06 METAR LIMC 060820Z 22003KT 180V270 9999 SCT040 20/12 Q1019 NOSIG
13-06-06 METAR LIMC 060850Z VRB02KT 9999 SCT040 20/11 Q1019 NOSIG
13-06-06 METAR LIMC 060920Z VRB03KT 9999 BKN040 22/12 Q1019 NOSIG
13-06-06 METAR LIMC 060950Z NIL
13-06-06 METAR LIMC 060950Z VRB03KT 9999 BKN040 22/12 Q1019 NOSIG
13-06-06 METAR LIMC 061020Z 20004KT 120V230 9999 SCT040 22/12 Q1019 NOSIG
13-06-06 METAR LIMC 061050Z VRB02KT 9999 SCT040 22/11 Q1019 NOSIG
13-06-06 METAR LIMC 061120Z 21004KT 170V270 9999 SCT040 23/12 Q1018 NOSIG
13-06-06 METAR LIMC 061150Z 23003KT 190V270 9999 SCT040 23/12 Q1018 NOSIG
13-06-06 METAR LIMC 061220Z 19005KT 170V230 9999 SCT040 23/13 Q1018 NOSIG
13-06-06 METAR LIMC 061250Z 22004KT 170V280 9999 SCT040 24/12 Q1017 NOSIG
13-06-06 METAR LIMC 061320Z 23003KT 190V270 9999 SCT040 25/13 Q1017 NOSIG
13-06-06 METAR LIMC 061350Z VRB04KT 9999 SCT040 24/14 Q1017 NOSIG
13-06-06 METAR LIMC 061420Z 25005KT 200V280 9999 FEW040 24/13 Q1017 NOSIG
13-06-06 METAR LIMC 061450Z 23003KT 170V270 9999 FEW040 24/12 Q1016 NOSIG
13-06-06 METAR LIMC 061550Z 23003KT 200V280 9999 FEW040 24/12 Q1016 NOSIG
13-06-06 METAR LIMC 061620Z 23004KT 200V280 9999 FEW040 24/12 Q1016 NOSIG
13-06-06 METAR LIMC 061650Z 25003KT 9999 FEW040 24/13 Q1016 NOSIG
13-06-06 METAR LIMC 061720Z NIL
13-06-06 METAR LIMC 061720Z 20005KT 9999 FEW040 24/13 Q1016 NOSIG
13-06-06 METAR LIMC 061750Z 19005KT CAVOK 23/13 Q1016 NOSIG
13-06-06 METAR LIMC 061820Z 19004KT 9999 FEW030 23/13 Q1017 NOSIG
13-06-06 METAR LIMC 061850Z 20004KT CAVOK 22/13 Q1017 NOSIG
13-06-06 METAR LIMC 061920Z NIL
13-06-06 METAR LIMC 061920Z 20003KT CAVOK 20/14 Q1017 NOSIG
13-06-06 METAR LIMC 061950Z VRB02KT CAVOK 19/13 Q1018 NOSIG
13-06-06 METAR LIMC 062020Z 07002KT CAVOK 19/13 Q1018 NOSIG
13-06-06 METAR LIMC 062050Z 13003KT 070V180 CAVOK 20/14 Q1018 NOSIG
13-06-06 METAR LIMC 062120Z 17003KT 090V190 9999 FEW060 20/14 Q1018 NOSIG
13-06-06 METAR LIMC 062150Z VRB02KT 9999 BKN060 19/14 Q1018 NOSIG
13-06-06 METAR LIMC 062220Z 06003KT 9999 BKN060 18/15 Q1019 NOSIG
13-06-06 METAR LIMC 062250Z 08003KT 040V170 9999 SCT060 18/14 Q1018 NOSIG
13-06-06 METAR LIMC 062320Z VRB02KT 9999 SCT060 18/14 Q1019 NOSIG
13-06-06 METAR LIMC 062350Z VRB02KT 9999 SCT060 18/13 Q1019 NOSIG
13-06-07 METAR LIMC 070020Z 29003KT 9999 SCT050 19/14 Q1019 NOSIG
13-06-07 METAR LIMC 070050Z 29003KT 280V010 9999 SCT050 18/14 Q1019 NOSIG
13-06-07 METAR LIMC 070120Z 30003KT 9999 SCT050 18/14 Q1019 NOSIG
13-06-07 METAR LIMC 070150Z 28004KT 9999 SCT050 17/14 Q1019 NOSIG
13-06-07 METAR LIMC 070220Z 29003KT 9999 SCT050 18/15 Q1019 NOSIG
13-06-07 METAR LIMC 070250Z VRB02KT 9999 SCT050 17/14 Q1019 NOSIG
13-06-07 METAR LIMC 070320Z VRB02KT 9999 BKN070 17/14 Q1018 NOSIG
13-06-07 METAR LIMC 070420Z NIL
13-06-07 METAR LIMC 070420Z VRB02KT 9999 SCT080 16/14 Q1018 NOSIG
13-06-07 METAR LIMC 070450Z 31003KT 290V040 CAVOK 16/15 Q1019 NOSIG
13-06-07 METAR LIMC 070520Z 30003KT CAVOK 17/15 Q1019 NOSIG
13-06-07 METAR LIMC 070550Z 29004KT CAVOK 18/15 Q1019 NOSIG
13-06-07 METAR LIMC 070620Z 30003KT CAVOK 19/15 Q1019 NOSIG
13-06-07 METAR LIMC 070650Z VRB03KT CAVOK 20/15 Q1019 NOSIG
13-06-07 METAR LIMC 070720Z NIL
13-06-07 METAR LIMC 070750Z VRB02KT CAVOK 22/13 Q1018 NOSIG
13-06-07 METAR LIMC 070820Z VRB02KT CAVOK 22/13 Q1018 NOSIG
13-06-07 METAR LIMC 070850Z 22003KT 150V280 CAVOK 23/14 Q1018 NOSIG
13-06-07 METAR LIMC 070920Z 19004KT 160V230 CAVOK 23/14 Q1018 NOSIG
13-06-07 METAR LIMC 070950Z 19005KT 150V230 9999 SCT030 23/14 Q1018 NOSIG
13-06-07 METAR LIMC 071020Z 22004KT 180V270 9999 SCT030 24/14 Q1018 NOSIG
13-06-07 METAR LIMC 071050Z 21003KT 170V270 9999 SCT030 24/14 Q1018 NOSIG
13-06-07 METAR LIMC 071120Z 25003KT 200V290 9999 SCT030 25/14 Q1018 NOSIG
13-06-07 METAR LIMC 071150Z 22004KT 170V250 9999 SCT030 25/14 Q1017 NOSIG
13-06-07 METAR LIMC 071220Z 24004KT 210V280 9999 FEW030 25/13 Q1017 NOSIG
13-06-07 METAR LIMC 071250Z VRB03KT 9999 FEW030 25/13 Q1016 NOSIG
13-06-07 METAR LIMC 071320Z 24004KT 210V270 9999 FEW030 25/13 Q1016 NOSIG
13-06-07 METAR LIMC 071350Z 21004KT 9999 FEW030 25/13 Q1016 NOSIG
13-06-07 METAR LIMC 071420Z 19005KT 9999 FEW030 25/13 Q1016 NOSIG
13-06-07 METAR LIMC 071450Z 20006KT 9999 FEW030 25/13 Q1016 NOSIG
13-06-07 METAR LIMC 071520Z 21005KT 9999 SCT030 25/13 Q1016 NOSIG
13-06-07 METAR LIMC 071550Z 23004KT 9999 SCT030 24/14 Q1016 NOSIG
13-06-07 METAR LIMC 071620Z 24003KT 9999 SCT040 24/13 Q1016 NOSIG
13-06-07 METAR LIMC 071650Z 24004KT 9999 SCT040 25/13 Q1016 NOSIG
13-06-07 METAR LIMC 071720Z 27006KT 9999 SCT060 23/13 Q1016 NOSIG
13-06-07 METAR LIMC 071750Z 27005KT CAVOK 24/14 Q1016 NOSIG
13-06-07 METAR LIMC 071820Z VRB02KT CAVOK 23/13 Q1016 NOSIG
13-06-07 METAR LIMC 071850Z VRB03KT CAVOK 21/14 Q1016 NOSIG
13-06-07 METAR LIMC 071920Z VRB01KT CAVOK 19/14 Q1017 NOSIG
13-06-07 METAR LIMC 071950Z 28003KT CAVOK 19/15 Q1017 NOSIG
13-06-07 METAR LIMC 072020Z VRB02KT CAVOK 18/14 Q1017 NOSIG
13-06-07 METAR LIMC 072050Z VRB02KT CAVOK 17/14 Q1017 NOSIG
13-06-07 METAR LIMC 072120Z 29004KT CAVOK 17/15 Q1017 NOSIG
13-06-07 METAR LIMC 072150Z 30004KT CAVOK 17/15 Q1017 NOSIG
13-06-07 METAR LIMC 072220Z 30003KT CAVOK 18/15 Q1017 NOSIG
13-06-07 METAR LIMC 072250Z 25004KT 190V310 CAVOK 17/15 Q1017 NOSIG
13-06-07 METAR LIMC 072320Z 19003KT 130V210 CAVOK 17/15 Q1017 NOSIG
13-06-07 METAR LIMC 072350Z 30003KT CAVOK 17/16 Q1017 NOSIG
13-06-08 METAR LIMC 080020Z 30003KT CAVOK 17/15 Q1017 NOSIG
13-06-08 METAR LIMC 080050Z 30003KT CAVOK 16/15 Q1017 NOSIG
13-06-08 METAR LIMC 080120Z 31004KT CAVOK 15/14 Q1017 NOSIG
13-06-08 METAR LIMC 080150Z 31004KT CAVOK 16/14 Q1017 NOSIG
13-06-08 METAR LIMC 080220Z 31004KT CAVOK 15/14 Q1016 NOSIG
13-06-08 METAR LIMC 080250Z 29003KT 260V060 CAVOK 15/14 Q1016 NOSIG
13-06-08 METAR LIMC 080320Z 29003KT CAVOK 15/14 Q1016 NOSIG
13-06-08 METAR LIMC 080350Z 30003KT CAVOK 16/14 Q1016 NOSIG
13-06-08 METAR LIMC 080420Z 28003KT 9999 FEW050 16/14 Q1016 NOSIG
13-06-08 METAR LIMC 080450Z 30003KT 270V050 9999 FEW050 16/15 Q1017 NOSIG
13-06-08 METAR LIMC 080550Z 29004KT 9999 FEW050 18/15 Q1017 NOSIG
13-06-08 METAR LIMC 080620Z 29003KT 9999 FEW050 19/15 Q1017 NOSIG
13-06-08 METAR LIMC 080650Z VRB02KT 9999 FEW050 21/15 Q1017 NOSIG
13-06-08 METAR LIMC 080720Z VRB02KT 9999 FEW050 22/13 Q1017 NOSIG
13-06-08 METAR LIMC 080750Z 17003KT 060V210 9999 FEW050 22/14 Q1017 NOSIG
13-06-08 METAR LIMC 080820Z 21003KT 160V270 9999 FEW050 23/14 Q1016 NOSIG
13-06-08 METAR LIMC 080850Z VRB03KT CAVOK 24/14 Q1016 NOSIG
13-06-08 METAR LIMC 080920Z VRB03KT CAVOK 24/14 Q1016 NOSIG
13-06-08 METAR LIMC 080950Z 19005KT 160V230 CAVOK 24/14 Q1016 NOSIG
13-06-08 METAR LIMC 081020Z 19005KT CAVOK 25/15 Q1016 NOSIG
13-06-08 METAR LIMC 081050Z VRB04KT CAVOK 25/15 Q1016 NOSIG
13-06-08 METAR LIMC 081120Z 20006KT CAVOK 25/15 Q1016 NOSIG
13-06-08 METAR LIMC 081150Z 24004KT 200V280 CAVOK 25/13 Q1015 NOSIG
13-06-08 METAR LIMC 081220Z VRB04KT CAVOK 26/12 Q1014 NOSIG
13-06-08 METAR LIMC 081250Z 22005KT 180V280 9999 FEW040 27/13 Q1014 NOSIG
13-06-08 METAR LIMC 081320Z 23004KT 170V270 9999 SCT040 27/13 Q1014 NOSIG
13-06-08 METAR LIMC 081350Z 19006KT 170V260 9999 FEW035TCU BKN040 26/13 Q1014 NOSIG
13-06-08 METAR LIMC 081420Z 19005KT 9999 FEW035CB SCT040 BKN090 26/13 Q1014 NOSIG
13-06-08 METAR LIMC 081450Z 19005KT 9999 FEW035TCU 26/13 Q1013 NOSIG
13-06-08 METAR LIMC 081520Z 19006KT 9999 FEW045 25/13 Q1013 NOSIG
13-06-08 METAR LIMC 081550Z 20006KT 9999 FEW045 25/13 Q1013 NOSIG
13-06-08 METAR LIMC 081620Z 19005KT 9999 FEW045 25/13 Q1012 NOSIG
13-06-08 METAR LIMC 081650Z 19005KT 9999 FEW045 24/12 Q1012 NOSIG
13-06-08 METAR LIMC 081720Z 20006KT CAVOK 24/13 Q1012 NOSIG
13-06-08 METAR LIMC 081750Z 21006KT CAVOK 23/13 Q1012 NOSIG
13-06-08 METAR LIMC 081820Z 20005KT 9999 BKN080 22/13 Q1012 NOSIG
13-06-08 METAR LIMC 081850Z 20005KT 9999 BKN070 22/12 Q1012 NOSIG
13-06-08 METAR LIMC 081920Z 20004KT 9999 BKN070 21/11 Q1013 NOSIG
13-06-08 METAR LIMC 081950Z VRB02KT 9999 BKN070 20/12 Q1013 NOSIG
13-06-08 METAR LIMC 082020Z VRB03KT 9999 BKN070 20/11 Q1013 NOSIG
13-06-08 METAR LIMC 082050Z 20004KT 9999 BKN070 18/09 Q1013 NOSIG
13-06-08 METAR LIMC 082120Z 21005KT 9999 BKN070 19/09 Q1013 NOSIG
13-06-08 METAR LIMC 082150Z 22002KT 9999 BKN070 19/09 Q1013 NOSIG
13-06-08 METAR LIMC 082220Z VRB02KT 9999 BKN070 18/09 Q1013 NOSIG
13-06-08 METAR LIMC 082250Z VRB02KT 9999 BKN070 17/10 Q1013 NOSIG
13-06-08 METAR LIMC 082320Z VRB01KT 9999 BKN070 15/10 Q1013 NOSIG
13-06-08 METAR LIMC 082350Z VRB02KT 9999 BKN070 15/10 Q1013 NOSIG
13-06-09 METAR LIMC 090020Z VRB02KT 9999 BKN070 15/10 Q1013 NOSIG
13-06-09 METAR LIMC 090050Z VRB02KT 9999 BKN070 15/11 Q1013 NOSIG
13-06-09 METAR LIMC 090120Z 29003KT 280V030 9999 BKN070 16/11 Q1012 NOSIG
13-06-09 METAR LIMC 090150Z VRB01KT 9999 BKN070 16/11 Q1012 NOSIG
13-06-09 METAR LIMC 090220Z 29004KT 9999 BKN070 16/11 Q1012 NOSIG
13-06-09 METAR LIMC 090250Z VRB02KT 9999 BKN070 15/12 Q1012 NOSIG
13-06-09 METAR LIMC 090320Z 29003KT 9999 BKN070 14/11 Q1012 NOSIG
13-06-09 METAR LIMC 090350Z 30003KT 9999 BKN070 14/11 Q1012 NOSIG
13-06-09 METAR LIMC 090420Z 20003KT 9999 FEW070 13/11 Q1012 NOSIG
13-06-09 METAR LIMC 090450Z VRB02KT 9999 FEW080 15/12 Q1012 NOSIG
13-06-09 METAR LIMC 090520Z NIL
13-06-09 METAR LIMC 090520Z 30004KT 9999 BKN060 16/12 Q1012 NOSIG
13-06-09 METAR LIMC 090550Z 29004KT 9999 SCT030 BKN060 17/13 Q1012 NOSIG
13-06-09 METAR LIMC 090620Z 31003KT 9999 FEW030TCU BKN060 18/13 Q1012 NOSIG
13-06-09 METAR LIMC 090650Z 29004KT 9999 BKN060 19/12 Q1012 NOSIG
13-06-09 METAR LIMC 090720Z VRB02KT 9999 FEW040TCU BKN060 19/12 Q1012 NOSIG
13-06-09 METAR LIMC 090750Z 19003KT 080V200 9999 FEW040 BKN060 20/12 Q1012 NOSIG
13-06-09 METAR LIMC 090820Z 19003KT 070V210 9999 SCT040 BKN060 20/13 Q1012 NOSIG
13-06-09 METAR LIMC 090850Z 17003KT 090V180 9999 SCT040 BKN060 19/15 Q1012 NOSIG
13-06-09 METAR LIMC 090920Z 15003KT 070V190 9999 BKN060 19/14 Q1012 NOSIG
13-06-09 METAR LIMC 090950Z VRB02KT 9999 BKN060 BKN080 20/14 Q1012 NOSIG
13-06-09 METAR LIMC 091020Z VRB02KT 9999 BKN060 BKN080 19/13 Q1012 NOSIG
13-06-09 METAR LIMC 091050Z VRB02KT 9999 -RA FEW025 BKN060 BKN080 19/13 Q1012 NOSIG
13-06-09 METAR LIMC 091120Z 07003KT 330V100 9999 BKN060 BKN080 20/14 Q1011 NOSIG
13-06-09 METAR LIMC 091150Z VRB02KT 9999 SCT030 BKN060 BKN080 20/14 Q1011 NOSIG
13-06-09 METAR LIMC 091220Z VRB02KT 9999 SCT020 BKN060 20/12 Q1011 NOSIG
13-06-09 METAR LIMC 091250Z VRB02KT 9999 SCT020 BKN060 20/12 Q1011 NOSIG
13-06-09 METAR LIMC 091320Z 30003KT 280V050 9999 SCT020 BKN060 20/12 Q1010 NOSIG
13-06-09 METAR LIMC 091350Z 29005KT 9999 SCT035 BKN080 20/12 Q1010 NOSIG
13-06-09 METAR LIMC 091420Z 29007KT 9999 SCT035 BKN080 20/15 Q1009 NOSIG
13-06-09 METAR LIMC 091450Z 29007KT 9999 BKN025 BKN050 19/14 Q1009 NOSIG
13-06-09 METAR LIMC 091520Z VRB04KT 2500 1000NW +TSRA FEW010CB BKN020 15/14 Q1010 NOSIG
13-06-09 METAR LIMC 091550Z 29003KT 240V050 4000 1500NW TSRA FEW010CB BKN020 15/14 Q1010 NOSIG
13-06-09 METAR LIMC 091620Z 30006KT 5000 2000NW TSRA FEW010CB SCT025 BKN060 14/14
13-06-09 METAR LIMC 091650Z 32004KT 290V350 8000 FEW010CB SCT025 BKN060 15/15 Q1010 RETSRA NOSIG
13-06-09 METAR LIMC 091720Z 31003KT 290V020 8000 SCT025 BKN060 15/14 Q1010 NOSIG
13-06-09 METAR LIMC 091750Z 30003KT 270V070 9999 FEW015 SCT035 BKN060 15/15 Q1010
13-06-09 METAR LIMC 091820Z 29005KT 4000 RA BKN020 BKN060 15/15 Q1010 NOSIG
13-06-09 METAR LIMC 091850Z 22005KT 180V280 3000 +RA BKN010 BKN050 14/14 Q1011
13-06-09 METAR LIMC 091920Z 28005KT 5000 RA FEW008 BKN010 OVC050 14/14 Q1011 NOSIG
13-06-09 METAR LIMC 091950Z VRB01KT 9999 RA FEW008 BKN010 OVC050 13/13 Q1011 NOSIG
13-06-09 METAR LIMC 092020Z 31004KT 280V350 8000 +RA FEW008 BKN010 OVC050 14/14 Q1012 NOSIG
13-06-09 METAR LIMC 092050Z 36003KT 310V040 9999 RA BKN015 OVC040 14/14 Q1012 NOSIG
13-06-09 METAR LIMC 092120Z 34003KT 300V020 9999 RA BKN025 OVC040 14/14 Q1012 NOSIG
13-06-09 METAR LIMC 092150Z 03003KT 9999 -RA SCT035 BKN060 14/14 Q1012 RERA NOSIG
13-06-09 METAR LIMC 092220Z 33003KT 290V040 9999 -RA SCT025 OVC060 14/14 Q1012
13-06-09 METAR LIMC 092250Z 31003KT 280V040 9999 -RA SCT025 OVC060 14/14 Q1011
13-06-09 METAR LIMC 092320Z 27003KT 200V330 9999 FEW015 SCT035 BKN060 14/14 Q1011
13-06-09 METAR LIMC 092320Z NIL
13-06-09 METAR LIMC 092350Z 21004KT 9999 SCT015 SCT035 BKN060 14/14 Q1011 NOSIG
13-06-10 METAR LIMC 100020Z 20003KT 9999 SCT030 BKN070 14/14 Q1011 NOSIG
13-06-10 METAR LIMC 100120Z 29003KT 280V360 9999 SCT020 BKN070 13/13 Q1011 NOSIG
13-06-10 METAR LIMC 100150Z 30004KT 9999 SCT020 BKN070 13/13 Q1011 NOSIG
13-06-10 METAR LIMC 100220Z 00000KT 9999 SCT020 BKN070 13/13 Q1011 NOSIG
13-06-10 METAR LIMC 100250Z VRB02KT 9999 SCT020 BKN070 13/13 Q1011 NOSIG
13-06-10 METAR LIMC 100320Z 00000KT 9999 MIFG BKN070 12/12 Q1010 NOSIG
13-06-10 METAR LIMC 100350Z VRB02KT 9999 R35L/1300V1500N MIFG BKN070 11/11 Q1010 NOSIG
13-06-10 METAR LIMC 100420Z VRB02KT 9999 MIFG BKN070 11/11 Q1010 NOSIG
13-06-10 METAR LIMC 100450Z VRB01KT 9999 VCFG BKN070 12/12 Q1010 NOSIG
13-06-10 METAR LIMC 100520Z 28003KT 9999 VCFG BKN070 13/13 Q1010 NOSIG
13-06-10 METAR LIMC 100550Z VRB02KT 9999 BKN070 14/14 Q1010 NOSIG
13-06-10 METAR LIMC 100620Z 31003KT 280V070 9999 BKN070 14/13 Q1010 NOSIG
13-06-10 METAR LIMC 100650Z 17003KT 040V200 9999 SCT070 16/14 Q1011 NOSIG
13-06-10 METAR LIMC 100720Z VRB02KT 9999 FEW030 17/13 Q1011 NOSIG
13-06-10 METAR LIMC 100750Z VRB03KT 9999 SCT030 16/11 Q1011 NOSIG
13-06-10 METAR LIMC 100820Z VRB02KT 9999 SCT030 SCT070 18/11 Q1011 NOSIG
13-06-10 METAR LIMC 100850Z VRB02KT 9999 SCT030 18/11 Q1011 NOSIG
13-06-10 METAR LIMC 100920Z 23004KT 9999 SCT030 18/13 Q1011 NOSIG
13-06-10 METAR LIMC 100950Z VRB03KT 9999 SCT030 19/11 Q1011 NOSIG
13-06-10 METAR LIMC 101020Z 25005KT 200V290 9999 SCT030 19/11 Q1011 NOSIG
13-06-10 METAR LIMC 101050Z 24006KT 210V280 9999 SCT030 20/12 Q1011 NOSIG
13-06-10 METAR LIMC 101120Z VRB03KT 9999 SCT030 20/11 Q1011 NOSIG
13-06-10 METAR LIMC 101150Z VRB04KT 9999 SCT030 20/12 Q1010 NOSIG
13-06-10 METAR LIMC 101220Z 22007KT 170V260 9999 SCT030 21/12 Q1010 NOSIG
13-06-10 METAR LIMC 101250Z 24007KT 190V290 9999 SCT030 20/12 Q1010 NOSIG
13-06-10 METAR LIMC 101320Z 23008KT 9999 SCT030 20/12 Q1010 NOSIG
13-06-10 METAR LIMC 101350Z 24008KT 210V270 9999 SCT030 21/12 Q1010 NOSIG
13-06-10 METAR LIMC 101420Z 22007KT 170V270 9999 FEW030 21/12 Q1010 NOSIG
13-06-10 METAR LIMC 101450Z 25006KT 210V290 9999 FEW030 22/12 Q1009 NOSIG
13-06-10 METAR LIMC 101520Z 23008KT 200V260 9999 FEW030 21/12 Q1009 NOSIG
13-06-10 METAR LIMC 101550Z 22007KT 190V250 CAVOK 22/13 Q1009 NOSIG
13-06-10 METAR LIMC 101620Z 22008KT 190V250 CAVOK 21/12 Q1009 NOSIG
13-06-10 METAR LIMC 101650Z 21008KT CAVOK 21/13 Q1009 NOSIG
13-06-10 METAR LIMC 101720Z 22006KT CAVOK 21/13 Q1009 NOSIG
13-06-10 METAR LIMC 101750Z 22007KT 200V260 CAVOK 20/12 Q1009 NOSIG
13-06-10 METAR LIMC 101820Z VRB02KT CAVOK 19/13 Q1009 NOSIG
13-06-10 METAR LIMC 101850Z VRB02KT CAVOK 19/13 Q1009 NOSIG
13-06-10 METAR LIMC 101920Z 16002KT CAVOK 18/13 Q1010 NOSIG
13-06-10 METAR LIMC 101950Z VRB02KT 9999 FEW060 16/14 Q1010 NOSIG
13-06-10 METAR LIMC 102020Z VRB01KT 9999 FEW060 16/14 Q1010 NOSIG
13-06-10 METAR LIMC 102050Z 21007KT CAVOK 17/14 Q1011 NOSIG
13-06-10 METAR LIMC 102120Z VRB02KT CAVOK 16/14 Q1011 NOSIG
13-06-10 METAR LIMC 102150Z 18003KT 100V250 CAVOK 15/14 Q1011 NOSIG
13-06-10 METAR LIMC 102220Z NIL
13-06-10 METAR LIMC 102220Z 19003KT 140V220 CAVOK 15/14 Q1011 NOSIG
13-06-10 METAR LIMC 102250Z VRB02KT CAVOK 14/14 Q1011 NOSIG
13-06-10 METAR LIMC 102320Z VRB01KT CAVOK 13/13 Q1011 NOSIG
13-06-10 METAR LIMC 102350Z VRB02KT CAVOK 13/13 Q1011 NOSIG
13-06-11 METAR LIMC 110020Z VRB02KT CAVOK 13/13 Q1011 NOSIG
13-06-11 METAR LIMC 110050Z 36002KT CAVOK 12/12 Q1011 NOSIG
13-06-11 METAR LIMC 110120Z VRB02KT CAVOK 12/12 Q1011 NOSIG
13-06-11 METAR LIMC 110150Z VRB01KT CAVOK 11/11 Q1011 NOSIG
13-06-11 METAR LIMC 110220Z VRB01KT CAVOK 12/12 Q1011 NOSIG
13-06-11 METAR LIMC 110250Z 00000KT CAVOK 10/10 Q1011 NOSIG
13-06-11 METAR LIMC 110320Z 02002KT 9999 VCFG NSC 10/10 Q1011 NOSIG
13-06-11 METAR LIMC 110350Z VRB01KT 9999 VCFG NSC 11/11 Q1011 NOSIG
13-06-11 METAR LIMC 110420Z VRB02KT 9999 MIFG NSC 11/11 Q1011 NOSIG
13-06-11 METAR LIMC 110450Z VRB02KT CAVOK 13/13 Q1012 NOSIG
13-06-11 METAR LIMC 110520Z 00000KT CAVOK 16/14 Q1012 NOSIG
13-06-11 METAR LIMC 110550Z 31008KT CAVOK 17/12 Q1012 NOSIG
13-06-11 METAR LIMC 110620Z 34005KT CAVOK 18/11 Q1012 NOSIG
13-06-11 METAR LIMC 110650Z 33004KT 280V030 CAVOK 19/11 Q1012 NOSIG
13-06-11 METAR LIMC 110720Z 34006KT CAVOK 21/10 Q1012 NOSIG
13-06-11 METAR LIMC 110750Z 32007KT 250V340 CAVOK 22/10 Q1012 NOSIG
13-06-11 METAR LIMC 110820Z 26006KT 230V290 CAVOK 23/10 Q1012 NOSIG
13-06-11 METAR LIMC 110850Z 22006KT 190V250 CAVOK 23/12 Q1012 NOSIG
13-06-11 METAR LIMC 110950Z 21009KT CAVOK 23/14 Q1012 NOSIG
13-06-11 METAR LIMC 111020Z 22009KT 190V260 CAVOK 24/14 Q1012 NOSIG
13-06-11 METAR LIMC 111050Z 22008KT 190V250 CAVOK 24/14 Q1012 NOSIG
13-06-11 METAR LIMC 111120Z 23007KT 180V270 CAVOK 25/13 Q1012 NOSIG
13-06-11 METAR LIMC 111150Z 23008KT 180V270 CAVOK 25/12 Q1012 NOSIG
13-06-11 METAR LIMC 111220Z NIL
13-06-11 METAR LIMC 111220Z 22009KT 190V250 CAVOK 26/11 Q1012 NOSIG
13-06-11 METAR LIMC 111250Z 22008KT 190V250 CAVOK 26/10 Q1012 NOSIG
13-06-11 METAR LIMC 111320Z 24007KT 210V270 CAVOK 26/11 Q1012 NOSIG
13-06-11 METAR LIMC 111350Z 19008KT 160V220 CAVOK 26/11 Q1012 NOSIG
13-06-11 METAR LIMC 111420Z NIL
13-06-11 METAR LIMC 111420Z 23007KT CAVOK 26/10 Q1012 NOSIG
13-06-11 METAR LIMC 111450Z 23006KT 180V270 CAVOK 27/10 Q1012 NOSIG
13-06-11 METAR LIMC 111520Z 21007KT 180V240 CAVOK 27/10 Q1012 NOSIG
13-06-11 METAR LIMC 111550Z 21007KT 180V240 CAVOK 27/11 Q1012 NOSIG
13-06-11 METAR LIMC 111620Z 21006KT 9999 FEW080 26/11 Q1012 NOSIG
13-06-11 METAR LIMC 111650Z 21006KT 190V250 9999 FEW080 26/11 Q1012 NOSIG
13-06-11 METAR LIMC 111720Z 19004KT 9999 FEW080 25/12 Q1012 NOSIG
13-06-11 METAR LIMC 111750Z VRB02KT 9999 SCT070 24/12 Q1012 NOSIG
13-06-11 METAR LIMC 111820Z 14002KT 9999 SCT070 22/13 Q1013 NOSIG
13-06-11 METAR LIMC 111850Z 10001KT 9999 SCT070 21/14 Q1013 NOSIG
13-06-11 METAR LIMC 111920Z 04003KT 9999 SCT070 21/13 Q1013 NOSIG
13-06-11 METAR LIMC 111950Z 09004KT 060V120 9999 SCT070 20/12 Q1014 NOSIG
13-06-11 METAR LIMC 112020Z 06003KT 9999 SCT070 18/13 Q1015 NOSIG
13-06-11 METAR LIMC 112050Z 09005KT 9999 SCT070 20/11 Q1015 NOSIG
13-06-11 METAR LIMC 112120Z 09003KT 9999 SCT070 19/12 Q1015 NOSIG
13-06-11 METAR LIMC 112150Z VRB02KT 9999 FEW070 17/13 Q1015 NOSIG
13-06-11 METAR LIMC 112220Z 34003KT 9999 FEW070 18/13 Q1016 NOSIG
13-06-11 METAR LIMC 112250Z 36003KT 9999 FEW070 18/13 Q1016 NOSIG
13-06-11 METAR LIMC 112320Z VRB01KT 9999 FEW070 16/13 Q1016 NOSIG
13-06-11 METAR LIMC 112350Z 03003KT 9999 FEW070 17/13 Q1016 NOSIG
13-06-12 METAR LIMC 120020Z 35004KT 9999 FEW070 16/13 Q1016 NOSIG
13-06-12 METAR LIMC 120050Z NIL
13-06-12 METAR LIMC 120120Z VRB01KT CAVOK 14/13 Q1017 NOSIG
13-06-12 METAR LIMC 120150Z VRB02KT CAVOK 14/13 Q1017 NOSIG
13-06-12 METAR LIMC 120220Z 02002KT CAVOK 14/12 Q1017 NOSIG
13-06-12 METAR LIMC 120250Z VRB02KT CAVOK 13/11 Q1017 NOSIG
13-06-12 METAR LIMC 120320Z 36003KT CAVOK 13/12 Q1017 NOSIG
13-06-12 METAR LIMC 120350Z VRB01KT CAVOK 13/11 Q1017 NOSIG
13-06-12 METAR LIMC 120420Z VRB02KT CAVOK 13/11 Q1017 NOSIG
13-06-12 METAR LIMC 120450Z 35003KT 320V030 CAVOK 15/12 Q1017 NOSIG
13-06-12 METAR LIMC 120520Z 35004KT 320V030 CAVOK 18/11 Q1018 NOSIG
13-06-12 METAR LIMC 120550Z 36004KT CAVOK 19/09 Q1018 NOSIG
13-06-12 METAR LIMC 120620Z VRB02KT CAVOK 20/09 Q1018 NOSIG
13-06-12 METAR LIMC 120650Z 33003KT 260V030 CAVOK 22/10 Q1018 NOSIG
13-06-12 METAR LIMC 120720Z 01003KT 310V070 CAVOK 22/07 Q1018 NOSIG
13-06-12 METAR LIMC 120750Z VRB03KT CAVOK 23/09 Q1018 NOSIG
13-06-12 METAR LIMC 120820Z 19003KT 150V210 CAVOK 23/09 Q1018 NOSIG
13-06-12 METAR LIMC 120850Z 21003KT 160V280 CAVOK 24/09 Q1018 NOSIG
13-06-12 METAR LIMC 120920Z 23004KT 160V280 CAVOK 24/11 Q1018 NOSIG
13-06-12 METAR LIMC 120950Z 23004KT 180V280 CAVOK 25/11 Q1018 NOSIG
13-06-12 METAR LIMC 121020Z 21005KT 150V280 CAVOK 25/11 Q1018 NOSIG
13-06-12 METAR LIMC 121050Z 19004KT 160V250 CAVOK 26/10 Q1018 NOSIG
13-06-12 METAR LIMC 121120Z VRB04KT 9999 SCT090 26/09 Q1018 NOSIG
13-06-12 METAR LIMC 121150Z 22006KT 180V250 CAVOK 26/11 Q1018 NOSIG
13-06-12 METAR LIMC 121220Z VRB05KT CAVOK 27/09 Q1017 NOSIG
13-06-12 METAR LIMC 121250Z 22008KT 180V260 CAVOK 26/10 Q1017 NOSIG
13-06-12 METAR LIMC 121320Z 22006KT 180V260 CAVOK 27/09 Q1017 NOSIG
13-06-12 METAR LIMC 121350Z 20006KT 140V230 CAVOK 27/09 Q1017 NOSIG
13-06-12 METAR LIMC 121420Z 23008KT 180V300 CAVOK 27/10 Q1017 NOSIG
13-06-12 METAR LIMC 121450Z 21008KT 170V240 CAVOK 27/12 Q1016 NOSIG
13-06-12 METAR LIMC 121520Z 23007KT 190V250 CAVOK 27/10 Q1016 NOSIG
13-06-12 METAR LIMC 121550Z 23008KT CAVOK 27/10 Q1016 NOSIG
13-06-12 METAR LIMC 121620Z 24007KT 200V270 CAVOK 27/10 Q1016 NOSIG
13-06-12 METAR LIMC 121650Z 23007KT CAVOK 27/09 Q1016 NOSIG
13-06-12 METAR LIMC 121720Z 23007KT CAVOK 26/09 Q1016 NOSIG
13-06-12 METAR LIMC 121750Z 22006KT CAVOK 26/09 Q1017 NOSIG
13-06-12 METAR LIMC 121820Z 24005KT CAVOK 25/10 Q1017 NOSIG
13-06-12 METAR LIMC 121850Z 19003KT 150V220 CAVOK 24/13 Q1017 NOSIG
13-06-12 METAR LIMC 121920Z 16002KT CAVOK 23/11 Q1017 NOSIG
13-06-12 METAR LIMC 121950Z 00000KT CAVOK 21/11 Q1017 NOSIG
13-06-12 METAR LIMC 122020Z VRB01KT CAVOK 19/11 Q1018 NOSIG
13-06-12 METAR LIMC 122050Z 12001KT CAVOK 18/12 Q1018 NOSIG
13-06-12 METAR LIMC 122120Z VRB02KT CAVOK 18/11 Q1018 NOSIG
13-06-12 METAR LIMC 122150Z VRB01KT CAVOK 16/13 Q1019 NOSIG
13-06-12 METAR LIMC 122220Z VRB02KT CAVOK 16/12 Q1019 NOSIG
13-06-12 METAR LIMC 122250Z 03004KT 350V070 CAVOK 16/13 Q1019 NOSIG
13-06-12 METAR LIMC 122320Z VRB01KT CAVOK 16/13 Q1019 NOSIG
13-06-12 METAR LIMC 122350Z 01003KT CAVOK 15/13 Q1019 NOSIG
13-06-13 METAR LIMC 130020Z 02002KT CAVOK 15/13 Q1019 NOSIG
13-06-13 METAR LIMC 130050Z 01002KT CAVOK 14/13 Q1019 NOSIG
13-06-13 METAR LIMC 130120Z VRB01KT CAVOK 14/12 Q1019 NOSIG
13-06-13 METAR LIMC 130150Z 36004KT 340V040 CAVOK 14/12 Q1019 NOSIG
13-06-13 METAR LIMC 130220Z 35004KT CAVOK 15/12 Q1020 NOSIG
13-06-13 METAR LIMC 130250Z 36005KT CAVOK 14/12 Q1020 NOSIG
13-06-13 METAR LIMC 130320Z 36006KT CAVOK 15/12 Q1020 NOSIG
13-06-13 METAR LIMC 130350Z NIL
13-06-13 METAR LIMC 130350Z 36004KT CAVOK 14/12 Q1020 NOSIG
13-06-13 METAR LIMC 130420Z 36003KT 330V030 CAVOK 16/12 Q1020 NOSIG
13-06-13 METAR LIMC 130450Z VRB01KT CAVOK 16/13 Q1020 NOSIG
13-06-13 METAR LIMC 130520Z 36007KT CAVOK 18/12 Q1020 NOSIG
13-06-13 METAR LIMC 130550Z 36005KT CAVOK 19/13 Q1021 NOSIG
13-06-13 METAR LIMC 130620Z 36006KT 320V030 CAVOK 21/13 Q1021 NOSIG
13-06-13 METAR LIMC 130650Z 35004KT 310V040 CAVOK 22/13 Q1021 NOSIG
13-06-13 METAR LIMC 130720Z NIL
13-06-13 METAR LIMC 130720Z 36004KT 290V040 CAVOK 23/12 Q1021 NOSIG
13-06-13 METAR LIMC 130750Z 11005KT 050V210 CAVOK 24/11 Q1021 NOSIG
13-06-13 METAR LIMC 130820Z 12005KT 070V160 CAVOK 24/11 Q1021 NOSIG
13-06-13 METAR LIMC 130850Z 13005KT 080V160 CAVOK 25/13 Q1020 NOSIG
13-06-13 METAR LIMC 130920Z 15005KT 070V210 CAVOK 25/11 Q1020 NOSIG
13-06-13 METAR LIMC 130950Z 10005G17KT 020V150 CAVOK 25/11 Q1020 NOSIG
13-06-13 METAR LIMC 131020Z VRB03KT CAVOK 26/12 Q1020 NOSIG
13-06-13 METAR LIMC 131050Z 09005KT 030V160 CAVOK 26/12 Q1020 NOSIG
13-06-13 METAR LIMC 131120Z 10005KT 020V150 CAVOK 26/13 Q1019 NOSIG
13-06-13 METAR LIMC 131150Z VRB04KT CAVOK 27/10 Q1019 NOSIG
13-06-13 METAR LIMC 131220Z 15005KT 110V210 CAVOK 27/13 Q1018 NOSIG
13-06-13 METAR LIMC 131250Z 16004KT 080V240 CAVOK 27/13 Q1018 NOSIG
13-06-13 METAR LIMC 131320Z 20005KT 140V260 CAVOK 28/13 Q1018 NOSIG
13-06-13 METAR LIMC 131350Z 18003KT 100V250 CAVOK 27/12 Q1018 NOSIG
13-06-13 METAR LIMC 131420Z VRB05KT CAVOK 28/13 Q1018 NOSIG
13-06-13 METAR LIMC 131450Z 19005KT 130V220 CAVOK 28/13 Q1017 NOSIG
13-06-13 METAR LIMC 131520Z VRB03KT CAVOK 28/13 Q1017 NOSIG
13-06-13 METAR LIMC 131550Z 18004KT 150V210 CAVOK 28/13 Q1017 NOSIG
13-06-13 METAR LIMC 131620Z 21005KT 160V280 CAVOK 28/12 Q1016 NOSIG
13-06-13 METAR LIMC 131650Z 22006KT 190V260 CAVOK 27/13 Q1016 NOSIG
13-06-13 METAR LIMC 131720Z 23006KT CAVOK 27/13 Q1016 NOSIG
13-06-13 METAR LIMC 131750Z 23004KT CAVOK 26/13 Q1016 NOSIG
13-06-13 METAR LIMC 131820Z 21003KT 180V250 CAVOK 26/13 Q1016 NOSIG
13-06-13 METAR LIMC 131850Z VRB01KT CAVOK 24/13 Q1017 NOSIG
13-06-13 METAR LIMC 131920Z VRB01KT CAVOK 22/14 Q1017 NOSIG
13-06-13 METAR LIMC 131950Z VRB02KT CAVOK 21/14 Q1017 NOSIG
13-06-13 METAR LIMC 132020Z VRB02KT CAVOK 20/14 Q1017 NOSIG
13-06-13 METAR LIMC 132050Z 35004KT 310V020 CAVOK 20/14 Q1017 NOSIG
13-06-13 METAR LIMC 132120Z VRB01KT CAVOK 19/15 Q1017 NOSIG
13-06-13 METAR LIMC 132150Z 01002KT CAVOK 19/15 Q1017 NOSIG
13-06-13 METAR LIMC 132220Z 21005KT 180V240 CAVOK 19/16 Q1017 NOSIG
13-06-13 METAR LIMC 132250Z VRB01KT CAVOK 19/16 Q1017 NOSIG
13-06-13 METAR LIMC 132320Z VRB02KT CAVOK 19/16 Q1017 NOSIG
13-06-13 METAR LIMC 132350Z VRB01KT CAVOK 18/16 Q1017 NOSIG
13-06-14 METAR LIMC 140020Z VRB02KT CAVOK 18/16 Q1017 NOSIG
13-06-14 METAR LIMC 140050Z VRB01KT CAVOK 19/16 Q1016 NOSIG
13-06-14 METAR LIMC 140120Z VRB02KT CAVOK 18/16 Q1016 NOSIG
13-06-14 METAR LIMC 140150Z VRB01KT CAVOK 18/16 Q1016 NOSIG
13-06-14 METAR LIMC 140220Z 07004KT CAVOK 18/16 Q1016 NOSIG
13-06-14 METAR LIMC 140250Z 07004KT CAVOK 18/16 Q1016 NOSIG
13-06-14 METAR LIMC 140320Z 01002KT CAVOK 16/15 Q1016 NOSIG
13-06-14 METAR LIMC 140350Z VRB02KT CAVOK 16/15 Q1016 NOSIG
13-06-14 METAR LIMC 140420Z 36003KT CAVOK 18/16 Q1016 NOSIG
13-06-14 METAR LIMC 140450Z 03003KT 350V070 9999 SCT060 18/16 Q1016 NOSIG
13-06-14 METAR LIMC 140520Z 07003KT 030V090 9999 SCT060 20/15 Q1016 NOSIG
13-06-14 METAR LIMC 140550Z 06003KT 340V100 9999 BKN050 21/15 Q1017 NOSIG
13-06-14 METAR LIMC 140620Z 08004G15KT 010V180 9999 BKN050 21/14 Q1017 NOSIG
13-06-14 METAR LIMC 140650Z 07003KT 030V110 9999 BKN050 22/14 Q1017 NOSIG
13-06-14 METAR LIMC 140720Z VRB02KT 9999 BKN050 23/13 Q1017 NOSIG
13-06-14 METAR LIMC 140750Z VRB02KT 9999 SCT080 24/13 Q1017 NOSIG
13-06-14 METAR LIMC 140820Z VRB02KT 9999 SCT080 24/13 Q1017 NOSIG
13-06-14 METAR LIMC 140850Z VRB03KT CAVOK 24/11 Q1016 NOSIG
13-06-14 METAR LIMC 140920Z VRB02KT CAVOK 26/13 Q1016 NOSIG
13-06-14 METAR LIMC 140950Z VRB02KT CAVOK 26/13 Q1016 NOSIG
13-06-14 METAR LIMC 141020Z NIL
13-06-14 METAR LIMC 141020Z 24003KT CAVOK 26/13 Q1016 NOSIG
13-06-14 METAR LIMC 141050Z 19004KT 100V230 CAVOK 26/13 Q1016 NOSIG
13-06-14 METAR LIMC 141120Z 13003KT 060V190 CAVOK 26/12 Q1016 NOSIG
13-06-14 METAR LIMC 141150Z VRB03KT 9999 SCT070 27/12 Q1016 NOSIG
13-06-14 METAR LIMC 141220Z 18004KT 120V250 CAVOK 28/13 Q1016 NOSIG
13-06-14 METAR LIMC 141250Z VRB03KT CAVOK 28/12 Q1015 NOSIG
13-06-14 METAR LIMC 141320Z 20005KT 150V240 CAVOK 28/13 Q1015 NOSIG
13-06-14 METAR LIMC 141350Z VRB03KT CAVOK 28/12 Q1015 NOSIG
13-06-14 METAR LIMC 141420Z 13006KT 070V160 CAVOK 28/13 Q1015 NOSIG
13-06-14 METAR LIMC 141450Z 17004KT 090V230 CAVOK 29/14 Q1015 NOSIG
13-06-14 METAR LIMC 141520Z 20007KT CAVOK 28/14 Q1015 NOSIG
13-06-14 METAR LIMC 141550Z 21006KT 9999 SCT080 27/14 Q1015 NOSIG
13-06-14 METAR LIMC 141620Z 21005KT 9999 SCT080 27/14 Q1015 NOSIG
13-06-14 METAR LIMC 141650Z 21005KT 170V230 9999 SCT080 27/14 Q1015 NOSIG
13-06-14 METAR LIMC 141720Z 19006KT CAVOK 27/15 Q1015 NOSIG
13-06-14 METAR LIMC 141750Z 22005KT CAVOK 26/15 Q1015 NOSIG
13-06-14 METAR LIMC 141820Z 21003KT 180V240 CAVOK 25/16 Q1015 NOSIG
13-06-14 METAR LIMC 141850Z 25005KT 9999 SCT080 26/15 Q1015 NOSIG
13-06-14 METAR LIMC 141920Z VRB02KT 9999 SCT080 25/15 Q1015 NOSIG
13-06-14 METAR LIMC 141950Z VRB01KT 9999 SCT080 23/16 Q1015 NOSIG
13-06-14 METAR LIMC 142020Z VRB02KT 9999 SCT080 24/16 Q1015 NOSIG
13-06-14 METAR LIMC 142050Z 11003KT 050V200 9999 SCT050 24/16 Q1016 NOSIG
13-06-14 METAR LIMC 142120Z 16004KT 9999 SCT050 22/17 Q1016 NOSIG
13-06-14 METAR LIMC 142150Z 17004KT 9999 SCT050 22/17 Q1016 NOSIG
13-06-14 METAR LIMC 142220Z NIL
13-06-14 METAR LIMC 142250Z 16002KT 9999 SCT050 21/16 Q1016 NOSIG
13-06-14 METAR LIMC 142320Z VRB02KT 9999 SCT050 21/16 Q1016 NOSIG
13-06-14 METAR LIMC 142350Z 00000KT 9999 SCT050 20/16 Q1016 NOSIG
13-06-15 METAR LIMC 150020Z 15003KT 9999 SCT050 20/17 Q1016 NOSIG
13-06-15 METAR LIMC 150050Z 13004KT 100V160 9999 SCT070 20/16 Q1016 NOSIG
13-06-15 METAR LIMC 150120Z VRB02KT 9999 SCT070 19/17 Q1016 NOSIG
13-06-15 METAR LIMC 150150Z VRB02KT 9999 SCT070 19/17 Q1016 NOSIG
13-06-15 METAR LIMC 150220Z VRB01KT 9999 SCT070 19/17 Q1016 NOSIG
13-06-15 METAR LIMC 150250Z NIL
13-06-15 METAR LIMC 150250Z VRB02KT 9999 SCT070 18/17 Q1016 NOSIG
13-06-15 METAR LIMC 150320Z 00000KT 9999 SCT070 17/17 Q1016 NOSIG
13-06-15 METAR LIMC 150350Z VRB01KT 9999 SCT070 18/17 Q1016 NOSIG
13-06-15 METAR LIMC 150420Z VRB02KT 9999 SCT080 18/17 Q1016 NOSIG
13-06-15 METAR LIMC 150450Z VRB02KT 9999 SCT060 19/18 Q1016 NOSIG
13-06-15 METAR LIMC 150520Z VRB02KT 9999 SCT060 21/18 Q1016 NOSIG
13-06-15 METAR LIMC 150550Z VRB02KT 9999 SCT060 21/17 Q1017 NOSIG
13-06-15 METAR LIMC 150620Z 02003KT 310V070 9999 SCT060 22/17 Q1017 NOSIG
13-06-15 METAR LIMC 150650Z 08004KT 360V110 9999 SCT060 23/17 Q1017 NOSIG
13-06-15 METAR LIMC 150720Z 06004KT 340V140 9999 SCT060 23/17 Q1017 NOSIG
13-06-15 METAR LIMC 150750Z 08004KT 020V130 9999 SCT060 24/16 Q1017 NOSIG
13-06-15 METAR LIMC 150820Z 09003KT 020V160 9999 SCT060 25/16 Q1017 NOSIG
13-06-15 METAR LIMC 150850Z VRB03KT 9999 BKN080 25/16 Q1017 NOSIG
13-06-15 METAR LIMC 150920Z VRB03KT 9999 BKN080 26/17 Q1017 NOSIG
13-06-15 METAR LIMC 150950Z 12004KT 060V150 9999 BKN090 26/16 Q1017 NOSIG
13-06-15 METAR LIMC 151020Z VRB03KT 9999 BKN090 27/17 Q1016 NOSIG
13-06-15 METAR LIMC 151050Z VRB03KT 9999 FEW050 27/17 Q1016 NOSIG
13-06-15 METAR LIMC 151120Z 08005KT 040V180 9999 FEW050 27/16 Q1016 NOSIG
13-06-15 METAR LIMC 151150Z VRB04KT 9999 FEW050 27/17 Q1016 NOSIG
13-06-15 METAR LIMC 151220Z 15006KT 100V200 9999 FEW040 27/18 Q1016 NOSIG
13-06-15 METAR LIMC 151250Z NIL
13-06-15 METAR LIMC 151250Z 20006KT 140V260 9999 FEW040 28/18 Q1016 NOSIG
13-06-15 METAR LIMC 151320Z 21006KT 160V240 9999 FEW040 28/17 Q1015 NOSIG
13-06-15 METAR LIMC 151350Z 21005KT 180V250 9999 FEW040 28/18 Q1015 NOSIG
13-06-15 METAR LIMC 151420Z 21008KT 150V250 9999 FEW040 28/18 Q1015 NOSIG
13-06-15 METAR LIMC 151450Z 23009KT 9999 SCT080 27/17 Q1015 NOSIG
13-06-15 METAR LIMC 151520Z 23009KT 9999 BKN080 27/17 Q1015 NOSIG
13-06-15 METAR LIMC 151550Z 23008KT 9999 BKN080 27/16 Q1015 NOSIG
13-06-15 METAR LIMC 151620Z 22005KT 200V260 9999 BKN080 28/16 Q1015 NOSIG
13-06-15 METAR LIMC 151650Z 24005KT 200V280 9999 SCT080 28/16 Q1015 NOSIG
13-06-15 METAR LIMC 151720Z 21004KT 9999 BKN080 27/16 Q1015 NOSIG
13-06-15 METAR LIMC 151750Z 18006KT 9999 BKN080 26/19 Q1015 NOSIG
13-06-15 METAR LIMC 151820Z 19006KT 9999 SCT080 24/19 Q1015 NOSIG
13-06-15 METAR LIMC 151850Z 20006KT CAVOK 24/19 Q1015 NOSIG
13-06-15 METAR LIMC 151920Z 16003KT CAVOK 22/19 Q1015 NOSIG
13-06-15 METAR LIMC 151950Z 19004KT CAVOK 22/19 Q1016 NOSIG
13-06-15 METAR LIMC 152020Z 15003KT 120V180 CAVOK 21/19 Q1016 NOSIG
13-06-15 METAR LIMC 152050Z 17003KT 110V210 CAVOK 21/19 Q1016 NOSIG
13-06-15 METAR LIMC 152120Z 15002KT CAVOK 21/19 Q1016 NOSIG
13-06-15 METAR LIMC 152150Z 18004KT CAVOK 20/18 Q1016 NOSIG
13-06-15 METAR LIMC 152220Z 22004KT CAVOK 20/18 Q1017 NOSIG
13-06-15 METAR LIMC 152250Z 18003KT CAVOK 19/18 Q1016 NOSIG
13-06-15 METAR LIMC 152320Z 17003KT CAVOK 19/17 Q1016 NOSIG
13-06-15 METAR LIMC 152350Z 18003KT CAVOK 19/17 Q1016 NOSIG
13-06-16 METAR LIMC 160020Z 17003KT CAVOK 18/18 Q1016 NOSIG
13-06-16 METAR LIMC 160050Z 15003KT 120V180 CAVOK 18/17 Q1016 NOSIG
13-06-16 METAR LIMC 160120Z 14002KT CAVOK 18/17 Q1016 NOSIG
13-06-16 METAR LIMC 160150Z VRB02KT 9999 SCT070 17/17 Q1016 NOSIG
13-06-16 METAR LIMC 160220Z 14002KT 9999 BKN070 17/17 Q1016 NOSIG
13-06-16 METAR LIMC 160250Z 12002KT 9999 BKN070 17/17 Q1016 NOSIG
13-06-16 METAR LIMC 160320Z 00000KT 9999 SCT080 16/16 Q1017 NOSIG
13-06-16 METAR LIMC 160350Z VRB02KT 9999 MIFG SCT060 17/17 Q1017 NOSIG
13-06-16 METAR LIMC 160420Z VRB02KT 9999 MIFG SCT030 18/18 Q1017 NOSIG
13-06-16 METAR LIMC 160450Z VRB02KT CAVOK 18/18 Q1017 NOSIG
13-06-16 METAR LIMC 160520Z VRB01KT 7000 NSC 19/18 Q1017 NOSIG
13-06-16 METAR LIMC 160550Z VRB02KT 7000 SCT050 20/18 Q1017 NOSIG
13-06-16 METAR LIMC 160620Z VRB02KT 7000 SCT050 21/18 Q1018 NOSIG
13-06-16 METAR LIMC 160650Z 07003KT 030V120 7000 SCT050 22/18 Q1018 NOSIG
13-06-16 METAR LIMC 160720Z 04004KT 350V120 7000 SCT050 23/19 Q1018 NOSIG
13-06-16 METAR LIMC 160750Z VRB03KT 7000 SCT050 24/19 Q1018 NOSIG
13-06-16 METAR LIMC 160820Z 13004KT 090V170 9999 FEW050 24/18 Q1018 NOSIG
13-06-16 METAR LIMC 160850Z 12004KT 070V160 CAVOK 25/18 Q1018 NOSIG
13-06-16 METAR LIMC 160920Z VRB03KT CAVOK 26/18 Q1018 NOSIG
13-06-16 METAR LIMC 160950Z 10002KT CAVOK 27/19 Q1018 NOSIG
13-06-16 METAR LIMC 161020Z 18005KT 130V240 CAVOK 27/19 Q1017 NOSIG
13-06-16 METAR LIMC 161050Z VRB03KT CAVOK 27/19 Q1017 NOSIG
13-06-16 METAR LIMC 161120Z 15003KT 100V220 9999 FEW030 27/18 Q1017 NOSIG
13-06-16 METAR LIMC 161150Z 15004KT 100V220 9999 FEW030 28/18 Q1017 NOSIG
13-06-16 METAR LIMC 161220Z 19005KT 130V260 9999 SCT030 28/18 Q1017 NOSIG
13-06-16 METAR LIMC 161250Z 16005KT 120V200 9999 SCT030 28/18 Q1017 NOSIG
13-06-16 METAR LIMC 161320Z 17005KT 090V220 9999 FEW030 28/18 Q1016 NOSIG
13-06-16 METAR LIMC 161350Z 20004KT 140V250 9999 FEW030 29/17 Q1016 NOSIG
13-06-16 METAR LIMC 161420Z 17005KT 130V200 9999 FEW030 29/18 Q1016 NOSIG
13-06-16 METAR LIMC 161450Z 19006KT 160V230 9999 FEW030 29/18 Q1016 NOSIG
13-06-16 METAR LIMC 161520Z VRB04KT 9999 FEW040 29/18 Q1016 NOSIG
13-06-16 METAR LIMC 161550Z 21006KT 160V250 9999 FEW040 29/18 Q1016 NOSIG
13-06-16 METAR LIMC 161620Z 18005KT 130V210 CAVOK 28/17 Q1016 NOSIG
13-06-16 METAR LIMC 161650Z 20005KT 150V240 CAVOK 28/18 Q1016 NOSIG
13-06-16 METAR LIMC 161720Z 18005KT 150V210 CAVOK 28/18 Q1016 NOSIG
13-06-16 METAR LIMC 161750Z 20004KT CAVOK 27/18 Q1016 NOSIG
13-06-16 METAR LIMC 161820Z 18003KT CAVOK 26/18 Q1016 NOSIG
13-06-16 METAR LIMC 161850Z 19002KT CAVOK 26/18 Q1016 NOSIG
13-06-16 METAR LIMC 161920Z VRB01KT CAVOK 25/17 Q1016 NOSIG
13-06-16 METAR LIMC 161950Z 16003KT CAVOK 22/19 Q1017 NOSIG
13-06-16 METAR LIMC 162020Z 17002KT CAVOK 23/19 Q1017 NOSIG
13-06-16 METAR LIMC 162050Z VRB01KT CAVOK 23/18 Q1017 NOSIG
13-06-16 METAR LIMC 162120Z VRB01KT CAVOK 23/18 Q1017 NOSIG
13-06-16 METAR LIMC 162150Z VRB02KT CAVOK 23/18 Q1017 NOSIG
13-06-16 METAR LIMC 162220Z 24002KT CAVOK 23/17 Q1018 NOSIG
13-06-16 METAR LIMC 162250Z VRB02KT CAVOK 23/17 Q1018 NOSIG
13-06-16 METAR LIMC 162320Z 17002KT CAVOK 22/18 Q1018 NOSIG
13-06-16 METAR LIMC 162350Z 20003KT CAVOK 20/19 Q1018 NOSIG
13-06-17 METAR LIMC 170020Z VRB02KT 9999 FEW020 21/18 Q1018 NOSIG
13-06-17 METAR LIMC 170050Z VRB01KT 9999 SCT020 21/18 Q1018 NOSIG
13-06-17 METAR LIMC 170120Z 00000KT 9999 SCT020 20/18 Q1017 NOSIG
13-06-17 METAR LIMC 170150Z 00000KT 9999 SCT020 19/18 Q1018 NOSIG
13-06-17 METAR LIMC 170220Z VRB02KT 9999 SCT020 19/19 Q1017 NOSIG
13-06-17 METAR LIMC 170250Z 00000KT CAVOK 19/18 Q1017 NOSIG
13-06-17 METAR LIMC 170320Z 35003KT CAVOK 18/18 Q1017 NOSIG
13-06-17 METAR LIMC 170350Z 36003KT 9999 FEW030 19/19 Q1017 NOSIG
13-06-17 METAR LIMC 170420Z 35003KT 300V050 9999 FEW050 19/19 Q1018 NOSIG
13-06-17 METAR LIMC 170450Z 02004KT 350V050 9999 SCT040 21/20 Q1018 NOSIG
13-06-17 METAR LIMC 170520Z 04003KT 330V090 9999 SCT050 22/19 Q1018 NOSIG
13-06-17 METAR LIMC 170550Z 05003KT 290V090 9999 SCT050 22/19 Q1018 NOSIG
13-06-17 METAR LIMC 170620Z VRB02KT 9999 SCT060 23/20 Q1018 NOSIG
13-06-17 METAR LIMC 170650Z VRB02KT 9999 SCT060 24/20 Q1018 NOSIG
13-06-17 METAR LIMC 170720Z 05005KT 020V080 9999 FEW070 25/19 Q1018 NOSIG
13-06-17 METAR LIMC 170750Z VRB04KT CAVOK 26/19 Q1018 NOSIG
13-06-17 METAR LIMC 170820Z 13006KT 100V170 CAVOK 26/19 Q1018 NOSIG
13-06-17 METAR LIMC 170850Z 11004G14KT 050V160 9999 FEW070 26/19 Q1018 NOSIG
13-06-17 METAR LIMC 170920Z 16005KT 110V190 9999 FEW030 SCT070 27/19 Q1018 NOSIG
13-06-17 METAR LIMC 170950Z VRB04KT 9999 SCT070 28/19 Q1018 NOSIG
13-06-17 METAR LIMC 171020Z 15004KT 050V220 CAVOK 29/19 Q1018 NOSIG
13-06-17 METAR LIMC 171050Z 17004KT 090V240 9999 FEW040 29/19 Q1018 NOSIG
13-06-17 METAR LIMC 171120Z VRB04KT 9999 SCT035 29/18 Q1018 NOSIG
13-06-17 METAR LIMC 171150Z VRB04KT 9999 SCT035 29/18 Q1018 NOSIG
13-06-17 METAR LIMC 171220Z VRB03KT 9999 SCT040 30/18 Q1017 NOSIG
13-06-17 METAR LIMC 171250Z NIL
13-06-17 METAR LIMC 171250Z 08003KT 010V180 9999 FEW040 30/18 Q1017 NOSIG
13-06-17 METAR LIMC 171320Z VRB04KT 9999 FEW040 30/18 Q1017 NOSIG
13-06-17 METAR LIMC 171350Z 23004KT 180V260 CAVOK 31/18 Q1017 NOSIG
13-06-17 METAR LIMC 171420Z VRB02KT 9999 FEW040 31/17 Q1016 NOSIG
13-06-17 METAR LIMC 171450Z 21004KT 180V260 CAVOK 31/18 Q1016 NOSIG
13-06-17 METAR LIMC 171520Z 25005KT 210V290 CAVOK 31/18 Q1015 NOSIG
13-06-17 METAR LIMC 171550Z 26004KT 200V330 CAVOK 31/17 Q1015 NOSIG
13-06-17 METAR LIMC 171620Z 23004KT 200V290 CAVOK 31/17 Q1015 NOSIG
13-06-17 METAR LIMC 171650Z 23005KT 200V310 CAVOK 30/18 Q1015 NOSIG
13-06-17 METAR LIMC 171720Z 22005KT CAVOK 30/18 Q1016 NOSIG
13-06-17 METAR LIMC 171750Z 21005KT CAVOK 29/18 Q1016 NOSIG
13-06-17 METAR LIMC 171820Z 22004KT CAVOK 28/18 Q1016 NOSIG
13-06-17 METAR LIMC 171850Z 25004KT 130V270 CAVOK 27/19 Q1016 NOSIG
13-06-17 METAR LIMC 171850Z NIL
13-06-17 METAR LIMC 171920Z VRB01KT CAVOK 26/18 Q1016 NOSIG
13-06-17 METAR LIMC 171950Z 00000KT CAVOK 25/19 Q1017 NOSIG
13-06-17 METAR LIMC 172020Z VRB02KT CAVOK 24/19 Q1017 NOSIG
13-06-17 METAR LIMC 172050Z VRB02KT CAVOK 24/19 Q1017 NOSIG
13-06-17 METAR LIMC 172120Z VRB02KT CAVOK 23/20 Q1017 NOSIG
13-06-17 METAR LIMC 172150Z 35005KT CAVOK 23/20 Q1017 NOSIG
13-06-17 METAR LIMC 172220Z VRB02KT CAVOK 23/19 Q1017 NOSIG
13-06-17 METAR LIMC 172250Z 35004KT CAVOK 23/19 Q1017 NOSIG
13-06-17 METAR LIMC 172320Z 35002KT CAVOK 23/19 Q1017 NOSIG
13-06-17 METAR LIMC 172350Z VRB02KT CAVOK 22/19 Q1016 NOSIG
13-06-18 METAR LIMC 180020Z 05002KT CAVOK 20/19 Q1017 NOSIG
13-06-18 METAR LIMC 180050Z 03002KT CAVOK 21/20 Q1017 NOSIG
13-06-18 METAR LIMC 180120Z VRB02KT CAVOK 22/20 Q1017 NOSIG
13-06-18 METAR LIMC 180150Z VRB01KT CAVOK 21/19 Q1016 NOSIG
13-06-18 METAR LIMC 180220Z 35004KT 300V030 CAVOK 20/19 Q1016 NOSIG
13-06-18 METAR LIMC 180250Z 34004KT CAVOK 20/19 Q1017 NOSIG
13-06-18 METAR LIMC 180320Z 01004KT CAVOK 21/19 Q1016 NOSIG
13-06-18 METAR LIMC 180350Z VRB02KT CAVOK 20/19 Q1017 NOSIG
13-06-18 METAR LIMC 180420Z 35004KT CAVOK 20/19 Q1017 NOSIG
13-06-18 METAR LIMC 180450Z 01004KT 320V060 CAVOK 22/19 Q1017 NOSIG
13-06-18 METAR LIMC 180520Z 36007KT CAVOK 23/19 Q1017 NOSIG
13-06-18 METAR LIMC 180550Z 35005KT CAVOK 24/19 Q1017 NOSIG
13-06-18 METAR LIMC 180620Z 01005KT 330V070 CAVOK 25/19 Q1017 NOSIG
13-06-18 METAR LIMC 180650Z NIL
13-06-18 METAR LIMC 180650Z 35004KT 330V040 CAVOK 26/19 Q1018 NOSIG
13-06-18 METAR LIMC 180720Z 07005KT 030V090 CAVOK 27/19 Q1017 NOSIG
13-06-18 METAR LIMC 180750Z 05006KT 350V090 CAVOK 27/19 Q1018 NOSIG
13-06-18 METAR LIMC 180820Z 10005KT 050V130 CAVOK 28/19 Q1018 NOSIG
13-06-18 METAR LIMC 180850Z VRB02KT CAVOK 29/20 Q1018 NOSIG
13-06-18 METAR LIMC 180920Z VRB04KT CAVOK 29/18 Q1017 NOSIG
13-06-18 METAR LIMC 180950Z VRB02KT CAVOK 30/19 Q1017 NOSIG
13-06-18 METAR LIMC 181020Z VRB01KT CAVOK 31/18 Q1017 NOSIG
13-06-18 METAR LIMC 181050Z 11005KT 070V160 CAVOK 31/18 Q1017 NOSIG
13-06-18 METAR LIMC 181120Z VRB02KT CAVOK 32/17 Q1017 NOSIG
13-06-18 METAR LIMC 181150Z 17004KT 140V200 CAVOK 32/17 Q1017 NOSIG
13-06-18 METAR LIMC 181220Z 33002KT CAVOK 32/17 Q1016 NOSIG
13-06-18 METAR LIMC 181250Z VRB03KT CAVOK 32/18 Q1016 NOSIG
13-06-18 METAR LIMC 181320Z 22006KT 130V280 CAVOK 32/16 Q1016 NOSIG
13-06-18 METAR LIMC 181350Z 22005KT 180V250 CAVOK 33/16 Q1016 NOSIG
13-06-18 METAR LIMC 181420Z 22006KT 170V280 CAVOK 33/17 Q1015 NOSIG
13-06-18 METAR LIMC 181450Z 21007KT 170V240 CAVOK 33/17 Q1015 NOSIG
13-06-18 METAR LIMC 181520Z NIL
13-06-18 METAR LIMC 181520Z 21004KT 170V280 CAVOK 33/16 Q1015 NOSIG
13-06-18 METAR LIMC 181550Z 21006KT CAVOK 32/15 Q1015 NOSIG
13-06-18 METAR LIMC 181620Z 23007KT CAVOK 32/17 Q1015 NOSIG
13-06-18 METAR LIMC 181650Z 23005KT CAVOK 32/17 Q1015 NOSIG
13-06-18 METAR LIMC 181720Z 22005KT CAVOK 31/18 Q1015 NOSIG
13-06-18 METAR LIMC 181750Z 22005KT CAVOK 30/18 Q1015 NOSIG
13-06-18 METAR LIMC 181820Z 22005KT CAVOK 30/19 Q1015 NOSIG
13-06-18 METAR LIMC 181850Z 20003KT CAVOK 28/19 Q1015 NOSIG
13-06-18 METAR LIMC 181920Z VRB02KT CAVOK 26/19 Q1015 NOSIG
13-06-18 METAR LIMC 181950Z VRB01KT CAVOK 25/18 Q1016 NOSIG
13-06-18 METAR LIMC 182020Z VRB02KT CAVOK 26/18 Q1016 NOSIG
13-06-18 METAR LIMC 182050Z 03003KT 360V060 CAVOK 25/18 Q1016 NOSIG
13-06-18 METAR LIMC 182120Z VRB02KT CAVOK 23/19 Q1016 NOSIG
13-06-18 METAR LIMC 182150Z 34003KT CAVOK 22/19 Q1016 NOSIG
13-06-18 METAR LIMC 182220Z 07003KT CAVOK 22/19 Q1017 NOSIG
13-06-18 METAR LIMC 182250Z 33005KT CAVOK 23/20 Q1017 NOSIG
13-06-18 METAR LIMC 182320Z 35002KT CAVOK 22/19 Q1017 NOSIG
13-06-18 METAR LIMC 182350Z 35003KT CAVOK 21/19 Q1017 NOSIG
13-06-19 METAR LIMC 190020Z 36003KT CAVOK 22/19 Q1017 NOSIG
13-06-19 METAR LIMC 190050Z 36003KT CAVOK 22/19 Q1017 NOSIG
13-06-19 METAR LIMC 190120Z 01003KT CAVOK 21/19 Q1017 NOSIG
13-06-19 METAR LIMC 190150Z 36003KT CAVOK 21/19 Q1017 NOSIG
13-06-19 METAR LIMC 190220Z 01004KT 350V060 CAVOK 21/19 Q1017 NOSIG
13-06-19 METAR LIMC 190250Z NIL
13-06-19 METAR LIMC 190250Z 01002KT 9999 SCT070 21/19 Q1017 NOSIG
13-06-19 METAR LIMC 190320Z NIL
13-06-19 METAR LIMC 190350Z NIL
13-06-19 METAR LIMC 190420Z NIL
13-06-19 METAR LIMC 190450Z NIL
13-06-19 METAR LIMC 190450Z 35003KT 320V040 9999 BKN070 23/20 Q1017 NOSIG
13-06-19 METAR LIMC 190520Z 34004KT 310V020 9999 BKN060 24/20 Q1017 NOSIG
13-06-19 METAR LIMC 190550Z 33006KT 9999 SCT020 BKN070 24/21 Q1017 NOSIG
13-06-19 METAR LIMC 190620Z 34007KT 9999 SCT020 SCT070 25/20 Q1017 NOSIG
13-06-19 METAR LIMC 190650Z 34006KT 320V030 9999 FEW020 SCT050 26/20 Q1017 NOSIG
13-06-19 METAR LIMC 190720Z 34003KT 310V030 9999 FEW025TCU SCT040 26/20 Q1018 NOSIG
13-06-19 METAR LIMC 190750Z 34004KT 290V080 9999 FEW025TCU SCT040 27/20 Q1017 NOSIG
13-06-19 METAR LIMC 190820Z VRB02KT 9999 FEW025TCU SCT070 28/20 Q1017 NOSIG
13-06-19 METAR LIMC 190920Z NIL
13-06-19 METAR LIMC 190950Z NIL
13-06-19 METAR LIMC 190950Z VRB02KT 9999 SCT070 29/18 Q1017 NOSIG
13-06-19 METAR LIMC 191020Z VRB06KT 9999 SCT040 SCT070 28/19 Q1017 NOSIG
13-06-19 METAR LIMC 191050Z 31006KT 280V340 9999 SCT040 29/20 Q1017 NOSIG
13-06-19 METAR LIMC 191120Z 34007KT 300V030 9999 FEW040 29/19 Q1017 NOSIG
13-06-19 METAR LIMC 191150Z 36006KT 300V050 9999 FEW040 30/18 Q1017 NOSIG
13-06-19 METAR LIMC 191220Z 34007KT 310V020 9999 FEW040 30/19 Q1017 NOSIG
13-06-19 METAR LIMC 191250Z 35008KT 320V040 9999 FEW040 30/19 Q1017 NOSIG
13-06-19 METAR LIMC 191320Z 36008KT 300V020 9999 FEW040 31/19 Q1017 NOSIG
13-06-19 METAR LIMC 191350Z VRB07KT 9999 FEW040 31/19 Q1016 NOSIG
13-06-19 METAR LIMC 191420Z 31006KT 260V350 9999 FEW040 31/18 Q1016 NOSIG
13-06-19 METAR LIMC 191450Z 25005KT 220V290 9999 FEW040 31/17 Q1016 NOSIG
13-06-19 METAR LIMC 191520Z 30005KT 260V350 9999 FEW040 31/16 Q1015 NOSIG
13-06-19 METAR LIMC 191550Z 26006KT 230V290 9999 FEW040 31/16 Q1015 NOSIG
13-06-19 METAR LIMC 191620Z 26004KT 230V290 9999 FEW040 31/15 Q1015 NOSIG
13-06-19 METAR LIMC 191650Z 29005KT 260V340 CAVOK 30/16 Q1015 NOSIG
13-06-19 METAR LIMC 191720Z 32006KT 290V350 CAVOK 30/16 Q1015 NOSIG
13-06-19 METAR LIMC 191750Z 34007KT CAVOK 29/18 Q1016 NOSIG
13-06-19 METAR LIMC 191820Z 32007KT CAVOK 29/17 Q1015 NOSIG
13-06-19 METAR LIMC 191850Z 35005KT CAVOK 28/18 Q1016 NOSIG
13-06-19 METAR LIMC 191920Z 35003KT CAVOK 27/18 Q1015 NOSIG
13-06-19 METAR LIMC 191950Z 34005KT CAVOK 26/18 Q1016 NOSIG
13-06-19 METAR LIMC 192020Z 34007KT CAVOK 25/18 Q1016 NOSIG
13-06-19 METAR LIMC 192050Z 35006KT CAVOK 25/18 Q1016 NOSIG
13-06-19 METAR LIMC 192120Z 28004KT 230V020 9999 FEW060 23/18 Q1016 NOSIG
13-06-19 METAR LIMC 192150Z NIL
13-06-19 METAR LIMC 192220Z NIL
13-06-19 METAR LIMC 192250Z NIL
13-06-19 METAR LIMC 192320Z NIL
13-06-19 METAR LIMC 192350Z NIL
13-06-19 METAR LIMC 192350Z VRB02KT CAVOK 21/19 Q1016 NOSIG
13-06-20 METAR LIMC 200020Z NIL
13-06-20 METAR LIMC 200020Z 00000KT CAVOK 20/18 Q1016 NOSIG
13-06-20 METAR LIMC 200050Z 35004KT CAVOK 21/18 Q1016 NOSIG
13-06-20 METAR LIMC 200120Z 35003KT CAVOK 21/18 Q1016 NOSIG
13-06-20 METAR LIMC 200150Z VRB02KT 9999 SCT040 20/18 Q1016 NOSIG
13-06-20 METAR LIMC 200220Z 36003KT 9999 SCT040 20/18 Q1016 NOSIG
13-06-20 METAR LIMC 200250Z 34004KT 9999 SCT040 21/18 Q1016 NOSIG
13-06-20 METAR LIMC 200320Z 35004KT 9999 SCT040 21/18 Q1016 NOSIG
13-06-20 METAR LIMC 200350Z 31004KT 280V350 9999 SCT040 20/18 Q1016 NOSIG
13-06-20 METAR LIMC 200420Z 33004KT 9999 SCT040 21/18 Q1016 NOSIG
13-06-20 METAR LIMC 200450Z 32003KT 250V360 9999 SCT040 22/18 Q1016 NOSIG
13-06-20 METAR LIMC 200520Z 34004KT 9999 SCT060 22/19 Q1016 NOSIG
13-06-20 METAR LIMC 200550Z 34004KT 320V020 9999 SCT060 23/19 Q1016 NOSIG
13-06-20 METAR LIMC 200620Z 34005KT 310V010 9999 SCT050 25/19 Q1016 NOSIG
13-06-20 METAR LIMC 200650Z 02007KT 350V060 9999 SCT050 25/19 Q1015 NOSIG
13-06-20 METAR LIMC 200720Z 01005KT 310V060 9999 FEW080 27/17 Q1016 NOSIG
13-06-20 METAR LIMC 200750Z VRB03KT 9999 SCT060 28/17 Q1016 NOSIG
13-06-20 METAR LIMC 200820Z 26004KT 220V310 9999 SCT030 SCT060 26/18 Q1016 NOSIG
13-06-20 METAR LIMC 200850Z 32007KT 290V350 9999 SCT030 SCT060 27/18 Q1015 NOSIG
13-06-20 METAR LIMC 200920Z 27006KT 240V310 9999 SCT050 SCT080 27/18 Q1016 NOSIG
13-06-20 METAR LIMC 200950Z VRB02KT 9999 SCT050 SCT080 28/17 Q1016 NOSIG
13-06-20 METAR LIMC 201020Z 23010KT 9999 FEW080 29/17 Q1016 NOSIG
13-06-20 METAR LIMC 201050Z 24013KT 9999 BKN060 27/17 Q1016 NOSIG
13-06-20 METAR LIMC 201120Z 28010KT 230V310 9999 BKN050 27/17 Q1015 NOSIG
13-06-20 METAR LIMC 201150Z 31004KT 210V360 9999 BKN050 29/17 Q1015 NOSIG
13-06-20 METAR LIMC 201220Z 23016KT 9999 FEW050 BKN090 26/18 Q1016 NOSIG
13-06-20 METAR LIMC 201250Z 24011KT 9999 FEW050 BKN070 24/16 Q1016 NOSIG
13-06-20 METAR LIMC 201320Z VRB02KT 9999 BKN060 BKN080 25/16 Q1016 NOSIG
13-06-20 METAR LIMC 201350Z 27009KT 9999 FEW050 OVC070 24/17 Q1016 NOSIG
13-06-20 METAR LIMC 201420Z 30009KT 9999 SCT050 BKN070 25/16 Q1015 NOSIG
13-06-20 METAR LIMC 201450Z 26006KT 240V300 9999 SCT050 BKN070 25/16 Q1016 NOSIG
13-06-20 METAR LIMC 201520Z 33005KT 9999 SCT050 BKN070 24/16 Q1015 NOSIG
13-06-20 METAR LIMC 201550Z 26005KT 210V350 9999 RA BKN050 BKN070 22/18 Q1015 NOSIG
13-06-20 METAR LIMC 201620Z 31005KT 260V330 9999 SCT050 BKN070 24/16 Q1015 RERA NOSIG
13-06-20 METAR LIMC 201650Z 30005KT 9999 BKN065 24/15 Q1015 NOSIG
13-06-20 METAR LIMC 201720Z 34006KT 9999 BKN075 23/18 Q1015 NOSIG
13-06-20 METAR LIMC 201750Z 01004KT 340V040 9999 SCT040 BKN075 23/17 Q1015 NOSIG
13-06-20 METAR LIMC 201820Z 02004KT 9999 FEW035 SCT040 BKN075 22/17 Q1014 NOSIG
13-06-20 METAR LIMC 201850Z 32005KT 9999 RA BKN055 21/18 Q1015 NOSIG
13-06-20 METAR LIMC 201920Z 33006KT 9999 RA BKN055 21/18 Q1015 NOSIG
13-06-20 METAR LIMC 201950Z 36008KT 9999 BKN055 20/18 Q1015 RETSRA NOSIG
13-06-20 METAR LIMC 202020Z 35006KT 320V020 9999 BKN060 20/18 Q1015 NOSIG
13-06-20 METAR LIMC 202050Z 36007KT 9999 BKN060 19/17 Q1015 NOSIG
13-06-20 METAR LIMC 202120Z 35006KT 9999 BKN060 19/17 Q1015 NOSIG
13-06-20 METAR LIMC 202150Z 34004KT 310V020 9999 BKN060 18/17 Q1015 NOSIG
13-06-20 METAR LIMC 202220Z 01005KT 340V040 9999 BKN060 18/17 Q1015 NOSIG
13-06-20 METAR LIMC 202250Z VRB03KT 9999 BKN060 18/17 Q1015 NOSIG
13-06-20 METAR LIMC 202320Z VRB02KT 9999 BKN060 18/17 Q1015 NOSIG
13-06-20 METAR LIMC 202350Z 34003KT 9999 BKN060 18/17 Q1015 NOSIG
13-06-21 METAR LIMC 210020Z 01003KT 330V030 9999 BKN060 18/17 Q1015 NOSIG
13-06-21 METAR LIMC 210050Z NIL
13-06-21 METAR LIMC 210050Z 00000KT 9999 BKN060 18/17 Q1015 NOSIG
13-06-21 METAR LIMC 210120Z 31003KT 220V010 9999 BKN060 17/17 Q1015 NOSIG
13-06-21 METAR LIMC 210150Z VRB01KT 9999 FEW050 17/17 Q1015 NOSIG
13-06-21 METAR LIMC 210220Z VRB01KT 9999 FEW050 16/16 Q1015 NOSIG
13-06-21 METAR LIMC 210250Z VRB01KT 9999 FEW050 16/16 Q1015 NOSIG
13-06-21 METAR LIMC 210320Z VRB01KT 9999 FEW050 15/15 Q1015 NOSIG
13-06-21 METAR LIMC 210350Z 00000KT 9999 MIFG NSC 15/15 Q1015 NOSIG
13-06-21 METAR LIMC 210420Z VRB02KT 9999 R35L/1500N R35R/1300V1500N MIFG NSC 15/15 Q1015 NOSIG
13-06-21 METAR LIMC 210450Z VRB02KT 9999 R35L/1500N R35R/1200V1300N MIFG NSC 16/16
13-06-21 METAR LIMC 210520Z 06002KT CAVOK 19/16 Q1015 NOSIG
13-06-21 METAR LIMC 210550Z 12004KT 090V200 CAVOK 19/15 Q1015 NOSIG
13-06-21 METAR LIMC 210620Z 11003KT 030V170 CAVOK 21/15 Q1015 NOSIG
13-06-21 METAR LIMC 210650Z VRB01KT CAVOK 22/16 Q1015 NOSIG
13-06-21 METAR LIMC 210720Z VRB02KT CAVOK 22/15 Q1016 NOSIG
13-06-21 METAR LIMC 210750Z 09003KT 360V150 9999 SCT050 22/15 Q1016 NOSIG
13-06-21 METAR LIMC 210820Z VRB03KT 9999 SCT050 22/16 Q1016 NOSIG
13-06-21 METAR LIMC 210850Z VRB04KT 9999 SCT050 23/16 Q1016 NOSIG
13-06-21 METAR LIMC 210920Z VRB03KT 9999 SCT050 23/16 Q1016 NOSIG
13-06-21 METAR LIMC 210950Z VRB03KT 9999 SCT050 24/16 Q1016 NOSIG
13-06-21 METAR LIMC 211020Z 11005KT 040V170 9999 BKN050 24/17 Q1016 NOSIG
13-06-21 METAR LIMC 211050Z 15005KT 100V190 9999 BKN050 25/16 Q1016 NOSIG
13-06-21 METAR LIMC 211120Z 16006KT 120V190 9999 BKN050 25/16 Q1016 NOSIG
13-06-21 METAR LIMC 211150Z NIL
13-06-21 METAR LIMC 211220Z 16007KT 100V210 9999 SCT035 25/16 Q1015 NOSIG
13-06-21 METAR LIMC 211250Z 21006KT 130V270 9999 SCT035 26/15 Q1015 NOSIG
13-06-21 METAR LIMC 211320Z 21007KT 130V260 9999 BKN035 26/14 Q1015 NOSIG
13-06-21 METAR LIMC 211350Z 15005KT 080V200 9999 BKN035 26/15 Q1015 NOSIG
13-06-21 METAR LIMC 211420Z 18004KT 120V220 9999 SCT040 25/14 Q1015 NOSIG
13-06-21 METAR LIMC 211450Z 18004KT 130V220 9999 SCT040 25/13 Q1015 NOSIG
13-06-21 METAR LIMC 211520Z 20008KT 9999 SCT040 27/12 Q1015 NOSIG
13-06-21 METAR LIMC 211550Z 15006KT 110V190 9999 SCT040 26/11 Q1015 NOSIG
13-06-21 METAR LIMC 211620Z NIL
13-06-21 METAR LIMC 211620Z 19006KT 150V220 9999 SCT040 27/11 Q1015 NOSIG
13-06-21 METAR LIMC 211650Z 18006KT 9999 FEW040 26/10 Q1014 NOSIG
13-06-21 METAR LIMC 211720Z 18004KT 140V210 9999 FEW040 26/12 Q1015 NOSIG
13-06-21 METAR LIMC 211750Z 18003KT 160V220 9999 FEW040 25/12 Q1015 NOSIG
13-06-21 METAR LIMC 211820Z 20005KT 160V220 CAVOK 24/12 Q1015 NOSIG
13-06-21 METAR LIMC 211850Z 19004KT CAVOK 23/13 Q1015 NOSIG
13-06-21 METAR LIMC 211920Z NIL
13-06-21 METAR LIMC 211920Z 18003KT CAVOK 21/13 Q1015 NOSIG
13-06-21 METAR LIMC 211950Z 23007KT CAVOK 22/12 Q1016 NOSIG
13-06-21 METAR LIMC 212020Z 20008KT CAVOK 21/13 Q1016 NOSIG
13-06-21 METAR LIMC 212050Z 20004KT CAVOK 20/13 Q1016 NOSIG
13-06-21 METAR LIMC 212120Z 19005KT 9999 SCT080 19/11 Q1016 NOSIG
13-06-21 METAR LIMC 212150Z 19004KT 9999 SCT080 19/11 Q1016 NOSIG
13-06-21 METAR LIMC 212220Z NIL
13-06-21 METAR LIMC 212220Z 20004KT 9999 SCT080 18/11 Q1017 NOSIG
13-06-21 METAR LIMC 212250Z VRB01KT 9999 SCT040 18/11 Q1017 NOSIG
13-06-21 METAR LIMC 212320Z VRB01KT 9999 SCT050 17/12 Q1017 NOSIG
13-06-21 METAR LIMC 212350Z VRB02KT 9999 SCT050 17/13 Q1017 NOSIG
13-06-22 METAR LIMC 220020Z 23003KT 9999 BKN060 17/14 Q1016 NOSIG
13-06-22 METAR LIMC 220050Z 00000KT 9999 BKN060 17/13 Q1016 NOSIG
13-06-22 METAR LIMC 220120Z VRB01KT 9999 BKN060 17/14 Q1016 NOSIG
13-06-22 METAR LIMC 220150Z 14002KT 9999 BKN060 17/15 Q1016 NOSIG
13-06-22 METAR LIMC 220220Z 04002KT 9999 BKN060 16/15 Q1016 NOSIG
13-06-22 METAR LIMC 220250Z VRB02KT 9999 BKN060 16/15 Q1016 NOSIG
13-06-22 METAR LIMC 220320Z VRB01KT 9999 SCT045 SCT060 16/15 Q1016 NOSIG
13-06-22 METAR LIMC 220350Z 00000KT 9999 SCT045 BKN060 16/15 Q1016 NOSIG
13-06-22 METAR LIMC 220420Z VRB02KT 9999 FEW060 SCT080 15/15 Q1016 NOSIG
13-06-22 METAR LIMC 220450Z 02002KT 9999 FEW040CB SCT080 16/16 Q1016 NOSIG
13-06-22 METAR LIMC 220520Z 36003KT 290V040 9999 FEW030CB SCT070 18/15 Q1016 NOSIG
13-06-22 METAR LIMC 220550Z VRB02KT 9999 FEW030CB SCT070 19/15 Q1016 NOSIG
13-06-22 METAR LIMC 220620Z VRB01KT 9999 FEW030CB SCT070 20/15 Q1016 NOSIG
13-06-22 METAR LIMC 220650Z VRB02KT 9999 VCTS FEW030CB SCT070 21/15 Q1017 NOSIG
13-06-22 METAR LIMC 220720Z VRB01KT 9999 VCTS FEW030CB SCT070 22/15 Q1017 NOSIG
13-06-22 METAR LIMC 220750Z 05005KT 340V120 9999 FEW030CB SCT070 23/15 Q1016 NOSIG
13-06-22 METAR LIMC 220820Z VRB02KT 9999 SCT090 23/14 Q1016 NOSIG
13-06-22 METAR LIMC 220850Z 30008KT 9999 BKN090 21/14 Q1016 NOSIG
13-06-22 METAR LIMC 220920Z 31009KT 280V340 9999 BKN090 23/13 Q1017 NOSIG
13-06-22 METAR LIMC 220950Z 34006KT 290V030 9999 SCT090 24/13 Q1016 NOSIG
13-06-22 METAR LIMC 221020Z 26007KT 220V320 9999 SCT080 24/13 Q1016 NOSIG
13-06-22 METAR LIMC 221050Z 29007KT 250V340 9999 FEW080 25/14 Q1016 NOSIG
13-06-22 METAR LIMC 221120Z 23006KT 170V270 CAVOK 25/14 Q1016 NOSIG
13-06-22 METAR LIMC 221150Z 25006KT 210V350 9999 FEW040 26/14 Q1016 NOSIG
13-06-22 METAR LIMC 221220Z 24006KT 170V310 9999 SCT035 27/14 Q1015 NOSIG
13-06-22 METAR LIMC 221250Z 24005KT 170V320 9999 SCT035 27/14 Q1015 NOSIG
13-06-22 METAR LIMC 221320Z 22007KT 170V270 9999 SCT035 27/14 Q1015 NOSIG
13-06-22 METAR LIMC 221350Z 28006KT 240V330 9999 SCT035 27/13 Q1015 NOSIG
13-06-22 METAR LIMC 221420Z 23006KT 180V280 9999 SCT035 27/13 Q1015 NOSIG
13-06-22 METAR LIMC 221450Z 22007KT 180V260 9999 SCT040 27/14 Q1015 NOSIG
13-06-22 METAR LIMC 221520Z 22007KT 160V260 9999 SCT040 27/13 Q1014 NOSIG
13-06-22 METAR LIMC 221550Z 23008KT 190V260 9999 FEW040 27/13 Q1014 NOSIG
13-06-22 METAR LIMC 221620Z 20007KT 180V240 9999 FEW040 27/13 Q1014 NOSIG
13-06-22 METAR LIMC 221650Z 22005KT 160V270 9999 FEW040 27/13 Q1014 NOSIG
13-06-22 METAR LIMC 221720Z 21004KT 160V250 9999 FEW040 27/13 Q1014 NOSIG
13-06-22 METAR LIMC 221750Z 21007KT CAVOK 26/12 Q1014 NOSIG
13-06-22 METAR LIMC 221820Z 21005KT CAVOK 25/13 Q1014 NOSIG
13-06-22 METAR LIMC 221850Z 21005KT CAVOK 24/13 Q1014 NOSIG
13-06-22 METAR LIMC 221920Z 20009KT CAVOK 23/14 Q1014 NOSIG
13-06-22 METAR LIMC 221950Z 19009KT CAVOK 22/14 Q1015 NOSIG
13-06-22 METAR LIMC 222020Z 19005KT CAVOK 21/14 Q1015 NOSIG
13-06-22 METAR LIMC 222050Z 17005KT CAVOK 20/14 Q1015 NOSIG
13-06-22 METAR LIMC 222120Z 19005KT CAVOK 19/15 Q1016 NOSIG
13-06-22 METAR LIMC 222150Z 19003KT CAVOK 19/15 Q1016 NOSIG
13-06-22 METAR LIMC 222220Z VRB02KT CAVOK 18/15 Q1016 NOSIG
13-06-22 METAR LIMC 222250Z 17003KT 130V230 CAVOK 18/16 Q1016 NOSIG
13-06-22 METAR LIMC 222320Z 17003KT CAVOK 18/16 Q1016 NOSIG
13-06-22 METAR LIMC 222350Z 16002KT CAVOK 18/16 Q1016 NOSIG
13-06-23 METAR LIMC 230020Z 15002KT CAVOK 17/16 Q1015 NOSIG
13-06-23 METAR LIMC 230050Z 00000KT CAVOK 16/16 Q1015 NOSIG
13-06-23 METAR LIMC 230120Z 00000KT CAVOK 16/16 Q1015 NOSIG
13-06-23 METAR LIMC 230150Z 00000KT CAVOK 15/15 Q1015 NOSIG
13-06-23 METAR LIMC 230220Z VRB01KT CAVOK 15/15 Q1015 NOSIG
13-06-23 METAR LIMC 230250Z 00000KT CAVOK 16/16 Q1015 NOSIG
13-06-23 METAR LIMC 230320Z 01002KT CAVOK 15/15 Q1015 NOSIG
13-06-23 METAR LIMC 230350Z 11001KT 9999 MIFG NSC 15/15 Q1014 NOSIG
13-06-23 METAR LIMC 230420Z 00000KT 9999 MIFG NSC 15/15 Q1014 NOSIG
13-06-23 METAR LIMC 230450Z 01002KT 9999 MIFG NSC 16/16 Q1014 NOSIG
13-06-23 METAR LIMC 230520Z VRB01KT 9999 MIFG NSC 18/17 Q1014 NOSIG
13-06-23 METAR LIMC 230550Z VRB02KT CAVOK 20/17 Q1014 NOSIG
13-06-23 METAR LIMC 230620Z 01004KT 330V040 CAVOK 20/17 Q1014 NOSIG
13-06-23 METAR LIMC 230650Z VRB01KT CAVOK 22/17 Q1014 NOSIG
13-06-23 METAR LIMC 230720Z VRB01KT CAVOK 23/16 Q1014 NOSIG
13-06-23 METAR LIMC 230750Z VRB02KT CAVOK 23/16 Q1014 NOSIG
13-06-23 METAR LIMC 230820Z VRB05KT CAVOK 23/16 Q1014 NOSIG
13-06-23 METAR LIMC 230850Z 19005KT 160V230 CAVOK 24/16 Q1014 NOSIG
13-06-23 METAR LIMC 230920Z VRB03KT CAVOK 24/16 Q1014 NOSIG
13-06-23 METAR LIMC 230950Z 14006KT 100V170 9999 FEW040 24/15 Q1014 NOSIG
13-06-23 METAR LIMC 231020Z 19006KT 080V240 9999 FEW040 25/17 Q1014 NOSIG
13-06-23 METAR LIMC 231050Z 20007KT 160V280 9999 SCT040 25/17 Q1014 NOSIG
13-06-23 METAR LIMC 231120Z 18007KT 130V230 9999 SCT030 26/17 Q1013 NOSIG
13-06-23 METAR LIMC 231150Z 18007KT 120V230 9999 FEW030 26/16 Q1013 NOSIG
13-06-23 METAR LIMC 231220Z 20008KT 160V240 9999 FEW030 26/16 Q1013 NOSIG
13-06-23 METAR LIMC 231250Z 19008KT 160V230 9999 SCT030 27/16 Q1012 NOSIG
13-06-23 METAR LIMC 231320Z 18009KT 150V230 9999 SCT040 27/16 Q1012 NOSIG
13-06-23 METAR LIMC 231350Z 17008KT 150V210 9999 SCT040 26/16 Q1012 NOSIG
13-06-23 METAR LIMC 231420Z 18009KT 140V250 9999 SCT040 27/15 Q1012 NOSIG
13-06-23 METAR LIMC 231450Z 18008KT 150V220 9999 SCT040 27/15 Q1011 NOSIG
13-06-23 METAR LIMC 231520Z 20009KT 9999 SCT030 BKN050 25/15 Q1011 NOSIG
13-06-23 METAR LIMC 231550Z 19007KT 9999 SCT040 BKN060 25/15 Q1011 NOSIG
13-06-23 METAR LIMC 231620Z 17006KT 9999 -RA BKN040 BKN060 24/15 Q1011 NOSIG
13-06-23 METAR LIMC 231650Z 21007KT 9999 SCT040 BKN060 24/15 Q1011 NOSIG
13-06-23 METAR LIMC 231720Z 24008KT 200V300 9999 SCT050 24/16 Q1011 NOSIG
13-06-23 METAR LIMC 231750Z 01006KT 330V050 9999 SCT050 22/16 Q1011 NOSIG
13-06-23 METAR LIMC 231820Z 01005KT 9999 FEW030 SCT050 BKN070 22/16 Q1011 NOSIG
13-06-23 METAR LIMC 231850Z VRB01KT 9999 BKN040 BKN070 22/16 Q1011 NOSIG
13-06-23 METAR LIMC 231920Z VRB02KT 9999 BKN040 BKN070 21/17 Q1011 NOSIG
13-06-23 METAR LIMC 231950Z 16005KT 130V190 9999 BKN040 OVC070 20/17 Q1011 NOSIG
13-06-23 METAR LIMC 232020Z 20005KT 170V230 9999 VCTS FEW015CB BKN030 OVC070 20/16 Q1011 NOSIG
13-06-23 METAR LIMC 232050Z 02012KT 350V050 9999 VCTS FEW012CB BKN025 OVC070 19/11 Q1012 WS RWY 35L BCMG TS
13-06-23 METAR LIMC 232120Z 01014KT 9999 +TSRA BKN012CB BKN025 16/15 Q1012 WS RWY 35L NOSIG
13-06-23 METAR LIMC 232150Z 03014KT 9999 -RA FEW012CB BKN025 17/14 Q1011 RETSRA
13-06-23 METAR LIMC 232220Z 34007KT 320V020 9999 -RA BKN015 BKN025 16/14 Q1012
13-06-23 METAR LIMC 232250Z 31005KT 290V350 9999 -RA BKN015 BKN025 16/15 Q1012
13-06-23 METAR LIMC 232320Z 00000KT 9999 SCT020 BKN035 16/15 Q1012 NOSIG
13-06-23 METAR LIMC 232350Z VRB01KT 9999 BKN030 15/15 Q1011 NOSIG
13-06-24 METAR LIMC 240020Z VRB01KT 9999 BKN070 15/15 Q1011 NOSIG
13-06-24 METAR LIMC 240050Z 33006KT 9999 SCT070 16/14 Q1011 NOSIG
13-06-24 METAR LIMC 240120Z 35006KT 9999 SCT070 14/14 Q1010 NOSIG
13-06-24 METAR LIMC 240150Z 33005KT 9999 SCT070 14/13 Q1011 NOSIG
13-06-24 METAR LIMC 240220Z 34005KT 9999 SCT070 13/13 Q1011 NOSIG
13-06-24 METAR LIMC 240250Z 35005KT 9999 SCT070 14/12 Q1011 NOSIG
13-06-24 METAR LIMC 240320Z 35005KT 9999 SCT070 13/11 Q1011 NOSIG
13-06-24 METAR LIMC 240350Z 36005KT 320V030 9999 SCT070 11/11 Q1011 NOSIG
13-06-24 METAR LIMC 240420Z 34007KT 9999 SCT070 12/11 Q1011 NOSIG
13-06-24 METAR LIMC 240450Z 35006KT 310V020 9999 FEW070 15/09 Q1012 NOSIG
13-06-24 METAR LIMC 240520Z NIL
13-06-24 METAR LIMC 240520Z 35006KT 9999 FEW060 18/07 Q1012 NOSIG
13-06-24 METAR LIMC 240550Z 36009KT CAVOK 19/05 Q1012 NOSIG
13-06-24 METAR LIMC 240620Z 01007KT CAVOK 21/03 Q1012 NOSIG
13-06-24 METAR LIMC 240650Z 01009KT 320V030 CAVOK 21/04 Q1012 NOSIG
13-06-24 METAR LIMC 240720Z 01009KT 340V040 CAVOK 22/03 Q1012 NOSIG
13-06-24 METAR LIMC 240750Z 35010KT CAVOK 23/03 Q1012 NOSIG
13-06-24 METAR LIMC 240820Z 02011KT 350V050 CAVOK 24/04 Q1012 NOSIG
13-06-24 METAR LIMC 240850Z 02011KT 350V060 CAVOK 24/03 Q1012 CCICCIA
13-06-24 METAR LIMC 240920Z 01011KT 330V040 CAVOK 24/03 Q1012 NOSIG
13-06-24 METAR LIMC 240950Z 01011KT 340V050 CAVOK 24/04 Q1012 NOSIG
13-06-24 METAR LIMC 241020Z 02013G26KT 340V050 CAVOK 25/04 Q1012 NOSIG
13-06-24 METAR LIMC 241050Z 36011G21KT 320V060 CAVOK 26/04 Q1012 NOSIG
13-06-24 METAR LIMC 241120Z 34013KT 310V010 CAVOK 26/04 Q1012 WS ALL RWY NOSIG
13-06-24 METAR LIMC 241150Z 35009KT 270V030 9999 SCT050 26/05 Q1012 WS ALL RWY NOSIG
13-06-24 METAR LIMC 241220Z 31010KT 280V010 9999 SCT050 26/05 Q1012 WS ALL RWY
13-06-24 METAR LIMC 241250Z 32011KT 300V360 9999 SCT050 25/05 Q1012 NOSIG
13-06-24 METAR LIMC 241320Z 31014KT 270V340 9999 SCT050 26/04 Q1012 NOSIG
13-06-24 METAR LIMC 241350Z NIL
13-06-24 METAR LIMC 241350Z 33013KT 300V360 9999 SCT050 26/05 Q1012 NOSIG
13-06-24 METAR LIMC 241420Z 36012KT 320V040 9999 SCT050 26/04 Q1012 NOSIG
13-06-24 METAR LIMC 241450Z 36018KT 330V030 CAVOK 26/01 Q1012 NOSIG
13-06-24 METAR LIMC 241520Z 36018KT CAVOK 26/02 Q1012 NOSIG
13-06-24 METAR LIMC 241550Z 36016KT CAVOK 26/01 Q1013 NOSIG
13-06-24 METAR LIMC 241620Z 36017KT 330V040 CAVOK 25/00 Q1013 NOSIG
13-06-24 METAR LIMC 241650Z 36015KT CAVOK 25/01 Q1013 NOSIG
13-06-24 METAR LIMC 241720Z 36015KT CAVOK 25/00 Q1014 NOSIG
13-06-24 METAR LIMC 241750Z 36012KT 330V030 CAVOK 24/01 Q1014 NOSIG
13-06-24 METAR LIMC 241820Z 01010KT CAVOK 23/01 Q1014 NOSIG
13-06-24 METAR LIMC 241850Z 01011KT CAVOK 22/01 Q1015 NOSIG
13-06-24 METAR LIMC 241920Z 02011KT 350V050 CAVOK 22/01 Q1015 NOSIG
13-06-24 METAR LIMC 241950Z 03011G21KT 340V050 CAVOK 21/02 Q1016 NOSIG
13-06-24 METAR LIMC 242020Z 03014KT CAVOK 21/01 Q1016 NOSIG
13-06-24 METAR LIMC 242050Z 01012KT CAVOK 20/01 Q1016 NOSIG
13-06-24 METAR LIMC 242120Z 01011KT 350V050 CAVOK 20/00 Q1016 NOSIG
13-06-24 METAR LIMC 242150Z 01009KT CAVOK 19/01 Q1016 NOSIG
13-06-24 METAR LIMC 242220Z 36009KT 320V020 CAVOK 19/01 Q1016 NOSIG
13-06-24 METAR LIMC 242250Z 01009KT CAVOK 19/01 Q1016 NOSIG
13-06-24 METAR LIMC 242320Z 36010KT CAVOK 19/01 Q1016 NOSIG
13-06-24 METAR LIMC 242350Z 36009KT CAVOK 19/01 Q1016 NOSIG
13-06-25 METAR LIMC 250020Z 05006KT CAVOK 17/02 Q1016 NOSIG
13-06-25 METAR LIMC 250050Z 02008KT CAVOK 17/01 Q1016 NOSIG
13-06-25 METAR LIMC 250120Z 35008KT CAVOK 16/02 Q1016 NOSIG
13-06-25 METAR LIMC 250150Z 35008KT CAVOK 15/02 Q1016 NOSIG
13-06-25 METAR LIMC 250220Z 36008KT CAVOK 16/02 Q1016 NOSIG
13-06-25 METAR LIMC 250250Z 35007KT CAVOK 14/03 Q1016 NOSIG
13-06-25 METAR LIMC 250320Z 35009KT CAVOK 16/02 Q1016 NOSIG
13-06-25 METAR LIMC 250350Z 35007KT CAVOK 14/03 Q1016 NOSIG
13-06-25 METAR LIMC 250420Z 35007KT CAVOK 15/03 Q1016 NOSIG
13-06-25 METAR LIMC 250450Z 35009KT CAVOK 16/04 Q1017 NOSIG
13-06-25 METAR LIMC 250520Z 34010KT CAVOK 18/03 Q1016 NOSIG
13-06-25 METAR LIMC 250550Z 33011KT CAVOK 19/03 Q1017 NOSIG
13-06-25 METAR LIMC 250620Z 33014KT CAVOK 20/03 Q1017 NOSIG
13-06-25 METAR LIMC 250650Z 33014KT CAVOK 21/03 Q1017 NOSIG
13-06-25 METAR LIMC 250720Z 34014KT CAVOK 22/03 Q1017 NOSIG
13-06-25 METAR LIMC 250750Z 34014KT 300V010 CAVOK 22/03 Q1017 NOSIG
13-06-25 METAR LIMC 250820Z 34015G26KT 310V010 CAVOK 23/03 Q1017 NOSIG
13-06-25 METAR LIMC 250850Z 34019KT CAVOK 24/02 Q1017 NOSIG
13-06-25 METAR LIMC 250920Z 35016KT CAVOK 24/02 Q1017 NOSIG
13-06-25 METAR LIMC 250950Z 35016KT CAVOK 24/02 Q1017 NOSIG
13-06-25 METAR LIMC 251020Z 34013KT CAVOK 25/03 Q1016 NOSIG
13-06-25 METAR LIMC 251050Z 34011KT 310V030 CAVOK 25/03 Q1016 NOSIG
13-06-25 METAR LIMC 251120Z 35012KT 320V050 CAVOK 25/01 Q1016 NOSIG
13-06-25 METAR LIMC 251150Z 33010KT 300V360 CAVOK 26/02 Q1016 NOSIG
13-06-25 METAR LIMC 251220Z 32011KT 290V350 CAVOK 26/03 Q1016 NOSIG
13-06-25 METAR LIMC 251250Z 30006KT 230V360 CAVOK 26/03 Q1016 NOSIG
13-06-25 METAR LIMC 251320Z 34009KT 290V020 CAVOK 26/01 Q1016 NOSIG
13-06-25 METAR LIMC 251350Z 02009KT 310V060 CAVOK 26/03 Q1016 NOSIG
13-06-25 METAR LIMC 251420Z 36007KT 320V050 CAVOK 26/01 Q1015 NOSIG
13-06-25 METAR LIMC 251450Z 36004KT 310V050 CAVOK 26/01 Q1015 NOSIG
13-06-25 METAR LIMC 251520Z 34009KT 290V010 9999 FEW030 26/01 Q1015 NOSIG
13-06-25 METAR LIMC 251550Z 34009KT 290V020 9999 FEW030 26/01 Q1015 NOSIG
13-06-25 METAR LIMC 251620Z 34009KT 9999 FEW030 25/01 Q1015 NOSIG
13-06-25 METAR LIMC 251650Z 34009KT 9999 SCT030 24/02 Q1015 NOSIG
13-06-25 METAR LIMC 251720Z 36010KT 9999 SCT030 24/02 Q1016 NOSIG
13-06-25 METAR LIMC 251750Z 02010KT 9999 SCT030 23/03 Q1016 NOSIG
13-06-25 METAR LIMC 251820Z 01011KT 9999 SCT030 23/02 Q1016 NOSIG
13-06-25 METAR LIMC 251850Z 01010KT 350V050 9999 FEW030 22/02 Q1016 NOSIG
13-06-25 METAR LIMC 251920Z 01011KT 350V050 9999 FEW030 21/02 Q1017 NOSIG
13-06-25 METAR LIMC 251950Z 01011KT 9999 FEW030 20/01 Q1017 NOSIG
13-06-25 METAR LIMC 252020Z 36014KT 9999 FEW030 21/00 Q1018 NOSIG
13-06-25 METAR LIMC 252050Z 01012KT 9999 FEW030 20/M00 Q1018 NOSIG
13-06-25 METAR LIMC 252120Z 36012KT 9999 FEW030 20/M00 Q1018 NOSIG
13-06-25 METAR LIMC 252150Z 36011KT 9999 FEW040 19/00 Q1019 NOSIG
13-06-25 METAR LIMC 252220Z 01009KT 350V050 9999 FEW040 19/00 Q1019 NOSIG
13-06-25 METAR LIMC 252250Z 01007KT 330V040 9999 FEW040 19/00 Q1019 NOSIG
13-06-25 METAR LIMC 252320Z 01007KT 9999 SCT040 19/00 Q1020 NOSIG
13-06-25 METAR LIMC 252350Z 01005KT 9999 SCT040 18/01 Q1020 NOSIG
13-06-26 METAR LIMC 260020Z 03004KT 360V070 9999 SCT040 18/00 Q1020 NOSIG
13-06-26 METAR LIMC 260050Z 02006KT 9999 SCT040 18/00 Q1020 NOSIG
13-06-26 METAR LIMC 260120Z 02007KT 9999 SCT040 18/00 Q1020 NOSIG
13-06-26 METAR LIMC 260150Z 02007KT 9999 SCT040 18/00 Q1020 NOSIG
13-06-26 METAR LIMC 260220Z 02007KT 9999 SCT040 18/M00 Q1020 NOSIG
13-06-26 METAR LIMC 260250Z 03007KT 9999 SCT040 18/00 Q1020 NOSIG
13-06-26 METAR LIMC 260320Z 02006KT 9999 SCT040 17/00 Q1020 NOSIG
13-06-26 METAR LIMC 260350Z 02007G21KT 320V050 9999 BKN040 17/00 Q1020 NOSIG
13-06-26 METAR LIMC 260420Z 33005KT 9999 BKN040 15/02 Q1020 NOSIG
13-06-26 METAR LIMC 260450Z 34005KT 9999 BKN040 16/04 Q1021 NOSIG
13-06-26 METAR LIMC 260550Z 32005KT 300V360 9999 BKN070 19/04 Q1021 NOSIG
13-06-26 METAR LIMC 260620Z 35006KT 9999 BKN070 20/03 Q1021 NOSIG
13-06-26 METAR LIMC 260650Z 01005KT 340V060 CAVOK 20/03 Q1021 NOSIG
13-06-26 METAR LIMC 260720Z 35006KT 300V050 CAVOK 21/04 Q1021 NOSIG
13-06-26 METAR LIMC 260750Z 36007KT 320V060 CAVOK 22/04 Q1021 NOSIG
13-06-26 METAR LIMC 260820Z 36007KT 320V040 CAVOK 22/02 Q1021 NOSIG
13-06-26 METAR LIMC 260850Z 34007KT 310V010 CAVOK 23/03 Q1021 NOSIG
13-06-26 METAR LIMC 260920Z 34010KT 300V020 CAVOK 23/02 Q1021 NOSIG
13-06-26 METAR LIMC 260950Z VRB05KT CAVOK 24/03 Q1021 NOSIG
13-06-26 METAR LIMC 261020Z 04006KT 310V080 9999 FEW030 24/02 Q1021 NOSIG
13-06-26 METAR LIMC 261050Z VRB05KT 9999 FEW030 24/02 Q1021 NOSIG
13-06-26 METAR LIMC 261120Z 04004KT 340V130 9999 FEW030 24/03 Q1021 NOSIG
13-06-26 METAR LIMC 261150Z VRB05KT 9999 SCT030 25/01 Q1020 NOSIG
13-06-26 METAR LIMC 261220Z 31006KT 250V030 9999 SCT045 25/02 Q1020 NOSIG
13-06-26 METAR LIMC 261250Z 07006KT 030V140 9999 SCT045 25/02 Q1020 NOSIG
13-06-26 METAR LIMC 261320Z VRB04KT 9999 SCT045 26/03 Q1020 NOSIG
13-06-26 METAR LIMC 261350Z 14007KT 090V170 9999 SCT045 25/04 Q1020 NOSIG
13-06-26 METAR LIMC 261420Z 21006KT 160V330 9999 SCT045 25/05 Q1019 NOSIG
13-06-26 METAR LIMC 261450Z 20009KT 170V240 9999 SCT045 25/05 Q1019 NOSIG
13-06-26 METAR LIMC 261520Z 19006KT 160V250 9999 SCT045 26/06 Q1019 NOSIG
13-06-26 METAR LIMC 261550Z 22008KT 9999 FEW045 25/06 Q1019 NOSIG
13-06-26 METAR LIMC 261620Z 21007KT 160V280 9999 FEW045 25/06 Q1019 NOSIG
13-06-26 METAR LIMC 261650Z 22006KT 170V260 9999 FEW045 24/05 Q1019 NOSIG
13-06-26 METAR LIMC 261720Z 21006KT 9999 FEW045 24/05 Q1019 NOSIG
13-06-26 METAR LIMC 261750Z 22006KT 9999 FEW045 24/06 Q1019 NOSIG
13-06-26 METAR LIMC 261820Z 25005KT CAVOK 23/06 Q1019 NOSIG
13-06-26 METAR LIMC 261850Z 30004KT 260V010 CAVOK 22/06 Q1020 NOSIG
13-06-26 METAR LIMC 261920Z 12008KT 060V160 CAVOK 21/08 Q1020 NOSIG
13-06-26 METAR LIMC 261950Z VRB04KT CAVOK 20/07 Q1021 NOSIG
13-06-26 METAR LIMC 262020Z VRB04G14KT CAVOK 20/07 Q1021 NOSIG
13-06-26 METAR LIMC 262050Z 04005KT 300V070 CAVOK 18/07 Q1021 NOSIG
13-06-26 METAR LIMC 262120Z 04004KT 280V080 CAVOK 18/08 Q1022 NOSIG
13-06-26 METAR LIMC 262150Z 04007KT CAVOK 16/08 Q1022 NOSIG
13-06-26 METAR LIMC 262220Z 03004KT CAVOK 15/09 Q1022 NOSIG
13-06-26 METAR LIMC 262250Z 04004KT CAVOK 16/08 Q1022 NOSIG
13-06-26 METAR LIMC 262320Z 05005KT CAVOK 16/08 Q1022 NOSIG
13-06-26 METAR LIMC 262350Z 04006KT CAVOK 15/07 Q1022 NOSIG
13-06-27 METAR LIMC 270020Z 03005KT CAVOK 14/07 Q1022 NOSIG
13-06-27 METAR LIMC 270050Z 35003KT 290V030 CAVOK 13/05 Q1022 NOSIG
13-06-27 METAR LIMC 270120Z VRB02KT CAVOK 13/06 Q1022 NOSIG
13-06-27 METAR LIMC 270150Z VRB01KT CAVOK 11/06 Q1022 NOSIG
13-06-27 METAR LIMC 270220Z 04006KT CAVOK 15/06 Q1022 NOSIG
13-06-27 METAR LIMC 270250Z 04006KT CAVOK 14/07 Q1022 NOSIG
13-06-27 METAR LIMC 270320Z 04006KT CAVOK 15/08 Q1022 NOSIG
13-06-27 METAR LIMC 270350Z 04005KT CAVOK 15/08 Q1022 NOSIG
13-06-27 METAR LIMC 270420Z 05005KT 9999 SCT060 15/08 Q1022 NOSIG
13-06-27 METAR LIMC 270450Z 06005KT 030V090 9999 SCT060 16/09 Q1022 NOSIG
13-06-27 METAR LIMC 270520Z 06005KT 020V090 9999 BKN070 16/09 Q1022 NOSIG
13-06-27 METAR LIMC 270550Z 07006KT 9999 BKN060 SCT080 16/09 Q1022 NOSIG
13-06-27 METAR LIMC 270620Z 07004KT 350V160 9999 FEW040 BKN060 17/09 Q1022 NOSIG
13-06-27 METAR LIMC 270650Z 06008KT 020V090 9999 FEW050 BKN080 17/09 Q1022 NOSIG
13-06-27 METAR LIMC 270720Z 10006KT 070V140 9999 FEW050 BKN080 17/09 Q1023 NOSIG
13-06-27 METAR LIMC 270750Z 10005KT 030V150 9999 FEW050 BKN080 18/09 Q1022 NOSIG
13-06-27 METAR LIMC 270820Z 06007KT 300V100 9999 SCT050 BKN080 18/09 Q1022 NOSIG
13-06-27 METAR LIMC 270850Z VRB06G16KT 9999 SCT040 BKN080 19/08 Q1022 NOSIG
13-06-27 METAR LIMC 270920Z 09006KT 360V150 9999 SCT040 SCT050 19/08 Q1022 NOSIG
13-06-27 METAR LIMC 270950Z 09005KT 050V130 9999 FEW040 SCT050 BKN090 19/09 Q1022 NOSIG
13-06-27 METAR LIMC 271020Z 05005KT 330V100 9999 FEW040 SCT050 BKN090 20/08 Q1022 WS ALL RWY NOSIG
13-06-27 METAR LIMC 271050Z 08003KT 010V120 9999 FEW040 SCT050 BKN090 20/09 Q1021
13-06-27 METAR LIMC 271120Z 10004KT 060V160 9999 FEW040 SCT050 BKN090 20/09 Q1021
13-06-27 METAR LIMC 271150Z 07005G18KT 340V150 9999 SCT040 SCT090 21/08 Q1021 NOSIG
13-06-27 METAR LIMC 271220Z 08005KT 330V140 9999 SCT040 SCT090 20/08 Q1020 NOSIG
13-06-27 METAR LIMC 271250Z VRB03KT 9999 SCT040 BKN090 20/09 Q1020 NOSIG
13-06-27 METAR LIMC 271320Z 32014KT 9999 -RA SCT030 BKN080 18/11 Q1020 NOSIG
13-06-27 METAR LIMC 271350Z 34011KT 9999 -RA SCT025 BKN060 17/12 Q1019 NOSIG
13-06-27 METAR LIMC 271420Z 36011KT 9999 -TSRA SCT015CB SCT025 BKN060 16/13 Q1019
13-06-27 METAR LIMC 271450Z 31006KT 260V330 9999 TSRA SCT015CB SCT025 BKN060 15/14 Q1020 NOSIG
13-06-27 METAR LIMC 271520Z 01013KT 9999 RA FEW015CB SCT025 BKN060 15/13 Q1019 RETS
13-06-27 METAR LIMC 271550Z 01007KT 340V040 9999 -RA SCT025 SCT070 17/14 Q1019 RERA
13-06-27 METAR LIMC 271620Z 02006KT 350V060 9999 SCT040 SCT080 18/11 Q1018 NOSIG
13-06-27 METAR LIMC 271650Z 02007KT 340V050 9999 SCT080 18/11 Q1018 NOSIG
13-06-27 METAR LIMC 271720Z 07006KT 010V150 9999 SCT070 18/10 Q1019 NOSIG
13-06-27 METAR LIMC 271750Z 12004KT 090V190 9999 BKN070 17/12 Q1019 NOSIG
13-06-27 METAR LIMC 271820Z 12004KT 9999 SCT060 17/12 Q1019 NOSIG
13-06-27 METAR LIMC 271850Z 13005KT 100V170 9999 SCT060 17/12 Q1019 NOSIG
13-06-27 METAR LIMC 271920Z 15008KT 9999 FEW030 15/12 Q1020 NOSIG
13-06-27 METAR LIMC 271950Z 14004KT 100V160 CAVOK 13/12 Q1020 NOSIG
13-06-27 METAR LIMC 272020Z 12003KT CAVOK 13/12 Q1020 NOSIG
13-06-27 METAR LIMC 272050Z VRB02KT CAVOK 12/12 Q1021 NOSIG
13-06-27 METAR LIMC 272120Z VRB02KT 9999 SCT040 12/12 Q1021 NOSIG
13-06-27 METAR LIMC 272150Z 11004KT CAVOK 12/12 Q1021 NOSIG
13-06-27 METAR LIMC 272220Z 05003KT CAVOK 11/11 Q1021 NOSIG
13-06-27 METAR LIMC 272250Z VRB02KT 9999 SCT070 10/10 Q1021 NOSIG
13-06-27 METAR LIMC 272320Z 00000KT 9999 SCT045 SCT070 11/11 Q1021 NOSIG
13-06-27 METAR LIMC 272350Z VRB02KT 9999 SCT045 SCT070 11/11 Q1021 NOSIG
13-06-28 METAR LIMC 280020Z VRB01KT 9999 SCT045 SCT070 11/11 Q1021 NOSIG
13-06-28 METAR LIMC 280050Z 00000KT 9999 SCT045 SCT070 11/11 Q1020 NOSIG
13-06-28 METAR LIMC 280120Z 00000KT 9999 FEW045 11/11 Q1020 NOSIG
13-06-28 METAR LIMC 280150Z VRB02KT 9999 FEW045 10/10 Q1020 NOSIG
13-06-28 METAR LIMC 280220Z 00000KT 9999 SCT040 10/10 Q1019 NOSIG
13-06-28 METAR LIMC 280250Z VRB01KT 9999 FEW040 10/10 Q1019 NOSIG
13-06-28 METAR LIMC 280320Z VRB01KT 6000 MIFG FEW040 SCT070 10/10 Q1019 NOSIG
13-06-28 METAR LIMC 280350Z 20002KT 5000 MIFG SCT070 10/10 Q1019 NOSIG
13-06-28 METAR LIMC 280420Z VRB02KT 4000 R35L///// R35R/1400V1500N MIFG NSC 10/10 Q1019 NOSIG
13-06-28 METAR LIMC 280450Z 20002KT 4000 BCFG FEW020 SCT040 10/10 Q1019 NOSIG
13-06-28 METAR LIMC 280520Z VRB01KT 4500 BR FEW040 11/11 Q1019 NOSIG
13-06-28 METAR LIMC 280550Z VRB02KT 5000 BR SCT050 12/12 Q1020 NOSIG
13-06-28 METAR LIMC 280620Z 21004KT 7000 BKN050 13/12 Q1020 NOSIG
13-06-28 METAR LIMC 280650Z 20004KT 150V250 9999 BKN050 14/11 Q1020 NOSIG
13-06-28 METAR LIMC 280720Z 24004KT 190V270 9999 FEW050 15/11 Q1020 NOSIG
13-06-28 METAR LIMC 280750Z 25004KT 210V300 9999 FEW015 16/11 Q1020 NOSIG
13-06-28 METAR LIMC 280820Z VRB03KT 9999 SCT025 16/10 Q1020 NOSIG
13-06-28 METAR LIMC 280850Z 23007KT 190V260 9999 BKN025 17/10 Q1020 NOSIG
13-06-28 METAR LIMC 280920Z 22005KT 160V260 9999 SCT030 18/10 Q1020 NOSIG
13-06-28 METAR LIMC 280950Z 26006KT 230V290 9999 SCT030 17/10 Q1020 NOSIG
13-06-28 METAR LIMC 281020Z VRB05KT 9999 SCT030 18/09 Q1020 NOSIG
13-06-28 METAR LIMC 281050Z 17005KT 090V220 9999 SCT030 19/10 Q1020 NOSIG
13-06-28 METAR LIMC 281120Z VRB05KT 9999 BKN030 19/09 Q1020 NOSIG
13-06-28 METAR LIMC 281150Z 18005KT 120V230 9999 BKN030 20/09 Q1020 NOSIG
13-06-28 METAR LIMC 281220Z 17008KT 130V240 9999 BKN030 20/09 Q1019 NOSIG
13-06-28 METAR LIMC 281250Z NIL
13-06-28 METAR LIMC 281250Z 18006KT 110V260 9999 BKN035 20/08 Q1019 NOSIG
13-06-28 METAR LIMC 281320Z 21007KT 170V260 9999 BKN035 20/09 Q1019 NOSIG
13-06-28 METAR LIMC 281350Z 19007KT 150V240 9999 BKN035 21/09 Q1019 NOSIG
13-06-28 METAR LIMC 281420Z 21006KT 140V280 9999 SCT035 20/09 Q1019 NOSIG
13-06-28 METAR LIMC 281450Z 19006KT 100V260 9999 SCT035 20/09 Q1019 NOSIG
13-06-28 METAR LIMC 281520Z 22006KT 160V250 9999 SCT035 20/09 Q1018 NOSIG
13-06-28 METAR LIMC 281550Z 22007KT 180V240 9999 SCT035 21/08 Q1018 NOSIG
13-06-28 METAR LIMC 281620Z 22006KT 190V250 9999 FEW035 21/08 Q1018 NOSIG
13-06-28 METAR LIMC 281650Z 21005KT 9999 FEW035 19/09 Q1018 NOSIG
13-06-28 METAR LIMC 281720Z 21005KT 9999 FEW065 20/08 Q1018 NOSIG
13-06-28 METAR LIMC 281750Z 21004KT 9999 SCT065 19/10 Q1018 NOSIG
13-06-28 METAR LIMC 281820Z 19003KT 9999 SCT065 18/10 Q1019 NOSIG
13-06-28 METAR LIMC 281850Z 16003KT 9999 SCT070 18/10 Q1019 NOSIG
13-06-28 METAR LIMC 281920Z 14004KT 9999 SCT070 18/09 Q1019 NOSIG
13-06-28 METAR LIMC 281950Z 16003KT 9999 BKN070 16/12 Q1020 NOSIG
13-06-28 METAR LIMC 282020Z 16006KT 9999 BKN070 16/10 Q1020 NOSIG
13-06-28 METAR LIMC 282050Z 16005KT 9999 BKN070 16/10 Q1020 NOSIG
13-06-28 METAR LIMC 282120Z VRB01KT 9999 BKN070 15/10 Q1020 NOSIG
13-06-28 METAR LIMC 282150Z 00000KT 9999 SCT070 15/10 Q1021 NOSIG
13-06-28 METAR LIMC 282220Z VRB02KT CAVOK 13/11 Q1021 NOSIG
13-06-28 METAR LIMC 282250Z 00000KT CAVOK 13/10 Q1021 NOSIG
13-06-28 METAR LIMC 282320Z 01002KT CAVOK 12/10 Q1020 NOSIG
13-06-28 METAR LIMC 282350Z 00000KT CAVOK 11/11 Q1020 NOSIG
13-06-29 METAR LIMC 290020Z VRB02KT CAVOK 11/10 Q1020 NOSIG
13-06-29 METAR LIMC 290050Z 00000KT CAVOK 11/10 Q1020 NOSIG
13-06-29 METAR LIMC 290120Z VRB02KT CAVOK 11/11 Q1020 NOSIG
13-06-29 METAR LIMC 290150Z 36005KT CAVOK 12/10 Q1020 NOSIG
13-06-29 METAR LIMC 290220Z 02002KT CAVOK 11/11 Q1020 NOSIG
13-06-29 METAR LIMC 290250Z VRB01KT CAVOK 11/10 Q1019 NOSIG
13-06-29 METAR LIMC 290320Z 36003KT CAVOK 10/10 Q1020 NOSIG
13-06-29 METAR LIMC 290320Z NIL
13-06-29 METAR LIMC 290350Z VRB01KT CAVOK 11/11 Q1019 NOSIG
13-06-29 METAR LIMC 290420Z VRB02KT CAVOK 10/10 Q1019 NOSIG
13-06-29 METAR LIMC 290450Z VRB02KT CAVOK 12/12 Q1020 NOSIG
13-06-29 METAR LIMC 290520Z 00000KT 9999 BKN090 13/13 Q1020 NOSIG
13-06-29 METAR LIMC 290550Z 00000KT 9999 BKN090 15/13 Q1020 NOSIG
13-06-29 METAR LIMC 290620Z 01003KT 330V060 9999 BKN090 16/12 Q1020 NOSIG
13-06-29 METAR LIMC 290650Z VRB02KT 9999 BKN090 17/11 Q1020 NOSIG
13-06-29 METAR LIMC 290720Z VRB01KT 9999 BKN090 17/11 Q1020 NOSIG
13-06-29 METAR LIMC 290750Z VRB02KT 9999 BKN090 18/13 Q1020 NOSIG
13-06-29 METAR LIMC 290820Z VRB02KT 9999 BKN090 18/12 Q1020 NOSIG
13-06-29 METAR LIMC 290850Z VRB02KT 9999 BKN090 19/11 Q1020 NOSIG
13-06-29 METAR LIMC 290920Z VRB02KT 9999 BKN090 19/11 Q1020 NOSIG
13-06-29 METAR LIMC 290950Z VRB02KT 9999 BKN090 20/11 Q1019 NOSIG
13-06-29 METAR LIMC 291020Z 26003KT 210V340 9999 BKN090 20/09 Q1019 NOSIG
13-06-29 METAR LIMC 291050Z 20003KT 110V260 9999 BKN090 20/09 Q1019 NOSIG
13-06-29 METAR LIMC 291120Z VRB03KT 9999 BKN090 20/10 Q1019 NOSIG
13-06-29 METAR LIMC 291150Z VRB02KT 9999 BKN090 21/10 Q1019 NOSIG
13-06-29 METAR LIMC 291220Z 19003KT 150V220 9999 BKN090 21/10 Q1019 NOSIG
13-06-29 METAR LIMC 291250Z VRB03KT 9999 BKN090 21/10 Q1018 NOSIG
13-06-29 METAR LIMC 291320Z 23003KT 170V290 9999 BKN090 21/10 Q1018 NOSIG
13-06-29 METAR LIMC 291350Z 21004KT 170V250 9999 BKN090 21/08 Q1018 NOSIG
13-06-29 METAR LIMC 291420Z 20003KT 130V250 9999 BKN090 21/09 Q1018 NOSIG
13-06-29 METAR LIMC 291450Z VRB02KT 9999 BKN080 22/09 Q1018 NOSIG
13-06-29 METAR LIMC 291520Z NIL
13-06-29 METAR LIMC 291550Z 24005KT 210V270 9999 BKN090 22/08 Q1017 NOSIG
13-06-29 METAR LIMC 291620Z 22005KT 180V260 9999 BKN090 22/07 Q1017 NOSIG
13-06-29 METAR LIMC 291650Z 19005KT 160V220 9999 BKN090 22/07 Q1017 NOSIG
13-06-29 METAR LIMC 291720Z 21006KT 180V240 CAVOK 22/06 Q1017 NOSIG
13-06-29 METAR LIMC 291750Z 22005KT CAVOK 21/07 Q1017 NOSIG
13-06-29 METAR LIMC 291820Z 25007KT CAVOK 20/06 Q1017 NOSIG
13-06-29 METAR LIMC 291850Z 23004KT CAVOK 19/09 Q1017 NOSIG
13-06-29 METAR LIMC 291920Z VRB02KT CAVOK 16/10 Q1017 NOSIG
13-06-29 METAR LIMC 291950Z VRB01KT CAVOK 15/10 Q1018 NOSIG
13-06-29 METAR LIMC 292020Z VRB02KT CAVOK 14/10 Q1018 NOSIG
13-06-29 METAR LIMC 292050Z VRB01KT CAVOK 14/10 Q1018 NOSIG
13-06-29 METAR LIMC 292120Z VRB01KT CAVOK 13/11 Q1018 NOSIG
13-06-29 METAR LIMC 292150Z 32005KT CAVOK 13/10 Q1018 NOSIG
13-06-29 METAR LIMC 292220Z 32005KT 300V360 CAVOK 13/11 Q1018 NOSIG
13-06-29 METAR LIMC 292250Z VRB02KT CAVOK 13/10 Q1018 NOSIG
13-06-29 METAR LIMC 292320Z 33006KT 300V030 CAVOK 13/10 Q1018 NOSIG
13-06-29 METAR LIMC 292350Z 34006KT CAVOK 14/11 Q1018 NOSIG
13-06-30 METAR LIMC 300020Z 33008KT CAVOK 14/11 Q1018 NOSIG
13-06-30 METAR LIMC 300050Z 34006KT 310V010 CAVOK 14/11 Q1018 NOSIG
13-06-30 METAR LIMC 300120Z 11004KT 010V170 CAVOK 13/11 Q1018 NOSIG
13-06-30 METAR LIMC 300150Z 29004KT 270V330 CAVOK 11/10 Q1018 NOSIG
13-06-30 METAR LIMC 300220Z VRB01KT CAVOK 11/11 Q1018 NOSIG
13-06-30 METAR LIMC 300250Z 36002KT CAVOK 11/10 Q1018 NOSIG
13-06-30 METAR LIMC 300320Z NIL
13-06-30 METAR LIMC 300320Z 34003KT 300V360 CAVOK 10/09 Q1018 NOSIG
13-06-30 METAR LIMC 300350Z 36003KT CAVOK 10/09 Q1018 NOSIG
13-06-30 METAR LIMC 300420Z 36004KT CAVOK 10/10 Q1018 NOSIG
13-06-30 METAR LIMC 300450Z 34005KT CAVOK 13/10 Q1019 NOSIG
13-06-30 METAR LIMC 300520Z 09003KT 030V110 CAVOK 15/11 Q1019 NOSIG
13-06-30 METAR LIMC 300550Z NIL
13-06-30 METAR LIMC 300550Z VRB02KT CAVOK 18/08 Q1019 NOSIG
13-06-30 METAR LIMC 300620Z VRB02KT CAVOK 20/09 Q1019 NOSIG
13-06-30 METAR LIMC 300650Z VRB02KT CAVOK 21/09 Q1019 NOSIG
13-06-30 METAR LIMC 300720Z VRB03KT CAVOK 22/09 Q1019 NOSIG
13-06-30 METAR LIMC 300750Z 15004KT 100V190 CAVOK 22/10 Q1019 NOSIG
13-06-30 METAR LIMC 300820Z 14004KT 100V200 CAVOK 23/09 Q1019 NOSIG
13-06-30 METAR LIMC 300850Z 20004KT 130V300 CAVOK 24/11 Q1019 NOSIG
13-06-30 METAR LIMC 300920Z VRB05KT CAVOK 24/10 Q1019 NOSIG
13-06-30 METAR LIMC 300950Z VRB02KT CAVOK 25/10 Q1019 NOSIG
13-06-30 METAR LIMC 301020Z VRB02KT CAVOK 26/08 Q1019 NOSIG
13-06-30 METAR LIMC 301050Z VRB05KT CAVOK 26/08 Q1019 NOSIG
13-06-30 METAR LIMC 301120Z NIL
13-06-30 METAR LIMC 301150Z NIL
13-06-30 METAR LIMC 301150Z 14003KT 060V200 CAVOK 27/08 Q1018 NOSIG
13-06-30 METAR LIMC 301220Z 13005KT 060V180 CAVOK 26/07 Q1018 NOSIG
13-06-30 METAR LIMC 301250Z 16005KT 100V230 CAVOK 27/09 Q1018 NOSIG
13-06-30 METAR LIMC 301320Z VRB04KT CAVOK 28/09 Q1018 NOSIG
13-06-30 METAR LIMC 301350Z VRB03KT CAVOK 28/07 Q1017 NOSIG
13-06-30 METAR LIMC 301420Z 14006KT 090V200 CAVOK 27/09 Q1017 NOSIG
13-06-30 METAR LIMC 301450Z 23007KT 190V270 CAVOK 28/10 Q1017 NOSIG
13-06-30 METAR LIMC 301520Z 20007KT 180V240 CAVOK 27/10 Q1017 NOSIG
13-06-30 METAR LIMC 301550Z 23008KT 190V260 CAVOK 27/10 Q1017 NOSIG
13-06-30 METAR LIMC 301620Z 24008KT 210V270 CAVOK 27/09 Q1017 NOSIG
13-06-30 METAR LIMC 301650Z 24008KT CAVOK 26/08 Q1017 NOSIG
13-06-30 METAR LIMC 301720Z 23007KT CAVOK 26/07 Q1017 NOSIG
13-06-30 METAR LIMC 301750Z 22006KT CAVOK 26/06 Q1017 NOSIG
13-06-30 METAR LIMC 301820Z 22005KT CAVOK 25/07 Q1017 NOSIG
13-06-30 METAR LIMC 301850Z 18003KT CAVOK 23/09 Q1017 NOSIG
13-06-30 METAR LIMC 301920Z 17002KT CAVOK 22/10 Q1017 NOSIG
13-06-30 METAR LIMC 301950Z 00000KT CAVOK 20/09 Q1017 NOSIG
13-06-30 METAR LIMC 302020Z 00000KT CAVOK 18/10 Q1017 NOSIG
13-06-30 METAR LIMC 302050Z VRB01KT CAVOK 18/10 Q1018 NOSIG
13-06-30 METAR LIMC 302120Z VRB02KT CAVOK 17/10 Q1018 NOSIG
13-06-30 METAR LIMC 302150Z VRB02KT CAVOK 16/11 Q1018 NOSIG
13-06-30 METAR LIMC 302220Z NIL
13-06-30 METAR LIMC 302220Z 00000KT CAVOK 15/12 Q1018 NOSIG
13-06-30 METAR LIMC 302250Z 04002KT CAVOK 16/11 Q1018 NOSIG
13-06-30 METAR LIMC 302320Z VRB02KT CAVOK 15/11 Q1018 NOSIG
13-06-30 METAR LIMC 302350Z 36003KT CAVOK 14/11 Q1018 NOSIG
13-07-01 METAR LIMC 010020Z 03003KT 010V070 CAVOK 14/12 Q1018 NOSIG
13-07-01 METAR LIMC 010050Z 02003KT CAVOK 14/12 Q1018 NOSIG
13-07-01 METAR LIMC 010120Z 01003KT CAVOK 13/11 Q1018 NOSIG
13-07-01 METAR LIMC 010150Z 01004KT CAVOK 14/12 Q1018 NOSIG
13-07-01 METAR LIMC 010220Z 01003KT CAVOK 14/12 Q1018 NOSIG
13-07-01 METAR LIMC 010250Z VRB01KT CAVOK 14/12 Q1018 NOSIG
13-07-01 METAR LIMC 010320Z 36003KT CAVOK 13/12 Q1018 NOSIG
13-07-01 METAR LIMC 010350Z VRB02KT CAVOK 13/12 Q1018 NOSIG
13-07-01 METAR LIMC 010420Z 00000KT CAVOK 13/12 Q1019 NOSIG
13-07-01 METAR LIMC 010450Z 35003KT CAVOK 14/12 Q1019 NOSIG
13-07-01 METAR LIMC 010520Z 02005KT 320V070 CAVOK 18/12 Q1019 NOSIG
13-07-01 METAR LIMC 010550Z 02003KT 330V070 CAVOK 20/12 Q1019 NOSIG
13-07-01 METAR LIMC 010620Z 02004KT 340V060 CAVOK 21/11 Q1019 NOSIG
13-07-01 METAR LIMC 010650Z 12003KT 050V200 CAVOK 22/11 Q1020 NOSIG
13-07-01 METAR LIMC 010720Z 09005G16KT 030V200 CAVOK 22/11 Q1020 NOSIG
13-07-01 METAR LIMC 010750Z 12006KT 080V150 CAVOK 23/11 Q1020 NOSIG
13-07-01 METAR LIMC 010820Z 11006KT 030V180 CAVOK 24/11 Q1020 NOSIG
13-07-01 METAR LIMC 010850Z 10004G16KT 020V190 CAVOK 24/11 Q1020 NOSIG
13-07-01 METAR LIMC 010920Z VRB04G14KT CAVOK 25/11 Q1019 NOSIG
13-07-01 METAR LIMC 010950Z 16004KT 100V270 9999 FEW070 25/11 Q1020 NOSIG
13-07-01 METAR LIMC 011020Z VRB03KT 9999 FEW070 26/11 Q1019 NOSIG
13-07-01 METAR LIMC 011050Z VRB02KT CAVOK 27/11 Q1019 NOSIG
13-07-01 METAR LIMC 011120Z VRB05KT 9999 FEW030 26/10 Q1019 NOSIG
13-07-01 METAR LIMC 011150Z 16005KT 120V200 9999 FEW030 27/09 Q1019 NOSIG
13-07-01 METAR LIMC 011220Z 21005KT 160V280 9999 FEW030 27/10 Q1019 NOSIG
13-07-01 METAR LIMC 011250Z VRB03KT 9999 FEW030 28/10 Q1018 NOSIG
13-07-01 METAR LIMC 011320Z VRB03KT 9999 FEW030 28/11 Q1018 NOSIG
13-07-01 METAR LIMC 011350Z 15004KT 080V230 9999 FEW030 27/10 Q1018 NOSIG
13-07-01 METAR LIMC 011420Z 21006KT 160V280 9999 FEW030 27/10 Q1018 NOSIG
13-07-01 METAR LIMC 011450Z 20008KT 170V250 9999 FEW030 28/09 Q1017 NOSIG
13-07-01 METAR LIMC 011520Z 21007KT 180V260 9999 SCT030 28/10 Q1017 NOSIG
13-07-01 METAR LIMC 011550Z 20006KT 150V230 9999 SCT030 28/11 Q1017 NOSIG
13-07-01 METAR LIMC 011620Z 20005KT 140V250 9999 FEW030 28/10 Q1017 NOSIG
13-07-01 METAR LIMC 011650Z 22008KT 190V250 9999 FEW030 27/11 Q1017 NOSIG
13-07-01 METAR LIMC 011720Z 23008KT 9999 FEW030 27/12 Q1017 NOSIG
13-07-01 METAR LIMC 011750Z 24007KT 9999 FEW030 26/12 Q1017 NOSIG
13-07-01 METAR LIMC 011820Z NIL
13-07-01 METAR LIMC 011850Z NIL
13-07-01 METAR LIMC 011850Z 26004KT CAVOK 25/11 Q1017 NOSIG
13-07-01 METAR LIMC 011920Z VRB01KT CAVOK 23/12 Q1018 NOSIG
13-07-01 METAR LIMC 011950Z 00000KT CAVOK 20/13 Q1018 NOSIG
13-07-01 METAR LIMC 012020Z VRB02KT CAVOK 20/12 Q1018 NOSIG
13-07-01 METAR LIMC 012050Z 15004KT CAVOK 20/13 Q1018 NOSIG
13-07-01 METAR LIMC 012120Z VRB02KT CAVOK 19/12 Q1018 NOSIG
13-07-01 METAR LIMC 012150Z VRB01KT CAVOK 18/12 Q1019 NOSIG
13-07-01 METAR LIMC 012220Z 00000KT CAVOK 18/11 Q1019 NOSIG
13-07-01 METAR LIMC 012250Z VRB02KT CAVOK 18/10 Q1019 NOSIG
13-07-01 METAR LIMC 012320Z VRB01KT CAVOK 16/10 Q1019 NOSIG
13-07-01 METAR LIMC 012350Z 03002KT CAVOK 16/11 Q1018 NOSIG
13-07-02 METAR LIMC 020020Z VRB02KT CAVOK 15/11 Q1018 NOSIG
13-07-02 METAR LIMC 020050Z 35002KT CAVOK 15/12 Q1018 NOSIG
13-07-02 METAR LIMC 020150Z 00000KT CAVOK 16/12 Q1018 NOSIG
13-07-02 METAR LIMC 020220Z VRB01KT CAVOK 16/13 Q1018 NOSIG
13-07-02 METAR LIMC 020250Z 36002KT 9999 SCT040 16/13 Q1018 NOSIG
13-07-02 METAR LIMC 020320Z 02003KT 340V050 9999 SCT040 17/13 Q1018 NOSIG
13-07-02 METAR LIMC 020350Z VRB01KT 9999 SCT040 16/12 Q1018 NOSIG
13-07-02 METAR LIMC 020420Z 36003KT 320V090 9999 SCT040 16/13 Q1019 NOSIG
13-07-02 METAR LIMC 020450Z 35006KT 9999 SCT050 18/13 Q1019 NOSIG
13-07-02 METAR LIMC 020520Z 03004KT 340V080 9999 SCT050 19/13 Q1019 NOSIG
13-07-02 METAR LIMC 020550Z 08004KT 060V120 9999 SCT050 20/13 Q1019 NOSIG
13-07-02 METAR LIMC 020620Z 12003KT 090V150 9999 SCT050 21/12 Q1019 NOSIG
13-07-02 METAR LIMC 020650Z 11004KT 9999 SCT050 21/12 Q1019 NOSIG
13-07-02 METAR LIMC 020720Z 12004KT 060V170 9999 SCT050 23/10 Q1019 NOSIG
13-07-02 METAR LIMC 020750Z 20003KT 110V240 9999 SCT050 23/10 Q1019 NOSIG
13-07-02 METAR LIMC 020820Z 19003KT 130V240 9999 SCT050 24/10 Q1019 NOSIG
13-07-02 METAR LIMC 020850Z 18004KT 140V280 CAVOK 24/10 Q1019 NOSIG
13-07-02 METAR LIMC 020920Z VRB03KT CAVOK 25/10 Q1019 NOSIG
13-07-02 METAR LIMC 020950Z VRB02KT CAVOK 26/11 Q1019 NOSIG
13-07-02 METAR LIMC 021020Z VRB05KT CAVOK 26/11 Q1019 NOSIG
13-07-02 METAR LIMC 021050Z 19004KT 110V250 CAVOK 26/12 Q1019 NOSIG
13-07-02 METAR LIMC 021120Z 21005KT 140V260 CAVOK 27/11 Q1018 NOSIG
13-07-02 METAR LIMC 021150Z 19005KT 130V260 CAVOK 27/10 Q1018 NOSIG
13-07-02 METAR LIMC 021220Z VRB06KT CAVOK 27/10 Q1018 NOSIG
13-07-02 METAR LIMC 021250Z 19007KT 140V240 CAVOK 27/10 Q1017 NOSIG
13-07-02 METAR LIMC 021320Z VRB04KT CAVOK 28/10 Q1017 NOSIG
13-07-02 METAR LIMC 021350Z 17005KT 110V240 CAVOK 28/10 Q1017 NOSIG
13-07-02 METAR LIMC 021420Z 14005KT 080V240 CAVOK 28/10 Q1017 NOSIG
13-07-02 METAR LIMC 021450Z VRB05KT CAVOK 28/09 Q1016 NOSIG
13-07-02 METAR LIMC 021520Z 20007KT 160V230 CAVOK 28/11 Q1016 NOSIG
13-07-02 METAR LIMC 021550Z 17005KT 150V210 CAVOK 28/10 Q1016 NOSIG
13-07-02 METAR LIMC 021620Z 18005KT 140V200 CAVOK 28/10 Q1016 NOSIG
13-07-02 METAR LIMC 021650Z 23004KT 190V280 CAVOK 28/10 Q1016 NOSIG
13-07-02 METAR LIMC 021720Z 19003KT 130V230 CAVOK 27/10 Q1016 NOSIG
13-07-02 METAR LIMC 021750Z 20002KT 9999 SCT070 26/12 Q1016 NOSIG
13-07-02 METAR LIMC 021820Z VRB01KT 9999 BKN070 25/13 Q1016 NOSIG
13-07-02 METAR LIMC 021850Z VRB03KT 9999 SCT070 BKN090 24/12 Q1016 NOSIG
13-07-02 METAR LIMC 021920Z 17007KT 9999 BKN070 24/10 Q1016 NOSIG
13-07-02 METAR LIMC 021950Z 16005KT 9999 BKN060 23/11 Q1016 NOSIG
13-07-02 METAR LIMC 022020Z 20003KT 160V220 9999 BKN060 22/11 Q1017 NOSIG
13-07-02 METAR LIMC 022050Z 25005KT 9999 BKN060 23/10 Q1017 NOSIG
13-07-02 METAR LIMC 022120Z 26006KT 9999 BKN060 22/11 Q1017 NOSIG
13-07-02 METAR LIMC 022220Z 00000KT 9999 BKN040 21/11 Q1017 NOSIG
13-07-02 METAR LIMC 022250Z VRB02KT 9999 SCT040 BKN080 19/12 Q1017 NOSIG
13-07-02 METAR LIMC 022320Z 05004KT 010V080 9999 SCT040 BKN080 20/12 Q1016 NOSIG
13-07-02 METAR LIMC 022350Z VRB02KT 9999 SCT040 BKN080 20/12 Q1016 NOSIG
13-07-03 METAR LIMC 030020Z NIL
13-07-03 METAR LIMC 030020Z VRB02KT 9999 SCT040 BKN080 18/13 Q1016 NOSIG
13-07-03 METAR LIMC 030050Z 05003KT 9999 SCT040 BKN080 18/14 Q1016 NOSIG
13-07-03 METAR LIMC 030120Z VRB01KT 9999 SCT040 BKN080 17/13 Q1016 NOSIG
13-07-03 METAR LIMC 030150Z 36004KT 330V030 9999 SCT040 BKN080 17/15 Q1016 NOSIG
13-07-03 METAR LIMC 030220Z 00000KT 9999 SCT040 BKN080 16/14 Q1015 NOSIG
13-07-03 METAR LIMC 030250Z 05004KT 350V090 9999 SCT040 BKN080 16/15 Q1016 NOSIG
13-07-03 METAR LIMC 030320Z VRB01KT 9999 SCT040 BKN080 17/14 Q1016 NOSIG
13-07-03 METAR LIMC 030350Z 34003KT 9999 SCT080 15/14 Q1016 NOSIG
13-07-03 METAR LIMC 030420Z VRB01KT 9999 SCT080 16/14 Q1015 NOSIG
13-07-03 METAR LIMC 030450Z 36004KT 9999 SCT080 17/15 Q1016 NOSIG
13-07-03 METAR LIMC 030520Z VRB03KT CAVOK 20/12 Q1016 NOSIG
13-07-03 METAR LIMC 030550Z 05003KT 010V090 9999 SCT080 21/12 Q1016 NOSIG
13-07-03 METAR LIMC 030620Z 11004KT 060V220 9999 BKN080 21/11 Q1016 NOSIG
13-07-03 METAR LIMC 030650Z 14004KT 080V190 9999 BKN080 21/12 Q1016 NOSIG
13-07-03 METAR LIMC 030720Z VRB02KT 9999 BKN080 22/12 Q1016 NOSIG
13-07-03 METAR LIMC 030750Z VRB02KT 9999 BKN060 21/13 Q1016 NOSIG
13-07-03 METAR LIMC 030820Z 21004KT 9999 BKN060 21/13 Q1016 NOSIG
13-07-03 METAR LIMC 030850Z VRB01KT 9999 FEW035 OVC060 21/13 Q1016 NOSIG
13-07-03 METAR LIMC 030920Z VRB03KT 9999 -RA FEW035 OVC060 21/14 Q1016 NOSIG
13-07-03 METAR LIMC 030950Z 20003KT 140V290 9999 BKN080 23/14 Q1016 NOSIG
13-07-03 METAR LIMC 031020Z NIL
13-07-03 METAR LIMC 031050Z VRB02KT 9999 FEW030 BKN070 22/14 Q1016 NOSIG
13-07-03 METAR LIMC 031120Z VRB02KT 9999 FEW030 BKN060 22/14 Q1016 NOSIG
13-07-03 METAR LIMC 031150Z 01003KT 340V050 9999 FEW045 OVC060 22/14 Q1016 NOSIG
13-07-03 METAR LIMC 031220Z VRB02KT 9999 FEW045 OVC060 23/14 Q1016 NOSIG
13-07-03 METAR LIMC 031250Z 32005KT 290V360 9999 FEW045 BKN060 23/13 Q1016 NOSIG
13-07-03 METAR LIMC 031320Z VRB04KT 9999 FEW045 BKN060 24/13 Q1015 NOSIG
13-07-03 METAR LIMC 031350Z VRB02KT 9999 FEW045 BKN060 23/13 Q1015 NOSIG
13-07-03 METAR LIMC 031420Z 35005KT 320V020 9999 SCT045 OVC060 23/13 Q1015 NOSIG
13-07-03 METAR LIMC 031450Z 32008KT 9999 BKN040 OVC060 23/12 Q1015 NOSIG
13-07-03 METAR LIMC 031520Z 33008KT 9999 BKN040 OVC060 22/12 Q1015 NOSIG
13-07-03 METAR LIMC 031550Z 34009KT 9999 SCT040 OVC060 22/12 Q1015 NOSIG
13-07-03 METAR LIMC 031620Z 36009KT 9999 SCT040 OVC060 22/12 Q1014 NOSIG
13-07-03 METAR LIMC 031650Z 36009KT 9999 SCT040 OVC060 22/12 Q1014 NOSIG
13-07-03 METAR LIMC 031720Z NIL
13-07-03 METAR LIMC 031720Z 36009KT 9999 SCT040 OVC060 22/13 Q1014 NOSIG
13-07-03 METAR LIMC 031750Z 36007KT 9999 SCT040 OVC060 21/13 Q1015 NOSIG
13-07-03 METAR LIMC 031820Z 35006KT 9999 SCT040 OVC060 21/13 Q1015 NOSIG
13-07-03 METAR LIMC 031850Z 35006KT 320V020 9999 SCT040 OVC060 21/13 Q1015 NOSIG
13-07-03 METAR LIMC 031920Z 35008KT 9999 SCT060 20/13 Q1015 NOSIG
13-07-03 METAR LIMC 031950Z 34007KT 9999 SCT080 19/14 Q1015 NOSIG
13-07-03 METAR LIMC 032020Z 36004KT 9999 FEW080 19/14 Q1015 NOSIG
13-07-03 METAR LIMC 032050Z 02004KT 9999 FEW080 18/14 Q1016 NOSIG
13-07-03 METAR LIMC 032120Z NIL
13-07-03 METAR LIMC 032120Z 01003KT 9999 FEW080 17/14 Q1016 NOSIG
13-07-03 METAR LIMC 032150Z 35004KT 9999 FEW080 17/14 Q1016 NOSIG
13-07-03 METAR LIMC 032220Z 36003KT 320V030 9999 FEW080 17/14 Q1016 NOSIG
13-07-03 METAR LIMC 032250Z 36005KT 330V060 9999 FEW080 17/14 Q1016 NOSIG
13-07-03 METAR LIMC 032320Z 02002KT CAVOK 15/14 Q1016 NOSIG
13-07-03 METAR LIMC 032350Z 36005KT CAVOK 15/14 Q1016 NOSIG
13-07-04 METAR LIMC 040020Z 01005KT CAVOK 17/14 Q1016 NOSIG
13-07-04 METAR LIMC 040050Z VRB01KT CAVOK 16/14 Q1015 NOSIG
13-07-04 METAR LIMC 040120Z VRB02KT CAVOK 15/14 Q1016 NOSIG
13-07-04 METAR LIMC 040150Z 01003KT 340V040 CAVOK 15/14 Q1015 NOSIG
13-07-04 METAR LIMC 040220Z 34004KT CAVOK 15/14 Q1016 NOSIG
13-07-04 METAR LIMC 040250Z 33005KT CAVOK 14/13 Q1016 NOSIG
13-07-04 METAR LIMC 040320Z 36006KT CAVOK 16/14 Q1016 NOSIG
13-07-04 METAR LIMC 040350Z 36005KT CAVOK 15/14 Q1016 NOSIG
13-07-04 METAR LIMC 040420Z 35003KT CAVOK 15/14 Q1016 NOSIG
13-07-04 METAR LIMC 040450Z NIL
13-07-04 METAR LIMC 040520Z 35005KT 320V020 CAVOK 18/14 Q1017 NOSIG
13-07-04 METAR LIMC 040550Z 36004KT 320V030 CAVOK 19/14 Q1017 NOSIG
13-07-04 METAR LIMC 040620Z 34005KT 310V030 CAVOK 20/14 Q1017 NOSIG
13-07-04 METAR LIMC 040650Z 30006KT CAVOK 21/14 Q1017 NOSIG
13-07-04 METAR LIMC 040720Z 35004KT 290V030 CAVOK 22/13 Q1017 NOSIG
13-07-04 METAR LIMC 040750Z 30003KT 210V010 CAVOK 23/14 Q1017 NOSIG
13-07-04 METAR LIMC 040820Z VRB02KT CAVOK 25/13 Q1017 NOSIG
13-07-04 METAR LIMC 040850Z VRB02KT CAVOK 26/13 Q1018 NOSIG
13-07-04 METAR LIMC 040920Z VRB03KT CAVOK 26/13 Q1018 NOSIG
13-07-04 METAR LIMC 040950Z 21005KT 170V270 CAVOK 26/13 Q1018 NOSIG
13-07-04 METAR LIMC 041020Z 22004KT 140V310 CAVOK 27/13 Q1018 NOSIG
13-07-04 METAR LIMC 041050Z VRB02KT CAVOK 28/12 Q1018 NOSIG
13-07-04 METAR LIMC 041120Z VRB04KT CAVOK 28/13 Q1017 NOSIG
13-07-04 METAR LIMC 041150Z VRB03KT CAVOK 29/13 Q1017 NOSIG
13-07-04 METAR LIMC 041220Z VRB05KT CAVOK 28/14 Q1017 NOSIG
13-07-04 METAR LIMC 041250Z 21007KT 160V280 CAVOK 29/13 Q1017 NOSIG
13-07-04 METAR LIMC 041320Z 22008KT 170V300 CAVOK 28/14 Q1017 NOSIG
13-07-04 METAR LIMC 041350Z 24008KT 200V270 CAVOK 29/14 Q1017 NOSIG
13-07-04 METAR LIMC 041420Z 19006KT 120V230 CAVOK 29/13 Q1017 NOSIG
13-07-04 METAR LIMC 041450Z VRB03KT CAVOK 29/13 Q1017 NOSIG
13-07-04 METAR LIMC 041520Z 19005KT 130V270 CAVOK 29/12 Q1017 NOSIG
13-07-04 METAR LIMC 041550Z 19005KT 150V240 CAVOK 29/12 Q1017 NOSIG
13-07-04 METAR LIMC 041620Z 20006KT 160V240 CAVOK 29/12 Q1017 NOSIG
13-07-04 METAR LIMC 041650Z 18005KT 120V210 CAVOK 29/11 Q1017 NOSIG
13-07-04 METAR LIMC 041720Z 17003KT 140V200 CAVOK 28/12 Q1017 NOSIG
13-07-04 METAR LIMC 041750Z 19004KT CAVOK 28/14 Q1018 NOSIG
13-07-04 METAR LIMC 041820Z 19004KT CAVOK 26/15 Q1018 NOSIG
13-07-04 METAR LIMC 041850Z 19003KT CAVOK 25/15 Q1018 NOSIG
13-07-04 METAR LIMC 041920Z 19002KT CAVOK 25/15 Q1019 NOSIG
13-07-04 METAR LIMC 041950Z 00000KT CAVOK 23/15 Q1019 NOSIG
13-07-04 METAR LIMC 042020Z VRB01KT CAVOK 24/15 Q1020 NOSIG
13-07-04 METAR LIMC 042050Z VRB02KT CAVOK 22/16 Q1020 NOSIG
13-07-04 METAR LIMC 042120Z 04003KT 350V080 CAVOK 21/16 Q1020 NOSIG
13-07-04 METAR LIMC 042150Z 00000KT CAVOK 19/16 Q1020 NOSIG
13-07-04 METAR LIMC 042220Z 35003KT CAVOK 19/16 Q1021 NOSIG
13-07-04 METAR LIMC 042250Z 36003KT CAVOK 18/16 Q1021 NOSIG
13-07-04 METAR LIMC 042320Z 36004KT CAVOK 19/16 Q1021 NOSIG
13-07-04 METAR LIMC 042350Z VRB02KT CAVOK 19/16 Q1021 NOSIG
13-07-05 METAR LIMC 050020Z 36003KT 270V020 CAVOK 18/16 Q1021 NOSIG
13-07-05 METAR LIMC 050050Z 34005KT CAVOK 19/16 Q1021 NOSIG
13-07-05 METAR LIMC 050120Z 35004KT CAVOK 20/16 Q1021 NOSIG
13-07-05 METAR LIMC 050150Z 01002KT CAVOK 20/15 Q1021 NOSIG
13-07-05 METAR LIMC 050220Z VRB02KT CAVOK 18/16 Q1021 NOSIG
13-07-05 METAR LIMC 050250Z 02002KT CAVOK 18/16 Q1021 NOSIG
13-07-05 METAR LIMC 050320Z 36003KT CAVOK 18/15 Q1022 NOSIG
13-07-05 METAR LIMC 050350Z 34004KT CAVOK 18/15 Q1022 NOSIG
13-07-05 METAR LIMC 050420Z VRB02KT CAVOK 18/15 Q1022 NOSIG
13-07-05 METAR LIMC 050450Z 01004KT CAVOK 19/15 Q1022 NOSIG
13-07-05 METAR LIMC 050520Z 04004KT 360V080 CAVOK 21/14 Q1022 NOSIG
13-07-05 METAR LIMC 050550Z 36003KT 330V030 CAVOK 22/15 Q1022 NOSIG
13-07-05 METAR LIMC 050620Z 35006KT CAVOK 23/15 Q1023 NOSIG
13-07-05 METAR LIMC 050650Z 01004KT 330V070 CAVOK 24/14 Q1023 NOSIG
13-07-05 METAR LIMC 050720Z 01003KT 320V060 CAVOK 25/14 Q1023 NOSIG
13-07-05 METAR LIMC 050750Z VRB04KT CAVOK 26/15 Q1023 NOSIG
13-07-05 METAR LIMC 050820Z VRB02KT CAVOK 27/14 Q1023 NOSIG
13-07-05 METAR LIMC 050850Z VRB03KT CAVOK 27/14 Q1023 NOSIG
13-07-05 METAR LIMC 050920Z 13003KT 060V220 CAVOK 29/14 Q1023 NOSIG
13-07-05 METAR LIMC 050950Z VRB04KT CAVOK 29/14 Q1023 NOSIG
13-07-05 METAR LIMC 051020Z VRB03KT CAVOK 29/14 Q1023 NOSIG
13-07-05 METAR LIMC 051050Z VRB01KT 9999 FEW040 30/12 Q1022 NOSIG
13-07-05 METAR LIMC 051120Z 18005KT 060V230 9999 FEW040 30/13 Q1022 NOSIG
13-07-05 METAR LIMC 051120Z NIL
13-07-05 METAR LIMC 051150Z 25006KT 210V270 9999 FEW040 30/14 Q1022 NOSIG
13-07-05 METAR LIMC 051220Z NIL
13-07-05 METAR LIMC 051250Z VRB06KT 9999 FEW040 31/15 Q1021 NOSIG
13-07-05 METAR LIMC 051320Z 23008KT 190V280 9999 FEW040 30/15 Q1021 NOSIG
13-07-05 METAR LIMC 051350Z 20006KT 110V260 9999 FEW040 30/15 Q1021 NOSIG
13-07-05 METAR LIMC 051420Z 23008KT 160V270 CAVOK 31/14 Q1021 NOSIG
13-07-05 METAR LIMC 051450Z 20006KT 120V240 CAVOK 30/13 Q1021 NOSIG
13-07-05 METAR LIMC 051520Z 23006KT 200V270 CAVOK 31/13 Q1021 NOSIG
13-07-05 METAR LIMC 051550Z 24008KT CAVOK 30/13 Q1020 NOSIG
13-07-05 METAR LIMC 051620Z 23006KT 180V250 CAVOK 30/13 Q1020 NOSIG
13-07-05 METAR LIMC 051650Z 23006KT CAVOK 30/13 Q1020 NOSIG
13-07-05 METAR LIMC 051720Z 22005KT 190V250 CAVOK 29/14 Q1020 NOSIG
13-07-05 METAR LIMC 051750Z 21004KT CAVOK 29/14 Q1020 NOSIG
13-07-05 METAR LIMC 051820Z 20003KT 160V240 CAVOK 28/16 Q1020 NOSIG
13-07-05 METAR LIMC 051850Z 16003KT CAVOK 26/16 Q1020 NOSIG
13-07-05 METAR LIMC 051920Z VRB01KT CAVOK 25/16 Q1021 NOSIG
13-07-05 METAR LIMC 051950Z VRB02KT CAVOK 23/16 Q1021 NOSIG
13-07-05 METAR LIMC 052020Z VRB01KT CAVOK 23/16 Q1021 NOSIG
13-07-05 METAR LIMC 052050Z VRB02KT CAVOK 24/16 Q1022 NOSIG
13-07-05 METAR LIMC 052120Z 00000KT CAVOK 21/16 Q1022 NOSIG
13-07-05 METAR LIMC 052150Z 36003KT CAVOK 21/16 Q1022 NOSIG
13-07-05 METAR LIMC 052220Z 36004KT CAVOK 20/17 Q1022 NOSIG
13-07-05 METAR LIMC 052250Z 36004KT CAVOK 21/17 Q1022 NOSIG
13-07-05 METAR LIMC 052320Z 36004KT CAVOK 20/17 Q1022 NOSIG
13-07-05 METAR LIMC 052350Z 01003KT CAVOK 19/17 Q1023 NOSIG
13-07-06 METAR LIMC 060020Z VRB01KT CAVOK 19/17 Q1023 NOSIG
13-07-06 METAR LIMC 060050Z 34005KT CAVOK 20/16 Q1022 NOSIG
13-07-06 METAR LIMC 060120Z 35006KT 9999 SCT080 20/17 Q1022 NOSIG
13-07-06 METAR LIMC 060150Z 35003KT 320V020 9999 SCT080 19/16 Q1022 NOSIG
13-07-06 METAR LIMC 060220Z 01004KT 9999 SCT080 19/16 Q1022 NOSIG
13-07-06 METAR LIMC 060250Z 03003KT 350V070 9999 SCT080 19/16 Q1023 NOSIG
13-07-06 METAR LIMC 060320Z 06005KT 9999 SCT080 21/16 Q1023 NOSIG
13-07-06 METAR LIMC 060350Z 07004KT 9999 BKN080 22/16 Q1023 NOSIG
13-07-06 METAR LIMC 060420Z 35004KT 9999 SCT080 21/16 Q1023 NOSIG
13-07-06 METAR LIMC 060450Z 01005KT 340V060 9999 BKN080 21/16 Q1023 NOSIG
13-07-06 METAR LIMC 060520Z 34007KT 9999 BKN080 22/17 Q1023 NOSIG
13-07-06 METAR LIMC 060550Z 35007KT 9999 BKN080 23/16 Q1023 NOSIG
13-07-06 METAR LIMC 060620Z 36005KT 320V020 9999 BKN080 25/16 Q1023 NOSIG
13-07-06 METAR LIMC 060650Z 06005KT 360V100 9999 BKN080 25/15 Q1023 NOSIG
13-07-06 METAR LIMC 060720Z 07004KT 020V100 9999 BKN070 26/15 Q1023 NOSIG
13-07-06 METAR LIMC 060750Z VRB04KT 9999 SCT080 26/15 Q1023 NOSIG
13-07-06 METAR LIMC 060820Z 04005KT 330V100 CAVOK 27/15 Q1023 NOSIG
13-07-06 METAR LIMC 060850Z VRB04KT CAVOK 28/14 Q1023 NOSIG
13-07-06 METAR LIMC 060920Z 12004KT 060V210 CAVOK 28/14 Q1023 NOSIG
13-07-06 METAR LIMC 060950Z NIL
13-07-06 METAR LIMC 060950Z 06004KT 340V150 CAVOK 29/14 Q1023 NOSIG
13-07-06 METAR LIMC 061020Z VRB05KT CAVOK 30/14 Q1023 NOSIG
13-07-06 METAR LIMC 061050Z 16007KT 120V200 CAVOK 29/13 Q1022 NOSIG
13-07-06 METAR LIMC 061120Z 25004KT CAVOK 30/13 Q1022 NOSIG
13-07-06 METAR LIMC 061150Z VRB03KT CAVOK 30/13 Q1022 NOSIG
13-07-06 METAR LIMC 061220Z 09005KT 040V120 CAVOK 30/13 Q1022 NOSIG
13-07-06 METAR LIMC 061250Z 13005KT 050V180 9999 SCT030 30/14 Q1022 NOSIG
13-07-06 METAR LIMC 061320Z 17006KT 140V220 9999 SCT030 31/14 Q1021 NOSIG
13-07-06 METAR LIMC 061350Z 21006KT 170V240 9999 SCT030 31/14 Q1021 NOSIG
13-07-06 METAR LIMC 061420Z 20006KT 150V240 9999 SCT030 31/13 Q1021 NOSIG
13-07-06 METAR LIMC 061450Z 15006KT 080V240 9999 SCT030 31/13 Q1021 NOSIG
13-07-06 METAR LIMC 061520Z VRB04KT 9999 SCT030 31/13 Q1021 NOSIG
13-07-06 METAR LIMC 061550Z 21006KT 9999 FEW030 31/13 Q1020 NOSIG
13-07-06 METAR LIMC 061620Z 24008KT 200V260 9999 FEW030 31/15 Q1020 NOSIG
13-07-06 METAR LIMC 061650Z 23008KT 9999 FEW030 30/14 Q1020 NOSIG
13-07-06 METAR LIMC 061720Z 23006KT CAVOK 30/15 Q1020 NOSIG
13-07-06 METAR LIMC 061750Z 23006KT CAVOK 29/14 Q1020 NOSIG
13-07-06 METAR LIMC 061820Z 22003KT CAVOK 28/16 Q1021 NOSIG
13-07-06 METAR LIMC 061850Z 21003KT CAVOK 27/16 Q1021 NOSIG
13-07-06 METAR LIMC 061920Z 16003KT CAVOK 25/16 Q1021 NOSIG
13-07-06 METAR LIMC 061950Z 19002KT CAVOK 25/15 Q1021 NOSIG
13-07-06 METAR LIMC 062050Z VRB02KT CAVOK 24/16 Q1022 NOSIG
13-07-06 METAR LIMC 062120Z 11004KT 080V150 CAVOK 25/17 Q1022 NOSIG
13-07-06 METAR LIMC 062150Z 10004KT 090V210 9999 SCT070 26/16 Q1022 NOSIG
13-07-06 METAR LIMC 062220Z 08005KT 9999 SCT070 25/16 Q1022 NOSIG
13-07-06 METAR LIMC 062250Z 07006KT 9999 SCT070 24/16 Q1022 NOSIG
13-07-06 METAR LIMC 062320Z 04004KT CAVOK 23/16 Q1023 NOSIG
13-07-06 METAR LIMC 062350Z 03004KT CAVOK 21/16 Q1023 NOSIG
13-07-07 METAR LIMC 070020Z 02002KT CAVOK 20/16 Q1023 NOSIG
13-07-07 METAR LIMC 070050Z 36004KT CAVOK 19/17 Q1023 NOSIG
13-07-07 METAR LIMC 070120Z 35005KT CAVOK 20/17 Q1022 NOSIG
13-07-07 METAR LIMC 070150Z 04006KT 9999 SCT060 22/16 Q1023 NOSIG
13-07-07 METAR LIMC 070220Z 06005KT 030V090 9999 SCT060 23/15 Q1023 NOSIG
13-07-07 METAR LIMC 070250Z 05005KT 9999 SCT080 22/15 Q1023 NOSIG
13-07-07 METAR LIMC 070320Z 06007KT 9999 BKN060 23/15 Q1023 NOSIG
13-07-07 METAR LIMC 070350Z 04004KT 010V070 9999 BKN060 22/15 Q1023 NOSIG
13-07-07 METAR LIMC 070420Z 03004KT 360V060 9999 SCT070 21/14 Q1023 NOSIG
13-07-07 METAR LIMC 070450Z 35005KT 9999 SCT070 20/15 Q1023 NOSIG
13-07-07 METAR LIMC 070520Z 36006KT 9999 SCT070 22/15 Q1023 NOSIG
13-07-07 METAR LIMC 070550Z 02003KT 340V070 9999 BKN070 22/15 Q1023 NOSIG
13-07-07 METAR LIMC 070620Z 35006KT 330V030 9999 BKN060 23/16 Q1023 NOSIG
13-07-07 METAR LIMC 070650Z 36005KT 9999 BKN060 24/15 Q1024 NOSIG
13-07-07 METAR LIMC 070720Z 35004KT 9999 BKN050 25/14 Q1024 NOSIG
13-07-07 METAR LIMC 070750Z 36004KT 330V070 9999 BKN050 27/15 Q1024 NOSIG
13-07-07 METAR LIMC 070820Z 35005KT 320V040 9999 SCT060 26/14 Q1024 NOSIG
13-07-07 METAR LIMC 070850Z VRB03KT 9999 BKN060 27/14 Q1024 NOSIG
13-07-07 METAR LIMC 070920Z VRB02KT 9999 BKN060 28/14 Q1024 NOSIG
13-07-07 METAR LIMC 070950Z VRB02KT 9999 SCT060 29/14 Q1024 NOSIG
13-07-07 METAR LIMC 071020Z VRB03KT 9999 SCT060 29/14 Q1024 NOSIG
13-07-07 METAR LIMC 071050Z 25006KT 110V280 9999 SCT060 29/15 Q1023 NOSIG
13-07-07 METAR LIMC 071120Z VRB03KT 9999 SCT060 29/14 Q1023 NOSIG
13-07-07 METAR LIMC 071150Z VRB03KT 9999 SCT030 30/14 Q1023 NOSIG
13-07-07 METAR LIMC 071220Z 24005KT 150V320 9999 SCT030 29/15 Q1023 NOSIG
13-07-07 METAR LIMC 071220Z NIL
13-07-07 METAR LIMC 071250Z 22009KT 9999 SCT030 30/15 Q1023 NOSIG
13-07-07 METAR LIMC 071320Z 16006KT 110V220 9999 SCT030 30/14 Q1022 NOSIG
13-07-07 METAR LIMC 071350Z 17005KT 110V230 9999 SCT030 30/14 Q1022 NOSIG
13-07-07 METAR LIMC 071420Z 20006KT 150V240 9999 SCT030 31/13 Q1022 NOSIG
13-07-07 METAR LIMC 071450Z 16005KT 110V230 9999 SCT030 31/13 Q1022 NOSIG
13-07-07 METAR LIMC 071520Z NIL
13-07-07 METAR LIMC 071520Z 17006KT 140V210 9999 SCT030 30/14 Q1022 NOSIG
13-07-07 METAR LIMC 071550Z 16006KT 130V210 9999 FEW030TCU BKN035 30/14 Q1022 BECMG TS
13-07-07 METAR LIMC 071620Z 07009KT 040V100 9999 FEW030TCU BKN035 26/15 Q1022 NOSIG
13-07-07 METAR LIMC 071650Z 07008G20KT 030V110 9999 FEW030TCU BKN040 26/15 Q1022 NOSIG
13-07-07 METAR LIMC 071720Z 05006KT 010V090 9999 SCT040 25/16 Q1022 NOSIG
13-07-07 METAR LIMC 071750Z NIL
13-07-07 METAR LIMC 071750Z 07011KT 9999 SCT040 25/14 Q1022 NOSIG
13-07-07 METAR LIMC 071820Z 06006KT 360V070 9999 SCT040 25/15 Q1022 NOSIG
13-07-07 METAR LIMC 071850Z 08005KT 9999 FEW060 25/14 Q1022 NOSIG
13-07-07 METAR LIMC 071920Z 08003KT 9999 FEW060 24/14 Q1023 NOSIG
13-07-07 METAR LIMC 071950Z 13006KT 080V150 9999 FEW060 23/14 Q1023 NOSIG
13-07-07 METAR LIMC 072020Z 05004KT 320V120 9999 SCT070 24/14 Q1024 NOSIG
13-07-07 METAR LIMC 072050Z 04003KT 9999 SCT070 22/15 Q1024 NOSIG
13-07-07 METAR LIMC 072120Z VRB02KT 9999 VCTS FEW015CB BKN035 22/16 Q1024 NOSIG
13-07-07 METAR LIMC 072150Z 01004KT 340V080 9999 -RA FEW015 BKN045 21/18 Q1024
13-07-07 METAR LIMC 072220Z 07005KT 9999 FEW015 BKN045 21/19 Q1024 NOSIG
13-07-07 METAR LIMC 072250Z NIL
13-07-07 METAR LIMC 072250Z 35004KT 330V030 9999 FEW015 BKN045 21/19 Q1024 NOSIG
13-07-07 METAR LIMC 072320Z NIL
13-07-07 METAR LIMC 072320Z 35006KT 9999 FEW015 BKN045 20/19 Q1024 NOSIG
13-07-07 METAR LIMC 072350Z 36006KT 9999 FEW015 BKN045 20/19 Q1024 NOSIG
13-07-08 METAR LIMC 080050Z 35006KT 9999 FEW015 BKN045 20/19 Q1024 NOSIG
13-07-08 METAR LIMC 080120Z 36008KT 9999 BKN060 20/19 Q1024 NOSIG
13-07-08 METAR LIMC 080150Z 34014KT 9999 RA BKN040 20/19 Q1024 NOSIG
13-07-08 METAR LIMC 080220Z 03007KT 9999 -RA BKN040 20/19 Q1024 RERA NOSIG
13-07-08 METAR LIMC 080250Z 02006KT 9999 BKN060 20/19 Q1024 NOSIG
13-07-08 METAR LIMC 080320Z 02007KT 9999 BKN060 19/19 Q1024 NOSIG
13-07-08 METAR LIMC 080350Z 36005KT 9999 BKN060 20/19 Q1024 NOSIG
13-07-08 METAR LIMC 080420Z 02006KT 8000 BKN060 19/19 Q1024 NOSIG
13-07-08 METAR LIMC 080450Z 01006KT 9999 SCT040 BKN070 20/19 Q1024 NOSIG
13-07-08 METAR LIMC 080520Z 02005KT 350V060 9999 SCT040 BKN070 20/19 Q1024 NOSIG
13-07-08 METAR LIMC 080550Z 34007KT 9999 SCT040 BKN070 20/19 Q1024 NOSIG
13-07-08 METAR LIMC 080620Z 36005KT 330V030 9999 SCT065 21/19 Q1024 NOSIG
13-07-08 METAR LIMC 080650Z 01007KT 9999 FEW080 23/18 Q1025 NOSIG
13-07-08 METAR LIMC 080720Z 35007KT 9999 BKN060 23/18 Q1025 NOSIG
13-07-08 METAR LIMC 080750Z 01005KT 330V050 9999 BKN060 24/18 Q1025 NOSIG
13-07-08 METAR LIMC 080820Z 35003KT 290V030 CAVOK 25/17 Q1025 NOSIG
13-07-08 METAR LIMC 080850Z VRB03KT CAVOK 26/16 Q1024 NOSIG
13-07-08 METAR LIMC 080920Z VRB03KT CAVOK 27/16 Q1025 NOSIG
13-07-08 METAR LIMC 080950Z 15005KT 120V190 CAVOK 27/15 Q1024 NOSIG
13-07-08 METAR LIMC 081020Z 19005KT 140V240 CAVOK 27/15 Q1024 NOSIG
13-07-08 METAR LIMC 081050Z 18004KT 150V220 CAVOK 27/15 Q1024 NOSIG
13-07-08 METAR LIMC 081120Z 18004KT 130V220 CAVOK 28/15 Q1024 NOSIG
13-07-08 METAR LIMC 081150Z 23005KT 170V280 CAVOK 29/15 Q1023 NOSIG
13-07-08 METAR LIMC 081220Z VRB06KT 9999 FEW040 29/15 Q1023 NOSIG
13-07-08 METAR LIMC 081250Z 24007KT 210V280 9999 FEW040 29/14 Q1023 NOSIG
13-07-08 METAR LIMC 081320Z 23007KT 180V290 9999 FEW040 29/15 Q1023 NOSIG
13-07-08 METAR LIMC 081350Z 24007KT 170V290 9999 FEW040 29/16 Q1022 NOSIG
13-07-08 METAR LIMC 081420Z 26008KT 220V310 9999 FEW040 29/15 Q1022 NOSIG
13-07-08 METAR LIMC 081450Z 27005KT 220V320 9999 FEW040TCU 30/14 Q1022 NOSIG
13-07-08 METAR LIMC 081520Z 27007KT 230V300 9999 FEW040CB SCT050 30/14 Q1021 BECMG TS
13-07-08 METAR LIMC 081550Z VRB03KT 9999 VCSH FEW040CB SCT050 30/13 Q1022 NOSIG
13-07-08 METAR LIMC 081620Z 06011KT 030V120 9999 VCTS SCT035CB SCT040 23/16 Q1022 BECMG TS
13-07-08 METAR LIMC 081650Z 06008G26KT 310V090 9999 -RA VCTS FEW035CB BKN080 22/17 Q1022 NOSIG
13-07-08 METAR LIMC 081720Z 06007KT 290V080 9999 BKN080 23/17 Q1022 NOSIG
13-07-08 METAR LIMC 081750Z VRB07G17KT 9999 RA BKN080 22/20 Q1022 NOSIG
13-07-08 METAR LIMC 081820Z 04008G18KT 330V070 9999 RA BKN080 22/19 Q1022 NOSIG
13-07-08 METAR LIMC 081850Z 01005KT 340V040 9999 -RA BKN080 21/20 Q1022 NOSIG
13-07-08 METAR LIMC 081920Z 01007KT 350V050 9999 SCT045 BKN070 21/20 Q1023 NOSIG
13-07-08 METAR LIMC 081950Z 36006KT 9999 SCT045 BKN070 21/20 Q1023 NOSIG
13-07-08 METAR LIMC 082020Z 35008KT 9999 SCT045 BKN070 21/19 Q1023 NOSIG
13-07-08 METAR LIMC 082050Z 34006KT 9999 SCT045 BKN070 21/19 Q1023 NOSIG
13-07-08 METAR LIMC 082120Z 01006KT 9999 SCT045 BKN070 20/19 Q1023 NOSIG
13-07-08 METAR LIMC 082150Z 35006KT 9999 SCT045 20/19 Q1023 NOSIG
13-07-08 METAR LIMC 082220Z 35007KT 9999 SCT045 20/18 Q1022 NOSIG
13-07-08 METAR LIMC 082250Z 35005KT 9999 SCT045 20/18 Q1022 NOSIG
13-07-08 METAR LIMC 082320Z 35006KT 9999 SCT045 19/18 Q1022 NOSIG
13-07-08 METAR LIMC 082350Z 36005KT 9999 SCT045 20/18 Q1022 NOSIG
13-07-09 METAR LIMC 090020Z 36007KT 9999 SCT045 20/17 Q1022 NOSIG
13-07-09 METAR LIMC 090050Z 35006KT 9999 SCT045 20/17 Q1022 NOSIG
13-07-09 METAR LIMC 090120Z 35007KT 9999 SCT045 20/17 Q1022 NOSIG
13-07-09 METAR LIMC 090150Z 36004KT 9999 SCT045 19/17 Q1022 NOSIG
13-07-09 METAR LIMC 090220Z 02004KT 9999 SCT045 19/17 Q1022 NOSIG
13-07-09 METAR LIMC 090250Z 35006KT 9999 SCT045 19/17 Q1022 NOSIG
13-07-09 METAR LIMC 090320Z 36004KT 9999 SCT045 19/17 Q1022 NOSIG
13-07-09 METAR LIMC 090350Z VRB02KT 9999 RA BKN040 19/18 Q1022 NOSIG
13-07-09 METAR LIMC 090420Z 34006KT 9999 SCT045 19/18 Q1022 RERA NOSIG
13-07-09 METAR LIMC 090450Z 33008KT 9999 SCT045 19/18 Q1022 NOSIG
13-07-09 METAR LIMC 090520Z 34007KT 9999 FEW035CB SCT060 20/18 Q1022 NOSIG
13-07-09 METAR LIMC 090550Z 33008KT 9999 FEW035CB SCT045 20/17 Q1022 NOSIG
13-07-09 METAR LIMC 090620Z 33008KT 9999 FEW035CB SCT045 21/18 Q1022 NOSIG
13-07-09 METAR LIMC 090650Z 33008KT 9999 SCT045 22/18 Q1022 NOSIG
13-07-09 METAR LIMC 090720Z 35007KT 320V020 9999 SCT045 23/17 Q1022 NOSIG
13-07-09 METAR LIMC 090750Z 35005KT 300V030 CAVOK 24/16 Q1022 NOSIG
13-07-09 METAR LIMC 090820Z 32005KT 290V360 CAVOK 25/16 Q1022 NOSIG
13-07-09 METAR LIMC 090850Z VRB03KT CAVOK 26/15 Q1022 NOSIG
13-07-09 METAR LIMC 090920Z VRB03KT CAVOK 27/16 Q1022 NOSIG
13-07-09 METAR LIMC 090950Z VRB03KT 9999 FEW040 27/15 Q1022 NOSIG
13-07-09 METAR LIMC 091020Z VRB04KT 9999 FEW040 28/15 Q1021 NOSIG
13-07-09 METAR LIMC 091050Z 24006KT 190V320 9999 SCT040 28/15 Q1021 NOSIG
13-07-09 METAR LIMC 091120Z 24005KT 160V320 9999 SCT040 28/15 Q1021 NOSIG
13-07-09 METAR LIMC 091150Z NIL
13-07-09 METAR LIMC 091150Z 15004KT 090V230 9999 SCT040 29/15 Q1020 NOSIG
13-07-09 METAR LIMC 091220Z 25005KT 150V320 9999 SCT040 29/15 Q1020 NOSIG
13-07-09 METAR LIMC 091250Z VRB05KT 9999 SCT040 30/15 Q1019 NOSIG
13-07-09 METAR LIMC 091320Z VRB04KT 9999 SCT040 30/15 Q1019 NOSIG
13-07-09 METAR LIMC 091350Z 27007KT 210V330 9999 SCT040 30/16 Q1019 NOSIG
13-07-09 METAR LIMC 091420Z 22007KT 180V260 9999 SCT040 30/15 Q1018 NOSIG
13-07-09 METAR LIMC 091450Z 24007KT 200V270 9999 FEW040TCU SCT045 30/15 Q1018 NOSIG
13-07-09 METAR LIMC 091520Z 21008KT 180V240 9999 SCT045 30/15 Q1017 NOSIG
13-07-09 METAR LIMC 091550Z 23008KT 200V270 9999 FEW045 29/15 Q1017 NOSIG
13-07-09 METAR LIMC 091620Z 25007KT 200V270 CAVOK 29/15 Q1017 NOSIG
13-07-09 METAR LIMC 091650Z 23008KT 210V270 CAVOK 29/15 Q1017 NOSIG
13-07-09 METAR LIMC 091720Z 22007KT CAVOK 29/14 Q1017 NOSIG
13-07-09 METAR LIMC 091750Z 23007KT CAVOK 28/15 Q1017 NOSIG
13-07-09 METAR LIMC 091820Z 21006KT CAVOK 27/15 Q1017 NOSIG
13-07-09 METAR LIMC 091850Z 20004KT CAVOK 25/15 Q1017 NOSIG
13-07-09 METAR LIMC 091920Z VRB02KT CAVOK 24/16 Q1017 NOSIG
13-07-09 METAR LIMC 091950Z VRB02KT CAVOK 23/15 Q1017 NOSIG
13-07-09 METAR LIMC 092020Z VRB01KT CAVOK 24/15 Q1017 NOSIG
13-07-09 METAR LIMC 092050Z VRB02KT CAVOK 23/15 Q1017 NOSIG
13-07-09 METAR LIMC 092150Z VRB02KT CAVOK 21/16 Q1017 NOSIG
13-07-09 METAR LIMC 092220Z VRB02KT CAVOK 20/17 Q1017 NOSIG
13-07-09 METAR LIMC 092250Z VRB02KT CAVOK 19/17 Q1017 NOSIG
13-07-09 METAR LIMC 092320Z 36003KT 9999 FEW050 19/17 Q1017 NOSIG
13-07-09 METAR LIMC 092350Z 36004KT 9999 FEW050 19/17 Q1017 NOSIG
13-07-10 METAR LIMC 100020Z 03010KT 9999 SCT050 23/16 Q1017 NOSIG
13-07-10 METAR LIMC 100050Z 03006KT 9999 SCT050 22/15 Q1017 NOSIG
13-07-10 METAR LIMC 100120Z 33008KT 9999 SCT050 21/15 Q1016 NOSIG
13-07-10 METAR LIMC 100150Z 36004KT CAVOK 20/14 Q1016 NOSIG
13-07-10 METAR LIMC 100220Z 03005KT CAVOK 20/14 Q1016 NOSIG
13-07-10 METAR LIMC 100250Z 36004KT CAVOK 18/14 Q1016 NOSIG
13-07-10 METAR LIMC 100320Z 35003KT 310V010 CAVOK 18/15 Q1016 NOSIG
13-07-10 METAR LIMC 100350Z 36004KT 330V050 CAVOK 18/15 Q1016 NOSIG
13-07-10 METAR LIMC 100420Z 34004KT CAVOK 18/15 Q1016 NOSIG
13-07-10 METAR LIMC 100450Z 36004KT CAVOK 20/15 Q1016 NOSIG
13-07-10 METAR LIMC 100520Z 35003KT 320V030 CAVOK 21/16 Q1016 NOSIG
13-07-10 METAR LIMC 100550Z 02003KT 350V070 CAVOK 22/16 Q1016 NOSIG
13-07-10 METAR LIMC 100620Z 35003KT 320V040 9999 SCT090 23/16 Q1016 NOSIG
13-07-10 METAR LIMC 100650Z 35004KT 310V030 9999 SCT090 24/16 Q1016 NOSIG
13-07-10 METAR LIMC 100720Z 03003KT 340V110 9999 FEW090 25/16 Q1016 NOSIG
13-07-10 METAR LIMC 100750Z 07004KT 010V120 CAVOK 26/15 Q1016 NOSIG
13-07-10 METAR LIMC 100820Z 07004KT 010V140 CAVOK 26/15 Q1016 NOSIG
13-07-10 METAR LIMC 100850Z 07005KT 360V110 CAVOK 27/14 Q1016 NOSIG
13-07-10 METAR LIMC 100920Z 08005KT 350V150 CAVOK 27/15 Q1016 NOSIG
13-07-10 METAR LIMC 100950Z 09005KT 340V150 CAVOK 28/15 Q1016 NOSIG
13-07-10 METAR LIMC 101020Z 07006KT 330V110 9999 SCT070 27/15 Q1015 NOSIG
13-07-10 METAR LIMC 101050Z 04006G16KT 340V090 9999 SCT070 28/16 Q1015 NOSIG
13-07-10 METAR LIMC 101120Z 05005G15KT 340V150 9999 FEW040 28/15 Q1015 NOSIG
13-07-10 METAR LIMC 101150Z VRB03KT 9999 FEW040 30/15 Q1014 NOSIG
13-07-10 METAR LIMC 101220Z 09004KT 040V130 9999 FEW035 28/15 Q1014 NOSIG
13-07-10 METAR LIMC 101250Z 21006KT 160V230 9999 SCT035 30/15 Q1014 NOSIG
13-07-10 METAR LIMC 101320Z 15004KT 100V200 9999 SCT035 29/15 Q1013 NOSIG
13-07-10 METAR LIMC 101350Z 24007KT 170V320 9999 SCT035 31/16 Q1013 NOSIG
13-07-10 METAR LIMC 101420Z 20007KT 170V250 9999 SCT035 30/16 Q1013 NOSIG
13-07-10 METAR LIMC 101450Z 21009KT 160V250 9999 SCT035 30/16 Q1013 NOSIG
13-07-10 METAR LIMC 101520Z 23010KT 9999 -TSRA FEW025CB SCT035 28/16 Q1012 NOSIG
13-07-10 METAR LIMC 101550Z 22004KT 150V300 9999 TSRA FEW025CB SCT035 28/17 Q1012 NOSIG
13-07-10 METAR LIMC 101620Z 23006KT 9999 FEW025TCU SCT035 29/17 Q1012 RETSRA NOSIG
13-07-10 METAR LIMC 101650Z 23007KT 9999 FEW025TCU SCT035 29/16 Q1012 NOSIG
13-07-10 METAR LIMC 101720Z 22007KT 9999 FEW025TCU SCT040 29/15 Q1012 NOSIG
13-07-10 METAR LIMC 101750Z NIL
13-07-10 METAR LIMC 101820Z NIL
13-07-10 METAR LIMC 101850Z NIL
13-07-10 METAR LIMC 101820Z 05014KT 9999 VCTS FEW015CB SCT035 OVC070 22/16 Q1013 BECMG TS
13-07-10 METAR LIMC 101850Z 05010KT 9999 -TSRA SCT015CB SCT035 OVC070 22/16 Q1012
13-07-10 METAR LIMC 101920Z VRB03KT 9999 TSRA SCT015CB SCT035 BKN070 21/18 Q1012
13-07-10 METAR LIMC 101950Z 33011KT 9999 TSRA SCT015CB SCT035 BKN070 20/19 Q1014
13-07-10 METAR LIMC 102020Z 34011KT 9999 RA FEW015CB SCT035 BKN070 19/18 Q1014 RETS
13-07-10 METAR LIMC 102050Z 34006KT 9999 RA VCTS FEW015CB SCT035 BKN070 19/19 Q1014
13-07-10 METAR LIMC 102120Z 36004KT 320V040 9999 RA FEW015CB SCT035 BKN070 19/18 Q1014 NOSIG
13-07-10 METAR LIMC 102150Z 35006KT 9999 RA SCT035 BKN070 19/19 Q1014 NOSIG
13-07-10 METAR LIMC 102220Z 34005KT 9999 -RA SCT035 BKN070 19/18 Q1013 RERA NOSIG
13-07-10 METAR LIMC 102250Z 32003KT 290V020 9999 SCT035 BKN070 19/18 Q1013 NOSIG
13-07-10 METAR LIMC 102320Z VRB02KT 9999 BKN070 18/18 Q1013 NOSIG
13-07-10 METAR LIMC 102350Z 00000KT 9999 BKN070 18/18 Q1013 NOSIG
13-07-11 METAR LIMC 110020Z 01004KT 9999 BKN070 18/18 Q1013 NOSIG
13-07-11 METAR LIMC 110050Z 35006KT 9999 BKN070 19/18 Q1013 NOSIG
13-07-11 METAR LIMC 110120Z 35004KT 9999 SCT070 18/18 Q1013 NOSIG
13-07-11 METAR LIMC 110150Z 24003KT 210V300 9999 FEW070 18/18 Q1013 NOSIG
13-07-11 METAR LIMC 110220Z 00000KT 9999 FEW070 17/17 Q1013 NOSIG
13-07-11 METAR LIMC 110250Z 00000KT 9999 R17L///// R35R/1000V1500D FEW070 16/16 Q1012 NOSIG
13-07-11 METAR LIMC 110320Z 01003KT 9999 FEW070 16/16 Q1013 NOSIG
13-07-11 METAR LIMC 110350Z VRB01KT 9999 FEW070 17/17 Q1012 NOSIG
13-07-11 METAR LIMC 110420Z VRB02KT 9999 R35L/1500N R35R/0800V1300U FEW070 17/17
13-07-11 METAR LIMC 110450Z VRB02KT 9999 R35L/1500N R35R/1200V1300N MIFG FEW070 18/18 Q1013 NOSIG
13-07-11 METAR LIMC 110520Z VRB01KT 9999 R35L/1500N R35R/1200V1400N MIFG FEW070 20/18 Q1012 NOSIG
13-07-11 METAR LIMC 110550Z 01004KT 340V040 CAVOK 20/18 Q1012 NOSIG
13-07-11 METAR LIMC 110620Z 35005KT CAVOK 21/18 Q1012 NOSIG
13-07-11 METAR LIMC 110650Z 01004KT 350V050 CAVOK 23/18 Q1013 NOSIG
13-07-11 METAR LIMC 110720Z VRB02KT CAVOK 24/17 Q1013 NOSIG
13-07-11 METAR LIMC 110750Z VRB02KT CAVOK 25/17 Q1013 NOSIG
13-07-11 METAR LIMC 110820Z VRB01KT CAVOK 26/16 Q1013 NOSIG
13-07-11 METAR LIMC 110850Z 08003KT 030V170 CAVOK 26/16 Q1012 NOSIG
13-07-11 METAR LIMC 110920Z VRB03KT CAVOK 27/16 Q1012 NOSIG
13-07-11 METAR LIMC 110950Z 25005KT 190V350 CAVOK 27/16 Q1012 NOSIG
13-07-11 METAR LIMC 111020Z 23007KT 180V270 CAVOK 28/15 Q1012 NOSIG
13-07-11 METAR LIMC 111050Z 25006KT 190V300 CAVOK 28/16 Q1012 NOSIG
13-07-11 METAR LIMC 111120Z 21007KT 170V250 CAVOK 28/16 Q1012 NOSIG
13-07-11 METAR LIMC 111150Z 22005KT 150V260 CAVOK 29/15 Q1011 NOSIG
13-07-11 METAR LIMC 111220Z 22007KT 170V280 CAVOK 29/14 Q1011 NOSIG
13-07-11 METAR LIMC 111250Z 23006KT 190V280 CAVOK 29/14 Q1011 NOSIG
13-07-11 METAR LIMC 111320Z 23007KT 160V280 CAVOK 29/14 Q1011 NOSIG
13-07-11 METAR LIMC 111350Z 24008KT 210V270 CAVOK 30/14 Q1011 NOSIG
13-07-11 METAR LIMC 111420Z 20008KT 170V250 CAVOK 30/15 Q1011 NOSIG
13-07-11 METAR LIMC 111450Z 23007KT 170V270 CAVOK 30/15 Q1010 NOSIG
13-07-11 METAR LIMC 111520Z 22006KT 190V260 CAVOK 30/15 Q1010 NOSIG
13-07-11 METAR LIMC 111550Z 22006KT 160V250 CAVOK 30/15 Q1010 NOSIG
13-07-11 METAR LIMC 111620Z 20007KT 160V230 CAVOK 30/15 Q1010 NOSIG
13-07-11 METAR LIMC 111650Z 21006KT CAVOK 30/15 Q1010 NOSIG
13-07-11 METAR LIMC 111720Z 23006KT 210V270 CAVOK 29/16 Q1010 NOSIG
13-07-11 METAR LIMC 111750Z 22006KT CAVOK 29/16 Q1010 NOSIG
13-07-11 METAR LIMC 111820Z 22005KT CAVOK 28/16 Q1010 NOSIG
13-07-11 METAR LIMC 111850Z 17003KT CAVOK 26/18 Q1010 NOSIG
13-07-11 METAR LIMC 111920Z NIL
13-07-11 METAR LIMC 111950Z NIL
13-07-11 METAR LIMC 111950Z 17006KT CAVOK 25/15 Q1011 NOSIG
13-07-11 METAR LIMC 112020Z 16005KT CAVOK 24/15 Q1012 NOSIG
13-07-11 METAR LIMC 112050Z 15002KT CAVOK 23/15 Q1012 NOSIG
13-07-11 METAR LIMC 112120Z VRB01KT CAVOK 22/16 Q1012 NOSIG
13-07-11 METAR LIMC 112150Z VRB02KT CAVOK 20/17 Q1012 NOSIG
13-07-11 METAR LIMC 112220Z VRB01KT CAVOK 20/17 Q1012 NOSIG
13-07-11 METAR LIMC 112250Z VRB01KT CAVOK 19/17 Q1013 NOSIG
13-07-11 METAR LIMC 112320Z VRB02KT CAVOK 19/17 Q1013 NOSIG
13-07-11 METAR LIMC 112350Z VRB01KT CAVOK 18/18 Q1013 NOSIG
13-07-12 METAR LIMC 120020Z VRB01KT CAVOK 19/17 Q1013 NOSIG
13-07-12 METAR LIMC 120050Z 14003KT CAVOK 18/17 Q1013 NOSIG
13-07-12 METAR LIMC 120120Z 14003KT CAVOK 19/17 Q1013 NOSIG
13-07-12 METAR LIMC 120250Z 10008KT 060V130 9999 SCT060 20/17 Q1015 NOSIG
13-07-12 METAR LIMC 120320Z 06004KT 020V110 9999 SCT060 20/16 Q1016 NOSIG
13-07-12 METAR LIMC 120350Z 06005KT 030V090 9999 SCT060 20/16 Q1016 NOSIG
13-07-12 METAR LIMC 120420Z 04003KT 9999 SCT070 19/17 Q1016 NOSIG
13-07-12 METAR LIMC 120450Z 02005KT 350V050 9999 SCT070 20/16 Q1017 NOSIG
13-07-12 METAR LIMC 120520Z 36006KT 9999 BKN070 21/17 Q1017 NOSIG
13-07-12 METAR LIMC 120550Z 01005KT 340V040 9999 SCT040 BKN070 21/17 Q1017 NOSIG
13-07-12 METAR LIMC 120620Z 03005KT 9999 SCT040 BKN070 21/15 Q1017 NOSIG
13-07-12 METAR LIMC 120650Z 05005KT 010V080 9999 SCT040 BKN070 22/15 Q1017 NOSIG
13-07-12 METAR LIMC 120720Z VRB03KT 9999 BKN080 23/15 Q1017 NOSIG
13-07-12 METAR LIMC 120750Z 08005KT 360V130 9999 SCT080 24/15 Q1017 NOSIG
13-07-12 METAR LIMC 120820Z 06005G15KT 020V100 CAVOK 25/16 Q1017 NOSIG
13-07-12 METAR LIMC 120850Z 12003KT 030V200 CAVOK 26/16 Q1017 NOSIG
13-07-12 METAR LIMC 120920Z VRB04KT 9999 SCT090 26/16 Q1016 NOSIG
13-07-12 METAR LIMC 120950Z VRB04KT 9999 SCT090 26/16 Q1016 NOSIG
13-07-12 METAR LIMC 121020Z VRB03KT 9999 SCT090 27/16 Q1016 NOSIG
13-07-12 METAR LIMC 121050Z VRB03KT 9999 FEW040 27/15 Q1016 NOSIG
13-07-12 METAR LIMC 121120Z 17005KT 140V200 9999 SCT040 27/16 Q1016 NOSIG
13-07-12 METAR LIMC 121150Z 15006KT 120V210 9999 SCT040 28/16 Q1016 NOSIG
13-07-12 METAR LIMC 121220Z VRB04KT 9999 SCT045 27/16 Q1016 NOSIG
13-07-12 METAR LIMC 121250Z 15007KT 090V220 9999 SCT045 28/16 Q1016 NOSIG
13-07-12 METAR LIMC 121320Z 18006KT 140V220 9999 SCT045 28/16 Q1016 NOSIG
13-07-12 METAR LIMC 121350Z 19006KT 140V220 9999 SCT045 28/16 Q1016 NOSIG
13-07-12 METAR LIMC 121420Z 19005KT 120V220 9999 SCT045 29/16 Q1015 NOSIG
13-07-12 METAR LIMC 121450Z 18006KT 090V250 9999 SCT045 28/15 Q1015 NOSIG
13-07-12 METAR LIMC 121520Z 17005KT 070V240 9999 SCT045 28/16 Q1015 NOSIG
13-07-12 METAR LIMC 121550Z 19006KT 160V250 9999 FEW045 29/16 Q1015 NOSIG
13-07-12 METAR LIMC 121620Z 22006KT 160V240 9999 FEW045 28/16 Q1015 NOSIG
13-07-12 METAR LIMC 121650Z 24007KT 210V280 9999 FEW045 28/16 Q1015 NOSIG
13-07-12 METAR LIMC 121720Z 24008KT 9999 FEW050 27/15 Q1015 NOSIG
13-07-12 METAR LIMC 121750Z 24006KT 9999 FEW060 27/15 Q1015 NOSIG
13-07-12 METAR LIMC 121820Z 26004KT 230V290 9999 FEW060 27/16 Q1015 NOSIG
13-07-12 METAR LIMC 121850Z VRB02KT 9999 FEW070 25/16 Q1015 NOSIG
13-07-12 METAR LIMC 121920Z 06003KT 040V110 CAVOK 24/17 Q1015 NOSIG
13-07-12 METAR LIMC 121950Z VRB01KT CAVOK 23/17 Q1016 NOSIG
13-07-12 METAR LIMC 122020Z VRB02KT CAVOK 23/17 Q1016 NOSIG
13-07-12 METAR LIMC 122050Z 00000KT 9999 FEW050 22/17 Q1016 NOSIG
13-07-12 METAR LIMC 122120Z 00000KT 9999 FEW050 21/18 Q1016 NOSIG
13-07-12 METAR LIMC 122150Z 00000KT 9999 FEW050 21/18 Q1016 NOSIG
13-07-12 METAR LIMC 122220Z 00000KT 9999 FEW050 20/19 Q1016 NOSIG
13-07-12 METAR LIMC 122250Z 00000KT 9999 FEW050 20/19 Q1016 NOSIG
13-07-12 METAR LIMC 122320Z 12002KT 9999 FEW050 20/19 Q1016 NOSIG
13-07-12 METAR LIMC 122350Z 16003KT 9999 FEW050 21/20 Q1017 NOSIG
13-07-13 METAR LIMC 130020Z 14003KT 9999 FEW050 21/19 Q1017 NOSIG
13-07-13 METAR LIMC 130050Z VRB02KT 9999 FEW050 20/19 Q1017 NOSIG
13-07-13 METAR LIMC 130120Z 07003KT 9999 SCT050 20/19 Q1016 NOSIG
13-07-13 METAR LIMC 130150Z 12004KT 090V150 9999 SCT050 21/19 Q1017 NOSIG
13-07-13 METAR LIMC 130220Z 16005KT 9999 SCT050 21/19 Q1017 NOSIG
13-07-13 METAR LIMC 130250Z 00000KT 9999 SCT050 20/19 Q1016 NOSIG
13-07-13 METAR LIMC 130320Z VRB02KT 9999 SCT050 19/18 Q1016 NOSIG
13-07-13 METAR LIMC 130350Z 02003KT 9999 SCT070 19/19 Q1017 NOSIG
13-07-13 METAR LIMC 130420Z 04005KT 9999 BKN070 20/19 Q1017 NOSIG
13-07-13 METAR LIMC 130450Z 04003KT 9999 BKN070 21/20 Q1017 NOSIG
13-07-13 METAR LIMC 130520Z 00000KT 9999 BKN070 22/20 Q1017 NOSIG
13-07-13 METAR LIMC 130550Z VRB02KT 9999 BKN060 22/20 Q1017 NOSIG
13-07-13 METAR LIMC 130620Z 09005G15KT 030V130 8000 R35L/1500N R35R/1400V1500N BKN060 22/19 Q1017 NOSIG
13-07-13 METAR LIMC 130650Z 10006KT 050V140 7000 R35L/1500N R35R/1300V1400N BKN060 23/20 Q1017 NOSIG
13-07-13 METAR LIMC 130720Z 07007G21KT 040V110 8000 R35L/1500N R35R/1400V1500N SCT050 BKN090 23/18 Q1017 NOSIG
13-07-13 METAR LIMC 130750Z 09006G16KT 060V160 9999 SCT050 BKN090 24/18 Q1018 NOSIG
13-07-13 METAR LIMC 130820Z 12005KT 040V170 9999 SCT050 BKN090 24/18 Q1018 NOSIG
13-07-13 METAR LIMC 130850Z 10005KT 040V140 9999 SCT050 BKN090 25/17 Q1018 NOSIG
13-07-13 METAR LIMC 130920Z 11005KT 060V150 9999 SCT035 SCT060 25/17 Q1017 NOSIG
13-07-13 METAR LIMC 130950Z 08004KT 020V180 9999 SCT035 SCT060 26/18 Q1017 NOSIG
13-07-13 METAR LIMC 131020Z VRB04KT 9999 SCT035 SCT060 27/17 Q1017 NOSIG
13-07-13 METAR LIMC 131050Z VRB01KT 9999 FEW035 27/17 Q1017 NOSIG
13-07-13 METAR LIMC 131120Z VRB04KT 9999 FEW035 27/17 Q1017 NOSIG
13-07-13 METAR LIMC 131150Z VRB04KT 9999 SCT035 28/17 Q1016 NOSIG
13-07-13 METAR LIMC 131220Z 22004KT 160V300 9999 SCT030 29/17 Q1016 NOSIG
13-07-13 METAR LIMC 131250Z 24005KT 150V290 9999 SCT030 29/17 Q1016 NOSIG
13-07-13 METAR LIMC 131320Z 17005KT 120V250 9999 FEW030 28/17 Q1016 NOSIG
13-07-13 METAR LIMC 131350Z 18003KT 100V270 9999 FEW030 29/18 Q1015 NOSIG
13-07-13 METAR LIMC 131420Z 26004KT 190V350 9999 SCT030 29/17 Q1015 NOSIG
13-07-13 METAR LIMC 131450Z 19004KT 140V260 9999 SCT030 29/17 Q1015 NOSIG
13-07-13 METAR LIMC 131520Z 23006KT 190V290 9999 SCT030 29/18 Q1015 NOSIG
13-07-13 METAR LIMC 131550Z 23006KT 180V270 9999 FEW030 29/18 Q1015 NOSIG
13-07-13 METAR LIMC 131620Z NIL
13-07-13 METAR LIMC 131620Z 24006KT 9999 FEW035 28/17 Q1014 NOSIG
13-07-13 METAR LIMC 131650Z 22006KT CAVOK 28/18 Q1014 NOSIG
13-07-13 METAR LIMC 131720Z 22007KT CAVOK 28/18 Q1014 NOSIG
13-07-13 METAR LIMC 131750Z 21005KT CAVOK 27/17 Q1015 NOSIG
13-07-13 METAR LIMC 131820Z 18003KT CAVOK 26/18 Q1015 NOSIG
13-07-13 METAR LIMC 131850Z 19003KT CAVOK 25/18 Q1015 NOSIG
13-07-13 METAR LIMC 131920Z 18002KT CAVOK 24/19 Q1015 NOSIG
13-07-13 METAR LIMC 131950Z VRB02KT 9999 FEW080 23/19 Q1015 NOSIG
13-07-13 METAR LIMC 132020Z NIL
13-07-13 METAR LIMC 132050Z 18003KT CAVOK 23/19 Q1016 NOSIG
13-07-13 METAR LIMC 132120Z 17004KT 110V210 9999 FEW080 23/19 Q1016 NOSIG
13-07-13 METAR LIMC 132150Z 11003KT 040V170 9999 FEW050 22/19 Q1017 NOSIG
13-07-13 METAR LIMC 132220Z 15004KT 9999 SCT040 22/19 Q1017 NOSIG
13-07-13 METAR LIMC 132250Z 11008KT 080V140 9999 BKN030 23/17 Q1017 NOSIG
13-07-13 METAR LIMC 132320Z 12010KT 090V160 9999 -RA VCTS SCT020CB BKN030 18/17 Q1018 RERA NOSIG
13-07-13 METAR LIMC 132350Z 12005KT 070V170 9999 TS SCT020CB SCT030 18/17 Q1018
13-07-14 METAR LIMC 140020Z 05005KT 020V080 9999 TS FEW020CB SCT030 17/17 Q1018 NOSIG
13-07-14 METAR LIMC 140050Z 03004KT 9999 FEW020CB SCT030 17/17 Q1018 RETS NOSIG
13-07-14 METAR LIMC 140120Z 09003KT 9999 VCTS FEW020CB SCT080 18/17 Q1019 NOSIG
13-07-14 METAR LIMC 140150Z VRB02KT 9999 FEW080 17/17 Q1019 NOSIG
13-07-14 METAR LIMC 140250Z 02004KT 350V080 9999 FEW080 17/16 Q1019 NOSIG
13-07-14 METAR LIMC 140320Z 02003KT 330V070 9999 FEW080 16/16 Q1019 NOSIG
13-07-14 METAR LIMC 140350Z 03006KT CAVOK 18/16 Q1019 NOSIG
13-07-14 METAR LIMC 140420Z VRB02KT CAVOK 17/16 Q1019 NOSIG
13-07-14 METAR LIMC 140450Z VRB01KT CAVOK 17/16 Q1019 NOSIG
13-07-14 METAR LIMC 140520Z 35004KT CAVOK 20/17 Q1019 NOSIG
13-07-14 METAR LIMC 140520Z NIL
13-07-14 METAR LIMC 140550Z 35003KT 320V020 CAVOK 21/17 Q1019 NOSIG
13-07-14 METAR LIMC 140620Z 01003KT CAVOK 22/16 Q1019 NOSIG
13-07-14 METAR LIMC 140650Z VRB02KT CAVOK 23/15 Q1019 NOSIG
13-07-14 METAR LIMC 140720Z 03003KT 320V090 CAVOK 23/15 Q1019 NOSIG
13-07-14 METAR LIMC 140750Z 14003KT 090V170 CAVOK 24/15 Q1019 NOSIG
13-07-14 METAR LIMC 140820Z VRB03KT CAVOK 25/15 Q1019 NOSIG
13-07-14 METAR LIMC 140850Z 20005KT 110V270 CAVOK 25/15 Q1019 NOSIG
13-07-14 METAR LIMC 140920Z 16004KT 120V200 CAVOK 25/15 Q1019 NOSIG
13-07-14 METAR LIMC 140950Z 17004KT 110V220 CAVOK 26/15 Q1019 NOSIG
13-07-14 METAR LIMC 141020Z 10003KT 020V160 CAVOK 27/15 Q1019 NOSIG
13-07-14 METAR LIMC 141120Z 14006KT 060V220 CAVOK 27/15 Q1019 NOSIG
13-07-14 METAR LIMC 141150Z 17006KT 120V240 CAVOK 27/14 Q1019 NOSIG
13-07-14 METAR LIMC 141220Z 17005KT 120V210 CAVOK 28/15 Q1019 NOSIG
13-07-14 METAR LIMC 141250Z 18006KT 140V230 9999 FEW030 28/14 Q1018 NOSIG
13-07-14 METAR LIMC 141320Z NIL
13-07-14 METAR LIMC 141320Z 16006KT 120V240 CAVOK 28/12 Q1018 NOSIG
13-07-14 METAR LIMC 141350Z 13005KT 040V190 CAVOK 29/13 Q1018 NOSIG
13-07-14 METAR LIMC 141420Z 17005KT 120V240 CAVOK 29/13 Q1018 NOSIG
13-07-14 METAR LIMC 141450Z 17005KT 120V230 CAVOK 29/13 Q1018 NOSIG
13-07-14 METAR LIMC 141520Z 18005KT 130V220 CAVOK 29/13 Q1017 NOSIG
13-07-14 METAR LIMC 141550Z 15004KT 080V220 CAVOK 29/13 Q1017 NOSIG
13-07-14 METAR LIMC 141620Z 14005KT 100V170 CAVOK 29/13 Q1017 NOSIG
13-07-14 METAR LIMC 141650Z 20006KT 170V250 CAVOK 28/14 Q1017 NOSIG
13-07-14 METAR LIMC 141720Z 20007KT 160V230 CAVOK 28/14 Q1017 NOSIG
13-07-14 METAR LIMC 141750Z 18006KT CAVOK 27/14 Q1017 NOSIG
13-07-14 METAR LIMC 141820Z 18003KT 150V210 CAVOK 26/15 Q1017 NOSIG
13-07-14 METAR LIMC 141850Z 24004KT CAVOK 26/14 Q1017 NOSIG
13-07-14 METAR LIMC 141920Z VRB01KT CAVOK 24/15 Q1017 NOSIG
13-07-14 METAR LIMC 141950Z VRB01KT CAVOK 23/15 Q1017 NOSIG
13-07-14 METAR LIMC 142020Z 02003KT 340V080 CAVOK 22/15 Q1018 NOSIG
13-07-14 METAR LIMC 142050Z VRB02KT CAVOK 21/16 Q1018 NOSIG
13-07-14 METAR LIMC 142120Z VRB01KT CAVOK 20/16 Q1018 NOSIG
13-07-14 METAR LIMC 142150Z VRB02KT CAVOK 21/16 Q1018 NOSIG
13-07-14 METAR LIMC 142220Z 36003KT CAVOK 20/16 Q1018 NOSIG
13-07-14 METAR LIMC 142250Z 33004KT CAVOK 18/16 Q1019 NOSIG
13-07-14 METAR LIMC 142320Z 01003KT CAVOK 19/16 Q1019 NOSIG
13-07-14 METAR LIMC 142350Z VRB02KT CAVOK 18/16 Q1019 NOSIG
13-07-15 METAR LIMC 150020Z VRB02KT CAVOK 18/16 Q1019 NOSIG
13-07-15 METAR LIMC 150050Z 02004KT 350V050 CAVOK 17/16 Q1018 NOSIG
13-07-15 METAR LIMC 150150Z VRB02KT CAVOK 17/16 Q1018 NOSIG
13-07-15 METAR LIMC 150250Z 35004KT CAVOK 17/16 Q1019 NOSIG
13-07-15 METAR LIMC 150350Z VRB01KT CAVOK 16/16 Q1019 NOSIG
13-07-15 METAR LIMC 150420Z 36003KT CAVOK 17/17 Q1019 NOSIG
13-07-15 METAR LIMC 150450Z 35003KT CAVOK 18/17 Q1019 NOSIG
13-07-15 METAR LIMC 150520Z 35003KT 320V030 CAVOK 20/18 Q1019 NOSIG
13-07-15 METAR LIMC 150550Z 36005KT 340V040 CAVOK 21/17 Q1019 NOSIG
13-07-15 METAR LIMC 150650Z 35004KT 310V030 CAVOK 24/17 Q1019 NOSIG
13-07-15 METAR LIMC 150750Z VRB02KT CAVOK 26/15 Q1019 NOSIG
13-07-15 METAR LIMC 150850Z 11004KT 010V160 CAVOK 28/15 Q1019 NOSIG
13-07-15 METAR LIMC 150950Z VRB04KT CAVOK 28/15 Q1019 NOSIG
13-07-15 METAR LIMC 151120Z VRB05KT 9999 SCT035 29/15 Q1018 NOSIG
13-07-15 METAR LIMC 151150Z 25007KT 210V290 9999 FEW035 29/15 Q1018 NOSIG
13-07-15 METAR LIMC 151220Z 24007KT 210V320 9999 FEW030 29/15 Q1018 NOSIG
13-07-15 METAR LIMC 151250Z VRB06KT CAVOK 30/16 Q1018 NOSIG
13-07-15 METAR LIMC 151320Z 22007KT 190V260 CAVOK 30/15 Q1017 NOSIG
13-07-15 METAR LIMC 151450Z 24007KT 200V290 CAVOK 30/15 Q1017 NOSIG
13-07-15 METAR LIMC 151520Z 24007KT CAVOK 30/15 Q1017 NOSIG
13-07-15 METAR LIMC 151550Z VRB04KT CAVOK 30/14 Q1016 NOSIG
13-07-15 METAR LIMC 151620Z 20005KT 160V240 CAVOK 30/16 Q1016 NOSIG
13-07-15 METAR LIMC 151650Z 19004KT 130V250 CAVOK 30/15 Q1016 NOSIG
13-07-15 METAR LIMC 151720Z 22006KT CAVOK 29/16 Q1016 NOSIG
13-07-15 METAR LIMC 151750Z 22005KT CAVOK 29/16 Q1016 NOSIG
13-07-15 METAR LIMC 151820Z 21004KT CAVOK 28/16 Q1016 NOSIG
13-07-15 METAR LIMC 151850Z 17002KT CAVOK 26/17 Q1016 NOSIG
13-07-15 METAR LIMC 151950Z VRB02KT CAVOK 23/18 Q1017 NOSIG
13-07-15 METAR LIMC 152020Z VRB01KT CAVOK 23/17 Q1017 NOSIG
13-07-15 METAR LIMC 152050Z VRB02KT CAVOK 23/18 Q1017 NOSIG
13-07-15 METAR LIMC 152120Z VRB01KT CAVOK 21/18 Q1018 NOSIG
13-07-15 METAR LIMC 152150Z 15003KT 100V180 CAVOK 23/18 Q1018 NOSIG
13-07-15 METAR LIMC 152250Z VRB01KT CAVOK 20/18 Q1018 NOSIG
13-07-15 METAR LIMC 152320Z VRB01KT CAVOK 20/18 Q1018 NOSIG
13-07-16 METAR LIMC 160020Z 04002KT CAVOK 19/18 Q1019 NOSIG
13-07-16 METAR LIMC 160050Z 05002KT CAVOK 19/18 Q1019 NOSIG
13-07-16 METAR LIMC 160150Z 01001KT CAVOK 18/17 Q1019 NOSIG
13-07-16 METAR LIMC 160250Z 36003KT 340V040 CAVOK 17/17 Q1019 NOSIG
13-07-16 METAR LIMC 160320Z 01003KT CAVOK 17/17 Q1019 NOSIG
13-07-16 METAR LIMC 160350Z VRB01KT CAVOK 17/17 Q1019 NOSIG
13-07-16 METAR LIMC 160420Z VRB02KT CAVOK 19/18 Q1020 NOSIG
13-07-16 METAR LIMC 160450Z 03003KT 320V080 CAVOK 19/18 Q1020 NOSIG
13-07-16 METAR LIMC 160520Z VRB02KT CAVOK 21/19 Q1020 NOSIG
13-07-16 METAR LIMC 160550Z 06003KT 020V090 CAVOK 23/18 Q1020 NOSIG
13-07-16 METAR LIMC 160650Z 05003KT 010V090 9999 BKN080 24/18 Q1021 NOSIG
13-07-16 METAR LIMC 160750Z 07004KT 030V130 9999 BKN070 26/17 Q1021 NOSIG
13-07-16 METAR LIMC 160820Z NIL
13-07-16 METAR LIMC 160820Z 09007KT 050V140 9999 SCT070 27/16 Q1021 NOSIG
13-07-16 METAR LIMC 160850Z 11007KT 070V150 9999 SCT070 27/16 Q1021 NOSIG
13-07-16 METAR LIMC 160950Z 09007KT 020V130 CAVOK 28/16 Q1021 NOSIG
13-07-16 METAR LIMC 161020Z 11007KT 090V150 CAVOK 28/16 Q1021 NOSIG
13-07-16 METAR LIMC 161050Z 12008KT 050V170 CAVOK 29/16 Q1021 NOSIG
13-07-16 METAR LIMC 161120Z 14006KT 080V200 CAVOK 29/15 Q1021 NOSIG
13-07-16 METAR LIMC 161150Z 13006KT 030V170 9999 FEW030 30/15 Q1020 NOSIG
13-07-16 METAR LIMC 161250Z 16007KT 120V210 9999 FEW030 30/14 Q1020 NOSIG
13-07-16 METAR LIMC 161320Z VRB06KT 9999 FEW030 30/15 Q1019 NOSIG
13-07-16 METAR LIMC 161350Z VRB05KT 9999 FEW030 31/15 Q1019 NOSIG
13-07-16 METAR LIMC 161420Z VRB07KT 9999 FEW030 31/15 Q1019 NOSIG
13-07-16 METAR LIMC 161450Z 17006KT 070V240 9999 FEW030 31/15 Q1019 NOSIG
13-07-16 METAR LIMC 161520Z 17005KT 120V230 9999 FEW030 30/16 Q1019 NOSIG
13-07-16 METAR LIMC 161550Z 17006KT 9999 FEW030 30/16 Q1019 NOSIG
13-07-16 METAR LIMC 161620Z 15008KT 9999 FEW030 30/16 Q1019 NOSIG
13-07-16 METAR LIMC 161650Z 15006KT 100V180 9999 FEW030 29/17 Q1019 NOSIG
13-07-16 METAR LIMC 161720Z 16006KT 120V190 9999 FEW040 29/17 Q1019 NOSIG
13-07-16 METAR LIMC 161750Z 17005KT 9999 FEW040 28/17 Q1019 NOSIG
13-07-16 METAR LIMC 161820Z NIL
13-07-16 METAR LIMC 161850Z NIL
13-07-16 METAR LIMC 161850Z 15004KT CAVOK 27/17 Q1019 NOSIG
13-07-16 METAR LIMC 161920Z 14004KT 100V170 9999 FEW030TCU 26/17 Q1019 NOSIG
13-07-16 METAR LIMC 161950Z VRB02KT 9999 FEW030TCU 24/18 Q1020 NOSIG
13-07-16 METAR LIMC 162020Z 12004KT 070V170 CAVOK 25/18 Q1020 NOSIG
13-07-16 METAR LIMC 162050Z 11003KT CAVOK 24/18 Q1020 NOSIG
13-07-16 METAR LIMC 162120Z VRB03KT CAVOK 24/18 Q1020 NOSIG
13-07-16 METAR LIMC 162150Z 07003KT 020V120 CAVOK 24/17 Q1020 NOSIG
13-07-16 METAR LIMC 162220Z 06003KT 020V110 CAVOK 23/17 Q1020 NOSIG
13-07-16 METAR LIMC 162250Z 06003KT 340V120 9999 SCT070 22/18 Q1020 NOSIG
13-07-16 METAR LIMC 162320Z 08004KT 9999 FEW070 23/18 Q1021 NOSIG
13-07-16 METAR LIMC 162350Z 07003KT 020V130 CAVOK 23/17 Q1021 NOSIG
13-07-17 METAR LIMC 170020Z 05006KT CAVOK 22/17 Q1021 NOSIG
13-07-17 METAR LIMC 170050Z VRB04KT 9999 SCT070 23/17 Q1021 NOSIG
13-07-17 METAR LIMC 170120Z 05004KT 9999 SCT070 22/17 Q1021 NOSIG
13-07-17 METAR LIMC 170150Z 05004KT 010V080 9999 SCT070 22/17 Q1021 NOSIG
13-07-17 METAR LIMC 170220Z 01004KT 9999 SCT070 22/17 Q1021 NOSIG
13-07-17 METAR LIMC 170250Z 03004KT 350V070 9999 SCT070 22/17 Q1021 NOSIG
13-07-17 METAR LIMC 170320Z 36004KT 310V040 9999 SCT060 22/17 Q1021 NOSIG
13-07-17 METAR LIMC 170350Z 01005KT 350V050 9999 BKN050 22/16 Q1021 NOSIG
13-07-17 METAR LIMC 170420Z 05003KT 010V080 9999 BKN050 22/16 Q1021 NOSIG
13-07-17 METAR LIMC 170450Z 05004KT 9999 FEW030 SCT050 22/16 Q1022 NOSIG
13-07-17 METAR LIMC 170520Z 05004KT 9999 FEW030TCU BKN040 22/15 Q1022 NOSIG
13-07-17 METAR LIMC 170550Z NIL
13-07-17 METAR LIMC 170550Z VRB02KT 9999 FEW030TCU BKN040 22/16 Q1022 NOSIG
13-07-17 METAR LIMC 170620Z 07004KT 010V120 9999 BKN035 23/15 Q1022 NOSIG
13-07-17 METAR LIMC 170650Z 05004KT 340V110 9999 BKN035 23/15 Q1022 NOSIG
13-07-17 METAR LIMC 170720Z 36006KT 9999 -RA BKN035 BKN065 23/15 Q1022 NOSIG
13-07-17 METAR LIMC 170750Z 35007KT 9999 BKN035 BKN065 23/16 Q1022 NOSIG
13-07-17 METAR LIMC 170820Z 35008KT 9999 BKN035 BKN070 22/14 Q1022 NOSIG
13-07-17 METAR LIMC 170850Z 32007KT 9999 -RA BKN035 BKN070 21/17 Q1022 NOSIG
13-07-17 METAR LIMC 170920Z 35010KT 9999 4000N RA FEW025CB SCT035 BKN070 20/15 Q1022 NOSIG
13-07-17 METAR LIMC 170950Z 33013KT 9999 RA BKN035 OVC070 20/15 Q1022 NOSIG
13-07-17 METAR LIMC 171020Z 01008KT 9999 BKN035 OVC065 19/16 Q1022 RERA NOSIG
13-07-17 METAR LIMC 171050Z 34008KT 9999 BKN035 OVC065 20/18 Q1022 NOSIG
13-07-17 METAR LIMC 171120Z 36007KT 9999 BKN035 BKN070 21/17 Q1021 NOSIG
13-07-17 METAR LIMC 171150Z 36008KT 9999 BKN035 BKN070 21/18 Q1021 NOSIG
13-07-17 METAR LIMC 171220Z 36008KT 9999 BKN070 22/17 Q1021 NOSIG
13-07-17 METAR LIMC 171250Z 35007KT 9999 BKN070 24/16 Q1020 NOSIG
13-07-17 METAR LIMC 171320Z 35005KT 310V060 9999 SCT080 26/15 Q1020 NOSIG
13-07-17 METAR LIMC 171350Z VRB04KT 9999 SCT080 27/12 Q1020 NOSIG
13-07-17 METAR LIMC 171420Z VRB01KT 9999 SCT080 27/13 Q1020 NOSIG
13-07-17 METAR LIMC 171450Z VRB02KT 9999 SCT080 28/13 Q1020 NOSIG
13-07-17 METAR LIMC 171520Z 25003KT 190V320 9999 SCT080 29/13 Q1019 NOSIG
13-07-17 METAR LIMC 171550Z VRB05KT 9999 SCT080 29/12 Q1019 NOSIG
13-07-17 METAR LIMC 171620Z 24006KT 200V280 9999 SCT080 29/12 Q1019 NOSIG
13-07-17 METAR LIMC 171650Z 28008KT 9999 SCT080 28/14 Q1019 NOSIG
13-07-17 METAR LIMC 171720Z NIL
13-07-17 METAR LIMC 171750Z NIL
13-07-17 METAR LIMC 171720Z 25008KT 9999 BKN080 27/14 Q1019 NOSIG
13-07-17 METAR LIMC 171750Z 26006KT 230V290 9999 BKN080 27/14 Q1019 NOSIG
13-07-17 METAR LIMC 171820Z 27005KT 9999 SCT080 26/15 Q1019 NOSIG
13-07-17 METAR LIMC 171850Z 27003KT 240V330 9999 SCT090 25/15 Q1019 NOSIG
13-07-17 METAR LIMC 171920Z 02003KT 280V080 9999 SCT090 23/16 Q1019 NOSIG
13-07-17 METAR LIMC 171950Z 05004G14KT 340V080 9999 SCT090 23/16 Q1019 NOSIG
13-07-17 METAR LIMC 172020Z VRB02KT 9999 BKN070 22/17 Q1020 NOSIG
13-07-17 METAR LIMC 172050Z VRB01KT 9999 BKN070 22/17 Q1020 NOSIG
13-07-17 METAR LIMC 172120Z 36002KT 9999 BKN070 21/17 Q1020 NOSIG
13-07-17 METAR LIMC 172150Z 01003KT 340V040 9999 BKN070 22/17 Q1020 NOSIG
13-07-17 METAR LIMC 172220Z 32003KT 9999 BKN070 21/16 Q1020 NOSIG
13-07-17 METAR LIMC 172250Z 01005KT 350V050 9999 BKN070 20/17 Q1020 NOSIG
13-07-17 METAR LIMC 172320Z 36006KT 9999 BKN070 21/17 Q1020 NOSIG
13-07-17 METAR LIMC 172350Z 36005KT 330V030 9999 BKN070 21/17 Q1020 NOSIG
13-07-18 METAR LIMC 180020Z 36003KT 9999 BKN070 19/18 Q1019 NOSIG
13-07-18 METAR LIMC 180050Z 36003KT 9999 BKN070 19/18 Q1019 NOSIG
13-07-18 METAR LIMC 180120Z 36002KT 9999 BKN070 19/17 Q1020 NOSIG
13-07-18 METAR LIMC 180150Z 36003KT 320V030 9999 FEW030 BKN060 20/18 Q1019 NOSIG
13-07-18 METAR LIMC 180220Z 36004KT 9999 FEW030 BKN060 20/18 Q1019 NOSIG
13-07-18 METAR LIMC 180250Z 01005KT 350V070 9999 FEW030 BKN060 20/18 Q1019 NOSIG
13-07-18 METAR LIMC 180320Z 35004KT 330V040 9999 SCT070 19/17 Q1019 NOSIG
13-07-18 METAR LIMC 180350Z 01003KT 9999 SCT070 19/18 Q1019 NOSIG
13-07-18 METAR LIMC 180420Z 35003KT 9999 SCT070 20/18 Q1019 NOSIG
13-07-18 METAR LIMC 180450Z 36004KT 340V040 9999 FEW035TCU BKN040 21/17 Q1019 NOSIG
13-07-18 METAR LIMC 180520Z 35003KT 320V030 9999 FEW035CB BKN060 21/18 Q1020 NOSIG
13-07-18 METAR LIMC 180550Z 35004KT 320V020 9999 FEW035CB BKN060 22/18 Q1020 NOSIG
13-07-18 METAR LIMC 180620Z VRB02KT 9999 FEW035CB BKN060 22/17 Q1020 NOSIG
13-07-18 METAR LIMC 180650Z 25007KT 9999 BKN035 22/18 Q1020 NOSIG
13-07-18 METAR LIMC 180720Z 29007KT 9999 FEW025 BKN040 22/18 Q1021 NOSIG
13-07-18 METAR LIMC 180750Z 27009KT 9999 RA BKN045 21/20 Q1021 NOSIG
13-07-18 METAR LIMC 180820Z 31008KT 9999 TS SCT020CB BKN040 21/19 Q1021 RERA NOSIG
13-07-18 METAR LIMC 180850Z 31008KT 9999 RA VCTS SCT020CB BKN040 21/19 Q1021 RETS NOSIG
13-07-18 METAR LIMC 180920Z 31009KT 9999 -RA FEW020CB BKN040 21/20 Q1021 RERA NOSIG
13-07-18 METAR LIMC 180950Z 27007KT 9999 SCT040 BKN060 21/19 Q1021 NOSIG
13-07-18 METAR LIMC 181020Z 29011KT 9999 SCT040 BKN060 22/17 Q1021 NOSIG
13-07-18 METAR LIMC 181050Z 27013KT 250V310 9999 SCT040 BKN060 22/18 Q1021 NOSIG
13-07-18 METAR LIMC 181120Z 29013KT 9999 SCT040 BKN060 23/17 Q1021 NOSIG
13-07-18 METAR LIMC 181150Z 32012KT 9999 SCT040 BKN060 23/16 Q1021 NOSIG
13-07-18 METAR LIMC 181220Z 28012KT 9999 BKN060 24/16 Q1021 NOSIG
13-07-18 METAR LIMC 181250Z 31012KT 280V340 9999 SCT060 23/15 Q1021 NOSIG
13-07-18 METAR LIMC 181320Z 31014KT 9999 SCT050 25/14 Q1020 NOSIG
13-07-18 METAR LIMC 181350Z 29012KT 9999 SCT060 26/14 Q1020 NOSIG
13-07-18 METAR LIMC 181420Z 30009KT 270V330 9999 SCT060 26/14 Q1020 NOSIG
13-07-18 METAR LIMC 181450Z NIL
13-07-18 METAR LIMC 181450Z 29007KT 260V330 CAVOK 27/13 Q1019 NOSIG
13-07-18 METAR LIMC 181520Z 29006KT 220V350 CAVOK 27/12 Q1019 NOSIG
13-07-18 METAR LIMC 181550Z 24008KT CAVOK 27/14 Q1019 NOSIG
13-07-18 METAR LIMC 181620Z 23010KT 9999 SCT070 26/15 Q1019 NOSIG
13-07-18 METAR LIMC 181650Z 23009KT 9999 SCT060 25/15 Q1019 NOSIG
13-07-18 METAR LIMC 181720Z 23009KT 9999 FEW060 24/16 Q1019 NOSIG
13-07-18 METAR LIMC 181750Z 24009KT 9999 FEW060 24/16 Q1019 NOSIG
13-07-18 METAR LIMC 181820Z 24007KT 9999 FEW040 SCT060 23/18 Q1019 NOSIG
13-07-18 METAR LIMC 181850Z 23005KT 9999 FEW040 SCT060 23/17 Q1019 NOSIG
13-07-18 METAR LIMC 181920Z 21004KT 9999 SCT040 SCT060 22/18 Q1019 NOSIG
13-07-18 METAR LIMC 181950Z VRB02KT 9999 SCT060 21/19 Q1020 NOSIG
13-07-18 METAR LIMC 182020Z 20003KT 9999 SCT060 20/18 Q1020 NOSIG
13-07-18 METAR LIMC 182050Z 23004KT 9999 SCT070 20/17 Q1020 NOSIG
13-07-18 METAR LIMC 182120Z 20003KT 150V220 9999 SCT070 19/18 Q1020 NOSIG
13-07-18 METAR LIMC 182150Z VRB01KT 9999 SCT070 18/17 Q1020 NOSIG
13-07-18 METAR LIMC 182220Z 00000KT 9999 SCT070 18/17 Q1020 NOSIG
13-07-18 METAR LIMC 182250Z VRB02KT CAVOK 17/17 Q1020 NOSIG
13-07-18 METAR LIMC 182320Z 00000KT CAVOK 17/17 Q1020 NOSIG
13-07-18 METAR LIMC 182350Z VRB02KT 9999 SCT070 17/17 Q1020 NOSIG
13-07-19 METAR LIMC 190020Z 32002KT 9999 SCT070 18/18 Q1019 NOSIG
13-07-19 METAR LIMC 190050Z VRB01KT 9999 SCT070 17/17 Q1019 NOSIG
13-07-19 METAR LIMC 190120Z VRB01KT 9999 SCT070 17/17 Q1019 NOSIG
13-07-19 METAR LIMC 190150Z VRB01KT 9999 SCT070 17/17 Q1019 NOSIG
13-07-19 METAR LIMC 190220Z 35003KT 9999 SCT070 16/16 Q1019 NOSIG
13-07-19 METAR LIMC 190250Z 34004KT 300V360 9999 BKN060 17/16 Q1019 NOSIG
13-07-19 METAR LIMC 190320Z 35006KT 9999 BKN060 17/16 Q1019 NOSIG
13-07-19 METAR LIMC 190350Z 36004KT CAVOK 17/16 Q1019 NOSIG
13-07-19 METAR LIMC 190420Z VRB02KT CAVOK 17/16 Q1019 NOSIG
13-07-19 METAR LIMC 190450Z 36002KT CAVOK 17/16 Q1019 NOSIG
13-07-19 METAR LIMC 190520Z 35003KT CAVOK 19/17 Q1019 NOSIG
13-07-19 METAR LIMC 190550Z VRB02KT CAVOK 20/17 Q1019 NOSIG
13-07-19 METAR LIMC 190620Z 36004KT CAVOK 21/17 Q1019 NOSIG
13-07-19 METAR LIMC 190650Z 36004KT 330V040 CAVOK 22/16 Q1019 NOSIG
13-07-19 METAR LIMC 190720Z 33004KT 290V020 9999 FEW080 23/16 Q1019 NOSIG
13-07-19 METAR LIMC 190750Z VRB02KT 9999 SCT080 24/16 Q1020 NOSIG
13-07-19 METAR LIMC 190820Z VRB02KT 9999 SCT070 25/16 Q1019 NOSIG
13-07-19 METAR LIMC 190850Z VRB03KT CAVOK 26/15 Q1019 NOSIG
13-07-19 METAR LIMC 190920Z 24004KT 160V290 CAVOK 26/14 Q1019 NOSIG
13-07-19 METAR LIMC 190950Z VRB04KT CAVOK 27/14 Q1019 NOSIG
13-07-19 METAR LIMC 191020Z VRB03KT 9999 SCT090 28/14 Q1019 NOSIG
13-07-19 METAR LIMC 191050Z VRB05KT 9999 FEW040 SCT080 27/15 Q1019 NOSIG
13-07-19 METAR LIMC 191120Z 23006KT 170V330 9999 FEW040 SCT080 28/15 Q1019 NOSIG
13-07-19 METAR LIMC 191150Z 24008KT 190V280 9999 FEW040 SCT080 28/16 Q1018 NOSIG
13-07-19 METAR LIMC 191220Z 22007KT 190V260 9999 FEW035 SCT070 29/14 Q1018 NOSIG
13-07-19 METAR LIMC 191250Z 22007KT 170V270 9999 FEW035 SCT070 29/15 Q1018 NOSIG
13-07-19 METAR LIMC 191320Z 23007KT 180V280 9999 FEW035 SCT080 29/13 Q1018 NOSIG
13-07-19 METAR LIMC 191350Z 21005KT 140V250 9999 FEW025 SCT050 29/14 Q1018 NOSIG
13-07-19 METAR LIMC 191420Z 20005KT 170V250 9999 FEW045 SCT080 29/13 Q1017 NOSIG
13-07-19 METAR LIMC 191450Z 21004KT 140V260 9999 SCT045 SCT080 28/13 Q1017 NOSIG
13-07-19 METAR LIMC 191520Z 23005KT 190V270 9999 SCT045 SCT080 29/12 Q1016 NOSIG
13-07-19 METAR LIMC 191550Z 24006KT 9999 SCT045 SCT080 29/14 Q1016 NOSIG
13-07-19 METAR LIMC 191620Z 21008KT 9999 SCT045 SCT080 28/14 Q1016 NOSIG
13-07-19 METAR LIMC 191650Z 21006KT 170V250 9999 BKN045 28/14 Q1016 NOSIG
13-07-19 METAR LIMC 191720Z 21006KT 9999 BKN045 28/14 Q1016 NOSIG
13-07-19 METAR LIMC 191750Z 22007KT 9999 BKN045 27/14 Q1016 NOSIG
13-07-19 METAR LIMC 191820Z 22005KT 9999 SCT045 27/14 Q1016 NOSIG
13-07-19 METAR LIMC 191850Z 20003KT 9999 SCT045 26/15 Q1016 NOSIG
13-07-19 METAR LIMC 191920Z VRB02KT 9999 SCT070 24/15 Q1017 NOSIG
13-07-19 METAR LIMC 191950Z 00000KT 9999 SCT070 24/15 Q1017 NOSIG
13-07-19 METAR LIMC 192020Z VRB02KT 9999 SCT070 22/15 Q1017 NOSIG
13-07-19 METAR LIMC 192050Z 03003KT 340V070 CAVOK 21/15 Q1017 NOSIG
13-07-19 METAR LIMC 192120Z VRB01KT CAVOK 20/17 Q1017 NOSIG
13-07-19 METAR LIMC 192150Z 02003KT CAVOK 20/17 Q1017 NOSIG
13-07-19 METAR LIMC 192220Z 36004KT CAVOK 20/16 Q1017 NOSIG
13-07-19 METAR LIMC 192250Z 35004KT CAVOK 19/16 Q1017 NOSIG
13-07-19 METAR LIMC 192320Z 36005KT CAVOK 20/16 Q1017 NOSIG
13-07-19 METAR LIMC 192350Z 01004KT CAVOK 19/16 Q1017 NOSIG
13-07-20 METAR LIMC 200020Z 35005KT CAVOK 18/15 Q1017 NOSIG
13-07-20 METAR LIMC 200050Z 36003KT 340V040 CAVOK 18/15 Q1017 NOSIG
13-07-20 METAR LIMC 200120Z 36003KT CAVOK 17/15 Q1017 NOSIG
13-07-20 METAR LIMC 200150Z 01004KT CAVOK 18/15 Q1017 NOSIG
13-07-20 METAR LIMC 200220Z 35006KT CAVOK 17/15 Q1016 NOSIG
13-07-20 METAR LIMC 200250Z 36005KT CAVOK 18/15 Q1016 NOSIG
13-07-20 METAR LIMC 200320Z 35005KT CAVOK 18/15 Q1016 NOSIG
13-07-20 METAR LIMC 200350Z 36004KT CAVOK 17/15 Q1016 NOSIG
13-07-20 METAR LIMC 200420Z VRB01KT CAVOK 17/15 Q1017 NOSIG
13-07-20 METAR LIMC 200450Z 36004KT 340V050 CAVOK 19/15 Q1017 NOSIG
13-07-20 METAR LIMC 200550Z 02003KT 340V050 CAVOK 21/16 Q1017 NOSIG
13-07-20 METAR LIMC 200620Z 01004KT 330V030 CAVOK 22/16 Q1017 NOSIG
13-07-20 METAR LIMC 200650Z 36006KT CAVOK 23/15 Q1017 NOSIG
13-07-20 METAR LIMC 200720Z 03004KT 330V060 CAVOK 24/15 Q1017 NOSIG
13-07-20 METAR LIMC 200750Z 34004KT 300V030 CAVOK 26/14 Q1018 NOSIG
13-07-20 METAR LIMC 200820Z VRB03KT CAVOK 27/15 Q1018 NOSIG
13-07-20 METAR LIMC 200850Z VRB04KT CAVOK 27/14 Q1017 NOSIG
13-07-20 METAR LIMC 200920Z VRB03KT CAVOK 28/14 Q1018 NOSIG
13-07-20 METAR LIMC 200950Z 24004KT 160V330 CAVOK 29/14 Q1017 NOSIG
13-07-20 METAR LIMC 201020Z VRB05KT CAVOK 29/14 Q1017 NOSIG
13-07-20 METAR LIMC 201050Z 30005KT 250V360 CAVOK 29/14 Q1017 NOSIG
13-07-20 METAR LIMC 201120Z 23007KT 170V280 CAVOK 29/15 Q1017 NOSIG
13-07-20 METAR LIMC 201150Z 25007KT 210V280 9999 FEW030 30/15 Q1017 NOSIG
13-07-20 METAR LIMC 201220Z 23008KT 180V270 9999 FEW030 30/14 Q1016 NOSIG
13-07-20 METAR LIMC 201250Z 21007KT 160V290 9999 FEW040 30/14 Q1016 NOSIG
13-07-20 METAR LIMC 201320Z 22008KT 190V290 9999 FEW040 31/13 Q1016 NOSIG
13-07-20 METAR LIMC 201350Z 27008KT 240V310 9999 FEW040 30/13 Q1016 NOSIG
13-07-20 METAR LIMC 201420Z VRB06KT CAVOK 31/12 Q1016 NOSIG
13-07-20 METAR LIMC 201450Z 20006KT 130V240 9999 FEW035CB 31/12 Q1016 NOSIG
13-07-20 METAR LIMC 201520Z 23007KT 200V260 9999 VCTS FEW030CB 31/12 Q1015 NOSIG
13-07-20 METAR LIMC 201550Z 22009KT 9999 FEW050 31/13 Q1015 NOSIG
13-07-20 METAR LIMC 201620Z 23007KT 9999 FEW050TCU SCT080 31/12 Q1015 NOSIG
13-07-20 METAR LIMC 201650Z 24006KT 190V270 9999 FEW035CB SCT080 30/12 Q1015 NOSIG
13-07-20 METAR LIMC 201720Z 23005KT 9999 FEW060 SCT080 29/11 Q1015 NOSIG
13-07-20 METAR LIMC 201750Z 18003KT 130V210 9999 FEW080 27/14 Q1015 NOSIG
13-07-20 METAR LIMC 201850Z VRB01KT 9999 FEW080 26/14 Q1015 NOSIG
13-07-20 METAR LIMC 201920Z 00000KT 9999 SCT060 23/14 Q1015 NOSIG
13-07-20 METAR LIMC 201950Z VRB01KT 9999 SCT060 23/14 Q1016 NOSIG
13-07-20 METAR LIMC 202020Z 00000KT 9999 SCT060 23/14 Q1016 NOSIG
13-07-20 METAR LIMC 202050Z 34006KT 9999 BKN070 23/15 Q1016 NOSIG
13-07-20 METAR LIMC 202120Z 03004KT 350V090 9999 SCT070 25/15 Q1016 NOSIG
13-07-20 METAR LIMC 202150Z 36003KT 330V030 9999 SCT070 21/16 Q1017 NOSIG
13-07-20 METAR LIMC 202220Z VRB02KT 9999 FEW060 SCT080 22/16 Q1017 NOSIG
13-07-20 METAR LIMC 202250Z VRB01KT 9999 FEW070 22/16 Q1017 NOSIG
13-07-20 METAR LIMC 202320Z 01003KT CAVOK 21/16 Q1017 NOSIG
13-07-20 METAR LIMC 202350Z 35005KT CAVOK 20/15 Q1017 NOSIG
13-07-21 METAR LIMC 210020Z 02003KT CAVOK 19/15 Q1017 NOSIG
13-07-21 METAR LIMC 210050Z 02002KT CAVOK 19/15 Q1017 NOSIG
13-07-21 METAR LIMC 210120Z VRB02KT CAVOK 18/16 Q1017 NOSIG
13-07-21 METAR LIMC 210150Z 04003KT 010V070 CAVOK 18/16 Q1017 NOSIG
13-07-21 METAR LIMC 210220Z 00000KT CAVOK 18/16 Q1017 NOSIG
13-07-21 METAR LIMC 210250Z 35003KT CAVOK 17/16 Q1017 NOSIG
13-07-21 METAR LIMC 210320Z 35005KT CAVOK 18/16 Q1017 NOSIG
13-07-21 METAR LIMC 210350Z 36004KT CAVOK 17/16 Q1017 NOSIG
13-07-21 METAR LIMC 210420Z 34004KT CAVOK 18/16 Q1017 NOSIG
13-07-21 METAR LIMC 210450Z 36002KT CAVOK 19/16 Q1017 NOSIG
13-07-21 METAR LIMC 210520Z 36003KT 320V030 CAVOK 20/16 Q1018 NOSIG
13-07-21 METAR LIMC 210550Z 01005KT 340V070 CAVOK 22/16 Q1018 NOSIG
13-07-21 METAR LIMC 210620Z 36005KT 330V030 CAVOK 24/16 Q1018 NOSIG
13-07-21 METAR LIMC 210650Z 35005KT 320V020 CAVOK 24/16 Q1018 NOSIG
13-07-21 METAR LIMC 210720Z VRB03KT CAVOK 26/15 Q1019 NOSIG
13-07-21 METAR LIMC 210750Z VRB07KT CAVOK 27/15 Q1019 NOSIG
13-07-21 METAR LIMC 210820Z 10007KT 010V150 CAVOK 27/15 Q1019 NOSIG
13-07-21 METAR LIMC 210850Z 11008KT 080V170 CAVOK 28/14 Q1019 NOSIG
13-07-21 METAR LIMC 210920Z 08008G22KT 330V120 CAVOK 27/15 Q1019 NOSIG
13-07-21 METAR LIMC 210950Z VRB08KT CAVOK 28/14 Q1019 NOSIG
13-07-21 METAR LIMC 211020Z 11007KT 060V160 CAVOK 28/15 Q1019 NOSIG
13-07-21 METAR LIMC 211050Z VRB05KT CAVOK 29/15 Q1019 NOSIG
13-07-21 METAR LIMC 211120Z VRB05KT CAVOK 29/14 Q1019 NOSIG
13-07-21 METAR LIMC 211150Z VRB06KT CAVOK 31/15 Q1018 NOSIG
13-07-21 METAR LIMC 211220Z 09005KT 010V150 CAVOK 30/15 Q1018 NOSIG
13-07-21 METAR LIMC 211250Z 20007KT 130V280 CAVOK 30/16 Q1018 NOSIG
13-07-21 METAR LIMC 211320Z VRB06KT 9999 FEW045 30/16 Q1018 NOSIG
13-07-21 METAR LIMC 211350Z 13005KT 090V190 9999 FEW045 31/16 Q1018 NOSIG
13-07-21 METAR LIMC 211420Z 22006G16KT 110V280 9999 FEW045 31/16 Q1017 NOSIG
13-07-21 METAR LIMC 211450Z 24006KT 150V280 9999 FEW045 31/16 Q1017 NOSIG
13-07-21 METAR LIMC 211520Z 19005KT 140V250 9999 FEW045 31/16 Q1017 NOSIG
13-07-21 METAR LIMC 211550Z 17004KT 120V200 9999 FEW045 31/16 Q1017 NOSIG
13-07-21 METAR LIMC 211620Z 17005KT 130V210 CAVOK 30/16 Q1017 NOSIG
13-07-21 METAR LIMC 211650Z VRB03KT CAVOK 30/16 Q1017 NOSIG
13-07-21 METAR LIMC 211720Z 23005KT 190V280 CAVOK 30/16 Q1017 NOSIG
13-07-21 METAR LIMC 211750Z 24005KT CAVOK 29/17 Q1017 NOSIG
13-07-21 METAR LIMC 211820Z 22005KT CAVOK 28/18 Q1017 NOSIG
13-07-21 METAR LIMC 211850Z 22004KT CAVOK 27/18 Q1017 NOSIG
13-07-21 METAR LIMC 211920Z NIL
13-07-21 METAR LIMC 211920Z 26005KT CAVOK 27/17 Q1017 NOSIG
13-07-21 METAR LIMC 211950Z 00000KT CAVOK 25/17 Q1017 NOSIG
13-07-21 METAR LIMC 212020Z VRB01KT CAVOK 26/17 Q1018 NOSIG
13-07-21 METAR LIMC 212050Z 13003KT CAVOK 23/18 Q1018 NOSIG
13-07-21 METAR LIMC 212120Z VRB01KT CAVOK 22/19 Q1018 NOSIG
13-07-21 METAR LIMC 212150Z 00000KT CAVOK 22/19 Q1018 NOSIG
13-07-21 METAR LIMC 212220Z 36004KT CAVOK 22/19 Q1018 NOSIG
13-07-21 METAR LIMC 212250Z 02003KT CAVOK 22/19 Q1018 NOSIG
13-07-21 METAR LIMC 212320Z 06005KT CAVOK 22/19 Q1018 NOSIG
13-07-21 METAR LIMC 212350Z 07005KT CAVOK 23/19 Q1018 NOSIG
13-07-22 METAR LIMC 220020Z 06005KT CAVOK 22/19 Q1018 NOSIG
13-07-22 METAR LIMC 220050Z 05002KT 9999 SCT090 23/18 Q1018 NOSIG
13-07-22 METAR LIMC 220120Z 36004KT 9999 SCT090 21/18 Q1018 NOSIG
13-07-22 METAR LIMC 220150Z 36005KT 340V060 CAVOK 21/18 Q1018 NOSIG
13-07-22 METAR LIMC 220220Z 36003KT 330V050 CAVOK 21/18 Q1018 NOSIG
13-07-22 METAR LIMC 220250Z VRB01KT CAVOK 21/18 Q1018 NOSIG
13-07-22 METAR LIMC 220320Z 35003KT 9999 SCT080 21/18 Q1018 NOSIG
13-07-22 METAR LIMC 220350Z VRB02KT 9999 FEW080 21/18 Q1018 NOSIG
13-07-22 METAR LIMC 220420Z VRB01KT CAVOK 20/18 Q1018 NOSIG
13-07-22 METAR LIMC 220450Z 35004KT CAVOK 21/18 Q1019 NOSIG
13-07-22 METAR LIMC 220520Z 34004KT 310V010 CAVOK 22/19 Q1019 NOSIG
13-07-22 METAR LIMC 220550Z 36004KT 330V030 CAVOK 23/18 Q1019 NOSIG
13-07-22 METAR LIMC 220620Z 36004KT 330V030 CAVOK 24/18 Q1019 NOSIG
13-07-22 METAR LIMC 220650Z 36003KT 330V030 CAVOK 25/18 Q1019 NOSIG
13-07-22 METAR LIMC 220720Z 35004KT 320V020 CAVOK 26/17 Q1019 NOSIG
13-07-22 METAR LIMC 220750Z NIL
13-07-22 METAR LIMC 220750Z VRB02KT CAVOK 27/17 Q1018 NOSIG
13-07-22 METAR LIMC 220820Z VRB03KT CAVOK 28/16 Q1018 NOSIG
13-07-22 METAR LIMC 220850Z VRB03KT CAVOK 29/16 Q1018 NOSIG
13-07-22 METAR LIMC 220920Z VRB03KT CAVOK 29/17 Q1018 NOSIG
13-07-22 METAR LIMC 220950Z VRB03KT CAVOK 30/16 Q1018 NOSIG
13-07-22 METAR LIMC 221020Z VRB05KT CAVOK 30/16 Q1018 NOSIG
13-07-22 METAR LIMC 221050Z 25005KT 160V290 CAVOK 30/16 Q1017 NOSIG
13-07-22 METAR LIMC 221120Z 29005KT 240V330 9999 FEW045 31/16 Q1017 NOSIG
13-07-22 METAR LIMC 221150Z 21006KT 160V290 9999 FEW045 31/17 Q1016 NOSIG
13-07-22 METAR LIMC 221220Z 21008KT 180V250 9999 FEW045 31/18 Q1016 NOSIG
13-07-22 METAR LIMC 221250Z 20009KT 120V270 9999 SCT045 31/17 Q1016 NOSIG
13-07-22 METAR LIMC 221320Z 18007KT 9999 FEW045 31/18 Q1016 NOSIG
13-07-22 METAR LIMC 221350Z 23007KT 170V290 9999 FEW045 31/17 Q1015 NOSIG
13-07-22 METAR LIMC 221420Z 25008KT 9999 FEW045 31/17 Q1015 NOSIG
13-07-22 METAR LIMC 221450Z 24008KT 200V280 9999 FEW045 31/17 Q1015 NOSIG
13-07-22 METAR LIMC 221520Z 24008KT 200V270 CAVOK 31/17 Q1015 NOSIG
13-07-22 METAR LIMC 221550Z 23006KT 200V260 CAVOK 31/17 Q1015 NOSIG
13-07-22 METAR LIMC 221620Z NIL
13-07-22 METAR LIMC 221620Z 22006KT 140V250 CAVOK 31/17 Q1014 NOSIG
13-07-22 METAR LIMC 221650Z 22005KT 170V250 CAVOK 31/17 Q1014 NOSIG
13-07-22 METAR LIMC 221720Z NIL
13-07-22 METAR LIMC 221720Z 20004KT 140V230 CAVOK 30/17 Q1014 NOSIG
13-07-22 METAR LIMC 221750Z 23004KT 190V250 CAVOK 29/18 Q1015 NOSIG
13-07-22 METAR LIMC 221820Z 23005KT CAVOK 29/17 Q1015 NOSIG
13-07-22 METAR LIMC 221850Z 21004KT CAVOK 27/18 Q1014 NOSIG
13-07-22 METAR LIMC 221920Z VRB02KT CAVOK 27/17 Q1014 NOSIG
13-07-22 METAR LIMC 221950Z 16003KT CAVOK 26/18 Q1015 NOSIG
13-07-22 METAR LIMC 222020Z VRB02KT CAVOK 25/18 Q1015 NOSIG
13-07-22 METAR LIMC 222050Z 04004KT 350V070 CAVOK 26/18 Q1016 NOSIG
13-07-22 METAR LIMC 222120Z 03014KT 350V050 9999 FEW020CB BKN070 26/16 Q1016 TEMPO TS
13-07-22 METAR LIMC 222150Z 04011KT 9999 VCTS FEW020CB SCT030 BKN080 26/12 Q1016 NOSIG
13-07-22 METAR LIMC 222220Z 34014KT 9999 VCTS FEW020CB SCT030 BKN080 24/14 Q1017
13-07-22 METAR LIMC 222320Z NIL
13-07-22 METAR LIMC 222320Z 09006KT 020V130 9999 TSRA FEW020CB SCT030 BKN080 19/18 Q1017 NOSIG
13-07-22 METAR LIMC 222350Z 34006KT 9999 TS FEW020CB SCT030 BKN080 19/18 Q1016 RERA
13-07-23 METAR LIMC 230020Z 34009KT 9999 FEW020CB SCT030 BKN080 19/18 Q1015 RETS NOSIG
13-07-23 METAR LIMC 230050Z 30007KT 9999 BKN070 20/18 Q1015 NOSIG
13-07-23 METAR LIMC 230120Z 06003KT 020V090 9999 BKN070 19/18 Q1015 NOSIG
13-07-23 METAR LIMC 230150Z 34003KT 270V080 9999 BKN070 19/17 Q1015 NOSIG
13-07-23 METAR LIMC 230220Z 30006KT 9999 SCT080 19/17 Q1015 NOSIG
13-07-23 METAR LIMC 230250Z 01007KT 9999 FEW080 19/17 Q1015 NOSIG
13-07-23 METAR LIMC 230320Z 36007KT 9999 FEW080 19/17 Q1015 NOSIG
13-07-23 METAR LIMC 230350Z 36007KT CAVOK 19/17 Q1015 NOSIG
13-07-23 METAR LIMC 230420Z 35005KT CAVOK 18/17 Q1015 NOSIG
13-07-23 METAR LIMC 230450Z 03005KT 360V070 CAVOK 18/16 Q1015 NOSIG
13-07-23 METAR LIMC 230520Z 34004KT CAVOK 20/17 Q1015 NOSIG
13-07-23 METAR LIMC 230550Z 34005KT 310V050 CAVOK 21/17 Q1015 NOSIG
13-07-23 METAR LIMC 230620Z 35004KT 320V020 CAVOK 22/17 Q1016 NOSIG
13-07-23 METAR LIMC 230650Z 36005KT 330V040 CAVOK 24/15 Q1015 NOSIG
13-07-23 METAR LIMC 230720Z 35005KT 320V020 CAVOK 25/15 Q1016 NOSIG
13-07-23 METAR LIMC 230750Z VRB03KT CAVOK 26/16 Q1016 NOSIG
13-07-23 METAR LIMC 230820Z VRB03KT CAVOK 26/15 Q1015 NOSIG
13-07-23 METAR LIMC 230850Z 06004KT 010V130 CAVOK 28/14 Q1015 NOSIG
13-07-23 METAR LIMC 230920Z 09003KT 030V160 CAVOK 28/13 Q1015 NOSIG
13-07-23 METAR LIMC 230950Z VRB03KT CAVOK 29/14 Q1015 NOSIG
13-07-23 METAR LIMC 231020Z NIL
13-07-23 METAR LIMC 231050Z 24005KT 180V320 CAVOK 30/15 Q1015 NOSIG
13-07-23 METAR LIMC 231120Z 22005KT 160V280 CAVOK 31/16 Q1014 NOSIG
13-07-23 METAR LIMC 231150Z 25004KT 180V310 CAVOK 31/16 Q1014 NOSIG
13-07-23 METAR LIMC 231220Z 23005KT 170V290 CAVOK 32/16 Q1014 NOSIG
13-07-23 METAR LIMC 231320Z 27007KT 210V350 CAVOK 31/16 Q1014 NOSIG
13-07-23 METAR LIMC 231350Z VRB06KT CAVOK 32/16 Q1013 NOSIG
13-07-23 METAR LIMC 231420Z 25008KT CAVOK 31/15 Q1013 NOSIG
13-07-23 METAR LIMC 231450Z 23008KT 190V250 CAVOK 32/16 Q1013 NOSIG
13-07-23 METAR LIMC 231520Z 24007KT 190V270 CAVOK 31/14 Q1013 NOSIG
13-07-23 METAR LIMC 231550Z 24006KT 210V280 9999 FEW080 32/13 Q1013 NOSIG
13-07-23 METAR LIMC 231620Z 24007KT 210V270 CAVOK 31/15 Q1013 NOSIG
13-07-23 METAR LIMC 231650Z 24004KT 190V280 CAVOK 31/15 Q1012 NOSIG
13-07-23 METAR LIMC 231720Z 22004KT CAVOK 30/16 Q1013 NOSIG
13-07-23 METAR LIMC 231750Z 23004KT 9999 FEW070 30/16 Q1013 NOSIG
13-07-23 METAR LIMC 231820Z VRB02KT 9999 FEW070 28/17 Q1013 NOSIG
13-07-23 METAR LIMC 231850Z VRB02KT 9999 SCT070 26/18 Q1013 NOSIG
13-07-23 METAR LIMC 231920Z VRB02KT 9999 SCT035 BKN070 26/17 Q1013 NOSIG
13-07-23 METAR LIMC 231950Z VRB01KT 9999 SCT035 BKN070 25/18 Q1013 NOSIG
13-07-23 METAR LIMC 232020Z VRB02KT 9999 SCT035 SCT070 25/18 Q1014 NOSIG
13-07-23 METAR LIMC 232050Z VRB01KT 9999 SCT035 SCT070 25/19 Q1014 NOSIG
13-07-23 METAR LIMC 232120Z 36005KT 330V040 9999 SCT030 SCT070 26/18 Q1015 NOSIG
13-07-23 METAR LIMC 232150Z 33011KT 9999 SCT030 SCT070 25/16 Q1015 NOSIG
13-07-23 METAR LIMC 232220Z 33015KT 9999 VCTS FEW030CB SCT035 24/15 Q1015 NOSIG
13-07-23 METAR LIMC 232250Z 35008KT 9999 FEW025CB BKN030 23/16 Q1015 NOSIG
13-07-23 METAR LIMC 232320Z 01007KT 9999 BKN030 23/15 Q1015 NOSIG
13-07-23 METAR LIMC 232350Z 33009KT 9999 -RA BKN030 BKN070 22/15 Q1015 NOSIG
13-07-24 METAR LIMC 240020Z 36008KT 9999 SCT070 21/16 Q1014 NOSIG
13-07-24 METAR LIMC 240050Z 01004KT 9999 SCT070 20/16 Q1015 NOSIG
13-07-24 METAR LIMC 240120Z 32003KT 9999 SCT070 20/16 Q1015 NOSIG
13-07-24 METAR LIMC 240150Z 30005KT 9999 SCT070 20/16 Q1015 NOSIG
13-07-24 METAR LIMC 240220Z 28007KT 250V310 9999 FEW070 21/16 Q1015 NOSIG
13-07-24 METAR LIMC 240250Z 32006KT 9999 FEW070 21/16 Q1015 NOSIG
13-07-24 METAR LIMC 240320Z 34007KT 9999 FEW070 20/16 Q1015 NOSIG
13-07-24 METAR LIMC 240350Z 01005KT 9999 SCT060 20/16 Q1015 NOSIG
13-07-24 METAR LIMC 240420Z 01003KT 9999 SCT060 20/16 Q1015 NOSIG
13-07-24 METAR LIMC 240450Z 35005KT 320V030 9999 SCT070 21/16 Q1015 NOSIG
13-07-24 METAR LIMC 240520Z 36005KT 330V030 9999 SCT070 21/16 Q1015 NOSIG
13-07-24 METAR LIMC 240550Z 35004KT 320V030 9999 SCT070 22/16 Q1015 NOSIG
13-07-24 METAR LIMC 240620Z 34004KT 9999 FEW070 23/15 Q1015 NOSIG
13-07-24 METAR LIMC 240650Z 30004KT 260V010 9999 FEW070 23/15 Q1016 NOSIG
13-07-24 METAR LIMC 240720Z 30005KT 9999 FEW070 23/15 Q1016 NOSIG
13-07-24 METAR LIMC 240750Z 31004KT 270V350 CAVOK 24/15 Q1016 NOSIG
13-07-24 METAR LIMC 240820Z VRB03KT CAVOK 26/14 Q1016 NOSIG
13-07-24 METAR LIMC 240820Z NIL
13-07-24 METAR LIMC 240850Z 04002KT 9999 FEW080 27/14 Q1016 NOSIG
13-07-24 METAR LIMC 240920Z VRB02KT 9999 FEW080 28/14 Q1016 NOSIG
13-07-24 METAR LIMC 240950Z 27004KT 190V360 9999 R35L/1500N R35R/1400V1500N FEW080 29/15 Q1016 NOSIG
13-07-24 METAR LIMC 241020Z 24006KT 200V270 CAVOK 29/15 Q1016 NOSIG
13-07-24 METAR LIMC 241050Z VRB04KT CAVOK 30/15 Q1015 NOSIG
13-07-24 METAR LIMC 241120Z VRB03KT CAVOK 30/15 Q1015 NOSIG
13-07-24 METAR LIMC 241150Z 21007KT 150V260 CAVOK 30/15 Q1015 NOSIG
13-07-24 METAR LIMC 241220Z 25009KT CAVOK 30/16 Q1015 NOSIG
13-07-24 METAR LIMC 241250Z 22007KT 190V250 9999 FEW040 31/15 Q1015 NOSIG
13-07-24 METAR LIMC 241320Z VRB05KT 9999 FEW040 31/15 Q1015 NOSIG
13-07-24 METAR LIMC 241350Z 25008KT 220V300 9999 FEW040 31/15 Q1014 NOSIG
13-07-24 METAR LIMC 241420Z 25007KT 190V300 9999 FEW040 31/15 Q1014 NOSIG
13-07-24 METAR LIMC 241450Z 21006KT 170V280 9999 FEW040 31/15 Q1014 NOSIG
13-07-24 METAR LIMC 241520Z 23007KT 200V270 9999 FEW070 31/15 Q1014 NOSIG
13-07-24 METAR LIMC 241550Z 25005KT 210V280 9999 BKN060 30/15 Q1014 NOSIG
13-07-24 METAR LIMC 241620Z 17003KT 100V250 9999 BKN060 32/14 Q1013 NOSIG
13-07-24 METAR LIMC 241650Z 23008KT 200V270 CAVOK 31/16 Q1014 NOSIG
13-07-24 METAR LIMC 241720Z 24008KT CAVOK 30/15 Q1014 NOSIG
13-07-24 METAR LIMC 241750Z 19011KT CAVOK 28/19 Q1014 NOSIG
13-07-24 METAR LIMC 241820Z 19010KT CAVOK 27/18 Q1015 NOSIG
13-07-24 METAR LIMC 241850Z 17003KT CAVOK 25/17 Q1014 NOSIG
13-07-24 METAR LIMC 241920Z 17004KT CAVOK 24/17 Q1015 NOSIG
13-07-24 METAR LIMC 241950Z 16004KT CAVOK 24/17 Q1015 NOSIG
13-07-24 METAR LIMC 242020Z 16005KT 9999 FEW070 24/17 Q1016 NOSIG
13-07-24 METAR LIMC 242050Z 16004KT 9999 SCT070 24/17 Q1016 NOSIG
13-07-24 METAR LIMC 242120Z 17003KT 9999 SCT070 24/18 Q1016 NOSIG
13-07-24 METAR LIMC 242150Z 18004KT 9999 BKN070 23/18 Q1016 NOSIG
13-07-24 METAR LIMC 242220Z NIL
13-07-24 METAR LIMC 242220Z 00000KT 9999 SCT070 23/18 Q1017 NOSIG
13-07-24 METAR LIMC 242250Z 00000KT 9999 SCT070 22/19 Q1017 NOSIG
13-07-24 METAR LIMC 242320Z 26004KT 9999 FEW070 22/19 Q1017 NOSIG
13-07-24 METAR LIMC 242350Z 00000KT CAVOK 21/19 Q1017 NOSIG
13-07-25 METAR LIMC 250020Z 05003KT CAVOK 21/19 Q1017 NOSIG
13-07-25 METAR LIMC 250050Z 06003KT CAVOK 20/19 Q1016 NOSIG
13-07-25 METAR LIMC 250120Z 00000KT CAVOK 20/19 Q1016 NOSIG
13-07-25 METAR LIMC 250150Z 35006KT CAVOK 20/19 Q1016 NOSIG
13-07-25 METAR LIMC 250220Z 04002KT CAVOK 20/19 Q1016 NOSIG
13-07-25 METAR LIMC 250250Z 35004KT CAVOK 20/19 Q1016 NOSIG
13-07-25 METAR LIMC 250320Z VRB02KT CAVOK 19/18 Q1017 NOSIG
13-07-25 METAR LIMC 250350Z VRB02KT CAVOK 19/19 Q1017 NOSIG
13-07-25 METAR LIMC 250420Z VRB02KT CAVOK 18/18 Q1017 NOSIG
13-07-25 METAR LIMC 250450Z VRB02KT CAVOK 19/19 Q1017 NOSIG
13-07-25 METAR LIMC 250520Z 02004KT 350V060 CAVOK 21/20 Q1017 NOSIG
13-07-25 METAR LIMC 250550Z 02004KT CAVOK 23/19 Q1017 NOSIG
13-07-25 METAR LIMC 250620Z VRB02KT CAVOK 24/19 Q1017 NOSIG
13-07-25 METAR LIMC 250650Z 04004KT 340V070 CAVOK 25/18 Q1017 NOSIG
13-07-25 METAR LIMC 250720Z 00000KT CAVOK 26/18 Q1017 NOSIG
13-07-25 METAR LIMC 250750Z VRB02KT CAVOK 27/17 Q1017 NOSIG
13-07-25 METAR LIMC 250820Z VRB03KT CAVOK 28/17 Q1017 NOSIG
13-07-25 METAR LIMC 250850Z VRB03KT CAVOK 28/17 Q1017 NOSIG
13-07-25 METAR LIMC 250920Z 13005KT 080V180 CAVOK 29/18 Q1017 NOSIG
13-07-25 METAR LIMC 250950Z VRB04KT CAVOK 30/18 Q1017 NOSIG
13-07-25 METAR LIMC 251020Z 20005KT 150V260 CAVOK 29/18 Q1017 NOSIG
13-07-25 METAR LIMC 251050Z NIL
13-07-25 METAR LIMC 251050Z 21008KT 120V260 CAVOK 30/19 Q1017 NOSIG
13-07-25 METAR LIMC 251120Z VRB05KT 9999 FEW030 30/19 Q1017 NOSIG
13-07-25 METAR LIMC 251150Z 24007KT 200V280 9999 FEW030 31/19 Q1016 NOSIG
13-07-25 METAR LIMC 251220Z 22007KT 170V280 9999 FEW030 31/18 Q1016 NOSIG
13-07-25 METAR LIMC 251250Z 22006KT 160V270 9999 FEW030 31/18 Q1016 NOSIG
13-07-25 METAR LIMC 251320Z 24008KT 190V290 CAVOK 31/18 Q1016 NOSIG
13-07-25 METAR LIMC 251350Z 23008KT 190V260 CAVOK 31/18 Q1016 NOSIG
13-07-25 METAR LIMC 251450Z 23008KT 180V260 CAVOK 32/17 Q1015 NOSIG
13-07-25 METAR LIMC 251520Z 23008KT 210V270 CAVOK 32/18 Q1015 NOSIG
13-07-25 METAR LIMC 251550Z 22008KT 180V270 CAVOK 32/17 Q1015 NOSIG
13-07-25 METAR LIMC 251620Z 23007KT 170V270 CAVOK 31/18 Q1015 NOSIG
13-07-25 METAR LIMC 251650Z 22007KT CAVOK 31/17 Q1015 NOSIG
13-07-25 METAR LIMC 251720Z 23005KT 190V260 CAVOK 31/17 Q1015 NOSIG
13-07-25 METAR LIMC 251750Z 24004KT 200V260 CAVOK 30/18 Q1015 NOSIG
13-07-25 METAR LIMC 251820Z VRB02KT CAVOK 29/19 Q1015 NOSIG
13-07-25 METAR LIMC 251850Z VRB02KT CAVOK 28/19 Q1016 NOSIG
13-07-25 METAR LIMC 251920Z 16002KT CAVOK 25/19 Q1016 NOSIG
13-07-25 METAR LIMC 251950Z 14001KT CAVOK 25/20 Q1016 NOSIG
13-07-25 METAR LIMC 252020Z 15003KT CAVOK 25/20 Q1016 NOSIG
13-07-25 METAR LIMC 252050Z 17004KT CAVOK 25/20 Q1016 NOSIG
13-07-25 METAR LIMC 252120Z 19003KT 160V220 CAVOK 25/19 Q1017 NOSIG
13-07-25 METAR LIMC 252150Z VRB02KT CAVOK 25/19 Q1017 NOSIG
13-07-25 METAR LIMC 252220Z VRB02KT CAVOK 23/19 Q1017 NOSIG
13-07-25 METAR LIMC 252250Z VRB01KT CAVOK 22/20 Q1017 NOSIG
13-07-25 METAR LIMC 252320Z 07001KT CAVOK 22/20 Q1017 NOSIG
13-07-25 METAR LIMC 252350Z 04002KT CAVOK 22/20 Q1017 NOSIG
13-07-26 METAR LIMC 260020Z 04002KT CAVOK 22/20 Q1017 NOSIG
13-07-26 METAR LIMC 260050Z VRB02KT CAVOK 21/20 Q1017 NOSIG
13-07-26 METAR LIMC 260120Z VRB02KT CAVOK 21/20 Q1017 NOSIG
13-07-26 METAR LIMC 260150Z 36002KT CAVOK 20/20 Q1016 NOSIG
13-07-26 METAR LIMC 260220Z VRB02KT CAVOK 21/20 Q1016 NOSIG
13-07-26 METAR LIMC 260250Z VRB02KT CAVOK 20/20 Q1017 NOSIG
13-07-26 METAR LIMC 260320Z VRB02KT CAVOK 20/20 Q1017 NOSIG
13-07-26 METAR LIMC 260350Z 36002KT CAVOK 20/19 Q1017 NOSIG
13-07-26 METAR LIMC 260420Z 01003KT 320V040 CAVOK 20/19 Q1017 NOSIG
13-07-26 METAR LIMC 260450Z VRB02KT CAVOK 21/20 Q1017 NOSIG
13-07-26 METAR LIMC 260520Z VRB02KT CAVOK 23/20 Q1017 NOSIG
13-07-26 METAR LIMC 260550Z 01003KT 330V040 CAVOK 24/20 Q1017 NOSIG
13-07-26 METAR LIMC 260620Z 34003KT 310V010 CAVOK 25/19 Q1017 NOSIG
13-07-26 METAR LIMC 260650Z 32003KT 260V050 CAVOK 26/19 Q1018 NOSIG
13-07-26 METAR LIMC 260720Z 36003KT 290V060 CAVOK 26/19 Q1018 NOSIG
13-07-26 METAR LIMC 260750Z 06005KT 020V090 CAVOK 28/18 Q1018 NOSIG
13-07-26 METAR LIMC 260820Z VRB03KT CAVOK 29/19 Q1017 NOSIG
13-07-26 METAR LIMC 260850Z NIL
13-07-26 METAR LIMC 260850Z VRB03KT 9999 SCT045 30/19 Q1018 NOSIG
13-07-26 METAR LIMC 260920Z VRB03KT 9999 SCT045 29/19 Q1017 NOSIG
13-07-26 METAR LIMC 260950Z VRB04KT 9999 SCT030 31/19 Q1017 NOSIG
13-07-26 METAR LIMC 261020Z VRB03KT 9999 SCT030 32/19 Q1017 NOSIG
13-07-26 METAR LIMC 261050Z 20005KT 120V270 9999 SCT030 31/18 Q1017 NOSIG
13-07-26 METAR LIMC 261120Z VRB03KT 9999 SCT030 31/18 Q1016 NOSIG
13-07-26 METAR LIMC 261150Z 22006KT 160V280 9999 SCT030 31/18 Q1016 NOSIG
13-07-26 METAR LIMC 261220Z 20005KT 140V260 9999 SCT040 33/18 Q1016 NOSIG
13-07-26 METAR LIMC 261250Z 20006KT 130V270 9999 FEW038TCU SCT040 32/18 Q1016 NOSIG
13-07-26 METAR LIMC 261320Z 20005KT 120V250 9999 FEW038TCU SCT040 32/18 Q1015 NOSIG
13-07-26 METAR LIMC 261350Z 19006KT 130V240 9999 SCT040 33/18 Q1015 NOSIG
13-07-26 METAR LIMC 261420Z 22006KT 160V300 9999 SCT040 33/17 Q1015 NOSIG
13-07-26 METAR LIMC 261450Z 23006KT 180V280 9999 SCT040 33/19 Q1015 NOSIG
13-07-26 METAR LIMC 261520Z 25008KT 190V290 9999 FEW040TCU 32/18 Q1015 NOSIG
13-07-26 METAR LIMC 261620Z 25006KT 220V290 9999 SCT090 31/18 Q1015 NOSIG
13-07-26 METAR LIMC 261650Z VRB05KT 9999 SCT090 32/18 Q1014 NOSIG
13-07-26 METAR LIMC 261720Z 20004KT 180V240 CAVOK 32/17 Q1014 NOSIG
13-07-26 METAR LIMC 261750Z 23007KT CAVOK 30/19 Q1014 NOSIG
13-07-26 METAR LIMC 261820Z 23005KT CAVOK 30/20 Q1014 NOSIG
13-07-26 METAR LIMC 261850Z 28005KT CAVOK 29/19 Q1015 NOSIG
13-07-26 METAR LIMC 261920Z 35004KT 320V030 CAVOK 28/19 Q1015 NOSIG
13-07-26 METAR LIMC 261950Z 02003KT 330V050 CAVOK 26/19 Q1015 NOSIG
13-07-26 METAR LIMC 262020Z VRB02KT CAVOK 25/20 Q1015 NOSIG
13-07-26 METAR LIMC 262050Z 35003KT 320V020 CAVOK 25/21 Q1015 NOSIG
13-07-26 METAR LIMC 262120Z 36003KT 330V050 CAVOK 25/21 Q1015 NOSIG
13-07-26 METAR LIMC 262150Z VRB02KT CAVOK 24/21 Q1015 NOSIG
13-07-26 METAR LIMC 262220Z 31002KT CAVOK 24/21 Q1015 NOSIG
13-07-26 METAR LIMC 262250Z 35004KT 330V030 CAVOK 24/21 Q1015 NOSIG
13-07-26 METAR LIMC 262320Z 36004KT 340V040 CAVOK 23/21 Q1015 NOSIG
13-07-26 METAR LIMC 262350Z 34004KT CAVOK 22/21 Q1015 NOSIG
13-07-27 METAR LIMC 270020Z 01004KT CAVOK 22/20 Q1015 NOSIG
13-07-27 METAR LIMC 270050Z 35002KT CAVOK 22/20 Q1015 NOSIG
13-07-27 METAR LIMC 270120Z 35002KT CAVOK 22/20 Q1015 NOSIG
13-07-27 METAR LIMC 270150Z 34005KT 310V020 CAVOK 22/20 Q1015 NOSIG
13-07-27 METAR LIMC 270220Z 34004KT CAVOK 22/19 Q1015 NOSIG
13-07-27 METAR LIMC 270250Z 35005KT CAVOK 22/19 Q1014 NOSIG
13-07-27 METAR LIMC 270320Z NIL
13-07-27 METAR LIMC 270320Z 36003KT 330V030 CAVOK 21/19 Q1015 NOSIG
13-07-27 METAR LIMC 270350Z 36004KT CAVOK 21/19 Q1015 NOSIG
13-07-27 METAR LIMC 270420Z 34006KT CAVOK 21/19 Q1015 NOSIG
13-07-27 METAR LIMC 270450Z 36004KT 340V040 CAVOK 23/19 Q1015 NOSIG
13-07-27 METAR LIMC 270520Z 35006KT CAVOK 24/20 Q1015 NOSIG
13-07-27 METAR LIMC 270550Z 36005KT 340V040 CAVOK 25/19 Q1015 NOSIG
13-07-27 METAR LIMC 270620Z 01004KT 350V060 CAVOK 25/19 Q1015 NOSIG
13-07-27 METAR LIMC 270650Z 02003KT 340V070 CAVOK 27/19 Q1015 NOSIG
13-07-27 METAR LIMC 270720Z 36004KT 320V040 CAVOK 28/19 Q1015 NOSIG
13-07-27 METAR LIMC 270750Z VRB02KT CAVOK 29/19 Q1015 NOSIG
13-07-27 METAR LIMC 270820Z VRB02KT CAVOK 29/19 Q1015 NOSIG
13-07-27 METAR LIMC 270850Z VRB02KT CAVOK 30/18 Q1015 NOSIG
13-07-27 METAR LIMC 270920Z 12004KT 030V190 CAVOK 31/19 Q1015 NOSIG
13-07-27 METAR LIMC 270950Z VRB03KT CAVOK 32/19 Q1015 NOSIG
13-07-27 METAR LIMC 271020Z 22005KT 140V240 9999 SCT040 31/18 Q1014 NOSIG
13-07-27 METAR LIMC 271050Z VRB04KT 9999 SCT040 31/18 Q1014 NOSIG
13-07-27 METAR LIMC 271120Z VRB05KT 9999 SCT040 33/19 Q1014 NOSIG
13-07-27 METAR LIMC 271150Z 19004KT 120V240 9999 SCT040 33/18 Q1014 NOSIG
13-07-27 METAR LIMC 271220Z 23007KT 160V270 9999 SCT040 33/18 Q1014 NOSIG
13-07-27 METAR LIMC 271250Z 21007KT 150V260 9999 FEW030TCU SCT040 34/20 Q1014 NOSIG
13-07-27 METAR LIMC 271320Z 21008KT 150V270 9999 FEW030TCU SCT040 34/19 Q1013 NOSIG
13-07-27 METAR LIMC 271350Z 20008KT 150V250 9999 FEW030 34/20 Q1013 NOSIG
13-07-27 METAR LIMC 271420Z 18007KT 120V230 9999 FEW040 34/18 Q1013 NOSIG
13-07-27 METAR LIMC 271450Z 19007KT 120V240 9999 FEW040 34/19 Q1013 NOSIG
13-07-27 METAR LIMC 271520Z 23008KT 200V280 9999 FEW040 33/19 Q1013 NOSIG
13-07-27 METAR LIMC 271550Z 24007KT 180V290 CAVOK 33/19 Q1013 NOSIG
13-07-27 METAR LIMC 271620Z NIL
13-07-27 METAR LIMC 271620Z 23008KT CAVOK 33/19 Q1013 NOSIG
13-07-27 METAR LIMC 271650Z 22005KT 190V260 CAVOK 33/18 Q1013 NOSIG
13-07-27 METAR LIMC 271720Z 25006KT CAVOK 32/18 Q1012 NOSIG
13-07-27 METAR LIMC 271750Z 24005KT 210V270 CAVOK 32/18 Q1012 NOSIG
13-07-27 METAR LIMC 271820Z 26004KT 230V300 CAVOK 31/18 Q1013 NOSIG
13-07-27 METAR LIMC 271850Z VRB02KT CAVOK 29/18 Q1013 NOSIG
13-07-27 METAR LIMC 271920Z VRB01KT CAVOK 27/19 Q1013 NOSIG
13-07-27 METAR LIMC 271950Z VRB02KT CAVOK 26/19 Q1013 NOSIG
13-07-27 METAR LIMC 272020Z 17005KT CAVOK 27/18 Q1014 NOSIG
13-07-27 METAR LIMC 272050Z 12006KT 030V160 CAVOK 27/18 Q1013 NOSIG
13-07-27 METAR LIMC 272120Z 23004KT 150V280 9999 SCT070 27/19 Q1014 NOSIG
13-07-27 METAR LIMC 272150Z 16003KT 9999 SCT070 25/19 Q1014 NOSIG
13-07-27 METAR LIMC 272220Z 16003KT 9999 SCT070 25/18 Q1014 NOSIG
13-07-27 METAR LIMC 272250Z 18002KT CAVOK 25/18 Q1014 NOSIG
13-07-27 METAR LIMC 272320Z VRB01KT CAVOK 24/19 Q1014 NOSIG
13-07-27 METAR LIMC 272350Z VRB02KT CAVOK 22/19 Q1015 NOSIG
13-07-28 METAR LIMC 280020Z 35004KT CAVOK 23/20 Q1015 NOSIG
13-07-28 METAR LIMC 280050Z 06003KT CAVOK 22/19 Q1015 NOSIG
13-07-28 METAR LIMC 280120Z 07005KT CAVOK 23/19 Q1015 NOSIG
13-07-28 METAR LIMC 280150Z VRB01KT CAVOK 22/20 Q1015 NOSIG
13-07-28 METAR LIMC 280220Z 06006KT CAVOK 23/20 Q1014 NOSIG
13-07-28 METAR LIMC 280250Z VRB01KT CAVOK 23/20 Q1015 NOSIG
13-07-28 METAR LIMC 280320Z 06005KT 9999 BKN085 23/20 Q1015 NOSIG
13-07-28 METAR LIMC 280350Z 08005KT 9999 SCT085 24/19 Q1015 NOSIG
13-07-28 METAR LIMC 280420Z 09004KT 050V120 9999 FEW090 24/18 Q1015 NOSIG
13-07-28 METAR LIMC 280450Z 07004KT CAVOK 24/19 Q1015 NOSIG
13-07-28 METAR LIMC 280520Z 06004KT 360V080 CAVOK 24/18 Q1015 NOSIG
13-07-28 METAR LIMC 280550Z 08004KT CAVOK 25/18 Q1015 NOSIG
13-07-28 METAR LIMC 280620Z 11002KT CAVOK 27/18 Q1016 NOSIG
13-07-28 METAR LIMC 280650Z 10004KT CAVOK 28/17 Q1016 NOSIG
13-07-28 METAR LIMC 280720Z VRB02KT CAVOK 29/17 Q1016 NOSIG
13-07-28 METAR LIMC 280750Z VRB02KT CAVOK 30/16 Q1016 NOSIG
13-07-28 METAR LIMC 280820Z 23004KT 190V310 CAVOK 30/15 Q1016 NOSIG
13-07-28 METAR LIMC 280850Z VRB02KT CAVOK 30/15 Q1016 NOSIG
13-07-28 METAR LIMC 280920Z VRB03KT CAVOK 31/15 Q1015 NOSIG
13-07-28 METAR LIMC 280950Z 17005KT 090V240 CAVOK 31/14 Q1015 NOSIG
13-07-28 METAR LIMC 281020Z VRB04KT CAVOK 33/13 Q1015 NOSIG
13-07-28 METAR LIMC 281050Z 18006KT 130V230 CAVOK 32/12 Q1015 NOSIG
13-07-28 METAR LIMC 281120Z 15007KT 060V180 CAVOK 33/12 Q1015 NOSIG
13-07-28 METAR LIMC 281150Z 16008KT 120V200 CAVOK 33/13 Q1015 NOSIG
13-07-28 METAR LIMC 281220Z 21009KT 150V240 CAVOK 34/13 Q1015 NOSIG
13-07-28 METAR LIMC 281250Z 21010KT 170V270 CAVOK 34/13 Q1015 NOSIG
13-07-28 METAR LIMC 281320Z 16008G18KT 120V230 CAVOK 33/13 Q1014 NOSIG
13-07-28 METAR LIMC 281350Z 17008KT 140V210 CAVOK 33/13 Q1014 NOSIG
13-07-28 METAR LIMC 281420Z 17008KT 130V200 CAVOK 33/14 Q1014 NOSIG
13-07-28 METAR LIMC 281450Z 18008KT 140V250 CAVOK 33/14 Q1014 NOSIG
13-07-28 METAR LIMC 281520Z 16007KT 100V250 CAVOK 33/14 Q1014 NOSIG
13-07-28 METAR LIMC 281550Z 18008KT 140V210 CAVOK 33/14 Q1014 NOSIG
13-07-28 METAR LIMC 281620Z 21007KT 160V270 CAVOK 33/14 Q1014 NOSIG
13-07-28 METAR LIMC 281650Z 21006KT CAVOK 33/14 Q1014 NOSIG
13-07-28 METAR LIMC 281720Z 21007KT 190V250 CAVOK 32/14 Q1014 NOSIG
13-07-28 METAR LIMC 281750Z 23008KT CAVOK 31/13 Q1014 NOSIG
13-07-28 METAR LIMC 281820Z 25005KT CAVOK 30/13 Q1014 NOSIG
13-07-28 METAR LIMC 281850Z NIL
13-07-28 METAR LIMC 281850Z 27004KT 220V290 CAVOK 29/12 Q1014 NOSIG
13-07-28 METAR LIMC 281920Z 25003KT 190V310 9999 FEW050 28/13 Q1014 NOSIG
13-07-28 METAR LIMC 281950Z 00000KT 9999 FEW050 27/14 Q1014 NOSIG
13-07-28 METAR LIMC 282020Z VRB02KT 9999 FEW040 27/14 Q1015 NOSIG
13-07-28 METAR LIMC 282050Z VRB02KT 9999 FEW040 26/14 Q1015 NOSIG
13-07-28 METAR LIMC 282120Z VRB02KT 9999 FEW040 25/15 Q1015 NOSIG
13-07-28 METAR LIMC 282150Z VRB02KT 9999 FEW040 25/15 Q1015 NOSIG
13-07-28 METAR LIMC 282220Z VRB02KT 9999 FEW040 24/15 Q1015 NOSIG
13-07-28 METAR LIMC 282250Z VRB02KT CAVOK 22/16 Q1015 NOSIG
13-07-28 METAR LIMC 282350Z 00000KT CAVOK 21/16 Q1015 NOSIG
13-07-29 METAR LIMC 290020Z VRB02KT CAVOK 21/17 Q1015 NOSIG
13-07-29 METAR LIMC 290050Z 10003KT 030V190 CAVOK 21/17 Q1015 NOSIG
13-07-29 METAR LIMC 290120Z 34004KT 290V010 CAVOK 22/16 Q1015 NOSIG
13-07-29 METAR LIMC 290150Z VRB01KT CAVOK 21/17 Q1015 NOSIG
13-07-29 METAR LIMC 290220Z 07003KT CAVOK 20/18 Q1015 NOSIG
13-07-29 METAR LIMC 290250Z 36004KT 330V050 CAVOK 20/17 Q1015 NOSIG
13-07-29 METAR LIMC 290320Z 08004KT 050V110 CAVOK 21/18 Q1015 NOSIG
13-07-29 METAR LIMC 290350Z VRB01KT 9999 FEW080 20/18 Q1015 NOSIG
13-07-29 METAR LIMC 290420Z 35003KT 320V020 9999 FEW080 21/18 Q1015 NOSIG
13-07-29 METAR LIMC 290450Z VRB02KT 9999 SCT060 21/19 Q1015 NOSIG
13-07-29 METAR LIMC 290520Z 34003KT 260V010 9999 SCT060 24/19 Q1014 NOSIG
13-07-29 METAR LIMC 290550Z 11003KT 070V140 9999 -RA SCT040 BKN070 24/19 Q1014 NOSIG
13-07-29 METAR LIMC 290620Z VRB05G16KT 9999 SCT040 BKN070 24/19 Q1013 NOSIG
13-07-29 METAR LIMC 290650Z 10006KT 070V140 9999 SCT040 BKN070 23/20 Q1013 NOSIG
13-07-29 METAR LIMC 290720Z NIL
13-07-29 METAR LIMC 290750Z 12009G21KT 070V170 4000 RA SCT025 OVC070 23/18 Q1014 BECMG TS
13-07-29 METAR LIMC 290820Z 10012KT 060V140 9999 RA SCT025 OVC070 20/17 Q1012 NOSIG
13-07-29 METAR LIMC 290850Z 24005KT 210V290 9999 SCT035 SCT060 21/18 Q1015 RERA
13-07-29 METAR LIMC 290920Z VRB02KT 9999 SCT035 BKN070 22/17 Q1014 NOSIG
13-07-29 METAR LIMC 290950Z 06008G23KT 310V090 9999 SCT035 BKN070 22/18 Q1014 NOSIG
13-07-29 METAR LIMC 291020Z 01009KT 340V040 9999 SCT035 BKN070 22/18 Q1013 NOSIG
13-07-29 METAR LIMC 291050Z 35004KT 310V070 9999 BKN025 BKN070 23/17 Q1013 NOSIG
13-07-29 METAR LIMC 291120Z 23001KT 9999 BKN020 BKN070 24/16 Q1013 NOSIG
13-07-29 METAR LIMC 291150Z 32016KT 9999 R35L/1500N R35R/1400V1500N BKN020 BKN070 22/18 Q1012 NOSIG
13-07-29 METAR LIMC 291220Z 33007KT 300V010 9999 BKN020 BKN070 24/17 Q1012 NOSIG
13-07-29 METAR LIMC 291250Z 29006KT 230V350 9999 SCT020 SCT070 26/17 Q1012 BECMG TS
13-07-29 METAR LIMC 291320Z 31017KT 280V340 9999 TSRA FEW025CB BKN070 21/18 Q1012
13-07-29 METAR LIMC 291350Z 34018KT 8000 R35L///// R35R/1300V1500N TSRA SCT025CB BKN070 18/18 Q1013 NOSIG
13-07-29 METAR LIMC 291420Z NIL
13-07-29 METAR LIMC 291420Z 03005KT 340V080 9999 TS FEW030CB BKN070 18/17 Q1014 RETSRA NOSIG
13-07-29 METAR LIMC 291450Z 01009KT 340V060 9999 FEW030 BKN080 19/17 Q1014 RETS
13-07-29 METAR LIMC 291520Z 03010G23KT 350V080 9999 FEW030 SCT080 20/16 Q1015 NOSIG
13-07-29 METAR LIMC 291550Z 01006KT 340V060 9999 FEW050 SCT080 20/15 Q1015 WS RWY 35R NOSIG
13-07-29 METAR LIMC 291620Z 36005KT 320V050 9999 FEW080 21/14 Q1016 WS RWY 35R
13-07-29 METAR LIMC 291650Z 34007KT 310V010 9999 FEW080 21/13 Q1016 NOSIG
13-07-29 METAR LIMC 291720Z 03005KT 350V070 CAVOK 21/14 Q1016 NOSIG
13-07-29 METAR LIMC 291750Z 02007KT CAVOK 21/13 Q1016 NOSIG
13-07-29 METAR LIMC 291820Z 02006KT 340V040 CAVOK 20/14 Q1016 NOSIG
13-07-29 METAR LIMC 291850Z 32005KT CAVOK 18/15 Q1016 NOSIG
13-07-29 METAR LIMC 291920Z VRB01KT CAVOK 17/15 Q1017 NOSIG
13-07-29 METAR LIMC 291950Z 31004KT CAVOK 17/15 Q1017 NOSIG
13-07-29 METAR LIMC 292020Z 32007KT 290V360 CAVOK 18/15 Q1017 NOSIG
13-07-29 METAR LIMC 292050Z 34006KT 300V010 CAVOK 17/15 Q1017 NOSIG
13-07-29 METAR LIMC 292120Z 31005KT CAVOK 16/15 Q1018 NOSIG
13-07-29 METAR LIMC 292150Z 01003KT 320V030 CAVOK 15/15 Q1018 NOSIG
13-07-29 METAR LIMC 292220Z VRB02KT CAVOK 15/15 Q1018 NOSIG
13-07-29 METAR LIMC 292250Z 36004KT 330V030 CAVOK 15/15 Q1018 NOSIG
13-07-29 METAR LIMC 292320Z 35004KT CAVOK 15/14 Q1018 NOSIG
13-07-29 METAR LIMC 292350Z 36004KT CAVOK 16/14 Q1018 NOSIG
13-07-30 METAR LIMC 300020Z VRB02KT CAVOK 15/14 Q1018 NOSIG
13-07-30 METAR LIMC 300050Z VRB02KT CAVOK 14/14 Q1018 NOSIG
13-07-30 METAR LIMC 300120Z VRB02KT CAVOK 14/14 Q1018 NOSIG
13-07-30 METAR LIMC 300150Z 32003KT CAVOK 13/13 Q1018 NOSIG
13-07-30 METAR LIMC 300220Z VRB02KT CAVOK 13/13 Q1018 NOSIG
13-07-30 METAR LIMC 300250Z 33007KT CAVOK 13/12 Q1018 NOSIG
13-07-30 METAR LIMC 300320Z 35003KT 310V060 CAVOK 13/12 Q1018 NOSIG
13-07-30 METAR LIMC 300350Z 34002KT CAVOK 13/12 Q1018 NOSIG
13-07-30 METAR LIMC 300420Z 34003KT 300V020 CAVOK 12/12 Q1018 NOSIG
13-07-30 METAR LIMC 300450Z VRB01KT CAVOK 14/12 Q1019 NOSIG
13-07-30 METAR LIMC 300520Z 32007KT CAVOK 17/12 Q1018 NOSIG
13-07-30 METAR LIMC 300550Z 33007KT CAVOK 18/13 Q1019 NOSIG
13-07-30 METAR LIMC 300620Z 30006KT CAVOK 20/12 Q1019 NOSIG
13-07-30 METAR LIMC 300650Z 32006KT 280V340 CAVOK 21/13 Q1019 NOSIG
13-07-30 METAR LIMC 300720Z 31006KT CAVOK 22/13 Q1019 NOSIG
13-07-30 METAR LIMC 300750Z 29005KT 250V330 CAVOK 23/14 Q1019 NOSIG
13-07-30 METAR LIMC 300820Z 30007KT CAVOK 25/14 Q1019 NOSIG
13-07-30 METAR LIMC 300850Z 32007KT 290V360 CAVOK 27/11 Q1019 NOSIG
13-07-30 METAR LIMC 300920Z 34007KT 300V010 CAVOK 28/09 Q1019 NOSIG
13-07-30 METAR LIMC 300950Z 32007KT 290V010 CAVOK 28/08 Q1019 NOSIG
13-07-30 METAR LIMC 301020Z 30006KT 250V330 CAVOK 29/07 Q1019 NOSIG
13-07-30 METAR LIMC 301050Z 31005KT 250V360 CAVOK 29/05 Q1019 NOSIG
13-07-30 METAR LIMC 301120Z VRB05KT CAVOK 29/07 Q1018 NOSIG
13-07-30 METAR LIMC 301150Z 33005KT 280V040 CAVOK 30/07 Q1018 NOSIG
13-07-30 METAR LIMC 301220Z 34006KT 300V010 CAVOK 30/07 Q1018 NOSIG
13-07-30 METAR LIMC 301250Z 02003KT 320V120 CAVOK 30/07 Q1018 NOSIG
13-07-30 METAR LIMC 301320Z VRB04KT CAVOK 30/07 Q1018 NOSIG
13-07-30 METAR LIMC 301350Z 21005KT 150V260 CAVOK 31/11 Q1018 NOSIG
13-07-30 METAR LIMC 301420Z 14008KT 090V190 CAVOK 30/11 Q1018 NOSIG
13-07-30 METAR LIMC 301450Z 21007KT 180V250 CAVOK 30/11 Q1017 NOSIG
13-07-30 METAR LIMC 301520Z 17007KT 130V200 CAVOK 30/11 Q1017 NOSIG
13-07-30 METAR LIMC 301550Z 19007KT 160V230 CAVOK 29/10 Q1017 NOSIG
13-07-30 METAR LIMC 301620Z 22007KT 170V260 CAVOK 29/11 Q1017 NOSIG
13-07-30 METAR LIMC 301650Z 23008KT CAVOK 29/11 Q1017 NOSIG
13-07-30 METAR LIMC 301720Z 24008KT CAVOK 28/11 Q1017 NOSIG
13-07-30 METAR LIMC 301750Z 22006KT CAVOK 28/11 Q1017 NOSIG
13-07-30 METAR LIMC 301820Z 22005KT CAVOK 27/12 Q1017 NOSIG
13-07-30 METAR LIMC 301850Z 20003KT 180V260 CAVOK 25/13 Q1018 NOSIG
13-07-30 METAR LIMC 301920Z 14003KT CAVOK 24/13 Q1018 NOSIG
13-07-30 METAR LIMC 301950Z 00000KT CAVOK 22/13 Q1018 NOSIG
13-07-30 METAR LIMC 302020Z VRB01KT CAVOK 21/14 Q1018 NOSIG
13-07-30 METAR LIMC 302050Z 36003KT 330V060 CAVOK 20/13 Q1019 NOSIG
13-07-30 METAR LIMC 302120Z 03002KT CAVOK 18/15 Q1019 NOSIG
13-07-30 METAR LIMC 302150Z VRB01KT CAVOK 18/15 Q1019 NOSIG
13-07-30 METAR LIMC 302220Z 06003KT 360V110 CAVOK 18/15 Q1019 NOSIG
13-07-30 METAR LIMC 302250Z VRB02KT CAVOK 18/15 Q1019 NOSIG
13-07-30 METAR LIMC 302320Z 00000KT CAVOK 17/16 Q1019 NOSIG
13-07-30 METAR LIMC 302350Z 36003KT CAVOK 18/15 Q1019 NOSIG
13-07-31 METAR LIMC 310020Z 35006KT CAVOK 18/15 Q1019 NOSIG
13-07-31 METAR LIMC 310050Z 02003KT CAVOK 17/15 Q1019 NOSIG
13-07-31 METAR LIMC 310120Z VRB02KT CAVOK 17/15 Q1019 NOSIG
13-07-31 METAR LIMC 310150Z 35006KT CAVOK 17/15 Q1019 NOSIG
13-07-31 METAR LIMC 310220Z 36004KT CAVOK 17/15 Q1019 NOSIG
13-07-31 METAR LIMC 310250Z NIL
13-07-31 METAR LIMC 310250Z 01004KT CAVOK 17/14 Q1019 NOSIG
13-07-31 METAR LIMC 310320Z 06004KT CAVOK 17/14 Q1019 NOSIG
13-07-31 METAR LIMC 310350Z VRB02KT CAVOK 17/14 Q1019 NOSIG
13-07-31 METAR LIMC 310420Z 36004KT 300V030 CAVOK 17/13 Q1019 NOSIG
13-07-31 METAR LIMC 310450Z 36004KT CAVOK 16/14 Q1020 NOSIG
13-07-31 METAR LIMC 310520Z 02004KT 340V080 CAVOK 19/14 Q1020 NOSIG
13-07-31 METAR LIMC 310620Z 01005KT 330V070 CAVOK 22/13 Q1020 NOSIG
13-07-31 METAR LIMC 310650Z 02003KT 330V070 CAVOK 24/13 Q1020 NOSIG
13-07-31 METAR LIMC 310720Z VRB02KT CAVOK 25/12 Q1020 NOSIG
13-07-31 METAR LIMC 310750Z 24002KT CAVOK 26/12 Q1020 NOSIG
13-07-31 METAR LIMC 310820Z 09003KT 010V170 CAVOK 27/12 Q1020 NOSIG
13-07-31 METAR LIMC 310850Z VRB04KT CAVOK 27/12 Q1020 NOSIG
13-07-31 METAR LIMC 310920Z NIL
13-07-31 METAR LIMC 310920Z VRB03KT CAVOK 28/12 Q1020 NOSIG
13-07-31 METAR LIMC 310950Z VRB04KT CAVOK 28/11 Q1020 NOSIG
13-07-31 METAR LIMC 311020Z VRB05KT CAVOK 29/13 Q1020 NOSIG
13-07-31 METAR LIMC 311050Z VRB05KT CAVOK 29/12 Q1020 NOSIG
13-07-31 METAR LIMC 311120Z 13007KT 080V210 CAVOK 29/13 Q1019 NOSIG
13-07-31 METAR LIMC 311150Z 19003KT CAVOK 30/12 Q1019 NOSIG
13-07-31 METAR LIMC 311220Z 15005KT 090V260 CAVOK 30/12 Q1019 NOSIG
13-07-31 METAR LIMC 311250Z 16005KT 110V230 CAVOK 31/13 Q1018 NOSIG
13-07-31 METAR LIMC 311320Z 20005KT 150V260 CAVOK 30/13 Q1018 NOSIG
13-07-31 METAR LIMC 311350Z VRB03KT CAVOK 31/13 Q1018 NOSIG
13-07-31 METAR LIMC 311420Z 16006KT 090V220 CAVOK 31/14 Q1018 NOSIG
13-07-31 METAR LIMC 311450Z 14006KT 090V190 CAVOK 30/14 Q1018 NOSIG
13-07-31 METAR LIMC 311520Z 24007KT 190V260 CAVOK 30/15 Q1017 NOSIG
13-07-31 METAR LIMC 311550Z 20005KT 150V250 CAVOK 30/15 Q1017 NOSIG
13-07-31 METAR LIMC 311620Z 24006KT CAVOK 30/14 Q1017 NOSIG
13-07-31 METAR LIMC 311650Z 21005KT CAVOK 30/14 Q1017 NOSIG
13-07-31 METAR LIMC 311720Z 21005KT CAVOK 30/13 Q1017 NOSIG
13-07-31 METAR LIMC 311750Z 23005KT CAVOK 29/12 Q1017 NOSIG
13-07-31 METAR LIMC 311820Z 21004KT CAVOK 27/13 Q1017 NOSIG
13-07-31 METAR LIMC 311850Z VRB02KT CAVOK 25/14 Q1017 NOSIG
13-07-31 METAR LIMC 311920Z VRB01KT CAVOK 25/14 Q1018 NOSIG
13-07-31 METAR LIMC 311950Z VRB02KT CAVOK 22/15 Q1018 NOSIG
13-07-31 METAR LIMC 312020Z VRB02KT CAVOK 21/15 Q1018 NOSIG
13-07-31 METAR LIMC 312050Z VRB01KT CAVOK 21/15 Q1018 NOSIG
13-07-31 METAR LIMC 312120Z VRB02KT CAVOK 21/15 Q1018 NOSIG
13-07-31 METAR LIMC 312150Z VRB02KT CAVOK 20/15 Q1019 NOSIG
13-07-31 METAR LIMC 312220Z NIL
13-07-31 METAR LIMC 312250Z VRB01KT CAVOK 19/16 Q1019 NOSIG
13-07-31 METAR LIMC 312320Z 01003KT CAVOK 19/16 Q1019 NOSIG
13-07-31 METAR LIMC 312350Z 01003KT 340V040 CAVOK 18/17 Q1019 NOSIG
13-08-01 METAR LIMC 010020Z 35004KT CAVOK 19/17 Q1019 NOSIG
13-08-01 METAR LIMC 010050Z 03004KT CAVOK 19/17 Q1019 NOSIG
13-08-01 METAR LIMC 010120Z NIL
13-08-01 METAR LIMC 010120Z 34003KT CAVOK 19/17 Q1019 NOSIG
13-08-01 METAR LIMC 010150Z 02003KT 310V060 CAVOK 20/17 Q1019 NOSIG
13-08-01 METAR LIMC 010150Z NIL
13-08-01 METAR LIMC 010220Z 36003KT 320V040 CAVOK 18/17 Q1019 NOSIG
13-08-01 METAR LIMC 010250Z 01003KT 340V060 CAVOK 18/17 Q1019 NOSIG
13-08-01 METAR LIMC 010320Z 36003KT CAVOK 19/17 Q1019 NOSIG
13-08-01 METAR LIMC 010350Z 36004KT CAVOK 19/18 Q1019 NOSIG
13-08-01 METAR LIMC 010420Z 01003KT CAVOK 19/17 Q1019 NOSIG
13-08-01 METAR LIMC 010450Z 36006KT CAVOK 20/18 Q1019 NOSIG
13-08-01 METAR LIMC 010520Z 01005KT 320V050 CAVOK 21/18 Q1020 NOSIG
13-08-01 METAR LIMC 010550Z 35007KT CAVOK 22/18 Q1020 NOSIG
13-08-01 METAR LIMC 010620Z 35006KT CAVOK 23/18 Q1020 NOSIG
13-08-01 METAR LIMC 010650Z 35005KT 330V030 CAVOK 25/17 Q1020 NOSIG
13-08-01 METAR LIMC 010720Z 35003KT 300V060 CAVOK 25/17 Q1021 NOSIG
13-08-01 METAR LIMC 010750Z VRB02KT CAVOK 27/16 Q1020 NOSIG
13-08-01 METAR LIMC 010820Z VRB02KT CAVOK 28/15 Q1021 NOSIG
13-08-01 METAR LIMC 010850Z VRB03G13KT CAVOK 29/15 Q1020 NOSIG
13-08-01 METAR LIMC 010920Z 36003KT 290V080 CAVOK 29/14 Q1020 NOSIG
13-08-01 METAR LIMC 010950Z VRB03KT CAVOK 30/13 Q1020 NOSIG
13-08-01 METAR LIMC 011020Z 33003KT 240V020 CAVOK 30/14 Q1020 NOSIG
13-08-01 METAR LIMC 011050Z VRB04KT CAVOK 30/14 Q1020 NOSIG
13-08-01 METAR LIMC 011120Z 36005KT 310V080 CAVOK 31/14 Q1019 NOSIG
13-08-01 METAR LIMC 011150Z 32004KT 270V010 CAVOK 30/14 Q1019 NOSIG
13-08-01 METAR LIMC 011220Z VRB03G15KT CAVOK 31/14 Q1019 NOSIG
13-08-01 METAR LIMC 011250Z VRB05KT CAVOK 32/14 Q1019 NOSIG
13-08-01 METAR LIMC 011320Z 23007KT 120V290 CAVOK 32/14 Q1018 NOSIG
13-08-01 METAR LIMC 011350Z 25006KT 190V310 CAVOK 31/15 Q1018 NOSIG
13-08-01 METAR LIMC 011420Z VRB06KT CAVOK 32/16 Q1018 NOSIG
13-08-01 METAR LIMC 011450Z 23006KT CAVOK 32/16 Q1018 NOSIG
13-08-01 METAR LIMC 011520Z 22007KT 190V270 CAVOK 31/16 Q1018 NOSIG
13-08-01 METAR LIMC 011550Z 23006KT 190V260 CAVOK 31/16 Q1018 NOSIG
13-08-01 METAR LIMC 011620Z 24006KT 210V270 CAVOK 31/16 Q1017 NOSIG
13-08-01 METAR LIMC 011650Z 22006KT 200V260 CAVOK 31/16 Q1017 NOSIG
13-08-01 METAR LIMC 011720Z 23008KT CAVOK 30/16 Q1017 NOSIG
13-08-01 METAR LIMC 011750Z 22007KT CAVOK 29/17 Q1017 NOSIG
13-08-01 METAR LIMC 011820Z 22005KT CAVOK 28/17 Q1018 NOSIG
13-08-01 METAR LIMC 011850Z 22004KT CAVOK 27/17 Q1018 NOSIG
13-08-01 METAR LIMC 011920Z 22003KT CAVOK 25/17 Q1018 NOSIG
13-08-01 METAR LIMC 011950Z VRB01KT CAVOK 24/17 Q1018 NOSIG
13-08-01 METAR LIMC 012020Z VRB01KT CAVOK 24/18 Q1018 NOSIG
13-08-01 METAR LIMC 012050Z VRB02KT CAVOK 24/18 Q1018 NOSIG
13-08-01 METAR LIMC 012120Z VRB01KT CAVOK 22/18 Q1019 NOSIG
13-08-01 METAR LIMC 012150Z NIL
13-08-01 METAR LIMC 012150Z 35005KT CAVOK 24/17 Q1019 NOSIG
13-08-01 METAR LIMC 012220Z 35004KT CAVOK 22/18 Q1019 NOSIG
13-08-01 METAR LIMC 012250Z 01002KT CAVOK 22/18 Q1019 NOSIG
13-08-01 METAR LIMC 012320Z 36003KT CAVOK 21/18 Q1019 NOSIG
13-08-01 METAR LIMC 012350Z VRB02KT CAVOK 20/18 Q1019 NOSIG
13-08-02 METAR LIMC 020020Z 34002KT CAVOK 20/18 Q1019 NOSIG
13-08-02 METAR LIMC 020050Z 35004KT CAVOK 20/18 Q1019 NOSIG
13-08-02 METAR LIMC 020120Z 00000KT CAVOK 20/18 Q1019 NOSIG
13-08-02 METAR LIMC 020150Z NIL
13-08-02 METAR LIMC 020220Z NIL
13-08-02 METAR LIMC 020250Z NIL
13-08-02 METAR LIMC 020320Z NIL
13-08-02 METAR LIMC 020350Z NIL
13-08-02 METAR LIMC 020420Z 35005KT CAVOK 19/17 Q1019 NOSIG
13-08-02 METAR LIMC 020450Z 36006KT CAVOK 20/17 Q1019 NOSIG
13-08-02 METAR LIMC 020520Z 35003KT 300V030 CAVOK 21/17 Q1019 NOSIG
13-08-02 METAR LIMC 020550Z NIL
13-08-02 METAR LIMC 020550Z 36006KT 330V030 CAVOK 23/16 Q1019 NOSIG
13-08-02 METAR LIMC 020620Z 01005KT CAVOK 24/17 Q1020 NOSIG
13-08-02 METAR LIMC 020650Z 36004KT 330V060 CAVOK 25/17 Q1020 NOSIG
13-08-02 METAR LIMC 020720Z 01004KT 330V060 CAVOK 26/16 Q1020 NOSIG
13-08-02 METAR LIMC 020750Z NIL
13-08-02 METAR LIMC 020820Z NIL
13-08-02 METAR LIMC 020850Z NIL
13-08-02 METAR LIMC 020920Z NIL
13-08-02 METAR LIMC 020950Z NIL
13-08-02 METAR LIMC 021020Z NIL
13-08-02 METAR LIMC 021050Z NIL
13-08-02 METAR LIMC 021120Z NIL
13-08-02 METAR LIMC 021150Z VRB04KT CAVOK 33/13 Q1019 NOSIG
13-08-02 METAR LIMC 021220Z 24006KT 180V290 CAVOK 33/14 Q1019 NOSIG
13-08-02 METAR LIMC 021250Z VRB05KT CAVOK 33/14 Q1018 NOSIG
13-08-02 METAR LIMC 021320Z 25007KT 210V290 CAVOK 33/14 Q1018 NOSIG
13-08-02 METAR LIMC 021350Z 25005KT 210V320 CAVOK 33/14 Q1018 NOSIG
13-08-02 METAR LIMC 021420Z 23005KT 140V300 CAVOK 33/14 Q1018 NOSIG
13-08-02 METAR LIMC 021450Z 24007KT 190V280 CAVOK 33/13 Q1018 NOSIG
13-08-02 METAR LIMC 021520Z 21004KT 110V280 CAVOK 34/13 Q1018 NOSIG
13-08-02 METAR LIMC 021550Z 23004KT 180V290 CAVOK 34/13 Q1018 NOSIG
13-08-02 METAR LIMC 021620Z 22007KT CAVOK 33/13 Q1018 NOSIG
13-08-02 METAR LIMC 021650Z 23007KT CAVOK 32/13 Q1018 NOSIG
13-08-02 METAR LIMC 021720Z 22006KT CAVOK 32/14 Q1017 NOSIG
13-08-02 METAR LIMC 021750Z 22005KT CAVOK 31/14 Q1018 NOSIG
13-08-02 METAR LIMC 021820Z 23004KT CAVOK 30/15 Q1018 NOSIG
13-08-02 METAR LIMC 021850Z VRB02KT CAVOK 27/16 Q1018 NOSIG
13-08-02 METAR LIMC 021920Z 00000KT CAVOK 26/16 Q1018 NOSIG
13-08-02 METAR LIMC 021950Z VRB01KT CAVOK 26/17 Q1018 NOSIG
13-08-02 METAR LIMC 022020Z VRB01KT CAVOK 24/17 Q1018 NOSIG
13-08-02 METAR LIMC 022050Z VRB02KT CAVOK 23/17 Q1018 NOSIG
13-08-02 METAR LIMC 022120Z NIL
13-08-02 METAR LIMC 022120Z 35004KT CAVOK 23/17 Q1018 NOSIG
13-08-02 METAR LIMC 022150Z 35005KT CAVOK 24/18 Q1018 NOSIG
13-08-02 METAR LIMC 022220Z 36003KT CAVOK 23/17 Q1018 NOSIG
13-08-02 METAR LIMC 022250Z 01003KT 350V050 CAVOK 23/18 Q1018 NOSIG
13-08-02 METAR LIMC 022320Z 32003KT CAVOK 23/16 Q1018 NOSIG
13-08-02 METAR LIMC 022350Z 01003KT 330V040 CAVOK 23/16 Q1018 NOSIG
13-08-03 METAR LIMC 030020Z 35003KT CAVOK 22/17 Q1018 NOSIG
13-08-03 METAR LIMC 030050Z 33003KT 290V360 CAVOK 21/17 Q1018 NOSIG
13-08-03 METAR LIMC 030120Z 36004KT 320V040 CAVOK 20/16 Q1018 NOSIG
13-08-03 METAR LIMC 030150Z 01003KT 330V040 CAVOK 21/16 Q1018 NOSIG
13-08-03 METAR LIMC 030220Z 36004KT CAVOK 20/16 Q1018 NOSIG
13-08-03 METAR LIMC 030250Z NIL
13-08-03 METAR LIMC 030250Z VRB02KT CAVOK 20/16 Q1018 NOSIG
13-08-03 METAR LIMC 030320Z 35003KT CAVOK 20/16 Q1018 NOSIG
13-08-03 METAR LIMC 030350Z 35005KT 9999 FEW060 20/16 Q1018 NOSIG
13-08-03 METAR LIMC 030420Z 36005KT 9999 FEW060 20/16 Q1018 NOSIG
13-08-03 METAR LIMC 030450Z 36006KT 9999 FEW080 22/15 Q1018 NOSIG
13-08-03 METAR LIMC 030520Z 35006KT 320V020 9999 SCT080 24/15 Q1018 NOSIG
13-08-03 METAR LIMC 030550Z 36003KT 320V040 9999 SCT080 24/16 Q1018 NOSIG
13-08-03 METAR LIMC 030620Z 36003KT 330V030 9999 FEW090 25/16 Q1018 NOSIG
13-08-03 METAR LIMC 030650Z 32005KT 280V350 CAVOK 26/15 Q1019 NOSIG
13-08-03 METAR LIMC 030720Z 05004KT 310V090 CAVOK 27/16 Q1019 NOSIG
13-08-03 METAR LIMC 030750Z 35003KT 300V070 CAVOK 28/16 Q1019 NOSIG
13-08-03 METAR LIMC 030820Z 03004KT 350V070 CAVOK 29/15 Q1018 NOSIG
13-08-03 METAR LIMC 030850Z VRB02KT CAVOK 29/15 Q1018 NOSIG
13-08-03 METAR LIMC 030920Z 34003KT 270V070 CAVOK 29/16 Q1018 NOSIG
13-08-03 METAR LIMC 030950Z 24004KT 170V280 CAVOK 31/16 Q1018 NOSIG
13-08-03 METAR LIMC 031020Z 26004KT 210V300 CAVOK 32/16 Q1018 NOSIG
13-08-03 METAR LIMC 031050Z 25005KT 200V290 CAVOK 32/16 Q1018 NOSIG
13-08-03 METAR LIMC 031120Z 24006KT 180V330 CAVOK 32/16 Q1018 NOSIG
13-08-03 METAR LIMC 031150Z 22005KT 200V280 CAVOK 33/14 Q1018 NOSIG
13-08-03 METAR LIMC 031220Z 25005KT 200V300 CAVOK 33/15 Q1018 NOSIG
13-08-03 METAR LIMC 031250Z 22008KT CAVOK 34/14 Q1018 NOSIG
13-08-03 METAR LIMC 031320Z 23009KT 190V280 CAVOK 33/14 Q1018 NOSIG
13-08-03 METAR LIMC 031350Z 23011KT CAVOK 34/10 Q1018 NOSIG
13-08-03 METAR LIMC 031420Z 23008KT 190V280 CAVOK 34/11 Q1018 NOSIG
13-08-03 METAR LIMC 031450Z 26005KT 220V320 CAVOK 34/09 Q1017 NOSIG
13-08-03 METAR LIMC 031520Z VRB02KT 9999 FEW080 34/08 Q1018 NOSIG
13-08-03 METAR LIMC 031550Z 23007KT 9999 SCT025 SCT070 32/09 Q1019 NOSIG
13-08-03 METAR LIMC 031620Z 27009KT 9999 SCT025 BKN070 31/14 Q1018 NOSIG
13-08-03 METAR LIMC 031650Z 32004KT 290V010 9999 SCT025 BKN070 31/12 Q1018 NOSIG
13-08-03 METAR LIMC 031720Z 03005G18KT 330V140 9999 FEW025 SCT070 31/12 Q1018 NOSIG
13-08-03 METAR LIMC 031750Z 01004KT 340V060 9999 SCT070 30/14 Q1017 NOSIG
13-08-03 METAR LIMC 031820Z 02004KT 9999 SCT070 29/12 Q1018 NOSIG
13-08-03 METAR LIMC 031850Z 35004KT 9999 SCT070 27/14 Q1017 NOSIG
13-08-03 METAR LIMC 031920Z 35005KT 9999 FEW080 27/15 Q1018 NOSIG
13-08-03 METAR LIMC 031950Z 35005KT CAVOK 26/14 Q1018 NOSIG
13-08-03 METAR LIMC 032020Z 35004KT 310V010 CAVOK 25/13 Q1018 NOSIG
13-08-03 METAR LIMC 032050Z 35003KT 330V040 CAVOK 25/13 Q1018 NOSIG
13-08-03 METAR LIMC 032120Z 15003KT 030V200 CAVOK 23/14 Q1018 NOSIG
13-08-03 METAR LIMC 032150Z 00000KT CAVOK 22/14 Q1018 NOSIG
13-08-03 METAR LIMC 032220Z 07002KT CAVOK 21/14 Q1018 NOSIG
13-08-03 METAR LIMC 032250Z 00000KT CAVOK 20/15 Q1018 NOSIG
13-08-03 METAR LIMC 032320Z 00000KT CAVOK 21/15 Q1018 NOSIG
13-08-03 METAR LIMC 032350Z 00000KT CAVOK 20/15 Q1018 NOSIG
13-08-04 METAR LIMC 040020Z 01003KT CAVOK 20/15 Q1018 NOSIG
13-08-04 METAR LIMC 040050Z 36004KT CAVOK 21/15 Q1018 NOSIG
13-08-04 METAR LIMC 040120Z 35007KT CAVOK 21/15 Q1018 NOSIG
13-08-04 METAR LIMC 040150Z 35003KT 320V020 CAVOK 20/14 Q1018 NOSIG
13-08-04 METAR LIMC 040220Z VRB02KT CAVOK 20/14 Q1018 NOSIG
13-08-04 METAR LIMC 040250Z VRB02KT CAVOK 20/14 Q1018 NOSIG
13-08-04 METAR LIMC 040320Z 36003KT 330V030 CAVOK 20/14 Q1018 NOSIG
13-08-04 METAR LIMC 040350Z 35006KT CAVOK 20/14 Q1018 NOSIG
13-08-04 METAR LIMC 040420Z 36005KT CAVOK 20/14 Q1018 NOSIG
13-08-04 METAR LIMC 040450Z 35004KT 330V030 CAVOK 20/14 Q1019 NOSIG
13-08-04 METAR LIMC 040520Z 36003KT 310V040 CAVOK 22/14 Q1019 NOSIG
13-08-04 METAR LIMC 040550Z 36006KT 340V040 CAVOK 23/14 Q1019 NOSIG
13-08-04 METAR LIMC 040620Z 36005KT 310V030 CAVOK 24/14 Q1019 NOSIG
13-08-04 METAR LIMC 040650Z 36006KT CAVOK 25/14 Q1019 NOSIG
13-08-04 METAR LIMC 040720Z 35006KT 330V030 CAVOK 27/14 Q1019 NOSIG
13-08-04 METAR LIMC 040750Z 34005KT 310V050 CAVOK 28/14 Q1019 NOSIG
13-08-04 METAR LIMC 040820Z 33006KT 290V010 CAVOK 29/15 Q1020 NOSIG
13-08-04 METAR LIMC 040850Z 01006KT 320V050 CAVOK 29/15 Q1019 NOSIG
13-08-04 METAR LIMC 040920Z VRB03KT CAVOK 30/16 Q1019 NOSIG
13-08-04 METAR LIMC 040950Z NIL
13-08-04 METAR LIMC 040950Z VRB03KT CAVOK 32/15 Q1019 NOSIG
13-08-04 METAR LIMC 041020Z 01004KT 280V060 CAVOK 32/15 Q1019 NOSIG
13-08-04 METAR LIMC 041050Z 27005KT 190V340 CAVOK 33/15 Q1019 NOSIG
13-08-04 METAR LIMC 041120Z VRB04KT CAVOK 33/14 Q1018 NOSIG
13-08-04 METAR LIMC 041150Z VRB05KT CAVOK 34/15 Q1018 NOSIG
13-08-04 METAR LIMC 041220Z 25006KT 200V340 CAVOK 34/15 Q1018 NOSIG
13-08-04 METAR LIMC 041250Z 22007KT 170V280 CAVOK 34/16 Q1018 NOSIG
13-08-04 METAR LIMC 041320Z 23007KT 170V270 CAVOK 34/17 Q1018 NOSIG
13-08-04 METAR LIMC 041350Z 22007KT 160V290 CAVOK 33/18 Q1018 NOSIG
13-08-04 METAR LIMC 041420Z 24006KT 160V290 CAVOK 33/17 Q1017 NOSIG
13-08-04 METAR LIMC 041450Z 23006KT 170V270 CAVOK 34/17 Q1017 NOSIG
13-08-04 METAR LIMC 041520Z 24008KT 190V260 CAVOK 33/18 Q1017 NOSIG
13-08-04 METAR LIMC 041550Z 21006KT 180V250 CAVOK 33/17 Q1017 NOSIG
13-08-04 METAR LIMC 041620Z 22007KT 200V260 CAVOK 33/17 Q1017 NOSIG
13-08-04 METAR LIMC 041650Z 23007KT 190V250 CAVOK 33/17 Q1017 NOSIG
13-08-04 METAR LIMC 041720Z 23007KT CAVOK 32/16 Q1017 NOSIG
13-08-04 METAR LIMC 041750Z 22005KT CAVOK 31/17 Q1017 NOSIG
13-08-04 METAR LIMC 041820Z 24005KT CAVOK 30/18 Q1017 NOSIG
13-08-04 METAR LIMC 041850Z VRB01KT CAVOK 29/18 Q1017 NOSIG
13-08-04 METAR LIMC 041920Z 00000KT CAVOK 26/19 Q1017 NOSIG
13-08-04 METAR LIMC 041950Z 36003KT 320V020 CAVOK 27/18 Q1017 NOSIG
13-08-04 METAR LIMC 042020Z VRB02KT CAVOK 25/19 Q1017 NOSIG
13-08-04 METAR LIMC 042050Z 18005KT CAVOK 24/19 Q1018 NOSIG
13-08-04 METAR LIMC 042120Z 18003KT CAVOK 25/19 Q1018 NOSIG
13-08-04 METAR LIMC 042150Z 17003KT 140V210 CAVOK 25/18 Q1018 NOSIG
13-08-04 METAR LIMC 042220Z NIL
13-08-04 METAR LIMC 042220Z 00000KT CAVOK 23/18 Q1018 NOSIG
13-08-04 METAR LIMC 042250Z VRB01KT CAVOK 23/18 Q1018 NOSIG
13-08-04 METAR LIMC 042320Z VRB01KT CAVOK 22/18 Q1018 NOSIG
13-08-04 METAR LIMC 042350Z VRB01KT CAVOK 22/18 Q1018 NOSIG
13-08-05 METAR LIMC 050020Z 35002KT CAVOK 21/18 Q1018 NOSIG
13-08-05 METAR LIMC 050050Z 10001KT CAVOK 20/18 Q1017 NOSIG
13-08-05 METAR LIMC 050120Z 01003KT CAVOK 20/19 Q1017 NOSIG
13-08-05 METAR LIMC 050150Z 00000KT CAVOK 20/19 Q1017 NOSIG
13-08-05 METAR LIMC 050220Z 36002KT CAVOK 20/18 Q1018 NOSIG
13-08-05 METAR LIMC 050250Z 01004KT CAVOK 20/19 Q1017 NOSIG
13-08-05 METAR LIMC 050320Z VRB02KT CAVOK 20/19 Q1017 NOSIG
13-08-05 METAR LIMC 050350Z VRB02KT CAVOK 19/19 Q1017 NOSIG
13-08-05 METAR LIMC 050420Z VRB02KT CAVOK 20/19 Q1017 NOSIG
13-08-05 METAR LIMC 050420Z NIL
13-08-05 METAR LIMC 050450Z 36004KT 330V040 CAVOK 23/19 Q1018 NOSIG
13-08-05 METAR LIMC 050520Z 03004KT 350V070 CAVOK 23/19 Q1018 NOSIG
13-08-05 METAR LIMC 050550Z 01004KT 330V040 CAVOK 24/19 Q1018 NOSIG
13-08-05 METAR LIMC 050620Z VRB02KT CAVOK 26/19 Q1018 NOSIG
13-08-05 METAR LIMC 050650Z 02003KT 330V060 CAVOK 27/19 Q1018 NOSIG
13-08-05 METAR LIMC 050720Z 03004KT 320V100 CAVOK 28/19 Q1018 NOSIG
13-08-05 METAR LIMC 050750Z VRB02KT CAVOK 29/18 Q1018 NOSIG
13-08-05 METAR LIMC 050820Z 11003KT 030V160 CAVOK 30/18 Q1018 NOSIG
13-08-05 METAR LIMC 050850Z VRB04KT CAVOK 31/18 Q1018 NOSIG
13-08-05 METAR LIMC 050920Z VRB04KT CAVOK 31/17 Q1018 NOSIG
13-08-05 METAR LIMC 050950Z 16003KT 100V240 CAVOK 32/18 Q1017 NOSIG
13-08-05 METAR LIMC 051020Z 15005KT 080V220 CAVOK 32/19 Q1017 NOSIG
13-08-05 METAR LIMC 051050Z VRB03KT CAVOK 33/19 Q1017 NOSIG
13-08-05 METAR LIMC 051120Z VRB06KT 9999 R35L/1500N R35R/1400V1500N FEW040 33/19 Q1017 NOSIG
13-08-05 METAR LIMC 051150Z VRB04KT 9999 FEW040 33/18 Q1017 NOSIG
13-08-05 METAR LIMC 051220Z VRB05KT 9999 FEW040 33/18 Q1017 NOSIG
13-08-05 METAR LIMC 051250Z VRB04KT 9999 FEW040 34/18 Q1016 NOSIG
13-08-05 METAR LIMC 051320Z 09005KT 350V120 9999 R35L/1500N R35R/1400V1500N FEW040 33/17 Q1016 NOSIG
13-08-05 METAR LIMC 051350Z VRB04G15KT 9999 FEW040 34/16 Q1016 NOSIG
13-08-05 METAR LIMC 051420Z 18006KT 130V240 9999 FEW040 34/17 Q1016 NOSIG
13-08-05 METAR LIMC 051450Z 17006KT 120V250 9999 FEW040 34/18 Q1016 NOSIG
13-08-05 METAR LIMC 051520Z 15006KT 110V200 9999 FEW040 33/17 Q1016 NOSIG
13-08-05 METAR LIMC 051550Z 15008KT 110V180 CAVOK 33/17 Q1015 NOSIG
13-08-05 METAR LIMC 051620Z 16007KT 120V180 CAVOK 33/17 Q1015 NOSIG
13-08-05 METAR LIMC 051650Z 17004KT 140V210 CAVOK 33/17 Q1015 NOSIG
13-08-05 METAR LIMC 051720Z 15003KT 090V190 CAVOK 33/17 Q1015 NOSIG
13-08-05 METAR LIMC 051750Z 19004KT CAVOK 31/17 Q1015 NOSIG
13-08-05 METAR LIMC 051820Z NIL
13-08-05 METAR LIMC 051820Z 20005KT CAVOK 29/17 Q1016 NOSIG
13-08-05 METAR LIMC 051850Z 21004KT CAVOK 28/18 Q1016 NOSIG
13-08-05 METAR LIMC 051920Z VRB02KT CAVOK 28/19 Q1016 NOSIG
13-08-05 METAR LIMC 051950Z VRB02KT CAVOK 28/20 Q1016 NOSIG
13-08-05 METAR LIMC 052020Z 09003KT 040V180 CAVOK 28/20 Q1016 NOSIG
13-08-05 METAR LIMC 052050Z VRB02KT CAVOK 28/20 Q1017 NOSIG
13-08-05 METAR LIMC 052120Z VRB02KT CAVOK 25/20 Q1017 NOSIG
13-08-05 METAR LIMC 052150Z 02003KT 340V070 CAVOK 26/20 Q1017 NOSIG
13-08-05 METAR LIMC 052220Z VRB02KT CAVOK 25/20 Q1017 NOSIG
13-08-05 METAR LIMC 052250Z 35002KT CAVOK 24/21 Q1017 NOSIG
13-08-05 METAR LIMC 052320Z VRB01KT CAVOK 23/21 Q1017 NOSIG
13-08-05 METAR LIMC 052350Z 36002KT 9999 SCT040 23/21 Q1017 NOSIG
13-08-06 METAR LIMC 060020Z VRB01KT 9999 SCT040 24/21 Q1017 NOSIG
13-08-06 METAR LIMC 060050Z 06003KT 9999 SCT040 24/21 Q1016 NOSIG
13-08-06 METAR LIMC 060120Z 04002KT 9999 SCT040 23/20 Q1016 NOSIG
13-08-06 METAR LIMC 060150Z 05002KT 9999 SCT050 22/20 Q1016 NOSIG
13-08-06 METAR LIMC 060220Z 03002KT 9999 FEW050 22/20 Q1016 NOSIG
13-08-06 METAR LIMC 060250Z 00000KT CAVOK 22/20 Q1016 NOSIG
13-08-06 METAR LIMC 060320Z 01001KT CAVOK 22/19 Q1016 NOSIG
13-08-06 METAR LIMC 060350Z 33004KT 290V350 CAVOK 21/19 Q1016 NOSIG
13-08-06 METAR LIMC 060420Z 36003KT 9999 FEW070 22/19 Q1016 NOSIG
13-08-06 METAR LIMC 060450Z 05003KT 010V080 9999 FEW070 23/19 Q1016 NOSIG
13-08-06 METAR LIMC 060520Z 04002KT CAVOK 24/20 Q1016 NOSIG
13-08-06 METAR LIMC 060550Z 36004KT CAVOK 25/19 Q1017 NOSIG
13-08-06 METAR LIMC 060620Z 01004KT 330V070 CAVOK 26/19 Q1017 NOSIG
13-08-06 METAR LIMC 060650Z 01004KT 330V050 CAVOK 27/18 Q1017 NOSIG
13-08-06 METAR LIMC 060720Z 04004KT 360V080 CAVOK 28/18 Q1017 NOSIG
13-08-06 METAR LIMC 060750Z NIL
13-08-06 METAR LIMC 060750Z VRB04KT CAVOK 29/18 Q1017 NOSIG
13-08-06 METAR LIMC 060820Z 03004KT 330V120 CAVOK 30/18 Q1017 NOSIG
13-08-06 METAR LIMC 060850Z 06004KT 330V110 CAVOK 30/18 Q1017 NOSIG
13-08-06 METAR LIMC 060920Z VRB03KT CAVOK 31/18 Q1016 NOSIG
13-08-06 METAR LIMC 060950Z VRB03KT CAVOK 32/18 Q1016 NOSIG
13-08-06 METAR LIMC 061020Z VRB02KT CAVOK 32/18 Q1016 NOSIG
13-08-06 METAR LIMC 061050Z 16005KT 090V230 9999 R35L/1500N R35R/1400V1500N SCT030 33/19 Q1016 NOSIG
13-08-06 METAR LIMC 061120Z 12006KT 020V160 9999 SCT030 33/19 Q1016 NOSIG
13-08-06 METAR LIMC 061150Z VRB04KT 9999 R35L/1500N R35R/1400V1500N SCT030 34/18 Q1015 NOSIG
13-08-06 METAR LIMC 061220Z 16008KT 130V210 9999 SCT030 33/18 Q1015 NOSIG
13-08-06 METAR LIMC 061250Z 16005KT 130V190 9999 SCT035 34/18 Q1015 NOSIG
13-08-06 METAR LIMC 061320Z 17008KT 150V210 9999 SCT035 33/18 Q1015 NOSIG
13-08-06 METAR LIMC 061350Z 17008KT 140V200 9999 SCT035 33/17 Q1014 NOSIG
13-08-06 METAR LIMC 061420Z 17006KT 130V270 9999 SCT040 33/16 Q1015 NOSIG
13-08-06 METAR LIMC 061450Z 21008KT 9999 SCT090 32/19 Q1015 NOSIG
13-08-06 METAR LIMC 061520Z 24006KT 9999 SCT090 31/20 Q1014 NOSIG
13-08-06 METAR LIMC 061550Z VRB03KT 9999 FEW090 33/20 Q1014 NOSIG
13-08-06 METAR LIMC 061620Z 23005KT 200V270 CAVOK 32/19 Q1014 NOSIG
13-08-06 METAR LIMC 061650Z 26004KT CAVOK 32/19 Q1013 NOSIG
13-08-06 METAR LIMC 061720Z 27005KT CAVOK 32/19 Q1013 NOSIG
13-08-06 METAR LIMC 061750Z 29005KT CAVOK 31/19 Q1013 NOSIG
13-08-06 METAR LIMC 061820Z 36009KT CAVOK 29/18 Q1014 NOSIG
13-08-06 METAR LIMC 061850Z 01006KT CAVOK 28/17 Q1014 NOSIG
13-08-06 METAR LIMC 061920Z 35005KT CAVOK 27/16 Q1014 NOSIG
13-08-06 METAR LIMC 061950Z 05003KT 360V090 9999 FEW030CB SCT080 26/16 Q1014 TEMPO TS
13-08-06 METAR LIMC 062050Z VRB03KT 9999 VCTS FEW030CB SCT070 26/16 Q1014 NOSIG
13-08-06 METAR LIMC 062120Z VRB02KT 9999 VCTS FEW030CB SCT070 26/16 Q1014 NOSIG
13-08-06 METAR LIMC 062150Z VRB02KT 9999 FEW030 SCT070 25/16 Q1013 NOSIG
13-08-06 METAR LIMC 062220Z 35005KT 9999 BKN070 24/17 Q1013 NOSIG
13-08-06 METAR LIMC 062250Z 34003KT 320V020 9999 BKN070 24/17 Q1013 NOSIG
13-08-06 METAR LIMC 062320Z 30004KT 270V330 9999 BKN070 24/18 Q1013 NOSIG
13-08-06 METAR LIMC 062350Z 35005KT 9999 BKN070 24/19 Q1013 NOSIG
13-08-07 METAR LIMC 070020Z VRB01KT 9999 SCT030 BKN070 23/18 Q1013 NOSIG
13-08-07 METAR LIMC 070050Z 36003KT 330V030 9999 SCT030 BKN070 22/19 Q1013 NOSIG
13-08-07 METAR LIMC 070120Z 36004KT 330V040 9999 SCT030 BKN070 23/18 Q1013 NOSIG
13-08-07 METAR LIMC 070150Z 02005KT 9999 SCT070 23/19 Q1013 NOSIG
13-08-07 METAR LIMC 070220Z 36004KT 330V030 9999 SCT070 23/18 Q1012 NOSIG
13-08-07 METAR LIMC 070250Z 35006KT 9999 SCT070 21/19 Q1012 NOSIG
13-08-07 METAR LIMC 070320Z 35003KT 310V060 9999 SCT070 22/19 Q1013 NOSIG
13-08-07 METAR LIMC 070350Z 34003KT 9999 -RA VCTS FEW030CB BKN040 22/19 Q1013 TEMPO TS
13-08-07 METAR LIMC 070420Z 01009KT 330V050 9999 -RA VCTS FEW030CB BKN040 22/19 Q1012 NOSIG
13-08-07 METAR LIMC 070450Z 05006KT 360V080 9999 SCT030 SCT050 22/19 Q1012 NOSIG
13-08-07 METAR LIMC 070520Z 03005KT 340V070 9999 BKN045 22/19 Q1012 NOSIG
13-08-07 METAR LIMC 070550Z 33007KT 9999 BKN045 22/18 Q1013 NOSIG
13-08-07 METAR LIMC 070620Z 34007KT 9999 BKN045 23/18 Q1013 NOSIG
13-08-07 METAR LIMC 070650Z 35007KT 9999 -RA BKN045 23/19 Q1013 NOSIG
13-08-07 METAR LIMC 070720Z 35006KT 9999 SCT045 24/19 Q1014 NOSIG
13-08-07 METAR LIMC 070750Z 02005KT 9999 SCT045 26/18 Q1014 NOSIG
13-08-07 METAR LIMC 070820Z 01005KT 340V050 9999 FEW070 27/18 Q1014 NOSIG
13-08-07 METAR LIMC 070850Z VRB04KT 9999 FEW070 29/15 Q1014 NOSIG
13-08-07 METAR LIMC 070920Z 05008KT 010V090 9999 SCT060 30/17 Q1014 NOSIG
13-08-07 METAR LIMC 070950Z VRB04KT 9999 BKN050 29/17 Q1014 NOSIG
13-08-07 METAR LIMC 071020Z 09005KT 050V130 9999 SCT050 BKN085 29/17 Q1014 NOSIG
13-08-07 METAR LIMC 071050Z NIL
13-08-07 METAR LIMC 071050Z 07006KT 010V140 9999 -RA SCT050 BKN085 28/16 Q1014
13-08-07 METAR LIMC 071120Z 07004KT 040V110 9999 SCT050 BKN085 29/16 Q1014 NOSIG
13-08-07 METAR LIMC 071150Z 09004KT 040V130 9999 SCT060 30/16 Q1014 NOSIG
13-08-07 METAR LIMC 071220Z 11005KT 050V140 9999 SCT060 30/15 Q1013 NOSIG
13-08-07 METAR LIMC 071250Z 11006KT 070V150 9999 SCT060 30/11 Q1013 NOSIG
13-08-07 METAR LIMC 071320Z 15005KT 110V190 9999 BKN060 BKN090 30/14 Q1013 NOSIG
13-08-07 METAR LIMC 071350Z 13005KT 090V170 9999 BKN060 BKN090 30/14 Q1013 NOSIG
13-08-07 METAR LIMC 071420Z 14005KT 100V170 9999 BKN060 BKN090 29/16 Q1013 NOSIG
13-08-07 METAR LIMC 071450Z 18003KT 150V210 9999 BKN060 BKN090 30/16 Q1013 NOSIG
13-08-07 METAR LIMC 071520Z 13003KT 080V200 9999 BKN060 BKN090 29/17 Q1013 NOSIG
13-08-07 METAR LIMC 071550Z VRB02KT 9999 SCT060 BKN090 30/18 Q1013 NOSIG
13-08-07 METAR LIMC 071620Z VRB03KT 9999 SCT090 30/19 Q1013 NOSIG
13-08-07 METAR LIMC 071650Z 36003KT 300V040 9999 SCT090 29/17 Q1012 NOSIG
13-08-07 METAR LIMC 071720Z 36006KT 330V040 9999 SCT090 29/17 Q1012 NOSIG
13-08-07 METAR LIMC 071750Z 34005KT 9999 SCT090 27/17 Q1012 NOSIG
13-08-07 METAR LIMC 071820Z 35005KT 9999 FEW090 27/17 Q1012 NOSIG
13-08-07 METAR LIMC 071850Z 36007KT CAVOK 26/17 Q1012 NOSIG
13-08-07 METAR LIMC 071920Z 34007KT 9999 SCT060 24/17 Q1012 NOSIG
13-08-07 METAR LIMC 071950Z 36006KT 9999 SCT060 25/17 Q1012 NOSIG
13-08-07 METAR LIMC 072020Z 33005KT 9999 SCT060 24/17 Q1012 NOSIG
13-08-07 METAR LIMC 072050Z VRB02KT 9999 SCT040 25/17 Q1012 NOSIG
13-08-07 METAR LIMC 072120Z 32004KT 280V050 9999 SCT050 23/17 Q1012 NOSIG
13-08-07 METAR LIMC 072150Z 35006KT 9999 SCT050 23/17 Q1012 NOSIG
13-08-07 METAR LIMC 072220Z 35006KT 9999 SCT050 23/18 Q1013 NOSIG
13-08-07 METAR LIMC 072250Z 32005KT 9999 SCT060 22/18 Q1013 NOSIG
13-08-07 METAR LIMC 072320Z 34003KT 9999 SCT060 22/18 Q1013 NOSIG
13-08-07 METAR LIMC 072350Z 23003KT 9999 SCT060 22/18 Q1013 NOSIG
13-08-08 METAR LIMC 080020Z VRB02KT 9999 BKN060 22/18 Q1013 NOSIG
13-08-08 METAR LIMC 080050Z 32005KT 9999 BKN060 22/18 Q1013 NOSIG
13-08-08 METAR LIMC 080120Z NIL
13-08-08 METAR LIMC 080150Z 34006KT 9999 BKN060 22/17 Q1012 NOSIG
13-08-08 METAR LIMC 080220Z 34007KT 9999 BKN060 22/17 Q1012 NOSIG
13-08-08 METAR LIMC 080250Z 34005KT 9999 BKN060 22/18 Q1012 NOSIG
13-08-08 METAR LIMC 080320Z 36007KT 9999 BKN060 22/19 Q1012 NOSIG
13-08-08 METAR LIMC 080350Z 34004KT 9999 BKN060 22/19 Q1013 NOSIG
13-08-08 METAR LIMC 080420Z 33005KT 300V020 9999 -RA SCT050 BKN075 21/20 Q1013 NOSIG
13-08-08 METAR LIMC 080450Z 01004KT 340V040 9999 SCT045 SCT080 21/21 Q1013 NOSIG
13-08-08 METAR LIMC 080520Z 33004KT 9999 SCT040 BKN070 21/21 Q1013 NOSIG
13-08-08 METAR LIMC 080550Z 36006KT 330V040 9999 SCT040 BKN070 22/21 Q1014 NOSIG
13-08-08 METAR LIMC 080620Z 03004KT 330V070 9999 SCT040 BKN070 23/22 Q1014 NOSIG
13-08-08 METAR LIMC 080650Z 05003KT 330V100 9999 SCT040 BKN070 24/22 Q1014 NOSIG
13-08-08 METAR LIMC 080720Z 17003KT 130V200 7000 SCT030 BKN070 23/23 Q1014 NOSIG
13-08-08 METAR LIMC 080750Z 13005KT 100V170 7000 SCT030 BKN070 23/22 Q1014 NOSIG
13-08-08 METAR LIMC 080820Z 14003KT 110V180 8000 R35L/1500N R35R/1300N -RA SCT030 BKN070 24/22 Q1014 RERA NOSIG
13-08-08 METAR LIMC 080850Z 15005KT 070V210 8000 -RA VCTS FEW020CB SCT040 BKN070 23/21 Q1015 NOSIG
13-08-08 METAR LIMC 080920Z 17003KT 6000 TSRA FEW020CB SCT040 BKN070 22/22 Q1015 WS RWY 35R NOSIG
13-08-08 METAR LIMC 080950Z 19007KT 150V210 4000 TSRA SCT020CB BKN060 22/22 Q1017 WS
13-08-08 METAR LIMC 081020Z 09004KT 040V150 6000 -RA SCT020 BKN070 22/22 Q1015 RETSRA NOSIG
13-08-08 METAR LIMC 081050Z VRB02KT 6000 BKN020 BKN070 24/22 Q1016 NOSIG
13-08-08 METAR LIMC 081050Z NIL
13-08-08 METAR LIMC 081120Z 31009KT 6000 -RA BKN020 BKN070 23/22 Q1016 NOSIG
13-08-08 METAR LIMC 081150Z 30008KT 6000 -RA FEW020CB BKN050 22/21 Q1016 BECMG TS
13-08-08 METAR LIMC 081220Z 35004KT 310V040 6000 -TSRA FEW020CB SCT030 BKN050 21/20 Q1016 RERA NOSIG
13-08-08 METAR LIMC 081250Z 35008KT 310V020 9999 FEW020CB SCT030 BKN070 22/20 Q1017 RETS NOSIG
13-08-08 METAR LIMC 081320Z 35009KT 9999 VCSH SCT040 BKN070 22/19 Q1016 NOSIG
13-08-08 METAR LIMC 081350Z 35010KT 9999 SCT040 BKN070 23/20 Q1016 NOSIG
13-08-08 METAR LIMC 081420Z 01010KT 340V040 9999 SCT040 BKN070 22/19 Q1017 NOSIG
13-08-08 METAR LIMC 081450Z 01009KT 320V040 9999 SCT040 BKN070 23/20 Q1017 NOSIG
13-08-08 METAR LIMC 081520Z 36007KT 9999 SCT040 BKN070 23/19 Q1017 NOSIG
13-08-08 METAR LIMC 081550Z 35008KT 9999 SCT040 BKN070 23/19 Q1017 NOSIG
13-08-08 METAR LIMC 081620Z 35009KT 9999 SCT040 BKN070 23/19 Q1016 NOSIG
13-08-08 METAR LIMC 081650Z 35008KT 9999 SCT040 BKN070 23/19 Q1016 NOSIG
13-08-08 METAR LIMC 081720Z 35008KT 9999 BKN040 BKN070 23/19 Q1016 NOSIG
13-08-08 METAR LIMC 081750Z 35008KT 9999 BKN040 BKN070 22/19 Q1016 NOSIG
13-08-08 METAR LIMC 081820Z 36009KT 9999 BKN040 BKN070 22/19 Q1016 NOSIG
13-08-08 METAR LIMC 081850Z 36008KT 340V040 9999 FEW020CB SCT030 BKN070 21/19 Q1016
13-08-08 METAR LIMC 081920Z 34010KT 9999 FEW020CB SCT030 BKN070 21/18 Q1017 NOSIG
13-08-08 METAR LIMC 081950Z 35008KT 9999 RA BKN030 BKN060 21/19 Q1016 NOSIG
13-08-08 METAR LIMC 082020Z 36012KT 9999 FEW030CB SCT040 21/18 Q1016 RERA BECMG TS
13-08-08 METAR LIMC 082050Z 34011KT 9999 FEW030CB SCT060 20/18 Q1017 BECMG TS
13-08-08 METAR LIMC 082120Z 36010KT 9999 -RA FEW030CB BKN050 20/17 Q1017 NOSIG
13-08-08 METAR LIMC 082150Z 33005KT 300V020 9999 TS FEW030CB BKN050 20/17 Q1018
13-08-08 METAR LIMC 082220Z 32007KT 290V350 9999 -TSRA FEW030CB BKN050 20/17 Q1018
13-08-08 METAR LIMC 082250Z 35010KT 320V030 9999 FEW030CB BKN050 19/17 Q1018 RETS
13-08-08 METAR LIMC 082320Z 36014KT 9999 -RA SCT030 BKN050 18/16 Q1018 NOSIG
13-08-08 METAR LIMC 082350Z 35011KT 9999 SCT030 BKN050 18/16 Q1018 NOSIG
13-08-09 METAR LIMC 090020Z 01007KT 9999 SCT030 BKN050 18/16 Q1018 NOSIG
13-08-09 METAR LIMC 090050Z 36007KT 9999 SCT030 BKN050 18/16 Q1017 NOSIG
13-08-09 METAR LIMC 090120Z 34006KT 310V010 9999 SCT030 BKN050 18/16 Q1017 NOSIG
13-08-09 METAR LIMC 090150Z 34005KT 9999 SCT030 BKN050 17/16 Q1017 NOSIG
13-08-09 METAR LIMC 090220Z 36007KT 9999 BKN050 18/16 Q1016 NOSIG
13-08-09 METAR LIMC 090250Z 31004KT 210V360 9999 BKN050 17/16 Q1016 NOSIG
13-08-09 METAR LIMC 090320Z 20005KT 140V280 9999 BKN070 17/16 Q1017 NOSIG
13-08-09 METAR LIMC 090350Z 23006KT 9999 BKN070 17/16 Q1017 NOSIG
13-08-09 METAR LIMC 090420Z 24006KT 9999 FEW070 17/16 Q1017 NOSIG
13-08-09 METAR LIMC 090450Z 23005KT 9999 FEW060 16/16 Q1017 NOSIG
13-08-09 METAR LIMC 090520Z 25004KT 190V300 9999 FEW060 17/17 Q1016 NOSIG
13-08-09 METAR LIMC 090550Z 25005KT 230V290 9999 SCT070 19/17 Q1017 NOSIG
13-08-09 METAR LIMC 090620Z 31006KT 9999 SCT070 20/16 Q1017 NOSIG
13-08-09 METAR LIMC 090650Z 33008KT 9999 SCT070 21/16 Q1016 NOSIG
13-08-09 METAR LIMC 090720Z 33006KT 310V010 9999 FEW070 22/15 Q1016 NOSIG
13-08-09 METAR LIMC 090750Z 33004KT 300V010 9999 FEW070 23/15 Q1016 NOSIG
13-08-09 METAR LIMC 090820Z VRB03KT 9999 FEW070 23/15 Q1016 NOSIG
13-08-09 METAR LIMC 090850Z 32004KT 270V010 9999 FEW070 25/15 Q1016 NOSIG
13-08-09 METAR LIMC 090920Z 36003KT 270V080 9999 SCT070 25/14 Q1016 NOSIG
13-08-09 METAR LIMC 090950Z 28005KT 250V310 9999 FEW070 26/15 Q1016 NOSIG
13-08-09 METAR LIMC 091020Z 32005KT 240V010 CAVOK 26/14 Q1016 NOSIG
13-08-09 METAR LIMC 091050Z VRB05KT CAVOK 28/13 Q1015 NOSIG
13-08-09 METAR LIMC 091120Z 29007KT 250V330 CAVOK 28/14 Q1015 NOSIG
13-08-09 METAR LIMC 091150Z 26006KT 190V310 CAVOK 28/12 Q1014 NOSIG
13-08-09 METAR LIMC 091220Z VRB05KT CAVOK 29/11 Q1014 NOSIG
13-08-09 METAR LIMC 091250Z 31004KT 250V010 CAVOK 30/15 Q1014 NOSIG
13-08-09 METAR LIMC 091320Z VRB06KT CAVOK 29/15 Q1014 NOSIG
13-08-09 METAR LIMC 091350Z 24009KT 210V280 CAVOK 30/16 Q1013 NOSIG
13-08-09 METAR LIMC 091420Z 23010KT 190V260 CAVOK 29/15 Q1013 NOSIG
13-08-09 METAR LIMC 091450Z 22009KT CAVOK 29/15 Q1013 NOSIG
13-08-09 METAR LIMC 091520Z 24009KT CAVOK 29/15 Q1012 NOSIG
13-08-09 METAR LIMC 091520Z NIL
13-08-09 METAR LIMC 091550Z 24009KT CAVOK 29/16 Q1012 NOSIG
13-08-09 METAR LIMC 091620Z 24008KT CAVOK 29/15 Q1012 NOSIG
13-08-09 METAR LIMC 091650Z 24008KT CAVOK 29/16 Q1012 NOSIG
13-08-09 METAR LIMC 091720Z 24008KT CAVOK 28/16 Q1012 NOSIG
13-08-09 METAR LIMC 091750Z 24005KT CAVOK 27/16 Q1012 NOSIG
13-08-09 METAR LIMC 091820Z 23005KT 210V280 9999 FEW070 26/17 Q1012 NOSIG
13-08-09 METAR LIMC 091850Z VRB02KT 9999 FEW070 25/17 Q1013 NOSIG
13-08-09 METAR LIMC 091920Z 34004KT 9999 FEW070 25/17 Q1013 NOSIG
13-08-09 METAR LIMC 091950Z 35004KT CAVOK 23/17 Q1014 NOSIG
13-08-09 METAR LIMC 092020Z 35007KT 330V030 CAVOK 23/11 Q1014 NOSIG
13-08-09 METAR LIMC 092050Z 01008KT CAVOK 25/07 Q1014 NOSIG
13-08-09 METAR LIMC 092120Z 01010KT 340V040 CAVOK 25/06 Q1014 NOSIG
13-08-09 METAR LIMC 092150Z 03012KT 360V060 CAVOK 25/05 Q1015 NOSIG
13-08-09 METAR LIMC 092220Z 02014G26KT CAVOK 25/04 Q1015 NOSIG
13-08-09 METAR LIMC 092250Z 36010KT CAVOK 24/03 Q1015 NOSIG
13-08-09 METAR LIMC 092320Z 35009KT 320V020 CAVOK 24/02 Q1015 NOSIG
13-08-09 METAR LIMC 092350Z 02013KT CAVOK 24/01 Q1015 NOSIG
13-08-10 METAR LIMC 100020Z 01014KT CAVOK 24/01 Q1014 NOSIG
13-08-10 METAR LIMC 100050Z 36013KT CAVOK 24/00 Q1014 NOSIG
13-08-10 METAR LIMC 100120Z 35007KT CAVOK 21/02 Q1014 NOSIG
13-08-10 METAR LIMC 100150Z 36003KT 330V070 CAVOK 19/02 Q1015 NOSIG
13-08-10 METAR LIMC 100220Z 04004KT 350V050 CAVOK 18/04 Q1015 NOSIG
13-08-10 METAR LIMC 100250Z 01008KT CAVOK 22/02 Q1014 NOSIG
13-08-10 METAR LIMC 100320Z 35008KT CAVOK 21/02 Q1014 NOSIG
13-08-10 METAR LIMC 100350Z 36009KT CAVOK 20/03 Q1014 NOSIG
13-08-10 METAR LIMC 100420Z 34007KT CAVOK 17/04 Q1015 NOSIG
13-08-10 METAR LIMC 100450Z 33007KT CAVOK 18/04 Q1015 NOSIG
13-08-10 METAR LIMC 100520Z 34007KT 320V020 CAVOK 20/05 Q1015 NOSIG
13-08-10 METAR LIMC 100550Z 33007KT CAVOK 22/05 Q1015 NOSIG
13-08-10 METAR LIMC 100620Z 35008KT CAVOK 24/05 Q1015 NOSIG
13-08-10 METAR LIMC 100650Z 36008KT CAVOK 25/05 Q1015 NOSIG
13-08-10 METAR LIMC 100720Z 36007KT 330V030 CAVOK 25/06 Q1015 NOSIG
13-08-10 METAR LIMC 100750Z 36008KT 330V040 CAVOK 26/06 Q1016 NOSIG
13-08-10 METAR LIMC 100820Z 36008KT 330V040 CAVOK 27/06 Q1016 NOSIG
13-08-10 METAR LIMC 100850Z 35009KT 310V030 CAVOK 28/06 Q1016 NOSIG
13-08-10 METAR LIMC 100920Z NIL
13-08-10 METAR LIMC 100950Z NIL
13-08-10 METAR LIMC 101020Z 04009G19KT 360V080 CAVOK 29/04 Q1016 NOSIG
13-08-10 METAR LIMC 101050Z 07007G20KT 010V130 CAVOK 29/04 Q1016 NOSIG
13-08-10 METAR LIMC 101120Z VRB06G20KT CAVOK 30/04 Q1016 NOSIG
13-08-10 METAR LIMC 101150Z VRB06KT CAVOK 30/04 Q1015 NOSIG
13-08-10 METAR LIMC 101220Z 06007KT 330V140 CAVOK 30/04 Q1015 NOSIG
13-08-10 METAR LIMC 101250Z VRB06KT CAVOK 31/09 Q1015 NOSIG
13-08-10 METAR LIMC 101320Z 21006KT 150V260 CAVOK 31/09 Q1015 NOSIG
13-08-10 METAR LIMC 101350Z 23009KT 190V270 CAVOK 30/10 Q1015 NOSIG
13-08-10 METAR LIMC 101420Z 23007KT 160V280 CAVOK 30/11 Q1015 NOSIG
13-08-10 METAR LIMC 101450Z 23008KT 170V280 CAVOK 30/11 Q1015 NOSIG
13-08-10 METAR LIMC 101520Z 24010KT CAVOK 29/11 Q1015 NOSIG
13-08-10 METAR LIMC 101550Z 22009KT 190V250 CAVOK 29/11 Q1015 NOSIG
13-08-10 METAR LIMC 101620Z 24008KT 210V270 CAVOK 29/11 Q1015 NOSIG
13-08-10 METAR LIMC 101650Z 24007KT 210V290 CAVOK 29/10 Q1015 NOSIG
13-08-10 METAR LIMC 101720Z 24005KT 200V280 CAVOK 28/10 Q1015 NOSIG
13-08-10 METAR LIMC 101750Z 23005KT CAVOK 28/11 Q1015 NOSIG
13-08-10 METAR LIMC 101820Z 22005KT CAVOK 26/12 Q1015 NOSIG
13-08-10 METAR LIMC 101850Z 19003KT 160V230 CAVOK 24/12 Q1015 NOSIG
13-08-10 METAR LIMC 101920Z VRB01KT CAVOK 23/12 Q1016 NOSIG
13-08-10 METAR LIMC 101950Z VRB01KT CAVOK 22/13 Q1016 NOSIG
13-08-10 METAR LIMC 102020Z 03003KT 340V080 CAVOK 21/13 Q1016 NOSIG
13-08-10 METAR LIMC 102050Z 04004KT 340V080 CAVOK 21/13 Q1016 NOSIG
13-08-10 METAR LIMC 102120Z VRB02KT CAVOK 20/13 Q1017 NOSIG
13-08-10 METAR LIMC 102150Z 35004KT CAVOK 19/13 Q1017 NOSIG
13-08-10 METAR LIMC 102220Z VRB01KT CAVOK 18/14 Q1017 NOSIG
13-08-10 METAR LIMC 102250Z 00000KT CAVOK 18/14 Q1017 NOSIG
13-08-10 METAR LIMC 102320Z 36003KT CAVOK 18/14 Q1017 NOSIG
13-08-10 METAR LIMC 102350Z VRB02KT CAVOK 17/13 Q1017 NOSIG
13-08-11 METAR LIMC 110020Z 35005KT CAVOK 17/13 Q1017 NOSIG
13-08-11 METAR LIMC 110050Z 34005KT CAVOK 16/14 Q1017 NOSIG
13-08-11 METAR LIMC 110120Z 03003KT 360V100 CAVOK 18/13 Q1017 NOSIG
13-08-11 METAR LIMC 110150Z 36003KT CAVOK 18/13 Q1017 NOSIG
13-08-11 METAR LIMC 110220Z 01003KT CAVOK 17/12 Q1017 NOSIG
13-08-11 METAR LIMC 110250Z 36003KT CAVOK 17/12 Q1017 NOSIG
13-08-11 METAR LIMC 110320Z 01004KT CAVOK 16/12 Q1017 NOSIG
13-08-11 METAR LIMC 110350Z 36006KT CAVOK 18/11 Q1017 NOSIG
13-08-11 METAR LIMC 110420Z 35007KT 9999 SCT070 19/11 Q1017 NOSIG
13-08-11 METAR LIMC 110450Z 36007KT 9999 BKN070 20/11 Q1017 NOSIG
13-08-11 METAR LIMC 110520Z 35007KT 9999 BKN070 20/11 Q1017 NOSIG
13-08-11 METAR LIMC 110550Z 36005KT 9999 BKN070 20/11 Q1018 NOSIG
13-08-11 METAR LIMC 110620Z 36005KT 330V030 9999 BKN070 21/12 Q1018 NOSIG
13-08-11 METAR LIMC 110650Z 01005KT 330V030 9999 BKN070 22/11 Q1018 NOSIG
13-08-11 METAR LIMC 110720Z 01006KT 330V040 9999 SCT070 23/11 Q1018 NOSIG
13-08-11 METAR LIMC 110750Z 36006KT 330V030 9999 BKN070 24/11 Q1018 NOSIG
13-08-11 METAR LIMC 110820Z 01003KT 320V070 9999 BKN070 26/12 Q1018 NOSIG
13-08-11 METAR LIMC 110850Z 10004KT 050V150 9999 BKN070 26/12 Q1018 NOSIG
13-08-11 METAR LIMC 110920Z 09006KT 020V150 9999 SCT070 27/13 Q1018 NOSIG
13-08-11 METAR LIMC 110950Z VRB03KT 9999 FEW070 28/12 Q1018 NOSIG
13-08-11 METAR LIMC 111020Z VRB04KT 9999 FEW050 28/12 Q1018 NOSIG
13-08-11 METAR LIMC 111050Z VRB06KT 9999 SCT040 29/12 Q1018 NOSIG
13-08-11 METAR LIMC 111120Z VRB04KT 9999 SCT040 28/12 Q1017 NOSIG
13-08-11 METAR LIMC 111150Z 07004KT 030V090 9999 SCT040 27/12 Q1017 NOSIG
13-08-11 METAR LIMC 111220Z 06004KT 010V090 9999 SCT040 27/12 Q1017 NOSIG
13-08-11 METAR LIMC 111250Z 08004KT 010V140 9999 SCT040 27/13 Q1017 NOSIG
13-08-11 METAR LIMC 111320Z 12004KT 070V160 9999 SCT040 27/13 Q1016 NOSIG
13-08-11 METAR LIMC 111350Z 09004KT 040V140 9999 SCT040 28/12 Q1016 NOSIG
13-08-11 METAR LIMC 111420Z VRB04KT 9999 SCT040 28/12 Q1016 NOSIG
13-08-11 METAR LIMC 111450Z VRB02KT 9999 FEW040 30/12 Q1016 NOSIG
13-08-11 METAR LIMC 111520Z 21005KT 180V260 9999 FEW040 30/13 Q1016 NOSIG
13-08-11 METAR LIMC 111550Z 24008KT 210V270 9999 FEW040 29/13 Q1015 NOSIG
13-08-11 METAR LIMC 111620Z 26007KT 220V290 9999 FEW040 29/12 Q1015 NOSIG
13-08-11 METAR LIMC 111650Z 25006KT 210V280 CAVOK 29/11 Q1015 NOSIG
13-08-11 METAR LIMC 111720Z 24007KT CAVOK 28/11 Q1015 NOSIG
13-08-11 METAR LIMC 111750Z 26006KT CAVOK 27/11 Q1015 NOSIG
13-08-11 METAR LIMC 111820Z 25006KT CAVOK 26/12 Q1015 NOSIG
13-08-11 METAR LIMC 111850Z 21003KT 180V250 CAVOK 24/13 Q1015 NOSIG
13-08-11 METAR LIMC 111920Z 00000KT CAVOK 24/13 Q1015 NOSIG
13-08-11 METAR LIMC 111950Z VRB01KT CAVOK 21/14 Q1016 NOSIG
13-08-11 METAR LIMC 112020Z 00000KT CAVOK 19/14 Q1016 NOSIG
13-08-11 METAR LIMC 112050Z VRB02KT CAVOK 20/14 Q1016 NOSIG
13-08-11 METAR LIMC 112120Z 36003KT 340V050 CAVOK 20/14 Q1016 NOSIG
13-08-11 METAR LIMC 112150Z 36003KT CAVOK 18/15 Q1016 NOSIG
13-08-11 METAR LIMC 112220Z VRB02KT CAVOK 18/15 Q1016 NOSIG
13-08-11 METAR LIMC 112250Z 03001KT CAVOK 18/16 Q1016 NOSIG
13-08-11 METAR LIMC 112320Z 36003KT CAVOK 18/16 Q1016 NOSIG
13-08-11 METAR LIMC 112350Z 36002KT CAVOK 19/16 Q1016 NOSIG
13-08-12 METAR LIMC 120020Z NIL
13-08-12 METAR LIMC 120020Z 01002KT CAVOK 17/15 Q1016 NOSIG
13-08-12 METAR LIMC 120050Z 02003KT 340V040 CAVOK 17/15 Q1016 NOSIG
13-08-12 METAR LIMC 120120Z 36003KT CAVOK 17/16 Q1016 NOSIG
13-08-12 METAR LIMC 120150Z 35005KT CAVOK 18/16 Q1016 NOSIG
13-08-12 METAR LIMC 120220Z 02003KT 340V040 CAVOK 17/16 Q1016 NOSIG
13-08-12 METAR LIMC 120250Z 36004KT CAVOK 17/16 Q1016 NOSIG
13-08-12 METAR LIMC 120320Z VRB02KT CAVOK 18/15 Q1016 NOSIG
13-08-12 METAR LIMC 120350Z 01003KT 340V050 CAVOK 18/15 Q1017 NOSIG
13-08-12 METAR LIMC 120420Z VRB01KT CAVOK 18/15 Q1017 NOSIG
13-08-12 METAR LIMC 120450Z 01004KT CAVOK 18/15 Q1017 NOSIG
13-08-12 METAR LIMC 120520Z NIL
13-08-12 METAR LIMC 120520Z 36006KT CAVOK 19/16 Q1017 NOSIG
13-08-12 METAR LIMC 120550Z 36008KT 9999 SCT060 21/15 Q1017 NOSIG
13-08-12 METAR LIMC 120620Z 36006KT 330V030 9999 SCT070 22/15 Q1017 NOSIG
13-08-12 METAR LIMC 120650Z 01003KT 340V050 9999 BKN070 23/15 Q1018 NOSIG
13-08-12 METAR LIMC 120720Z 35004KT 330V030 9999 BKN060 24/15 Q1018 NOSIG
13-08-12 METAR LIMC 120750Z 35004KT 310V030 9999 BKN060 24/16 Q1018 NOSIG
13-08-12 METAR LIMC 120820Z 35005KT 320V030 9999 BKN060 24/15 Q1018 NOSIG
13-08-12 METAR LIMC 120850Z VRB02KT 9999 BKN070 26/15 Q1018 NOSIG
13-08-12 METAR LIMC 120920Z 17004KT 130V220 9999 SCT070 27/14 Q1018 NOSIG
13-08-12 METAR LIMC 120950Z VRB03KT 9999 SCT070 27/14 Q1018 NOSIG
13-08-12 METAR LIMC 121020Z VRB04G15KT 9999 SCT070 28/14 Q1017 NOSIG
13-08-12 METAR LIMC 121050Z VRB05KT 9999 SCT040 28/14 Q1017 NOSIG
13-08-12 METAR LIMC 121120Z 25005KT 210V320 9999 SCT040 28/14 Q1017 NOSIG
13-08-12 METAR LIMC 121150Z VRB02KT 9999 SCT030 29/13 Q1017 NOSIG
13-08-12 METAR LIMC 121220Z 19006KT 120V230 9999 SCT030 29/12 Q1016 NOSIG
13-08-12 METAR LIMC 121250Z 13005KT 080V210 9999 SCT030 30/13 Q1016 NOSIG
13-08-12 METAR LIMC 121320Z 22004KT 140V310 9999 SCT030 31/12 Q1016 NOSIG
13-08-12 METAR LIMC 121350Z 22009KT 190V260 9999 SCT030 31/14 Q1016 NOSIG
13-08-12 METAR LIMC 121420Z NIL
13-08-12 METAR LIMC 121420Z 20006KT 170V230 9999 SCT030 30/14 Q1015 NOSIG
13-08-12 METAR LIMC 121450Z 20005KT 140V250 9999 SCT030 30/13 Q1015 NOSIG
13-08-12 METAR LIMC 121520Z 24008KT 9999 SCT030 30/13 Q1015 NOSIG
13-08-12 METAR LIMC 121550Z 27008KT 240V300 9999 FEW035 30/14 Q1015 NOSIG
13-08-12 METAR LIMC 121620Z 26007KT 230V300 9999 FEW035 30/14 Q1014 NOSIG
13-08-12 METAR LIMC 121650Z 24007KT 210V270 CAVOK 29/14 Q1014 NOSIG
13-08-12 METAR LIMC 121720Z 25007KT CAVOK 29/13 Q1014 NOSIG
13-08-12 METAR LIMC 121750Z 24006KT CAVOK 28/13 Q1014 NOSIG
13-08-12 METAR LIMC 121820Z 23006KT CAVOK 27/15 Q1015 NOSIG
13-08-12 METAR LIMC 121850Z 22004KT CAVOK 24/15 Q1014 NOSIG
13-08-12 METAR LIMC 121920Z VRB02KT CAVOK 23/16 Q1015 NOSIG
13-08-12 METAR LIMC 121950Z VRB02KT CAVOK 24/16 Q1015 NOSIG
13-08-12 METAR LIMC 122020Z 35005KT 330V030 CAVOK 24/16 Q1015 NOSIG
13-08-12 METAR LIMC 122050Z 36004KT CAVOK 21/16 Q1015 NOSIG
13-08-12 METAR LIMC 122120Z 00000KT CAVOK 20/16 Q1015 NOSIG
13-08-12 METAR LIMC 122150Z VRB02KT CAVOK 20/16 Q1015 NOSIG
13-08-12 METAR LIMC 122220Z VRB01KT 9999 FEW060 20/16 Q1015 NOSIG
13-08-12 METAR LIMC 122250Z VRB01KT 9999 FEW040 20/17 Q1015 NOSIG
13-08-12 METAR LIMC 122320Z 00000KT 9999 FEW040 20/17 Q1015 NOSIG
13-08-12 METAR LIMC 122350Z 03002KT 9999 FEW040 19/17 Q1015 NOSIG
13-08-13 METAR LIMC 130020Z 03001KT CAVOK 18/16 Q1014 NOSIG
13-08-13 METAR LIMC 130050Z 01003KT CAVOK 18/17 Q1014 NOSIG
13-08-13 METAR LIMC 130120Z 36004KT CAVOK 18/16 Q1014 NOSIG
13-08-13 METAR LIMC 130150Z 35005KT CAVOK 18/17 Q1014 NOSIG
13-08-13 METAR LIMC 130220Z 36004KT CAVOK 19/17 Q1014 NOSIG
13-08-13 METAR LIMC 130250Z 35006KT CAVOK 18/16 Q1014 NOSIG
13-08-13 METAR LIMC 130320Z 02003KT 350V060 CAVOK 18/16 Q1014 NOSIG
13-08-13 METAR LIMC 130350Z VRB02KT CAVOK 18/16 Q1014 NOSIG
13-08-13 METAR LIMC 130420Z 01003KT 340V050 CAVOK 18/16 Q1014 NOSIG
13-08-13 METAR LIMC 130450Z 35006KT CAVOK 19/17 Q1014 NOSIG
13-08-13 METAR LIMC 130520Z 02004KT 350V060 CAVOK 20/17 Q1014 NOSIG
13-08-13 METAR LIMC 130550Z 36006KT 9999 FEW045 21/17 Q1014 NOSIG
13-08-13 METAR LIMC 130550Z NIL
13-08-13 METAR LIMC 130620Z 35007KT 320V020 CAVOK 22/16 Q1014 NOSIG
13-08-13 METAR LIMC 130650Z 36005KT 330V030 CAVOK 24/15 Q1015 NOSIG
13-08-13 METAR LIMC 130720Z 36003KT 300V060 CAVOK 26/15 Q1015 NOSIG
13-08-13 METAR LIMC 130750Z 30003KT 230V360 CAVOK 26/15 Q1015 NOSIG
13-08-13 METAR LIMC 130820Z 24004KT 180V300 CAVOK 27/15 Q1015 NOSIG
13-08-13 METAR LIMC 130850Z 27003KT 170V320 CAVOK 29/15 Q1015 NOSIG
13-08-13 METAR LIMC 130920Z 26003KT 190V350 CAVOK 29/15 Q1015 NOSIG
13-08-13 METAR LIMC 130950Z 25005KT 200V290 CAVOK 29/15 Q1014 NOSIG
13-08-13 METAR LIMC 131020Z 26008KT 210V290 CAVOK 30/16 Q1014 NOSIG
13-08-13 METAR LIMC 131050Z 22005KT 150V270 CAVOK 30/15 Q1014 NOSIG
13-08-13 METAR LIMC 131120Z 26007KT 180V340 9999 FEW025 30/16 Q1014 NOSIG
13-08-13 METAR LIMC 131150Z 23006KT 190V270 9999 FEW025 29/17 Q1014 NOSIG
13-08-13 METAR LIMC 131220Z 24007KT 210V300 9999 FEW025 30/17 Q1014 NOSIG
13-08-13 METAR LIMC 131250Z 23008KT 190V290 9999 FEW030 31/16 Q1014 NOSIG
13-08-13 METAR LIMC 131320Z 27007KT 210V340 9999 FEW030 31/16 Q1013 NOSIG
13-08-13 METAR LIMC 131350Z VRB07KT CAVOK 31/16 Q1013 NOSIG
13-08-13 METAR LIMC 131420Z 26006KT 220V300 CAVOK 31/15 Q1013 NOSIG
13-08-13 METAR LIMC 131450Z 25007KT 210V290 CAVOK 31/15 Q1013 NOSIG
13-08-13 METAR LIMC 131520Z 24010KT CAVOK 31/16 Q1012 NOSIG
13-08-13 METAR LIMC 131550Z 23008KT CAVOK 30/16 Q1012 NOSIG
13-08-13 METAR LIMC 131620Z 23008KT CAVOK 30/15 Q1012 NOSIG
13-08-13 METAR LIMC 131650Z 24005KT 200V270 CAVOK 30/16 Q1012 NOSIG
13-08-13 METAR LIMC 131720Z 22005KT CAVOK 30/15 Q1012 NOSIG
13-08-13 METAR LIMC 131750Z 22004KT CAVOK 29/15 Q1012 NOSIG
13-08-13 METAR LIMC 131820Z 20004KT CAVOK 27/16 Q1012 NOSIG
13-08-13 METAR LIMC 131850Z VRB01KT CAVOK 25/16 Q1012 NOSIG
13-08-13 METAR LIMC 131920Z VRB02KT CAVOK 26/16 Q1013 NOSIG
13-08-13 METAR LIMC 131950Z 19006KT CAVOK 25/17 Q1013 NOSIG
13-08-13 METAR LIMC 132020Z 20004KT CAVOK 24/17 Q1013 NOSIG
13-08-13 METAR LIMC 132050Z 20003KT 150V240 9999 FEW045 23/17 Q1013 NOSIG
13-08-13 METAR LIMC 132120Z 22003KT 190V250 9999 FEW045 SCT075 23/17 Q1013 NOSIG
13-08-13 METAR LIMC 132150Z 27005KT 210V310 9999 SCT070 24/17 Q1014 NOSIG
13-08-13 METAR LIMC 132220Z 24004KT 9999 SCT070 23/17 Q1014 NOSIG
13-08-13 METAR LIMC 132250Z NIL
13-08-13 METAR LIMC 132250Z VRB01KT 9999 SCT070 21/17 Q1014 NOSIG
13-08-13 METAR LIMC 132320Z 00000KT 9999 SCT070 21/18 Q1014 NOSIG
13-08-13 METAR LIMC 132350Z 20003KT 170V230 9999 SCT070 20/18 Q1013 NOSIG
13-08-14 METAR LIMC 140020Z VRB01KT 9999 SCT070 20/18 Q1013 NOSIG
13-08-14 METAR LIMC 140050Z 00000KT 9999 SCT070 20/18 Q1013 NOSIG
13-08-14 METAR LIMC 140120Z 02001KT 9999 SCT050 20/18 Q1013 NOSIG
13-08-14 METAR LIMC 140150Z 00000KT 9999 SCT050 19/18 Q1013 NOSIG
13-08-14 METAR LIMC 140220Z VRB01KT 9999 SCT050 19/18 Q1013 NOSIG
13-08-14 METAR LIMC 140250Z VRB02KT 9999 SCT050 18/17 Q1013 NOSIG
13-08-14 METAR LIMC 140320Z NIL
13-08-14 METAR LIMC 140320Z 04002KT 9999 SCT050 19/18 Q1013 NOSIG
13-08-14 METAR LIMC 140350Z NIL
13-08-14 METAR LIMC 140350Z 00000KT 9999 SCT050 19/18 Q1014 NOSIG
13-08-14 METAR LIMC 140420Z VRB02KT 9999 SCT050 19/18 Q1014 NOSIG
13-08-14 METAR LIMC 140450Z VRB02KT 9999 SCT045 20/18 Q1014 NOSIG
13-08-14 METAR LIMC 140520Z VRB02KT 9999 9000NW SCT045 21/18 Q1014 NOSIG
13-08-14 METAR LIMC 140550Z VRB02KT 9999 SCT045 22/19 Q1015 NOSIG
13-08-14 METAR LIMC 140620Z 14011G22KT 110V170 9999 BKN045 22/17 Q1015 NOSIG
13-08-14 METAR LIMC 140650Z 14007KT 110V180 9999 SCT045 22/18 Q1016 NOSIG
13-08-14 METAR LIMC 140720Z 13008KT 100V170 9999 SCT045 21/18 Q1016 NOSIG
13-08-14 METAR LIMC 140750Z 14006KT 090V170 9999 FEW025 SCT045 22/18 Q1017 NOSIG
13-08-14 METAR LIMC 140820Z 12005KT 050V170 9999 FEW025 SCT045 22/17 Q1017 NOSIG
13-08-14 METAR LIMC 140850Z 14008KT 9999 BKN035 22/18 Q1017 NOSIG
13-08-14 METAR LIMC 140920Z 14011KT 110V170 9999 BKN040 21/17 Q1018 NOSIG
13-08-14 METAR LIMC 140950Z 14010KT 9999 BKN030 21/17 Q1018 NOSIG
13-08-14 METAR LIMC 141020Z 13005KT 090V170 9999 BKN030 22/17 Q1018 NOSIG
13-08-14 METAR LIMC 141050Z 13009KT 090V160 9999 2500W VCSH FEW025TCU BKN030 21/17 Q1018 NOSIG
13-08-14 METAR LIMC 141120Z 13010KT 9999 -SHRA FEW025TCU BKN030 21/16 Q1018 BECMG TS
13-08-14 METAR LIMC 141150Z 11008KT 080V150 9999 BKN030 21/16 Q1018 NOSIG
13-08-14 METAR LIMC 141220Z 11007KT 070V150 9999 BKN030 22/16 Q1019 NOSIG
13-08-14 METAR LIMC 141250Z 11009KT 9999 BKN030 BKN050 22/16 Q1019 NOSIG
13-08-14 METAR LIMC 141320Z 12009KT 090V160 9999 SCT030 BKN050 22/16 Q1019 NOSIG
13-08-14 METAR LIMC 141350Z 12008KT 090V150 9999 SCT030 BKN050 22/15 Q1019 NOSIG
13-08-14 METAR LIMC 141420Z 13010KT 110V170 9999 SCT030 BKN050 22/15 Q1019 NOSIG
13-08-14 METAR LIMC 141450Z 10009G19KT 040V160 9999 SCT020 BKN050 22/15 Q1019 NOSIG
13-08-14 METAR LIMC 141520Z 09005G17KT 010V170 9999 SCT020 SCT050 22/14 Q1019 NOSIG
13-08-14 METAR LIMC 141550Z 08005KT 020V130 9999 SCT020 SCT050 23/15 Q1018 NOSIG
13-08-14 METAR LIMC 141620Z 08006KT 040V120 9999 SCT025 SCT070 22/15 Q1018 NOSIG
13-08-14 METAR LIMC 141650Z 06005KT 020V120 9999 FEW025 SCT070 23/15 Q1018 NOSIG
13-08-14 METAR LIMC 141720Z 09004KT 040V140 9999 FEW030 BKN080 22/15 Q1019 NOSIG
13-08-14 METAR LIMC 141750Z 10003KT 020V160 9999 FEW030 SCT080 22/15 Q1019 NOSIG
13-08-14 METAR LIMC 141820Z 11003KT 9999 FEW030 SCT080 21/15 Q1019 NOSIG
13-08-14 METAR LIMC 141850Z VRB02KT 9999 FEW030 SCT080 20/15 Q1019 NOSIG
13-08-14 METAR LIMC 141920Z VRB02KT 9999 FEW030 19/15 Q1019 NOSIG
13-08-14 METAR LIMC 141950Z 06003KT 9999 FEW030 19/15 Q1020 NOSIG
13-08-14 METAR LIMC 142020Z 05003KT 9999 FEW030 18/15 Q1020 NOSIG
13-08-14 METAR LIMC 142050Z VRB04KT 9999 FEW030 SCT070 19/15 Q1020 NOSIG
13-08-14 METAR LIMC 142120Z VRB02KT 9999 FEW030 SCT070 19/15 Q1020 NOSIG
13-08-14 METAR LIMC 142150Z 04002KT 9999 FEW030 SCT060 19/15 Q1020 NOSIG
13-08-14 METAR LIMC 142220Z 34003KT 9999 FEW030 SCT060 19/15 Q1021 NOSIG
13-08-14 METAR LIMC 142250Z 00000KT 9999 FEW030 SCT060 19/15 Q1021 NOSIG
13-08-14 METAR LIMC 142320Z 01003KT 9999 FEW030 SCT060 19/15 Q1021 NOSIG
13-08-14 METAR LIMC 142350Z 04002KT 9999 FEW030 SCT060 19/15 Q1021 NOSIG
13-08-15 METAR LIMC 150020Z 03002KT 9999 FEW030 SCT060 18/15 Q1021 NOSIG
13-08-15 METAR LIMC 150050Z 01002KT 9999 FEW030 SCT060 19/15 Q1021 NOSIG
13-08-15 METAR LIMC 150120Z 35002KT 9999 FEW030 SCT060 19/15 Q1021 NOSIG
13-08-15 METAR LIMC 150150Z 01003KT 9999 FEW030 SCT060 18/15 Q1021 NOSIG
13-08-15 METAR LIMC 150220Z 02002KT 9999 FEW030 SCT060 18/15 Q1021 NOSIG
13-08-15 METAR LIMC 150250Z 03002KT 9999 FEW030 SCT060 18/15 Q1021 NOSIG
13-08-15 METAR LIMC 150320Z 04001KT 9999 SCT060 18/15 Q1021 NOSIG
13-08-15 METAR LIMC 150350Z 00000KT 9999 SCT040 17/15 Q1021 NOSIG
13-08-15 METAR LIMC 150420Z 00000KT 9999 SCT040 17/15 Q1021 NOSIG
13-08-15 METAR LIMC 150450Z VRB01KT 9999 FEW040 SCT070 16/15 Q1022 NOSIG
13-08-15 METAR LIMC 150520Z VRB02KT 9999 SCT080 18/15 Q1022 NOSIG
13-08-15 METAR LIMC 150550Z VRB02KT 9999 SCT080 19/15 Q1022 NOSIG
13-08-15 METAR LIMC 150620Z VRB01KT 9999 FEW080 21/14 Q1022 NOSIG
13-08-15 METAR LIMC 150650Z VRB02KT CAVOK 22/13 Q1022 NOSIG
13-08-15 METAR LIMC 150720Z VRB02KT CAVOK 23/12 Q1022 NOSIG
13-08-15 METAR LIMC 150750Z VRB03KT CAVOK 24/12 Q1022 NOSIG
13-08-15 METAR LIMC 150820Z 26005KT 210V300 CAVOK 23/12 Q1022 NOSIG
13-08-15 METAR LIMC 150850Z 30005KT 230V030 CAVOK 24/12 Q1022 NOSIG
13-08-15 METAR LIMC 150920Z VRB04KT CAVOK 24/12 Q1022 NOSIG
13-08-15 METAR LIMC 150950Z VRB01KT 9999 FEW050 25/12 Q1022 NOSIG
13-08-15 METAR LIMC 151020Z 14005KT 100V160 9999 SCT040 26/11 Q1022 NOSIG
13-08-15 METAR LIMC 151050Z 22004KT 120V270 9999 SCT040 24/11 Q1022 NOSIG
13-08-15 METAR LIMC 151120Z 26006KT 200V320 9999 SCT040 25/12 Q1022 NOSIG
13-08-15 METAR LIMC 151150Z 27007KT 230V310 9999 SCT040 26/12 Q1021 NOSIG
13-08-15 METAR LIMC 151220Z 27007KT 210V320 9999 SCT040 27/12 Q1021 NOSIG
13-08-15 METAR LIMC 151250Z 26008KT 230V310 9999 SCT030 27/13 Q1021 NOSIG
13-08-15 METAR LIMC 151320Z 24009KT 190V320 9999 SCT030 26/12 Q1021 NOSIG
13-08-15 METAR LIMC 151350Z 25009KT 200V290 9999 SCT030 27/12 Q1021 NOSIG
13-08-15 METAR LIMC 151420Z 27008KT 200V310 9999 SCT030 27/11 Q1020 NOSIG
13-08-15 METAR LIMC 151450Z 25009KT 190V300 9999 SCT030 27/11 Q1020 NOSIG
13-08-15 METAR LIMC 151520Z 24007KT 190V290 9999 SCT030 27/10 Q1020 NOSIG
13-08-15 METAR LIMC 151550Z 24006KT 190V340 9999 FEW030 27/11 Q1020 NOSIG
13-08-15 METAR LIMC 151620Z 24006KT 190V280 9999 FEW030 26/11 Q1020 NOSIG
13-08-15 METAR LIMC 151650Z 23006KT 190V270 CAVOK 26/09 Q1020 NOSIG
13-08-15 METAR LIMC 151720Z 23006KT CAVOK 26/10 Q1020 NOSIG
13-08-15 METAR LIMC 151750Z 22005KT CAVOK 25/11 Q1020 NOSIG
13-08-15 METAR LIMC 151820Z 22004KT CAVOK 24/11 Q1020 NOSIG
13-08-15 METAR LIMC 151850Z 19003KT 150V210 CAVOK 22/12 Q1020 NOSIG
13-08-15 METAR LIMC 151920Z 15003KT CAVOK 21/11 Q1020 NOSIG
13-08-15 METAR LIMC 151950Z VRB02KT CAVOK 20/12 Q1021 NOSIG
13-08-15 METAR LIMC 152020Z VRB02KT CAVOK 19/12 Q1021 NOSIG
13-08-15 METAR LIMC 152050Z VRB02KT CAVOK 18/12 Q1021 NOSIG
13-08-15 METAR LIMC 152120Z VRB02KT CAVOK 19/13 Q1021 NOSIG
13-08-15 METAR LIMC 152150Z 01002KT CAVOK 17/12 Q1021 NOSIG
13-08-15 METAR LIMC 152220Z VRB02KT CAVOK 16/12 Q1021 NOSIG
13-08-15 METAR LIMC 152250Z 35001KT CAVOK 16/13 Q1022 NOSIG
13-08-15 METAR LIMC 152320Z 36002KT CAVOK 16/13 Q1022 NOSIG
13-08-15 METAR LIMC 152350Z 36002KT CAVOK 15/13 Q1022 NOSIG
13-08-16 METAR LIMC 160020Z 36002KT CAVOK 15/14 Q1021 NOSIG
13-08-16 METAR LIMC 160050Z 36003KT CAVOK 14/13 Q1021 NOSIG
13-08-16 METAR LIMC 160120Z 36004KT CAVOK 15/14 Q1021 NOSIG
13-08-16 METAR LIMC 160150Z 35002KT CAVOK 14/13 Q1021 NOSIG
13-08-16 METAR LIMC 160220Z 36004KT CAVOK 15/13 Q1021 NOSIG
13-08-16 METAR LIMC 160250Z 36004KT CAVOK 15/13 Q1021 NOSIG
13-08-16 METAR LIMC 160320Z 01003KT CAVOK 15/13 Q1021 NOSIG
13-08-16 METAR LIMC 160350Z 01003KT 330V030 CAVOK 14/13 Q1021 NOSIG
13-08-16 METAR LIMC 160420Z 36003KT CAVOK 14/13 Q1021 NOSIG
13-08-16 METAR LIMC 160450Z 36003KT CAVOK 14/14 Q1021 NOSIG
13-08-16 METAR LIMC 160520Z 36005KT CAVOK 17/15 Q1021 NOSIG
13-08-16 METAR LIMC 160550Z 01003KT 330V080 CAVOK 18/15 Q1021 NOSIG
13-08-16 METAR LIMC 160620Z 36006KT 330V030 CAVOK 20/15 Q1021 NOSIG
13-08-16 METAR LIMC 160650Z 36004KT 310V030 CAVOK 22/14 Q1021 NOSIG
13-08-16 METAR LIMC 160720Z 02003KT 320V080 CAVOK 23/13 Q1021 NOSIG
13-08-16 METAR LIMC 160750Z VRB02KT CAVOK 24/13 Q1021 NOSIG
13-08-16 METAR LIMC 160820Z VRB01KT CAVOK 25/11 Q1021 NOSIG
13-08-16 METAR LIMC 160850Z 14004KT 070V180 CAVOK 26/12 Q1021 NOSIG
13-08-16 METAR LIMC 160920Z 23003KT CAVOK 26/12 Q1021 NOSIG
13-08-16 METAR LIMC 160950Z 24008KT 210V290 9999 FEW030 26/11 Q1021 NOSIG
13-08-16 METAR LIMC 161020Z 30006KT 240V340 9999 FEW030 26/11 Q1020 NOSIG
13-08-16 METAR LIMC 161050Z VRB07KT 9999 FEW030 27/11 Q1020 NOSIG
13-08-16 METAR LIMC 161120Z 23007KT 180V290 9999 FEW030 27/12 Q1020 NOSIG
13-08-16 METAR LIMC 161150Z 23007KT 190V280 9999 SCT030 27/11 Q1020 NOSIG
13-08-16 METAR LIMC 161220Z 20007KT 110V250 9999 FEW030 28/11 Q1019 NOSIG
13-08-16 METAR LIMC 161250Z 23007KT 170V270 9999 FEW030 28/11 Q1019 NOSIG
13-08-16 METAR LIMC 161320Z VRB08KT 9999 FEW030 28/11 Q1019 NOSIG
13-08-16 METAR LIMC 161350Z VRB06KT CAVOK 28/12 Q1018 NOSIG
13-08-16 METAR LIMC 161420Z NIL
13-08-16 METAR LIMC 161420Z 24009KT 180V270 CAVOK 28/12 Q1018 NOSIG
13-08-16 METAR LIMC 161450Z 25010KT 210V280 CAVOK 28/12 Q1018 NOSIG
13-08-16 METAR LIMC 161520Z 24009KT 210V270 CAVOK 28/12 Q1018 NOSIG
13-08-16 METAR LIMC 161550Z VRB06KT CAVOK 27/13 Q1018 NOSIG
13-08-16 METAR LIMC 161620Z 24007KT 210V270 CAVOK 27/13 Q1018 NOSIG
13-08-16 METAR LIMC 161650Z 22006KT 200V260 CAVOK 26/13 Q1018 NOSIG
13-08-16 METAR LIMC 161720Z 23006KT CAVOK 26/13 Q1018 NOSIG
13-08-16 METAR LIMC 161750Z 21004KT CAVOK 25/13 Q1018 NOSIG
13-08-16 METAR LIMC 161820Z VRB02KT CAVOK 23/14 Q1018 NOSIG
13-08-16 METAR LIMC 161850Z VRB02KT CAVOK 22/14 Q1018 NOSIG
13-08-16 METAR LIMC 161920Z VRB01KT CAVOK 21/14 Q1018 NOSIG
13-08-16 METAR LIMC 161950Z VRB01KT CAVOK 20/14 Q1018 NOSIG
13-08-16 METAR LIMC 162020Z VRB02KT CAVOK 20/14 Q1018 NOSIG
13-08-16 METAR LIMC 162050Z VRB02KT CAVOK 19/14 Q1018 NOSIG
13-08-16 METAR LIMC 162120Z VRB02KT CAVOK 18/15 Q1019 NOSIG
13-08-16 METAR LIMC 162150Z 02001KT CAVOK 17/14 Q1019 NOSIG
13-08-16 METAR LIMC 162220Z VRB01KT CAVOK 17/15 Q1019 NOSIG
13-08-16 METAR LIMC 162250Z 03001KT CAVOK 17/14 Q1019 NOSIG
13-08-16 METAR LIMC 162320Z NIL
13-08-16 METAR LIMC 162320Z 01002KT CAVOK 17/14 Q1019 NOSIG
13-08-16 METAR LIMC 162350Z 36004KT CAVOK 17/15 Q1019 NOSIG
13-08-17 METAR LIMC 170020Z 36003KT CAVOK 17/16 Q1019 NOSIG
13-08-17 METAR LIMC 170050Z 02003KT CAVOK 17/15 Q1018 NOSIG
13-08-17 METAR LIMC 170120Z 00000KT CAVOK 17/15 Q1018 NOSIG
13-08-17 METAR LIMC 170150Z NIL
13-08-17 METAR LIMC 170150Z 34004KT CAVOK 16/15 Q1018 NOSIG
13-08-17 METAR LIMC 170220Z 01003KT CAVOK 16/15 Q1018 NOSIG
13-08-17 METAR LIMC 170250Z 02003KT CAVOK 18/15 Q1018 NOSIG
13-08-17 METAR LIMC 170320Z VRB01KT CAVOK 16/15 Q1018 NOSIG
13-08-17 METAR LIMC 170350Z 02003KT 9999 FEW060 16/15 Q1018 NOSIG
13-08-17 METAR LIMC 170420Z VRB01KT 9999 FEW070 15/15 Q1018 NOSIG
13-08-17 METAR LIMC 170450Z VRB02KT CAVOK 15/15 Q1018 NOSIG
13-08-17 METAR LIMC 170520Z 01005KT 330V060 CAVOK 18/16 Q1018 NOSIG
13-08-17 METAR LIMC 170550Z VRB02KT CAVOK 19/16 Q1019 NOSIG
13-08-17 METAR LIMC 170620Z NIL
13-08-17 METAR LIMC 170650Z NIL
13-08-17 METAR LIMC 170620Z 36005KT 330V040 CAVOK 21/16 Q1019 NOSIG
13-08-17 METAR LIMC 170650Z 01003KT 320V040 CAVOK 22/16 Q1019 NOSIG
13-08-17 METAR LIMC 170720Z 06003KT 320V120 CAVOK 24/14 Q1019 NOSIG
13-08-17 METAR LIMC 170750Z VRB02KT CAVOK 25/14 Q1019 NOSIG
13-08-17 METAR LIMC 170820Z VRB02KT CAVOK 26/14 Q1019 NOSIG
13-08-17 METAR LIMC 170850Z 22004KT 160V270 CAVOK 26/14 Q1019 NOSIG
13-08-17 METAR LIMC 170920Z VRB02KT CAVOK 27/14 Q1018 NOSIG
13-08-17 METAR LIMC 170950Z VRB05KT CAVOK 27/14 Q1018 NOSIG
13-08-17 METAR LIMC 171020Z 22009KT 180V260 CAVOK 28/13 Q1018 NOSIG
13-08-17 METAR LIMC 171050Z 20005KT 110V260 CAVOK 28/13 Q1018 NOSIG
13-08-17 METAR LIMC 171120Z VRB05KT CAVOK 29/14 Q1018 NOSIG
13-08-17 METAR LIMC 171150Z VRB05KT CAVOK 28/14 Q1017 NOSIG
13-08-17 METAR LIMC 171220Z 23007KT 190V260 9999 FEW030 29/14 Q1017 NOSIG
13-08-17 METAR LIMC 171250Z 20007KT 140V270 9999 FEW030 29/14 Q1017 NOSIG
13-08-17 METAR LIMC 171320Z 24008KT 190V310 9999 FEW030 29/15 Q1017 NOSIG
13-08-17 METAR LIMC 171350Z 25007KT 220V320 CAVOK 29/14 Q1016 NOSIG
13-08-17 METAR LIMC 171420Z 26009KT 220V290 CAVOK 29/15 Q1016 NOSIG
13-08-17 METAR LIMC 171450Z 25007KT 220V300 CAVOK 29/14 Q1016 NOSIG
13-08-17 METAR LIMC 171520Z 26007KT 230V290 CAVOK 29/14 Q1016 NOSIG
13-08-17 METAR LIMC 171550Z 29005KT 240V330 CAVOK 29/14 Q1016 NOSIG
13-08-17 METAR LIMC 171620Z VRB04KT CAVOK 29/14 Q1016 NOSIG
13-08-17 METAR LIMC 171650Z 26004KT 210V310 CAVOK 29/14 Q1016 NOSIG
13-08-17 METAR LIMC 171720Z 22004KT 180V260 CAVOK 28/13 Q1016 NOSIG
13-08-17 METAR LIMC 171750Z 22004KT CAVOK 27/13 Q1016 NOSIG
13-08-17 METAR LIMC 171820Z 19003KT CAVOK 25/14 Q1016 NOSIG
13-08-17 METAR LIMC 171850Z VRB02KT CAVOK 23/14 Q1016 NOSIG
13-08-17 METAR LIMC 171920Z VRB02KT CAVOK 24/14 Q1017 NOSIG
13-08-17 METAR LIMC 171950Z VRB01KT CAVOK 22/15 Q1017 NOSIG
13-08-17 METAR LIMC 172020Z VRB02KT CAVOK 21/15 Q1017 NOSIG
13-08-17 METAR LIMC 172050Z 35004KT 320V060 CAVOK 21/15 Q1017 NOSIG
13-08-17 METAR LIMC 172120Z 35006KT CAVOK 21/15 Q1017 NOSIG
13-08-17 METAR LIMC 172150Z 36004KT CAVOK 21/15 Q1017 NOSIG
13-08-17 METAR LIMC 172220Z 35003KT CAVOK 19/15 Q1017 NOSIG
13-08-17 METAR LIMC 172250Z VRB01KT CAVOK 17/15 Q1017 NOSIG
13-08-17 METAR LIMC 172320Z 01002KT CAVOK 18/16 Q1017 NOSIG
13-08-17 METAR LIMC 172350Z VRB02KT CAVOK 18/16 Q1017 NOSIG
13-08-18 METAR LIMC 180020Z 36003KT CAVOK 18/16 Q1017 NOSIG
13-08-18 METAR LIMC 180050Z 01004KT CAVOK 18/16 Q1017 NOSIG
13-08-18 METAR LIMC 180120Z VRB02KT CAVOK 17/16 Q1017 NOSIG
13-08-18 METAR LIMC 180150Z VRB02KT CAVOK 17/16 Q1017 NOSIG
13-08-18 METAR LIMC 180220Z 00000KT CAVOK 16/16 Q1017 NOSIG
13-08-18 METAR LIMC 180250Z 36003KT CAVOK 16/16 Q1017 NOSIG
13-08-18 METAR LIMC 180320Z 36003KT CAVOK 17/16 Q1017 NOSIG
13-08-18 METAR LIMC 180350Z 01003KT CAVOK 17/15 Q1017 NOSIG
13-08-18 METAR LIMC 180420Z 36004KT CAVOK 17/16 Q1017 NOSIG
13-08-18 METAR LIMC 180450Z 36005KT 330V040 CAVOK 18/16 Q1018 NOSIG
13-08-18 METAR LIMC 180520Z 36006KT CAVOK 19/17 Q1018 NOSIG
13-08-18 METAR LIMC 180550Z 35006KT CAVOK 21/17 Q1018 NOSIG
13-08-18 METAR LIMC 180620Z 36006KT CAVOK 22/17 Q1018 NOSIG
13-08-18 METAR LIMC 180650Z 35006KT CAVOK 23/16 Q1019 NOSIG
13-08-18 METAR LIMC 180720Z 01004KT 330V040 CAVOK 24/15 Q1019 NOSIG
13-08-18 METAR LIMC 180750Z 07003KT 010V140 CAVOK 25/15 Q1019 NOSIG
13-08-18 METAR LIMC 180820Z VRB02KT CAVOK 27/15 Q1019 NOSIG
13-08-18 METAR LIMC 180850Z VRB03KT CAVOK 27/15 Q1019 NOSIG
13-08-18 METAR LIMC 180920Z 14003KT 080V240 CAVOK 28/15 Q1018 NOSIG
13-08-18 METAR LIMC 180950Z 06003KT CAVOK 28/15 Q1018 NOSIG
13-08-18 METAR LIMC 181020Z 23005KT 140V290 CAVOK 29/16 Q1018 NOSIG
13-08-18 METAR LIMC 181050Z VRB06KT 9999 FEW040 29/15 Q1018 NOSIG
13-08-18 METAR LIMC 181120Z VRB03KT 9999 FEW040 30/15 Q1018 NOSIG
13-08-18 METAR LIMC 181150Z 27006KT 240V330 9999 FEW040 29/15 Q1018 NOSIG
13-08-18 METAR LIMC 181220Z 20008KT 140V290 9999 FEW040 30/15 Q1017 NOSIG
13-08-18 METAR LIMC 181250Z 18008KT 130V220 9999 FEW040 30/15 Q1017 NOSIG
13-08-18 METAR LIMC 181320Z 23008KT 190V280 9999 FEW030 30/15 Q1017 NOSIG
13-08-18 METAR LIMC 181350Z 23008KT 190V270 9999 FEW030 31/15 Q1017 NOSIG
13-08-18 METAR LIMC 181420Z 19006KT 140V240 9999 FEW030 30/14 Q1016 NOSIG
13-08-18 METAR LIMC 181450Z VRB07KT CAVOK 31/15 Q1016 NOSIG
13-08-18 METAR LIMC 181520Z 25008KT CAVOK 30/15 Q1016 NOSIG
13-08-18 METAR LIMC 181550Z 24008KT 190V270 CAVOK 30/15 Q1016 NOSIG
13-08-18 METAR LIMC 181620Z 23007KT 210V270 CAVOK 30/15 Q1016 NOSIG
13-08-18 METAR LIMC 181650Z 23006KT 210V270 CAVOK 29/14 Q1016 NOSIG
13-08-18 METAR LIMC 181720Z 23006KT CAVOK 29/14 Q1016 NOSIG
13-08-18 METAR LIMC 181750Z 22004KT CAVOK 28/14 Q1016 NOSIG
13-08-18 METAR LIMC 181820Z 23005KT 200V260 CAVOK 27/15 Q1016 NOSIG
13-08-18 METAR LIMC 181850Z VRB01KT CAVOK 24/15 Q1016 NOSIG
13-08-18 METAR LIMC 181920Z VRB01KT CAVOK 23/15 Q1017 NOSIG
13-08-18 METAR LIMC 181950Z 00000KT CAVOK 23/16 Q1017 NOSIG
13-08-18 METAR LIMC 182020Z 17003KT CAVOK 22/16 Q1017 NOSIG
13-08-18 METAR LIMC 182050Z VRB01KT 9999 SCT070 23/16 Q1017 NOSIG
13-08-18 METAR LIMC 182120Z 00000KT 9999 BKN070 22/16 Q1017 NOSIG
13-08-18 METAR LIMC 182150Z 14002KT 9999 SCT070 21/16 Q1017 NOSIG
13-08-18 METAR LIMC 182220Z 18003KT 9999 SCT070 21/15 Q1017 NOSIG
13-08-18 METAR LIMC 182250Z 00000KT 9999 SCT070 20/15 Q1017 NOSIG
13-08-18 METAR LIMC 182320Z 00000KT 9999 SCT070 20/15 Q1017 NOSIG
13-08-18 METAR LIMC 182350Z 04001KT 9999 SCT070 19/15 Q1017 NOSIG
13-08-19 METAR LIMC 190020Z 03002KT 9999 SCT070 19/15 Q1017 NOSIG
13-08-19 METAR LIMC 190050Z VRB01KT 9999 SCT070 18/15 Q1017 NOSIG
13-08-19 METAR LIMC 190120Z VRB01KT 9999 SCT070 17/15 Q1017 NOSIG
13-08-19 METAR LIMC 190150Z 35002KT 9999 SCT070 17/15 Q1017 NOSIG
13-08-19 METAR LIMC 190220Z VRB01KT 9999 SCT070 16/15 Q1017 NOSIG
13-08-19 METAR LIMC 190250Z 36004KT 9999 SCT070 16/15 Q1017 NOSIG
13-08-19 METAR LIMC 190320Z 36001KT 9999 SCT070 16/15 Q1017 NOSIG
13-08-19 METAR LIMC 190350Z 00000KT 9999 FEW070 16/15 Q1017 NOSIG
13-08-19 METAR LIMC 190420Z VRB02KT 9999 FEW070 16/15 Q1017 NOSIG
13-08-19 METAR LIMC 190450Z 08005KT 9999 SCT070 19/16 Q1017 NOSIG
13-08-19 METAR LIMC 190520Z 08003KT 9999 SCT070 20/16 Q1017 NOSIG
13-08-19 METAR LIMC 190550Z 36004KT 330V050 9999 SCT070 20/15 Q1017 NOSIG
13-08-19 METAR LIMC 190620Z 09003KT 9999 SCT070 22/15 Q1017 NOSIG
13-08-19 METAR LIMC 190650Z 10004KT 070V130 9999 SCT070 23/16 Q1017 NOSIG
13-08-19 METAR LIMC 190720Z VRB01KT 9999 SCT070 25/16 Q1017 NOSIG
13-08-19 METAR LIMC 190750Z VRB03KT 9999 FEW070 25/16 Q1017 NOSIG
13-08-19 METAR LIMC 190820Z 13004KT 090V160 9999 FEW070 26/16 Q1017 NOSIG
13-08-19 METAR LIMC 190920Z NIL
13-08-19 METAR LIMC 190920Z VRB04KT 9999 SCT070 27/16 Q1017 NOSIG
13-08-19 METAR LIMC 190950Z 13004KT 040V190 9999 SCT070 27/16 Q1017 NOSIG
13-08-19 METAR LIMC 191020Z 12007G22KT 060V190 9999 FEW035 27/17 Q1016 NOSIG
13-08-19 METAR LIMC 191050Z VRB06KT 9999 FEW035 SCT090 28/17 Q1016 NOSIG
13-08-19 METAR LIMC 191120Z 13007KT 070V200 9999 SCT025 SCT090 28/17 Q1016 NOSIG
13-08-19 METAR LIMC 191150Z 15006KT 080V220 9999 SCT030 SCT070 29/17 Q1016 NOSIG
13-08-19 METAR LIMC 191220Z 18005KT 130V230 9999 SCT030 SCT070 27/17 Q1015 NOSIG
13-08-19 METAR LIMC 191250Z 15005KT 070V210 9999 SCT030 SCT070 27/17 Q1015 NOSIG
13-08-19 METAR LIMC 191320Z 18005KT 120V250 9999 SCT030 SCT070 28/17 Q1015 NOSIG
13-08-19 METAR LIMC 191350Z 24007KT 200V260 9999 SCT030 SCT070 27/17 Q1015 NOSIG
13-08-19 METAR LIMC 191420Z 23004KT 9999 FEW030 SCT070 27/17 Q1015 NOSIG
13-08-19 METAR LIMC 191450Z NIL
13-08-19 METAR LIMC 191450Z VRB02KT 9999 -RA FEW030 BKN080 27/16 Q1015 NOSIG
13-08-19 METAR LIMC 191520Z 01006KT 9999 FEW030 BKN080 25/18 Q1014 NOSIG
13-08-19 METAR LIMC 191550Z 34004KT 320V020 9999 FEW030 BKN080 26/18 Q1015 NOSIG
13-08-19 METAR LIMC 191620Z 36005KT 320V030 9999 FEW050 BKN080 26/19 Q1014 NOSIG
13-08-19 METAR LIMC 191650Z 33005KT 9999 SCT040 25/18 Q1014 NOSIG
13-08-19 METAR LIMC 191720Z 34006KT 9999 FEW040 SCT060 25/18 Q1014 NOSIG
13-08-19 METAR LIMC 191750Z 33006KT 9999 FEW040 SCT060 25/17 Q1014 NOSIG
13-08-19 METAR LIMC 191820Z 04004KT 270V070 9999 FEW030 SCT050 24/17 Q1014 NOSIG
13-08-19 METAR LIMC 191850Z 04003KT 330V130 9999 FEW030 SCT050 24/17 Q1015 NOSIG
13-08-19 METAR LIMC 191920Z 34007KT 9999 TSRA SCT030CB BKN050 21/20 Q1015 NOSIG
13-08-19 METAR LIMC 191950Z VRB03KT 9999 TSRA SCT030CB BKN050 20/18 Q1015 NOSIG
13-08-19 METAR LIMC 192020Z 34003KT 290V010 9999 SCT060 20/18 Q1015 RETSRA NOSIG
13-08-19 METAR LIMC 192050Z 04004KT 330V110 9999 BKN060 20/18 Q1016 NOSIG
13-08-19 METAR LIMC 192120Z VRB04KT 9999 BKN060 20/18 Q1016 NOSIG
13-08-19 METAR LIMC 192150Z 35005KT 9999 BKN060 19/18 Q1016 NOSIG
13-08-19 METAR LIMC 192220Z 03003KT 9999 BKN060 18/17 Q1016 NOSIG
13-08-19 METAR LIMC 192250Z 36005KT 9999 SCT070 18/16 Q1016 NOSIG
13-08-19 METAR LIMC 192320Z 34006KT 9999 SCT070 17/17 Q1016 NOSIG
13-08-19 METAR LIMC 192350Z 35007KT CAVOK 18/16 Q1016 NOSIG
13-08-20 METAR LIMC 200020Z 02014KT CAVOK 21/09 Q1017 NOSIG
13-08-20 METAR LIMC 200050Z 03015KT CAVOK 22/08 Q1016 NOSIG
13-08-20 METAR LIMC 200120Z 36007KT 310V040 CAVOK 21/06 Q1017 NOSIG
13-08-20 METAR LIMC 200150Z 02013KT CAVOK 21/05 Q1017 NOSIG
13-08-20 METAR LIMC 200220Z NIL
13-08-20 METAR LIMC 200250Z NIL
13-08-20 METAR LIMC 200320Z NIL
13-08-20 METAR LIMC 200350Z NIL
13-08-20 METAR LIMC 200420Z NIL
13-08-20 METAR LIMC 200450Z NIL
13-08-20 METAR LIMC 200520Z NIL
13-08-20 METAR LIMC 200550Z NIL
13-08-20 METAR LIMC 200620Z NIL
13-08-20 METAR LIMC 200620Z 05007G19KT 310V090 CAVOK 22/05 Q1019 NOSIG
13-08-20 METAR LIMC 200650Z 06006KT CAVOK 23/06 Q1019 NOSIG
13-08-20 METAR LIMC 200720Z 05006KT 010V080 CAVOK 24/07 Q1019 NOSIG
13-08-20 METAR LIMC 200750Z 02007KT 330V060 CAVOK 25/05 Q1020 NOSIG
13-08-20 METAR LIMC 200820Z 36007KT 310V050 CAVOK 26/04 Q1020 NOSIG
13-08-20 METAR LIMC 200850Z 36008KT 310V060 CAVOK 26/04 Q1020 NOSIG
13-08-20 METAR LIMC 200920Z 36011KT CAVOK 27/04 Q1020 NOSIG
13-08-20 METAR LIMC 200950Z 36011KT 330V040 CAVOK 27/04 Q1020 NOSIG
13-08-20 METAR LIMC 201020Z 35009KT 310V020 CAVOK 28/04 Q1019 NOSIG
13-08-20 METAR LIMC 201050Z 34009KT 300V010 CAVOK 28/04 Q1019 NOSIG
13-08-20 METAR LIMC 201120Z 36009KT 310V050 CAVOK 28/04 Q1019 NOSIG
13-08-20 METAR LIMC 201150Z 33010KT 280V030 CAVOK 29/03 Q1019 NOSIG
13-08-20 METAR LIMC 201220Z 36007KT 310V110 CAVOK 29/03 Q1019 NOSIG
13-08-20 METAR LIMC 201250Z 02010KT 320V060 CAVOK 30/02 Q1018 NOSIG
13-08-20 METAR LIMC 201320Z 03008KT 330V080 CAVOK 29/02 Q1018 NOSIG
13-08-20 METAR LIMC 201350Z 02010KT 330V080 CAVOK 30/02 Q1018 NOSIG
13-08-20 METAR LIMC 201420Z 01007KT 300V080 CAVOK 30/03 Q1018 WS R35L NOSIG
13-08-20 METAR LIMC 201450Z VRB06KT CAVOK 29/10 Q1018 NOSIG
13-08-20 METAR LIMC 201520Z 14010KT 090V180 CAVOK 28/11 Q1018 NOSIG
13-08-20 METAR LIMC 201550Z 15011KT 120V180 CAVOK 27/11 Q1018 NOSIG
13-08-20 METAR LIMC 201620Z 14009KT 100V160 CAVOK 27/11 Q1018 NOSIG
13-08-20 METAR LIMC 201650Z 14009KT CAVOK 26/11 Q1018 NOSIG
13-08-20 METAR LIMC 201720Z 13009KT CAVOK 25/12 Q1019 NOSIG
13-08-20 METAR LIMC 201750Z 13009KT CAVOK 24/12 Q1019 NOSIG
13-08-20 METAR LIMC 201820Z 14007KT CAVOK 23/12 Q1020 NOSIG
13-08-20 METAR LIMC 201850Z 12007KT CAVOK 22/12 Q1020 NOSIG
13-08-20 METAR LIMC 201920Z 11006KT CAVOK 22/12 Q1021 NOSIG
13-08-20 METAR LIMC 201950Z 12004KT 080V140 CAVOK 21/13 Q1021 NOSIG
13-08-20 METAR LIMC 202020Z VRB02KT CAVOK 21/13 Q1022 NOSIG
13-08-20 METAR LIMC 202050Z 00000KT CAVOK 19/13 Q1022 NOSIG
13-08-20 METAR LIMC 202120Z VRB02KT CAVOK 17/14 Q1022 NOSIG
13-08-20 METAR LIMC 202150Z 02003KT 330V060 CAVOK 18/14 Q1022 NOSIG
13-08-20 METAR LIMC 202220Z 01003KT 320V050 CAVOK 17/14 Q1022 NOSIG
13-08-20 METAR LIMC 202250Z 36003KT 9999 FEW050 16/13 Q1022 NOSIG
13-08-20 METAR LIMC 202320Z 01004KT 9999 FEW050 17/13 Q1022 NOSIG
13-08-20 METAR LIMC 202350Z 01003KT CAVOK 15/13 Q1022 NOSIG
13-08-21 METAR LIMC 210020Z 34004KT CAVOK 15/13 Q1022 NOSIG
13-08-21 METAR LIMC 210050Z 01003KT CAVOK 16/14 Q1022 NOSIG
13-08-21 METAR LIMC 210120Z 01003KT CAVOK 14/13 Q1022 NOSIG
13-08-21 METAR LIMC 210150Z 36004KT 330V030 CAVOK 14/13 Q1022 NOSIG
13-08-21 METAR LIMC 210220Z 02003KT CAVOK 14/14 Q1021 NOSIG
13-08-21 METAR LIMC 210250Z VRB02KT CAVOK 14/13 Q1021 NOSIG
13-08-21 METAR LIMC 210320Z 35002KT CAVOK 14/13 Q1021 NOSIG
13-08-21 METAR LIMC 210350Z 01003KT CAVOK 14/14 Q1021 NOSIG
13-08-21 METAR LIMC 210420Z 35003KT CAVOK 14/13 Q1021 NOSIG
13-08-21 METAR LIMC 210450Z 35006KT CAVOK 15/14 Q1022 NOSIG
13-08-21 METAR LIMC 210520Z 35007KT CAVOK 16/14 Q1022 NOSIG
13-08-21 METAR LIMC 210550Z 34005KT CAVOK 17/14 Q1022 NOSIG
13-08-21 METAR LIMC 210620Z 34006KT CAVOK 19/13 Q1022 NOSIG
13-08-21 METAR LIMC 210650Z 36006KT CAVOK 20/12 Q1022 NOSIG
13-08-21 METAR LIMC 210720Z 34007KT CAVOK 21/11 Q1022 NOSIG
13-08-21 METAR LIMC 210750Z 34004KT 300V010 CAVOK 23/11 Q1022 NOSIG
13-08-21 METAR LIMC 210820Z 33003KT 250V030 CAVOK 23/11 Q1022 NOSIG
13-08-21 METAR LIMC 210850Z VRB03KT CAVOK 24/10 Q1022 NOSIG
13-08-21 METAR LIMC 210920Z VRB05KT CAVOK 25/08 Q1022 NOSIG
13-08-21 METAR LIMC 210950Z VRB02KT CAVOK 25/08 Q1022 NOSIG
13-08-21 METAR LIMC 211020Z 29004KT 220V020 CAVOK 26/08 Q1022 NOSIG
13-08-21 METAR LIMC 211050Z 29005KT 220V340 CAVOK 26/08 Q1022 NOSIG
13-08-21 METAR LIMC 211120Z 25006KT 210V310 CAVOK 26/09 Q1021 NOSIG
13-08-21 METAR LIMC 211150Z 22008KT 190V260 CAVOK 27/09 Q1021 NOSIG
13-08-21 METAR LIMC 211220Z 24006KT 150V320 CAVOK 27/09 Q1021 NOSIG
13-08-21 METAR LIMC 211250Z VRB05KT CAVOK 28/09 Q1021 NOSIG
13-08-21 METAR LIMC 211320Z VRB05KT CAVOK 28/08 Q1020 NOSIG
13-08-21 METAR LIMC 211350Z VRB03KT CAVOK 28/09 Q1020 NOSIG
13-08-21 METAR LIMC 211420Z VRB05KT CAVOK 28/08 Q1019 NOSIG
13-08-21 METAR LIMC 211450Z 23006KT 170V270 CAVOK 28/09 Q1019 NOSIG
13-08-21 METAR LIMC 211520Z 24009KT 190V270 CAVOK 28/08 Q1019 NOSIG
13-08-21 METAR LIMC 211550Z 23009KT 170V270 CAVOK 27/09 Q1019 NOSIG
13-08-21 METAR LIMC 211620Z 24009KT CAVOK 27/08 Q1019 NOSIG
13-08-21 METAR LIMC 211650Z 23008KT 190V250 CAVOK 26/09 Q1019 NOSIG
13-08-21 METAR LIMC 211720Z 23007KT CAVOK 26/09 Q1019 NOSIG
13-08-21 METAR LIMC 211750Z 22006KT CAVOK 25/11 Q1019 NOSIG
13-08-21 METAR LIMC 211820Z 20003KT CAVOK 23/11 Q1019 NOSIG
13-08-21 METAR LIMC 211850Z 14003KT CAVOK 21/10 Q1019 NOSIG
13-08-21 METAR LIMC 211920Z VRB01KT CAVOK 21/10 Q1019 NOSIG
13-08-21 METAR LIMC 211950Z VRB04KT CAVOK 22/10 Q1019 NOSIG
13-08-21 METAR LIMC 212020Z VRB02KT CAVOK 20/11 Q1019 NOSIG
13-08-21 METAR LIMC 212050Z VRB01KT CAVOK 18/11 Q1020 NOSIG
13-08-21 METAR LIMC 212120Z VRB02KT CAVOK 17/12 Q1020 NOSIG
13-08-21 METAR LIMC 212150Z VRB02KT CAVOK 16/12 Q1020 NOSIG
13-08-21 METAR LIMC 212220Z 01003KT CAVOK 15/12 Q1020 NOSIG
13-08-21 METAR LIMC 212250Z 35002KT CAVOK 15/12 Q1020 NOSIG
13-08-21 METAR LIMC 212320Z 36004KT CAVOK 15/12 Q1020 NOSIG
13-08-21 METAR LIMC 212350Z 36004KT CAVOK 15/12 Q1020 NOSIG
13-08-22 METAR LIMC 220020Z 36006KT CAVOK 16/12 Q1020 NOSIG
13-08-22 METAR LIMC 220050Z 36004KT CAVOK 15/12 Q1020 NOSIG
13-08-22 METAR LIMC 220120Z 36004KT CAVOK 14/12 Q1020 NOSIG
13-08-22 METAR LIMC 220150Z 01003KT CAVOK 14/13 Q1019 NOSIG
13-08-22 METAR LIMC 220220Z 36001KT CAVOK 14/12 Q1019 NOSIG
13-08-22 METAR LIMC 220250Z VRB01KT CAVOK 13/12 Q1019 NOSIG
13-08-22 METAR LIMC 220320Z 01003KT CAVOK 14/13 Q1019 NOSIG
13-08-22 METAR LIMC 220350Z 36002KT CAVOK 14/13 Q1019 NOSIG
13-08-22 METAR LIMC 220420Z 36003KT CAVOK 15/13 Q1019 NOSIG
13-08-22 METAR LIMC 220450Z VRB02KT CAVOK 15/13 Q1019 NOSIG
13-08-22 METAR LIMC 220520Z 35005KT 330V040 CAVOK 17/13 Q1019 NOSIG
13-08-22 METAR LIMC 220550Z 36004KT 330V040 CAVOK 18/13 Q1019 NOSIG
13-08-22 METAR LIMC 220620Z 35004KT 320V050 CAVOK 19/13 Q1019 NOSIG
13-08-22 METAR LIMC 220650Z 36006KT CAVOK 21/13 Q1019 NOSIG
13-08-22 METAR LIMC 220720Z 36005KT 330V040 CAVOK 22/12 Q1019 NOSIG
13-08-22 METAR LIMC 220750Z 09003KT 050V170 CAVOK 23/12 Q1019 NOSIG
13-08-22 METAR LIMC 220820Z VRB02KT CAVOK 24/12 Q1019 NOSIG
13-08-22 METAR LIMC 220850Z NIL
13-08-22 METAR LIMC 220850Z 10003KT 010V170 CAVOK 25/11 Q1019 NOSIG
13-08-22 METAR LIMC 220920Z 13003KT 070V180 CAVOK 26/10 Q1019 NOSIG
13-08-22 METAR LIMC 220950Z VRB03KT CAVOK 26/11 Q1018 NOSIG
13-08-22 METAR LIMC 221020Z 33003KT CAVOK 26/11 Q1018 NOSIG
13-08-22 METAR LIMC 221050Z VRB03KT 9999 FEW040 27/11 Q1018 NOSIG
13-08-22 METAR LIMC 221120Z 24006KT 200V300 9999 FEW040 27/11 Q1018 NOSIG
13-08-22 METAR LIMC 221150Z 29007KT 190V340 CAVOK 27/12 Q1017 NOSIG
13-08-22 METAR LIMC 221220Z 16005KT 090V230 CAVOK 28/12 Q1017 NOSIG
13-08-22 METAR LIMC 221250Z 23009KT 160V270 CAVOK 27/13 Q1017 NOSIG
13-08-22 METAR LIMC 221320Z VRB07KT CAVOK 28/13 Q1016 NOSIG
13-08-22 METAR LIMC 221350Z 22008KT 170V270 CAVOK 28/13 Q1016 NOSIG
13-08-22 METAR LIMC 221420Z VRB07KT CAVOK 28/12 Q1016 NOSIG
13-08-22 METAR LIMC 221450Z 22009KT 190V280 CAVOK 28/11 Q1016 NOSIG
13-08-22 METAR LIMC 221520Z 20006KT 100V270 CAVOK 28/11 Q1016 NOSIG
13-08-22 METAR LIMC 221550Z NIL
13-08-22 METAR LIMC 221550Z 22007KT CAVOK 28/12 Q1016 NOSIG
13-08-22 METAR LIMC 221620Z 24008KT 190V260 CAVOK 27/12 Q1016 NOSIG
13-08-22 METAR LIMC 221650Z 24006KT 200V280 CAVOK 27/12 Q1015 NOSIG
13-08-22 METAR LIMC 221720Z 23006KT CAVOK 26/13 Q1015 NOSIG
13-08-22 METAR LIMC 221750Z 23005KT CAVOK 26/13 Q1015 NOSIG
13-08-22 METAR LIMC 221820Z NIL
13-08-22 METAR LIMC 221820Z 20003KT 150V240 CAVOK 23/14 Q1016 NOSIG
13-08-22 METAR LIMC 221850Z VRB01KT CAVOK 22/13 Q1016 NOSIG
13-08-22 METAR LIMC 221920Z 00000KT CAVOK 20/14 Q1016 NOSIG
13-08-22 METAR LIMC 221950Z VRB02KT CAVOK 20/14 Q1016 NOSIG
13-08-22 METAR LIMC 222020Z VRB02KT CAVOK 21/14 Q1017 NOSIG
13-08-22 METAR LIMC 222050Z 00000KT CAVOK 19/14 Q1017 NOSIG
13-08-22 METAR LIMC 222120Z VRB01KT CAVOK 18/14 Q1017 NOSIG
13-08-22 METAR LIMC 222150Z 01003KT CAVOK 18/15 Q1017 NOSIG
13-08-22 METAR LIMC 222220Z VRB02KT CAVOK 17/15 Q1017 NOSIG
13-08-23 METAR LIMC 230020Z 36003KT CAVOK 16/15 Q1017 NOSIG
13-08-23 METAR LIMC 230120Z 36003KT CAVOK 16/15 Q1017 NOSIG
13-08-23 METAR LIMC 230150Z 01004KT CAVOK 17/15 Q1017 NOSIG
13-08-23 METAR LIMC 230220Z 35003KT CAVOK 16/15 Q1017 NOSIG
13-08-23 METAR LIMC 230250Z 36003KT CAVOK 15/15 Q1017 NOSIG
13-08-23 METAR LIMC 230320Z 01003KT CAVOK 15/15 Q1017 NOSIG
13-08-23 METAR LIMC 230350Z 36002KT CAVOK 15/15 Q1017 NOSIG
13-08-23 METAR LIMC 230420Z 00000KT CAVOK 15/15 Q1017 NOSIG
13-08-23 METAR LIMC 230450Z NIL
13-08-23 METAR LIMC 230450Z VRB02KT 9999 FEW070 16/16 Q1017 NOSIG
13-08-23 METAR LIMC 230520Z 35004KT 9999 SCT080 18/16 Q1017 NOSIG
13-08-23 METAR LIMC 230550Z 35003KT 310V030 9999 SCT080 18/16 Q1017 NOSIG
13-08-23 METAR LIMC 230620Z VRB02KT 9999 SCT080 20/17 Q1017 NOSIG
13-08-23 METAR LIMC 230650Z VRB02KT 9999 SCT080 22/16 Q1017 NOSIG
13-08-23 METAR LIMC 230720Z 03004KT 350V070 9999 SCT080 23/15 Q1017 NOSIG
13-08-23 METAR LIMC 230750Z 09003KT 050V140 9999 SCT080 24/14 Q1017 NOSIG
13-08-23 METAR LIMC 230820Z 09003KT 350V150 CAVOK 25/14 Q1017 NOSIG
13-08-23 METAR LIMC 230850Z VRB02KT CAVOK 26/13 Q1017 NOSIG
13-08-23 METAR LIMC 230920Z VRB02KT CAVOK 27/12 Q1017 NOSIG
13-08-23 METAR LIMC 230950Z 24004KT 180V330 CAVOK 26/14 Q1017 NOSIG
13-08-23 METAR LIMC 231020Z 28006KT 250V330 CAVOK 27/13 Q1016 NOSIG
13-08-23 METAR LIMC 231050Z 24006KT 170V290 CAVOK 27/12 Q1016 NOSIG
13-08-23 METAR LIMC 231120Z 26007KT 230V340 CAVOK 28/12 Q1016 NOSIG
13-08-23 METAR LIMC 231150Z 25007KT 230V300 CAVOK 28/14 Q1016 NOSIG
13-08-23 METAR LIMC 231220Z 27007KT 230V310 9999 SCT040 28/14 Q1015 NOSIG
13-08-23 METAR LIMC 231250Z 24007KT 190V290 9999 SCT040 28/14 Q1015 NOSIG
13-08-23 METAR LIMC 231320Z NIL
13-08-23 METAR LIMC 231320Z 18006KT 130V240 9999 SCT040 29/13 Q1014 NOSIG
13-08-23 METAR LIMC 231350Z 24009KT 190V280 9999 FEW040 29/14 Q1014 NOSIG
13-08-23 METAR LIMC 231420Z 24008KT 200V280 9999 FEW040 28/13 Q1014 NOSIG
13-08-23 METAR LIMC 231450Z 24008KT 200V270 CAVOK 28/13 Q1014 NOSIG
13-08-23 METAR LIMC 231520Z 24007KT 210V270 CAVOK 28/13 Q1014 NOSIG
13-08-23 METAR LIMC 231550Z 24006KT 210V290 CAVOK 27/13 Q1014 NOSIG
13-08-23 METAR LIMC 231620Z 21003KT 180V240 CAVOK 27/14 Q1013 NOSIG
13-08-23 METAR LIMC 231650Z 23005KT 190V250 CAVOK 26/14 Q1013 NOSIG
13-08-23 METAR LIMC 231720Z 16002KT CAVOK 25/14 Q1013 NOSIG
13-08-23 METAR LIMC 231750Z VRB02KT CAVOK 25/14 Q1014 NOSIG
13-08-23 METAR LIMC 231820Z 08003KT 030V120 CAVOK 25/14 Q1014 NOSIG
13-08-23 METAR LIMC 231850Z 14004KT 090V180 CAVOK 24/14 Q1014 NOSIG
13-08-23 METAR LIMC 231920Z NIL
13-08-23 METAR LIMC 231920Z 14003KT CAVOK 22/15 Q1014 NOSIG
13-08-23 METAR LIMC 231950Z VRB02KT CAVOK 21/15 Q1015 NOSIG
13-08-23 METAR LIMC 232020Z 03003KT 020V080 CAVOK 21/16 Q1015 NOSIG
13-08-23 METAR LIMC 232050Z 05004KT 330V090 9999 SCT070 23/14 Q1015 NOSIG
13-08-23 METAR LIMC 232120Z VRB05KT 9999 FEW040 SCT070 23/15 Q1015 NOSIG
13-08-23 METAR LIMC 232150Z 10003KT 9999 FEW040 SCT070 23/15 Q1015 NOSIG
13-08-23 METAR LIMC 232220Z 04003KT 360V080 9999 RA FEW020CB SCT050 23/15 Q1016 BECMG TS
13-08-23 METAR LIMC 232250Z 07006KT 030V100 6000 TSRA SCT020CB BKN050 20/17 Q1017 NOSIG
13-08-23 METAR LIMC 232320Z 07010KT 9999 TS SCT030CB BKN070 19/16 Q1016 RERA NOSIG
13-08-23 METAR LIMC 232350Z 04007KT 9999 SCT040 BKN070 19/18 Q1016 RETS NOSIG
13-08-24 METAR LIMC 240020Z 34008KT 9999 -RA SCT020CB BKN070 19/18 Q1016 BECMG TS
13-08-24 METAR LIMC 240050Z 36005KT 9999 TS SCT020CB BKN070 19/19 Q1016 NOSIG
13-08-24 METAR LIMC 240120Z 36006KT 9999 SCT030 BKN070 19/18 Q1016 RETS NOSIG
13-08-24 METAR LIMC 240150Z 34004KT 9999 SCT030 BKN070 18/18 Q1016 RETS NOSIG
13-08-24 METAR LIMC 240220Z 36006KT 9999 SCT030 BKN070 19/18 Q1015 NOSIG
13-08-24 METAR LIMC 240250Z 36005KT 9999 SCT030 BKN070 18/18 Q1015 NOSIG
13-08-24 METAR LIMC 240320Z 36004KT 9999 SCT030 BKN070 18/18 Q1015 NOSIG
13-08-24 METAR LIMC 240350Z 01002KT 9999 SCT030 BKN070 18/18 Q1014 NOSIG
13-08-24 METAR LIMC 240420Z VRB02KT 9999 SCT070 18/18 Q1014 NOSIG
13-08-24 METAR LIMC 240450Z 01005KT 9999 BKN080 18/18 Q1014 NOSIG
13-08-24 METAR LIMC 240520Z VRB01KT 9999 BKN080 18/18 Q1014 NOSIG
13-08-24 METAR LIMC 240550Z VRB02KT 9999 BKN080 19/18 Q1014 NOSIG
13-08-24 METAR LIMC 240620Z 08003KT 040V130 9999 BKN080 20/18 Q1014 NOSIG
13-08-24 METAR LIMC 240650Z VRB02KT 9999 BKN080 20/18 Q1015 NOSIG
13-08-24 METAR LIMC 240720Z 11004KT 050V180 CAVOK 21/18 Q1014 NOSIG
13-08-24 METAR LIMC 240750Z VRB03KT CAVOK 22/17 Q1015 NOSIG
13-08-24 METAR LIMC 240820Z VRB03KT CAVOK 23/16 Q1014 NOSIG
13-08-24 METAR LIMC 240850Z VRB03G13KT 9999 FEW090 24/15 Q1014 NOSIG
13-08-24 METAR LIMC 240920Z VRB02KT 9999 FEW090 25/15 Q1014 NOSIG
13-08-24 METAR LIMC 240950Z VRB04KT 9999 FEW025 25/15 Q1014 NOSIG
13-08-24 METAR LIMC 241020Z 22005KT 120V290 9999 FEW025 SCT095 25/15 Q1014 NOSIG
13-08-24 METAR LIMC 241050Z VRB05KT CAVOK 26/16 Q1013 NOSIG
13-08-24 METAR LIMC 241120Z VRB06G16KT 9999 FEW025 26/15 Q1012 NOSIG
13-08-24 METAR LIMC 241150Z VRB04KT 9999 SCT025 27/16 Q1013 NOSIG
13-08-24 METAR LIMC 241220Z 10004KT 020V180 9999 SCT030 27/15 Q1012 NOSIG
13-08-24 METAR LIMC 241250Z 18007KT 100V230 9999 SCT030 28/16 Q1011 NOSIG
13-08-24 METAR LIMC 241320Z 17006KT 100V230 9999 SCT030 28/15 Q1011 NOSIG
13-08-24 METAR LIMC 241350Z 18006KT 130V220 9999 SCT030 28/15 Q1010 NOSIG
13-08-24 METAR LIMC 241420Z 16006KT 120V200 9999 SCT030 SCT060 27/14 Q1010 NOSIG
13-08-24 METAR LIMC 241450Z NIL
13-08-24 METAR LIMC 241450Z 23006KT 200V260 9999 SCT030 SCT060 26/16 Q1010 NOSIG
13-08-24 METAR LIMC 241520Z 29009KT 9999 -TSRA SCT020CB SCT030 24/17 Q1010 RERA NOSIG
13-08-24 METAR LIMC 241550Z 35012KT 8000 -TSRA SCT020CB SCT030 BKN060 20/18 Q1010
13-08-24 METAR LIMC 241620Z 04009KT 340V070 4000 TSRA FEW012CB SCT030 BKN060 20/19 Q1011 NOSIG
13-08-24 METAR LIMC 241650Z 04007KT 010V070 4000 TSRA FEW012CB SCT030 BKN060 19/18
13-08-24 METAR LIMC 241720Z 03005KT 350V080 4000 TSRA FEW012CB SCT030 BKN060 19/18
13-08-24 METAR LIMC 241750Z 33006KT 9999 -RA SCT030 BKN060 19/18 Q1011 RETSRA NOSIG
13-08-24 METAR LIMC 241820Z 01007KT 340V040 9999 -RA SCT030 BKN060 18/18 Q1011
13-08-24 METAR LIMC 241850Z 02005KT 330V050 9999 SCT030 BKN060 19/18 Q1011 NOSIG
13-08-24 METAR LIMC 241920Z 02004KT 350V060 9999 SCT030 BKN060 18/18 Q1011 NOSIG
13-08-24 METAR LIMC 241950Z 02004KT 340V070 9999 TSRA SCT025CB SCT030 BKN060 18/18
13-08-24 METAR LIMC 242020Z 01008KT 9999 TSRA SCT025CB SCT030 BKN060 18/18 Q1011
13-08-24 METAR LIMC 242050Z 36008KT 9999 RA FEW025CB SCT030 BKN060 18/18 Q1011 RETS
13-08-24 METAR LIMC 242120Z 35005KT 9999 SCT060 18/18 Q1011 RERA NOSIG
13-08-24 METAR LIMC 242150Z VRB02KT 9999 SCT060 SCT080 17/17 Q1011 NOSIG
13-08-24 METAR LIMC 242220Z VRB01KT 9999 SCT025 BKN060 18/18 Q1010 NOSIG
13-08-24 METAR LIMC 242250Z 04003KT 9999 BKN050 18/18 Q1010 NOSIG
13-08-24 METAR LIMC 242320Z VRB01KT 9999 SCT070 17/17 Q1010 NOSIG
13-08-24 METAR LIMC 242350Z 32003KT 290V030 9999 SCT025 SCT070 17/17 Q1010 NOSIG
13-08-25 METAR LIMC 250020Z 07002KT 9999 SCT035 SCT070 18/18 Q1010 NOSIG
13-08-25 METAR LIMC 250050Z VRB02KT 9999 SCT035 SCT070 17/17 Q1009 NOSIG
13-08-25 METAR LIMC 250120Z VRB02KT CAVOK 16/16 Q1009 NOSIG
13-08-25 METAR LIMC 250150Z VRB02KT CAVOK 16/16 Q1009 NOSIG
13-08-25 METAR LIMC 250220Z 02004KT CAVOK 15/15 Q1009 NOSIG
13-08-25 METAR LIMC 250250Z 36004KT CAVOK 15/15 Q1009 NOSIG
13-08-25 METAR LIMC 250320Z VRB01KT CAVOK 15/15 Q1008 NOSIG
13-08-25 METAR LIMC 250350Z NIL
13-08-25 METAR LIMC 250350Z 01001KT 9999 SCT020 BKN050 15/15 Q1008 NOSIG
13-08-25 METAR LIMC 250420Z 01005KT 9999 MIFG SCT020 15/15 Q1008 NOSIG
13-08-25 METAR LIMC 250450Z NIL
13-08-25 METAR LIMC 250450Z VRB01KT 9999 MIFG NSC 15/15 Q1008 NOSIG
13-08-25 METAR LIMC 250520Z VRB02KT 9999 MIFG SCT060 16/16 Q1009 NOSIG
13-08-25 METAR LIMC 250550Z 36003KT 330V030 9999 BKN060 17/17 Q1009 NOSIG
13-08-25 METAR LIMC 250620Z VRB02KT 9999 BKN060 18/17 Q1009 NOSIG
13-08-25 METAR LIMC 250650Z VRB02KT 9999 BKN060 18/18 Q1009 NOSIG
13-08-25 METAR LIMC 250720Z NIL
13-08-25 METAR LIMC 250750Z 02005KT 300V050 9999 SCT060 19/17 Q1008 NOSIG
13-08-25 METAR LIMC 250820Z VRB02KT 9999 SCT060 20/17 Q1008 NOSIG
13-08-25 METAR LIMC 250850Z VRB03KT 9999 SCT040 22/18 Q1008 NOSIG
13-08-25 METAR LIMC 250920Z VRB02KT 9999 SCT040 22/16 Q1008 NOSIG
13-08-25 METAR LIMC 250950Z VRB02KT 9999 SCT040 23/15 Q1008 NOSIG
13-08-25 METAR LIMC 251020Z NIL
13-08-25 METAR LIMC 251020Z VRB04KT 9999 SCT040 23/15 Q1008 NOSIG
13-08-25 METAR LIMC 251050Z VRB03KT 9999 SCT040 24/14 Q1008 NOSIG
13-08-25 METAR LIMC 251120Z VRB04KT 9999 SCT040 25/12 Q1008 NOSIG
13-08-25 METAR LIMC 251150Z 23006KT 210V270 9999 SCT040 25/14 Q1008 NOSIG
13-08-25 METAR LIMC 251220Z VRB04KT 9999 SCT040 24/13 Q1007 NOSIG
13-08-25 METAR LIMC 251250Z 22004KT 150V300 9999 SCT035 26/13 Q1007 NOSIG
13-08-25 METAR LIMC 251320Z 25008KT 200V330 9999 BKN035 26/14 Q1007 NOSIG
13-08-25 METAR LIMC 251350Z 28014KT 210V320 9999 BKN035 25/11 Q1007 NOSIG
13-08-25 METAR LIMC 251420Z 34008KT 300V020 9999 BKN035 25/11 Q1007 BECMG TS
13-08-25 METAR LIMC 251450Z 36009KT 9999 FEW025CB BKN035 25/10 Q1006 BECMG TS
13-08-25 METAR LIMC 251520Z NIL
13-08-25 METAR LIMC 251520Z 06010KT 010V070 9999 FEW025CB SCT050 23/11 Q1007 NOSIG
13-08-25 METAR LIMC 251550Z 05014KT 9999 SCT070 22/11 Q1007 NOSIG
13-08-25 METAR LIMC 251620Z 06013G24KT 360V090 9999 SCT070 22/12 Q1007 NOSIG
13-08-25 METAR LIMC 251650Z 05010KT 020V090 9999 SCT070 21/11 Q1007 NOSIG
13-08-25 METAR LIMC 251720Z VRB07KT 9999 SCT070 21/11 Q1007 NOSIG
13-08-25 METAR LIMC 251750Z 04004KT 310V070 9999 SCT070 21/10 Q1007 NOSIG
13-08-25 METAR LIMC 251820Z 05004KT 350V120 9999 FEW070 20/10 Q1007 NOSIG
13-08-25 METAR LIMC 251850Z 02004KT 340V060 9999 SCT065 20/11 Q1008 NOSIG
13-08-25 METAR LIMC 251920Z 03004KT 340V070 9999 SCT065 17/12 Q1008 NOSIG
13-08-25 METAR LIMC 251950Z 03006KT 360V060 9999 SCT050 18/12 Q1008 NOSIG
13-08-25 METAR LIMC 252020Z 01003KT 320V060 9999 SCT050 17/12 Q1008 NOSIG
13-08-25 METAR LIMC 252050Z 36007KT 9999 SCT050 19/11 Q1008 NOSIG
13-08-25 METAR LIMC 252120Z VRB02KT 9999 BKN070 18/11 Q1008 NOSIG
13-08-25 METAR LIMC 252150Z 18003KT 150V220 9999 FEW030CB BKN070 17/13 Q1008 WS RWY 35L/17R NOSIG
13-08-25 METAR LIMC 252220Z 21004KT 130V250 9999 FEW030 BKN070 17/13 Q1009 WS RWY
13-08-25 METAR LIMC 252250Z 15005KT 130V200 9999 FEW030 BKN070 17/14 Q1009 NOSIG
13-08-25 METAR LIMC 252320Z 20003KT 170V230 9999 SCT030 BKN070 17/14 Q1010 NOSIG
13-08-25 METAR LIMC 252350Z 20005KT 160V230 9999 SCT030 BKN070 17/15 Q1010 NOSIG
13-08-26 METAR LIMC 260020Z VRB02KT 9999 SCT030 BKN070 16/15 Q1009 NOSIG
13-08-26 METAR LIMC 260050Z 09003KT 9999 FEW030 BKN070 16/15 Q1009 NOSIG
13-08-26 METAR LIMC 260120Z VRB02KT 9999 FEW030 BKN070 16/15 Q1009 NOSIG
13-08-26 METAR LIMC 260150Z VRB02KT 9999 FEW030 BKN070 16/15 Q1009 NOSIG
13-08-26 METAR LIMC 260220Z 11004KT 9999 FEW030 BKN070 16/16 Q1009 NOSIG
13-08-26 METAR LIMC 260250Z VRB02KT 9999 FEW030 BKN070 15/15 Q1010 NOSIG
13-08-26 METAR LIMC 260320Z 11003KT 9999 FEW030 BKN070 16/16 Q1010 NOSIG
13-08-26 METAR LIMC 260350Z 11005KT 9999 FEW030 BKN070 16/16 Q1010 NOSIG
13-08-26 METAR LIMC 260420Z VRB01KT 9999 SCT070 15/15 Q1010 NOSIG
13-08-26 METAR LIMC 260450Z VRB02KT 9999 FEW070 15/15 Q1010 NOSIG
13-08-26 METAR LIMC 260520Z VRB02KT 9999 FEW070 16/16 Q1010 NOSIG
13-08-26 METAR LIMC 260550Z VRB04G15KT 9999 FEW070 17/16 Q1010 NOSIG
13-08-26 METAR LIMC 260620Z VRB06G17KT 9999 FEW040 17/16 Q1011 NOSIG
13-08-26 METAR LIMC 260650Z 11005KT 060V160 9999 FEW040 18/16 Q1011 NOSIG
13-08-26 METAR LIMC 260720Z 12004KT 050V180 9999 SCT030 19/16 Q1011 NOSIG
13-08-26 METAR LIMC 260750Z VRB03G15KT 9999 SCT030 19/15 Q1011 NOSIG
13-08-26 METAR LIMC 260820Z 15004KT 090V260 9999 SCT030 19/15 Q1011 NOSIG
13-08-26 METAR LIMC 260850Z 12005KT 060V160 9999 SCT030 20/13 Q1011 NOSIG
13-08-26 METAR LIMC 260920Z 10005KT 030V160 9999 SCT025 21/13 Q1011 NOSIG
13-08-26 METAR LIMC 260950Z 09005KT 030V130 9999 SCT025 22/13 Q1011 NOSIG
13-08-26 METAR LIMC 261020Z 10005KT 070V160 9999 SCT025 22/13 Q1011 NOSIG
13-08-26 METAR LIMC 261050Z 14005KT 090V240 9999 SCT025 23/12 Q1011 NOSIG
13-08-26 METAR LIMC 261120Z 13007KT 070V160 9999 SCT025 23/13 Q1011 NOSIG
13-08-26 METAR LIMC 261150Z 13006KT 070V180 9999 SCT025 21/13 Q1011 NOSIG
13-08-26 METAR LIMC 261220Z 10005KT 050V160 9999 SCT025 22/12 Q1011 NOSIG
13-08-26 METAR LIMC 261250Z 12006KT 080V150 9999 SCT025 22/13 Q1011 NOSIG
13-08-26 METAR LIMC 261320Z 13005KT 080V200 9999 SCT025 23/12 Q1011 NOSIG
13-08-26 METAR LIMC 261350Z VRB07KT 9999 FEW020CB BKN025 24/12 Q1011 BECMG TS
13-08-26 METAR LIMC 261420Z VRB05KT 9999 FEW020CB BKN025 24/11 Q1011 NOSIG
13-08-26 METAR LIMC 261450Z 34014KT 9999 FEW020CB BKN025 21/13 Q1011 BECMG TS
13-08-26 METAR LIMC 261520Z 35013KT 9999 FEW020TCU BKN025 22/12 Q1011 NOSIG
13-08-26 METAR LIMC 261550Z 35009KT 9999 SCT025 SCT040 21/12 Q1011 NOSIG
13-08-26 METAR LIMC 261620Z NIL
13-08-26 METAR LIMC 261620Z 35010KT 9999 SCT025 SCT040 20/13 Q1011 NOSIG
13-08-26 METAR LIMC 261650Z 36008KT 9999 SCT025 SCT040 21/13 Q1011 NOSIG
13-08-26 METAR LIMC 261720Z 34007KT 9999 FEW030 SCT070 20/13 Q1011 NOSIG
13-08-26 METAR LIMC 261750Z 36006KT 9999 BKN080 20/13 Q1011 NOSIG
13-08-26 METAR LIMC 261820Z 34006KT 9999 BKN080 18/13 Q1011 NOSIG
13-08-26 METAR LIMC 261850Z 34007KT 9999 FEW030 BKN080 18/13 Q1012 NOSIG
13-08-26 METAR LIMC 261920Z 35006KT 320V020 9999 FEW030 BKN080 18/13 Q1012 NOSIG
13-08-26 METAR LIMC 261950Z 36006KT 9999 FEW030 BKN080 18/14 Q1012 NOSIG
13-08-26 METAR LIMC 262020Z 33005KT 9999 FEW030 BKN080 18/14 Q1012 NOSIG
13-08-26 METAR LIMC 262050Z 21010KT 9999 -RA FEW025CB SCT040 BKN080 18/15 Q1013 BECMG TS
13-08-26 METAR LIMC 262120Z 26008KT 240V310 9999 4500N -TSRA FEW025CB SCT035 BKN080 17/16 Q1013 NOSIG
13-08-26 METAR LIMC 262150Z 28008KT 9999 4500N -TSRA FEW025CB SCT035 BKN070 16/16
13-08-26 METAR LIMC 262220Z 21004KT 170V240 9999 RA SCT035 BKN070 16/16 Q1013 RETS
13-08-26 METAR LIMC 262250Z 24006KT 9999 RA SCT035 BKN070 16/16 Q1013 NOSIG
13-08-26 METAR LIMC 262320Z VRB02KT 9999 RA SCT035 BKN070 16/16 Q1013 NOSIG
13-08-26 METAR LIMC 262350Z 36004KT 310V030 9999 -RA SCT035 BKN070 16/16 Q1013 RERA
13-08-27 METAR LIMC 270020Z VRB02KT 9999 -RA SCT035 BKN070 16/16 Q1013 NOSIG
13-08-27 METAR LIMC 270050Z 05003KT 9999 SCT035 BKN070 16/16 Q1013 NOSIG
13-08-27 METAR LIMC 270120Z 18003KT 070V220 9999 SCT035 BKN070 16/16 Q1013 NOSIG
13-08-27 METAR LIMC 270150Z NIL
13-08-27 METAR LIMC 270220Z 16002KT 9999 SCT035 BKN070 15/15 Q1013 NOSIG
13-08-27 METAR LIMC 270250Z 16003KT 9999 SCT035 BKN070 15/15 Q1013 NOSIG
13-08-27 METAR LIMC 270320Z 00000KT 9999 SCT040 BKN070 15/15 Q1013 NOSIG
13-08-27 METAR LIMC 270350Z 02001KT 9999 SCT040 BKN070 15/15 Q1013 NOSIG
13-08-27 METAR LIMC 270420Z 01002KT 9999 SCT040 BKN070 15/15 Q1012 NOSIG
13-08-27 METAR LIMC 270450Z 00000KT 9999 VCFG SCT040 BKN070 15/15 Q1012 NOSIG
13-08-27 METAR LIMC 270520Z VRB02KT 9999 BKN060 15/15 Q1013 NOSIG
13-08-27 METAR LIMC 270550Z 00000KT 9999 BKN060 16/16 Q1013 NOSIG
13-08-27 METAR LIMC 270620Z 15001KT 9999 BKN060 16/16 Q1013 NOSIG
13-08-27 METAR LIMC 270650Z VRB01KT 9999 BKN060 17/16 Q1013 NOSIG
13-08-27 METAR LIMC 270720Z 30003KT 240V010 9999 BKN060 18/17 Q1013 NOSIG
13-08-27 METAR LIMC 270750Z VRB02KT 9999 FEW015 SCT050 BKN070 18/14 Q1013 NOSIG
13-08-27 METAR LIMC 270820Z VRB02KT 9999 FEW015 SCT050 BKN070 18/15 Q1013 NOSIG
13-08-27 METAR LIMC 270850Z 25003KT 200V300 9999 SCT015 SCT050 BKN070 18/16 Q1013 NOSIG
13-08-27 METAR LIMC 270920Z VRB03KT 9999 SCT015 SCT050 BKN070 19/16 Q1013 NOSIG
13-08-27 METAR LIMC 270950Z 11003KT 030V190 9999 SCT015 SCT050 BKN070 20/14 Q1012
13-08-27 METAR LIMC 271020Z 13004KT 060V180 9999 SCT015 SCT050 21/13 Q1012 NOSIG
13-08-27 METAR LIMC 271050Z VRB03KT 9999 SCT040 22/14 Q1012 NOSIG
13-08-27 METAR LIMC 271120Z VRB02KT 9999 SCT040 23/13 Q1012 NOSIG
13-08-27 METAR LIMC 271150Z VRB03KT 9999 SCT040 23/12 Q1012 NOSIG
13-08-27 METAR LIMC 271220Z NIL
13-08-27 METAR LIMC 271250Z NIL
13-08-27 METAR LIMC 271250Z 28003KT 230V330 9999 SCT040 22/13 Q1011 NOSIG
13-08-27 METAR LIMC 271320Z VRB03KT 9999 SCT040 23/13 Q1011 NOSIG
13-08-27 METAR LIMC 271350Z 17003KT 110V220 9999 SCT040 23/13 Q1011 NOSIG
13-08-27 METAR LIMC 271420Z 26005KT 9999 SCT040TCU 23/13 Q1010 NOSIG
13-08-27 METAR LIMC 271450Z 24004KT 9999 BKN030TCU 22/13 Q1010 NOSIG
13-08-27 METAR LIMC 271520Z 07003KT 030V110 9999 BKN030TCU 22/15 Q1010 NOSIG
13-08-27 METAR LIMC 271550Z 15004KT 090V180 9999 SCT030TCU 21/16 Q1010 NOSIG
13-08-27 METAR LIMC 271620Z 15004KT 9999 SCT030TCU 21/17 Q1010 RERA NOSIG
13-08-27 METAR LIMC 271650Z 14007KT 100V160 9999 SCT030TCU 21/14 Q1010 NOSIG
13-08-27 METAR LIMC 271720Z 13005KT 9999 SCT030TCU 21/14 Q1010 NOSIG
13-08-27 METAR LIMC 271750Z 16004KT 9999 VCSH FEW020CB SCT030TCU 19/14 Q1010 NOSIG
13-08-27 METAR LIMC 271820Z VRB02KT 9999 VCSH FEW030CB SCT040TCU 19/13 Q1011 NOSIG
13-08-27 METAR LIMC 271850Z NIL
13-08-27 METAR LIMC 271850Z VRB02KT 9999 FEW030CB SCT040TCU 18/14 Q1011 NOSIG
13-08-27 METAR LIMC 271920Z 04002KT 9999 FEW040TCU 17/15 Q1011 NOSIG
13-08-27 METAR LIMC 271950Z 00000KT 9999 SCT040 17/15 Q1011 NOSIG
13-08-27 METAR LIMC 272020Z 01003KT 340V050 9999 FEW040 17/15 Q1011 NOSIG
13-08-27 METAR LIMC 272050Z 35004KT 9999 FEW040 17/14 Q1011 NOSIG
13-08-27 METAR LIMC 272120Z 00000KT 9999 FEW040 15/14 Q1011 NOSIG
13-08-27 METAR LIMC 272150Z VRB02KT 9999 FEW040 15/15 Q1011 NOSIG
13-08-27 METAR LIMC 272220Z 02003KT 9999 FEW050 14/14 Q1011 NOSIG
13-08-27 METAR LIMC 272250Z 01003KT 320V030 9999 FEW050 14/14 Q1011 NOSIG
13-08-27 METAR LIMC 272320Z 35006KT 9999 SCT050 14/14 Q1011 NOSIG
13-08-27 METAR LIMC 272350Z 36004KT 9999 SCT050 14/13 Q1011 NOSIG
13-08-28 METAR LIMC 280020Z 02002KT 9999 SCT050 14/14 Q1011 NOSIG
13-08-28 METAR LIMC 280050Z 36002KT 9999 SCT050 14/13 Q1011 NOSIG
13-08-28 METAR LIMC 280120Z VRB02KT 9999 SCT050 14/14 Q1011 NOSIG
13-08-28 METAR LIMC 280150Z 04003KT 020V080 9999 SCT050 15/14 Q1011 NOSIG
13-08-28 METAR LIMC 280220Z 02003KT 360V060 9999 SCT050 14/14 Q1011 NOSIG
13-08-28 METAR LIMC 280250Z 35003KT 9999 SCT050 14/13 Q1011 NOSIG
13-08-28 METAR LIMC 280320Z 00000KT 9999 SCT050 13/12 Q1011 NOSIG
13-08-28 METAR LIMC 280350Z 32004KT 9999 SCT050 12/12 Q1012 NOSIG
13-08-28 METAR LIMC 280420Z VRB02KT CAVOK 13/13 Q1012 NOSIG
13-08-28 METAR LIMC 280450Z VRB02KT CAVOK 13/13 Q1012 NOSIG
13-08-28 METAR LIMC 280520Z 36003KT 330V070 CAVOK 14/12 Q1013 NOSIG
13-08-28 METAR LIMC 280550Z 36003KT 310V020 CAVOK 15/14 Q1013 NOSIG
13-08-28 METAR LIMC 280620Z 34004KT 290V030 CAVOK 16/14 Q1013 NOSIG
13-08-28 METAR LIMC 280650Z 36005KT CAVOK 18/14 Q1013 NOSIG
13-08-28 METAR LIMC 280720Z 04004KT 360V080 CAVOK 19/13 Q1013 NOSIG
13-08-28 METAR LIMC 280750Z 13004KT 060V190 CAVOK 20/13 Q1013 NOSIG
13-08-28 METAR LIMC 280820Z VRB02KT CAVOK 21/13 Q1013 NOSIG
13-08-28 METAR LIMC 280850Z 24003KT 150V310 CAVOK 21/13 Q1013 NOSIG
13-08-28 METAR LIMC 280920Z 25005KT 130V300 CAVOK 22/13 Q1013 NOSIG
13-08-28 METAR LIMC 280950Z 23005KT 180V280 CAVOK 23/12 Q1013 NOSIG
13-08-28 METAR LIMC 281020Z 25006KT 200V280 CAVOK 24/12 Q1013 NOSIG
13-08-28 METAR LIMC 281050Z 25006KT 210V280 CAVOK 24/12 Q1013 NOSIG
13-08-28 METAR LIMC 281120Z 25005KT 200V300 CAVOK 25/12 Q1013 NOSIG
13-08-28 METAR LIMC 281150Z 20006KT 150V250 CAVOK 25/12 Q1013 NOSIG
13-08-28 METAR LIMC 281220Z 23005KT 160V310 CAVOK 26/11 Q1013 NOSIG
13-08-28 METAR LIMC 281250Z NIL
13-08-28 METAR LIMC 281250Z VRB06KT CAVOK 26/11 Q1013 NOSIG
13-08-28 METAR LIMC 281320Z 24008KT 210V270 CAVOK 26/11 Q1012 NOSIG
13-08-28 METAR LIMC 281350Z 22008KT 190V250 CAVOK 27/11 Q1012 NOSIG
13-08-28 METAR LIMC 281420Z 21008KT 180V270 CAVOK 27/10 Q1012 NOSIG
13-08-28 METAR LIMC 281450Z 20009KT 170V230 CAVOK 27/11 Q1012 NOSIG
13-08-28 METAR LIMC 281520Z 23007KT 180V280 CAVOK 27/09 Q1012 NOSIG
13-08-28 METAR LIMC 281550Z 24007KT 200V280 CAVOK 27/10 Q1012 NOSIG
13-08-28 METAR LIMC 281620Z NIL
13-08-28 METAR LIMC 281620Z 22008KT CAVOK 27/09 Q1013 NOSIG
13-08-28 METAR LIMC 281650Z 21009KT CAVOK 26/10 Q1013 NOSIG
13-08-28 METAR LIMC 281720Z 21008KT CAVOK 25/12 Q1013 NOSIG
13-08-28 METAR LIMC 281750Z 21005KT CAVOK 23/12 Q1013 NOSIG
13-08-28 METAR LIMC 281820Z VRB02KT CAVOK 23/12 Q1013 NOSIG
13-08-28 METAR LIMC 281850Z VRB02KT CAVOK 19/13 Q1014 NOSIG
13-08-28 METAR LIMC 281920Z VRB02KT CAVOK 20/13 Q1014 NOSIG
13-08-28 METAR LIMC 281950Z VRB02KT 9999 SCT080 19/14 Q1015 NOSIG
13-08-28 METAR LIMC 282020Z VRB01KT 9999 BKN080 20/13 Q1015 NOSIG
13-08-28 METAR LIMC 282050Z 06006KT 9999 BKN060 20/13 Q1015 NOSIG
13-08-28 METAR LIMC 282120Z 06005KT 9999 BKN060 21/14 Q1016 NOSIG
13-08-28 METAR LIMC 282150Z 05003KT 9999 BKN060 20/14 Q1016 NOSIG
13-08-28 METAR LIMC 282220Z VRB02KT 9999 BKN060 21/15 Q1017 NOSIG
13-08-28 METAR LIMC 282250Z 32005KT 9999 BKN040 21/15 Q1017 NOSIG
13-08-28 METAR LIMC 282320Z 01003KT 340V040 9999 -RA BKN030 20/15 Q1017 NOSIG
13-08-28 METAR LIMC 282350Z 36007KT 9999 -RA BKN030 20/16 Q1017 NOSIG
13-08-29 METAR LIMC 290020Z 02007KT 9999 -TSRA SCT020CB BKN030 18/17 Q1018 NOSIG
13-08-29 METAR LIMC 290050Z 05007KT 9999 SCT020CB BKN030 18/16 Q1018 NOSIG
13-08-29 METAR LIMC 290120Z 05007KT 9999 BKN040 18/16 Q1018 NOSIG
13-08-29 METAR LIMC 290150Z 05008KT 9999 BKN040 18/16 Q1018 NOSIG
13-08-29 METAR LIMC 290220Z 03005KT 9999 BKN040 18/15 Q1018 NOSIG
13-08-29 METAR LIMC 290250Z 34006KT 9999 BKN040 17/16 Q1018 NOSIG
13-08-29 METAR LIMC 290320Z 33007KT 9999 BKN040 17/16 Q1018 NOSIG
13-08-29 METAR LIMC 290350Z 01005KT 9999 BKN040 16/16 Q1018 NOSIG
13-08-29 METAR LIMC 290420Z 36005KT 9999 BKN060 16/16 Q1018 NOSIG
13-08-29 METAR LIMC 290450Z 35008KT 9999 BKN070 17/16 Q1018 NOSIG
13-08-29 METAR LIMC 290520Z 36007KT 9999 BKN070 17/15 Q1019 NOSIG
13-08-29 METAR LIMC 290550Z 01006KT 9999 SCT070 17/15 Q1019 NOSIG
13-08-29 METAR LIMC 290620Z 04005KT 9999 BKN050 18/15 Q1019 NOSIG
13-08-29 METAR LIMC 290650Z 02004KT 9999 SCT020 BKN050 19/14 Q1020 NOSIG
13-08-29 METAR LIMC 290720Z 07006KT 9999 SCT020 BKN050 18/15 Q1020 NOSIG
13-08-29 METAR LIMC 290750Z 08003KT 030V100 9999 SCT020 BKN050 19/16 Q1020 NOSIG
13-08-29 METAR LIMC 290820Z 06004KT 020V090 9999 SCT020 BKN050 19/15 Q1020 NOSIG
13-08-29 METAR LIMC 290850Z 07003KT 020V110 9999 RA SCT020 BKN050 19/16 Q1021 NOSIG
13-08-29 METAR LIMC 290920Z VRB02KT 9999 -RA SCT020 BKN050 18/17 Q1021 RERA NOSIG
13-08-29 METAR LIMC 290950Z 05004KT 330V110 9999 SCT040 BKN070 18/17 Q1020 NOSIG
13-08-29 METAR LIMC 291020Z 09005KT 020V120 9999 SCT040 BKN070 19/18 Q1020 NOSIG
13-08-29 METAR LIMC 291050Z VRB04KT 9999 SCT040 BKN070 20/17 Q1020 NOSIG
13-08-29 METAR LIMC 291120Z VRB01KT 9999 BKN070 21/17 Q1020 NOSIG
13-08-29 METAR LIMC 291150Z 12003KT 040V170 9999 BKN070 22/17 Q1020 NOSIG
13-08-29 METAR LIMC 291220Z 08003KT 9999 FEW070 23/15 Q1020 NOSIG
13-08-29 METAR LIMC 291250Z VRB02KT CAVOK 24/14 Q1019 NOSIG
13-08-29 METAR LIMC 291320Z VRB02KT CAVOK 25/13 Q1019 NOSIG
13-08-29 METAR LIMC 291350Z VRB03KT 9999 FEW040 25/13 Q1018 NOSIG
13-08-29 METAR LIMC 291420Z VRB03KT 9999 FEW040 25/13 Q1018 NOSIG
13-08-29 METAR LIMC 291450Z 16004KT 080V220 9999 FEW040 25/13 Q1018 NOSIG
13-08-29 METAR LIMC 291520Z 18003KT 130V260 9999 FEW040 25/13 Q1018 NOSIG
13-08-29 METAR LIMC 291550Z 19003KT 150V230 9999 FEW040 25/12 Q1018 NOSIG
13-08-29 METAR LIMC 291620Z 12004KT 080V150 CAVOK 25/12 Q1018 NOSIG
13-08-29 METAR LIMC 291650Z VRB03KT 9999 FEW040 25/13 Q1018 NOSIG
13-08-29 METAR LIMC 291720Z 15004KT 110V170 9999 FEW040 23/14 Q1018 NOSIG
13-08-29 METAR LIMC 291750Z 14004KT 090V170 9999 FEW040 23/13 Q1019 NOSIG
13-08-29 METAR LIMC 291820Z 12003KT 080V140 9999 FEW080 20/14 Q1019 NOSIG
13-08-29 METAR LIMC 291850Z VRB02KT 9999 FEW080 19/15 Q1019 NOSIG
13-08-29 METAR LIMC 291920Z 35003KT 9999 FEW080 18/15 Q1020 NOSIG
13-08-29 METAR LIMC 291950Z VRB02KT CAVOK 18/15 Q1020 NOSIG
13-08-29 METAR LIMC 292020Z 02004KT 340V060 CAVOK 19/15 Q1020 NOSIG
13-08-29 METAR LIMC 292050Z VRB02KT CAVOK 18/15 Q1020 NOSIG
13-08-29 METAR LIMC 292120Z 01004KT 330V070 CAVOK 19/14 Q1020 NOSIG
13-08-29 METAR LIMC 292150Z 02003KT 340V070 CAVOK 18/15 Q1020 NOSIG
13-08-29 METAR LIMC 292220Z 31002KT CAVOK 16/15 Q1021 NOSIG
13-08-29 METAR LIMC 292250Z 01003KT CAVOK 15/15 Q1021 NOSIG
13-08-29 METAR LIMC 292320Z 36003KT CAVOK 16/15 Q1020 NOSIG
13-08-29 METAR LIMC 292350Z 05003KT 340V090 CAVOK 17/15 Q1020 NOSIG
13-08-30 METAR LIMC 300020Z 36005KT CAVOK 16/15 Q1020 NOSIG
13-08-30 METAR LIMC 300050Z 36004KT CAVOK 16/14 Q1020 NOSIG
13-08-30 METAR LIMC 300120Z 34002KT CAVOK 15/14 Q1020 NOSIG
13-08-30 METAR LIMC 300150Z NIL
13-08-30 METAR LIMC 300150Z 35002KT CAVOK 15/14 Q1020 NOSIG
13-08-30 METAR LIMC 300220Z VRB02KT CAVOK 15/14 Q1020 NOSIG
13-08-30 METAR LIMC 300250Z 36005KT 320V050 9999 SCT070 17/14 Q1020 NOSIG
13-08-30 METAR LIMC 300320Z VRB02KT 9999 SCT070 17/14 Q1020 NOSIG
13-08-30 METAR LIMC 300350Z VRB02KT 9999 SCT070 16/15 Q1020 NOSIG
13-08-30 METAR LIMC 300420Z 36003KT 9999 SCT070 15/14 Q1020 NOSIG
13-08-30 METAR LIMC 300450Z 02003KT 9999 SCT070 15/15 Q1020 NOSIG
13-08-30 METAR LIMC 300520Z 01005KT 9999 SCT070 16/14 Q1020 NOSIG
13-08-30 METAR LIMC 300550Z 01004KT 9999 SCT070 17/16 Q1020 NOSIG
13-08-30 METAR LIMC 300620Z 01003KT 330V050 9999 FEW080 18/16 Q1020 NOSIG
13-08-30 METAR LIMC 300650Z NIL
13-08-30 METAR LIMC 300650Z 03003KT 350V080 9999 FEW080 19/16 Q1020 NOSIG
13-08-30 METAR LIMC 300720Z 02003KT 340V090 CAVOK 21/16 Q1020 NOSIG
13-08-30 METAR LIMC 300750Z VRB02KT 9999 SCT070 SCT095 22/13 Q1021 NOSIG
13-08-30 METAR LIMC 300820Z VRB04G14KT 9999 SCT070 23/13 Q1020 NOSIG
13-08-30 METAR LIMC 300850Z VRB04KT 9999 FEW070 23/12 Q1021 NOSIG
13-08-30 METAR LIMC 300920Z 06003KT 310V120 9999 BKN070 23/12 Q1021 NOSIG
13-08-30 METAR LIMC 300950Z VRB05KT 9999 FEW040 SCT070 24/12 Q1021 NOSIG
13-08-30 METAR LIMC 300950Z NIL
13-08-30 METAR LIMC 301020Z 15006KT 090V200 9999 FEW040 BKN070 24/12 Q1021 NOSIG
13-08-30 METAR LIMC 301050Z NIL
13-08-30 METAR LIMC 301050Z VRB03KT 9999 FEW040 SCT070 25/13 Q1021 NOSIG
13-08-30 METAR LIMC 301120Z 07004KT 010V140 9999 FEW040 24/13 Q1020 NOSIG
13-08-30 METAR LIMC 301150Z NIL
13-08-30 METAR LIMC 301150Z 12005KT 040V180 9999 SCT040 25/12 Q1020 NOSIG
13-08-30 METAR LIMC 301220Z VRB03KT 9999 SCT040 25/11 Q1020 NOSIG
13-08-30 METAR LIMC 301250Z VRB03KT 9999 SCT040 26/12 Q1020 NOSIG
13-08-30 METAR LIMC 301320Z VRB03KT 9999 SCT040 26/11 Q1019 NOSIG
13-08-30 METAR LIMC 301350Z 12004KT 070V180 9999 SCT040 25/12 Q1019 NOSIG
13-08-30 METAR LIMC 301420Z 23005KT 180V280 9999 SCT040 26/11 Q1019 NOSIG
13-08-30 METAR LIMC 301450Z 24005KT 180V310 9999 SCT040 27/11 Q1018 NOSIG
13-08-30 METAR LIMC 301520Z 24007KT 9999 SCT040 26/12 Q1018 NOSIG
13-08-30 METAR LIMC 301550Z 21006KT 160V250 9999 SCT040 26/12 Q1018 NOSIG
13-08-30 METAR LIMC 301620Z 22005KT 180V270 9999 SCT040 26/12 Q1018 NOSIG
13-08-30 METAR LIMC 301650Z 22008KT 9999 FEW040 25/13 Q1018 NOSIG
13-08-30 METAR LIMC 301720Z NIL
13-08-30 METAR LIMC 301720Z 22006KT 9999 FEW040 25/13 Q1018 NOSIG
13-08-30 METAR LIMC 301750Z 23005KT CAVOK 23/12 Q1018 NOSIG
13-08-30 METAR LIMC 301820Z 20003KT 100V230 CAVOK 22/13 Q1019 NOSIG
13-08-30 METAR LIMC 301850Z VRB01KT CAVOK 21/13 Q1019 NOSIG
13-08-30 METAR LIMC 301920Z VRB01KT CAVOK 21/13 Q1019 NOSIG
13-08-30 METAR LIMC 301950Z VRB01KT CAVOK 19/14 Q1019 NOSIG
13-08-30 METAR LIMC 302020Z VRB02KT CAVOK 19/14 Q1020 NOSIG
13-08-30 METAR LIMC 302050Z VRB01KT CAVOK 18/15 Q1020 NOSIG
13-08-30 METAR LIMC 302120Z VRB01KT CAVOK 17/15 Q1020 NOSIG
13-08-30 METAR LIMC 302150Z VRB02KT CAVOK 17/15 Q1020 NOSIG
13-08-30 METAR LIMC 302220Z 00000KT CAVOK 16/15 Q1020 NOSIG
13-08-30 METAR LIMC 302250Z VRB02KT 9999 SCT080 17/16 Q1020 NOSIG
13-08-30 METAR LIMC 302320Z 01003KT 340V040 9999 SCT080 17/16 Q1020 NOSIG
13-08-30 METAR LIMC 302350Z 01003KT 9999 FEW080 17/16 Q1020 NOSIG
13-08-31 METAR LIMC 310020Z VRB02KT 9999 FEW080 17/16 Q1020 NOSIG
13-08-31 METAR LIMC 310050Z VRB04KT 9999 FEW080 18/15 Q1020 NOSIG
13-08-31 METAR LIMC 310120Z 01004KT CAVOK 17/15 Q1020 NOSIG
13-08-31 METAR LIMC 310150Z VRB04KT CAVOK 16/15 Q1020 NOSIG
13-08-31 METAR LIMC 310220Z 02003KT CAVOK 16/15 Q1020 NOSIG
13-08-31 METAR LIMC 310250Z VRB01KT CAVOK 16/15 Q1020 NOSIG
13-08-31 METAR LIMC 310320Z 03003KT CAVOK 15/14 Q1020 NOSIG
13-08-31 METAR LIMC 310350Z 36002KT CAVOK 15/14 Q1020 NOSIG
13-08-31 METAR LIMC 310420Z 36003KT 330V060 CAVOK 15/15 Q1020 NOSIG
13-08-31 METAR LIMC 310450Z 34006KT CAVOK 16/15 Q1020 NOSIG
13-08-31 METAR LIMC 310520Z 36004KT 330V030 CAVOK 17/16 Q1020 NOSIG
13-08-31 METAR LIMC 310550Z VRB02KT CAVOK 17/16 Q1020 NOSIG
13-08-31 METAR LIMC 310620Z 36003KT CAVOK 18/16 Q1020 NOSIG
13-08-31 METAR LIMC 310650Z 01004KT CAVOK 20/16 Q1020 NOSIG
13-08-31 METAR LIMC 310720Z VRB02KT CAVOK 21/16 Q1021 NOSIG
13-08-31 METAR LIMC 310750Z 11003KT 070V150 CAVOK 22/13 Q1021 NOSIG
13-08-31 METAR LIMC 310820Z VRB02KT CAVOK 23/14 Q1021 NOSIG
13-08-31 METAR LIMC 310850Z NIL
13-08-31 METAR LIMC 310850Z 17003KT 120V280 CAVOK 23/14 Q1021 NOSIG
13-08-31 METAR LIMC 310920Z 14003KT CAVOK 24/14 Q1021 NOSIG
13-08-31 METAR LIMC 310950Z VRB04KT CAVOK 24/14 Q1021 NOSIG
13-08-31 METAR LIMC 311020Z VRB03KT 9999 FEW035 25/14 Q1020 NOSIG
13-08-31 METAR LIMC 311050Z VRB03KT 9999 FEW035 25/14 Q1020 NOSIG
13-08-31 METAR LIMC 311120Z 17006KT 130V210 9999 SCT040 26/14 Q1020 NOSIG
13-08-31 METAR LIMC 311150Z VRB03KT 9999 SCT040 27/14 Q1020 NOSIG
13-08-31 METAR LIMC 311220Z VRB03KT 9999 SCT040 25/14 Q1020 NOSIG
13-08-31 METAR LIMC 311250Z NIL
13-08-31 METAR LIMC 311250Z 20005KT 130V260 9999 SCT040 27/14 Q1019 NOSIG
13-08-31 METAR LIMC 311320Z VRB03KT 9999 SCT040 27/14 Q1019 NOSIG
13-08-31 METAR LIMC 311350Z 16004KT 130V200 9999 SCT040 27/14 Q1019 NOSIG
13-08-31 METAR LIMC 311420Z 16005KT 090V240 9999 FEW040 27/13 Q1018 NOSIG
13-08-31 METAR LIMC 311450Z 21007KT 150V240 9999 FEW040 27/14 Q1018 NOSIG
13-08-31 METAR LIMC 311520Z NIL
13-08-31 METAR LIMC 311520Z 21006KT 170V260 9999 FEW040 27/14 Q1018 NOSIG
13-08-31 METAR LIMC 311550Z NIL
13-08-31 METAR LIMC 311550Z 24007KT 190V280 9999 FEW040 27/15 Q1018 NOSIG
13-08-31 METAR LIMC 311620Z 24008KT CAVOK 26/15 Q1018 NOSIG
13-08-31 METAR LIMC 311650Z 23007KT CAVOK 26/15 Q1018 NOSIG
13-08-31 METAR LIMC 311720Z 23005KT CAVOK 25/15 Q1018 NOSIG
13-08-31 METAR LIMC 311750Z 20003KT 160V220 CAVOK 23/15 Q1018 NOSIG
13-08-31 METAR LIMC 311820Z 20002KT CAVOK 23/15 Q1018 NOSIG
13-08-31 METAR LIMC 311850Z VRB01KT CAVOK 21/15 Q1019 NOSIG
13-08-31 METAR LIMC 311920Z VRB01KT CAVOK 21/15 Q1019 NOSIG
13-08-31 METAR LIMC 311950Z VRB01KT CAVOK 19/16 Q1019 NOSIG
13-08-31 METAR LIMC 312020Z VRB01KT CAVOK 19/16 Q1019 NOSIG
13-08-31 METAR LIMC 312050Z VRB02KT CAVOK 19/16 Q1020 NOSIG
13-08-31 METAR LIMC 312120Z 08003KT 040V110 CAVOK 18/16 Q1020 NOSIG
13-08-31 METAR LIMC 312150Z 35003KT CAVOK 17/16 Q1020 NOSIG
13-08-31 METAR LIMC 312220Z NIL
13-08-31 METAR LIMC 312220Z VRB01KT CAVOK 17/16 Q1020 NOSIG
13-08-31 METAR LIMC 312250Z VRB01KT 9999 FEW040 16/16 Q1020 NOSIG
13-08-31 METAR LIMC 312320Z 35002KT 9999 FEW040 16/15 Q1020 NOSIG
13-08-31 METAR LIMC 312350Z 00000KT 9999 FEW040 16/16 Q1020 NOSIG
13-09-01 METAR LIMC 010020Z VRB02KT 9999 FEW040 17/16 Q1020 NOSIG
13-09-01 METAR LIMC 010050Z VRB02KT 9999 FEW040 17/16 Q1020 NOSIG
13-09-01 METAR LIMC 010120Z 02003KT 9999 FEW040 17/16 Q1020 NOSIG
13-09-01 METAR LIMC 010150Z 35003KT 9999 FEW040 18/16 Q1020 NOSIG
13-09-01 METAR LIMC 010220Z 02003KT 9999 FEW040 17/17 Q1020 NOSIG
13-09-01 METAR LIMC 010250Z 33003KT 280V010 9999 FEW040 18/16 Q1020 NOSIG
13-09-01 METAR LIMC 010320Z 02003KT 9999 FEW040 18/17 Q1019 NOSIG
13-09-01 METAR LIMC 010350Z 36004KT 9999 FEW040 18/16 Q1019 NOSIG
13-09-01 METAR LIMC 010420Z 34002KT 9999 FEW040 16/16 Q1020 NOSIG
13-09-01 METAR LIMC 010450Z NIL
13-09-01 METAR LIMC 010450Z 36004KT 9999 SCT080 17/17 Q1020 NOSIG
13-09-01 METAR LIMC 010520Z 35006KT 9999 SCT080 18/17 Q1020 NOSIG
13-09-01 METAR LIMC 010550Z 01004KT 340V050 9999 SCT080 19/17 Q1020 NOSIG
13-09-01 METAR LIMC 010620Z 36003KT 9999 FEW080 19/17 Q1020 NOSIG
13-09-01 METAR LIMC 010650Z 36005KT 330V060 9999 FEW080 20/18 Q1020 NOSIG
13-09-01 METAR LIMC 010720Z 35005KT 320V020 9999 FEW080 22/17 Q1020 NOSIG
13-09-01 METAR LIMC 010750Z 34004KT 310V030 9999 FEW080 23/15 Q1020 NOSIG
13-09-01 METAR LIMC 010820Z VRB03KT 9999 FEW060 24/14 Q1020 NOSIG
13-09-01 METAR LIMC 010850Z 29003KT 210V360 CAVOK 25/14 Q1020 NOSIG
13-09-01 METAR LIMC 010920Z VRB03KT CAVOK 25/15 Q1020 NOSIG
13-09-01 METAR LIMC 010950Z 20003KT 160V240 CAVOK 26/15 Q1020 NOSIG
13-09-01 METAR LIMC 011020Z VRB03KT CAVOK 26/14 Q1019 NOSIG
13-09-01 METAR LIMC 011050Z 26004KT 180V320 CAVOK 27/14 Q1019 NOSIG
13-09-01 METAR LIMC 011120Z NIL
13-09-01 METAR LIMC 011150Z VRB02KT CAVOK 28/12 Q1019 NOSIG
13-09-01 METAR LIMC 011220Z 23008KT 160V290 CAVOK 28/14 Q1019 NOSIG
13-09-01 METAR LIMC 011250Z 19009KT 150V220 CAVOK 28/15 Q1018 NOSIG
13-09-01 METAR LIMC 011350Z 23009KT 190V250 9999 FEW045 28/15 Q1018 NOSIG
13-09-01 METAR LIMC 011420Z 23009KT 190V270 9999 FEW045 28/15 Q1018 NOSIG
13-09-01 METAR LIMC 011450Z 21004KT 140V280 9999 FEW045 28/14 Q1018 NOSIG
13-09-01 METAR LIMC 011520Z 23007KT 200V270 9999 SCT070 28/15 Q1018 NOSIG
13-09-01 METAR LIMC 011550Z 23007KT 9999 SCT070 26/15 Q1018 NOSIG
13-09-01 METAR LIMC 011620Z 22005KT 9999 SCT070 26/15 Q1018 NOSIG
13-09-01 METAR LIMC 011650Z 20004KT 9999 SCT070 26/15 Q1018 NOSIG
13-09-01 METAR LIMC 011720Z 20004KT 9999 SCT070 25/16 Q1018 NOSIG
13-09-01 METAR LIMC 011750Z 29003KT 9999 SCT070 25/14 Q1018 NOSIG
13-09-01 METAR LIMC 011820Z 05003KT 300V110 9999 SCT060 23/15 Q1018 NOSIG
13-09-01 METAR LIMC 011850Z VRB02KT 9999 SCT060 22/15 Q1019 NOSIG
13-09-01 METAR LIMC 011920Z 14003KT 9999 SCT060 22/16 Q1019 NOSIG
13-09-01 METAR LIMC 011950Z 07005KT 9999 SCT060 22/15 Q1020 NOSIG
13-09-01 METAR LIMC 012020Z 07006KT 9999 SCT070 22/14 Q1020 NOSIG
13-09-01 METAR LIMC 012050Z 04007G18KT 330V070 9999 SCT070 21/14 Q1020 NOSIG
13-09-01 METAR LIMC 012120Z 07009KT 040V100 9999 FEW070 22/11 Q1020 NOSIG
13-09-01 METAR LIMC 012150Z 01004KT 330V060 9999 TS FEW035CB SCT070 21/11 Q1021 NOSIG
13-09-01 METAR LIMC 012220Z 06009KT 9999 TSRA SCT035CB BKN070 18/14 Q1020 NOSIG
13-09-01 METAR LIMC 012250Z 05005KT 9999 BKN070 18/15 Q1020 RETSRA NOSIG
13-09-01 METAR LIMC 012320Z VRB01KT 9999 SCT070 18/16 Q1021 RETSRA NOSIG
13-09-01 METAR LIMC 012350Z VRB02KT 9999 FEW070 17/17 Q1021 NOSIG
13-09-02 METAR LIMC 020020Z 36003KT 9999 FEW070 16/16 Q1021 NOSIG
13-09-02 METAR LIMC 020050Z 35003KT 320V020 CAVOK 16/16 Q1021 NOSIG
13-09-02 METAR LIMC 020120Z 04003KT 010V090 9999 FEW080 16/16 Q1021 NOSIG
13-09-02 METAR LIMC 020150Z 06005KT 030V090 9999 SCT080 19/17 Q1021 NOSIG
13-09-02 METAR LIMC 020220Z 06005KT 9999 SCT080 19/17 Q1021 NOSIG
13-09-02 METAR LIMC 020250Z 05003KT 9999 SCT080 18/17 Q1021 NOSIG
13-09-02 METAR LIMC 020320Z 03003KT 340V050 9999 SCT080 16/16 Q1021 NOSIG
13-09-02 METAR LIMC 020350Z VRB01KT 9999 SCT080 16/16 Q1022 NOSIG
13-09-02 METAR LIMC 020420Z 36003KT 9999 MIFG NSC 16/16 Q1022 NOSIG
13-09-02 METAR LIMC 020450Z 35006KT 9999 MIFG NSC 16/16 Q1022 NOSIG
13-09-02 METAR LIMC 020520Z 35006KT 9999 MIFG NSC 17/16 Q1022 NOSIG
13-09-02 METAR LIMC 020550Z 36003KT CAVOK 17/17 Q1023 NOSIG
13-09-02 METAR LIMC 020620Z 34004KT CAVOK 18/17 Q1023 NOSIG
13-09-02 METAR LIMC 020650Z 34006KT 9999 SCT080 19/16 Q1023 NOSIG
13-09-02 METAR LIMC 020720Z 33006KT 9999 BKN080 20/15 Q1023 NOSIG
13-09-02 METAR LIMC 020750Z 33005KT 300V360 9999 SCT080 21/14 Q1023 NOSIG
13-09-02 METAR LIMC 020820Z 32006KT 290V350 CAVOK 23/14 Q1023 NOSIG
13-09-02 METAR LIMC 020850Z 29004KT 210V360 CAVOK 24/13 Q1024 NOSIG
13-09-02 METAR LIMC 020920Z VRB03KT CAVOK 24/13 Q1024 NOSIG
13-09-02 METAR LIMC 020950Z VRB02KT CAVOK 25/11 Q1023 NOSIG
13-09-02 METAR LIMC 021020Z VRB03KT CAVOK 26/08 Q1023 NOSIG
13-09-02 METAR LIMC 021050Z 20006KT 140V260 CAVOK 26/12 Q1023 NOSIG
13-09-02 METAR LIMC 021120Z 25006KT 210V300 CAVOK 25/11 Q1023 NOSIG
13-09-02 METAR LIMC 021150Z 25006KT 220V300 CAVOK 25/12 Q1023 NOSIG
13-09-02 METAR LIMC 021220Z 20010KT CAVOK 26/11 Q1022 NOSIG
13-09-02 METAR LIMC 021250Z 24006KT 170V290 CAVOK 26/11 Q1022 NOSIG
13-09-02 METAR LIMC 021320Z 25008KT 210V280 CAVOK 26/11 Q1022 NOSIG
13-09-02 METAR LIMC 021350Z 21007KT 160V270 CAVOK 27/10 Q1022 NOSIG
13-09-02 METAR LIMC 021420Z 27006KT 190V350 CAVOK 27/10 Q1022 NOSIG
13-09-02 METAR LIMC 021450Z 25008KT CAVOK 27/11 Q1021 NOSIG
13-09-02 METAR LIMC 021520Z 22007KT 170V260 CAVOK 27/11 Q1021 NOSIG
13-09-02 METAR LIMC 021550Z 23007KT 190V270 CAVOK 27/11 Q1021 NOSIG
13-09-02 METAR LIMC 021620Z 23006KT 190V260 CAVOK 26/11 Q1021 NOSIG
13-09-02 METAR LIMC 021650Z 23007KT CAVOK 26/11 Q1021 NOSIG
13-09-02 METAR LIMC 021720Z 22005KT CAVOK 25/12 Q1021 NOSIG
13-09-02 METAR LIMC 021750Z 21004KT CAVOK 23/12 Q1022 NOSIG
13-09-02 METAR LIMC 021820Z 17003KT CAVOK 22/12 Q1022 NOSIG
13-09-02 METAR LIMC 021850Z 15002KT CAVOK 21/12 Q1022 NOSIG
13-09-02 METAR LIMC 021920Z VRB02KT CAVOK 20/13 Q1022 NOSIG
13-09-02 METAR LIMC 021950Z VRB01KT CAVOK 19/13 Q1023 NOSIG
13-09-02 METAR LIMC 022020Z NIL
13-09-02 METAR LIMC 022050Z VRB02KT CAVOK 18/13 Q1023 NOSIG
13-09-02 METAR LIMC 022120Z VRB02KT CAVOK 17/14 Q1024 NOSIG
13-09-02 METAR LIMC 022150Z VRB01KT CAVOK 17/14 Q1024 NOSIG
13-09-02 METAR LIMC 022220Z VRB02KT CAVOK 16/14 Q1024 NOSIG
13-09-02 METAR LIMC 022250Z VRB02KT CAVOK 17/14 Q1024 NOSIG
13-09-02 METAR LIMC 022320Z 00000KT CAVOK 15/14 Q1024 NOSIG
13-09-02 METAR LIMC 022350Z 35007KT CAVOK 15/14 Q1024 NOSIG
13-09-03 METAR LIMC 030020Z 05003KT 360V070 CAVOK 17/15 Q1024 NOSIG
13-09-03 METAR LIMC 030050Z 35004KT CAVOK 15/13 Q1023 NOSIG
13-09-03 METAR LIMC 030120Z VRB02KT CAVOK 15/14 Q1023 NOSIG
13-09-03 METAR LIMC 030150Z 03003KT 350V100 CAVOK 14/13 Q1023 NOSIG
13-09-03 METAR LIMC 030220Z 01003KT CAVOK 14/14 Q1023 NOSIG
13-09-03 METAR LIMC 030250Z 35005KT CAVOK 14/14 Q1023 NOSIG
13-09-03 METAR LIMC 030320Z 00000KT CAVOK 13/13 Q1023 NOSIG
13-09-03 METAR LIMC 030350Z 36004KT CAVOK 14/14 Q1023 NOSIG
13-09-03 METAR LIMC 030420Z 36004KT 330V090 CAVOK 14/13 Q1023 NOSIG
13-09-03 METAR LIMC 030450Z 36003KT CAVOK 14/12 Q1023 NOSIG
13-09-03 METAR LIMC 030520Z 36003KT 310V060 CAVOK 16/12 Q1023 NOSIG
13-09-03 METAR LIMC 030550Z 35004KT CAVOK 16/13 Q1023 NOSIG
13-09-03 METAR LIMC 030620Z 36004KT CAVOK 18/12 Q1024 NOSIG
13-09-03 METAR LIMC 030650Z VRB01KT CAVOK 21/12 Q1024 NOSIG
13-09-03 METAR LIMC 030720Z VRB01KT CAVOK 22/12 Q1024 NOSIG
13-09-03 METAR LIMC 030750Z VRB03KT CAVOK 22/12 Q1024 NOSIG
13-09-03 METAR LIMC 030850Z 09003KT 050V130 CAVOK 24/12 Q1024 NOSIG
13-09-03 METAR LIMC 030920Z 08003KT 020V160 CAVOK 25/11 Q1024 NOSIG
13-09-03 METAR LIMC 030950Z NIL
13-09-03 METAR LIMC 031020Z 13004KT 060V160 CAVOK 26/12 Q1024 NOSIG
13-09-03 METAR LIMC 031050Z 12004KT 070V160 CAVOK 27/12 Q1024 NOSIG
13-09-03 METAR LIMC 031120Z 13005KT 040V190 CAVOK 28/13 Q1023 NOSIG
13-09-03 METAR LIMC 031150Z 13005KT 060V200 CAVOK 28/12 Q1023 NOSIG
13-09-03 METAR LIMC 031220Z 21006KT 120V270 CAVOK 28/13 Q1023 NOSIG
13-09-03 METAR LIMC 031250Z VRB04KT CAVOK 29/14 Q1023 NOSIG
13-09-03 METAR LIMC 031320Z 22006KT 140V250 CAVOK 28/13 Q1022 NOSIG
13-09-03 METAR LIMC 031350Z 24008KT 200V290 CAVOK 29/14 Q1022 NOSIG
13-09-03 METAR LIMC 031420Z 23008KT 190V270 CAVOK 29/13 Q1022 NOSIG
13-09-03 METAR LIMC 031450Z 21008KT 140V240 CAVOK 29/13 Q1022 NOSIG
13-09-03 METAR LIMC 031520Z 24008KT CAVOK 29/12 Q1022 NOSIG
13-09-03 METAR LIMC 031550Z 23006KT CAVOK 29/12 Q1022 NOSIG
13-09-03 METAR LIMC 031620Z 21005KT CAVOK 28/12 Q1022 NOSIG
13-09-03 METAR LIMC 031650Z 22005KT 180V260 CAVOK 28/12 Q1022 NOSIG
13-09-03 METAR LIMC 031720Z 22005KT CAVOK 27/13 Q1022 NOSIG
13-09-03 METAR LIMC 031750Z VRB02KT CAVOK 25/14 Q1022 NOSIG
13-09-03 METAR LIMC 031820Z 00000KT CAVOK 22/14 Q1022 NOSIG
13-09-03 METAR LIMC 031850Z VRB02KT CAVOK 21/14 Q1022 NOSIG
13-09-03 METAR LIMC 031920Z VRB01KT CAVOK 20/14 Q1023 NOSIG
13-09-03 METAR LIMC 031950Z VRB02KT CAVOK 20/14 Q1023 NOSIG
13-09-03 METAR LIMC 032020Z VRB02KT CAVOK 19/15 Q1023 NOSIG
13-09-03 METAR LIMC 032050Z 01003KT CAVOK 18/15 Q1023 NOSIG
13-09-03 METAR LIMC 032120Z 02002KT CAVOK 17/15 Q1023 NOSIG
13-09-03 METAR LIMC 032150Z VRB02KT CAVOK 17/15 Q1024 NOSIG
13-09-03 METAR LIMC 032220Z VRB02KT CAVOK 17/16 Q1024 NOSIG
13-09-03 METAR LIMC 032250Z 36002KT CAVOK 17/16 Q1024 NOSIG
13-09-03 METAR LIMC 032320Z VRB02KT CAVOK 17/16 Q1024 NOSIG
13-09-03 METAR LIMC 032350Z 36004KT CAVOK 16/15 Q1024 NOSIG
13-09-04 METAR LIMC 040020Z 36003KT CAVOK 16/16 Q1024 NOSIG
13-09-04 METAR LIMC 040050Z 36003KT CAVOK 16/16 Q1024 NOSIG
13-09-04 METAR LIMC 040120Z VRB02KT CAVOK 16/16 Q1024 NOSIG
13-09-04 METAR LIMC 040150Z 06004KT CAVOK 18/16 Q1024 NOSIG
13-09-04 METAR LIMC 040220Z 03003KT 350V050 CAVOK 16/15 Q1024 NOSIG
13-09-04 METAR LIMC 040250Z 36005KT 340V050 CAVOK 18/16 Q1024 NOSIG
13-09-04 METAR LIMC 040320Z 36003KT CAVOK 16/15 Q1024 NOSIG
13-09-04 METAR LIMC 040350Z 36003KT CAVOK 16/15 Q1024 NOSIG
13-09-04 METAR LIMC 040420Z 36004KT CAVOK 16/15 Q1024 NOSIG
13-09-04 METAR LIMC 040450Z 36007KT CAVOK 18/16 Q1025 NOSIG
13-09-04 METAR LIMC 040520Z 35007KT CAVOK 18/17 Q1025 NOSIG
13-09-04 METAR LIMC 040550Z 35005KT CAVOK 18/17 Q1025 NOSIG
13-09-04 METAR LIMC 040620Z 36005KT CAVOK 19/17 Q1025 NOSIG
13-09-04 METAR LIMC 040650Z 36004KT 330V040 CAVOK 21/18 Q1025 NOSIG
13-09-04 METAR LIMC 040720Z 02003KT 340V080 CAVOK 23/17 Q1025 NOSIG
13-09-04 METAR LIMC 040750Z VRB03KT CAVOK 24/16 Q1025 NOSIG
13-09-04 METAR LIMC 040820Z VRB03KT CAVOK 24/14 Q1025 NOSIG
13-09-04 METAR LIMC 040850Z VRB03KT CAVOK 25/14 Q1025 NOSIG
13-09-04 METAR LIMC 040920Z VRB02KT CAVOK 26/14 Q1025 NOSIG
13-09-04 METAR LIMC 040950Z VRB03KT CAVOK 26/14 Q1025 NOSIG
13-09-04 METAR LIMC 041020Z VRB03KT CAVOK 27/15 Q1024 NOSIG
13-09-04 METAR LIMC 041050Z VRB04KT CAVOK 27/15 Q1024 NOSIG
13-09-04 METAR LIMC 041120Z 13004KT 070V200 CAVOK 27/15 Q1024 NOSIG
13-09-04 METAR LIMC 041150Z VRB04KT CAVOK 28/15 Q1023 NOSIG
13-09-04 METAR LIMC 041220Z 13004KT 040V200 CAVOK 28/15 Q1023 NOSIG
13-09-04 METAR LIMC 041250Z 11005KT 080V160 CAVOK 28/15 Q1022 NOSIG
13-09-04 METAR LIMC 041320Z 20004KT 150V260 CAVOK 29/14 Q1022 NOSIG
13-09-04 METAR LIMC 041350Z VRB02KT CAVOK 29/14 Q1022 NOSIG
13-09-04 METAR LIMC 041420Z 15006KT 090V180 CAVOK 29/15 Q1021 NOSIG
13-09-04 METAR LIMC 041450Z 23006G17KT 150V270 CAVOK 29/15 Q1021 NOSIG
13-09-04 METAR LIMC 041520Z 23007KT 190V260 CAVOK 29/14 Q1021 NOSIG
13-09-04 METAR LIMC 041550Z 22007KT 190V260 CAVOK 28/15 Q1020 NOSIG
13-09-04 METAR LIMC 041620Z 23007KT 190V280 CAVOK 28/15 Q1020 NOSIG
13-09-04 METAR LIMC 041650Z 23006KT 200V260 CAVOK 27/15 Q1020 NOSIG
13-09-04 METAR LIMC 041720Z 23006KT CAVOK 27/15 Q1020 NOSIG
13-09-04 METAR LIMC 041750Z 21004KT CAVOK 25/15 Q1020 NOSIG
13-09-04 METAR LIMC 041820Z 20003KT CAVOK 24/15 Q1020 NOSIG
13-09-04 METAR LIMC 041850Z VRB01KT CAVOK 23/15 Q1021 NOSIG
13-09-04 METAR LIMC 041920Z 00000KT CAVOK 21/16 Q1021 NOSIG
13-09-04 METAR LIMC 041950Z 00000KT CAVOK 20/17 Q1021 NOSIG
13-09-04 METAR LIMC 042050Z 07004KT 020V170 CAVOK 22/17 Q1021 NOSIG
13-09-04 METAR LIMC 042120Z 06005KT 310V080 CAVOK 20/17 Q1021 NOSIG
13-09-04 METAR LIMC 042150Z 05002KT CAVOK 20/17 Q1021 NOSIG
13-09-04 METAR LIMC 042220Z VRB01KT CAVOK 18/16 Q1021 NOSIG
13-09-04 METAR LIMC 042250Z 35002KT CAVOK 18/16 Q1021 NOSIG
13-09-04 METAR LIMC 042320Z 35004KT CAVOK 17/16 Q1021 NOSIG
13-09-04 METAR LIMC 042350Z 36004KT CAVOK 17/16 Q1021 NOSIG
13-09-05 METAR LIMC 050020Z 35005KT CAVOK 18/17 Q1021 NOSIG
13-09-05 METAR LIMC 050050Z 36004KT CAVOK 18/17 Q1021 NOSIG
13-09-05 METAR LIMC 050120Z 35003KT CAVOK 17/17 Q1021 NOSIG
13-09-05 METAR LIMC 050150Z 36005KT CAVOK 17/17 Q1020 NOSIG
13-09-05 METAR LIMC 050220Z 36003KT CAVOK 17/17 Q1020 NOSIG
13-09-05 METAR LIMC 050250Z 36003KT 330V030 CAVOK 17/17 Q1020 NOSIG
13-09-05 METAR LIMC 050320Z 36004KT CAVOK 17/17 Q1020 NOSIG
13-09-05 METAR LIMC 050350Z 36004KT CAVOK 17/17 Q1020 NOSIG
13-09-05 METAR LIMC 050420Z 01004KT CAVOK 17/17 Q1020 NOSIG
13-09-05 METAR LIMC 050450Z 01002KT 8000 MIFG NSC 16/16 Q1020 NOSIG
13-09-05 METAR LIMC 050550Z 36005KT 320V050 9000 MIFG NSC 19/18 Q1019 NOSIG
13-09-05 METAR LIMC 050620Z 36005KT 8000 NSC 20/18 Q1019 NOSIG
13-09-05 METAR LIMC 050650Z 03003KT 330V070 9000 NSC 21/18 Q1019 NOSIG
13-09-05 METAR LIMC 050720Z NIL
13-09-05 METAR LIMC 050720Z VRB01KT 9000 NSC 23/17 Q1019 NOSIG
13-09-05 METAR LIMC 050750Z VRB01KT 9000 NSC 24/16 Q1019 NOSIG
13-09-05 METAR LIMC 050820Z NIL
13-09-05 METAR LIMC 050820Z VRB02KT CAVOK 25/15 Q1019 NOSIG
13-09-05 METAR LIMC 050850Z VRB02KT CAVOK 26/15 Q1019 NOSIG
13-09-05 METAR LIMC 050920Z VRB02KT CAVOK 26/15 Q1018 NOSIG
13-09-05 METAR LIMC 050950Z 16005KT 100V230 CAVOK 26/15 Q1018 NOSIG
13-09-05 METAR LIMC 051020Z VRB03KT CAVOK 27/15 Q1018 NOSIG
13-09-05 METAR LIMC 051050Z VRB05KT CAVOK 28/15 Q1018 NOSIG
13-09-05 METAR LIMC 051120Z 27005KT 220V310 CAVOK 28/15 Q1018 NOSIG
13-09-05 METAR LIMC 051150Z VRB04KT CAVOK 28/15 Q1017 NOSIG
13-09-05 METAR LIMC 051220Z 23006KT 180V280 CAVOK 29/15 Q1017 NOSIG
13-09-05 METAR LIMC 051250Z 24007KT 210V290 CAVOK 29/15 Q1016 NOSIG
13-09-05 METAR LIMC 051320Z VRB04KT CAVOK 29/14 Q1016 NOSIG
13-09-05 METAR LIMC 051350Z 23005KT 200V280 9999 FEW030 29/14 Q1016 NOSIG
13-09-05 METAR LIMC 051420Z 25007KT 170V300 9999 FEW030 29/15 Q1015 NOSIG
13-09-05 METAR LIMC 051450Z 22007KT 190V260 9999 FEW030 29/15 Q1015 NOSIG
13-09-05 METAR LIMC 051520Z 21006KT 170V260 9999 FEW030 29/14 Q1015 NOSIG
13-09-05 METAR LIMC 051550Z VRB04KT CAVOK 29/16 Q1015 NOSIG
13-09-05 METAR LIMC 051620Z 23008KT 190V250 CAVOK 28/15 Q1015 NOSIG
13-09-05 METAR LIMC 051650Z 23007KT CAVOK 28/15 Q1014 NOSIG
13-09-05 METAR LIMC 051720Z 22006KT CAVOK 27/16 Q1015 NOSIG
13-09-05 METAR LIMC 051750Z NIL
13-09-05 METAR LIMC 051750Z 20002KT CAVOK 25/16 Q1015 NOSIG
13-09-05 METAR LIMC 051820Z NIL
13-09-05 METAR LIMC 051820Z 00000KT CAVOK 23/17 Q1015 NOSIG
13-09-05 METAR LIMC 051850Z 00000KT CAVOK 22/17 Q1015 NOSIG
13-09-05 METAR LIMC 051920Z NIL
13-09-05 METAR LIMC 051920Z VRB01KT CAVOK 21/17 Q1015 NOSIG
13-09-05 METAR LIMC 051950Z VRB01KT CAVOK 20/17 Q1015 NOSIG
13-09-05 METAR LIMC 052020Z VRB02KT CAVOK 21/18 Q1015 NOSIG
13-09-05 METAR LIMC 052050Z 06003KT 020V080 CAVOK 20/18 Q1016 NOSIG
13-09-05 METAR LIMC 052120Z 34002KT CAVOK 19/17 Q1016 NOSIG
13-09-05 METAR LIMC 052150Z VRB02KT CAVOK 20/17 Q1016 NOSIG
13-09-05 METAR LIMC 052220Z VRB02KT CAVOK 19/17 Q1016 NOSIG
13-09-05 METAR LIMC 052220Z NIL
13-09-05 METAR LIMC 052250Z 06004KT 010V080 CAVOK 21/17 Q1016 NOSIG
13-09-05 METAR LIMC 052320Z 33004KT CAVOK 20/17 Q1016 NOSIG
13-09-05 METAR LIMC 052350Z 33005KT CAVOK 19/17 Q1015 NOSIG
13-09-06 METAR LIMC 060020Z 01003KT CAVOK 19/17 Q1015 NOSIG
13-09-06 METAR LIMC 060050Z NIL
13-09-06 METAR LIMC 060050Z VRB02KT CAVOK 18/17 Q1015 NOSIG
13-09-06 METAR LIMC 060120Z 36003KT CAVOK 17/17 Q1015 NOSIG
13-09-06 METAR LIMC 060150Z VRB02KT CAVOK 18/17 Q1015 NOSIG
13-09-06 METAR LIMC 060150Z NIL
13-09-06 METAR LIMC 060220Z 36004KT CAVOK 18/17 Q1015 NOSIG
13-09-06 METAR LIMC 060250Z NIL
13-09-06 METAR LIMC 060250Z 01003KT 320V100 CAVOK 19/17 Q1015 NOSIG
13-09-06 METAR LIMC 060320Z 36005KT 330V060 CAVOK 20/18 Q1015 NOSIG
13-09-06 METAR LIMC 060350Z VRB02KT CAVOK 19/17 Q1015 NOSIG
13-09-06 METAR LIMC 060420Z 36005KT CAVOK 18/17 Q1015 NOSIG
13-09-06 METAR LIMC 060450Z 36005KT 9999 NSC 18/18 Q1015 NOSIG
13-09-06 METAR LIMC 060520Z VRB02KT 9999 NSC 18/17 Q1015 NOSIG
13-09-06 METAR LIMC 060550Z 36004KT 330V040 CAVOK 19/18 Q1015 NOSIG
13-09-06 METAR LIMC 060620Z 35006KT CAVOK 20/18 Q1015 NOSIG
13-09-06 METAR LIMC 060650Z 35006KT CAVOK 22/18 Q1015 NOSIG
13-09-06 METAR LIMC 060720Z 35005KT 330V030 CAVOK 23/18 Q1015 NOSIG
13-09-06 METAR LIMC 060750Z 04003KT 320V120 CAVOK 25/16 Q1015 NOSIG
13-09-06 METAR LIMC 060820Z 05006KT 320V080 CAVOK 25/16 Q1015 NOSIG
13-09-06 METAR LIMC 060850Z 10005KT 050V150 CAVOK 26/15 Q1015 NOSIG
13-09-06 METAR LIMC 060920Z 11005KT 040V150 CAVOK 26/15 Q1015 NOSIG
13-09-06 METAR LIMC 060950Z VRB04KT CAVOK 27/16 Q1015 NOSIG
13-09-06 METAR LIMC 061020Z 16005KT 070V210 CAVOK 27/15 Q1015 NOSIG
13-09-06 METAR LIMC 061050Z 16006KT 100V190 9999 FEW035 28/15 Q1015 NOSIG
13-09-06 METAR LIMC 061120Z VRB05KT 9999 FEW035 28/15 Q1014 NOSIG
13-09-06 METAR LIMC 061150Z 17005KT 120V220 9999 SCT035 29/14 Q1014 NOSIG
13-09-06 METAR LIMC 061220Z 16006KT 080V220 9999 SCT035 28/15 Q1014 NOSIG
13-09-06 METAR LIMC 061250Z 11005G16KT 030V190 9999 SCT035 28/14 Q1014 NOSIG
13-09-06 METAR LIMC 061320Z 15005KT 110V190 9999 FEW035 29/14 Q1014 NOSIG
13-09-06 METAR LIMC 061320Z NIL
13-09-06 METAR LIMC 061350Z VRB06KT 9999 FEW035 30/14 Q1013 NOSIG
13-09-06 METAR LIMC 061420Z 17006KT 110V260 9999 FEW035 30/13 Q1013 NOSIG
13-09-06 METAR LIMC 061450Z 20006KT 160V240 9999 FEW035 29/14 Q1013 NOSIG
13-09-06 METAR LIMC 061520Z 20005KT 150V230 9999 FEW035 29/14 Q1013 NOSIG
13-09-06 METAR LIMC 061550Z 20005KT 150V240 CAVOK 29/13 Q1013 NOSIG
13-09-06 METAR LIMC 061620Z 21005KT 160V260 CAVOK 29/13 Q1013 NOSIG
13-09-06 METAR LIMC 061650Z 22005KT CAVOK 27/15 Q1013 NOSIG
13-09-06 METAR LIMC 061720Z 20004KT CAVOK 26/16 Q1013 NOSIG
13-09-06 METAR LIMC 061750Z 18003KT CAVOK 25/16 Q1013 NOSIG
13-09-06 METAR LIMC 061850Z NIL
13-09-06 METAR LIMC 061920Z NIL
13-09-06 METAR LIMC 061950Z NIL
13-09-06 METAR LIMC 061950Z VRB01KT 9999 SCT060 21/16 Q1015 NOSIG
13-09-06 METAR LIMC 062020Z VRB02KT 9999 SCT060 20/17 Q1015 NOSIG
13-09-06 METAR LIMC 062050Z VRB02KT 9999 SCT060 21/17 Q1015 NOSIG
13-09-06 METAR LIMC 062120Z 36004KT 320V040 9999 SCT060 21/17 Q1015 NOSIG
13-09-06 METAR LIMC 062150Z VRB02KT 9999 SCT060 19/17 Q1015 NOSIG
13-09-06 METAR LIMC 062220Z 36004KT 340V040 9999 SCT060 18/17 Q1016 NOSIG
13-09-06 METAR LIMC 062250Z VRB02KT 9999 SCT060 19/17 Q1016 NOSIG
13-09-06 METAR LIMC 062320Z 36004KT 9999 SCT060 18/17 Q1016 NOSIG
13-09-06 METAR LIMC 062350Z 01003KT 9999 SCT060 18/17 Q1016 NOSIG
13-09-07 METAR LIMC 070020Z 02003KT 9999 SCT060 19/17 Q1016 NOSIG
13-09-07 METAR LIMC 070050Z VRB02KT 9999 SCT060 18/17 Q1016 NOSIG
13-09-07 METAR LIMC 070120Z NIL
13-09-07 METAR LIMC 070120Z 06004KT 9999 SCT060 20/17 Q1016 NOSIG
13-09-07 METAR LIMC 070150Z 05005KT 9999 SCT060 20/17 Q1016 NOSIG
13-09-07 METAR LIMC 070220Z 05006KT 9999 FEW060 20/17 Q1016 NOSIG
13-09-07 METAR LIMC 070250Z VRB02KT 9999 FEW060 20/17 Q1017 NOSIG
13-09-07 METAR LIMC 070320Z 03003KT 9999 FEW060 19/17 Q1017 NOSIG
13-09-07 METAR LIMC 070350Z VRB02KT 9999 FEW060 18/16 Q1017 NOSIG
13-09-07 METAR LIMC 070420Z VRB02KT 9999 SCT060 18/17 Q1017 NOSIG
13-09-07 METAR LIMC 070450Z 01003KT 9999 FEW070 17/17 Q1018 NOSIG
13-09-07 METAR LIMC 070520Z 36005KT 9999 FEW070 18/17 Q1018 NOSIG
13-09-07 METAR LIMC 070550Z 36004KT 9999 FEW070 19/18 Q1018 NOSIG
13-09-07 METAR LIMC 070620Z NIL
13-09-07 METAR LIMC 070650Z 36005KT CAVOK 22/17 Q1018 NOSIG
13-09-07 METAR LIMC 070720Z 36005KT CAVOK 23/17 Q1018 NOSIG
13-09-07 METAR LIMC 070750Z 36005KT 330V050 9999 FEW050 24/17 Q1018 NOSIG
13-09-07 METAR LIMC 070820Z 07005G18KT 340V140 CAVOK 25/16 Q1018 NOSIG
13-09-07 METAR LIMC 070850Z VRB04KT CAVOK 25/16 Q1019 NOSIG
13-09-07 METAR LIMC 070920Z VRB05KT CAVOK 26/16 Q1018 NOSIG
13-09-07 METAR LIMC 070950Z VRB02KT CAVOK 27/16 Q1018 NOSIG
13-09-07 METAR LIMC 071020Z VRB04G14KT 9999 SCT035 27/15 Q1018 NOSIG
13-09-07 METAR LIMC 071050Z VRB03KT 9999 SCT035 27/16 Q1018 NOSIG
13-09-07 METAR LIMC 071120Z VRB04KT 9999 SCT035 27/15 Q1018 NOSIG
13-09-07 METAR LIMC 071150Z 33003KT 270V070 9999 SCT035 27/15 Q1018 NOSIG
13-09-07 METAR LIMC 071220Z 04003KT 340V110 9999 SCT035 28/16 Q1018 NOSIG
13-09-07 METAR LIMC 071250Z VRB02KT 9999 SCT035 28/15 Q1018 NOSIG
13-09-07 METAR LIMC 071320Z 15007KT 060V220 9999 SCT035 29/15 Q1017 NOSIG
13-09-07 METAR LIMC 071350Z 17006KT 110V270 9999 SCT035 29/14 Q1017 NOSIG
13-09-07 METAR LIMC 071420Z 17006KT 120V230 9999 SCT035 29/13 Q1017 NOSIG
13-09-07 METAR LIMC 071450Z 17005KT 100V230 9999 SCT035 29/14 Q1017 NOSIG
13-09-07 METAR LIMC 071520Z 15006KT 120V200 9999 FEW035 29/13 Q1017 NOSIG
13-09-07 METAR LIMC 071550Z 20007KT 180V240 9999 FEW035 28/14 Q1017 NOSIG
13-09-07 METAR LIMC 071620Z 18006KT 130V210 9999 FEW035 SCT090 27/14 Q1017 NOSIG
13-09-07 METAR LIMC 071650Z 20006KT 9999 FEW035 SCT090 27/15 Q1017 NOSIG
13-09-07 METAR LIMC 071720Z 23004KT 9999 FEW035 SCT090 26/15 Q1017 NOSIG
13-09-07 METAR LIMC 071750Z 14002KT 9999 FEW035 SCT090 25/16 Q1017 NOSIG
13-09-07 METAR LIMC 071820Z NIL
13-09-07 METAR LIMC 071820Z 00000KT 9999 FEW035 SCT090 23/16 Q1017 NOSIG
13-09-07 METAR LIMC 071850Z VRB02KT 9999 SCT080 24/16 Q1017 NOSIG
13-09-07 METAR LIMC 071850Z NIL
13-09-07 METAR LIMC 071950Z 00000KT 9999 SCT080 22/17 Q1017 NOSIG
13-09-07 METAR LIMC 071950Z NIL
13-09-07 METAR LIMC 072020Z VRB01KT 9999 SCT060 23/17 Q1018 NOSIG
13-09-07 METAR LIMC 072050Z 20003KT 160V220 9999 SCT060 23/17 Q1018 NOSIG
13-09-07 METAR LIMC 072120Z 21003KT 9999 SCT060 23/17 Q1018 NOSIG
13-09-07 METAR LIMC 072150Z 22003KT 200V260 9999 SCT060 23/16 Q1018 NOSIG
13-09-07 METAR LIMC 072220Z 20005KT 9999 SCT060 22/15 Q1018 NOSIG
13-09-07 METAR LIMC 072250Z 10002KT 9999 FEW060 22/15 Q1018 NOSIG
13-09-07 METAR LIMC 072320Z VRB02KT 9999 SCT080 21/16 Q1018 NOSIG
13-09-07 METAR LIMC 072350Z 00000KT 9999 SCT080 20/16 Q1019 NOSIG
13-09-08 METAR LIMC 080020Z 36002KT 9999 SCT080 21/16 Q1019 NOSIG
13-09-08 METAR LIMC 080050Z VRB02KT 9999 SCT080 21/17 Q1019 NOSIG
13-09-08 METAR LIMC 080120Z 04003KT 330V120 9999 SCT080 21/17 Q1018 NOSIG
13-09-08 METAR LIMC 080150Z 07005KT 9999 SCT080 21/18 Q1018 NOSIG
13-09-08 METAR LIMC 080220Z 07005KT 9999 SCT080 21/18 Q1018 NOSIG
13-09-08 METAR LIMC 080250Z 09003KT 9999 SCT060 21/18 Q1018 NOSIG
13-09-08 METAR LIMC 080320Z 10003KT 060V130 9999 FEW080 21/18 Q1018 NOSIG
13-09-08 METAR LIMC 080350Z 11005KT 9999 FEW080 21/17 Q1018 NOSIG
13-09-08 METAR LIMC 080420Z 07004KT 9999 FEW040 BKN080 21/17 Q1018 NOSIG
13-09-08 METAR LIMC 080450Z 08004KT 9999 SCT040 SCT080 21/16 Q1018 NOSIG
13-09-08 METAR LIMC 080520Z 09004KT 070V130 9999 SCT040 BKN080 21/16 Q1018 NOSIG
13-09-08 METAR LIMC 080550Z 09005KT 9999 SCT040 21/16 Q1018 NOSIG
13-09-08 METAR LIMC 080620Z 10006KT 070V130 9999 VCSH BKN040 BKN090 21/16 Q1018 NOSIG
13-09-08 METAR LIMC 080650Z 12004KT 090V160 9999 BKN040 BKN080 21/16 Q1019 NOSIG
13-09-08 METAR LIMC 080720Z 10005KT 060V120 9999 BKN040 BKN080 22/16 Q1019 NOSIG
13-09-08 METAR LIMC 080750Z 11006KT 080V150 9999 SCT060 SCT090 23/17 Q1019 NOSIG
13-09-08 METAR LIMC 080820Z 10005KT 070V130 9999 SCT060 SCT090 23/16 Q1019 NOSIG
13-09-08 METAR LIMC 080850Z 10006G22KT 060V200 9999 BKN060 BKN090 24/16 Q1019 NOSIG
13-09-08 METAR LIMC 080920Z 14008KT 100V170 9999 BKN060 BKN090 24/17 Q1019 NOSIG
13-09-08 METAR LIMC 080950Z 14006KT 090V170 9999 BKN060 BKN090 25/16 Q1019 NOSIG
13-09-08 METAR LIMC 081020Z 15010KT 120V210 9999 BKN060 BKN090 25/16 Q1019 NOSIG
13-09-08 METAR LIMC 081050Z 16011KT 130V200 9999 SCT050 SCT090 25/16 Q1019 NOSIG
13-09-08 METAR LIMC 081120Z 15010KT 120V190 9999 SCT050 SCT090 25/16 Q1019 NOSIG
13-09-08 METAR LIMC 081150Z 15011KT 120V190 9999 BKN050 BKN090 25/16 Q1019 NOSIG
13-09-08 METAR LIMC 081220Z 16009KT 130V190 9999 BKN050 BKN090 25/16 Q1019 NOSIG
13-09-08 METAR LIMC 081250Z 16011KT 120V190 9999 BKN050 BKN090 26/16 Q1018 NOSIG
13-09-08 METAR LIMC 081320Z 16009KT 9999 BKN050 SCT080 26/17 Q1018 NOSIG
13-09-08 METAR LIMC 081350Z 17011KT 130V190 9999 BKN050 SCT080 27/16 Q1017 NOSIG
13-09-08 METAR LIMC 081420Z 16010KT 120V190 9999 BKN050 SCT080 25/16 Q1017 NOSIG
13-09-08 METAR LIMC 081450Z 13011KT 090V170 9999 BKN050 SCT080 25/16 Q1017 NOSIG
13-09-08 METAR LIMC 081520Z 15014KT 9999 BKN050 SCT080 26/14 Q1017 NOSIG
13-09-08 METAR LIMC 081550Z 16012KT 130V190 9999 SCT040 26/15 Q1016 NOSIG
13-09-08 METAR LIMC 081620Z 16010KT 9999 SCT040 25/15 Q1016 NOSIG
13-09-08 METAR LIMC 081650Z 17009KT 9999 SCT040 25/15 Q1016 NOSIG
13-09-08 METAR LIMC 081720Z 16008KT 140V200 9999 BKN050 24/15 Q1016 NOSIG
13-09-08 METAR LIMC 081750Z 18006KT 9999 FEW035TCU BKN050 24/15 Q1016 NOSIG
13-09-08 METAR LIMC 081820Z NIL
13-09-08 METAR LIMC 081820Z 17007KT 9999 VCTS FEW035CB BKN050 BKN090 23/15 Q1017
13-09-08 METAR LIMC 081850Z 17005KT 9999 VCTS FEW035CB BKN050 BKN090 22/15 Q1017 TEMPO TS
13-09-08 METAR LIMC 081850Z NIL
13-09-08 METAR LIMC 081920Z NIL
13-09-08 METAR LIMC 081920Z 15006KT 9999 VCTS FEW035CB BKN050 BKN090 22/15 Q1017
13-09-08 METAR LIMC 081950Z NIL
13-09-08 METAR LIMC 081950Z 13005KT 090V160 9999 BKN050 BKN090 22/16 Q1017 NOSIG
13-09-08 METAR LIMC 082020Z 13005KT 9999 SCT050 BKN090 22/15 Q1017 NOSIG
13-09-08 METAR LIMC 082050Z 15006KT 9999 SCT050 BKN090 22/15 Q1017 NOSIG
13-09-08 METAR LIMC 082120Z 15003KT 9999 SCT050 BKN090 22/16 Q1016 NOSIG
13-09-08 METAR LIMC 082150Z 15003KT 120V210 9999 SCT050 BKN090 21/16 Q1016 NOSIG
13-09-08 METAR LIMC 082220Z VRB01KT 9999 SCT050 BKN090 21/16 Q1016 NOSIG
13-09-08 METAR LIMC 082250Z VRB02KT 9999 SCT050 BKN090 19/17 Q1016 NOSIG
13-09-08 METAR LIMC 082320Z 10003KT 9999 SCT050 BKN090 20/17 Q1016 NOSIG
13-09-08 METAR LIMC 082350Z 32007KT 9999 SCT050 BKN090 20/18 Q1016 NOSIG
13-09-09 METAR LIMC 090020Z 35005KT 9999 SCT050 BKN090 19/18 Q1015 NOSIG
13-09-09 METAR LIMC 090050Z 35006KT 9999 SCT050 BKN090 18/17 Q1015 NOSIG
13-09-09 METAR LIMC 090120Z 34006KT 9999 SCT050 BKN090 18/17 Q1015 NOSIG
13-09-09 METAR LIMC 090150Z 34005KT 9999 FEW050 SCT090 17/17 Q1015 NOSIG
13-09-09 METAR LIMC 090220Z 34006KT 9999 FEW050 SCT090 16/16 Q1015 NOSIG
13-09-09 METAR LIMC 090250Z 36005KT 9999 FEW050 SCT090 17/15 Q1015 NOSIG
13-09-09 METAR LIMC 090320Z 35005KT 9999 FEW050 SCT090 16/14 Q1015 NOSIG
13-09-09 METAR LIMC 090350Z 36006KT 9999 FEW050 SCT090 16/14 Q1015 NOSIG
13-09-09 METAR LIMC 090420Z 34007KT 9999 FEW090 15/14 Q1015 NOSIG
13-09-09 METAR LIMC 090450Z VRB02KT 9999 FEW080 15/13 Q1015 NOSIG
13-09-09 METAR LIMC 090520Z 35006KT 330V040 9999 FEW080 17/14 Q1015 NOSIG
13-09-09 METAR LIMC 090550Z 36006KT 9999 FEW080 17/14 Q1015 NOSIG
13-09-09 METAR LIMC 090620Z 35007KT 320V020 9999 FEW080 18/14 Q1015 NOSIG
13-09-09 METAR LIMC 090650Z 36007KT 9999 FEW080 19/13 Q1015 NOSIG
13-09-09 METAR LIMC 090720Z NIL
13-09-09 METAR LIMC 091150Z NIL
13-09-09 METAR LIMC 091150Z 31007KT 280V340 CAVOK 27/06 Q1015 NOSIG
13-09-09 METAR LIMC 091120Z VRB05KT CAVOK 27/06 Q1015 NOSIG
13-09-09 METAR LIMC 091250Z 34006KT 290V030 CAVOK 28/05 Q1015 NOSIG
13-09-09 METAR LIMC 091320Z 29005KT 220V020 CAVOK 29/05 Q1014 NOSIG
13-09-09 METAR LIMC 091350Z VRB05KT CAVOK 28/05 Q1014 NOSIG
13-09-09 METAR LIMC 091420Z 27007KT 220V310 CAVOK 28/05 Q1014 NOSIG
13-09-09 METAR LIMC 091450Z 25006KT 220V320 CAVOK 29/05 Q1014 NOSIG
13-09-09 METAR LIMC 091520Z NIL
13-09-09 METAR LIMC 091520Z 26007KT 220V300 CAVOK 28/07 Q1014 NOSIG
13-09-09 METAR LIMC 091550Z 23009KT CAVOK 27/09 Q1014 NOSIG
13-09-09 METAR LIMC 091620Z 23011KT CAVOK 27/10 Q1014 NOSIG
13-09-09 METAR LIMC 091650Z 23010KT CAVOK 26/09 Q1014 NOSIG
13-09-09 METAR LIMC 091720Z 24007KT CAVOK 25/08 Q1014 NOSIG
13-09-09 METAR LIMC 091750Z 22004KT CAVOK 23/09 Q1014 NOSIG
13-09-09 METAR LIMC 091820Z 00000KT CAVOK 22/10 Q1015 NOSIG
13-09-09 METAR LIMC 091850Z VRB02KT CAVOK 19/11 Q1015 NOSIG
13-09-09 METAR LIMC 091920Z 19008KT CAVOK 20/12 Q1015 NOSIG
13-09-09 METAR LIMC 091950Z 21006KT 180V240 CAVOK 20/12 Q1016 NOSIG
13-09-09 METAR LIMC 092020Z VRB02KT CAVOK 19/12 Q1016 NOSIG
13-09-09 METAR LIMC 092120Z VRB02KT CAVOK 18/12 Q1016 NOSIG
13-09-09 METAR LIMC 092150Z VRB01KT CAVOK 16/13 Q1016 NOSIG
13-09-09 METAR LIMC 092220Z VRB02KT CAVOK 16/13 Q1016 NOSIG
13-09-09 METAR LIMC 092320Z VRB02KT CAVOK 15/13 Q1016 NOSIG
13-09-09 METAR LIMC 092320Z NIL
13-09-09 METAR LIMC 092350Z 01003KT 340V090 CAVOK 14/12 Q1016 NOSIG
13-09-10 METAR LIMC 100020Z VRB01KT CAVOK 14/13 Q1016 NOSIG
13-09-10 METAR LIMC 100050Z VRB01KT CAVOK 13/12 Q1016 NOSIG
13-09-10 METAR LIMC 100120Z 00000KT CAVOK 13/13 Q1016 NOSIG
13-09-10 METAR LIMC 100150Z 36003KT CAVOK 13/12 Q1016 NOSIG
13-09-10 METAR LIMC 100220Z 01003KT CAVOK 13/12 Q1016 NOSIG
13-09-10 METAR LIMC 100250Z 36005KT CAVOK 13/13 Q1016 NOSIG
13-09-10 METAR LIMC 100350Z 36003KT CAVOK 14/13 Q1016 NOSIG
13-09-10 METAR LIMC 100420Z 01003KT 330V040 9999 SCT060 14/13 Q1016 NOSIG
13-09-10 METAR LIMC 100450Z VRB02KT 9999 SCT060 14/13 Q1016 NOSIG
13-09-10 METAR LIMC 100520Z 05003KT 360V080 9999 SCT060 15/14 Q1016 NOSIG
13-09-10 METAR LIMC 100550Z VRB01KT 9999 SCT060 14/14 Q1016 NOSIG
13-09-10 METAR LIMC 100620Z 10003KT 070V140 9999 SCT050 SCT070 17/15 Q1016 NOSIG
13-09-10 METAR LIMC 100650Z 11004KT 080V140 9999 BKN050 18/15 Q1016 NOSIG
13-09-10 METAR LIMC 100720Z NIL
13-09-10 METAR LIMC 100720Z 11003KT 070V160 9999 BKN050 18/15 Q1016 NOSIG
13-09-10 METAR LIMC 100820Z VRB02KT 9999 BKN050 20/15 Q1016 NOSIG
13-09-10 METAR LIMC 100850Z 01004KT 310V040 9999 BKN050 21/14 Q1016 NOSIG
13-09-10 METAR LIMC 100920Z 31006KT 280V360 9999 FEW035 SCT060 21/15 Q1016 NOSIG
13-09-10 METAR LIMC 100950Z VRB04KT 9999 SCT035 SCT060 23/15 Q1015 NOSIG
13-09-10 METAR LIMC 101020Z 32006KT 270V010 9999 SCT035 SCT060 22/15 Q1015 NOSIG
13-09-10 METAR LIMC 101050Z 32008KT 280V360 9999 SCT030 22/15 Q1015 NOSIG
13-09-10 METAR LIMC 101120Z 36003KT 270V060 9999 SCT030 23/15 Q1014 NOSIG
13-09-10 METAR LIMC 101150Z 04005KT 340V090 9999 FEW030TCU BKN035 22/14 Q1014 NOSIG
13-09-10 METAR LIMC 101220Z 33004KT 9999 FEW025TCU BKN030 23/14 Q1014 NOSIG
13-09-10 METAR LIMC 101250Z 36007KT 320V040 9999 BKN030 23/14 Q1013 NOSIG
13-09-10 METAR LIMC 101320Z NIL
13-09-10 METAR LIMC 101320Z VRB02KT 9999 SCT030 SCT070 23/14 Q1013 NOSIG
13-09-10 METAR LIMC 101350Z 29001KT 9999 FEW025TCU BKN030 24/14 Q1012 NOSIG
13-09-10 METAR LIMC 101420Z NIL
13-09-10 METAR LIMC 101450Z NIL
13-09-10 METAR LIMC 101450Z 36005KT 260V040 9999 SCT025TCU BKN030 24/14 Q1012 NOSIG
13-09-10 METAR LIMC 101520Z 01005KT 340V050 9999 FEW025TCU BKN030 23/14 Q1011 NOSIG
13-09-10 METAR LIMC 101550Z 34004KT 280V030 9999 BKN035 24/14 Q1011 NOSIG
13-09-10 METAR LIMC 101620Z 03005KT 350V070 9999 FEW030TCU BKN035 23/14 Q1011 NOSIG
13-09-10 METAR LIMC 101650Z 33009KT 9999 FEW035TCU BKN040 22/15 Q1011 NOSIG
13-09-10 METAR LIMC 101720Z 34009KT 9999 VCTS FEW035CB BKN040 21/14 Q1010 NOSIG
13-09-10 METAR LIMC 101750Z 34009KT 9999 VCTS FEW035CB BKN040 20/14 Q1010 BECMG TS
13-09-10 METAR LIMC 101820Z 33008KT 9999 FEW035CB BKN040 20/13 Q1011 NOSIG
13-09-10 METAR LIMC 101850Z 11003KT 030V180 9999 VCTS FEW035CB BKN040 19/12 Q1011 BECMG TS
13-09-10 METAR LIMC 101920Z 05005KT 360V080 9999 BKN040 19/12 Q1011 NOSIG
13-09-10 METAR LIMC 101950Z 01004KT 330V060 9999 FEW040 SCT060 18/12 Q1011 NOSIG
13-09-10 METAR LIMC 102020Z 36003KT 320V060 9999 FEW040 SCT060 18/12 Q1011 NOSIG
13-09-10 METAR LIMC 102050Z 35004KT 330V030 9999 SCT040 18/13 Q1011 NOSIG
13-09-10 METAR LIMC 102120Z 03003KT 350V090 9999 TS FEW035CB SCT040 18/14 Q1012 NOSIG
13-09-10 METAR LIMC 102150Z VRB02KT 9999 TS FEW035CB SCT040 17/14 Q1012 NOSIG
13-09-10 METAR LIMC 102220Z 07005KT 040V110 8000 RA BKN050 17/16 Q1011 RETS NOSIG
13-09-10 METAR LIMC 102250Z 33006KT 9999 FEW050 15/15 Q1011 RERA NOSIG
13-09-10 METAR LIMC 102320Z 36005KT 9999 FEW050 15/15 Q1011 NOSIG
13-09-10 METAR LIMC 102350Z 35005KT 9999 FEW050 14/14 Q1012 NOSIG
13-09-11 METAR LIMC 110020Z 02003KT 9999 FEW080 14/14 Q1011 NOSIG
13-09-11 METAR LIMC 110050Z 36003KT 9999 FEW080 13/13 Q1011 NOSIG
13-09-11 METAR LIMC 110120Z VRB02KT CAVOK 12/12 Q1011 NOSIG
13-09-11 METAR LIMC 110150Z VRB01KT CAVOK 11/11 Q1012 NOSIG
13-09-11 METAR LIMC 110220Z VRB02KT CAVOK 10/10 Q1012 NOSIG
13-09-11 METAR LIMC 110250Z 36003KT 9999 FEW040 10/10 Q1012 NOSIG
13-09-11 METAR LIMC 110320Z 04003KT CAVOK 10/10 Q1012 NOSIG
13-09-11 METAR LIMC 110350Z NIL
13-09-11 METAR LIMC 110350Z VRB02KT 9999 FEW060 10/08 Q1012 NOSIG
13-09-11 METAR LIMC 110450Z VRB02KT 9999 FEW040 SCT060 10/08 Q1012 NOSIG
13-09-11 METAR LIMC 110520Z NIL
13-09-11 METAR LIMC 110520Z VRB03KT 9999 VCFG FEW075 11/08 Q1013 NOSIG
13-09-11 METAR LIMC 110550Z VRB04KT 9999 3000E VCFG FEW010 SCT060 14/14 Q1013 TEMPO 1200
13-09-11 METAR LIMC 110620Z 08003KT 030V180 5000 1500E R35L/1500N R35R/1400V1500N BCFG BKN005 BKN060 14/14 Q1013 TEMPO 1200
13-09-11 METAR LIMC 110650Z 07003KT 030V120 5000 R35L/1500N R35R/1400V1500N BR FEW005 BKN060 15/15 Q1014 NOSIG
13-09-11 METAR LIMC 110720Z 06004KT 030V090 7000 FEW010 BKN060 16/16 Q1014 NOSIG
13-09-11 METAR LIMC 110750Z VRB02KT 9999 FEW012 BKN060 17/15 Q1014 NOSIG
13-09-11 METAR LIMC 110820Z VRB02KT 9999 FEW012 SCT070 19/14 Q1014 NOSIG
13-09-11 METAR LIMC 110850Z 10005KT 040V180 9999 FEW012 SCT070 20/10 Q1014 NOSIG
13-09-11 METAR LIMC 110920Z NIL
13-09-11 METAR LIMC 110920Z 01007KT 330V070 9999 FEW012 SCT070 20/09 Q1014 NOSIG
13-09-11 METAR LIMC 110950Z 02005KT 340V060 CAVOK 20/07 Q1014 NOSIG
13-09-11 METAR LIMC 111020Z 05005KT 330V110 CAVOK 20/06 Q1014 NOSIG
13-09-11 METAR LIMC 111050Z 04004KT 330V090 CAVOK 21/05 Q1014 NOSIG
13-09-11 METAR LIMC 111120Z 01006KT 320V050 CAVOK 22/04 Q1014 NOSIG
13-09-11 METAR LIMC 111150Z 34005KT 280V050 9999 SCT080 23/05 Q1013 NOSIG
13-09-11 METAR LIMC 111220Z 03004KT 320V100 9999 FEW060 SCT080 23/04 Q1013 NOSIG
13-09-11 METAR LIMC 111250Z VRB04KT 9999 FEW040 24/05 Q1013 NOSIG
13-09-11 METAR LIMC 111320Z NIL
13-09-11 METAR LIMC 111350Z NIL
13-09-11 METAR LIMC 111350Z VRB02KT 9999 FEW040 22/05 Q1012 NOSIG
13-09-11 METAR LIMC 111420Z 19004KT 130V270 9999 FEW040 24/04 Q1012 NOSIG
13-09-11 METAR LIMC 111450Z 25006KT 200V340 9999 FEW040 24/03 Q1012 NOSIG
13-09-11 METAR LIMC 111520Z 22004KT 200V280 9999 FEW040 24/03 Q1012 NOSIG
13-09-11 METAR LIMC 111550Z 21006KT 9999 FEW040 SCT090 22/05 Q1012 NOSIG
13-09-11 METAR LIMC 111620Z 23005KT 200V260 9999 FEW040 SCT090 23/05 Q1012 NOSIG
13-09-11 METAR LIMC 111650Z 23007KT 9999 SCT090 22/05 Q1012 NOSIG
13-09-11 METAR LIMC 111720Z 23005KT CAVOK 21/06 Q1012 NOSIG
13-09-11 METAR LIMC 111750Z 17003KT CAVOK 18/07 Q1012 NOSIG
13-09-11 METAR LIMC 111820Z 17004KT CAVOK 17/10 Q1013 NOSIG
13-09-11 METAR LIMC 111850Z NIL
13-09-11 METAR LIMC 111850Z 14004KT CAVOK 17/12 Q1013 NOSIG
13-09-11 METAR LIMC 111920Z 11005KT CAVOK 17/13 Q1014 NOSIG
13-09-11 METAR LIMC 111950Z 09004KT CAVOK 17/13 Q1014 NOSIG
13-09-11 METAR LIMC 112020Z 07003KT 010V100 CAVOK 15/14 Q1014 NOSIG
13-09-11 METAR LIMC 112050Z 12005KT CAVOK 16/14 Q1014 NOSIG
13-09-11 METAR LIMC 112150Z VRB01KT CAVOK 15/13 Q1015 NOSIG
13-09-11 METAR LIMC 112220Z NIL
13-09-11 METAR LIMC 112250Z NIL
13-09-11 METAR LIMC 112220Z VRB02KT CAVOK 13/12 Q1015 NOSIG
13-09-11 METAR LIMC 112250Z 36004KT 260V040 CAVOK 13/11 Q1015 NOSIG
13-09-11 METAR LIMC 112320Z 35005KT CAVOK 12/10 Q1015 NOSIG
13-09-11 METAR LIMC 112350Z NIL
13-09-11 METAR LIMC 112350Z 35005KT CAVOK 13/12 Q1015 NOSIG
13-09-12 METAR LIMC 120020Z NIL
13-09-12 METAR LIMC 120050Z VRB02KT CAVOK 12/11 Q1014 NOSIG
13-09-12 METAR LIMC 120120Z VRB02KT CAVOK 11/11 Q1014 NOSIG
13-09-12 METAR LIMC 120150Z 08003KT 040V160 CAVOK 11/11 Q1014 NOSIG
13-09-12 METAR LIMC 120220Z 07002KT CAVOK 11/11 Q1014 NOSIG
13-09-12 METAR LIMC 120250Z VRB01KT CAVOK 11/10 Q1014 NOSIG
13-09-12 METAR LIMC 120320Z 35003KT CAVOK 10/10 Q1014 NOSIG
13-09-12 METAR LIMC 120350Z 00000KT CAVOK 09/09 Q1014 NOSIG
13-09-12 METAR LIMC 120420Z 36004KT CAVOK 09/09 Q1014 NOSIG
13-09-12 METAR LIMC 120450Z VRB02KT 9999 1500NE MIFG NSC 10/10 Q1014 NOSIG
13-09-12 METAR LIMC 120520Z 03003KT 340V100 9999 1500NE MIFG NSC 10/09 Q1015 NOSIG
13-09-12 METAR LIMC 120550Z 02002KT 9999 1500NE MIFG NSC 10/10 Q1015 NOSIG
13-09-12 METAR LIMC 120620Z VRB02KT 9999 1500NE MIFG NSC 12/11 Q1015 NOSIG
13-09-12 METAR LIMC 120650Z VRB02KT CAVOK 14/12 Q1015 NOSIG
13-09-12 METAR LIMC 120720Z VRB03KT CAVOK 17/12 Q1015 NOSIG
13-09-12 METAR LIMC 120750Z VRB02KT CAVOK 17/12 Q1015 NOSIG
13-09-12 METAR LIMC 120750Z NIL
13-09-12 METAR LIMC 120820Z VRB02KT CAVOK 18/11 Q1015 NOSIG
13-09-12 METAR LIMC 120850Z 19003KT 140V250 9999 FEW040 18/11 Q1015 NOSIG
13-09-12 METAR LIMC 120920Z VRB03KT 9999 FEW040 19/11 Q1015 NOSIG
13-09-12 METAR LIMC 120950Z VRB02KT 9999 FEW040 20/10 Q1015 NOSIG
13-09-12 METAR LIMC 121020Z 24004KT 160V330 9999 FEW040 20/09 Q1015 NOSIG
13-09-12 METAR LIMC 121050Z 25005KT 200V360 9999 FEW040 21/08 Q1014 NOSIG
13-09-12 METAR LIMC 121120Z VRB04KT 9999 FEW040 22/09 Q1014 NOSIG
13-09-12 METAR LIMC 121150Z NIL
13-09-12 METAR LIMC 121150Z 25008KT CAVOK 22/10 Q1014 NOSIG
13-09-12 METAR LIMC 121220Z 23006KT 150V310 CAVOK 22/09 Q1014 NOSIG
13-09-12 METAR LIMC 121250Z 24005KT 180V270 CAVOK 23/06 Q1013 NOSIG
13-09-12 METAR LIMC 121320Z 24008KT 190V260 CAVOK 23/05 Q1013 NOSIG
13-09-12 METAR LIMC 121350Z 22008KT 180V250 9999 FEW080 23/07 Q1013 NOSIG
13-09-12 METAR LIMC 121420Z 25007KT 210V290 9999 FEW080 23/06 Q1013 NOSIG
13-09-12 METAR LIMC 121450Z VRB06KT 9999 FEW080 24/06 Q1013 NOSIG
13-09-12 METAR LIMC 121520Z 24007KT 210V270 CAVOK 24/07 Q1013 NOSIG
13-09-12 METAR LIMC 121550Z 24008KT 210V270 CAVOK 23/08 Q1013 NOSIG
13-09-12 METAR LIMC 121620Z 23005KT CAVOK 23/06 Q1013 NOSIG
13-09-12 METAR LIMC 121650Z 23005KT CAVOK 22/07 Q1013 NOSIG
13-09-12 METAR LIMC 121720Z 22004KT 9999 FEW060 20/07 Q1013 NOSIG
13-09-12 METAR LIMC 121750Z 21003KT 9999 SCT060 19/08 Q1013 NOSIG
13-09-12 METAR LIMC 121820Z 00000KT 9999 SCT060 19/08 Q1014 NOSIG
13-09-12 METAR LIMC 121850Z VRB02KT 9999 BKN060 18/08 Q1014 NOSIG
13-09-12 METAR LIMC 121920Z VRB02KT 9999 SCT070 16/09 Q1014 NOSIG
13-09-12 METAR LIMC 121950Z VRB02KT 9999 SCT070 15/08 Q1015 NOSIG
13-09-12 METAR LIMC 122020Z 01005KT 320V070 9999 SCT070 17/07 Q1015 NOSIG
13-09-12 METAR LIMC 122050Z 35006KT 9999 SCT070 16/07 Q1015 NOSIG
13-09-12 METAR LIMC 122120Z 02009KT 350V050 9999 SCT070 18/02 Q1015 NOSIG
13-09-12 METAR LIMC 122150Z 01008KT 9999 SCT070 18/04 Q1016 NOSIG
13-09-12 METAR LIMC 122220Z 35007KT 9999 SCT070 16/05 Q1016 NOSIG
13-09-12 METAR LIMC 122250Z 36007KT 9999 SCT070 18/04 Q1016 NOSIG
13-09-12 METAR LIMC 122320Z 05007KT 9999 SCT070 17/04 Q1016 NOSIG
13-09-12 METAR LIMC 122350Z 03005KT 9999 SCT070 16/03 Q1016 NOSIG
13-09-13 METAR LIMC 130020Z 32004KT 9999 SCT070 14/04 Q1016 NOSIG
13-09-13 METAR LIMC 130050Z 02004KT 350V050 9999 SCT070 13/04 Q1016 NOSIG
13-09-13 METAR LIMC 130120Z 36006KT 330V030 9999 SCT070 14/04 Q1016 NOSIG
13-09-13 METAR LIMC 130150Z 36006KT 9999 SCT070 15/03 Q1016 NOSIG
13-09-13 METAR LIMC 130220Z 01006KT 9999 SCT070 15/02 Q1016 NOSIG
13-09-13 METAR LIMC 130250Z 36005KT 9999 SCT070 14/03 Q1016 NOSIG
13-09-13 METAR LIMC 130320Z VRB02KT 9999 SCT070 13/03 Q1016 NOSIG
13-09-13 METAR LIMC 130350Z 05004KT 360V100 9999 SCT070 13/03 Q1017 NOSIG
13-09-13 METAR LIMC 130420Z VRB02KT 9999 FEW070 11/03 Q1017 NOSIG
13-09-13 METAR LIMC 130450Z VRB02KT 9999 FEW070 10/03 Q1017 NOSIG
13-09-13 METAR LIMC 130520Z 00000KT CAVOK 11/03 Q1018 NOSIG
13-09-13 METAR LIMC 130550Z 36004KT 330V030 CAVOK 13/04 Q1018 NOSIG
13-09-13 METAR LIMC 130620Z 34005KT CAVOK 15/04 Q1018 NOSIG
13-09-13 METAR LIMC 130650Z VRB02KT CAVOK 17/04 Q1018 NOSIG
13-09-13 METAR LIMC 130720Z 01003KT 330V060 CAVOK 18/04 Q1018 NOSIG
13-09-13 METAR LIMC 130750Z 35004KT 290V030 CAVOK 20/03 Q1018 NOSIG
13-09-13 METAR LIMC 130820Z 33003KT 260V010 CAVOK 20/04 Q1019 NOSIG
13-09-13 METAR LIMC 130850Z VRB03KT CAVOK 22/03 Q1019 NOSIG
13-09-13 METAR LIMC 130920Z 35004KT 270V060 CAVOK 22/03 Q1019 NOSIG
13-09-13 METAR LIMC 130950Z 28004KT 220V340 CAVOK 23/03 Q1019 NOSIG
13-09-13 METAR LIMC 131020Z VRB03KT CAVOK 24/03 Q1019 NOSIG
13-09-13 METAR LIMC 131050Z 26005KT 210V310 CAVOK 24/01 Q1018 NOSIG
13-09-13 METAR LIMC 131120Z 25007KT 170V300 CAVOK 24/02 Q1018 NOSIG
13-09-13 METAR LIMC 131150Z NIL
13-09-13 METAR LIMC 131150Z VRB04KT CAVOK 25/02 Q1018 NOSIG
13-09-13 METAR LIMC 131220Z VRB05KT CAVOK 25/01 Q1018 NOSIG
13-09-13 METAR LIMC 131250Z VRB04KT CAVOK 25/00 Q1018 NOSIG
13-09-13 METAR LIMC 131320Z 28007KT 220V360 CAVOK 25/01 Q1018 NOSIG
13-09-13 METAR LIMC 131350Z VRB06KT CAVOK 26/03 Q1017 NOSIG
13-09-13 METAR LIMC 131420Z 22010KT 180V260 CAVOK 25/04 Q1017 NOSIG
13-09-13 METAR LIMC 131450Z 24012KT CAVOK 25/05 Q1017 NOSIG
13-09-13 METAR LIMC 131520Z 23010KT 190V260 CAVOK 24/06 Q1017 NOSIG
13-09-13 METAR LIMC 131550Z 23011KT CAVOK 24/06 Q1017 NOSIG
13-09-13 METAR LIMC 131620Z 23011KT CAVOK 24/06 Q1017 NOSIG
13-09-13 METAR LIMC 131650Z 23009KT CAVOK 22/05 Q1017 NOSIG
13-09-13 METAR LIMC 131720Z 23006KT CAVOK 21/07 Q1017 NOSIG
13-09-13 METAR LIMC 131750Z 22005KT CAVOK 20/07 Q1017 NOSIG
13-09-13 METAR LIMC 131820Z 24005KT CAVOK 19/07 Q1018 NOSIG
13-09-13 METAR LIMC 131850Z VRB01KT CAVOK 18/07 Q1018 NOSIG
13-09-13 METAR LIMC 131920Z VRB02KT CAVOK 18/08 Q1019 NOSIG
13-09-13 METAR LIMC 131950Z 01003KT CAVOK 15/07 Q1019 NOSIG
13-09-13 METAR LIMC 132020Z 35007KT CAVOK 16/07 Q1019 NOSIG
13-09-13 METAR LIMC 132050Z VRB01KT CAVOK 13/07 Q1019 NOSIG
13-09-13 METAR LIMC 132120Z VRB01KT CAVOK 12/07 Q1019 NOSIG
13-09-13 METAR LIMC 132150Z VRB01KT CAVOK 13/08 Q1019 NOSIG
13-09-13 METAR LIMC 132220Z NIL
13-09-13 METAR LIMC 132220Z VRB01KT CAVOK 13/08 Q1019 NOSIG
13-09-13 METAR LIMC 132250Z 36005KT CAVOK 14/08 Q1019 NOSIG
13-09-13 METAR LIMC 132320Z 02003KT 340V050 CAVOK 12/08 Q1019 NOSIG
13-09-13 METAR LIMC 132350Z VRB02KT CAVOK 11/09 Q1019 NOSIG
13-09-14 METAR LIMC 140020Z 33005KT CAVOK 10/08 Q1019 NOSIG
13-09-14 METAR LIMC 140050Z 35007KT CAVOK 11/08 Q1019 NOSIG
13-09-14 METAR LIMC 140120Z VRB02KT CAVOK 11/07 Q1019 NOSIG
13-09-14 METAR LIMC 140150Z 02003KT CAVOK 11/07 Q1019 NOSIG
13-09-14 METAR LIMC 140220Z 36006KT CAVOK 10/06 Q1019 NOSIG
13-09-14 METAR LIMC 140250Z 36002KT CAVOK 11/06 Q1019 NOSIG
13-09-14 METAR LIMC 140320Z 02004KT 340V040 CAVOK 11/06 Q1018 NOSIG
13-09-14 METAR LIMC 140350Z 36004KT CAVOK 09/06 Q1018 NOSIG
13-09-14 METAR LIMC 140420Z 36005KT CAVOK 10/07 Q1018 NOSIG
13-09-14 METAR LIMC 140450Z 35004KT 330V030 CAVOK 12/07 Q1018 NOSIG
13-09-14 METAR LIMC 140520Z 01004KT 310V060 CAVOK 11/07 Q1018 NOSIG
13-09-14 METAR LIMC 140550Z NIL
13-09-14 METAR LIMC 140550Z VRB01KT CAVOK 11/07 Q1018 NOSIG
13-09-14 METAR LIMC 140620Z 00000KT CAVOK 15/08 Q1019 NOSIG
13-09-14 METAR LIMC 140650Z 36003KT 330V050 CAVOK 17/08 Q1019 NOSIG
13-09-14 METAR LIMC 140720Z 00000KT CAVOK 18/07 Q1019 NOSIG
13-09-14 METAR LIMC 140750Z 10004KT 050V130 CAVOK 19/07 Q1019 NOSIG
13-09-14 METAR LIMC 140820Z VRB03KT CAVOK 20/07 Q1019 NOSIG
13-09-14 METAR LIMC 140850Z 03004KT 300V070 CAVOK 20/08 Q1019 NOSIG
13-09-14 METAR LIMC 140920Z 08004KT 020V120 CAVOK 21/07 Q1018 NOSIG
13-09-14 METAR LIMC 140950Z VRB03KT CAVOK 23/08 Q1018 NOSIG
13-09-14 METAR LIMC 141020Z VRB04KT 9999 FEW090 23/07 Q1018 NOSIG
13-09-14 METAR LIMC 141050Z VRB04KT 9999 FEW090 24/06 Q1018 NOSIG
13-09-14 METAR LIMC 141120Z 17006KT 120V250 CAVOK 24/08 Q1017 NOSIG
13-09-14 METAR LIMC 141150Z VRB04KT CAVOK 25/08 Q1017 NOSIG
13-09-14 METAR LIMC 141220Z 23006KT 150V300 CAVOK 24/09 Q1017 NOSIG
13-09-14 METAR LIMC 141250Z 21004KT 140V270 CAVOK 25/08 Q1017 NOSIG
13-09-14 METAR LIMC 141320Z 19004KT 130V250 9999 SCT080 24/10 Q1016 NOSIG
13-09-14 METAR LIMC 141350Z NIL
13-09-14 METAR LIMC 141350Z VRB05KT 9999 FEW080 25/11 Q1016 NOSIG
13-09-14 METAR LIMC 141420Z 21008KT 160V260 9999 FEW040 24/11 Q1016 NOSIG
13-09-14 METAR LIMC 141450Z 22007KT 180V260 9999 FEW040 24/10 Q1016 NOSIG
13-09-14 METAR LIMC 141520Z 23009KT 190V260 9999 FEW040 24/11 Q1016 NOSIG
13-09-14 METAR LIMC 141550Z NIL
13-09-14 METAR LIMC 141550Z 21006KT 160V240 9999 FEW040 23/12 Q1015 NOSIG
13-09-14 METAR LIMC 141620Z 18005KT 9999 FEW040 23/12 Q1015 NOSIG
13-09-14 METAR LIMC 141650Z 18007KT 9999 FEW080 22/12 Q1015 NOSIG
13-09-14 METAR LIMC 141720Z 18005KT 9999 FEW080 21/12 Q1015 NOSIG
13-09-14 METAR LIMC 141750Z 18004KT 9999 FEW080 20/12 Q1016 NOSIG
13-09-14 METAR LIMC 141820Z 18004KT 9999 SCT080 19/12 Q1016 NOSIG
13-09-14 METAR LIMC 141850Z 17004KT 9999 SCT080 19/12 Q1016 NOSIG
13-09-14 METAR LIMC 141920Z 18004KT 9999 SCT080 19/12 Q1016 NOSIG
13-09-14 METAR LIMC 141950Z 17003KT 9999 SCT090 19/12 Q1016 NOSIG
13-09-14 METAR LIMC 142020Z 16005KT CAVOK 18/13 Q1016 NOSIG
13-09-14 METAR LIMC 142050Z VRB02KT CAVOK 18/13 Q1017 NOSIG
13-09-14 METAR LIMC 142120Z NIL
13-09-14 METAR LIMC 142120Z 12003KT 9999 FEW070 18/13 Q1016 NOSIG
13-09-14 METAR LIMC 142150Z VRB01KT 9999 FEW070 17/14 Q1017 NOSIG
13-09-14 METAR LIMC 142220Z 03003KT 9999 SCT060 17/14 Q1017 NOSIG
13-09-14 METAR LIMC 142250Z 03003KT 310V080 9999 SCT060 18/13 Q1016 NOSIG
13-09-14 METAR LIMC 142320Z 06004KT 9999 BKN060 17/14 Q1016 NOSIG
13-09-14 METAR LIMC 142350Z 06004KT 9999 BKN060 18/14 Q1016 NOSIG
13-09-15 METAR LIMC 150020Z 06003KT 9999 BKN060 18/14 Q1016 NOSIG
13-09-15 METAR LIMC 150050Z 06004KT 9999 BKN060 18/14 Q1016 NOSIG
13-09-15 METAR LIMC 150120Z 00000KT 9999 BKN060 18/14 Q1016 NOSIG
13-09-15 METAR LIMC 150150Z 04003KT 9999 BKN060 17/14 Q1015 NOSIG
13-09-15 METAR LIMC 150220Z 06003KT 9999 BKN060 18/14 Q1015 NOSIG
13-09-15 METAR LIMC 150250Z 07005KT 9999 BKN060 18/14 Q1015 NOSIG
13-09-15 METAR LIMC 150320Z 08005KT 9999 BKN050 18/14 Q1015 NOSIG
13-09-15 METAR LIMC 150350Z 10005KT 070V130 9999 BKN050 17/15 Q1014 NOSIG
13-09-15 METAR LIMC 150420Z 10004KT 9999 DZ SCT020 BKN050 17/15 Q1014 NOSIG
13-09-15 METAR LIMC 150520Z 04003KT 9999 SCT035 OVC060 16/15 Q1014 NOSIG
13-09-15 METAR LIMC 150550Z 05004KT 360V090 9999 SCT035 OVC070 17/15 Q1014 NOSIG
13-09-15 METAR LIMC 150620Z 35004KT 320V040 9999 SCT035 OVC070 17/15 Q1014 NOSIG
13-09-15 METAR LIMC 150650Z NIL
13-09-15 METAR LIMC 150720Z 01005KT 350V050 9999 DZ SCT035 OVC070 16/16 Q1014 NOSIG
13-09-15 METAR LIMC 150850Z 36006KT 8000 RA SCT030 OVC070 17/16 Q1013 NOSIG
13-09-15 METAR LIMC 150920Z 01005KT 9999 -RA SCT030 OVC070 17/16 Q1013 RERA NOSIG
13-09-15 METAR LIMC 150950Z 04006G18KT 360V070 9999 -RA BKN035 OVC070 18/15 Q1013
13-09-15 METAR LIMC 151020Z 05004KT 350V100 9999 BKN035 OVC070 18/14 Q1013 NOSIG
13-09-15 METAR LIMC 151050Z 12007KT 090V160 3000 +RA BKN015 OVC050 15/15 Q1013
13-09-15 METAR LIMC 151120Z 05007KT 330V090 3500 RA BKN015 OVC050 15/15 Q1013 NOSIG
13-09-15 METAR LIMC 151150Z 03007KT 360V060 6000 RA BKN015 OVC050 15/15 Q1012 NOSIG
13-09-15 METAR LIMC 151220Z 03007KT 340V060 6000 RA BKN025 OVC050 16/16 Q1012 NOSIG
13-09-15 METAR LIMC 151250Z 34005KT 5000 RA BKN025 OVC050 16/16 Q1012 NOSIG
13-09-15 METAR LIMC 151320Z 36009KT 4500 RA BR SCT010 BKN020 OVC050 16/16 Q1011
13-09-15 METAR LIMC 151350Z 01008KT 4500 +RA BR SCT008 BKN015 OVC030 16/16 Q1011
13-09-15 METAR LIMC 151420Z 36009KT 5000 RA BR FEW008 OVC015 16/16 Q1011 NOSIG
13-09-15 METAR LIMC 151450Z 01008KT 330V040 5000 RA BR FEW005 SCT008 OVC015 16/16 Q1011 NOSIG
13-09-15 METAR LIMC 151520Z 02006KT 5000 +RA BR FEW005 SCT008 OVC015 15/15 Q1011
13-09-15 METAR LIMC 151550Z NIL
13-09-15 METAR LIMC 151620Z 04004KT 350V100 7000 RA FEW005 BKN008 OVC040 15/15 Q1011
13-09-15 METAR LIMC 151650Z 35005KT 9999 RA BKN030 OVC060 15/15 Q1011 NOSIG
13-09-15 METAR LIMC 151720Z 35008KT 9999 RA BKN030 OVC060 15/15 Q1011 NOSIG
13-09-15 METAR LIMC 151750Z 35007KT 9999 -RA BKN040 OVC080 15/15 Q1011 RERA NOSIG
13-09-15 METAR LIMC 151820Z 36006KT 9999 -RA SCT040 BKN080 15/15 Q1011 NOSIG
13-09-15 METAR LIMC 151850Z VRB02KT 9999 -RA SCT040 BKN080 15/15 Q1011 NOSIG
13-09-15 METAR LIMC 151920Z VRB03KT 9999 -RA SCT040 BKN080 15/15 Q1011 NOSIG
13-09-15 METAR LIMC 151950Z VRB02KT 9999 SCT040 SCT080 14/14 Q1011 NOSIG
13-09-15 METAR LIMC 152020Z 19003KT 140V240 9999 SCT040 SCT080 14/14 Q1011 NOSIG
13-09-15 METAR LIMC 152050Z 24003KT 1200 R35L///// R35R///// BCFG SCT080 14/14 Q1011
13-09-15 METAR LIMC 152120Z 25002KT 3500 BCFG SCT080 14/14 Q1011 NOSIG
13-09-15 METAR LIMC 152150Z 36002KT 4000 R35L/0750V1500D R35R/0800V1500D BCFG SCT080 14/14 Q1011 NOSIG
13-09-15 METAR LIMC 152220Z VRB02KT 4000 R35L/0450V1000D R35R/0900V1500D BCFG SCT080 13/13 Q1011 NOSIG
13-09-15 METAR LIMC 152250Z 03002KT 4000 R35L/0600V1500D BCFG SCT080 12/12 Q1010
13-09-15 METAR LIMC 152320Z NIL
13-09-15 METAR LIMC 152350Z VRB02KT 4000 R35L/0800V1500N BCFG SCT080 11/11 Q1010
13-09-16 METAR LIMC 160020Z VRB01KT 4000 BCFG SCT080 11/11 Q1010 NOSIG
13-09-16 METAR LIMC 160050Z NIL
13-09-16 METAR LIMC 160120Z 36002KT 4000 BCFG SCT080 11/11 Q1009 NOSIG
13-09-16 METAR LIMC 160220Z 35003KT 4000 BCFG SCT080 11/11 Q1009 NOSIG
13-09-16 METAR LIMC 160250Z 34004KT 4000 BCFG SCT080 09/09 Q1008 NOSIG
13-09-16 METAR LIMC 160320Z 00000KT 4000 BCFG SCT080 10/10 Q1008 NOSIG
13-09-16 METAR LIMC 160350Z 24003KT 5000 BR SCT080 09/09 Q1008 NOSIG
13-09-16 METAR LIMC 160420Z VRB01KT 3000 R35L///// R35R/1000V1500D BCFG SCT080 10/10 Q1008 NOSIG
13-09-16 METAR LIMC 160450Z 00000KT 5000 R35L///// R35R/0400V0750N MIFG SCT080 10/10
13-09-16 METAR LIMC 160520Z 22002KT 1400 1000S R35L///// R35R/0650V1500N BCFG SCT090 10/10 Q1008 NOSIG
13-09-16 METAR LIMC 160550Z VRB01KT 1400 1000S R35L/1500N R35R/0700V1400U BCFG SCT090 11/11 Q1009 NOSIG
13-09-16 METAR LIMC 160620Z VRB01KT 4000 R35L/1500N R35R/1400V1500N BR FEW090 12/12 Q1009 NOSIG
13-09-16 METAR LIMC 160650Z 00000KT 4000 BR FEW090 14/14 Q1009 NOSIG
13-09-16 METAR LIMC 160720Z VRB01KT 4500 1600SW BR FEW090 15/15 Q1009 NOSIG
13-09-16 METAR LIMC 160750Z 35003KT 290V050 5000 BR FEW090 16/15 Q1009 NOSIG
13-09-16 METAR LIMC 160820Z VRB02KT 9999 FEW090 17/14 Q1009 NOSIG
13-09-16 METAR LIMC 160850Z VRB02KT 9999 SCT040 SCT090 19/15 Q1009 NOSIG
13-09-16 METAR LIMC 160920Z VRB03KT 9999 SCT040 SCT090 18/15 Q1008 NOSIG
13-09-16 METAR LIMC 160950Z 25004KT 220V290 9999 SCT040 SCT090 18/15 Q1008 NOSIG
13-09-16 METAR LIMC 161020Z 18003KT 120V240 9999 SCT040 SCT090 19/14 Q1008 NOSIG
13-09-16 METAR LIMC 161050Z 20003KT 160V260 9999 SCT040 SCT090 19/14 Q1008 NOSIG
13-09-16 METAR LIMC 161120Z 22006KT 200V270 9999 SCT040 BKN080 19/14 Q1007 NOSIG
13-09-16 METAR LIMC 161150Z VRB03KT 9999 SCT040 BKN080 20/14 Q1007 NOSIG
13-09-16 METAR LIMC 161220Z VRB02KT 9999 BKN030 20/13 Q1007 NOSIG
13-09-16 METAR LIMC 161250Z 24006KT 210V290 9999 BKN030 20/13 Q1007 NOSIG
13-09-16 METAR LIMC 161320Z 26005KT 230V300 9999 FEW030 BKN085 20/13 Q1006 NOSIG
13-09-16 METAR LIMC 161350Z 26005KT 230V290 9999 SCT070 BKN085 20/12 Q1006 NOSIG
13-09-16 METAR LIMC 161420Z 19002KT 9999 -RA SCT040 BKN070 19/12 Q1005 NOSIG
13-09-16 METAR LIMC 161450Z 29004KT 9999 -RA SCT060 BKN085 19/13 Q1006 NOSIG
13-09-16 METAR LIMC 161520Z VRB03KT 9999 SCT085 20/12 Q1005 NOSIG
13-09-16 METAR LIMC 161550Z 01004KT 310V050 9999 BKN085 20/13 Q1005 NOSIG
13-09-16 METAR LIMC 161620Z VRB02KT 9999 BKN070 20/12 Q1005 NOSIG
13-09-16 METAR LIMC 161650Z 26003KT 210V300 9999 FEW040 SCT070 19/12 Q1004 NOSIG
13-09-16 METAR LIMC 161720Z 28003KT 9999 FEW050 SCT080 18/12 Q1004 NOSIG
13-09-16 METAR LIMC 161750Z 36006KT 9999 FEW050 SCT080 18/14 Q1004 NOSIG
13-09-16 METAR LIMC 161820Z 01004KT CAVOK 16/15 Q1004 NOSIG
13-09-16 METAR LIMC 161850Z NIL
13-09-16 METAR LIMC 161850Z 36003KT CAVOK 15/15 Q1004 NOSIG
13-09-16 METAR LIMC 161920Z 36005KT 320V050 CAVOK 16/15 Q1003 NOSIG
13-09-16 METAR LIMC 161950Z 00000KT CAVOK 15/15 Q1003 NOSIG
13-09-16 METAR LIMC 162020Z 01005KT 340V050 CAVOK 16/15 Q1003 NOSIG
13-09-16 METAR LIMC 162050Z 01006KT CAVOK 16/15 Q1002 NOSIG
13-09-16 METAR LIMC 162120Z 02003KT 9999 SCT090 16/15 Q1002 NOSIG
13-09-16 METAR LIMC 162150Z 01003KT 9999 SCT090 15/15 Q1001 NOSIG
13-09-16 METAR LIMC 162220Z 35004KT 9999 SCT080 14/14 Q1001 NOSIG
13-09-16 METAR LIMC 162250Z VRB01KT 9999 SCT080 14/14 Q1001 NOSIG
13-09-16 METAR LIMC 162320Z 36004KT 9999 FEW040 SCT080 14/14 Q1001 NOSIG
13-09-16 METAR LIMC 162350Z 36002KT 9999 FEW040 SCT080 15/15 Q1000 NOSIG
13-09-17 METAR LIMC 170020Z VRB02KT 9999 FEW040 SCT080 14/14 Q1000 NOSIG
13-09-17 METAR LIMC 170050Z 36003KT 9999 FEW040 SCT080 14/14 Q1000 NOSIG
13-09-17 METAR LIMC 170120Z 34003KT 9999 FEW040 SCT080 14/14 Q0999 NOSIG
13-09-17 METAR LIMC 170150Z 36005KT 9999 FEW040 SCT080 13/13 Q0999 NOSIG
13-09-17 METAR LIMC 170220Z VRB02KT 9999 FEW040 SCT080 13/13 Q0999 NOSIG
13-09-17 METAR LIMC 170250Z 36003KT 320V040 9999 SCT080 13/13 Q0999 NOSIG
13-09-17 METAR LIMC 170320Z 35001KT 9999 SCT080 12/12 Q0999 NOSIG
13-09-17 METAR LIMC 170350Z 34004KT 9999 SCT080 10/10 Q0999 NOSIG
13-09-17 METAR LIMC 170420Z 33004KT CAVOK 09/08 Q1000 NOSIG
13-09-17 METAR LIMC 170520Z 36005KT 9999 SCT050 11/09 Q1001 NOSIG
13-09-17 METAR LIMC 170550Z 01003KT 330V050 9999 FEW050 14/05 Q1001 NOSIG
13-09-17 METAR LIMC 170620Z 36004KT 320V050 CAVOK 16/02 Q1002 NOSIG
13-09-17 METAR LIMC 170650Z 36009KT CAVOK 16/02 Q1002 NOSIG
13-09-17 METAR LIMC 170720Z 01008KT 340V050 CAVOK 17/01 Q1002 NOSIG
13-09-17 METAR LIMC 170750Z 02010KT 340V050 CAVOK 18/00 Q1003 NOSIG
13-09-17 METAR LIMC 170820Z 02009KT 350V060 CAVOK 19/M01 Q1003 NOSIG
13-09-17 METAR LIMC 170850Z 01009KT 330V050 CAVOK 19/M02 Q1003 NOSIG
13-09-17 METAR LIMC 170920Z 01012KT 340V040 CAVOK 20/M01 Q1003 NOSIG
13-09-17 METAR LIMC 170950Z 02010KT 350V060 CAVOK 21/M01 Q1004 NOSIG
13-09-17 METAR LIMC 171020Z 01010KT 330V060 CAVOK 21/M02 Q1004 NOSIG
13-09-17 METAR LIMC 171050Z 34010KT 310V010 CAVOK 21/M02 Q1004 NOSIG
13-09-17 METAR LIMC 171120Z 35011KT 310V020 CAVOK 21/M03 Q1004 NOSIG
13-09-17 METAR LIMC 171150Z 34009KT 310V030 CAVOK 22/M03 Q1004 NOSIG
13-09-17 METAR LIMC 171220Z 33008KT 280V030 CAVOK 22/M03 Q1004 NOSIG
13-09-17 METAR LIMC 171250Z 33009KT CAVOK 22/M04 Q1004 NOSIG
13-09-17 METAR LIMC 171320Z 01006KT 300V090 CAVOK 22/M02 Q1004 NOSIG
13-09-17 METAR LIMC 171350Z 33005KT 290V060 CAVOK 22/M02 Q1004 NOSIG
13-09-17 METAR LIMC 171420Z 02005KT 290V080 CAVOK 22/M02 Q1004 NOSIG
13-09-17 METAR LIMC 171450Z VRB06KT CAVOK 22/M02 Q1004 NOSIG
13-09-17 METAR LIMC 171520Z 03007KT 350V070 CAVOK 22/M02 Q1005 NOSIG
13-09-17 METAR LIMC 171550Z 04005KT 010V070 CAVOK 21/M03 Q1005 NOSIG
13-09-17 METAR LIMC 171620Z 03005KT 350V070 CAVOK 21/M02 Q1005 NOSIG
13-09-17 METAR LIMC 171650Z 03004KT CAVOK 20/M01 Q1005 NOSIG
13-09-17 METAR LIMC 171720Z 01007KT CAVOK 19/M00 Q1005 NOSIG
13-09-17 METAR LIMC 171750Z 03006KT CAVOK 15/02 Q1006 NOSIG
13-09-17 METAR LIMC 171820Z 01004KT 330V050 CAVOK 15/02 Q1006 NOSIG
13-09-17 METAR LIMC 171850Z 35006KT CAVOK 13/02 Q1006 NOSIG
13-09-17 METAR LIMC 171920Z VRB02KT CAVOK 13/02 Q1007 NOSIG
13-09-17 METAR LIMC 171950Z VRB01KT CAVOK 12/03 Q1007 NOSIG
13-09-17 METAR LIMC 172020Z 36003KT 330V040 CAVOK 12/03 Q1007 NOSIG
13-09-17 METAR LIMC 172050Z 36003KT CAVOK 11/04 Q1007 NOSIG
13-09-17 METAR LIMC 172120Z VRB01KT CAVOK 10/04 Q1007 NOSIG
13-09-17 METAR LIMC 172150Z VRB02KT CAVOK 09/05 Q1007 NOSIG
13-09-17 METAR LIMC 172220Z NIL
13-09-17 METAR LIMC 172220Z 36003KT 310V020 CAVOK 09/05 Q1007 NOSIG
13-09-17 METAR LIMC 172250Z VRB02KT CAVOK 08/04 Q1007 NOSIG
13-09-17 METAR LIMC 172320Z NIL
13-09-17 METAR LIMC 172320Z VRB02KT CAVOK 07/05 Q1007 NOSIG
13-09-17 METAR LIMC 172350Z VRB02KT CAVOK 07/05 Q1007 NOSIG
13-09-18 METAR LIMC 180020Z 03006KT CAVOK 10/04 Q1007 NOSIG
13-09-18 METAR LIMC 180050Z 34006KT 330V060 CAVOK 08/04 Q1006 NOSIG
13-09-18 METAR LIMC 180120Z NIL
13-09-18 METAR LIMC 180120Z VRB02KT CAVOK 09/03 Q1006 NOSIG
13-09-18 METAR LIMC 180150Z 35005KT CAVOK 08/04 Q1006 NOSIG
13-09-18 METAR LIMC 180220Z VRB02KT CAVOK 10/03 Q1006 NOSIG
13-09-18 METAR LIMC 180250Z 36004KT CAVOK 08/04 Q1006 NOSIG
13-09-18 METAR LIMC 180320Z VRB01KT CAVOK 07/04 Q1006 NOSIG
13-09-18 METAR LIMC 180350Z VRB01KT CAVOK 07/04 Q1006 NOSIG
13-09-18 METAR LIMC 180420Z 02003KT 360V070 CAVOK 09/04 Q1006 NOSIG
13-09-18 METAR LIMC 180450Z VRB01KT 9999 SCT070 07/04 Q1006 NOSIG
13-09-18 METAR LIMC 180520Z 35003KT 290V030 9999 SCT070 09/05 Q1006 NOSIG
13-09-18 METAR LIMC 180550Z 35005KT 9999 SCT070 11/06 Q1006 NOSIG
13-09-18 METAR LIMC 180620Z 34003KT 9999 SCT070 11/07 Q1007 NOSIG
13-09-18 METAR LIMC 180650Z 36003KT 9999 BKN060 13/07 Q1007 NOSIG
13-09-18 METAR LIMC 180720Z NIL
13-09-18 METAR LIMC 180720Z 02003KT 340V060 9999 SCT060 15/06 Q1006 NOSIG
13-09-18 METAR LIMC 180750Z 05004KT 320V110 9999 SCT060 16/05 Q1006 NOSIG
13-09-18 METAR LIMC 180820Z 04003KT 330V100 9999 SCT060 17/05 Q1006 NOSIG
13-09-18 METAR LIMC 180850Z VRB02KT 9999 SCT060 18/05 Q1007 NOSIG
13-09-18 METAR LIMC 180920Z VRB03KT 9999 SCT060 19/05 Q1006 NOSIG
13-09-18 METAR LIMC 180950Z NIL
13-09-18 METAR LIMC 180950Z VRB04KT 9999 FEW060 20/06 Q1006 NOSIG
13-09-18 METAR LIMC 181020Z 07004KT 360V130 9999 FEW060 20/06 Q1006 NOSIG
13-09-18 METAR LIMC 181050Z VRB03KT 9999 FEW080 21/07 Q1005 NOSIG
13-09-18 METAR LIMC 181120Z VRB03KT 9999 FEW080 21/08 Q1005 NOSIG
13-09-18 METAR LIMC 181150Z 15004KT 090V210 9999 FEW090 21/08 Q1005 NOSIG
13-09-18 METAR LIMC 181220Z 16005KT 9999 SCT080 21/09 Q1005 NOSIG
13-09-18 METAR LIMC 181250Z 20006KT 090V230 9999 SCT080 20/09 Q1005 NOSIG
13-09-18 METAR LIMC 181320Z 20004KT 130V250 9999 SCT080 21/09 Q1004 NOSIG
13-09-18 METAR LIMC 181350Z VRB03KT 9999 FEW080 21/09 Q1004 NOSIG
13-09-18 METAR LIMC 181420Z NIL
13-09-18 METAR LIMC 181420Z 16005KT 110V210 9999 FEW080 21/09 Q1004 NOSIG
13-09-18 METAR LIMC 181450Z 16005KT 100V260 9999 FEW080 21/10 Q1004 NOSIG
13-09-18 METAR LIMC 181520Z 18004KT 090V250 9999 FEW080 21/09 Q1004 NOSIG
13-09-18 METAR LIMC 181550Z 15005KT 090V200 CAVOK 21/09 Q1003 NOSIG
13-09-18 METAR LIMC 181620Z 19005KT 9999 FEW050 20/09 Q1003 NOSIG
13-09-18 METAR LIMC 181650Z 17003KT 9999 FEW060 19/10 Q1003 NOSIG
13-09-18 METAR LIMC 181720Z 17002KT 9999 FEW060 18/11 Q1003 NOSIG
13-09-18 METAR LIMC 181750Z VRB01KT 9999 SCT060 17/11 Q1004 NOSIG
13-09-18 METAR LIMC 181820Z 16004KT 9999 SCT060 16/12 Q1004 NOSIG
13-09-18 METAR LIMC 181850Z NIL
13-09-18 METAR LIMC 181850Z 14005KT 090V160 9999 BKN060 17/11 Q1004 NOSIG
13-09-18 METAR LIMC 181920Z VRB02KT 9999 BKN060 16/11 Q1004 NOSIG
13-09-18 METAR LIMC 181950Z VRB02KT 9999 SCT070 16/11 Q1004 NOSIG
13-09-18 METAR LIMC 182020Z 15004KT 9999 SCT070 15/12 Q1004 NOSIG
13-09-18 METAR LIMC 182050Z VRB01KT 9999 SCT070 15/11 Q1005 NOSIG
13-09-18 METAR LIMC 182120Z NIL
13-09-18 METAR LIMC 182120Z VRB01KT 9999 SCT070 14/12 Q1005 NOSIG
13-09-18 METAR LIMC 182150Z 00000KT 9999 SCT070 13/11 Q1005 NOSIG
13-09-18 METAR LIMC 182220Z 03003KT 9999 SCT070 12/11 Q1005 NOSIG
13-09-18 METAR LIMC 182250Z VRB01KT 9999 SCT070 11/11 Q1005 NOSIG
13-09-18 METAR LIMC 182320Z VRB01KT CAVOK 11/11 Q1005 NOSIG
13-09-18 METAR LIMC 182350Z VRB01KT CAVOK 10/10 Q1005 NOSIG
13-09-19 METAR LIMC 190020Z VRB02KT CAVOK 10/10 Q1005 NOSIG
13-09-19 METAR LIMC 190050Z 00000KT CAVOK 10/10 Q1005 NOSIG
13-09-19 METAR LIMC 190120Z VRB01KT CAVOK 10/10 Q1005 NOSIG
13-09-19 METAR LIMC 190150Z VRB01KT CAVOK 09/09 Q1005 NOSIG
13-09-19 METAR LIMC 190220Z NIL
13-09-19 METAR LIMC 190250Z 36002KT CAVOK 09/09 Q1005 NOSIG
13-09-19 METAR LIMC 190350Z 35002KT CAVOK 08/08 Q1005 NOSIG
13-09-19 METAR LIMC 190420Z 36003KT CAVOK 08/08 Q1005 NOSIG
13-09-19 METAR LIMC 190520Z NIL
13-09-19 METAR LIMC 190520Z VRB01KT 9999 R35L/1500N R35R/1400V1500N MIFG NSC 10/10 Q1006 NOSIG
13-09-19 METAR LIMC 190550Z 35003KT 310V050 CAVOK 11/11 Q1006 NOSIG
13-09-19 METAR LIMC 190620Z VRB02KT CAVOK 12/12 Q1006 NOSIG
13-09-19 METAR LIMC 190650Z VRB02KT CAVOK 15/13 Q1007 NOSIG
13-09-19 METAR LIMC 190720Z VRB02KT CAVOK 16/12 Q1007 NOSIG
13-09-19 METAR LIMC 190750Z 22003KT 180V250 CAVOK 17/12 Q1007 NOSIG
13-09-19 METAR LIMC 190820Z 28003KT 240V360 CAVOK 18/11 Q1008 NOSIG
13-09-19 METAR LIMC 190850Z 24004KT 160V320 CAVOK 19/11 Q1008 NOSIG
13-09-19 METAR LIMC 190920Z 23005KT 190V270 CAVOK 20/11 Q1008 NOSIG
13-09-19 METAR LIMC 190950Z 30006KT 240V330 CAVOK 22/11 Q1008 NOSIG
13-09-19 METAR LIMC 191020Z 29005KT 240V330 CAVOK 22/09 Q1008 NOSIG
13-09-19 METAR LIMC 191050Z 27005KT 220V330 CAVOK 24/08 Q1008 NOSIG
13-09-19 METAR LIMC 191120Z 33005KT 270V030 CAVOK 24/08 Q1008 NOSIG
13-09-19 METAR LIMC 191150Z 29004KT 210V010 CAVOK 26/08 Q1008 NOSIG
13-09-19 METAR LIMC 191220Z 32005KT 260V020 CAVOK 26/07 Q1008 NOSIG
13-09-19 METAR LIMC 191250Z 34008KT 300V020 CAVOK 26/04 Q1008 NOSIG
13-09-19 METAR LIMC 191320Z 36007KT 310V070 CAVOK 26/03 Q1008 NOSIG
13-09-19 METAR LIMC 191350Z 36005KT 300V050 CAVOK 27/04 Q1007 NOSIG
13-09-19 METAR LIMC 191420Z NIL
13-09-19 METAR LIMC 191420Z 01004G14KT 310V070 CAVOK 27/04 Q1007 NOSIG
13-09-19 METAR LIMC 191450Z NIL
13-09-19 METAR LIMC 191450Z 33006KT CAVOK 26/04 Q1007 NOSIG
13-09-19 METAR LIMC 191520Z 33005KT 300V010 CAVOK 26/04 Q1008 NOSIG
13-09-19 METAR LIMC 191550Z 30006KT 9999 FEW090 25/06 Q1008 NOSIG
13-09-19 METAR LIMC 191620Z 26007KT 9999 FEW090 24/10 Q1008 NOSIG
13-09-19 METAR LIMC 191620Z NIL
13-09-19 METAR LIMC 191650Z 26006KT CAVOK 23/10 Q1008 NOSIG
13-09-19 METAR LIMC 191720Z 27007KT CAVOK 22/09 Q1009 NOSIG
13-09-19 METAR LIMC 191750Z 28005KT 250V310 CAVOK 21/09 Q1009 NOSIG
13-09-19 METAR LIMC 191820Z 01004KT 290V060 CAVOK 20/10 Q1009 NOSIG
13-09-19 METAR LIMC 191850Z VRB02KT CAVOK 18/10 Q1010 NOSIG
13-09-19 METAR LIMC 191920Z 06007KT CAVOK 18/13 Q1010 NOSIG
13-09-19 METAR LIMC 191950Z 08007KT 010V090 CAVOK 19/13 Q1011 NOSIG
13-09-19 METAR LIMC 192020Z 07005KT CAVOK 18/13 Q1011 NOSIG
13-09-19 METAR LIMC 192050Z VRB02KT CAVOK 18/14 Q1011 NOSIG
13-09-19 METAR LIMC 192120Z 05004KT 350V080 CAVOK 17/14 Q1012 NOSIG
13-09-19 METAR LIMC 192150Z VRB04KT CAVOK 17/14 Q1012 NOSIG
13-09-19 METAR LIMC 192220Z 04004KT 340V070 CAVOK 16/13 Q1012 NOSIG
13-09-19 METAR LIMC 192250Z 36003KT CAVOK 15/14 Q1012 NOSIG
13-09-19 METAR LIMC 192320Z 36003KT CAVOK 14/14 Q1013 NOSIG
13-09-19 METAR LIMC 192350Z 36004KT CAVOK 14/14 Q1013 NOSIG
13-09-20 METAR LIMC 200020Z 01005KT 8000 NSC 14/13 Q1013 NOSIG
13-09-20 METAR LIMC 200050Z 01004KT CAVOK 14/13 Q1013 NOSIG
13-09-20 METAR LIMC 200120Z 35006KT CAVOK 14/13 Q1013 NOSIG
13-09-20 METAR LIMC 200150Z 36006KT CAVOK 14/13 Q1014 NOSIG
13-09-20 METAR LIMC 200220Z 36005KT CAVOK 13/12 Q1014 NOSIG
13-09-20 METAR LIMC 200250Z 03004KT CAVOK 12/12 Q1014 NOSIG
13-09-20 METAR LIMC 200320Z 01005KT 330V060 CAVOK 15/13 Q1014 NOSIG
13-09-20 METAR LIMC 200350Z 33005KT CAVOK 13/12 Q1014 NOSIG
13-09-20 METAR LIMC 200420Z VRB02KT 9999 FEW060 13/12 Q1015 NOSIG
13-09-20 METAR LIMC 200450Z 01003KT 320V050 9999 SCT030 15/13 Q1015 NOSIG
13-09-20 METAR LIMC 200520Z VRB02KT 9999 SCT050 15/13 Q1015 NOSIG
13-09-20 METAR LIMC 200550Z 36004KT 9999 SCT050 14/13 Q1016 NOSIG
13-09-20 METAR LIMC 200620Z NIL
13-09-20 METAR LIMC 200650Z 35006KT 9999 BKN060 15/13 Q1016 NOSIG
13-09-20 METAR LIMC 200720Z 35007KT 9999 BKN060 17/12 Q1016 NOSIG
13-09-20 METAR LIMC 200750Z 36004KT 9999 BKN060 18/13 Q1016 NOSIG
13-09-20 METAR LIMC 200820Z VRB03KT 9999 BKN050 19/13 Q1017 NOSIG
13-09-20 METAR LIMC 200850Z NIL
13-09-20 METAR LIMC 200850Z VRB03KT 9999 BKN050 19/13 Q1017 NOSIG
13-09-20 METAR LIMC 200920Z 13004KT 090V200 9999 BKN050 20/13 Q1017 NOSIG
13-09-20 METAR LIMC 200950Z 13003KT 060V210 9999 BKN045 20/13 Q1017 NOSIG
13-09-20 METAR LIMC 201020Z VRB02KT 9999 BKN045 21/14 Q1017 NOSIG
13-09-20 METAR LIMC 201050Z 25005KT 200V330 9999 SCT045 21/14 Q1017 NOSIG
13-09-20 METAR LIMC 201120Z VRB04KT 9999 FEW045 22/13 Q1016 NOSIG
13-09-20 METAR LIMC 201150Z 22005KT 180V270 9999 FEW045 22/13 Q1016 NOSIG
13-09-20 METAR LIMC 201220Z VRB03KT 9999 SCT045 22/12 Q1016 NOSIG
13-09-20 METAR LIMC 201250Z VRB05KT 9999 SCT045 23/12 Q1016 NOSIG
13-09-20 METAR LIMC 201320Z 27005KT 240V360 9999 SCT045 23/12 Q1016 NOSIG
13-09-20 METAR LIMC 201350Z 25005KT 180V320 9999 FEW045 23/11 Q1016 NOSIG
13-09-20 METAR LIMC 201420Z VRB05KT 9999 FEW045 23/12 Q1016 NOSIG
13-09-20 METAR LIMC 201450Z 18004KT 140V210 9999 FEW045 23/12 Q1015 NOSIG
13-09-20 METAR LIMC 201520Z 23006KT 200V270 9999 FEW070 23/12 Q1015 NOSIG
13-09-20 METAR LIMC 201550Z 22005KT 190V250 CAVOK 22/12 Q1016 NOSIG
13-09-20 METAR LIMC 201620Z 22005KT CAVOK 22/12 Q1016 NOSIG
13-09-20 METAR LIMC 201650Z 22005KT CAVOK 21/12 Q1016 NOSIG
13-09-20 METAR LIMC 201720Z 21004KT CAVOK 19/13 Q1016 NOSIG
13-09-20 METAR LIMC 201750Z VRB02KT CAVOK 18/13 Q1016 NOSIG
13-09-20 METAR LIMC 201820Z 21002KT CAVOK 18/13 Q1017 NOSIG
13-09-20 METAR LIMC 201850Z 00000KT CAVOK 17/14 Q1017 NOSIG
13-09-20 METAR LIMC 201920Z VRB01KT CAVOK 16/14 Q1017 NOSIG
13-09-20 METAR LIMC 201950Z 03002KT CAVOK 14/13 Q1017 NOSIG
13-09-20 METAR LIMC 202020Z 02003KT 350V050 CAVOK 15/14 Q1018 NOSIG
13-09-20 METAR LIMC 202050Z 36004KT 330V030 CAVOK 16/14 Q1018 NOSIG
13-09-20 METAR LIMC 202120Z 02003KT 340V050 CAVOK 15/14 Q1018 NOSIG
13-09-20 METAR LIMC 202150Z 36003KT 330V040 CAVOK 15/14 Q1018 NOSIG
13-09-20 METAR LIMC 202220Z VRB01KT CAVOK 13/13 Q1018 NOSIG
13-09-20 METAR LIMC 202250Z 36003KT CAVOK 13/13 Q1018 NOSIG
13-09-20 METAR LIMC 202320Z 36004KT CAVOK 13/13 Q1018 NOSIG
13-09-20 METAR LIMC 202350Z 01003KT 9000 NSC 13/13 Q1018 NOSIG
13-09-21 METAR LIMC 210020Z VRB02KT 8000 NSC 12/12 Q1019 NOSIG
13-09-21 METAR LIMC 210050Z 34003KT 8000 NSC 11/11 Q1018 NOSIG
13-09-21 METAR LIMC 210120Z 00000KT 5000 BR NSC 12/12 Q1018 NOSIG
13-09-21 METAR LIMC 210150Z VRB02KT 7000 NSC 12/12 Q1019 NOSIG
13-09-21 METAR LIMC 210220Z VRB02KT 5000 BCFG NSC 11/11 Q1019 NOSIG
13-09-21 METAR LIMC 210250Z 36005KT 5000 BCFG NSC 12/12 Q1019 NOSIG
13-09-21 METAR LIMC 210320Z 01002KT 5000 BCFG NSC 11/11 Q1019 NOSIG
13-09-21 METAR LIMC 210350Z 01002KT 5000 BCFG NSC 11/11 Q1019 NOSIG
13-09-21 METAR LIMC 210420Z 01002KT 7000 NSC 11/11 Q1020 NOSIG
13-09-21 METAR LIMC 210450Z 00000KT 9999 MIFG NSC 10/10 Q1020 NOSIG
13-09-21 METAR LIMC 210520Z 35005KT 320V040 9999 R35L///// R35R/0600V1500D MIFG NSC 10/10 Q1020 NOSIG
13-09-21 METAR LIMC 210550Z 36003KT 320V060 CAVOK 12/12 Q1021 NOSIG
13-09-21 METAR LIMC 210620Z 35003KT 290V100 CAVOK 14/13 Q1021 NOSIG
13-09-21 METAR LIMC 210650Z VRB02KT CAVOK 15/14 Q1021 NOSIG
13-09-21 METAR LIMC 210720Z 35005KT CAVOK 16/13 Q1022 NOSIG
13-09-21 METAR LIMC 210750Z 36003KT 330V030 CAVOK 18/13 Q1022 NOSIG
13-09-21 METAR LIMC 210820Z 07004KT 010V130 CAVOK 19/14 Q1022 NOSIG
13-09-21 METAR LIMC 210850Z VRB04KT CAVOK 20/14 Q1022 NOSIG
13-09-21 METAR LIMC 210920Z VRB04KT CAVOK 21/13 Q1022 NOSIG
13-09-21 METAR LIMC 210950Z 05005KT 310V100 CAVOK 21/13 Q1022 NOSIG
13-09-21 METAR LIMC 211020Z NIL
13-09-21 METAR LIMC 211020Z 19004KT 140V240 9999 FEW040 22/13 Q1022 NOSIG
13-09-21 METAR LIMC 211050Z 11003KT 040V200 9999 FEW040 23/13 Q1022 NOSIG
13-09-21 METAR LIMC 211120Z VRB04KT 9999 FEW040 23/13 Q1022 NOSIG
13-09-21 METAR LIMC 211150Z 16005KT 100V270 9999 FEW040 23/13 Q1022 NOSIG
13-09-21 METAR LIMC 211220Z 21004KT 170V270 9999 FEW040 24/13 Q1021 NOSIG
13-09-21 METAR LIMC 211250Z VRB04KT 9999 FEW040 24/13 Q1021 NOSIG
13-09-21 METAR LIMC 211320Z VRB03KT 9999 FEW040 24/13 Q1021 NOSIG
13-09-21 METAR LIMC 211350Z 17004KT 090V250 9999 FEW040 24/13 Q1021 NOSIG
13-09-21 METAR LIMC 211420Z VRB02KT CAVOK 25/12 Q1021 NOSIG
13-09-21 METAR LIMC 211450Z 14003KT 020V190 CAVOK 24/12 Q1021 NOSIG
13-09-21 METAR LIMC 211520Z VRB03KT CAVOK 24/12 Q1021 NOSIG
13-09-21 METAR LIMC 211550Z 13004KT 070V160 CAVOK 24/12 Q1021 NOSIG
13-09-21 METAR LIMC 211620Z 14005KT CAVOK 23/12 Q1021 NOSIG
13-09-21 METAR LIMC 211650Z 16003KT CAVOK 22/12 Q1022 NOSIG
13-09-21 METAR LIMC 211720Z VRB02KT CAVOK 21/13 Q1022 NOSIG
13-09-21 METAR LIMC 211750Z 13002KT CAVOK 18/13 Q1022 NOSIG
13-09-21 METAR LIMC 211820Z NIL
13-09-21 METAR LIMC 211820Z VRB02KT CAVOK 18/14 Q1022 NOSIG
13-09-21 METAR LIMC 211850Z VRB02KT CAVOK 17/13 Q1023 NOSIG
13-09-21 METAR LIMC 211920Z VRB02KT CAVOK 15/13 Q1023 NOSIG
13-09-21 METAR LIMC 211950Z 04002KT CAVOK 15/13 Q1023 NOSIG
13-09-21 METAR LIMC 212020Z VRB01KT CAVOK 14/13 Q1023 NOSIG
13-09-21 METAR LIMC 212050Z VRB02KT CAVOK 14/14 Q1024 NOSIG
13-09-21 METAR LIMC 212120Z 36003KT 330V030 CAVOK 14/14 Q1024 NOSIG
13-09-21 METAR LIMC 212150Z VRB02KT 8000 BKN070 14/14 Q1024 NOSIG
13-09-21 METAR LIMC 212220Z 36004KT 8000 BKN070 14/14 Q1024 NOSIG
13-09-21 METAR LIMC 212250Z VRB01KT 8000 SCT070 13/13 Q1025 NOSIG
13-09-21 METAR LIMC 212320Z 36004KT 8000 SCT070 14/14 Q1025 NOSIG
13-09-21 METAR LIMC 212350Z 01003KT 7000 SCT080 14/14 Q1025 NOSIG
13-09-22 METAR LIMC 220020Z 36006KT 7000 SCT080 15/14 Q1025 NOSIG
13-09-22 METAR LIMC 220050Z 36004KT 7000 SCT080 14/14 Q1025 NOSIG
13-09-22 METAR LIMC 220120Z VRB02KT 7000 SCT080 15/14 Q1025 NOSIG
13-09-22 METAR LIMC 220150Z 02003KT 7000 FEW080 14/14 Q1025 NOSIG
13-09-22 METAR LIMC 220220Z NIL
13-09-22 METAR LIMC 220220Z 34004KT 7000 FEW080 13/13 Q1025 NOSIG
13-09-22 METAR LIMC 220250Z 36002KT 7000 FEW080 12/12 Q1025 NOSIG
13-09-22 METAR LIMC 220320Z 36003KT 7000 FEW080 13/13 Q1025 NOSIG
13-09-22 METAR LIMC 220350Z 36005KT 7000 FEW080 14/14 Q1025 NOSIG
13-09-22 METAR LIMC 220420Z 35005KT CAVOK 14/14 Q1025 NOSIG
13-09-22 METAR LIMC 220450Z 35006KT 9999 SCT070 14/14 Q1025 NOSIG
13-09-22 METAR LIMC 220520Z 35006KT 9999 SCT070 15/14 Q1026 NOSIG
13-09-22 METAR LIMC 220550Z 36003KT 330V030 9999 SCT070 14/14 Q1026 NOSIG
13-09-22 METAR LIMC 220620Z 35004KT 9999 SCT070 15/14 Q1026 NOSIG
13-09-22 METAR LIMC 220650Z 35003KT 9999 SCT070 16/14 Q1026 NOSIG
13-09-22 METAR LIMC 220720Z 35004KT 9999 SCT070 18/14 Q1026 NOSIG
13-09-22 METAR LIMC 220750Z VRB02KT 9999 SCT070 19/14 Q1026 NOSIG
13-09-22 METAR LIMC 220820Z VRB02KT 9999 SCT070 19/13 Q1026 NOSIG
13-09-22 METAR LIMC 220850Z 07003KT 020V130 9999 SCT070 20/14 Q1026 NOSIG
13-09-22 METAR LIMC 220920Z 05004KT 020V100 9999 SCT070 21/13 Q1027 NOSIG
13-09-22 METAR LIMC 220950Z VRB04KT 9999 SCT070 21/13 Q1026 NOSIG
13-09-22 METAR LIMC 221020Z VRB02KT 9999 SCT070 22/13 Q1026 NOSIG
13-09-22 METAR LIMC 221050Z 17004KT 140V240 9999 SCT070 22/13 Q1026 NOSIG
13-09-22 METAR LIMC 221120Z VRB04KT 9999 SCT070 22/13 Q1026 NOSIG
13-09-22 METAR LIMC 221150Z 17004KT 120V210 9999 SCT070 23/13 Q1026 NOSIG
13-09-22 METAR LIMC 221220Z 13004KT 100V160 9999 SCT040 22/13 Q1025 NOSIG
13-09-22 METAR LIMC 221250Z VRB03KT 9999 SCT040 23/13 Q1025 NOSIG
13-09-22 METAR LIMC 221320Z 15006KT 120V180 9999 SCT040 23/13 Q1025 NOSIG
13-09-22 METAR LIMC 221350Z 15004KT 110V180 9999 SCT040 23/13 Q1025 NOSIG
13-09-22 METAR LIMC 221420Z NIL
13-09-22 METAR LIMC 221420Z 16004KT 120V190 9999 SCT040 23/13 Q1024 NOSIG
13-09-22 METAR LIMC 221450Z 15004KT 090V190 9999 SCT040 22/13 Q1024 NOSIG
13-09-22 METAR LIMC 221520Z 14005KT 100V160 9999 SCT040 22/13 Q1024 NOSIG
13-09-22 METAR LIMC 221550Z 18003KT CAVOK 22/13 Q1024 NOSIG
13-09-22 METAR LIMC 221620Z 18002KT CAVOK 22/13 Q1024 NOSIG
13-09-22 METAR LIMC 221650Z 18002KT CAVOK 21/13 Q1023 NOSIG
13-09-22 METAR LIMC 221720Z 17002KT CAVOK 20/13 Q1023 NOSIG
13-09-22 METAR LIMC 221750Z 15003KT CAVOK 18/14 Q1023 NOSIG
13-09-22 METAR LIMC 221820Z 15002KT CAVOK 18/14 Q1024 NOSIG
13-09-22 METAR LIMC 221850Z VRB02KT CAVOK 16/14 Q1024 NOSIG
13-09-22 METAR LIMC 221920Z VRB01KT CAVOK 15/14 Q1024 NOSIG
13-09-22 METAR LIMC 221950Z VRB02KT CAVOK 15/14 Q1024 NOSIG
13-09-22 METAR LIMC 222020Z VRB02KT CAVOK 14/13 Q1024 NOSIG
13-09-22 METAR LIMC 222050Z VRB02KT CAVOK 13/13 Q1024 NOSIG
13-09-22 METAR LIMC 222120Z 01003KT 330V050 CAVOK 14/14 Q1024 NOSIG
13-09-22 METAR LIMC 222150Z VRB02KT CAVOK 15/14 Q1024 NOSIG
13-09-22 METAR LIMC 222220Z VRB02KT CAVOK 15/14 Q1024 NOSIG
13-09-22 METAR LIMC 222250Z 00000KT CAVOK 15/14 Q1024 NOSIG
13-09-22 METAR LIMC 222320Z 36003KT CAVOK 14/14 Q1024 NOSIG
13-09-22 METAR LIMC 222350Z 36004KT CAVOK 14/14 Q1024 NOSIG
13-09-23 METAR LIMC 230020Z 01003KT 350V070 CAVOK 14/14 Q1024 NOSIG
13-09-23 METAR LIMC 230050Z VRB01KT CAVOK 13/13 Q1024 NOSIG
13-09-23 METAR LIMC 230120Z VRB01KT CAVOK 12/12 Q1024 NOSIG
13-09-23 METAR LIMC 230150Z VRB02KT CAVOK 12/12 Q1023 NOSIG
13-09-23 METAR LIMC 230220Z 36004KT CAVOK 12/12 Q1023 NOSIG
13-09-23 METAR LIMC 230250Z 36003KT CAVOK 12/12 Q1023 NOSIG
13-09-23 METAR LIMC 230320Z 35004KT CAVOK 12/12 Q1023 NOSIG
13-09-23 METAR LIMC 230350Z 35004KT CAVOK 11/11 Q1023 NOSIG
13-09-23 METAR LIMC 230420Z 02003KT 350V070 CAVOK 11/11 Q1023 NOSIG
13-09-23 METAR LIMC 230450Z 36002KT CAVOK 11/11 Q1023 NOSIG
13-09-23 METAR LIMC 230520Z 36003KT 340V050 9000 MIFG NSC 11/11 Q1023 NOSIG
13-09-23 METAR LIMC 230550Z 01004KT 330V060 9000 R35L/1500N R35R/1400V1500N MIFG NSC 13/13 Q1023 NOSIG
13-09-23 METAR LIMC 230620Z 36005KT 330V040 9000 R35L/1500N R35R/1300V1500N MIFG NSC 14/14 Q1023 NOSIG
13-09-23 METAR LIMC 230650Z 35003KT CAVOK 15/14 Q1023 NOSIG
13-09-23 METAR LIMC 230720Z 36004KT CAVOK 16/15 Q1023 NOSIG
13-09-23 METAR LIMC 230750Z VRB02KT CAVOK 18/14 Q1023 NOSIG
13-09-23 METAR LIMC 230820Z VRB02KT CAVOK 19/14 Q1023 NOSIG
13-09-23 METAR LIMC 230850Z VRB02KT CAVOK 20/14 Q1023 NOSIG
13-09-23 METAR LIMC 230920Z VRB02KT CAVOK 21/14 Q1023 NOSIG
13-09-23 METAR LIMC 230950Z 25003KT 160V310 CAVOK 21/13 Q1022 NOSIG
13-09-23 METAR LIMC 231020Z 26004KT 210V320 CAVOK 22/13 Q1022 NOSIG
13-09-23 METAR LIMC 231050Z VRB04KT CAVOK 23/13 Q1022 NOSIG
13-09-23 METAR LIMC 231120Z VRB05KT CAVOK 23/14 Q1022 NOSIG
13-09-23 METAR LIMC 231150Z 21005KT 170V250 CAVOK 23/14 Q1022 NOSIG
13-09-23 METAR LIMC 231220Z 24006KT 180V330 CAVOK 23/13 Q1021 NOSIG
13-09-23 METAR LIMC 231250Z 27005KT 240V330 CAVOK 24/13 Q1021 NOSIG
13-09-23 METAR LIMC 231320Z 28003KT 180V350 CAVOK 24/13 Q1020 NOSIG
13-09-23 METAR LIMC 231350Z 19006KT 130V230 CAVOK 24/13 Q1020 NOSIG
13-09-23 METAR LIMC 231420Z 25005KT 200V290 CAVOK 25/13 Q1019 NOSIG
13-09-23 METAR LIMC 231450Z 25006KT 210V290 CAVOK 24/13 Q1019 NOSIG
13-09-23 METAR LIMC 231520Z 21005KT 190V260 CAVOK 24/13 Q1019 NOSIG
13-09-23 METAR LIMC 231550Z 24005KT 210V270 CAVOK 24/13 Q1019 NOSIG
13-09-23 METAR LIMC 231620Z NIL
13-09-23 METAR LIMC 231620Z 21004KT CAVOK 23/14 Q1018 NOSIG
13-09-23 METAR LIMC 231650Z 21004KT CAVOK 22/14 Q1018 NOSIG
13-09-23 METAR LIMC 231720Z 19003KT CAVOK 20/14 Q1018 NOSIG
13-09-23 METAR LIMC 231750Z 19002KT CAVOK 20/14 Q1018 NOSIG
13-09-23 METAR LIMC 231820Z 00000KT CAVOK 18/13 Q1018 NOSIG
13-09-23 METAR LIMC 231850Z VRB02KT CAVOK 17/13 Q1018 NOSIG
13-09-23 METAR LIMC 231920Z 36004KT 320V020 CAVOK 17/14 Q1018 NOSIG
13-09-23 METAR LIMC 231950Z 35003KT 320V040 CAVOK 16/13 Q1018 NOSIG
13-09-23 METAR LIMC 232020Z 36006KT CAVOK 17/14 Q1018 NOSIG
13-09-23 METAR LIMC 232050Z 36005KT CAVOK 17/13 Q1018 NOSIG
13-09-23 METAR LIMC 232120Z 36003KT CAVOK 14/12 Q1018 NOSIG
13-09-23 METAR LIMC 232150Z 01003KT 330V030 CAVOK 15/13 Q1018 NOSIG
13-09-23 METAR LIMC 232220Z 00000KT CAVOK 14/13 Q1018 NOSIG
13-09-23 METAR LIMC 232250Z VRB01KT CAVOK 14/13 Q1018 NOSIG
13-09-23 METAR LIMC 232320Z 05001KT CAVOK 13/12 Q1018 NOSIG
13-09-23 METAR LIMC 232350Z 35001KT CAVOK 12/11 Q1018 NOSIG
13-09-24 METAR LIMC 240020Z 36004KT CAVOK 13/11 Q1018 NOSIG
13-09-24 METAR LIMC 240050Z 36004KT CAVOK 12/11 Q1018 NOSIG
13-09-24 METAR LIMC 240120Z 36003KT CAVOK 12/11 Q1018 NOSIG
13-09-24 METAR LIMC 240150Z 36004KT CAVOK 11/10 Q1017 NOSIG
13-09-24 METAR LIMC 240220Z 03002KT CAVOK 11/11 Q1017 NOSIG
13-09-24 METAR LIMC 240250Z 36003KT 320V070 CAVOK 12/11 Q1017 NOSIG
13-09-24 METAR LIMC 240320Z 01003KT CAVOK 11/11 Q1017 NOSIG
13-09-24 METAR LIMC 240350Z 35003KT 290V020 CAVOK 12/12 Q1017 NOSIG
13-09-24 METAR LIMC 240420Z 35003KT CAVOK 11/10 Q1017 NOSIG
13-09-24 METAR LIMC 240450Z 35004KT 9999 MIFG NSC 12/11 Q1017 NOSIG
13-09-24 METAR LIMC 240520Z 36004KT 9999 BCFG NSC 13/12 Q1017 NOSIG
13-09-24 METAR LIMC 240550Z 36003KT 330V050 9999 BCFG NSC 12/11 Q1017 NOSIG
13-09-24 METAR LIMC 240620Z VRB01KT 9999 MIFG NSC 13/13 Q1017 NOSIG
13-09-24 METAR LIMC 240650Z 36002KT CAVOK 16/13 Q1017 NOSIG
13-09-24 METAR LIMC 240720Z VRB02KT CAVOK 17/14 Q1017 NOSIG
13-09-24 METAR LIMC 240750Z 35003KT 320V080 CAVOK 19/14 Q1017 NOSIG
13-09-24 METAR LIMC 240820Z VRB02KT CAVOK 19/13 Q1017 NOSIG
13-09-24 METAR LIMC 240850Z VRB02KT CAVOK 20/13 Q1017 NOSIG
13-09-24 METAR LIMC 240920Z VRB02KT CAVOK 22/14 Q1017 NOSIG
13-09-24 METAR LIMC 240950Z VRB03KT CAVOK 22/14 Q1017 NOSIG
13-09-24 METAR LIMC 241020Z VRB02KT CAVOK 23/14 Q1016 NOSIG
13-09-24 METAR LIMC 241050Z VRB03KT CAVOK 24/15 Q1016 NOSIG
13-09-24 METAR LIMC 241120Z 22004KT 180V260 CAVOK 24/14 Q1016 NOSIG
13-09-24 METAR LIMC 241150Z VRB05KT CAVOK 24/14 Q1016 NOSIG
13-09-24 METAR LIMC 241220Z 17004KT 110V230 9999 FEW040 25/15 Q1016 NOSIG
13-09-24 METAR LIMC 241250Z 24004KT 180V350 9999 FEW040 24/15 Q1015 NOSIG
13-09-24 METAR LIMC 241320Z 14004KT 080V170 9999 FEW040 25/15 Q1015 NOSIG
13-09-24 METAR LIMC 241350Z 20007KT 9999 FEW040 24/14 Q1015 NOSIG
13-09-24 METAR LIMC 241420Z 23006KT 170V290 9999 FEW040 25/14 Q1015 NOSIG
13-09-24 METAR LIMC 241450Z 24006KT 210V280 CAVOK 25/14 Q1015 NOSIG
13-09-24 METAR LIMC 241520Z 24006KT 190V300 CAVOK 25/14 Q1014 NOSIG
13-09-24 METAR LIMC 241550Z 23005KT 200V270 CAVOK 24/14 Q1014 NOSIG
13-09-24 METAR LIMC 241620Z 24004KT CAVOK 24/15 Q1014 NOSIG
13-09-24 METAR LIMC 241650Z 23004KT CAVOK 23/15 Q1014 NOSIG
13-09-24 METAR LIMC 241720Z 18005KT 150V210 9999 FEW060 21/15 Q1014 NOSIG
13-09-24 METAR LIMC 241750Z 19007KT 9999 FEW060 20/14 Q1015 NOSIG
13-09-24 METAR LIMC 241820Z NIL
13-09-24 METAR LIMC 241820Z 18004KT CAVOK 19/14 Q1015 NOSIG
13-09-24 METAR LIMC 241850Z 18004KT CAVOK 18/14 Q1015 NOSIG
13-09-24 METAR LIMC 241920Z NIL
13-09-24 METAR LIMC 241920Z 19005KT CAVOK 18/14 Q1016 NOSIG
13-09-24 METAR LIMC 241950Z VRB02KT CAVOK 17/14 Q1016 NOSIG
13-09-24 METAR LIMC 242020Z VRB02KT CAVOK 17/13 Q1016 NOSIG
13-09-24 METAR LIMC 242050Z VRB01KT CAVOK 15/13 Q1016 NOSIG
13-09-24 METAR LIMC 242120Z 06003KT CAVOK 15/13 Q1016 NOSIG
13-09-24 METAR LIMC 242150Z 09002KT CAVOK 13/12 Q1016 NOSIG
13-09-24 METAR LIMC 242220Z 03003KT CAVOK 14/13 Q1016 NOSIG
13-09-24 METAR LIMC 242250Z VRB01KT CAVOK 13/12 Q1016 NOSIG
13-09-24 METAR LIMC 242320Z 08003KT CAVOK 13/12 Q1015 NOSIG
13-09-24 METAR LIMC 242350Z VRB02KT CAVOK 14/13 Q1015 NOSIG
13-09-25 METAR LIMC 250020Z VRB01KT CAVOK 12/11 Q1015 NOSIG
13-09-25 METAR LIMC 250050Z VRB01KT CAVOK 11/11 Q1015 NOSIG
13-09-25 METAR LIMC 250120Z VRB01KT CAVOK 11/10 Q1015 NOSIG
13-09-25 METAR LIMC 250150Z 33002KT CAVOK 11/10 Q1015 NOSIG
13-09-25 METAR LIMC 250220Z 02001KT CAVOK 11/10 Q1015 NOSIG
13-09-25 METAR LIMC 250250Z VRB01KT CAVOK 11/11 Q1014 NOSIG
13-09-25 METAR LIMC 250320Z VRB02KT CAVOK 10/09 Q1014 NOSIG
13-09-25 METAR LIMC 250350Z VRB01KT CAVOK 10/09 Q1014 NOSIG
13-09-25 METAR LIMC 250420Z 06004G14KT 280V080 9999 FEW060 13/12 Q1014 NOSIG
13-09-25 METAR LIMC 250450Z VRB02KT CAVOK 11/11 Q1014 NOSIG
13-09-25 METAR LIMC 250520Z VRB02KT 9999 MIFG NSC 12/12 Q1014 NOSIG
13-09-25 METAR LIMC 250550Z 35003KT 300V080 9999 R35L/1500N R35R/1200V1500N MIFG NSC 12/11 Q1015 NOSIG
13-09-25 METAR LIMC 250620Z VRB02KT 9999 FEW060 16/13 Q1015 NOSIG
13-09-25 METAR LIMC 250650Z VRB02KT 9999 SCT050 17/14 Q1015 NOSIG
13-09-25 METAR LIMC 250720Z VRB02KT 9999 BKN050 18/14 Q1015 NOSIG
13-09-25 METAR LIMC 250750Z VRB02KT 9999 BKN050 19/14 Q1015 NOSIG
13-09-25 METAR LIMC 250820Z NIL
13-09-25 METAR LIMC 250820Z VRB02KT 9999 BKN050 19/14 Q1015 NOSIG
13-09-25 METAR LIMC 250850Z VRB01KT 9999 BKN050 20/15 Q1015 NOSIG
13-09-25 METAR LIMC 250920Z 14003KT 050V180 9999 BKN050 20/15 Q1015 NOSIG
13-09-25 METAR LIMC 250950Z 17004KT 100V220 9999 BKN050 21/15 Q1015 NOSIG
13-09-25 METAR LIMC 251020Z 23005KT 190V270 9999 BKN050 20/15 Q1015 NOSIG
13-09-25 METAR LIMC 251120Z 22004KT 170V250 9999 BKN070 21/15 Q1015 NOSIG
13-09-25 METAR LIMC 251150Z 18004KT 090V250 9999 BKN070 22/14 Q1015 NOSIG
13-09-25 METAR LIMC 251220Z 22006KT 180V250 9999 BKN070 22/14 Q1015 NOSIG
13-09-25 METAR LIMC 251250Z 20005KT 110V250 9999 BKN070 22/14 Q1015 NOSIG
13-09-25 METAR LIMC 251320Z 20006KT 170V230 9999 FEW030 BKN070 22/14 Q1014 NOSIG
13-09-25 METAR LIMC 251350Z 20006KT 140V250 9999 FEW030 SCT070 23/14 Q1014 NOSIG
13-09-25 METAR LIMC 251420Z NIL
13-09-25 METAR LIMC 251450Z 20006KT 140V250 9999 FEW030 SCT070 24/15 Q1014 NOSIG
13-09-25 METAR LIMC 251520Z 18005KT 9999 FEW030 22/15 Q1014 NOSIG
13-09-25 METAR LIMC 251550Z 16004KT 140V210 9999 FEW035 23/14 Q1014 NOSIG
13-09-25 METAR LIMC 251620Z 24006KT 9999 FEW035 22/15 Q1014 NOSIG
13-09-25 METAR LIMC 251650Z 24003KT 9999 FEW035 21/15 Q1014 NOSIG
13-09-25 METAR LIMC 251720Z 18002KT 9999 FEW070 20/15 Q1014 NOSIG
13-09-25 METAR LIMC 251750Z 18004KT 9999 BKN060 20/14 Q1014 NOSIG
13-09-25 METAR LIMC 251820Z 19007KT 9999 BKN060 20/13 Q1014 NOSIG
13-09-25 METAR LIMC 251850Z 19005KT 9999 BKN050 19/13 Q1015 NOSIG
13-09-25 METAR LIMC 251920Z 20005KT 9999 SCT050 19/13 Q1015 NOSIG
13-09-25 METAR LIMC 251950Z 13002KT 9999 FEW070 17/13 Q1015 NOSIG
13-09-25 METAR LIMC 252020Z VRB02KT 9999 SCT070 17/13 Q1015 NOSIG
13-09-25 METAR LIMC 252050Z 17003KT CAVOK 16/13 Q1015 NOSIG
13-09-25 METAR LIMC 252120Z 12002KT CAVOK 16/13 Q1016 NOSIG
13-09-25 METAR LIMC 252150Z VRB02KT CAVOK 14/12 Q1016 NOSIG
13-09-25 METAR LIMC 252220Z NIL
13-09-25 METAR LIMC 252250Z VRB02KT CAVOK 14/13 Q1016 NOSIG
13-09-25 METAR LIMC 252320Z 00000KT CAVOK 13/12 Q1015 NOSIG
13-09-25 METAR LIMC 252350Z VRB01KT CAVOK 12/11 Q1015 NOSIG
13-09-26 METAR LIMC 260020Z VRB02KT CAVOK 12/10 Q1016 NOSIG
13-09-26 METAR LIMC 260050Z VRB01KT 9999 FEW070 12/11 Q1015 NOSIG
13-09-26 METAR LIMC 260120Z VRB02KT 9999 FEW070 12/12 Q1015 NOSIG
13-09-26 METAR LIMC 260120Z NIL
13-09-26 METAR LIMC 260150Z 00000KT CAVOK 12/11 Q1015 NOSIG
13-09-26 METAR LIMC 260220Z 00000KT CAVOK 12/12 Q1015 NOSIG
13-09-26 METAR LIMC 260250Z 00000KT CAVOK 11/11 Q1015 NOSIG
13-09-26 METAR LIMC 260320Z 01004KT 340V050 CAVOK 12/11 Q1015 NOSIG
13-09-26 METAR LIMC 260350Z VRB01KT CAVOK 12/12 Q1015 NOSIG
13-09-26 METAR LIMC 260420Z VRB01KT CAVOK 11/11 Q1015 NOSIG
13-09-26 METAR LIMC 260450Z 01003KT 310V070 CAVOK 12/11 Q1015 NOSIG
13-09-26 METAR LIMC 260520Z 04003KT 360V080 8000 MIFG FEW080 12/11 Q1015 NOSIG
13-09-26 METAR LIMC 260550Z NIL
13-09-26 METAR LIMC 260550Z VRB02KT 8000 MIFG SCT080 12/11 Q1015 NOSIG
13-09-26 METAR LIMC 260620Z NIL
13-09-26 METAR LIMC 260620Z 00000KT 8000 R35L/1500N R35R/1400V1500N SCT080 14/13 Q1016 NOSIG
13-09-26 METAR LIMC 260650Z 00000KT 7000 SCT080 17/15 Q1016 NOSIG
13-09-26 METAR LIMC 260720Z VRB02KT 8000 SCT080 18/14 Q1016 NOSIG
13-09-26 METAR LIMC 260750Z VRB01KT 8000 BKN080 19/15 Q1016 NOSIG
13-09-26 METAR LIMC 260820Z NIL
13-09-26 METAR LIMC 260820Z VRB02KT 9999 FEW080 19/15 Q1016 NOSIG
13-09-26 METAR LIMC 260850Z 22003KT 180V280 CAVOK 20/14 Q1016 NOSIG
13-09-26 METAR LIMC 260920Z 24005KT 200V270 CAVOK 21/15 Q1016 NOSIG
13-09-26 METAR LIMC 260950Z 22006KT 150V250 CAVOK 22/15 Q1016 NOSIG
13-09-26 METAR LIMC 261020Z 24004KT 180V300 CAVOK 22/15 Q1015 NOSIG
13-09-26 METAR LIMC 261050Z 24006KT 210V280 9999 FEW025 22/15 Q1015 NOSIG
13-09-26 METAR LIMC 261120Z 24005KT 180V290 9999 SCT025 23/15 Q1015 NOSIG
13-09-26 METAR LIMC 261220Z 23005KT 150V270 9999 SCT030 24/15 Q1014 NOSIG
13-09-26 METAR LIMC 261250Z 22007KT 9999 SCT030 24/15 Q1014 NOSIG
13-09-26 METAR LIMC 261320Z 23007KT 180V250 9999 SCT030 23/15 Q1014 NOSIG
13-09-26 METAR LIMC 261350Z 22008KT 9999 FEW030 SCT070 24/15 Q1014 NOSIG
13-09-26 METAR LIMC 261420Z 21006KT 170V240 9999 FEW030 SCT080 24/16 Q1014 NOSIG
13-09-26 METAR LIMC 261450Z 26006KT 220V280 9999 FEW030 SCT080 23/15 Q1014 NOSIG
13-09-26 METAR LIMC 261520Z 25004KT 220V280 9999 SCT080 23/16 Q1013 NOSIG
13-09-26 METAR LIMC 261550Z 22004KT 200V260 9999 SCT080 22/16 Q1013 NOSIG
13-09-26 METAR LIMC 261620Z VRB02KT 9999 SCT080 22/16 Q1013 NOSIG
13-09-26 METAR LIMC 261650Z 22003KT 9999 SCT080 22/16 Q1013 NOSIG
13-09-26 METAR LIMC 261720Z VRB01KT 9999 FEW090 21/16 Q1013 NOSIG
13-09-26 METAR LIMC 261750Z 18004KT 9999 SCT090 20/16 Q1013 NOSIG
13-09-26 METAR LIMC 261820Z 22003KT 9999 SCT090 20/16 Q1014 NOSIG
13-09-26 METAR LIMC 261850Z VRB02KT 9999 BKN070 20/16 Q1014 NOSIG
13-09-26 METAR LIMC 261920Z 18003KT 9999 BKN070 19/16 Q1014 NOSIG
13-09-26 METAR LIMC 261950Z 17003KT 130V190 9999 FEW070 18/16 Q1014 NOSIG
13-09-26 METAR LIMC 262020Z VRB01KT CAVOK 18/16 Q1015 NOSIG
13-09-26 METAR LIMC 262050Z 18002KT CAVOK 17/15 Q1015 NOSIG
13-09-26 METAR LIMC 262120Z 00000KT CAVOK 17/15 Q1015 NOSIG
13-09-26 METAR LIMC 262150Z NIL
13-09-26 METAR LIMC 262150Z 00000KT CAVOK 16/15 Q1015 NOSIG
13-09-26 METAR LIMC 262220Z NIL
13-09-26 METAR LIMC 262220Z VRB02KT CAVOK 16/15 Q1015 NOSIG
13-09-26 METAR LIMC 262250Z VRB01KT CAVOK 16/15 Q1015 NOSIG
13-09-26 METAR LIMC 262320Z VRB01KT CAVOK 15/14 Q1015 NOSIG
13-09-26 METAR LIMC 262350Z 14003KT CAVOK 15/15 Q1015 NOSIG
13-09-27 METAR LIMC 270020Z 00000KT CAVOK 14/13 Q1015 NOSIG
13-09-27 METAR LIMC 270050Z VRB02KT CAVOK 14/14 Q1015 NOSIG
13-09-27 METAR LIMC 270120Z 34004KT 9999 FEW080 14/13 Q1015 NOSIG
13-09-27 METAR LIMC 270150Z VRB01KT 9999 SCT080 13/13 Q1015 NOSIG
13-09-27 METAR LIMC 270220Z VRB01KT 9999 SCT080 13/13 Q1014 NOSIG
13-09-27 METAR LIMC 270250Z VRB01KT 9999 SCT080 13/13 Q1015 NOSIG
13-09-27 METAR LIMC 270320Z 00000KT 6000 R17L/0650V1500D R35R///// BCFG SCT080 13/12 Q1015 NOSIG
13-09-27 METAR LIMC 270350Z 35003KT 6000 SCT080 13/13 Q1015 NOSIG
13-09-27 METAR LIMC 270420Z 36003KT 320V060 6000 SCT080 15/15 Q1015 NOSIG
13-09-27 METAR LIMC 270450Z VRB03KT 6000 BKN050 16/15 Q1015 NOSIG
13-09-27 METAR LIMC 270520Z NIL
13-09-27 METAR LIMC 270520Z VRB02KT 6000 BKN050 16/15 Q1015 NOSIG
13-09-27 METAR LIMC 270550Z 04003KT 360V110 5000 BR BKN050 16/16 Q1015 NOSIG
13-09-27 METAR LIMC 270620Z VRB02KT 5000 BR BKN050 17/16 Q1015 NOSIG
13-09-27 METAR LIMC 270650Z VRB02KT 5000 BR BKN050 17/16 Q1016 NOSIG
13-09-27 METAR LIMC 270720Z VRB02KT 5000 BR BKN050 18/16 Q1016 NOSIG
13-09-27 METAR LIMC 270750Z VRB02KT 6000 BKN040 18/16 Q1016 NOSIG
13-09-27 METAR LIMC 270820Z VRB02KT 6000 BKN040 19/16 Q1016 NOSIG
13-09-27 METAR LIMC 270850Z VRB01KT 6000 BKN040 19/16 Q1016 NOSIG
13-09-27 METAR LIMC 270920Z VRB02KT 6000 BKN040 20/16 Q1016 NOSIG
13-09-27 METAR LIMC 270950Z 22003KT 170V260 7000 BKN050 21/17 Q1016 NOSIG
13-09-27 METAR LIMC 271020Z 21004KT 140V260 8000 BKN050 21/17 Q1015 NOSIG
13-09-27 METAR LIMC 271050Z 18003KT 120V230 9999 BKN060 22/17 Q1015 NOSIG
13-09-27 METAR LIMC 271120Z 25005KT 9999 BKN070 22/17 Q1015 NOSIG
13-09-27 METAR LIMC 271150Z 22004KT 190V270 9999 FEW030 BKN070 22/17 Q1015 NOSIG
13-09-27 METAR LIMC 271220Z 24004KT 130V260 9999 FEW030 BKN070 23/17 Q1014 NOSIG
13-09-27 METAR LIMC 271250Z 24006KT 210V280 9999 FEW030 BKN070 22/17 Q1014 NOSIG
13-09-27 METAR LIMC 271320Z 21006KT 9999 FEW030 BKN070 23/16 Q1014 NOSIG
13-09-27 METAR LIMC 271350Z 24006KT 200V270 9999 FEW030 BKN070 23/16 Q1014 NOSIG
13-09-27 METAR LIMC 271420Z 23005KT 200V260 9999 FEW030 BKN070 23/16 Q1014 NOSIG
13-09-27 METAR LIMC 271450Z NIL
13-09-27 METAR LIMC 271450Z 23004KT 180V270 9999 FEW030 BKN070 23/15 Q1013 NOSIG
13-09-27 METAR LIMC 271520Z 24004KT 200V270 9999 FEW030 BKN070 23/15 Q1013 NOSIG
13-09-27 METAR LIMC 271620Z 24004KT 200V260 9999 BKN070 23/15 Q1013 NOSIG
13-09-27 METAR LIMC 271650Z 28004KT 250V310 9999 BKN070 22/15 Q1013 NOSIG
13-09-27 METAR LIMC 271720Z 30003KT 270V350 9999 BKN070 21/15 Q1013 NOSIG
13-09-27 METAR LIMC 271750Z 00000KT 9999 BKN070 20/15 Q1014 NOSIG
13-09-27 METAR LIMC 271820Z 00000KT 9999 BKN070 19/15 Q1014 NOSIG
13-09-27 METAR LIMC 271850Z 00000KT 9999 BKN070 18/15 Q1014 NOSIG
13-09-27 METAR LIMC 271920Z VRB02KT 9999 BKN070 20/15 Q1014 NOSIG
13-09-27 METAR LIMC 271950Z 14003KT 060V220 9999 BKN070 18/16 Q1014 NOSIG
13-09-27 METAR LIMC 272020Z VRB02KT 9999 BKN070 20/16 Q1014 NOSIG
13-09-27 METAR LIMC 272050Z 17003KT 9999 BKN070 18/16 Q1014 NOSIG
13-09-27 METAR LIMC 272120Z 17002KT 9999 BKN070 18/16 Q1014 NOSIG
13-09-27 METAR LIMC 272150Z 00000KT 9999 BKN050 18/16 Q1014 NOSIG
13-09-27 METAR LIMC 272220Z 00000KT 9999 BKN050 17/16 Q1014 NOSIG
13-09-27 METAR LIMC 272250Z VRB01KT 9999 BKN050 17/16 Q1014 NOSIG
13-09-27 METAR LIMC 272320Z VRB01KT 9999 BKN050 17/16 Q1014 NOSIG
13-09-27 METAR LIMC 272350Z 02002KT 9999 BKN050 17/16 Q1014 NOSIG
13-09-28 METAR LIMC 280020Z 02001KT 9999 BKN050 18/16 Q1014 NOSIG
13-09-28 METAR LIMC 280050Z VRB01KT 9999 BKN050 17/16 Q1014 NOSIG
13-09-28 METAR LIMC 280120Z 00000KT 9999 BKN050 18/16 Q1014 NOSIG
13-09-28 METAR LIMC 280150Z VRB01KT 9999 BKN040 18/16 Q1013 NOSIG
13-09-28 METAR LIMC 280220Z 35002KT 9999 BKN040 18/16 Q1013 NOSIG
13-09-28 METAR LIMC 280250Z 35004KT 9999 BKN040 18/16 Q1013 NOSIG
13-09-28 METAR LIMC 280320Z 35001KT 9999 BKN040 18/16 Q1013 NOSIG
13-09-28 METAR LIMC 280350Z 02002KT 9999 BKN040 18/16 Q1013 NOSIG
13-09-28 METAR LIMC 280420Z VRB01KT 9999 BKN040 18/16 Q1013 NOSIG
13-09-28 METAR LIMC 280450Z 00000KT 9999 BKN040 18/16 Q1013 NOSIG
13-09-28 METAR LIMC 280520Z VRB01KT 9999 BKN040 18/16 Q1013 NOSIG
13-09-28 METAR LIMC 280550Z VRB01KT 9999 BKN040 18/16 Q1013 NOSIG
13-09-28 METAR LIMC 280620Z 36002KT 9999 BKN040 18/17 Q1013 NOSIG
13-09-28 METAR LIMC 280650Z VRB02KT 9999 BKN060 19/17 Q1013 NOSIG
13-09-28 METAR LIMC 280720Z VRB02KT 9999 BKN060 19/17 Q1013 NOSIG
13-09-28 METAR LIMC 280750Z VRB02KT 9999 BKN070 20/17 Q1014 NOSIG
13-09-28 METAR LIMC 280820Z VRB02KT 9999 BKN070 20/16 Q1014 NOSIG
13-09-28 METAR LIMC 280850Z VRB02KT 9999 BKN070 21/17 Q1014 NOSIG
13-09-28 METAR LIMC 280920Z VRB02KT 9999 BKN070 21/16 Q1014 NOSIG
13-09-28 METAR LIMC 280950Z NIL
13-09-28 METAR LIMC 280950Z VRB02KT 9999 BKN070 21/17 Q1014 NOSIG
13-09-28 METAR LIMC 281020Z NIL
13-09-28 METAR LIMC 281050Z VRB02KT 9999 BKN070 23/17 Q1014 NOSIG
13-09-28 METAR LIMC 281120Z VRB02KT 9999 BKN070 23/17 Q1013 NOSIG
13-09-28 METAR LIMC 281150Z VRB02KT 9999 BKN070 23/16 Q1013 NOSIG
13-09-28 METAR LIMC 281220Z VRB01KT 9999 FEW030 BKN070 24/17 Q1013 NOSIG
13-09-28 METAR LIMC 281250Z VRB02KT 9999 SCT030 BKN070 24/16 Q1012 NOSIG
13-09-28 METAR LIMC 281320Z 18003KT 090V260 9999 SCT030 BKN070 24/16 Q1012 NOSIG
13-09-28 METAR LIMC 281350Z 17004KT 130V200 9999 SCT030 BKN070 24/16 Q1012 NOSIG
13-09-28 METAR LIMC 281420Z 18004KT 120V240 9999 SCT030 BKN070 24/15 Q1012 NOSIG
13-09-28 METAR LIMC 281450Z 13003KT 040V200 9999 FEW030 BKN070 24/15 Q1011 NOSIG
13-09-28 METAR LIMC 281520Z 20003KT 9999 FEW030 BKN070 23/15 Q1012 NOSIG
13-09-28 METAR LIMC 281550Z 19003KT 9999 FEW050 BKN070 23/16 Q1011 NOSIG
13-09-28 METAR LIMC 281620Z 18004KT 9999 FEW050 BKN070 22/16 Q1012 NOSIG
13-09-28 METAR LIMC 281650Z 19003KT 9999 FEW050 BKN070 21/16 Q1012 NOSIG
13-09-28 METAR LIMC 281720Z 00000KT 9999 FEW050 BKN070 21/17 Q1011 NOSIG
13-09-28 METAR LIMC 281750Z VRB01KT 9999 FEW050 BKN070 21/16 Q1011 NOSIG
13-09-28 METAR LIMC 281820Z 13002KT 9999 SCT050 BKN070 20/17 Q1012 NOSIG
13-09-28 METAR LIMC 281850Z VRB02KT 9999 SCT050 BKN070 20/17 Q1012 NOSIG
13-09-28 METAR LIMC 281920Z VRB01KT 9999 SCT050 BKN070 20/16 Q1012 NOSIG
13-09-28 METAR LIMC 281950Z 13003KT 090V160 9999 SCT050 BKN070 21/16 Q1012 NOSIG
13-09-28 METAR LIMC 282020Z 14003KT 110V170 9999 SCT040 BKN070 20/17 Q1012 NOSIG
13-09-28 METAR LIMC 282050Z 16002KT 9999 SCT040 BKN070 20/17 Q1012 NOSIG
13-09-28 METAR LIMC 282120Z 16002KT 9999 SCT040 BKN070 19/17 Q1012 NOSIG
13-09-28 METAR LIMC 282150Z 10002KT 9999 SCT040 BKN070 19/16 Q1011 NOSIG
13-09-28 METAR LIMC 282220Z 07002KT 9999 SCT040 BKN070 19/16 Q1011 BECMG RA
13-09-28 METAR LIMC 282250Z VRB01KT 9999 SCT040 BKN070 18/16 Q1011 BECMG RA
13-09-28 METAR LIMC 282320Z 00000KT 9999 -RA SCT040 BKN070 18/16 Q1011 NOSIG
13-09-28 METAR LIMC 282350Z 22001KT 9999 SCT040 BKN070 18/17 Q1011 NOSIG
13-09-29 METAR LIMC 290020Z 30006KT 9999 RA SCT020 BKN060 19/17 Q1011 NOSIG
13-09-29 METAR LIMC 290050Z VRB02KT 9999 RA SCT020 BKN060 18/16 Q1010 NOSIG
13-09-29 METAR LIMC 290120Z 29003KT 270V330 9999 RA SCT020 BKN060 17/16 Q1010 NOSIG
13-09-29 METAR LIMC 290150Z 02007KT 9999 DZ SCT020 BKN060 18/16 Q1010 RERA NOSIG
13-09-29 METAR LIMC 290220Z 02008KT 9999 DZ SCT020 BKN060 18/16 Q1009 NOSIG
13-09-29 METAR LIMC 290250Z 06007KT 020V090 9999 RA SCT020 BKN060 18/16 Q1009 NOSIG
13-09-29 METAR LIMC 290320Z VRB02KT 9999 RA SCT020 BKN060 17/16 Q1009 NOSIG
13-09-29 METAR LIMC 290350Z 36008KT 9999 -RA SCT020 BKN060 17/16 Q1008 RERA NOSIG
13-09-29 METAR LIMC 290350Z 36008KT 9999 RA SCT020 BKN060 17/16 Q1008 NOSIG
13-09-29 METAR LIMC 290420Z 35007KT 9999 -RA SCT020 BKN060 17/16 Q1008 NOSIG
13-09-29 METAR LIMC 290450Z 36008KT 9999 SCT020 BKN060 16/16 Q1008 NOSIG
13-09-29 METAR LIMC 290520Z 36009KT 9999 SCT020 OVC060 17/15 Q1008 NOSIG
13-09-29 METAR LIMC 290550Z 01003KT 340V050 9999 BKN030 OVC060 16/15 Q1008 NOSIG
13-09-29 METAR LIMC 290620Z 36007KT 330V040 9999 BKN030 OVC060 17/15 Q1008 NOSIG
13-09-29 METAR LIMC 290650Z 34005KT 9999 BKN040 OVC060 16/15 Q1008 NOSIG
13-09-29 METAR LIMC 290720Z 36009KT 9999 BKN040 OVC060 16/15 Q1008 NOSIG
13-09-29 METAR LIMC 290750Z 01006KT 9999 BKN025 OVC060 17/15 Q1007 NOSIG
13-09-29 METAR LIMC 290820Z 34007KT 320V020 9999 BKN025 OVC060 17/15 Q1008 NOSIG
13-09-29 METAR LIMC 290850Z 35008KT 9999 BKN025 OVC060 17/15 Q1007 NOSIG
13-09-29 METAR LIMC 290920Z 36007KT 9999 BKN035 OVC060 17/15 Q1007 NOSIG
13-09-29 METAR LIMC 290950Z 36006KT 9999 BKN035 OVC060 18/15 Q1007 NOSIG
13-09-29 METAR LIMC 291020Z 36006KT 9999 BKN035 OVC060 18/16 Q1007 NOSIG
13-09-29 METAR LIMC 291050Z 36006KT 9999 BKN035 OVC060 18/16 Q1007 NOSIG
13-09-29 METAR LIMC 291150Z 33009KT 9999 BKN025 OVC060 18/16 Q1006 NOSIG
13-09-29 METAR LIMC 291220Z 34008KT 9999 BKN025 OVC060 18/16 Q1006 NOSIG
13-09-29 METAR LIMC 291250Z NIL
13-09-29 METAR LIMC 291250Z 33007KT 9999 BKN025 OVC060 18/16 Q1005 NOSIG
13-09-29 METAR LIMC 291320Z 34007KT 9999 BKN025 OVC060 18/16 Q1005 NOSIG
13-09-29 METAR LIMC 291350Z 09005KT 050V120 9999 BKN025 OVC060 19/16 Q1005 NOSIG
13-09-29 METAR LIMC 291420Z VRB05KT 9999 RA BKN025 OVC060 18/16 Q1005 NOSIG
13-09-29 METAR LIMC 291450Z 32006KT 9999 -RA BKN025 BKN060 17/16 Q1005 RERA NOSIG
13-09-29 METAR LIMC 291520Z 32007KT 9999 -RA BKN030 BKN060 17/16 Q1005 NOSIG
13-09-29 METAR LIMC 291550Z 34009KT 9999 SCT030 BKN060 17/15 Q1005 NOSIG
13-09-29 METAR LIMC 291620Z 34010KT 9999 SCT030 BKN060 17/16 Q1005 NOSIG
13-09-29 METAR LIMC 291650Z 35009KT 9999 SCT035 BKN070 17/16 Q1005 NOSIG
13-09-29 METAR LIMC 291720Z 34008KT 9999 SCT035 BKN070 17/15 Q1005 NOSIG
13-09-29 METAR LIMC 291750Z 34010KT 9999 SCT035 BKN070 16/15 Q1005 NOSIG
13-09-29 METAR LIMC 291820Z 35009KT 9999 SCT035 BKN070 16/15 Q1005 NOSIG
13-09-29 METAR LIMC 291850Z 36007KT 9999 SCT035 BKN070 17/15 Q1005 NOSIG
13-09-29 METAR LIMC 291920Z 01006KT 9999 BKN070 16/15 Q1005 NOSIG
13-09-29 METAR LIMC 291950Z 35004KT 9999 BKN060 16/15 Q1005 NOSIG
13-09-29 METAR LIMC 292020Z 35004KT 9999 BKN080 16/14 Q1005 NOSIG
13-09-29 METAR LIMC 292050Z 36006KT CAVOK 16/14 Q1005 NOSIG
13-09-29 METAR LIMC 292120Z VRB02KT CAVOK 15/14 Q1005 NOSIG
13-09-29 METAR LIMC 292150Z 36003KT 9999 BKN060 15/14 Q1005 NOSIG
13-09-29 METAR LIMC 292220Z 36003KT 330V030 9999 SCT030 SCT060 15/14 Q1005 NOSIG
13-09-29 METAR LIMC 292250Z NIL
13-09-29 METAR LIMC 292320Z 00000KT 9999 SCT015 BKN060 15/14 Q1005 NOSIG
13-09-29 METAR LIMC 292350Z 01003KT 340V050 9999 SCT020 BKN060 15/14 Q1005 NOSIG
13-09-30 METAR LIMC 300020Z 36002KT 9999 BKN020 BKN060 15/14 Q1004 NOSIG
13-09-30 METAR LIMC 300050Z 34005KT 9999 BKN020 BKN060 15/15 Q1004 NOSIG
13-09-30 METAR LIMC 300120Z VRB01KT 9999 BKN020 BKN060 15/15 Q1004 NOSIG
13-09-30 METAR LIMC 300150Z 36004KT 9999 BKN020 BKN060 15/15 Q1004 NOSIG
13-09-30 METAR LIMC 300220Z 35003KT 9999 SCT008 BKN060 16/15 Q1004 NOSIG
13-09-30 METAR LIMC 300250Z 00000KT 9999 BKN006 BKN060 16/15 Q1003 NOSIG
13-09-30 METAR LIMC 300320Z 12003KT 9999 BKN006 BKN060 16/15 Q1003 NOSIG
13-09-30 METAR LIMC 300350Z 10006KT 070V130 5000 BR BKN006 BKN060 15/14 Q1003 NOSIG
13-09-30 METAR LIMC 300420Z 09007KT 6000 DZ BKN008 BKN060 15/14 Q1003 NOSIG
13-09-30 METAR LIMC 300450Z 09007KT 060V120 6000 DZ BKN005 BKN040 14/14 Q1003 NOSIG
13-09-30 METAR LIMC 300520Z NIL
13-09-30 METAR LIMC 300520Z 08006KT 040V110 6000 DZ SCT005 BKN040 14/14 Q1003 NOSIG
13-09-30 METAR LIMC 300550Z 08005KT 050V110 6000 DZ SCT005 BKN040 14/13 Q1004 REDZ NOSIG
13-09-30 METAR LIMC 300620Z 10005KT 070V130 3000 RA BR SCT005 BKN040 14/13 Q1004
13-09-30 METAR LIMC 300650Z 11006KT 080V150 4000 RA BR SCT007 BKN040 14/13 Q1004
13-09-30 METAR LIMC 300720Z 10005KT 070V140 4000 BR SCT007 BKN040 14/13 Q1004 RERA
13-09-30 METAR LIMC 300750Z NIL
13-09-30 METAR LIMC 300750Z 11005KT 070V140 5000 RA BR SCT007 BKN040 14/13 Q1004
13-09-30 METAR LIMC 300820Z 10003KT 060V140 7000 RA SCT010 BKN040 14/13 Q1005 NOSIG
13-09-30 METAR LIMC 300850Z 07005KT 8000 SCT010 BKN040 14/13 Q1005 RERA NOSIG
13-09-30 METAR LIMC 301020Z 06005KT 350V090 8000 SCT010 BKN040 14/13 Q1005 NOSIG
13-09-30 METAR LIMC 301050Z 09005KT 050V120 9999 SCT010 BKN040 14/13 Q1005 NOSIG
13-09-30 METAR LIMC 301120Z 07007KT 9999 SCT010 BKN040 14/13 Q1005 NOSIG
13-09-30 METAR LIMC 301150Z 08005KT 040V120 9999 SCT010 BKN040 15/13 Q1005 NOSIG
13-09-30 METAR LIMC 301220Z 09005KT 060V130 9999 SCT020 BKN060 15/13 Q1005 NOSIG
13-09-30 METAR LIMC 301250Z VRB06KT 9999 BKN020 BKN070 15/13 Q1005 NOSIG
13-09-30 METAR LIMC 301320Z 12004KT 060V170 9999 BKN030 BKN070 15/13 Q1004 NOSIG
13-09-30 METAR LIMC 301350Z 10005KT 070V130 9999 BKN030 BKN070 16/13 Q1004 NOSIG
13-09-30 METAR LIMC 301420Z 11005KT 9999 BKN030 BKN070 16/13 Q1004 NOSIG
13-09-30 METAR LIMC 301450Z VRB03KT 9999 BKN030 BKN070 16/13 Q1004 NOSIG
13-09-30 METAR LIMC 301520Z VRB02KT 9999 BKN030 BKN070 16/12 Q1005 NOSIG
13-09-30 METAR LIMC 301550Z 13003KT 080V170 9999 FEW020 BKN060 16/12 Q1005 NOSIG
13-09-30 METAR LIMC 301620Z VRB03KT 9999 SCT020 BKN050 16/12 Q1005 NOSIG
13-09-30 METAR LIMC 301650Z 09002KT 9999 SCT020 BKN050 16/13 Q1005 NOSIG
13-09-30 METAR LIMC 301720Z NIL
13-09-30 METAR LIMC 301750Z NIL
13-09-30 METAR LIMC 301720Z 04003KT 350V070 9999 SCT020 BKN050 16/13 Q1005 NOSIG
13-09-30 METAR LIMC 301750Z VRB03KT 9999 SCT020 BKN050 15/13 Q1006 NOSIG
13-09-30 METAR LIMC 301820Z VRB02KT 9999 SCT020 BKN050 15/13 Q1006 NOSIG
13-09-30 METAR LIMC 301850Z VRB02KT 9999 SCT020 BKN050 16/13 Q1007 NOSIG
13-09-30 METAR LIMC 301920Z VRB03KT 9999 SCT025 BKN050 15/13 Q1007 NOSIG
13-09-30 METAR LIMC 301950Z 05004KT 9999 SCT025 BKN050 15/13 Q1007 NOSIG
13-09-30 METAR LIMC 302020Z 10004KT 010V130 9999 SCT025 BKN050 15/12 Q1007 NOSIG
13-09-30 METAR LIMC 302050Z 05003KT 010V110 9999 SCT025 BKN050 15/12 Q1007 NOSIG
13-09-30 METAR LIMC 302120Z 03003KT 320V080 9999 SCT025 BKN050 15/12 Q1008 NOSIG
13-09-30 METAR LIMC 302150Z VRB01KT 9999 SCT025 BKN050 15/12 Q1008 NOSIG
13-09-30 METAR LIMC 302220Z VRB02KT 9999 SCT025 BKN050 15/12 Q1008 NOSIG
13-09-30 METAR LIMC 302250Z VRB01KT 9999 SCT025 BKN050 14/13 Q1008 NOSIG
13-09-30 METAR LIMC 302320Z VRB02KT 9999 SCT025 BKN050 15/13 Q1008 NOSIG
13-09-30 METAR LIMC 302350Z 00000KT 9999 SCT025 BKN050 14/13 Q1008 NOSIG
13-10-01 METAR LIMC 010020Z VRB02KT 9999 SCT025 BKN050 15/13 Q1008 NOSIG
13-10-01 METAR LIMC 010050Z 06003KT 9999 SCT025 BKN050 14/13 Q1008 NOSIG
13-10-01 METAR LIMC 010120Z 04002KT 9999 SCT025 BKN050 14/13 Q1008 NOSIG
13-10-01 METAR LIMC 010150Z 00000KT 9999 SCT025 BKN050 14/13 Q1008 NOSIG
13-10-01 METAR LIMC 010220Z 00000KT 9999 SCT025 BKN050 14/13 Q1008 NOSIG
13-10-01 METAR LIMC 010250Z 00000KT 9999 SCT025 BKN050 14/13 Q1008 NOSIG
13-10-01 METAR LIMC 010320Z 08001KT 9999 SCT025 BKN050 14/13 Q1008 NOSIG
13-10-01 METAR LIMC 010350Z VRB02KT 9999 SCT025 BKN050 14/13 Q1008 NOSIG
13-10-01 METAR LIMC 010420Z 05002KT 9999 SCT025 BKN050 14/13 Q1008 NOSIG
13-10-01 METAR LIMC 010450Z 08001KT 9999 SCT025 BKN050 14/13 Q1008 NOSIG
13-10-01 METAR LIMC 010520Z 06002KT 9999 BKN030 BKN050 14/13 Q1008 NOSIG
13-10-01 METAR LIMC 010550Z VRB01KT 9999 BKN030 BKN050 15/13 Q1009 NOSIG
13-10-01 METAR LIMC 010620Z 00000KT 9999 BKN030 BKN050 15/13 Q1009 NOSIG
13-10-01 METAR LIMC 010650Z VRB02KT 9999 BKN030 BKN050 15/13 Q1009 NOSIG
13-10-01 METAR LIMC 010720Z VRB02KT 9999 BKN030 BKN050 15/13 Q1009 NOSIG
13-10-01 METAR LIMC 010750Z VRB02KT 9999 BKN040 BKN070 16/12 Q1009 NOSIG
13-10-01 METAR LIMC 010820Z 14003KT 070V170 9999 BKN040 BKN070 16/10 Q1010 NOSIG
13-10-01 METAR LIMC 010850Z 13004KT 9999 BKN040 BKN070 16/10 Q1010 NOSIG
13-10-01 METAR LIMC 010920Z VRB02KT 9999 BKN040 BKN070 16/10 Q1010 NOSIG
13-10-01 METAR LIMC 010950Z VRB02KT 9999 BKN040 BKN070 16/11 Q1010 NOSIG
13-10-01 METAR LIMC 011020Z VRB01KT 9999 BKN040 BKN070 17/11 Q1010 NOSIG
13-10-01 METAR LIMC 011050Z VRB02KT 9999 SCT040 BKN070 17/11 Q1010 NOSIG
13-10-01 METAR LIMC 011120Z 09003KT 020V110 9999 SCT040 BKN070 17/11 Q1010 NOSIG
13-10-01 METAR LIMC 011150Z 12003KT 9999 SCT040 BKN070 18/11 Q1010 NOSIG
13-10-01 METAR LIMC 011220Z VRB02KT 9999 SCT040 BKN070 18/12 Q1009 NOSIG
13-10-01 METAR LIMC 011250Z 26003KT 210V320 9999 SCT040 BKN070 18/11 Q1009 NOSIG
13-10-01 METAR LIMC 011320Z 24004KT 9999 SCT030 BKN070 18/12 Q1009 NOSIG
13-10-01 METAR LIMC 011350Z 24004KT 190V260 9999 SCT030 BKN070 18/11 Q1009 NOSIG
13-10-01 METAR LIMC 011420Z VRB02KT 9999 BKN040 18/12 Q1009 NOSIG
13-10-01 METAR LIMC 011450Z VRB01KT 9999 BKN040 18/11 Q1009 NOSIG
13-10-01 METAR LIMC 011520Z VRB02KT 9999 BKN040 18/12 Q1009 NOSIG
13-10-01 METAR LIMC 011550Z 23003KT 190V270 9999 BKN040 18/12 Q1009 NOSIG
13-10-01 METAR LIMC 011620Z 24002KT 9999 BKN040 17/12 Q1010 NOSIG
13-10-01 METAR LIMC 011650Z VRB02KT 9999 BKN040 17/12 Q1010 NOSIG
13-10-01 METAR LIMC 011720Z 00000KT 9999 BKN040 17/13 Q1010 NOSIG
13-10-01 METAR LIMC 011750Z 27002KT 9999 BKN040 17/12 Q1010 NOSIG
13-10-01 METAR LIMC 011820Z VRB01KT 9999 BKN040 16/12 Q1010 NOSIG
13-10-01 METAR LIMC 011850Z VRB02KT 9999 BKN040 16/13 Q1010 NOSIG
13-10-01 METAR LIMC 011920Z 36003KT 9999 BKN040 16/12 Q1011 NOSIG
13-10-01 METAR LIMC 011950Z VRB01KT 9999 BKN040 16/13 Q1011 NOSIG
13-10-01 METAR LIMC 012020Z 01004KT 320V040 9999 BKN040 15/13 Q1011 NOSIG
13-10-01 METAR LIMC 012050Z 00000KT 9999 BKN030 15/13 Q1011 NOSIG
13-10-01 METAR LIMC 012120Z VRB01KT 9999 BKN040 14/13 Q1011 NOSIG
13-10-01 METAR LIMC 012150Z 00000KT 9999 SCT060 14/13 Q1011 NOSIG
13-10-01 METAR LIMC 012220Z VRB02KT 9999 BKN060 15/13 Q1011 NOSIG
13-10-01 METAR LIMC 012250Z 00000KT 9999 BKN050 14/13 Q1012 NOSIG
13-10-01 METAR LIMC 012320Z VRB02KT 9999 BKN050 14/13 Q1012 NOSIG
13-10-01 METAR LIMC 012350Z VRB01KT 9999 BKN050 15/13 Q1012 NOSIG
13-10-02 METAR LIMC 020020Z VRB01KT 9999 BKN050 15/13 Q1012 NOSIG
13-10-02 METAR LIMC 020050Z 17001KT 9999 BKN040 15/13 Q1012 NOSIG
13-10-02 METAR LIMC 020120Z 00000KT 9999 BKN030 15/14 Q1012 NOSIG
13-10-02 METAR LIMC 020150Z 00000KT 9999 BKN030 15/14 Q1012 NOSIG
13-10-02 METAR LIMC 020220Z VRB02KT 9999 BKN030 15/14 Q1012 NOSIG
13-10-02 METAR LIMC 020250Z VRB01KT 9999 BKN030 15/14 Q1012 NOSIG
13-10-02 METAR LIMC 020320Z VRB01KT 9999 BKN030 15/14 Q1013 NOSIG
13-10-02 METAR LIMC 020350Z VRB01KT 9999 BKN030 15/14 Q1013 NOSIG
13-10-02 METAR LIMC 020420Z VRB02KT 9999 BKN030 16/13 Q1013 NOSIG
13-10-02 METAR LIMC 020450Z 06004KT 360V090 9999 BKN030 15/14 Q1014 NOSIG
13-10-02 METAR LIMC 020520Z 06003KT 360V080 9999 BKN030 15/13 Q1014 NOSIG
13-10-02 METAR LIMC 020550Z NIL
13-10-02 METAR LIMC 020550Z 07004KT 8000 BKN030 15/13 Q1014 NOSIG
13-10-02 METAR LIMC 020620Z 06004KT 360V100 7000 BKN030 15/13 Q1015 NOSIG
13-10-02 METAR LIMC 020650Z 07004KT 7000 SCT030 BKN070 16/13 Q1015 NOSIG
13-10-02 METAR LIMC 020720Z 09003KT 7000 SCT030 BKN070 16/13 Q1015 NOSIG
13-10-02 METAR LIMC 020750Z 10005KT 060V120 7000 SCT030 BKN070 16/13 Q1016 NOSIG
13-10-02 METAR LIMC 020820Z 09005KT 8000 SCT030 BKN070 16/12 Q1016 NOSIG
13-10-02 METAR LIMC 020850Z 09005KT 010V130 9999 SCT030 BKN070 16/12 Q1016 NOSIG
13-10-02 METAR LIMC 020920Z 09005KT 060V120 9999 SCT030 BKN070 17/12 Q1016 NOSIG
13-10-02 METAR LIMC 020950Z 12005KT 9999 SCT030 BKN070 17/12 Q1017 NOSIG
13-10-02 METAR LIMC 021020Z 14003KT 070V180 9999 SCT030 BKN070 17/12 Q1017 NOSIG
13-10-02 METAR LIMC 021050Z 10004KT 070V130 9999 SCT030 BKN070 18/12 Q1017 NOSIG
13-10-02 METAR LIMC 021120Z 12005KT 090V150 9999 SCT030 BKN070 18/12 Q1017 NOSIG
13-10-02 METAR LIMC 021150Z 10003KT 050V150 9999 SCT030 BKN070 19/12 Q1017 NOSIG
13-10-02 METAR LIMC 021220Z VRB03KT 9999 SCT030 BKN070 19/11 Q1017 NOSIG
13-10-02 METAR LIMC 021250Z 02004KT 320V070 9999 SCT030 BKN070 19/12 Q1017 NOSIG
13-10-02 METAR LIMC 021320Z 03003KT 340V120 9999 SCT030 BKN070 19/12 Q1017 NOSIG
13-10-02 METAR LIMC 021350Z VRB02KT 9999 SCT030 BKN070 19/11 Q1017 NOSIG
13-10-02 METAR LIMC 021420Z VRB02KT 9999 SCT030 BKN070 20/12 Q1017 NOSIG
13-10-02 METAR LIMC 021450Z VRB02KT 9999 SCT030 BKN070 19/11 Q1017 NOSIG
13-10-02 METAR LIMC 021520Z VRB01KT 9999 SCT030 BKN070 19/12 Q1017 NOSIG
13-10-02 METAR LIMC 021550Z VRB02KT 9999 FEW030 BKN070 19/12 Q1017 NOSIG
13-10-02 METAR LIMC 021620Z VRB02KT 9999 FEW030 BKN070 19/12 Q1018 NOSIG
13-10-02 METAR LIMC 021650Z VRB01KT 9999 FEW030 BKN070 18/12 Q1018 NOSIG
13-10-02 METAR LIMC 021720Z VRB02KT 9999 FEW030 BKN070 18/13 Q1018 NOSIG
13-10-02 METAR LIMC 021750Z VRB02KT 9999 FEW030 BKN070 18/12 Q1019 NOSIG
13-10-02 METAR LIMC 021820Z 00000KT 9999 FEW030 BKN070 17/13 Q1019 NOSIG
13-10-02 METAR LIMC 021850Z VRB02KT 9999 BKN070 17/12 Q1019 NOSIG
13-10-02 METAR LIMC 021950Z VRB02KT 9999 BKN035 17/13 Q1020 NOSIG
13-10-02 METAR LIMC 022020Z 01003KT 9999 BKN035 16/13 Q1021 NOSIG
13-10-02 METAR LIMC 022050Z 03003KT 330V080 9999 BKN035 17/13 Q1021 NOSIG
13-10-02 METAR LIMC 022120Z VRB04KT 9999 BKN035 17/13 Q1021 NOSIG
13-10-02 METAR LIMC 022150Z 09004KT 020V130 9999 BKN035 17/13 Q1022 NOSIG
13-10-02 METAR LIMC 022220Z 08003KT 040V120 9999 BKN035 17/12 Q1022 NOSIG
13-10-02 METAR LIMC 022250Z 09005KT 060V120 9999 BKN035 17/12 Q1022 NOSIG
13-10-02 METAR LIMC 022320Z 08005KT 060V120 9999 BKN035 16/12 Q1022 NOSIG
13-10-02 METAR LIMC 022350Z 07007KT 020V090 9999 BKN035 16/11 Q1022 NOSIG
13-10-03 METAR LIMC 030020Z 08007KT 040V110 9999 BKN035 16/10 Q1023 NOSIG
13-10-03 METAR LIMC 030050Z 08007KT 9999 BKN035 16/10 Q1023 NOSIG
13-10-03 METAR LIMC 030120Z 09006KT 060V120 9999 BKN030 15/10 Q1023 NOSIG
13-10-03 METAR LIMC 030150Z 08005KT 040V120 9999 BKN030 15/10 Q1023 NOSIG
13-10-03 METAR LIMC 030220Z 09005KT 050V120 9999 BKN030 15/10 Q1023 NOSIG
13-10-03 METAR LIMC 030250Z 07005KT 040V110 9999 BKN030 15/09 Q1023 NOSIG
13-10-03 METAR LIMC 030320Z 03004KT 010V080 9999 BKN030 15/10 Q1023 NOSIG
13-10-03 METAR LIMC 030350Z 03004KT 360V060 9999 BKN030 15/09 Q1023 NOSIG
13-10-03 METAR LIMC 030420Z 02003KT 9999 BKN030 15/09 Q1023 NOSIG
13-10-03 METAR LIMC 030450Z 36004KT 330V030 9999 BKN030 15/10 Q1024 NOSIG
13-10-03 METAR LIMC 030520Z 01004KT 340V060 9999 BKN045 15/09 Q1024 NOSIG
13-10-03 METAR LIMC 030550Z 01003KT 350V090 9999 BKN045 15/10 Q1024 NOSIG
13-10-03 METAR LIMC 030620Z 01004KT 320V060 9999 BKN060 15/10 Q1024 NOSIG
13-10-03 METAR LIMC 030650Z 36004KT 330V030 9999 BKN060 15/10 Q1025 NOSIG
13-10-03 METAR LIMC 030720Z 05004KT 310V080 9999 BKN060 15/10 Q1025 NOSIG
13-10-03 METAR LIMC 030750Z 11005G17KT 070V170 9999 BKN060 15/09 Q1025 NOSIG
13-10-03 METAR LIMC 030820Z 10006KT 060V160 9999 BKN060 15/09 Q1025 NOSIG
13-10-03 METAR LIMC 030850Z 10005KT 070V170 9999 BKN060 16/09 Q1026 NOSIG
13-10-03 METAR LIMC 030920Z 12006KT 090V150 9999 FEW040 BKN060 15/08 Q1026 NOSIG
13-10-03 METAR LIMC 030950Z 10005G16KT 030V160 9999 FEW045 BKN070 15/08 Q1026 NOSIG
13-10-03 METAR LIMC 031020Z 09006KT 050V200 9999 FEW045 BKN070 16/08 Q1026 NOSIG
13-10-03 METAR LIMC 031050Z 08005KT 040V140 9999 SCT045 BKN070 16/08 Q1026 NOSIG
13-10-03 METAR LIMC 031120Z VRB05KT 9999 SCT045 OVC070 16/09 Q1026 NOSIG
13-10-03 METAR LIMC 031150Z NIL
13-10-03 METAR LIMC 031150Z 07005KT 330V110 9999 SCT045 OVC070 16/09 Q1026 NOSIG
13-10-03 METAR LIMC 031220Z 05005KT 020V090 9999 SCT045 OVC070 16/09 Q1026 NOSIG
13-10-03 METAR LIMC 031250Z 05005KT 360V090 9999 SCT050 BKN080 16/09 Q1026 NOSIG
13-10-03 METAR LIMC 031320Z 06005KT 020V090 9999 SCT050 BKN080 16/09 Q1026 NOSIG
13-10-03 METAR LIMC 031350Z NIL
13-10-03 METAR LIMC 031350Z 04005KT 020V080 9999 SCT050 BKN080 16/09 Q1026 NOSIG
13-10-03 METAR LIMC 031420Z 06005KT 030V090 9999 SCT050 BKN080 16/09 Q1025 NOSIG
13-10-03 METAR LIMC 031450Z 07005KT 040V100 9999 SCT050 BKN080 16/09 Q1025 NOSIG
13-10-03 METAR LIMC 031520Z 06004KT 030V090 9999 SCT050 BKN080 16/09 Q1025 NOSIG
13-10-03 METAR LIMC 031550Z 06004KT 030V090 9999 SCT050 BKN080 15/09 Q1025 NOSIG
13-10-03 METAR LIMC 031620Z 06003KT 030V090 9999 SCT050 BKN080 15/10 Q1026 NOSIG
13-10-03 METAR LIMC 031650Z 04003KT 9999 SCT050 BKN080 15/10 Q1026 NOSIG
13-10-03 METAR LIMC 031720Z NIL
13-10-03 METAR LIMC 031750Z 10002KT 9999 SCT050 BKN080 14/10 Q1026 NOSIG
13-10-03 METAR LIMC 031820Z VRB02KT 9999 SCT050 BKN080 15/10 Q1026 NOSIG
13-10-03 METAR LIMC 031850Z 09001KT 9999 SCT050 BKN080 14/11 Q1026 NOSIG
13-10-03 METAR LIMC 031950Z VRB01KT 9999 SCT050 BKN080 14/11 Q1026 NOSIG
13-10-03 METAR LIMC 032020Z VRB02KT 9999 SCT050 BKN080 14/10 Q1027 NOSIG
13-10-03 METAR LIMC 032050Z 10003KT 9999 SCT050 BKN080 14/09 Q1027 NOSIG
13-10-03 METAR LIMC 032120Z 11003KT 080V140 9999 SCT050 BKN080 14/09 Q1027 NOSIG
13-10-03 METAR LIMC 032150Z 09004KT 060V120 9999 SCT050 BKN080 14/09 Q1027 NOSIG
13-10-03 METAR LIMC 032220Z 11003KT 060V140 9999 SCT050 BKN080 14/09 Q1027 NOSIG
13-10-03 METAR LIMC 032250Z VRB01KT 9999 SCT050 BKN080 14/09 Q1027 NOSIG
13-10-03 METAR LIMC 032320Z VRB02KT 9999 SCT050 BKN080 14/09 Q1027 NOSIG
13-10-03 METAR LIMC 032350Z NIL
13-10-03 METAR LIMC 032350Z 04004KT 9999 SCT050 BKN080 13/10 Q1027 NOSIG
13-10-04 METAR LIMC 040020Z 06004KT 9999 SCT035 BKN080 14/09 Q1027 NOSIG
13-10-04 METAR LIMC 040050Z 06004KT 9999 SCT035 BKN080 13/09 Q1027 NOSIG
13-10-04 METAR LIMC 040120Z 06004KT 9999 SCT040 BKN080 13/09 Q1027 NOSIG
13-10-04 METAR LIMC 040150Z VRB02KT 9999 SCT040 BKN080 13/09 Q1027 NOSIG
13-10-04 METAR LIMC 040220Z VRB02KT 9999 SCT040 BKN080 13/09 Q1027 NOSIG
13-10-04 METAR LIMC 040250Z VRB01KT 9999 SCT040 BKN080 13/10 Q1027 NOSIG
13-10-04 METAR LIMC 040320Z 12003KT 9999 SCT040 BKN080 13/08 Q1027 NOSIG
13-10-04 METAR LIMC 040350Z VRB02KT 9999 SCT040 BKN080 13/08 Q1027 NOSIG
13-10-04 METAR LIMC 040420Z VRB02KT 9999 SCT040 BKN070 12/08 Q1027 NOSIG
13-10-04 METAR LIMC 040450Z VRB01KT 9999 SCT035 BKN070 12/09 Q1027 NOSIG
13-10-04 METAR LIMC 040520Z VRB01KT 9999 SCT030 BKN070 12/09 Q1027 NOSIG
13-10-04 METAR LIMC 040550Z 00000KT 9999 SCT030 BKN070 12/09 Q1027 NOSIG
13-10-04 METAR LIMC 040620Z 00000KT 9999 SCT030 BKN070 12/09 Q1027 NOSIG
13-10-04 METAR LIMC 040650Z 00000KT 9999 SCT030 BKN070 13/09 Q1027 NOSIG
13-10-04 METAR LIMC 040720Z VRB02KT 9999 SCT030 BKN070 13/07 Q1027 NOSIG
13-10-04 METAR LIMC 040750Z VRB02KT 9999 SCT030 BKN070 13/07 Q1028 NOSIG
13-10-04 METAR LIMC 040820Z VRB01KT 9999 SCT030 BKN070 14/08 Q1028 NOSIG
13-10-04 METAR LIMC 040850Z VRB03KT 9999 SCT030 BKN070 14/07 Q1028 NOSIG
13-10-04 METAR LIMC 040920Z VRB02KT 9999 SCT030 BKN070 14/07 Q1028 NOSIG
13-10-04 METAR LIMC 040950Z VRB02KT 9999 SCT030 BKN070 14/07 Q1028 NOSIG
13-10-04 METAR LIMC 041020Z VRB02KT 9999 SCT030 BKN070 15/07 Q1028 NOSIG
13-10-04 METAR LIMC 041120Z 04004KT 340V070 9999 SCT030 BKN070 15/08 Q1027 NOSIG
13-10-04 METAR LIMC 041150Z 06003KT 010V120 9999 SCT030 BKN070 15/08 Q1027 NOSIG
13-10-04 METAR LIMC 041220Z VRB05KT 9999 SCT030 BKN070 15/08 Q1027 NOSIG
13-10-04 METAR LIMC 041250Z 10004KT 050V170 9999 SCT030 BKN070 15/08 Q1026 NOSIG
13-10-04 METAR LIMC 041320Z VRB02KT 9999 SCT030 BKN070 15/08 Q1026 NOSIG
13-10-04 METAR LIMC 041350Z VRB03KT 9999 SCT030 BKN070 16/08 Q1026 NOSIG
13-10-04 METAR LIMC 041420Z VRB02KT 9999 SCT030 BKN070 15/08 Q1026 NOSIG
13-10-04 METAR LIMC 041450Z VRB02KT 9999 SCT030 BKN070 15/08 Q1026 NOSIG
13-10-04 METAR LIMC 041520Z VRB02KT 9999 SCT030 BKN070 15/09 Q1026 NOSIG
13-10-04 METAR LIMC 041550Z 03004KT 320V080 9999 SCT030 BKN070 15/08 Q1026 NOSIG
13-10-04 METAR LIMC 041620Z 06003KT 340V110 9999 SCT030 BKN070 15/09 Q1026 NOSIG
13-10-04 METAR LIMC 041650Z 04004KT 320V090 9000 SCT030 BKN070 15/09 Q1026 NOSIG
13-10-04 METAR LIMC 041720Z 07003KT 310V110 9000 SCT030 BKN070 15/09 Q1027 NOSIG
13-10-04 METAR LIMC 041750Z VRB04KT 9000 SCT030 BKN070 14/09 Q1026 NOSIG
13-10-04 METAR LIMC 041820Z 14003KT 100V170 9000 BKN030 BKN070 14/09 Q1026 NOSIG
13-10-04 METAR LIMC 041950Z 22003KT 9999 BKN030 BKN070 13/10 Q1027 BECMG RA
13-10-04 METAR LIMC 042020Z VRB01KT 9999 -RA BKN030 BKN070 13/10 Q1026 NOSIG
13-10-04 METAR LIMC 042050Z VRB01KT 9999 RA BKN030 BKN070 12/11 Q1026 NOSIG
13-10-04 METAR LIMC 042120Z 25003KT 240V300 9999 -RA BKN030 BKN070 12/10 Q1026 RERA NOSIG
13-10-04 METAR LIMC 042150Z 00000KT 9999 -RA BKN030 BKN070 12/10 Q1025 NOSIG
13-10-04 METAR LIMC 042220Z 00000KT 9999 BKN030 BKN070 12/11 Q1025 NOSIG
13-10-04 METAR LIMC 042250Z VRB01KT 9999 BKN030 BKN070 12/11 Q1025 NOSIG
13-10-04 METAR LIMC 042320Z VRB02KT 8000 RA BKN030 BKN070 12/11 Q1025 NOSIG
13-10-04 METAR LIMC 042350Z 00000KT 8000 RA BKN030 BKN070 12/11 Q1025 NOSIG
13-10-05 METAR LIMC 050020Z VRB01KT 8000 RA BKN030 BKN070 12/11 Q1025 NOSIG
13-10-05 METAR LIMC 050050Z 26004KT 7000 RA BKN030 BKN070 11/10 Q1025 NOSIG
13-10-05 METAR LIMC 050150Z VRB01KT 4000 RA BR SCT020 BKN050 11/10 Q1024 NOSIG
13-10-05 METAR LIMC 050220Z 05006KT 4000 RA BR SCT020 BKN050 11/10 Q1022 NOSIG
13-10-05 METAR LIMC 050250Z NIL
13-10-05 METAR LIMC 050250Z VRB02KT 4000 RA BR SCT020 BKN050 11/10 Q1023 NOSIG
13-10-05 METAR LIMC 050320Z 03005KT 4000 -RA BR SCT020 BKN050 11/10 Q1022 RERA NOSIG
13-10-05 METAR LIMC 050350Z VRB02KT 4000 BR SCT020 BKN050 11/10 Q1022 NOSIG
13-10-05 METAR LIMC 050420Z NIL
13-10-05 METAR LIMC 050420Z VRB01KT 4000 BR SCT020 BKN050 11/10 Q1022 NOSIG
13-10-05 METAR LIMC 050520Z 19005KT 2500 BR SCT020 BKN050 11/10 Q1023 NOSIG
13-10-05 METAR LIMC 050550Z 21003KT 2000 BR SCT020 BKN050 11/10 Q1023 NOSIG
13-10-05 METAR LIMC 050620Z VRB01KT 2000 BR BKN015 11/10 Q1023 NOSIG
13-10-05 METAR LIMC 050650Z 31003KT 2000 BR BKN015 11/10 Q1023 NOSIG
13-10-05 METAR LIMC 050720Z 33002KT 2500 BR BKN020 12/10 Q1023 NOSIG
13-10-05 METAR LIMC 050750Z VRB02KT 2500 BR BKN020 12/10 Q1023 NOSIG
13-10-05 METAR LIMC 050820Z 27003KT 240V310 2500 BR BKN020 12/10 Q1023 NOSIG
13-10-05 METAR LIMC 050850Z 25004KT 2500 BR BKN020 12/11 Q1023 NOSIG
13-10-05 METAR LIMC 050920Z 26004KT 230V290 2500 BR BKN020 13/11 Q1023 NOSIG
13-10-05 METAR LIMC 050950Z 24005KT 2500 BR BKN020 13/11 Q1023 NOSIG
13-10-05 METAR LIMC 051020Z NIL
13-10-05 METAR LIMC 051020Z 22003KT 150V290 2500 BR BKN020 BKN050 14/11 Q1022 NOSIG
13-10-05 METAR LIMC 051050Z 18004KT 140V230 3000 BR BKN020 BKN050 14/11 Q1022 NOSIG
13-10-05 METAR LIMC 051050Z NIL
13-10-05 METAR LIMC 051120Z 20004KT 170V250 3000 BR SCT015 BKN040 14/11 Q1022 NOSIG
13-10-05 METAR LIMC 051150Z VRB02KT 3000 BR BKN015 BKN040 14/11 Q1022 NOSIG
13-10-05 METAR LIMC 051220Z VRB03KT 3500 BR BKN015 BKN040 15/11 Q1022 NOSIG
13-10-05 METAR LIMC 051250Z 15004KT 080V170 4000 BR BKN013 BKN040 15/11 Q1021 NOSIG
13-10-05 METAR LIMC 051320Z 16005KT 5000 BR BKN013 BKN040 15/11 Q1022 NOSIG
13-10-05 METAR LIMC 051350Z 18004KT 150V210 5000 BR BKN010 BKN040 14/11 Q1022 NOSIG
13-10-05 METAR LIMC 051420Z 16003KT 5000 BR SCT010 BKN040 OVC060 15/11 Q1022 NOSIG
13-10-05 METAR LIMC 051450Z VRB02KT 6000 FEW010 SCT040 BKN070 15/11 Q1021 NOSIG
13-10-05 METAR LIMC 051520Z 13003KT 100V170 6000 SCT015 BKN040 BKN070 15/11 Q1021
13-10-05 METAR LIMC 051550Z VRB02KT 6000 BKN015 OVC060 15/11 Q1021 NOSIG
13-10-05 METAR LIMC 051620Z 17003KT 6000 SCT015 OVC060 14/11 Q1021 NOSIG
13-10-05 METAR LIMC 051650Z 16003KT 6000 BKN070 14/11 Q1021 NOSIG
13-10-05 METAR LIMC 051720Z 18004KT 6000 SCT015 BKN070 14/11 Q1021 NOSIG
13-10-05 METAR LIMC 051750Z 17003KT 6000 SCT015 OVC060 13/11 Q1021 NOSIG
13-10-05 METAR LIMC 051820Z VRB01KT 6000 SCT012 OVC060 13/11 Q1021 NOSIG
13-10-05 METAR LIMC 051850Z 00000KT 6000 SCT025 OVC060 13/11 Q1021 NOSIG
13-10-05 METAR LIMC 051950Z VRB01KT 6000 SCT025 OVC060 12/11 Q1021 NOSIG
13-10-05 METAR LIMC 052020Z 20003KT 170V240 6000 FEW025 11/10 Q1021 NOSIG
13-10-05 METAR LIMC 052050Z 13002KT 6000 FEW025 11/10 Q1021 NOSIG
13-10-05 METAR LIMC 052120Z 15002KT 6000 FEW025 10/10 Q1021 NOSIG
13-10-05 METAR LIMC 052150Z 18002KT 5000 BCFG FEW025 10/10 Q1021 NOSIG
13-10-05 METAR LIMC 052220Z VRB02KT 3000 BCFG FEW025 11/11 Q1021 NOSIG
13-10-05 METAR LIMC 052250Z VRB01KT 3000 BCFG FEW025 11/11 Q1021 NOSIG
13-10-05 METAR LIMC 052320Z 00000KT 3000 BR FEW020 12/11 Q1021 NOSIG
13-10-05 METAR LIMC 052350Z 10002KT 3000 BR NSC 12/11 Q1021 NOSIG
13-10-06 METAR LIMC 060020Z NIL
13-10-06 METAR LIMC 060020Z 08003KT 3000 BR FEW020 12/11 Q1021 NOSIG
13-10-06 METAR LIMC 060050Z VRB01KT 3000 BR FEW020 12/11 Q1021 NOSIG
13-10-06 METAR LIMC 060120Z 00000KT 3000 BR FEW020 12/11 Q1021 NOSIG
13-10-06 METAR LIMC 060150Z 00000KT 3000 BR SCT015 11/11 Q1021 NOSIG
13-10-06 METAR LIMC 060220Z 12002KT 3000 R35L/0450V1500D BR SCT015 10/10 Q1021 NOSIG
13-10-06 METAR LIMC 060250Z VRB01KT 2000 R35L/0550V0700N BCFG SCT015 09/09 Q1021
13-10-06 METAR LIMC 060320Z VRB02KT 1500 BCFG SCT015 09/09 Q1021 NOSIG
13-10-06 METAR LIMC 060350Z 00000KT 1500 BCFG SCT010 09/09 Q1021 NOSIG
13-10-06 METAR LIMC 060420Z 00000KT 1500 BCFG SCT008 10/10 Q1021 NOSIG
13-10-06 METAR LIMC 060450Z VRB01KT 1200 0600S R35L///// R35R///// BCFG SCT006 BKN030 11/10 Q1021 NOSIG
13-10-06 METAR LIMC 060520Z 33003KT 2500 BR BKN040 11/11 Q1021 NOSIG
13-10-06 METAR LIMC 060550Z VRB02KT 1500 0800W BCFG BKN040 11/11 Q1021 NOSIG
13-10-06 METAR LIMC 060620Z VRB02KT 1400 R35L///// R35R///// BR SCT015 BKN040 11/11 Q1021 NOSIG
13-10-06 METAR LIMC 060650Z VRB01KT 1600 BR SCT015 BKN040 BKN075 12/11 Q1021 NOSIG
13-10-06 METAR LIMC 060720Z VRB01KT 1600 BR SCT015 BKN040 BKN075 12/11 Q1021 NOSIG
13-10-06 METAR LIMC 060750Z VRB01KT 1600 BR SCT012 BKN040 12/12 Q1022 NOSIG
13-10-06 METAR LIMC 060850Z 19003KT 150V230 1600 BR SCT004 BKN012 BKN030 13/12 Q1022
13-10-06 METAR LIMC 060920Z NIL
13-10-06 METAR LIMC 060950Z NIL
13-10-06 METAR LIMC 061020Z NIL
13-10-06 METAR LIMC 061050Z 00000KT 2900 -RA BR FEW015 BKN030 OVC060 14/12 Q1022
13-10-06 METAR LIMC 061120Z VRB02KT 3000 -RA BR FEW015 BKN030 OVC060 14/13 Q1022
13-10-06 METAR LIMC 061150Z 04003KT 330V090 3000 -RA BR FEW015 BKN030 OVC060 14/13 Q1022 NOSIG
13-10-06 METAR LIMC 061220Z 32004KT 3000 -RA BR FEW015 BKN030 OVC060 14/13 Q1022
13-10-06 METAR LIMC 061250Z 33006KT 3000 -RA BR FEW015 SCT030 BKN060 15/13 Q1021
13-10-06 METAR LIMC 061320Z 33006KT 4000 BR FEW010 SCT040 BKN070 16/13 Q1021 NOSIG
13-10-06 METAR LIMC 061350Z 34005KT 300V020 5000 BR FEW010 SCT040 BKN070 16/13 Q1021
13-10-06 METAR LIMC 061420Z 03003KT 7000 FEW010 SCT040 BKN070 15/13 Q1021 NOSIG
13-10-06 METAR LIMC 061450Z VRB02KT 4000 RA BR FEW010 SCT040 BKN070 15/13 Q1021
13-10-06 METAR LIMC 061520Z 33005KT 4000 DZ BR FEW010 BKN040 15/14 Q1021 NOSIG
13-10-06 METAR LIMC 061550Z 32005KT 4000 DZ BR FEW010 BKN040 14/13 Q1021 NOSIG
13-10-06 METAR LIMC 061620Z 33006KT 4000 RA BR SCT010 BKN040 14/13 Q1021 REDZ NOSIG
13-10-06 METAR LIMC 061650Z 33006KT 4000 RA BR BKN030 OVC070 14/13 Q1021 NOSIG
13-10-06 METAR LIMC 061720Z 36004KT 7000 -RA BKN030 OVC070 14/13 Q1022 RERA NOSIG
13-10-06 METAR LIMC 061750Z 00000KT 9999 BKN030 OVC070 14/13 Q1022 NOSIG
13-10-06 METAR LIMC 061820Z 33004KT 310V020 9999 BKN030 OVC070 14/13 Q1022 NOSIG
13-10-06 METAR LIMC 061850Z VRB02KT 9999 SCT030 BKN070 14/13 Q1022 NOSIG
13-10-06 METAR LIMC 061950Z 00000KT 9999 SCT030 BKN070 13/13 Q1022 NOSIG
13-10-06 METAR LIMC 062020Z 00000KT 9999 -RA SCT030 BKN070 13/13 Q1022 NOSIG
13-10-06 METAR LIMC 062050Z VRB01KT 9999 -RA SCT030 BKN070 13/13 Q1022 NOSIG
13-10-06 METAR LIMC 062150Z NIL
13-10-06 METAR LIMC 062150Z VRB01KT 9999 SCT030 BKN070 13/13 Q1022 NOSIG
13-10-06 METAR LIMC 062220Z VRB02KT 9999 SCT030 BKN070 14/13 Q1022 NOSIG
13-10-06 METAR LIMC 062350Z VRB01KT 9999 SCT030 BKN070 13/13 Q1022 NOSIG
13-10-07 METAR LIMC 070020Z VRB02KT 9999 SCT030 BKN070 14/13 Q1022 NOSIG
13-10-07 METAR LIMC 070050Z VRB01KT 9999 SCT030 BKN070 14/13 Q1022 NOSIG
13-10-07 METAR LIMC 070120Z VRB01KT 9999 SCT030 BKN070 13/13 Q1022 NOSIG
13-10-07 METAR LIMC 070150Z 00000KT 9999 SCT030 BKN070 14/13 Q1022 NOSIG
13-10-07 METAR LIMC 070220Z 00000KT 9999 SCT030 BKN070 14/13 Q1022 NOSIG
13-10-07 METAR LIMC 070250Z VRB02KT 9999 SCT030 BKN070 14/14 Q1022 NOSIG
13-10-07 METAR LIMC 070350Z 27005KT 9999 BKN030 BKN060 14/14 Q1022 NOSIG
13-10-07 METAR LIMC 070520Z 30003KT 9999 DZ SCT010 BKN030 14/14 Q1022 NOSIG
13-10-07 METAR LIMC 070550Z 31003KT 9999 DZ BKN030 BKN070 14/14 Q1022 NOSIG
13-10-07 METAR LIMC 070650Z VRB02KT 9999 BKN030 BKN070 15/14 Q1022 NOSIG
13-10-07 METAR LIMC 070750Z VRB01KT 9999 FEW010 BKN030 BKN070 16/14 Q1022 NOSIG
13-10-07 METAR LIMC 070850Z VRB01KT 9999 FEW010 BKN030 BKN070 16/14 Q1023 NOSIG
13-10-07 METAR LIMC 070920Z VRB02KT 9999 FEW010 BKN030 BKN070 16/15 Q1023 NOSIG
13-10-07 METAR LIMC 070950Z 23004KT 9999 FEW010 BKN030 BKN070 16/15 Q1023 NOSIG
13-10-07 METAR LIMC 071150Z VRB02KT 9999 SCT020 BKN040 17/15 Q1023 NOSIG
13-10-07 METAR LIMC 071220Z 18003KT 140V240 9999 SCT015 BKN040 17/15 Q1023 NOSIG
13-10-07 METAR LIMC 071250Z 16002KT 8000 RA SCT015 BKN040 16/15 Q1023 NOSIG
13-10-07 METAR LIMC 071320Z 17003KT 9999 SCT015 BKN040 17/15 Q1023 RERA NOSIG
13-10-07 METAR LIMC 071350Z 16009KT 9999 RA SCT010 BKN040 15/14 Q1023 NOSIG
13-10-07 METAR LIMC 071450Z 16005KT 8000 RA SCT010 BKN060 15/14 Q1023 NOSIG
13-10-07 METAR LIMC 071550Z 16004KT 5000 RA SCT010 BKN060 14/13 Q1023 NOSIG
13-10-07 METAR LIMC 071620Z VRB02KT 4000 RA SCT015 BKN060 14/13 Q1023 NOSIG
13-10-07 METAR LIMC 071650Z VRB02KT 4000 RA SCT015 BKN060 14/13 Q1023 NOSIG
13-10-07 METAR LIMC 071750Z 03004KT 340V080 8000 RA SCT015 BKN060 14/13 Q1023 NOSIG
13-10-07 METAR LIMC 071820Z 34005KT 8000 RA SCT015 BKN060 14/13 Q1024 NOSIG
13-10-07 METAR LIMC 072050Z 34005KT 9999 BKN070 14/13 Q1024 NOSIG
13-10-07 METAR LIMC 072120Z 34004KT 9999 BKN070 14/13 Q1024 NOSIG
13-10-07 METAR LIMC 072150Z 34003KT 320V020 9999 BKN070 14/13 Q1024 NOSIG
13-10-07 METAR LIMC 072220Z 34004KT 9999 BKN070 14/13 Q1024 NOSIG
13-10-07 METAR LIMC 072250Z 34003KT 9999 BKN070 13/13 Q1024 NOSIG
13-10-07 METAR LIMC 072320Z 32002KT 9999 BKN070 13/13 Q1024 NOSIG
13-10-07 METAR LIMC 072350Z VRB01KT 9999 BKN080 13/12 Q1024 NOSIG
13-10-08 METAR LIMC 080020Z VRB02KT 9999 BKN080 13/12 Q1024 NOSIG
13-10-08 METAR LIMC 080050Z VRB02KT 9999 BKN080 13/12 Q1024 NOSIG
13-10-08 METAR LIMC 080220Z 00000KT 9999 BKN080 13/12 Q1024 NOSIG
13-10-08 METAR LIMC 080250Z 00000KT 9999 BKN080 13/12 Q1024 NOSIG
13-10-08 METAR LIMC 080320Z VRB01KT 9999 BKN080 13/12 Q1024 NOSIG
13-10-08 METAR LIMC 080350Z VRB01KT 9999 BKN060 13/12 Q1024 NOSIG
13-10-08 METAR LIMC 080420Z VRB02KT 9999 SCT030 BKN060 13/12 Q1024 NOSIG
13-10-08 METAR LIMC 080520Z 12002KT 9999 R35L/1100V1500N R35R///// BCFG BKN050 12/12 Q1024 NOSIG
13-10-08 METAR LIMC 080550Z 14005KT 8000 BKN050 13/12 Q1024 NOSIG
13-10-08 METAR LIMC 080620Z 16006KT 8000 BKN050 13/11 Q1024 NOSIG
13-10-08 METAR LIMC 080650Z 16004KT 8000 BKN050 13/11 Q1024 NOSIG
13-10-08 METAR LIMC 080720Z 17003KT 8000 BKN050 13/12 Q1024 NOSIG
13-10-08 METAR LIMC 080850Z 21004KT 180V240 8000 BKN050 14/11 Q1024 NOSIG
13-10-08 METAR LIMC 080920Z 15003KT 110V170 8000 BKN050 15/11 Q1024 NOSIG
13-10-08 METAR LIMC 080950Z 14004KT 110V170 8000 FEW030 BKN050 15/11 Q1024 NOSIG
13-10-08 METAR LIMC 081050Z NIL
13-10-08 METAR LIMC 081050Z 21003KT 140V280 8000 FEW030 BKN050 15/11 Q1024 NOSIG
13-10-08 METAR LIMC 081120Z 19003KT 130V250 8000 FEW030 BKN050 16/12 Q1024 NOSIG
13-10-08 METAR LIMC 081150Z 22005KT 190V250 9999 FEW030 BKN050 16/12 Q1023 NOSIG
13-10-08 METAR LIMC 081220Z 22004KT 170V260 9999 SCT020 BKN050 16/12 Q1023 NOSIG
13-10-08 METAR LIMC 081250Z 22005KT 170V260 9999 SCT020 BKN060 16/12 Q1023 NOSIG
13-10-08 METAR LIMC 081320Z 22004KT 180V290 9999 SCT020 BKN060 17/12 Q1023 NOSIG
13-10-08 METAR LIMC 081350Z 22004KT 190V280 9999 BKN070 17/12 Q1022 NOSIG
13-10-08 METAR LIMC 081420Z 25003KT 170V320 9999 BKN070 17/12 Q1022 NOSIG
13-10-08 METAR LIMC 081450Z 22004KT 200V270 9999 SCT070 18/12 Q1022 NOSIG
13-10-08 METAR LIMC 081520Z 19003KT 9999 BKN080 17/13 Q1022 NOSIG
13-10-08 METAR LIMC 081550Z 21003KT 9999 BKN080 16/13 Q1022 NOSIG
13-10-08 METAR LIMC 081620Z 19003KT 9999 BKN080 16/13 Q1022 NOSIG
13-10-08 METAR LIMC 081650Z 19003KT 9999 BKN080 15/13 Q1022 NOSIG
13-10-08 METAR LIMC 081720Z VRB01KT 9999 SCT080 15/12 Q1022 NOSIG
13-10-08 METAR LIMC 081750Z 22002KT 9999 SCT080 14/12 Q1022 NOSIG
13-10-08 METAR LIMC 081820Z VRB02KT 9999 SCT080 13/12 Q1022 NOSIG
13-10-08 METAR LIMC 081850Z VRB01KT 9999 SCT080 14/12 Q1022 NOSIG
13-10-08 METAR LIMC 081920Z VRB02KT 9999 SCT080 13/12 Q1023 NOSIG
13-10-08 METAR LIMC 081950Z VRB02KT 9999 SCT080 12/11 Q1023 NOSIG
13-10-08 METAR LIMC 082020Z VRB01KT 9999 BCFG SCT080 11/10 Q1023 NOSIG
13-10-08 METAR LIMC 082050Z VRB02KT 9999 R35L///// R35R/1100V1500N BCFG SCT080 13/12 Q1023 NOSIG
13-10-08 METAR LIMC 082120Z 00000KT 9999 BCFG SCT080 11/10 Q1023 NOSIG
13-10-08 METAR LIMC 082150Z VRB02KT 9999 R17L///// R35R/0900V1500N BCFG SCT080 10/09 Q1022 NOSIG
13-10-08 METAR LIMC 082220Z 00000KT 9999 R17L/0400V1500D R35R/1000V1500N BCFG SCT080 10/09 Q1022 NOSIG
13-10-08 METAR LIMC 082250Z 00000KT 9999 R17L/0700V1500U R35R///// BCFG SCT080 10/10
13-10-08 METAR LIMC 082320Z 33003KT 8000 BCFG SCT080 09/09 Q1022 NOSIG
13-10-08 METAR LIMC 082350Z 04002KT 6000 BCFG SCT080 09/09 Q1022 NOSIG