
12-07-25 LEBL 250000Z 33004KT CAVOK 22/16 Q1016 NOSIG
12-07-25 LEBL 250030Z 31005KT CAVOK 22/15 Q1016 NOSIG
12-07-25 LEBL 250100Z 32005KT CAVOK 22/15 Q1015 NOSIG
12-07-25 LEBL 250130Z 32006KT CAVOK 22/15 Q1015 NOSIG
12-07-25 LEBL 250200Z 32006KT CAVOK 21/16 Q1015 NOSIG
12-07-25 LEBL 250230Z 31005KT CAVOK 21/16 Q1015 NOSIG
12-07-25 LEBL 250300Z 32005KT CAVOK 21/16 Q1015 NOSIG
12-07-25 LEBL 250330Z 32007KT CAVOK 21/16 Q1015 NOSIG
12-07-25 LEBL 250400Z 33007KT CAVOK 21/15 Q1015 NOSIG
12-07-25 LEBL 250430Z 33007KT CAVOK 21/14 Q1015 NOSIG
12-07-25 LEBL 250500Z 32006KT CAVOK 21/14 Q1015 NOSIG
12-07-25 LEBL 250530Z 32006KT CAVOK 21/13 Q1015 NOSIG
12-07-25 LEBL 250600Z 33005KT 250V010 CAVOK 22/13 Q1015 NOSIG
12-07-25 LEBL NIL
12-07-25 LEBL 250630Z 32005KT 290V010 CAVOK 23/14 Q1015 NOSIG
12-07-25 LEBL 250700Z 31003KT 280V350 CAVOK 24/16 Q1015 NOSIG
12-07-25 LEBL 250730Z 28003KT 220V350 CAVOK 25/19 Q1015 NOSIG
12-07-25 LEBL 250800Z 20007KT 160V240 CAVOK 26/19 Q1015 NOSIG
12-07-25 LEBL 250900Z NIL
12-07-25 LEBL 250930Z 21011KT 170V240 9999 FEW025 27/20 Q1015 NOSIG
12-07-25 LEBL 251000Z 20010KT 9999 FEW025 27/20 Q1015 NOSIG
12-07-25 LEBL 251030Z 20013KT 9999 FEW025 27/20 Q1015 NOSIG
12-07-25 LEBL 251100Z 21014KT 180V240 9999 FEW025 28/19 Q1015 NOSIG
12-07-25 LEBL 251130Z 22016KT 9999 FEW025 28/20 Q1015 NOSIG
12-07-25 LEBL 251200Z 22015KT 9999 FEW025 28/20 Q1015 NOSIG
12-07-25 LEBL 251230Z 21016KT 9999 FEW025 28/19 Q1015 NOSIG
12-07-25 LEBL 251300Z 22016KT 190V250 9999 FEW025 28/19 Q1015 NOSIG
12-07-25 LEBL 251330Z 21015KT 9999 FEW025 28/20 Q1015 NOSIG
12-07-25 LEBL 251400Z 21016KT 9999 FEW025 28/20 Q1015 NOSIG
12-07-25 LEBL 251430Z 22015KT 9999 FEW025 28/20 Q1015 NOSIG
12-07-25 LEBL 251500Z 21016KT 9999 FEW030 28/20 Q1015 NOSIG
12-07-25 LEBL 251530Z 21016KT 9999 FEW030 28/20 Q1015 NOSIG
12-07-25 LEBL 251600Z 23015KT 9999 FEW030 27/21 Q1014 NOSIG
12-07-25 LEBL 251630Z 22014KT 9999 FEW030 27/20 Q1014 NOSIG
12-07-25 LEBL 251700Z 23014KT 9999 FEW030 27/20 Q1014 NOSIG
12-07-25 LEBL 251730Z 23013KT 9999 FEW030 27/20 Q1015 NOSIG
12-07-25 LEBL 251800Z 23012KT 210V270 9999 FEW030 26/20 Q1015 NOSIG
12-07-25 LEBL 252030Z 23008KT CAVOK 25/20 Q1016 NOSIG
12-07-25 LEBL 252100Z 23008KT CAVOK 25/20 Q1016 NOSIG
12-07-25 LEBL 252130Z 22006KT CAVOK 25/20 Q1016 NOSIG
12-07-25 LEBL 252200Z 23006KT CAVOK 24/20 Q1016 NOSIG
12-07-25 LEBL 252230Z 26003KT CAVOK 24/20 Q1016 NOSIG
12-07-25 LEBL 252300Z 25006KT CAVOK 23/20 Q1016 NOSIG
12-07-25 LEBL 252330Z 25004KT CAVOK 23/20 Q1016 NOSIG
12-07-26 LEBL 260000Z 27003KT 230V310 CAVOK 24/20 Q1016 NOSIG
12-07-26 LEBL 260030Z 32004KT CAVOK 23/20 Q1016 NOSIG
12-07-26 LEBL 260100Z 32003KT CAVOK 23/18 Q1016 NOSIG
12-07-26 LEBL 260130Z 30005KT CAVOK 23/18 Q1015 NOSIG
12-07-26 LEBL 260200Z 32006KT CAVOK 23/18 Q1015 NOSIG
12-07-26 LEBL 260230Z 32006KT CAVOK 23/19 Q1015 NOSIG
12-07-26 LEBL 260300Z NIL
12-07-26 LEBL 260300Z 30006KT CAVOK 23/19 Q1015 NOSIG
12-07-26 LEBL 260330Z 30006KT CAVOK 22/19 Q1015 NOSIG
12-07-26 LEBL 260400Z 33003KT 270V010 CAVOK 22/19 Q1015 NOSIG
12-07-26 LEBL 260430Z 30005KT CAVOK 22/18 Q1016 NOSIG
12-07-26 LEBL 260500Z 33004KT CAVOK 22/19 Q1015 NOSIG
12-07-26 LEBL 260530Z 32005KT 280V350 CAVOK 22/18 Q1015 NOSIG
12-07-26 LEBL 260600Z 35005KT 280V050 CAVOK 23/16 Q1015 NOSIG
12-07-26 LEBL 260630Z 29006KT 230V320 CAVOK 24/16 Q1016 NOSIG
12-07-26 LEBL 260700Z 22004KT 170V280 CAVOK 25/20 Q1016 NOSIG
12-07-26 LEBL 260730Z 19008KT CAVOK 26/21 Q1016 NOSIG
12-07-26 LEBL 260800Z 21005KT CAVOK 26/20 Q1016 NOSIG
12-07-26 LEBL 260830Z 21002KT CAVOK 28/20 Q1016 NOSIG
12-07-26 LEBL 260900Z 21003KT 160V280 CAVOK 28/18 Q1016 NOSIG
12-07-26 LEBL 260930Z 17008KT 130V200 CAVOK 27/21 Q1016 NOSIG
12-07-26 LEBL 261000Z 16008KT 130V190 CAVOK 26/22 Q1016 NOSIG
12-07-26 LEBL 261030Z 16009KT 130V190 CAVOK 27/22 Q1016 NOSIG
12-07-26 LEBL 261100Z 14007KT 110V170 CAVOK 27/19 Q1016 NOSIG
12-07-26 LEBL 261130Z 17007KT 130V210 CAVOK 28/18 Q1016 NOSIG
12-07-26 LEBL 261200Z 14007KT 110V170 CAVOK 28/16 Q1016 NOSIG
12-07-26 LEBL 261230Z 13010KT CAVOK 28/18 Q1016 NOSIG
12-07-26 LEBL 261300Z 14008KT 110V170 CAVOK 27/20 Q1016 NOSIG
12-07-26 LEBL 261330Z 14007KT 110V190 CAVOK 27/20 Q1016 NOSIG
12-07-26 LEBL 261400Z 16006KT 120V200 CAVOK 28/19 Q1016 NOSIG
12-07-26 LEBL 261430Z 13007KT 100V170 CAVOK 28/19 Q1016 NOSIG
12-07-26 LEBL 261500Z 15005KT 110V200 9999 FEW025 29/19 Q1016 NOSIG
12-07-26 LEBL 261530Z 16004KT 130V200 9999 FEW025 27/19 Q1016 NOSIG
12-07-26 LEBL 261600Z 07009KT 9999 FEW025 28/19 Q1014 NOSIG
12-07-26 LEBL NIL
12-07-26 LEBL 261630Z 08011KT 9999 FEW025 28/19 Q1014 NOSIG
12-07-26 LEBL 261700Z 09008KT 9999 FEW025 28/20 Q1014 NOSIG
12-07-26 LEBL 261730Z 12006KT 080V190 9999 FEW025 27/20 Q1015 NOSIG
12-07-26 LEBL 261800Z 09004KT 060V120 9999 FEW025 27/20 Q1015 NOSIG
12-07-26 LEBL 261830Z 07006KT 350V100 9999 FEW025 26/20 Q1015 NOSIG
12-07-26 LEBL 261900Z 06010KT 9999 FEW025 26/20 Q1014 NOSIG
12-07-26 LEBL 261930Z 08008KT 9999 FEW025 26/20 Q1014 NOSIG
12-07-26 LEBL 262000Z 06007KT 020V090 9999 FEW025 26/21 Q1015 NOSIG
12-07-26 LEBL 262030Z 03004KT 350V060 9999 FEW025 26/20 Q1016 NOSIG
12-07-26 LEBL 262100Z 12003KT 080V140 9999 FEW025 26/20 Q1016 NOSIG
12-07-26 LEBL 262130Z 05008KT 9999 FEW025 26/20 Q1015 NOSIG
12-07-26 LEBL 262200Z 05008KT 9999 FEW025 26/20 Q1015 NOSIG
12-07-26 LEBL 262230Z 03009KT 340V060 9999 FEW025 26/19 Q1014 NOSIG
12-07-26 LEBL 262300Z 03007KT 360V060 9999 FEW025 26/18 Q1014 NOSIG
12-07-26 LEBL 262330Z 05005KT 020V090 9999 FEW025 26/17 Q1014 NOSIG
12-07-27 LEBL 270000Z 01004KT 9999 FEW025 26/16 Q1014 NOSIG
12-07-27 LEBL 270030Z NIL
12-07-27 LEBL 270100Z NIL
12-07-27 LEBL 270130Z 34007KT 9999 FEW025 26/14 Q1013 NOSIG
12-07-27 LEBL 270200Z 36004KT 9999 FEW025 25/14 Q1013 NOSIG
12-07-27 LEBL 270230Z 35006KT 9999 FEW025 25/14 Q1013 NOSIG
12-07-27 LEBL 270300Z 00000KT 9999 FEW025 25/13 Q1013 NOSIG
12-07-27 LEBL 270330Z NIL
12-07-27 LEBL NIL
12-07-27 LEBL 270400Z 01004KT 9999 FEW025 24/13 Q1013 NOSIG
12-07-27 LEBL 270600Z 06008KT 9999 FEW025 24/16 Q1014 NOSIG
12-07-27 LEBL 270630Z 05011KT 9999 FEW010 25/22 Q1014 NOSIG
12-07-27 LEBL 270700Z 06011KT 9999 SCT010 25/22 Q1014 NOSIG
12-07-27 LEBL 270730Z 04012KT 010V070 9999 SCT010 25/22 Q1014 NOSIG
12-07-27 LEBL 270800Z 04013KT 9999 FEW010 26/22 Q1014 NOSIG
12-07-27 LEBL 270830Z 05011KT 9999 FEW010 26/21 Q1014 NOSIG
12-07-27 LEBL 270900Z 07010KT CAVOK 27/21 Q1014 NOSIG
12-07-27 LEBL 270930Z 07010KT 030V100 CAVOK 27/22 Q1014 NOSIG
12-07-27 LEBL 271000Z 06010KT 040V100 8000 SHRA FEW020TCU SCT040 26/23 Q1014 NOSIG
12-07-27 LEBL 271000Z 06010KT 040V100 9999 FEW020 SCT040 26/22 Q1014 NOSIG
12-07-27 LEBL 271020Z 06011KT 9999 FEW020TCU SCT040 26/22 Q1014 RESHRA NOSIG
12-07-27 LEBL 271030Z 05011KT 020V080 9999 FEW020TCU SCT040 27/23 Q1014 NOSIG
12-07-27 LEBL 271100Z 05013KT 9999 FEW020TCU SCT040 28/21 Q1013 NOSIG
12-07-27 LEBL 271130Z 07014KT 9999 FEW030 29/19 Q1012 NOSIG
12-07-27 LEBL 271200Z 06014KT 9999 FEW030 28/20 Q1012 NOSIG
12-07-27 LEBL 271230Z 07015KT 9999 FEW030 28/21 Q1012 NOSIG
12-07-27 LEBL 271300Z 07013KT 9999 FEW030 28/21 Q1012 NOSIG
12-07-27 LEBL 271330Z 08015KT 9999 FEW030 28/21 Q1012 NOSIG
12-07-27 LEBL 271400Z 07014KT 9999 FEW030 28/22 Q1012 NOSIG
12-07-27 LEBL 271430Z 08012KT 050V110 9999 FEW030 28/22 Q1012 NOSIG
12-07-27 LEBL 271500Z 06012KT 9999 FEW030 28/22 Q1011 NOSIG
12-07-27 LEBL 271530Z 07012KT 040V110 9999 FEW030 28/22 Q1011 NOSIG
12-07-27 LEBL 271600Z 07010KT 040V100 9999 FEW030 27/22 Q1011 NOSIG
12-07-27 LEBL 271630Z 07010KT 040V100 CAVOK 27/22 Q1010 NOSIG
12-07-27 LEBL 271700Z 07008KT CAVOK 27/22 Q1010 NOSIG
12-07-27 LEBL 271730Z 07009KT CAVOK 27/21 Q1010 NOSIG
12-07-27 LEBL 271800Z 06010KT CAVOK 27/22 Q1010 NOSIG
12-07-27 LEBL 271830Z 07011KT CAVOK 26/22 Q1010 NOSIG
12-07-27 LEBL 271900Z 06009KT 020V080 CAVOK 26/21 Q1010 NOSIG
12-07-27 LEBL 271930Z 05007KT CAVOK 26/21 Q1011 NOSIG
12-07-27 LEBL 272000Z 06006KT CAVOK 26/22 Q1011 NOSIG
12-07-27 LEBL 272030Z 09007KT CAVOK 26/22 Q1011 NOSIG
12-07-27 LEBL 272100Z 04008KT 9999 FEW025 25/22 Q1012 NOSIG
12-07-27 LEBL 272130Z 06008KT 9999 FEW025 25/22 Q1011 NOSIG
12-07-27 LEBL 272200Z 06010KT 9999 FEW025 25/22 Q1011 NOSIG
12-07-27 LEBL 272230Z 05010KT 9999 FEW025 26/22 Q1011 NOSIG
12-07-27 LEBL 272300Z 04010KT 9999 FEW025 25/22 Q1011 NOSIG
12-07-27 LEBL 272330Z 03006KT 9999 FEW025 25/21 Q1011 NOSIG
12-07-28 LEBL 280000Z 08005KT 9999 FEW025 25/22 Q1011 NOSIG
12-07-28 LEBL 280030Z 00000KT 9999 FEW025 25/22 Q1012 NOSIG
12-07-28 LEBL 280100Z 29005KT 260V330 9999 FEW025 24/21 Q1011 NOSIG
12-07-28 LEBL 280130Z 00000KT 9999 FEW025 25/20 Q1011 NOSIG
12-07-28 LEBL 280200Z 25003KT 9999 FEW025 23/20 Q1011 NOSIG
12-07-28 LEBL 280230Z 00000KT 9999 FEW025 25/21 Q1011 NOSIG
12-07-28 LEBL 280300Z 11004KT 9999 FEW025 25/21 Q1010 NOSIG
12-07-28 LEBL 280330Z 10003KT 9999 FEW025 24/21 Q1010 NOSIG
12-07-28 LEBL 280400Z 29002KT 9999 FEW025 23/19 Q1010 NOSIG
12-07-28 LEBL 280430Z 30005KT 9999 FEW025 23/19 Q1011 NOSIG
12-07-28 LEBL 280500Z 32003KT 9999 FEW025 23/20 Q1011 NOSIG
12-07-28 LEBL 280530Z 32007KT 260V350 9999 FEW025 23/20 Q1011 NOSIG
12-07-28 LEBL 280600Z 31005KT 260V350 CAVOK 24/20 Q1011 NOSIG
12-07-28 LEBL 280630Z 31004KT 290V350 CAVOK 25/20 Q1012 NOSIG
12-07-28 LEBL 280700Z 31003KT 260V030 CAVOK 26/20 Q1012 NOSIG
12-07-28 LEBL 280730Z 30003KT CAVOK 26/19 Q1012 NOSIG
12-07-28 LEBL 280800Z 28003KT CAVOK 27/22 Q1012 NOSIG
12-07-28 LEBL 280830Z NIL
12-07-28 LEBL 280900Z 22008KT 200V260 CAVOK 28/22 Q1012 NOSIG
12-07-28 LEBL 280930Z 21008KT CAVOK 28/21 Q1012 NOSIG
12-07-28 LEBL 281000Z 21009KT 160V220 CAVOK 29/18 Q1012 NOSIG
12-07-28 LEBL 281030Z 21011KT 170V230 CAVOK 29/17 Q1012 NOSIG
12-07-28 LEBL 281100Z 21012KT CAVOK 29/18 Q1012 NOSIG
12-07-28 LEBL 281130Z 21013KT CAVOK 29/19 Q1012 NOSIG
12-07-28 LEBL 281200Z 21013KT 9999 FEW025 29/19 Q1012 NOSIG
12-07-28 LEBL 281230Z 21012KT 9999 FEW025 29/19 Q1012 NOSIG
12-07-28 LEBL 281300Z 20014KT 9999 FEW025 29/20 Q1012 NOSIG
12-07-28 LEBL 281330Z 20012KT 9999 FEW025 29/20 Q1011 NOSIG
12-07-28 LEBL 281400Z 19014KT 9999 FEW025 28/22 Q1012 NOSIG
12-07-28 LEBL 281430Z 18013KT 9999 FEW025 29/23 Q1012 NOSIG
12-07-28 LEBL 281500Z 18010KT 150V210 9999 FEW025 28/23 Q1012 NOSIG
12-07-28 LEBL 281530Z 19009KT 160V220 9999 FEW025 28/23 Q1012 NOSIG
12-07-28 LEBL 281600Z 19007KT 150V220 9999 FEW025 28/22 Q1012 NOSIG
12-07-28 LEBL 281630Z 18007KT 150V220 9999 FEW015 27/22 Q1012 NOSIG
12-07-28 LEBL 281700Z 17009KT 130V200 9999 FEW015 27/22 Q1011 NOSIG
12-07-28 LEBL 281730Z 18008KT 150V210 9999 FEW015 26/22 Q1012 NOSIG
12-07-28 LEBL 281800Z 20008KT 9999 FEW015 SCT025 26/22 Q1012 NOSIG
12-07-28 LEBL 281830Z 18007KT 9999 FEW015 SCT025 26/21 Q1012 NOSIG
12-07-28 LEBL 281900Z 18006KT 150V210 9999 FEW015 SCT025 26/21 Q1012 NOSIG
12-07-28 LEBL 281930Z 16005KT 130V200 9999 FEW015 SCT025 25/21 Q1012 NOSIG
12-07-28 LEBL 282000Z 20004KT 160V240 9999 FEW015 SCT025 25/21 Q1014 NOSIG
12-07-28 LEBL 282030Z 24008KT 200V260 9999 -RA SCT020 BKN055 25/21 Q1014 NOSIG
12-07-28 LEBL 282100Z 25005KT 160V300 9999 FEW020 SCT055 25/22 Q1014 RERA NOSIG
12-07-28 LEBL 282200Z 34005KT 9999 FEW020 25/21 Q1013 REDZ NOSIG
12-07-28 LEBL 282230Z 30003KT 260V340 9999 FEW025 25/20 Q1014 NOSIG
12-07-28 LEBL 282300Z 32005KT 9999 FEW025 24/20 Q1014 NOSIG
12-07-28 LEBL 282330Z 27003KT 9999 FEW025 23/20 Q1014 NOSIG
12-07-29 LEBL 290000Z 28005KT CAVOK 24/19 Q1014 NOSIG
12-07-29 LEBL NIL
12-07-29 LEBL 290130Z 3002KT CAVOK 23/20 Q1014 NOSIG
12-07-29 LEBL 290200Z VRB02KT CAVOK 23/19 Q1014 NOSIG
12-07-29 LEBL 290230Z 31005KT CAVOK 23/19 Q1014 NOSIG
12-07-29 LEBL 290300Z 32005KT CAVOK 22/19 Q1014 NOSIG
12-07-29 LEBL 290330Z 32003KT CAVOK 23/19 Q1014 NOSIG
12-07-29 LEBL 290400Z 30003KT CAVOK 22/19 Q1014 NOSIG
12-07-29 LEBL 290430Z 32005KT CAVOK 22/18 Q1014 NOSIG
12-07-29 LEBL 290500Z 32006KT CAVOK 22/18 Q1014 NOSIG
12-07-29 LEBL 290530Z 32007KT 290V350 CAVOK 22/19 Q1015 NOSIG
12-07-29 LEBL 290600Z 31006KT 250V340 CAVOK 23/19 Q1015 NOSIG
12-07-29 LEBL 290630Z 32006KT 280V350 CAVOK 24/20 Q1015 NOSIG
12-07-29 LEBL 290700Z 32005G15KT 250V040 CAVOK 25/19 Q1015 NOSIG
12-07-29 LEBL 290730Z 28003KT 230V330 CAVOK 26/18 Q1016 NOSIG
12-07-29 LEBL 290800Z 19005KT 160V220 CAVOK 27/19 Q1016 NOSIG
12-07-29 LEBL 290830Z 17007KT 140V200 CAVOK 26/20 Q1016 NOSIG
12-07-29 LEBL 290900Z 17007KT 130V210 9999 FEW025 26/21 Q1016 NOSIG
12-07-29 LEBL 290930Z 21006KT 160V280 9999 FEW025 27/19 Q1016 NOSIG
12-07-29 LEBL 291000Z 18007KT 150V240 9999 FEW025 27/20 Q1017 NOSIG
12-07-29 LEBL 291030Z 20009KT 160V230 9999 FEW025 27/20 Q1017 NOSIG
12-07-29 LEBL 291100Z 18009KT 150V220 9999 FEW025 27/20 Q1016 NOSIG
12-07-29 LEBL 291130Z 19010KT 140V230 9999 FEW025 28/21 Q1016 NOSIG
12-07-29 LEBL 291200Z 20011KT 170V230 9999 FEW025 28/21 Q1016 NOSIG
12-07-29 LEBL 291230Z 21011KT 170V230 9999 SCT015 SCT021 27/22 Q1016 NOSIG
12-07-29 LEBL 291300Z 19010KT 160V220 9999 SCT015 SCT021 28/21 Q1016 NOSIG
12-07-29 LEBL 291330Z 17012KT 150V210 9999 SCT015 SCT021 28/21 Q1016 NOSIG
12-07-29 LEBL 291400Z 19015KT 9999 SCT015 SCT021 28/21 Q1016 NOSIG
12-07-29 LEBL 291430Z 19013KT 160V220 9999 SCT020 28/21 Q1016 NOSIG
12-07-29 LEBL 291500Z 19013KT 160V220 9999 FEW020 27/22 Q1016 NOSIG
12-07-29 LEBL 291530Z 19013KT 9999 FEW020 27/21 Q1016 NOSIG
12-07-29 LEBL 291600Z 19011KT 9999 FEW020 27/21 Q1016 NOSIG
12-07-29 LEBL 291630Z 20010KT 9999 FEW020 27/21 Q1016 NOSIG
12-07-29 LEBL 291700Z 19010KT 9999 FEW020 26/20 Q1016 NOSIG
12-07-29 LEBL 291730Z 20009KT 9999 FEW020 26/21 Q1016 NOSIG
12-07-29 LEBL 291800Z 19007KT 160V220 9999 FEW020 26/21 Q1016 NOSIG
12-07-29 LEBL 291830Z 19007KT 9999 FEW020 25/21 Q1016 NOSIG
12-07-29 LEBL 291900Z 19007KT 9999 SCT020 25/21 Q1016 NOSIG
12-07-29 LEBL 291930Z 21005KT 170V240 9999 FEW016 BKN020 25/21 Q1017 NOSIG
12-07-29 LEBL 292000Z 19004KT 150V220 9999 FEW016 BKN020 25/21 Q1017 NOSIG
12-07-29 LEBL 292030Z 19003KT 160V220 9999 FEW016 BKN020 25/21 Q1017 NOSIG
12-07-29 LEBL 292100Z 16003KT 100V210 9999 FEW018 BKN022 25/21 Q1018 NOSIG
12-07-29 LEBL 292130Z 11002KT 9999 SCT020 25/21 Q1018 NOSIG
12-07-29 LEBL 292200Z 10003KT 9999 SCT020 25/21 Q1018 NOSIG
12-07-29 LEBL 292230Z 08004KT 030V100 9999 FEW017 SCT022 25/21 Q1018 NOSIG
12-07-29 LEBL 292300Z 08005KT 9999 FEW017 SCT025 25/21 Q1018 NOSIG
12-07-29 LEBL 292330Z 08007KT 9999 FEW018 SCT028 25/21 Q1018 NOSIG
12-07-30 LEBL 300000Z 08007KT 040V100 9999 FEW022 BKN028 25/21 Q1018 NOSIG
12-07-30 LEBL 300030Z 10003KT 070V130 9999 FEW022 BKN028 25/21 Q1018 NOSIG
12-07-30 LEBL 300100Z 08005KT 050V110 9999 FEW022 BKN030 25/21 Q1018 NOSIG
12-07-30 LEBL 300130Z 08006KT 9999 FEW022 BKN035 25/21 Q1018 NOSIG
12-07-30 LEBL 300200Z 09003KT 060V120 9999 FEW022 BKN035 25/21 Q1018 NOSIG
12-07-30 LEBL 300230Z 08004KT 9999 FEW025 BKN038 25/21 Q1018 NOSIG
12-07-30 LEBL 300300Z 06004KT 9999 FEW025 BKN040 25/21 Q1018 NOSIG
12-07-30 LEBL 300330Z 06005KT 9999 FEW025 BKN040 24/21 Q1018 NOSIG
12-07-30 LEBL NIL
12-07-30 LEBL 300400Z 05004KT 9999 FEW025 BKN040 24/21 Q1018 NOSIG
12-07-30 LEBL 300430Z 07003KT 9999 FEW025 BKN040 24/21 Q1018 NOSIG
12-07-30 LEBL 300500Z 08004KT 9999 FEW025 BKN045 24/21 Q1018 NOSIG
12-07-30 LEBL 300530Z 09003KT 9999 FEW010 SCT035 24/21 Q1019 NOSIG
12-07-30 LEBL 300600Z 07004KT 010V110 9999 FEW014 SCT035 25/21 Q1019 NOSIG
12-07-30 LEBL 300630Z 08003KT 040V120 9999 FEW014 SCT035 25/21 Q1019 NOSIG
12-07-30 LEBL 300700Z 08004KT 060V120 9999 FEW013 SCT044 25/21 Q1019 NOSIG
12-07-30 LEBL 300700Z 09002KT 9999 FEW013 SCT044 25/21 Q1019 NOSIG
12-07-30 LEBL 300730Z VRB01KT 9999 FEW019 SCT031 25/21 Q1019 NOSIG
12-07-30 LEBL 300800Z 10003KT 040V140 9999 FEW019 SCT050 26/21 Q1019 NOSIG
12-07-30 LEBL 300830Z 11004KT 070V150 9999 FEW019 SCT040 26/21 Q1019 NOSIG
12-07-30 LEBL 300900Z 13006KT 070V190 9999 FEW019 SCT040 26/21 Q1019 NOSIG
12-07-30 LEBL 300930Z 14006KT 090V170 9999 FEW019 SCT030 26/21 Q1019 NOSIG
12-07-30 LEBL 301000Z 16007KT 130V200 9999 FEW019 SCT037 26/21 Q1019 NOSIG
12-07-30 LEBL 301030Z 17008KT 150V210 9999 FEW020 SCT041 26/21 Q1019 NOSIG
12-07-30 LEBL 301100Z 18008KT 150V220 9999 FEW020 SCT047 27/21 Q1019 NOSIG
12-07-30 LEBL 301130Z 19009KT 150V220 9999 FEW020 SCT047 27/21 Q1019 NOSIG
12-07-30 LEBL 301200Z 19011KT 160V220 9999 SCT030 27/22 Q1019 NOSIG
12-07-30 LEBL 301230Z 19012KT 160V230 9999 SCT030 28/21 Q1019 NOSIG
12-07-30 LEBL 301300Z 19012KT 150V220 9999 FEW030 28/22 Q1018 NOSIG
12-07-30 LEBL 301330Z 19013KT 9999 FEW025 27/21 Q1018 NOSIG
12-07-30 LEBL 301400Z 20013KT 160V220 9999 FEW025 28/22 Q1018 NOSIG
12-07-30 LEBL 301430Z 19013KT 9999 FEW025 28/22 Q1018 NOSIG
12-07-30 LEBL 301500Z 20014KT 9999 FEW025 28/22 Q1018 NOSIG
12-07-30 LEBL 301530Z 20013KT 9999 FEW025 28/22 Q1017 NOSIG
12-07-30 LEBL 301600Z 21013KT 9999 FEW015 27/22 Q1017 NOSIG
12-07-30 LEBL 301630Z 21013KT 9999 FEW015 28/22 Q1017 NOSIG
12-07-30 LEBL 301700Z 21013KT 9999 FEW025 27/22 Q1017 NOSIG
12-07-30 LEBL 301730Z 22011KT 180V240 9999 FEW025 27/22 Q1017 NOSIG
12-07-30 LEBL 301800Z 21012KT CAVOK 27/22 Q1017 NOSIG
12-07-30 LEBL 301830Z 22012KT CAVOK 26/22 Q1017 NOSIG
12-07-30 LEBL 301900Z 22010KT CAVOK 26/22 Q1017 NOSIG
12-07-30 LEBL 301930Z 23011KT CAVOK 26/22 Q1017 NOSIG
12-07-30 LEBL 302000Z 22008KT CAVOK 26/22 Q1017 NOSIG
12-07-30 LEBL 302030Z 22007KT CAVOK 26/22 Q1018 NOSIG
12-07-30 LEBL 302100Z 21005KT CAVOK 26/22 Q1018 NOSIG
12-07-30 LEBL 302130Z 21003KT 180V240 CAVOK 25/23 Q1018 NOSIG
12-07-30 LEBL 302200Z 20004KT CAVOK 25/22 Q1018 NOSIG
12-07-30 LEBL 302230Z 23005KT CAVOK 24/21 Q1018 NOSIG
12-07-30 LEBL 302300Z 23003KT CAVOK 24/21 Q1018 NOSIG
12-07-30 LEBL 302330Z VRB02KT CAVOK 25/20 Q1018 NOSIG
12-07-31 LEBL 310000Z 30002KT 9999 FEW025 24/20 Q1018 NOSIG
12-07-31 LEBL 310030Z 31001KT 9999 FEW025 24/20 Q1018 NOSIG
12-07-31 LEBL NIL
12-07-31 LEBL 310300Z 33003KT 9999 FEW025 23/20 Q1017 NOSIG
12-07-31 LEBL 310330Z 31004KT 9999 FEW025 23/20 Q1018 NOSIG
12-07-31 LEBL 310400Z 31003KT 9999 FEW025 23/20 Q1018 NOSIG
12-07-31 LEBL 310430Z 30004KT 9999 FEW017 23/20 Q1018 NOSIG
12-07-31 LEBL 310500Z 32004KT 9999 FEW017 23/20 Q1018 NOSIG
12-07-31 LEBL 310530Z 32004KT 9999 FEW017 23/20 Q1018 NOSIG
12-07-31 LEBL 310600Z 32003KT 290V350 9999 FEW033 24/20 Q1018 NOSIG
12-07-31 LEBL 310630Z 33004KT 9999 FEW033 24/20 Q1018 NOSIG
12-07-31 LEBL 310700Z VRB02KT 9999 FEW033 25/21 Q1018 NOSIG
12-07-31 LEBL 310730Z VRB02KT 9999 FEW018 26/21 Q1019 NOSIG
12-07-31 LEBL 310800Z 02002KT 9999 FEW018TCU 27/21 Q1019 NOSIG
12-07-31 LEBL 310830Z 08005KT 050V110 9999 FEW020 28/20 Q1019 NOSIG
12-07-31 LEBL 310900Z 11006KT 080V150 9999 FEW020 28/21 Q1019 NOSIG
12-07-31 LEBL 310930Z 12006KT 070V160 9999 FEW020 27/21 Q1019 NOSIG
12-07-31 LEBL 311000Z 12007KT 080V150 9999 FEW020 27/21 Q1019 NOSIG
12-07-31 LEBL 311030Z 12007KT 080V150 9999 FEW020 28/21 Q1019 NOSIG
12-07-31 LEBL 311100Z 10008KT 9999 FEW020 28/21 Q1018 NOSIG
12-07-31 LEBL 311130Z 12009KT 080V140 9999 FEW020 28/21 Q1018 NOSIG
12-07-31 LEBL 311200Z 12009KT 080V150 9999 FEW020 28/22 Q1018 NOSIG
12-07-31 LEBL 311230Z 14009KT 110V170 9999 FEW020 28/22 Q1018 NOSIG
12-07-31 LEBL 311300Z 14009KT 110V190 9999 FEW020 28/21 Q1018 NOSIG
12-07-31 LEBL 311330Z 13009KT 100V170 9999 FEW020 28/22 Q1017 NOSIG
12-07-31 LEBL 311400Z 17007KT 130V230 9999 FEW020 28/21 Q1017 NOSIG
12-07-31 LEBL 311430Z NIL
12-07-31 LEBL 311430Z 16009KT 120V200 9999 FEW020 28/22 Q1016 NOSIG
12-07-31 LEBL 311500Z 18009KT 140V210 9999 FEW020 28/22 Q1016 NOSIG
12-07-31 LEBL 311530Z 19010KT 160V220 9999 FEW020 28/22 Q1016 NOSIG
12-07-31 LEBL 311600Z 19011KT 150V220 9999 FEW020 28/22 Q1016 NOSIG
12-07-31 LEBL 311630Z 20010KT 170V230 9999 FEW020 28/22 Q1015 NOSIG
12-07-31 LEBL 311700Z 20010KT 9999 FEW020 27/22 Q1015 NOSIG
12-07-31 LEBL 311730Z 20010KT 9999 FEW020 27/23 Q1015 NOSIG
12-07-31 LEBL 311800Z 20009KT 180V240 9999 FEW020 27/22 Q1015 NOSIG
12-07-31 LEBL 311830Z 20008KT 130V220 9999 FEW020 27/23 Q1015 NOSIG
12-07-31 LEBL 311900Z 20007KT 9999 SCT018 26/23 Q1015 NOSIG
12-07-31 LEBL 311930Z 20008KT 9999 SCT020 26/22 Q1015 NOSIG
12-07-31 LEBL 312000Z 20006KT 9999 SCT020 26/23 Q1015 NOSIG
12-07-31 LEBL 312030Z 21006KT 9999 SCT020 26/22 Q1015 NOSIG
12-07-31 LEBL 312100Z 21007KT 9999 FEW016 BKN020 26/22 Q1015 NOSIG
12-07-31 LEBL 312130Z 21007KT 9999 FEW016 BKN020 26/22 Q1015 NOSIG
12-07-31 LEBL 312200Z 21006KT 9999 FEW016 BKN020 26/22 Q1015 NOSIG
12-07-31 LEBL 312230Z 22007KT 9999 FEW016 BKN020 25/22 Q1015 NOSIG
12-07-31 LEBL 312300Z 22006KT 9999 FEW016 BKN020 25/22 Q1015 NOSIG
12-07-31 LEBL 312330Z 22004KT 9999 FEW016 BKN020 25/22 Q1015 NOSIG
12-08-01 LEBL 010000Z 22005KT 9999 FEW016 BKN020 25/22 Q1014 NOSIG
12-08-01 LEBL 010030Z 21005KT 9999 FEW016 BKN020 24/22 Q1014 NOSIG
12-08-01 LEBL 010100Z 22004KT 9999 FEW016 BKN020 24/22 Q1014 NOSIG
12-08-01 LEBL 010130Z 22004KT 9999 FEW016 BKN020 24/22 Q1014 NOSIG
12-08-01 LEBL 010200Z 32003KT 270V340 9999 FEW016 BKN020 24/21 Q1014 NOSIG
12-08-01 LEBL 010230Z 34002KT 9999 SCT015 BKN020 24/21 Q1014 NOSIG
12-08-01 LEBL 010300Z 33002KT 9999 SCT015 BKN020 24/21 Q1013 NOSIG
12-08-01 LEBL 010330Z 33003KT 9999 SCT014 BKN024 24/21 Q1013 NOSIG
12-08-01 LEBL 010400Z 32003KT 280V340 9999 BKN018 SCT024 24/21 Q1013 NOSIG
12-08-01 LEBL 010430Z 33004KT 9999 BKN018 SCT024 24/21 Q1013 NOSIG
12-08-01 LEBL 010500Z 32003KT 9999 SCT015 BKN026 24/21 Q1013 NOSIG
12-08-01 LEBL 010530Z 32003KT 300V010 9999 BKN012 SCT020 24/21 Q1013 NOSIG
12-08-01 LEBL 010600Z 33004G14KT 260V010 9999 BKN012 SCT022 24/21 Q1013 NOSIG
12-08-01 LEBL 010630Z 32005KT 250V010 9999 BKN012 SCT022 24/21 Q1014 NOSIG
12-08-01 LEBL 010700Z VRB02KT 9999 BKN012 SCT022 25/21 Q1014 NOSIG
12-08-01 LEBL 010730Z 28003KT 210V330 9999 FEW012 SCT022 27/22 Q1014 NOSIG
12-08-01 LEBL 010800Z 21006KT 150V250 9999 FEW012 SCT018 27/22 Q1013 NOSIG
12-08-01 LEBL 010830Z 20008KT 160V250 9999 FEW012 SCT018 27/23 Q1013 NOSIG
12-08-01 LEBL 010900Z 20008KT 160V250 9999 FEW018 28/23 Q1013 NOSIG
12-08-01 LEBL 010930Z 20011KT 160V220 9999 FEW018 28/23 Q1013 NOSIG
12-08-01 LEBL 011000Z 19012KT 9999 FEW018 28/23 Q1013 NOSIG
12-08-01 LEBL 011030Z 20013KT 160V220 9999 FEW018 29/23 Q1013 NOSIG
12-08-01 LEBL 011100Z 21015KT 9999 FEW018 29/22 Q1013 NOSIG
12-08-01 LEBL 011130Z 21016KT 9999 FEW018 29/23 Q1013 NOSIG
12-08-01 LEBL 011200Z 21016KT 9999 FEW018 29/23 Q1012 NOSIG
12-08-01 LEBL 011230Z 20017KT 9999 FEW018 29/23 Q1012 NOSIG
12-08-01 LEBL 011300Z 20014KT 9999 FEW018 29/23 Q1012 NOSIG
12-08-01 LEBL 011330Z 21015KT 180V240 9999 FEW018 30/23 Q1012 NOSIG
12-08-01 LEBL 011400Z 20015KT 9999 FEW018 29/23 Q1011 NOSIG
12-08-01 LEBL 011430Z 21017KT 9999 FEW018 29/23 Q1011 NOSIG
12-08-01 LEBL 011500Z 20015KT CAVOK 29/23 Q1011 NOSIG
12-08-01 LEBL 011530Z 20016KT CAVOK 29/23 Q1011 NOSIG
12-08-01 LEBL 011600Z 20013KT 170V230 CAVOK 29/23 Q1010 NOSIG
12-08-01 LEBL 011630Z 21017KT CAVOK 29/23 Q1010 NOSIG
12-08-01 LEBL 011700Z 21015KT CAVOK 28/24 Q1010 NOSIG
12-08-01 LEBL 011730Z 21013KT CAVOK 28/24 Q1010 NOSIG
12-08-01 LEBL 011800Z 22014KT CAVOK 28/24 Q1010 NOSIG
12-08-01 LEBL 011830Z 16006KT 090V200 9999 FEW020 27/24 Q1011 BECMG 06010KT
12-08-01 LEBL 011900Z 10007KT 9999 SCT012 27/24 Q1012 NOSIG
12-08-01 LEBL 011930Z 08008KT 9999 SCT012 27/24 Q1012 NOSIG
12-08-01 LEBL 012000Z 08008KT 9999 SCT018 26/24 Q1013 NOSIG
12-08-01 LEBL 012030Z 08008KT 9999 SCT018 26/24 Q1013 NOSIG
12-08-01 LEBL 012100Z 07007KT 9999 SCT018 26/23 Q1014 NOSIG
12-08-01 LEBL 012130Z 08006KT 9999 SCT018 26/24 Q1014 NOSIG
12-08-01 LEBL 012200Z NIL
12-08-01 LEBL 012230Z NIL
12-08-01 LEBL 012300Z 07006KT 9999 FEW020 25/23 Q1014 NOSIG
12-08-01 LEBL 012330Z 08006KT 9999 FEW020 25/23 Q1014 NOSIG
12-08-02 LEBL 020000Z 07008KT 9999 FEW020 25/22 Q1014 NOSIG
12-08-02 LEBL 020030Z 06006KT 9999 FEW020 25/23 Q1014 NOSIG
12-08-02 LEBL 020100Z 07007KT 9999 FEW020 25/22 Q1014 NOSIG
12-08-02 LEBL NIL
12-08-02 LEBL 020300Z 06004KT 9999 FEW020 25/22 Q1013 NOSIG
12-08-02 LEBL 020330Z 04004KT 9999 FEW020 25/22 Q1014 NOSIG
12-08-02 LEBL 020400Z VRB02KT 9999 FEW020 25/22 Q1014 NOSIG
12-08-02 LEBL 020430Z 01003KT 9999 SCT020 24/21 Q1014 NOSIG
12-08-02 LEBL 020500Z 30004KT 9999 SCT020 24/21 Q1014 NOSIG
12-08-02 LEBL 020530Z 32005KT 270V360 9999 SCT020 24/21 Q1014 NOSIG
12-08-02 LEBL 020600Z 32003KT 9999 FEW020 24/21 Q1014 NOSIG
12-08-02 LEBL 020630Z 32005KT 240V360 9999 FEW020 25/21 Q1015 NOSIG
12-08-02 LEBL 020700Z 31004G14KT 9999 FEW020 25/21 Q1015 NOSIG
12-08-02 LEBL 020730Z 34004KT 9999 FEW020 26/21 Q1015 NOSIG
12-08-02 LEBL 020800Z 34003KT 250V050 9999 FEW020 27/20 Q1014 NOSIG
12-08-02 LEBL 020830Z 06001KT 9999 FEW020 29/19 Q1014 NOSIG
12-08-02 LEBL 020900Z 14005KT 100V160 CAVOK 28/20 Q1015 NOSIG
12-08-02 LEBL 020930Z 14004KT 110V180 CAVOK 28/20 Q1015 NOSIG
12-08-02 LEBL 021000Z 14005KT 120V190 CAVOK 28/20 Q1015 NOSIG
12-08-02 LEBL 021030Z 14005KT 100V170 9999 FEW025 28/19 Q1015 NOSIG
12-08-02 LEBL 021100Z 14007KT 110V170 9999 FEW025 28/18 Q1015 NOSIG
12-08-02 LEBL 021130Z 16008KT 110V200 9999 FEW025 28/19 Q1015 NOSIG
12-08-02 LEBL 021200Z 15009KT 120V180 9999 FEW025 28/21 Q1014 NOSIG
12-08-02 LEBL 021230Z 15008KT 120V180 9999 FEW025 28/22 Q1014 NOSIG
12-08-02 LEBL 021300Z 13006KT 070V190 9999 FEW025 28/20 Q1014 NOSIG
12-08-02 LEBL 021330Z 12007KT 100V160 9999 FEW025 27/19 Q1014 NOSIG
12-08-02 LEBL 021400Z 12007KT 080V160 9999 FEW025 28/18 Q1014 NOSIG
12-08-02 LEBL 021430Z 09007KT 040V150 9999 FEW025 28/18 Q1014 NOSIG
12-08-02 LEBL 021500Z 13007KT 100V160 CAVOK 28/19 Q1014 NOSIG
12-08-02 LEBL 021530Z 13006KT CAVOK 28/19 Q1014 NOSIG
12-08-02 LEBL 021600Z 12005KT 070V150 CAVOK 28/18 Q1014 NOSIG
12-08-02 LEBL 021630Z 09006KT 050V150 CAVOK 28/18 Q1013 NOSIG
12-08-02 LEBL 021700Z 09008KT CAVOK 28/16 Q1013 NOSIG
12-08-02 LEBL 021730Z 08008KT 040V110 CAVOK 27/18 Q1013 NOSIG
12-08-02 LEBL 021800Z 08007KT 040V110 CAVOK 27/18 Q1014 NOSIG
12-08-02 LEBL 021830Z 06007KT CAVOK 27/18 Q1014 NOSIG
12-08-02 LEBL 021930Z 06006KT CAVOK 26/19 Q1014 NOSIG
12-08-02 LEBL 022000Z 07007KT CAVOK 26/19 Q1014 NOSIG
12-08-02 LEBL 022030Z 06006KT CAVOK 26/19 Q1015 NOSIG
12-08-02 LEBL 022100Z 07002KT CAVOK 26/18 Q1015 NOSIG
12-08-02 LEBL 022130Z VRB02KT CAVOK 26/19 Q1015 NOSIG
12-08-02 LEBL 022200Z 05002KT CAVOK 26/18 Q1015 NOSIG
12-08-02 LEBL 022230Z 00000KT CAVOK 26/18 Q1015 NOSIG
12-08-02 LEBL 022300Z VRB02KT CAVOK 24/15 Q1015 NOSIG
12-08-02 LEBL 022330Z 32002KT CAVOK 24/15 Q1015 NOSIG
12-08-03 LEBL 030000Z 31003KT CAVOK 24/14 Q1016 NOSIG
12-08-03 LEBL 030030Z 31004KT CAVOK 23/15 Q1015 NOSIG
12-08-03 LEBL 030100Z 30003KT CAVOK 23/13 Q1015 NOSIG
12-08-03 LEBL 030130Z 32004KT CAVOK 23/13 Q1015 NOSIG
12-08-03 LEBL 030200Z 32004KT CAVOK 23/13 Q1015 NOSIG
12-08-03 LEBL 030230Z 32005KT CAVOK 23/13 Q1015 NOSIG
12-08-03 LEBL 030300Z 32007KT CAVOK 23/14 Q1015 NOSIG
12-08-03 LEBL 030330Z 33007KT 9999 FEW025 23/15 Q1015 NOSIG
12-08-03 LEBL 030400Z 33008KT 9999 FEW025 23/15 Q1015 NOSIG
12-08-03 LEBL 030430Z 35005KT 9999 FEW025 23/15 Q1015 NOSIG
12-08-03 LEBL 030500Z 33007KT 9999 FEW025 23/15 Q1015 NOSIG
12-08-03 LEBL 030530Z 33007KT 9999 FEW025 23/15 Q1016 NOSIG
12-08-03 LEBL 030600Z 33006G16KT 290V350 CAVOK 24/15 Q1016 NOSIG
12-08-03 LEBL 030630Z 33007KT CAVOK 24/15 Q1016 NOSIG
12-08-03 LEBL 030700Z 33006KT CAVOK 25/15 Q1016 NOSIG
12-08-03 LEBL 030730Z 32004KT CAVOK 26/15 Q1016 NOSIG
12-08-03 LEBL 030800Z 34003KT CAVOK 27/14 Q1016 NOSIG
12-08-03 LEBL 030830Z 03002KT CAVOK 28/14 Q1016 NOSIG
12-08-03 LEBL 030900Z 13005KT 100V170 CAVOK 28/15 Q1016 NOSIG
12-08-03 LEBL 030930Z 13007KT 100V200 CAVOK 28/14 Q1016 NOSIG
12-08-03 LEBL 031000Z 16006KT 110V200 CAVOK 28/16 Q1016 NOSIG
12-08-03 LEBL 031030Z 17008KT 130V200 CAVOK 29/16 Q1016 NOSIG
12-08-03 LEBL 031100Z 17008KT 130V200 CAVOK 29/16 Q1016 NOSIG
12-08-03 LEBL 031130Z 18008KT 130V220 CAVOK 29/17 Q1016 NOSIG
12-08-03 LEBL 031200Z 16008KT 130V200 9999 FEW030 29/17 Q1016 NOSIG
12-08-03 LEBL 031230Z NIL
12-08-03 LEBL 031230Z 17009KT 130V200 9999 FEW030 29/18 Q1016 NOSIG
12-08-03 LEBL 031300Z 17009KT 130V200 9999 FEW030 29/17 Q1016 NOSIG
12-08-03 LEBL 031330Z 16008KT 120V190 9999 FEW030 29/17 Q1016 NOSIG
12-08-03 LEBL 031400Z 15008KT 100V200 9999 FEW030 29/17 Q1016 NOSIG
12-08-03 LEBL 031430Z 13008KT 110V200 9999 FEW030 29/17 Q1015 NOSIG
12-08-03 LEBL 031500Z 15008KT 110V180 9999 FEW030 28/18 Q1015 NOSIG
12-08-03 LEBL 031530Z 14008KT 9999 FEW030 29/18 Q1015 NOSIG
12-08-03 LEBL 031600Z 14007KT 110V170 9999 FEW030 28/18 Q1015 NOSIG
12-08-03 LEBL 031630Z 15006KT 120V180 CAVOK 28/19 Q1014 NOSIG
12-08-03 LEBL 031700Z 15005KT 100V190 CAVOK 27/18 Q1014 NOSIG
12-08-03 LEBL 031730Z 13005KT 100V170 CAVOK 27/18 Q1014 NOSIG
12-08-03 LEBL 031800Z 12005KT CAVOK 27/18 Q1014 NOSIG
12-08-03 LEBL 031830Z 11004KT CAVOK 27/19 Q1014 NOSIG
12-08-03 LEBL 031900Z 10004KT CAVOK 26/18 Q1014 NOSIG
12-08-03 LEBL 031930Z 08004KT CAVOK 26/19 Q1015 NOSIG
12-08-03 LEBL 032000Z 36003KT CAVOK 26/18 Q1015 NOSIG
12-08-03 LEBL 032030Z VRB01KT CAVOK 26/18 Q1015 NOSIG
12-08-03 LEBL 032100Z 05003KT 350V100 CAVOK 26/18 Q1015 NOSIG
12-08-03 LEBL 032130Z 00000KT CAVOK 26/18 Q1015 NOSIG
12-08-03 LEBL 032200Z VRB01KT CAVOK 25/17 Q1015 NOSIG
12-08-03 LEBL 032230Z VRB01KT CAVOK 25/17 Q1015 NOSIG
12-08-03 LEBL 032300Z 32003KT CAVOK 24/18 Q1015 NOSIG
12-08-03 LEBL 032330Z 32004KT CAVOK 24/18 Q1015 NOSIG
12-08-04 LEBL 040000Z 33005KT CAVOK 24/18 Q1015 NOSIG
12-08-04 LEBL 040030Z 32005KT CAVOK 23/17 Q1015 NOSIG
12-08-04 LEBL 040100Z 32006KT CAVOK 23/17 Q1014 NOSIG
12-08-04 LEBL 040130Z 32007KT CAVOK 23/17 Q1014 NOSIG
12-08-04 LEBL 040200Z 32007KT CAVOK 23/17 Q1014 NOSIG
12-08-04 LEBL 040230Z 33009KT CAVOK 23/17 Q1014 NOSIG
12-08-04 LEBL 040300Z 33010KT CAVOK 23/17 Q1013 NOSIG
12-08-04 LEBL 040330Z 33010KT CAVOK 23/17 Q1013 NOSIG
12-08-04 LEBL 040400Z 33011KT CAVOK 23/17 Q1013 NOSIG
12-08-04 LEBL 040430Z 33011KT CAVOK 22/16 Q1013 NOSIG
12-08-04 LEBL 040500Z 33012KT CAVOK 22/16 Q1013 NOSIG
12-08-04 LEBL 040530Z 33012KT CAVOK 22/16 Q1013 NOSIG
12-08-04 LEBL 040600Z 33009KT CAVOK 23/16 Q1013 NOSIG
12-08-04 LEBL 040630Z 33007KT 290V360 CAVOK 23/16 Q1013 NOSIG
12-08-04 LEBL 040700Z 33006G16KT 240V020 CAVOK 24/16 Q1013 NOSIG
12-08-04 LEBL 040730Z 33005KT 260V030 CAVOK 25/16 Q1013 NOSIG
12-08-04 LEBL 040800Z 02002KT CAVOK 27/16 Q1013 NOSIG
12-08-04 LEBL 040830Z 08003KT 330V120 CAVOK 28/15 Q1013 NOSIG
12-08-04 LEBL 040900Z 13005KT 080V160 CAVOK 29/11 Q1013 NOSIG
12-08-04 LEBL 040930Z 14004KT 080V230 CAVOK 29/09 Q1014 NOSIG
12-08-04 LEBL 041000Z 14007KT 100V210 9999 SCT055 29/13 Q1014 NOSIG
12-08-04 LEBL 041030Z 17007KT 110V220 9999 FEW055 29/15 Q1014 NOSIG
12-08-04 LEBL 041100Z 17007KT 110V210 9999 FEW055 29/17 Q1013 NOSIG
12-08-04 LEBL 041130Z 16008KT 130V200 CAVOK 29/17 Q1013 NOSIG
12-08-04 LEBL 041200Z 17007KT 130V210 CAVOK 29/16 Q1013 NOSIG
12-08-04 LEBL 041230Z 17008KT 120V220 CAVOK 29/17 Q1013 NOSIG
12-08-04 LEBL 041300Z 17007KT 130V220 CAVOK 29/18 Q1013 NOSIG
12-08-04 LEBL 041330Z 18007KT 140V240 CAVOK 28/19 Q1013 NOSIG
12-08-04 LEBL 041400Z 17008KT 130V210 CAVOK 29/19 Q1012 NOSIG
12-08-04 LEBL 041430Z 16010KT 130V190 CAVOK 29/19 Q1012 NOSIG
12-08-04 LEBL 041500Z 19008KT 150V220 CAVOK 29/20 Q1012 NOSIG
12-08-04 LEBL 041530Z 18007KT 130V230 CAVOK 28/19 Q1011 NOSIG
12-08-04 LEBL 041600Z 17007KT 130V230 CAVOK 28/19 Q1011 NOSIG
12-08-04 LEBL 041630Z 18006KT 120V220 CAVOK 28/19 Q1011 NOSIG
12-08-04 LEBL 041700Z 17006KT 130V210 CAVOK 27/19 Q1010 NOSIG
12-08-04 LEBL 041730Z 17007KT CAVOK 27/19 Q1010 NOSIG
12-08-04 LEBL 041800Z 17006KT 130V190 CAVOK 27/19 Q1010 NOSIG
12-08-04 LEBL 041830Z 18006KT 150V210 CAVOK 27/19 Q1010 NOSIG
12-08-04 LEBL 041900Z 16004KT 120V190 CAVOK 26/19 Q1010 NOSIG
12-08-04 LEBL 041930Z 19005KT CAVOK 26/20 Q1010 NOSIG
12-08-04 LEBL 042000Z 00000KT 9999 FEW030 26/20 Q1010 NOSIG
12-08-04 LEBL 042030Z 19003KT 9999 FEW030 26/20 Q1010 NOSIG
12-08-04 LEBL 042100Z VRB02KT 9999 FEW030 25/20 Q1010 NOSIG
12-08-04 LEBL 042130Z 20004KT 150V250 9999 FEW030 25/21 Q1010 NOSIG
12-08-04 LEBL 042200Z NIL
12-08-04 LEBL 042200Z 22004KT 9999 FEW030 25/21 Q1011 NOSIG
12-08-04 LEBL 042230Z 22004KT 9999 FEW030 25/21 Q1011 NOSIG
12-08-04 LEBL 042300Z 33003KT 9999 FEW018 25/20 Q1010 NOSIG
12-08-04 LEBL 042330Z 01003KT 9999 FEW018 25/20 Q1010 NOSIG
12-08-05 LEBL 050000Z 04003KT 9999 FEW025 24/20 Q1010 NOSIG
12-08-05 LEBL 050030Z 00000KT 9999 FEW025 24/19 Q1010 NOSIG
12-08-05 LEBL 050100Z 00000KT 9999 FEW025 24/20 Q1010 NOSIG
12-08-05 LEBL 050130Z 34004KT 9999 FEW025 24/19 Q1009 NOSIG
12-08-05 LEBL 050200Z 34005KT 9999 FEW025 24/19 Q1009 NOSIG
12-08-05 LEBL 050230Z 33005KT 9999 FEW025 24/19 Q1009 NOSIG
12-08-05 LEBL 050300Z 33006KT 9999 FEW022 24/19 Q1009 NOSIG
12-08-05 LEBL 050330Z 33004KT 9999 FEW022 23/19 Q1009 NOSIG
12-08-05 LEBL 050400Z 33005KT 9999 FEW022 23/19 Q1009 NOSIG
12-08-05 LEBL 050430Z 33006KT 9999 FEW014 23/19 Q1010 NOSIG
12-08-05 LEBL 050500Z 32005KT 9999 FEW014 23/19 Q1010 NOSIG
12-08-05 LEBL 050530Z 34006KT 9999 SCT014 23/19 Q1010 NOSIG
12-08-05 LEBL 050600Z 34004KT 260V020 9999 FEW015 23/19 Q1010 NOSIG
12-08-05 LEBL 050630Z 04004KT 330V110 9999 FEW018 24/19 Q1010 NOSIG
12-08-05 LEBL 050700Z 05008KT 360V080 9999 FEW020 25/19 Q1010 NOSIG
12-08-05 LEBL 050730Z 06011KT 030V100 9999 FEW022 26/19 Q1010 NOSIG
12-08-05 LEBL 050800Z 07009KT 040V100 9999 FEW040 26/20 Q1010 NOSIG
12-08-05 LEBL 050830Z 08009KT 9999 FEW040 27/20 Q1010 NOSIG
12-08-05 LEBL 050900Z 10009KT 030V120 9999 FEW020 SCT043 27/19 Q1011 NOSIG
12-08-05 LEBL 050930Z 10010KT 070V130 9999 FEW020 SCT043 27/19 Q1010 NOSIG
12-08-05 LEBL 051000Z 11011KT 080V140 9999 FEW020 SCT040 27/18 Q1010 NOSIG
12-08-05 LEBL 051030Z 11012KT 9999 FEW020 27/18 Q1010 NOSIG
12-08-05 LEBL 051100Z 11012KT 9999 FEW020 27/18 Q1010 NOSIG
12-08-05 LEBL 051130Z 11012KT 080V140 9999 FEW020 28/18 Q1010 NOSIG
12-08-05 LEBL 051200Z 11011KT 080V150 9999 FEW020 27/18 Q1010 NOSIG
12-08-05 LEBL 051230Z 11011KT 9999 FEW020 28/19 Q1009 NOSIG
12-08-05 LEBL 051300Z 12011KT 090V150 9999 FEW020 28/18 Q1009 NOSIG
12-08-05 LEBL 051330Z 12011KT 9999 FEW020 28/20 Q1009 NOSIG
12-08-05 LEBL 051400Z 12009KT 100V160 9999 FEW020 28/20 Q1009 NOSIG
12-08-05 LEBL 051430Z 14009KT 110V170 9999 FEW020 28/21 Q1009 NOSIG
12-08-05 LEBL 051500Z 13008KT 090V170 9999 FEW020 27/21 Q1008 NOSIG
12-08-05 LEBL 051530Z 14008KT 110V190 9999 FEW030 27/22 Q1008 NOSIG
12-08-05 LEBL 051600Z 15008KT 120V190 9999 FEW030 27/22 Q1008 NOSIG
12-08-05 LEBL 051630Z 16007KT 130V200 9999 FEW030 27/22 Q1007 NOSIG
12-08-05 LEBL 051700Z 16008KT 140V200 9999 FEW025 27/22 Q1007 NOSIG
12-08-05 LEBL 051730Z 17006KT 130V200 9999 FEW025 27/22 Q1007 NOSIG
12-08-05 LEBL 051800Z 17007KT 140V200 9999 SCT013 27/23 Q1007 NOSIG
12-08-05 LEBL 051830Z 16005KT 120V200 9999 SCT013 26/22 Q1007 NOSIG
12-08-05 LEBL 051900Z 17004KT 130V210 9999 SCT018 26/23 Q1007 NOSIG
12-08-05 LEBL 051930Z 18004KT 150V210 9999 SCT020 26/22 Q1008 NOSIG
12-08-05 LEBL 052000Z VRB02KT 9999 FEW020 26/22 Q1009 NOSIG
12-08-05 LEBL 052030Z 23004KT 210V290 9999 FEW020 26/23 Q1009 NOSIG
12-08-05 LEBL 052100Z VRB02KT 9999 FEW025 26/22 Q1009 NOSIG
12-08-05 LEBL 052130Z 32005KT 9999 FEW025 26/22 Q1010 NOSIG
12-08-05 LEBL 052200Z 03004KT 350V070 9999 FEW025 26/21 Q1010 NOSIG
12-08-05 LEBL 052230Z 04003KT 9999 FEW025 26/21 Q1011 NOSIG
12-08-05 LEBL 052300Z 08007KT 9999 FEW025 26/22 Q1011 NOSIG
12-08-05 LEBL 052330Z 07008KT 9999 SCT020 26/23 Q1011 NOSIG
12-08-06 LEBL 060000Z 05009KT 9999 SCT020 26/22 Q1011 NOSIG
12-08-06 LEBL 060030Z 06012KT 9999 SCT020 26/22 Q1011 NOSIG
12-08-06 LEBL 060100Z 06013KT 9999 SCT020 26/21 Q1011 NOSIG
12-08-06 LEBL 060130Z 08011KT 9999 SCT020 25/21 Q1011 NOSIG
12-08-06 LEBL 060200Z 07013KT 9999 SCT030 25/21 Q1011 NOSIG
12-08-06 LEBL 060230Z 07013KT 040V100 9999 BKN030 25/17 Q1011 NOSIG
12-08-06 LEBL 060300Z 06012KT 9999 BKN030 25/17 Q1011 NOSIG
12-08-06 LEBL 060330Z 09011KT 9999 FEW015 BKN035 25/17 Q1011 NOSIG
12-08-06 LEBL 060400Z 08014KT 9999 FEW015 BKN035 25/17 Q1012 TEMPO TSRA
12-08-06 LEBL 060430Z 33013KT 9999 FEW015CB BKN040 23/19 Q1013 TEMPO TSRA
12-08-06 LEBL 060500Z 33005KT 250V010 9999 -RA FEW015CB BKN040 22/20 Q1013 TEMPO TS
12-08-06 LEBL 060500Z 31005G15KT 240V340 9999 TSRA FEW015CB BKN040 21/20 Q1013 NOSIG
12-08-06 LEBL 060500Z 31006KT 240V350 4000 TSRA FEW015CB BKN040 21/20 Q1013 NOSIG
12-08-06 LEBL 060530Z 33011KT 310V010 9999 -RA FEW015CB BKN040 21/20 Q1013 NOSIG
12-08-06 LEBL 060549Z 31008G20KT 4000 RA FEW015CB BKN040 21/20 Q1014 NOSIG
12-08-06 LEBL 060600Z 32009KT 280V340 9000 RA FEW015CB BKN040 21/20 Q1014 NOSIG
12-08-06 LEBL 060630Z 34010KT 310V040 9999 FEW015CB BKN040 21/20 Q1014 NOSIG
12-08-06 LEBL 060700Z 34008KT 280V360 9999 -RA FEW015CB BKN040 BKN055 21/19 Q1015
12-08-06 LEBL 060730Z 34006KT 9999 FEW015CB BKN055 21/18 Q1015 NOSIG
12-08-06 LEBL 060800Z 34007KT 310V010 9999 FEW015CB SCT055 22/18 Q1014 NOSIG
12-08-06 LEBL 060830Z 33014KT 9999 FEW055 22/19 Q1015 NOSIG
12-08-06 LEBL 060900Z 33013KT 9999 FEW055 24/19 Q1016 NOSIG
12-08-06 LEBL 060930Z 33013KT 9999 FEW055 24/18 Q1016 NOSIG
12-08-06 LEBL 061000Z 33012KT 280V030 9999 FEW055 25/18 Q1016 NOSIG
12-08-06 LEBL 061030Z 31009KT 9999 FEW055 26/18 Q1016 NOSIG
12-08-06 LEBL 061100Z 12008KT 080V150 9999 FEW030 28/17 Q1016 NOSIG
12-08-06 LEBL 061130Z 12009KT 9999 FEW030 26/18 Q1016 NOSIG
12-08-06 LEBL 061200Z 14009KT 100V180 9999 FEW030 26/17 Q1017 NOSIG
12-08-06 LEBL 061230Z 14008KT 110V170 9999 FEW030 26/17 Q1017 NOSIG
12-08-06 LEBL 061300Z 13009KT 100V170 9999 FEW030 27/16 Q1017 NOSIG
12-08-06 LEBL 061330Z 14008KT 100V180 9999 FEW030 26/17 Q1017 NOSIG
12-08-06 LEBL 061400Z 13009KT 090V160 9999 FEW030 26/18 Q1017 NOSIG
12-08-06 LEBL 061430Z 12010KT 100V160 9999 FEW030 26/19 Q1017 NOSIG
12-08-06 LEBL 061500Z 12011KT 090V160 9999 FEW030 26/19 Q1017 NOSIG
12-08-06 LEBL 061530Z 11011KT 080V140 9999 FEW030 26/18 Q1018 NOSIG
12-08-06 LEBL 061600Z 11011KT 080V150 9999 FEW030 26/18 Q1018 NOSIG
12-08-06 LEBL 061630Z 11010KT 080V140 9999 FEW030 26/18 Q1018 NOSIG
12-08-06 LEBL 061700Z 10010KT 9999 FEW030 26/18 Q1018 NOSIG
12-08-06 LEBL 061730Z 10009KT 9999 FEW030 26/18 Q1019 NOSIG
12-08-06 LEBL 061800Z 09008KT 9999 FEW020 26/18 Q1019 NOSIG
12-08-06 LEBL 061830Z 10009KT 9999 FEW020 25/18 Q1019 NOSIG
12-08-06 LEBL 061900Z 09008KT 060V120 9999 FEW020 25/18 Q1019 NOSIG
12-08-06 LEBL 061930Z 09006KT 060V130 9999 FEW020 25/18 Q1020 NOSIG
12-08-06 LEBL NIL
12-08-06 LEBL 062000Z 10005KT 9999 FEW020 25/18 Q1020 NOSIG
12-08-06 LEBL 062030Z 11003KT 080V140 9999 FEW020 25/18 Q1021 NOSIG
12-08-06 LEBL 062100Z VRB01KT 9999 FEW020 25/18 Q1021 NOSIG
12-08-06 LEBL 062130Z 00000KT 9999 FEW020 24/18 Q1021 NOSIG
12-08-06 LEBL 062200Z 30004KT 280V340 9999 FEW020 23/18 Q1021 NOSIG
12-08-06 LEBL 062230Z 33005KT 9999 FEW020 23/18 Q1021 NOSIG
12-08-06 LEBL 062300Z 33007KT 9999 FEW020 23/18 Q1022 NOSIG
12-08-06 LEBL 062330Z 33007KT 9999 FEW020 23/18 Q1022 NOSIG
12-08-07 LEBL 070000Z 33006KT 9999 FEW020 22/18 Q1022 NOSIG
12-08-07 LEBL 070030Z 32007KT 9999 FEW020 22/18 Q1021 NOSIG
12-08-07 LEBL NIL
12-08-07 LEBL 070100Z 32007KT 9999 FEW020 22/18 Q1021 NOSIG
12-08-07 LEBL 070130Z 32007KT 9999 FEW020 22/18 Q1021 NOSIG
12-08-07 LEBL 070200Z 33007KT 9999 FEW020 22/18 Q1021 NOSIG
12-08-07 LEBL 070230Z 33006KT 9999 FEW020 22/18 Q1021 NOSIG
12-08-07 LEBL 070300Z 33007KT 9999 FEW020 22/18 Q1021 NOSIG
12-08-07 LEBL 070330Z 33007KT 9999 FEW020 22/18 Q1021 NOSIG
12-08-07 LEBL 070400Z 33009KT 9999 FEW020 21/18 Q1021 NOSIG
12-08-07 LEBL 070430Z 32010KT 9999 FEW020 21/17 Q1021 NOSIG
12-08-07 LEBL 070500Z 32010KT 9999 FEW020 21/17 Q1021 NOSIG
12-08-07 LEBL 070530Z 33009G20KT 9999 FEW020 21/17 Q1022 NOSIG
12-08-07 LEBL 070600Z 32010KT 9999 FEW020 21/17 Q1022 NOSIG
12-08-07 LEBL 070630Z 33010G23KT 290V350 9999 FEW020 22/17 Q1022 NOSIG
12-08-07 LEBL 070700Z 32006KT 280V350 CAVOK 23/17 Q1022 NOSIG
12-08-07 LEBL 070730Z 35002KT CAVOK 24/17 Q1022 NOSIG
12-08-07 LEBL 070800Z 31001KT CAVOK 25/16 Q1022 NOSIG
12-08-07 LEBL 070830Z 10003KT 070V130 CAVOK 26/15 Q1022 NOSIG
12-08-07 LEBL 070900Z 11006KT 080V160 CAVOK 27/15 Q1022 NOSIG
12-08-07 LEBL 070930Z 11006KT 080V150 CAVOK 27/15 Q1022 NOSIG
12-08-07 LEBL 071000Z 12008KT 100V160 CAVOK 26/17 Q1023 NOSIG
12-08-07 LEBL 071030Z 15008KT 110V170 CAVOK 27/16 Q1023 NOSIG
12-08-07 LEBL 071100Z 16009KT 120V180 CAVOK 27/16 Q1023 NOSIG
12-08-07 LEBL 071130Z 16008KT 120V200 CAVOK 27/16 Q1022 NOSIG
12-08-07 LEBL 071200Z 18009KT 130V210 9999 FEW025 27/17 Q1022 NOSIG
12-08-07 LEBL 071230Z 17010KT 150V210 9999 FEW025 27/18 Q1022 NOSIG
12-08-07 LEBL 071300Z 16009KT 090V210 9999 FEW025 27/17 Q1022 NOSIG
12-08-07 LEBL 071330Z 15009KT 120V190 9999 FEW025 27/17 Q1022 NOSIG
12-08-07 LEBL 071400Z 16008KT 110V200 9999 FEW025 27/17 Q1022 NOSIG
12-08-07 LEBL 071430Z 16009KT 120V190 9999 FEW025 27/17 Q1022 NOSIG
12-08-07 LEBL 071500Z 15008KT 100V190 9999 FEW025 26/17 Q1022 NOSIG
12-08-07 LEBL 071530Z 13007KT 090V170 9999 FEW025 26/17 Q1021 NOSIG
12-08-07 LEBL 071600Z 13006KT 100V160 9999 FEW025 26/18 Q1021 NOSIG
12-08-07 LEBL 071630Z 12005KT 080V170 CAVOK 26/17 Q1021 NOSIG
12-08-07 LEBL 071700Z 12005KT 080V150 CAVOK 26/16 Q1021 NOSIG
12-08-07 LEBL 071730Z 13005KT 100V170 CAVOK 26/17 Q1021 NOSIG
12-08-07 LEBL 071800Z 11005KT 080V160 CAVOK 26/16 Q1021 NOSIG
12-08-07 LEBL 071830Z 11003KT 080V160 CAVOK 25/17 Q1020 NOSIG
12-08-07 LEBL 071900Z 10003KT 070V130 CAVOK 25/16 Q1020 NOSIG
12-08-07 LEBL 071930Z VRB02KT 9999 FEW025 25/16 Q1021 NOSIG
12-08-07 LEBL 072000Z 05003KT 9999 FEW025 25/16 Q1021 NOSIG
12-08-07 LEBL 072030Z VRB02KT 9999 FEW025 25/16 Q1021 NOSIG
12-08-07 LEBL 072100Z 00000KT 9999 FEW025 25/16 Q1021 NOSIG
12-08-07 LEBL 072130Z NIL
12-08-07 LEBL 072200Z VRB02KT CAVOK 23/17 Q1021 NOSIG
12-08-07 LEBL 072230Z 30005KT CAVOK 23/17 Q1021 NOSIG
12-08-07 LEBL 072300Z 32004KT CAVOK 23/17 Q1021 NOSIG
12-08-07 LEBL 072330Z 34004KT CAVOK 23/17 Q1021 NOSIG
12-08-08 LEBL 080000Z 32006KT CAVOK 23/17 Q1021 NOSIG
12-08-08 LEBL 080030Z NIL
12-08-08 LEBL 080100Z 33008KT CAVOK 22/17 Q1021 NOSIG
12-08-08 LEBL 080130Z 33009KT CAVOK 23/17 Q1020 NOSIG
12-08-08 LEBL 080200Z 33010KT CAVOK 22/17 Q1020 NOSIG
12-08-08 LEBL 080230Z 33010KT CAVOK 22/17 Q1020 NOSIG
12-08-08 LEBL 080300Z NIL
12-08-08 LEBL 080300Z 33013KT CAVOK 22/17 Q1019 NOSIG
12-08-08 LEBL 080330Z NIL
12-08-08 LEBL 080400Z NIL
12-08-08 LEBL 080400Z 35009KT CAVOK 21/17 Q1019 NOSIG
12-08-08 LEBL 080430Z 33012KT CAVOK 21/17 Q1019 NOSIG
12-08-08 LEBL 080500Z 33013KT CAVOK 21/17 Q1019 NOSIG
12-08-08 LEBL 080530Z 32013KT CAVOK 21/17 Q1019 NOSIG
12-08-08 LEBL 080600Z 33013KT 300V020 CAVOK 22/16 Q1019 NOSIG
12-08-08 LEBL 080630Z 32012KT 290V350 CAVOK 22/16 Q1019 NOSIG
12-08-08 LEBL 080700Z 32013KT CAVOK 24/16 Q1019 NOSIG
12-08-08 LEBL 080730Z 33013KT CAVOK 25/16 Q1020 NOSIG
12-08-08 LEBL 080800Z 34009G19KT 280V020 CAVOK 26/16 Q1020 NOSIG
12-08-08 LEBL NIL
12-08-08 LEBL 080830Z 08008KT CAVOK 28/16 Q1020 NOSIG
12-08-08 LEBL 080900Z 10009KT 060V130 CAVOK 27/19 Q1021 NOSIG
12-08-08 LEBL 080930Z 09010KT CAVOK 27/18 Q1021 NOSIG
12-08-08 LEBL 081000Z 10010KT 070V130 CAVOK 27/19 Q1021 NOSIG
12-08-08 LEBL 081030Z 09008KT 030V130 CAVOK 27/18 Q1021 NOSIG
12-08-08 LEBL 081100Z 11008KT 090V160 CAVOK 28/18 Q1021 NOSIG
12-08-08 LEBL 081130Z 11008KT 090V160 CAVOK 28/18 Q1021 NOSIG
12-08-08 LEBL 081200Z 12008KT 080V160 CAVOK 27/18 Q1021 NOSIG
12-08-08 LEBL 081230Z 11006KT 070V160 CAVOK 28/18 Q1021 NOSIG
12-08-08 LEBL 081300Z 12008KT 090V160 CAVOK 27/18 Q1021 NOSIG
12-08-08 LEBL 081330Z 12008KT 090V160 CAVOK 27/18 Q1020 NOSIG
12-08-08 LEBL 081400Z 14007KT 090V200 CAVOK 28/18 Q1020 NOSIG
12-08-08 LEBL 081430Z 15007KT 110V190 CAVOK 27/18 Q1020 NOSIG
12-08-08 LEBL 081500Z 17007KT 140V210 CAVOK 27/20 Q1019 NOSIG
12-08-08 LEBL 081530Z 17007KT 130V210 CAVOK 27/20 Q1019 NOSIG
12-08-08 LEBL 081600Z 17007KT 140V210 CAVOK 27/20 Q1019 NOSIG
12-08-08 LEBL 081630Z 18006KT 140V220 CAVOK 28/21 Q1019 NOSIG
12-08-08 LEBL 081700Z 18007KT 150V220 CAVOK 27/21 Q1019 NOSIG
12-08-08 LEBL 081730Z 20008KT CAVOK 27/21 Q1019 NOSIG
12-08-08 LEBL 081800Z 20008KT CAVOK 27/22 Q1019 NOSIG
12-08-08 LEBL 081830Z 21006KT CAVOK 26/21 Q1018 NOSIG
12-08-08 LEBL 081900Z 21006KT CAVOK 26/21 Q1019 NOSIG
12-08-08 LEBL 081930Z 21003KT 170V240 CAVOK 26/21 Q1019 NOSIG
12-08-08 LEBL 082000Z 20004KT CAVOK 26/21 Q1019 NOSIG
12-08-08 LEBL 082030Z 20004KT CAVOK 26/21 Q1019 NOSIG
12-08-08 LEBL 082100Z 21003KT CAVOK 25/21 Q1020 NOSIG
12-08-08 LEBL 082130Z 21005KT CAVOK 25/21 Q1020 NOSIG
12-08-08 LEBL 082200Z 23005KT 9999 FEW025 24/20 Q1020 NOSIG
12-08-08 LEBL 082230Z 30003KT 9999 FEW025 24/19 Q1020 NOSIG
12-08-08 LEBL 082300Z 29005KT 9999 FEW025 24/18 Q1020 NOSIG
12-08-08 LEBL 082330Z 33004KT 9999 FEW025 24/19 Q1020 NOSIG
12-08-09 LEBL 090000Z 33003KT 9999 FEW025 24/17 Q1020 NOSIG
12-08-09 LEBL 090030Z VRB02KT 9999 FEW025 23/17 Q1020 NOSIG
12-08-09 LEBL 090100Z 34007KT 9999 FEW025 23/16 Q1019 NOSIG
12-08-09 LEBL 090130Z 30006KT 9999 FEW025 23/17 Q1019 NOSIG
12-08-09 LEBL 090200Z 31005KT 9999 FEW025 23/17 Q1019 NOSIG
12-08-09 LEBL 090230Z 28003KT 9999 FEW025 23/17 Q1019 NOSIG
12-08-09 LEBL 090300Z 29005KT 9999 FEW025 22/17 Q1019 NOSIG
12-08-09 LEBL 090330Z 30005KT 9999 FEW025 23/16 Q1019 NOSIG
12-08-09 LEBL 090400Z 33006KT 9999 FEW025 23/16 Q1019 NOSIG
12-08-09 LEBL 090430Z 30006KT 250V320 9999 FEW025 22/15 Q1019 NOSIG
12-08-09 LEBL 090500Z 32009KT 9999 FEW025 22/15 Q1019 NOSIG
12-08-09 LEBL 090530Z 31010KT 9999 FEW025 22/14 Q1019 NOSIG
12-08-09 LEBL 090600Z 31009G20KT 260V350 9999 FEW025 22/14 Q1020 NOSIG
12-08-09 LEBL 090630Z 32006KT 9999 FEW025 24/14 Q1020 NOSIG
12-08-09 LEBL 090700Z 33008KT 280V350 9999 FEW025 24/13 Q1020 NOSIG
12-08-09 LEBL 090730Z 33007KT 280V360 9999 FEW025 26/12 Q1020 NOSIG
12-08-09 LEBL 090800Z 33006KT 290V020 9999 FEW025 27/12 Q1020 NOSIG
12-08-09 LEBL NIL
12-08-09 LEBL 090830Z 33005KT 290V010 9999 FEW025 29/10 Q1020 NOSIG
12-08-09 LEBL 090900Z 02002KT CAVOK 30/11 Q1020 NOSIG
12-08-09 LEBL 090930Z 11006KT 080V140 CAVOK 32/10 Q1020 NOSIG
12-08-09 LEBL 091000Z 08009KT 030V110 CAVOK 31/13 Q1020 NOSIG
12-08-09 LEBL 091030Z 09009KT CAVOK 29/19 Q1020 NOSIG
12-08-09 LEBL 091100Z 10009KT 9999 FEW030 29/19 Q1020 NOSIG
12-08-09 LEBL 091130Z 12006KT 070V170 9999 FEW030 28/19 Q1020 NOSIG
12-08-09 LEBL 091200Z 14005KT 100V170 9999 FEW035 29/19 Q1020 NOSIG
12-08-09 LEBL 091230Z 12006KT 080V160 9999 FEW035 29/19 Q1020 NOSIG
12-08-09 LEBL 091300Z 15007KT 130V190 9999 FEW035 29/19 Q1020 NOSIG
12-08-09 LEBL 091330Z 14007KT 100V170 9999 FEW035 28/21 Q1019 NOSIG
12-08-09 LEBL 091400Z 17006KT 120V230 9999 FEW035 28/21 Q1019 NOSIG
12-08-09 LEBL 091430Z 17005KT 120V220 9999 FEW035 29/19 Q1019 NOSIG
12-08-09 LEBL 091500Z 16005KT 110V200 CAVOK 29/19 Q1019 NOSIG
12-08-09 LEBL 091530Z 18007KT 130V230 CAVOK 29/21 Q1019 NOSIG
12-08-09 LEBL 091600Z 21009KT CAVOK 29/19 Q1019 NOSIG
12-08-09 LEBL 091630Z 22008KT 190V260 CAVOK 29/19 Q1018 NOSIG
12-08-09 LEBL 091700Z 20004KT 160V220 CAVOK 29/19 Q1018 NOSIG
12-08-09 LEBL 091730Z 17004KT 110V220 CAVOK 28/21 Q1018 NOSIG
12-08-09 LEBL 091800Z 15005KT 120V190 CAVOK 28/22 Q1018 NOSIG
12-08-09 LEBL 091830Z 13003KT CAVOK 27/22 Q1018 NOSIG
12-08-09 LEBL 091900Z 08004KT 050V130 CAVOK 27/22 Q1018 NOSIG
12-08-09 LEBL 091930Z 05007KT 020V080 CAVOK 27/22 Q1018 NOSIG
12-08-09 LEBL 092000Z 11003KT 070V150 CAVOK 26/22 Q1019 NOSIG
12-08-09 LEBL 092030Z 03002KT CAVOK 26/22 Q1019 NOSIG
12-08-09 LEBL 092100Z 22004KT CAVOK 25/22 Q1019 NOSIG
12-08-09 LEBL 092130Z 22003KT CAVOK 26/22 Q1019 NOSIG
12-08-09 LEBL 092200Z 29003KT 220V020 CAVOK 25/22 Q1019 NOSIG
12-08-09 LEBL 092230Z 26004KT CAVOK 25/22 Q1019 NOSIG
12-08-09 LEBL 092300Z 30004KT CAVOK 25/19 Q1019 NOSIG
12-08-09 LEBL 092330Z 32005KT CAVOK 25/18 Q1019 NOSIG
12-08-10 LEBL 100000Z 31006KT CAVOK 25/14 Q1019 NOSIG
12-08-10 LEBL 100030Z 28004KT 250V310 CAVOK 23/15 Q1019 NOSIG
12-08-10 LEBL 100100Z 27003KT CAVOK 23/14 Q1019 NOSIG
12-08-10 LEBL 100130Z 33003KT CAVOK 24/14 Q1019 NOSIG
12-08-10 LEBL 100200Z 31006KT CAVOK 23/12 Q1019 NOSIG
12-08-10 LEBL 100230Z 33008KT CAVOK 24/12 Q1018 NOSIG
12-08-10 LEBL 100300Z 31007KT 280V340 9999 FEW020 24/12 Q1018 NOSIG
12-08-10 LEBL 100330Z 32008KT 9999 FEW020 24/12 Q1018 NOSIG
12-08-10 LEBL 100400Z 30011KT 9999 FEW020 24/13 Q1018 NOSIG
12-08-10 LEBL 100430Z 32007KT 9999 FEW020 23/13 Q1018 NOSIG
12-08-10 LEBL 100500Z 32009KT 9999 FEW025 24/13 Q1018 NOSIG
12-08-10 LEBL 100530Z 32007KT 290V350 9999 FEW030 24/14 Q1018 NOSIG
12-08-10 LEBL 100600Z 33006KT 240V360 9999 FEW030 24/14 Q1019 NOSIG
12-08-10 LEBL 100630Z 32005KT 280V350 9999 FEW030 24/14 Q1019 NOSIG
12-08-10 LEBL 100700Z 34005KT 300V360 9999 FEW030 25/14 Q1019 NOSIG
12-08-10 LEBL 100730Z 04007KT 300V090 9999 FEW030 27/15 Q1019 NOSIG
12-08-10 LEBL 100800Z 07007KT 030V110 9999 FEW030 28/17 Q1019 NOSIG
12-08-10 LEBL NIL
12-08-10 LEBL 100830Z 09009KT CAVOK 29/16 Q1019 NOSIG
12-08-10 LEBL 100900Z 09008KT CAVOK 29/15 Q1019 NOSIG
12-08-10 LEBL 100930Z 11008KT 070V140 CAVOK 29/17 Q1019 NOSIG
12-08-10 LEBL 101000Z 09008KT 060V140 CAVOK 29/16 Q1019 NOSIG
12-08-10 LEBL 101030Z 12006KT 070V170 CAVOK 29/17 Q1019 NOSIG
12-08-10 LEBL 101100Z 12007KT 080V170 CAVOK 29/17 Q1019 NOSIG
12-08-10 LEBL 101130Z 12007KT 080V150 CAVOK 30/17 Q1019 NOSIG
12-08-10 LEBL 101200Z 13007KT 100V160 CAVOK 29/16 Q1018 NOSIG
12-08-10 LEBL 101230Z 13008KT 100V160 CAVOK 30/16 Q1018 NOSIG
12-08-10 LEBL 101300Z 11009KT 090V150 CAVOK 29/17 Q1018 NOSIG
12-08-10 LEBL 101330Z 12009KT CAVOK 29/18 Q1018 NOSIG
12-08-10 LEBL 101400Z 10009KT 080V150 CAVOK 29/17 Q1018 NOSIG
12-08-10 LEBL 101430Z 11007KT 070V160 CAVOK 29/18 Q1018 NOSIG
12-08-10 LEBL 101500Z 10007KT CAVOK 29/18 Q1017 NOSIG
12-08-10 LEBL 101530Z 12006KT 070V160 CAVOK 29/17 Q1017 NOSIG
12-08-10 LEBL 101600Z 14005KT 090V170 CAVOK 29/16 Q1017 NOSIG
12-08-10 LEBL 101630Z 11005KT 080V160 CAVOK 28/18 Q1017 NOSIG
12-08-10 LEBL 101700Z 13005KT 080V170 CAVOK 28/18 Q1017 NOSIG
12-08-10 LEBL 101730Z 11004KT 070V140 CAVOK 28/17 Q1017 NOSIG
12-08-10 LEBL 101800Z 11004KT 090V150 CAVOK 28/18 Q1017 NOSIG
12-08-10 LEBL 101830Z 14003KT 110V170 CAVOK 27/18 Q1017 NOSIG
12-08-10 LEBL 101900Z VRB02KT CAVOK 27/18 Q1017 NOSIG
12-08-10 LEBL 101930Z VRB01KT CAVOK 27/19 Q1017 NOSIG
12-08-10 LEBL 102000Z 17002KT CAVOK 26/19 Q1017 NOSIG
12-08-10 LEBL 102030Z VRB01KT CAVOK 26/19 Q1018 NOSIG
12-08-10 LEBL 102100Z 00000KT CAVOK 26/19 Q1018 NOSIG
12-08-10 LEBL 102130Z 33004KT 290V010 CAVOK 25/18 Q1017 NOSIG
12-08-10 LEBL 102200Z 33004KT 290V020 CAVOK 25/17 Q1017 NOSIG
12-08-10 LEBL 102230Z 30006KT CAVOK 24/18 Q1017 NOSIG
12-08-10 LEBL 102300Z 24004KT 210V270 CAVOK 24/18 Q1017 NOSIG
12-08-10 LEBL 102330Z 28003KT 9999 FEW030 25/18 Q1017 NOSIG
12-08-11 LEBL 110000Z 29006KT 9999 SCT030 25/17 Q1017 NOSIG
12-08-11 LEBL 110030Z 30006KT 9999 SCT030 26/17 Q1016 NOSIG
12-08-11 LEBL 110100Z 33007KT 9999 SCT030 25/17 Q1016 NOSIG
12-08-11 LEBL 110130Z 32008KT 9999 SCT030 25/16 Q1016 NOSIG
12-08-11 LEBL 110200Z 33008KT 9999 FEW030 25/16 Q1016 NOSIG
12-08-11 LEBL 110230Z 33008KT 9999 FEW030 25/17 Q1016 NOSIG
12-08-11 LEBL 110300Z 31007KT 9999 FEW030 25/16 Q1016 NOSIG
12-08-11 LEBL 110330Z 31006KT 9999 FEW030 25/16 Q1016 NOSIG
12-08-11 LEBL 110400Z 30005KT 9999 FEW030 25/15 Q1016 NOSIG
12-08-11 LEBL 110430Z 33007KT 9999 FEW030 24/16 Q1016 NOSIG
12-08-11 LEBL 110500Z 32009KT 9999 FEW030 24/16 Q1016 NOSIG
12-08-11 LEBL 110530Z 30007KT 9999 FEW030 23/15 Q1016 NOSIG
12-08-11 LEBL 110600Z 31008KT CAVOK 24/16 Q1016 NOSIG
12-08-11 LEBL 110630Z 32006KT 220V350 CAVOK 25/15 Q1016 NOSIG
12-08-11 LEBL 110700Z 32005KT 280V350 CAVOK 26/15 Q1017 NOSIG
12-08-11 LEBL 110730Z 34003KT 290V030 CAVOK 27/15 Q1016 NOSIG
12-08-11 LEBL 110800Z VRB02KT CAVOK 27/16 Q1016 NOSIG
12-08-11 LEBL 110830Z 05006KT 350V100 CAVOK 29/16 Q1017 NOSIG
12-08-11 LEBL 110900Z 07009KT 040V110 CAVOK 29/17 Q1016 NOSIG
12-08-11 LEBL 110930Z 07011KT CAVOK 29/17 Q1016 NOSIG
12-08-11 LEBL NIL
12-08-11 LEBL 111000Z 06012KT CAVOK 29/15 Q1016 NOSIG
12-08-11 LEBL 111030Z 07012KT 040V100 CAVOK 29/18 Q1016 NOSIG
12-08-11 LEBL 111100Z 09010KT 060V120 CAVOK 29/17 Q1016 NOSIG
12-08-11 LEBL 111130Z 12009KT 080V150 CAVOK 29/17 Q1016 NOSIG
12-08-11 LEBL 111200Z 11008KT 080V140 CAVOK 29/18 Q1015 NOSIG
12-08-11 LEBL 111230Z 11008KT 080V150 CAVOK 29/18 Q1015 NOSIG
12-08-11 LEBL 111300Z 11008KT 080V160 CAVOK 29/18 Q1015 NOSIG
12-08-11 LEBL 111330Z 11007KT 080V150 CAVOK 28/21 Q1014 NOSIG
12-08-11 LEBL 111400Z 12007KT 080V160 CAVOK 28/22 Q1014 NOSIG
12-08-11 LEBL 111430Z 15005KT 090V200 CAVOK 28/23 Q1014 NOSIG
12-08-11 LEBL 111500Z 14005KT 9999 FEW030 29/22 Q1014 NOSIG
12-08-11 LEBL 111530Z 09009KT 060V120 9999 FEW030 29/22 Q1014 NOSIG
12-08-11 LEBL 111600Z 08010KT 9999 FEW030 28/22 Q1013 NOSIG
12-08-11 LEBL 111630Z 11007KT 9999 FEW025 27/22 Q1014 NOSIG
12-08-11 LEBL 111700Z 12005KT 090V150 9999 FEW025 27/22 Q1013 NOSIG
12-08-11 LEBL 111730Z 10006KT 060V130 9999 FEW025 28/23 Q1013 NOSIG
12-08-11 LEBL 111800Z 09006KT CAVOK 27/22 Q1012 NOSIG
12-08-11 LEBL 111830Z 07006KT 030V100 CAVOK 27/22 Q1012 NOSIG
12-08-11 LEBL 111900Z 07008KT 9999 FEW030 27/22 Q1013 NOSIG
12-08-11 LEBL 111930Z 13004KT 090V160 9999 FEW030 26/21 Q1013 NOSIG
12-08-11 LEBL 112000Z 15003KT 080V190 9999 FEW030 27/23 Q1013 NOSIG
12-08-11 LEBL 112030Z 20005KT 9999 FEW030 26/23 Q1013 NOSIG
12-08-11 LEBL 112100Z 19004KT 090V220 9999 FEW030 26/22 Q1013 NOSIG
12-08-11 LEBL 112130Z VRB02KT 9999 FEW030 26/22 Q1013 NOSIG
12-08-11 LEBL 112200Z 03004KT 350V070 9999 FEW030 26/22 Q1013 NOSIG
12-08-11 LEBL 112230Z 02004KT 340V060 9999 FEW030 27/22 Q1012 NOSIG
12-08-11 LEBL 112300Z 04002KT 9999 FEW030 27/21 Q1012 NOSIG
12-08-11 LEBL 112330Z 36004KT 330V050 9999 FEW030 26/21 Q1012 NOSIG
12-08-12 LEBL 120000Z 35001KT 9999 FEW030 26/21 Q1012 NOSIG
12-08-12 LEBL 120030Z 02003KT 9999 FEW030 26/20 Q1012 NOSIG
12-08-12 LEBL 120100Z 00000KT 9999 FEW030 25/20 Q1012 NOSIG
12-08-12 LEBL 120130Z 33004KT 9999 FEW030 25/20 Q1012 NOSIG
12-08-12 LEBL 120200Z 33004KT 9999 FEW030 25/19 Q1012 NOSIG
12-08-12 LEBL 120230Z 34005KT 9999 FEW030 25/20 Q1012 NOSIG
12-08-12 LEBL 120300Z 33004KT 9999 FEW030 24/20 Q1012 NOSIG
12-08-12 LEBL 120330Z 33004KT 9999 FEW030 24/20 Q1012 NOSIG
12-08-12 LEBL 120400Z 33005KT 290V350 9999 FEW030 24/19 Q1012 NOSIG
12-08-12 LEBL 120430Z 32006KT 9999 FEW030 24/19 Q1013 NOSIG
12-08-12 LEBL 120500Z 34005KT 9999 FEW030 23/19 Q1013 NOSIG
12-08-12 LEBL 120530Z 33006KT 9999 FEW030 23/19 Q1013 NOSIG
12-08-12 LEBL 120600Z 34005KT 300V010 9999 FEW035 24/19 Q1013 NOSIG
12-08-12 LEBL 120630Z 34002KT 9999 FEW035 25/19 Q1013 NOSIG
12-08-12 LEBL 120700Z 10006KT 9999 FEW035 27/19 Q1013 NOSIG
12-08-12 LEBL 120730Z 10005KT 080V140 9999 FEW035 27/20 Q1013 NOSIG
12-08-12 LEBL 120800Z 11004KT 070V150 9999 FEW035 27/20 Q1013 NOSIG
12-08-12 LEBL 120830Z VRB02KT 9999 FEW035 28/20 Q1013 NOSIG
12-08-12 LEBL 120900Z 14004KT 080V230 9999 FEW035 27/20 Q1013 NOSIG
12-08-12 LEBL 120930Z 15005KT 110V210 9999 FEW035 27/20 Q1013 NOSIG
12-08-12 LEBL 121000Z 17007KT 130V200 9999 FEW035 27/21 Q1013 NOSIG
12-08-12 LEBL 121030Z 18008KT 140V210 9999 FEW035 27/20 Q1013 NOSIG
12-08-12 LEBL 121100Z 18008KT 150V220 9999 FEW035 27/20 Q1013 NOSIG
12-08-12 LEBL 121130Z 19010KT 120V230 9999 FEW035 28/21 Q1013 NOSIG
12-08-12 LEBL 121200Z 17010KT 150V210 9999 FEW035 27/21 Q1013 NOSIG
12-08-12 LEBL 121230Z 18009KT 120V210 9999 FEW035 27/21 Q1013 NOSIG
12-08-12 LEBL 121300Z 16010KT 130V200 9999 FEW035 27/21 Q1013 NOSIG
12-08-12 LEBL 121330Z 17009KT 140V210 9999 FEW035 27/21 Q1013 NOSIG
12-08-12 LEBL 121400Z 17008KT 130V210 9999 FEW030 27/21 Q1013 NOSIG
12-08-12 LEBL 121430Z 17008KT 120V210 9999 FEW030 27/20 Q1013 NOSIG
12-08-12 LEBL 121500Z 16008KT 120V200 9999 FEW030 27/20 Q1012 NOSIG
12-08-12 LEBL 121530Z 16008KT 120V200 9999 FEW030 27/21 Q1012 NOSIG
12-08-12 LEBL 121600Z 15008KT 120V190 9999 FEW030 27/21 Q1012 NOSIG
12-08-12 LEBL 121630Z 14007KT 110V190 9999 SCT020 26/20 Q1012 NOSIG
12-08-12 LEBL 121700Z 15006KT 110V190 9999 SCT020 26/20 Q1012 NOSIG
12-08-12 LEBL 121730Z NIL
12-08-12 LEBL 121800Z 13005KT 100V170 9999 SCT020 25/20 Q1012 NOSIG
12-08-12 LEBL 121830Z 14004KT 100V170 9999 FEW020 25/20 Q1012 NOSIG
12-08-12 LEBL 121900Z VRB02KT 9999 FEW020 25/20 Q1012 NOSIG
12-08-12 LEBL 121930Z VRB02KT 9999 FEW020 25/20 Q1013 NOSIG
12-08-12 LEBL 122000Z VRB02KT 9999 FEW020 25/20 Q1013 NOSIG
12-08-12 LEBL 122030Z 09001KT 9999 FEW020 25/20 Q1013 NOSIG
12-08-12 LEBL 122100Z VRB02KT CAVOK 25/20 Q1013 NOSIG
12-08-12 LEBL 122130Z 29004KT CAVOK 24/20 Q1013 NOSIG
12-08-12 LEBL 122200Z 29005KT 9999 FEW025 24/20 Q1013 NOSIG
12-08-12 LEBL 122230Z 31004KT 9999 FEW025 24/20 Q1013 NOSIG
12-08-12 LEBL 122300Z 34004KT 9999 FEW025 24/20 Q1014 NOSIG
12-08-12 LEBL 122330Z 32005KT 210V350 9999 FEW025 24/20 Q1014 NOSIG
12-08-13 LEBL 130000Z 31007KT 9999 FEW025 24/20 Q1013 NOSIG
12-08-13 LEBL 130030Z 32006KT 9999 FEW025 23/20 Q1013 NOSIG
12-08-13 LEBL 130100Z 32007KT 9999 FEW025 23/20 Q1013 NOSIG
12-08-13 LEBL 130130Z 32006KT 9999 FEW025 23/20 Q1013 NOSIG
12-08-13 LEBL 130200Z 32005KT 9999 FEW025 23/20 Q1013 NOSIG
12-08-13 LEBL 130230Z 33006KT 9999 FEW025 23/20 Q1013 NOSIG
12-08-13 LEBL 130300Z 32007KT 9999 FEW025 23/20 Q1013 NOSIG
12-08-13 LEBL 130330Z 33004KT 9999 FEW025 23/20 Q1013 NOSIG
12-08-13 LEBL 130400Z 33007KT 9999 FEW025 23/20 Q1013 NOSIG
12-08-13 LEBL 130430Z 32006KT 9999 FEW025 23/20 Q1012 NOSIG
12-08-13 LEBL 130500Z 32007KT 9999 FEW025 23/20 Q1013 NOSIG
12-08-13 LEBL 130530Z 32007G19KT 9999 FEW025 23/19 Q1013 NOSIG
12-08-13 LEBL 130600Z 32007KT 9999 FEW025 23/19 Q1013 NOSIG
12-08-13 LEBL 130630Z 32008G18KT 260V340 9999 FEW025 23/19 Q1013 NOSIG
12-08-13 LEBL 130700Z 32009G19KT 290V350 CAVOK 24/19 Q1013 NOSIG
12-08-13 LEBL 130730Z 32009G19KT 290V350 CAVOK 25/18 Q1013 NOSIG
12-08-13 LEBL 130800Z VRB07KT CAVOK 26/18 Q1013 NOSIG
12-08-13 LEBL NIL
12-08-13 LEBL 130830Z 29003KT 240V330 CAVOK 28/17 Q1013 NOSIG
12-08-13 LEBL 130900Z 26005KT 220V310 CAVOK 29/18 Q1013 NOSIG
12-08-13 LEBL 130930Z 19007KT CAVOK 29/19 Q1013 NOSIG
12-08-13 LEBL 131000Z 18009KT 140V220 CAVOK 29/19 Q1013 NOSIG
12-08-13 LEBL 131030Z NIL
12-08-13 LEBL 131030Z 20011KT CAVOK 30/17 Q1013 NOSIG
12-08-13 LEBL 131100Z 21014KT CAVOK 29/17 Q1013 NOSIG
12-08-13 LEBL 131130Z 22017KT CAVOK 29/20 Q1013 NOSIG
12-08-13 LEBL 131200Z 22017KT 9999 FEW025 29/20 Q1013 NOSIG
12-08-13 LEBL 131230Z 22016KT 9999 FEW025 29/20 Q1013 NOSIG
12-08-13 LEBL 131300Z 22015KT 9999 FEW025 29/21 Q1012 NOSIG
12-08-13 LEBL 131330Z 22016KT 9999 FEW025 29/21 Q1012 NOSIG
12-08-13 LEBL 131400Z 21014KT 180V240 9999 FEW025 29/20 Q1012 NOSIG
12-08-13 LEBL 131430Z 22013KT 9999 FEW025 29/20 Q1012 NOSIG
12-08-13 LEBL 131500Z 21013KT 9999 FEW025 29/21 Q1012 NOSIG
12-08-13 LEBL 131530Z 21015KT 9999 FEW025 28/20 Q1011 NOSIG
12-08-13 LEBL 131600Z 21014KT 9999 FEW025 28/20 Q1011 NOSIG
12-08-13 LEBL 131630Z 21013KT 9999 FEW025 28/20 Q1011 NOSIG
12-08-13 LEBL 131700Z 21011KT 9999 FEW025 28/20 Q1011 NOSIG
12-08-13 LEBL 131730Z 20010KT 180V240 9999 FEW025 28/20 Q1011 NOSIG
12-08-13 LEBL 131800Z 21009KT 9999 FEW020 27/21 Q1011 NOSIG
12-08-13 LEBL 131830Z 21007KT 9999 FEW020 27/20 Q1011 NOSIG
12-08-13 LEBL 131900Z 20006KT 9999 FEW020 26/20 Q1012 NOSIG
12-08-13 LEBL 131930Z 18004KT 9999 FEW020 26/20 Q1012 NOSIG
12-08-13 LEBL 132000Z 17003KT 9999 FEW020 26/20 Q1012 NOSIG
12-08-13 LEBL 132030Z 15003KT 9999 FEW020 26/20 Q1013 NOSIG
12-08-13 LEBL 132100Z 13004KT 9999 FEW020 26/20 Q1013 NOSIG
12-08-13 LEBL 132130Z NIL
12-08-13 LEBL 132130Z 14002KT 9999 FEW020 26/20 Q1013 NOSIG
12-08-13 LEBL 132200Z 14002KT 9999 FEW030 26/20 Q1013 NOSIG
12-08-13 LEBL 132230Z 11003KT 9999 FEW030 26/21 Q1013 NOSIG
12-08-13 LEBL 132300Z 12004KT 9999 SCT030 26/21 Q1013 NOSIG
12-08-13 LEBL 132330Z 12003KT 9999 SCT030 25/21 Q1013 NOSIG
12-08-14 LEBL 140000Z VRB02KT 9999 SCT030 25/21 Q1013 NOSIG
12-08-14 LEBL 140030Z 00000KT 9999 SCT030 25/20 Q1013 NOSIG
12-08-14 LEBL 140100Z 00000KT 9999 SCT030 25/20 Q1013 NOSIG
12-08-14 LEBL 140130Z 31002KT 9999 FEW030 24/20 Q1013 NOSIG
12-08-14 LEBL 140200Z 30004KT 9999 FEW030 24/20 Q1012 NOSIG
12-08-14 LEBL 140230Z 32004KT 9999 FEW030 24/20 Q1012 NOSIG
12-08-14 LEBL 140300Z 30004KT 9999 FEW030 24/20 Q1012 NOSIG
12-08-14 LEBL 140330Z 33004KT 9999 FEW030 23/20 Q1012 NOSIG
12-08-14 LEBL 140400Z NIL
12-08-14 LEBL 140400Z 32004KT 9999 FEW030 23/20 Q1011 NOSIG
12-08-14 LEBL 140430Z 35006KT 9999 FEW030 23/20 Q1011 NOSIG
12-08-14 LEBL 140500Z 32006KT 9999 FEW030 23/20 Q1012 NOSIG
12-08-14 LEBL 140530Z 31005KT 9999 FEW030 23/20 Q1012 NOSIG
12-08-14 LEBL 140600Z 31004KT 9999 FEW030 23/20 Q1012 NOSIG
12-08-14 LEBL 140630Z 30005KT 240V340 9999 FEW030 24/20 Q1012 NOSIG
12-08-14 LEBL 140700Z 26005KT 220V300 9999 FEW030 25/21 Q1012 NOSIG
12-08-14 LEBL 140730Z 23008KT 9999 FEW030 27/21 Q1012 NOSIG
12-08-14 LEBL 140800Z 23008KT 9999 FEW030 27/21 Q1012 NOSIG
12-08-14 LEBL 140830Z 22009KT 190V250 9999 FEW030 27/21 Q1012 NOSIG
12-08-14 LEBL 140900Z 21010KT 170V240 9999 FEW030 28/20 Q1013 NOSIG
12-08-14 LEBL 140930Z 20010KT 9999 FEW030 28/21 Q1013 NOSIG
12-08-14 LEBL 141000Z 20010KT 160V240 9999 FEW030 28/21 Q1013 NOSIG
12-08-14 LEBL 141030Z 20012KT 9999 FEW030 29/21 Q1013 NOSIG
12-08-14 LEBL 141100Z 21012KT 9999 FEW030 29/21 Q1012 NOSIG
12-08-14 LEBL 141130Z 20013KT 160V220 9999 FEW030 29/21 Q1012 NOSIG
12-08-14 LEBL 141200Z 19012KT 9999 FEW020 29/22 Q1012 NOSIG
12-08-14 LEBL 141230Z 20012KT 170V240 9999 FEW020 29/22 Q1012 NOSIG
12-08-14 LEBL 141300Z 20012KT 9999 FEW020 29/21 Q1012 NOSIG
12-08-14 LEBL 141330Z 20012KT 170V230 9999 FEW020 29/22 Q1012 NOSIG
12-08-14 LEBL 141400Z 20014KT 170V240 9999 FEW020 29/22 Q1011 NOSIG
12-08-14 LEBL 141430Z 21013KT 190V260 9999 FEW016 30/21 Q1011 NOSIG
12-08-14 LEBL 141500Z 21014KT 9999 FEW016 29/21 Q1011 NOSIG
12-08-14 LEBL 141530Z 20013KT 9999 FEW016 29/21 Q1011 NOSIG
12-08-14 LEBL 141600Z 20012KT 160V260 9999 FEW020 29/21 Q1011 NOSIG
12-08-14 LEBL 141630Z 20011KT 170V230 CAVOK 28/22 Q1011 NOSIG
12-08-14 LEBL 141700Z 21010KT CAVOK 28/22 Q1011 NOSIG
12-08-14 LEBL 141730Z 20010KT CAVOK 28/22 Q1010 NOSIG
12-08-14 LEBL 141800Z 20009KT 9999 FEW016 28/23 Q1011 NOSIG
12-08-14 LEBL 141830Z 21008KT 9999 FEW016 27/23 Q1011 NOSIG
12-08-14 LEBL 141900Z 20007KT 9999 FEW016 27/23 Q1011 NOSIG
12-08-14 LEBL 141930Z 20006KT 9999 FEW016 27/23 Q1011 NOSIG
12-08-14 LEBL 142000Z 20006KT 9999 FEW016 27/23 Q1012 NOSIG
12-08-14 LEBL 142030Z 19005KT 9999 FEW016 27/23 Q1012 NOSIG
12-08-14 LEBL 142100Z 19004KT 160V220 9999 FEW016 27/23 Q1012 NOSIG
12-08-14 LEBL 142130Z 19005KT 9999 FEW016 26/23 Q1012 NOSIG
12-08-14 LEBL 142200Z 20004KT 9999 FEW016 27/23 Q1012 NOSIG
12-08-14 LEBL 142230Z 18003KT 9999 FEW016 26/23 Q1012 NOSIG
12-08-14 LEBL 142300Z VRB02KT 9999 FEW016 26/23 Q1012 NOSIG
12-08-14 LEBL 142330Z 19003KT 9999 FEW016 26/23 Q1012 NOSIG
12-08-15 LEBL 150000Z 19003KT 9999 FEW016 26/23 Q1012 NOSIG
12-08-15 LEBL 150030Z VRB01KT 9999 FEW016 26/23 Q1011 NOSIG
12-08-15 LEBL 150100Z 19002KT 9999 FEW016 26/23 Q1011 NOSIG
12-08-15 LEBL 150130Z 00000KT 9999 FEW016 25/23 Q1011 NOSIG
12-08-15 LEBL 150200Z 35002KT 9999 FEW012 25/22 Q1011 NOSIG
12-08-15 LEBL 150230Z 32003KT 9999 FEW012 25/22 Q1011 NOSIG
12-08-15 LEBL 150300Z VRB02KT 9999 FEW015 24/22 Q1011 NOSIG
12-08-15 LEBL 150330Z 32004KT 9999 FEW015 SCT030 24/22 Q1011 NOSIG
12-08-15 LEBL 150400Z 32003KT 9999 FEW015 SCT025 25/22 Q1011 NOSIG
12-08-15 LEBL 150430Z 33003KT 9999 FEW015 24/22 Q1011 NOSIG
12-08-15 LEBL 150500Z 33003KT 9999 FEW016 SCT025 24/22 Q1011 NOSIG
12-08-15 LEBL 150530Z 35004KT 280V020 9999 FEW018 SCT027 24/22 Q1011 NOSIG
12-08-15 LEBL 150600Z 33004KT 300V010 9999 FEW015 SCT025 25/22 Q1011 NOSIG
12-08-15 LEBL 150630Z 32005KT 280V350 9999 FEW015 SCT025 25/22 Q1012 NOSIG
12-08-15 LEBL 150700Z VRB02KT 9999 FEW015 SCT025 26/22 Q1012 NOSIG
12-08-15 LEBL 150730Z 28001KT 9999 SCT018 27/22 Q1012 NOSIG
12-08-15 LEBL 150800Z 21008KT 9999 FEW018 SCT030 28/22 Q1012 NOSIG
12-08-15 LEBL NIL
12-08-15 LEBL 150830Z 21009KT 9999 FEW018 SCT030 28/22 Q1012 NOSIG
12-08-15 LEBL 150900Z 21009KT 170V240 9999 FEW018 BKN030 28/22 Q1012 NOSIG
12-08-15 LEBL 150930Z 21010KT 170V250 9999 FEW018 SCT030 29/22 Q1012 NOSIG
12-08-15 LEBL 151000Z 19012KT 9999 FEW018 29/22 Q1012 NOSIG
12-08-15 LEBL 151030Z 21013KT 170V230 9999 FEW018 29/22 Q1012 NOSIG
12-08-15 LEBL 151100Z 20014KT 9999 FEW020 29/22 Q1012 NOSIG
12-08-15 LEBL 151130Z 20015KT 9999 FEW020 29/22 Q1012 NOSIG
12-08-15 LEBL 151200Z 21014KT 9999 FEW020 29/22 Q1012 NOSIG
12-08-15 LEBL 151230Z 20013KT 9999 FEW016 29/22 Q1012 NOSIG
12-08-15 LEBL 151300Z 20015KT 9999 FEW015 SCT020 30/22 Q1012 NOSIG
12-08-15 LEBL 151330Z 21015KT 9999 FEW015 SCT020 30/22 Q1011 NOSIG
12-08-15 LEBL 151400Z 21014KT 9999 FEW015 SCT020 30/22 Q1011 NOSIG
12-08-15 LEBL 151430Z 21014KT 9999 FEW015 30/23 Q1011 NOSIG
12-08-15 LEBL 151500Z 21014KT 9999 FEW018 30/23 Q1011 NOSIG
12-08-15 LEBL 151530Z 22015KT 9999 FEW018 29/23 Q1011 NOSIG
12-08-15 LEBL 151600Z 22015KT 9999 FEW018 29/23 Q1011 NOSIG
12-08-15 LEBL 151630Z 22014KT 9999 FEW020 29/23 Q1011 NOSIG
12-08-15 LEBL 151700Z 22015KT 9999 FEW022 28/23 Q1010 NOSIG
12-08-15 LEBL 151730Z 22013KT 9999 FEW022 28/23 Q1011 NOSIG
12-08-15 LEBL 151800Z 22013KT 9999 FEW025 28/24 Q1011 NOSIG
12-08-15 LEBL 151830Z 22008KT 9999 FEW025 28/24 Q1011 NOSIG
12-08-15 LEBL 151900Z 21007KT 9999 FEW025 27/24 Q1011 NOSIG
12-08-15 LEBL 151930Z 22009KT 9999 FEW020 27/23 Q1012 NOSIG
12-08-15 LEBL 152000Z 26006KT 220V340 9999 FEW020 28/21 Q1012 NOSIG
12-08-15 LEBL 152030Z VRB02KT 9999 FEW020 28/19 Q1012 NOSIG
12-08-15 LEBL 152100Z 21005KT 160V220 9999 FEW020 27/23 Q1013 NOSIG
12-08-15 LEBL 152130Z 23010KT 9999 FEW020 27/25 Q1013 NOSIG
12-08-15 LEBL 152200Z 23010KT 9999 FEW018 27/25 Q1013 NOSIG
12-08-15 LEBL 152230Z 36003KT 290V040 9999 FEW018 27/24 Q1014 NOSIG
12-08-15 LEBL 152300Z 05013KT 9999 FEW018 27/24 Q1014 NOSIG
12-08-15 LEBL 152330Z 03010KT 9999 FEW018 26/23 Q1014 NOSIG
12-08-16 LEBL 160000Z 04010KT 9999 FEW018 26/23 Q1014 NOSIG
12-08-16 LEBL 160030Z 04009KT 9999 FEW016 26/24 Q1015 NOSIG
12-08-16 LEBL 160100Z 03008KT 010V070 9999 FEW016 26/24 Q1015 NOSIG
12-08-16 LEBL 160130Z 04010KT 9999 FEW008 26/23 Q1015 NOSIG
12-08-16 LEBL 160200Z 04008KT 9999 FEW006 SCT012 26/24 Q1015 NOSIG
12-08-16 LEBL 160230Z 05004KT 7000 FEW007 BKN018 26/24 Q1015 NOSIG
12-08-16 LEBL 160300Z 09002KT 9000 FEW007 BKN018 26/24 Q1015 NOSIG
12-08-16 LEBL 160330Z 12007KT 090V150 9999 FEW008 SCT018 BKN030 26/24 Q1015 NOSIG
12-08-16 LEBL 160400Z 12007KT 090V160 9999 FEW013 BKN025 26/23 Q1015 NOSIG
12-08-16 LEBL 160430Z 11006KT 090V150 9999 FEW013 BKN025 26/21 Q1016 NOSIG
12-08-16 LEBL 160500Z 10004KT 9999 FEW018 BKN030 26/21 Q1016 NOSIG
12-08-16 LEBL 160530Z 08003KT 9999 FEW018 SCT025 26/22 Q1016 NOSIG
12-08-16 LEBL 160600Z 05005KT 9999 FEW018 SCT030 26/22 Q1016 NOSIG
12-08-16 LEBL 160630Z 05004KT 9999 FEW018 SCT030 26/21 Q1016 NOSIG
12-08-16 LEBL 160700Z 05005KT 350V100 9999 FEW020 27/20 Q1017 NOSIG
12-08-16 LEBL 160730Z 04005KT 310V110 9999 FEW020 28/20 Q1017 NOSIG
12-08-16 LEBL 160800Z 08003KT 020V120 9999 FEW020 28/19 Q1017 NOSIG
12-08-16 LEBL NIL
12-08-16 LEBL 160830Z 08003KT 9999 FEW020 29/19 Q1017 NOSIG
12-08-16 LEBL 160900Z 10004KT 9999 FEW025 29/19 Q1017 NOSIG
12-08-16 LEBL 160930Z 14007KT 9999 FEW025 29/18 Q1017 NOSIG
12-08-16 LEBL 161000Z 14008KT 110V170 9999 FEW025 29/18 Q1017 NOSIG
12-08-16 LEBL 161030Z 14008KT 110V170 9999 FEW025 29/19 Q1017 NOSIG
12-08-16 LEBL 161100Z 14009KT 100V170 9999 FEW030 29/18 Q1017 NOSIG
12-08-16 LEBL 161130Z 14008KT 110V170 9999 FEW030 29/17 Q1017 NOSIG
12-08-16 LEBL 161200Z 14009KT 110V170 9999 FEW030 29/17 Q1017 NOSIG
12-08-16 LEBL 161230Z 13009KT 110V180 9999 FEW030 28/19 Q1017 NOSIG
12-08-16 LEBL 161300Z 15009KT 110V190 9999 FEW030 28/18 Q1017 NOSIG
12-08-16 LEBL 161330Z 17009KT 120V200 9999 FEW030 28/19 Q1017 NOSIG
12-08-16 LEBL 161400Z 17009KT 130V200 9999 FEW030 28/19 Q1017 NOSIG
12-08-16 LEBL 161430Z 17008KT 130V210 9999 FEW030 28/20 Q1016 NOSIG
12-08-16 LEBL 161500Z 18009KT 150V220 9999 FEW030 28/20 Q1016 NOSIG
12-08-16 LEBL 161530Z 20009KT 160V220 CAVOK 28/20 Q1016 NOSIG
12-08-16 LEBL 161600Z 20009KT 160V220 CAVOK 28/20 Q1016 NOSIG
12-08-16 LEBL 161630Z 20009KT 170V240 CAVOK 28/20 Q1016 NOSIG
12-08-16 LEBL 161700Z 21007KT 180V240 CAVOK 28/20 Q1016 NOSIG
12-08-16 LEBL 161730Z 22008KT CAVOK 28/20 Q1015 NOSIG
12-08-16 LEBL 161800Z 23008KT CAVOK 28/20 Q1015 NOSIG
12-08-16 LEBL 161830Z 22007KT CAVOK 27/20 Q1015 NOSIG
12-08-16 LEBL 161900Z 23007KT CAVOK 26/20 Q1015 NOSIG
12-08-16 LEBL 161930Z 21006KT CAVOK 27/20 Q1015 NOSIG
12-08-16 LEBL 162000Z 22005KT CAVOK 27/20 Q1016 NOSIG
12-08-16 LEBL 162030Z VRB02KT CAVOK 27/20 Q1016 NOSIG
12-08-16 LEBL 162100Z 10001KT CAVOK 27/19 Q1016 NOSIG
12-08-16 LEBL 162130Z 00000KT CAVOK 27/19 Q1016 NOSIG
12-08-16 LEBL 162200Z 00000KT CAVOK 27/19 Q1016 NOSIG
12-08-16 LEBL 162230Z 19003KT CAVOK 26/19 Q1017 NOSIG
12-08-16 LEBL 162300Z 17002KT CAVOK 27/18 Q1017 NOSIG
12-08-16 LEBL 162330Z 00000KT CAVOK 26/18 Q1017 NOSIG
12-08-17 LEBL 170000Z 00000KT CAVOK 25/18 Q1017 NOSIG
12-08-17 LEBL 170030Z VRB01KT CAVOK 25/18 Q1017 NOSIG
12-08-17 LEBL 170100Z 00000KT CAVOK 25/18 Q1017 NOSIG
12-08-17 LEBL 170130Z 00000KT CAVOK 24/18 Q1017 NOSIG
12-08-17 LEBL 170200Z 34003KT CAVOK 24/18 Q1017 NOSIG
12-08-17 LEBL 170230Z 32004KT CAVOK 24/18 Q1017 NOSIG
12-08-17 LEBL 170300Z 32004KT CAVOK 24/18 Q1016 NOSIG
12-08-17 LEBL 170330Z 32005KT CAVOK 23/19 Q1016 NOSIG
12-08-17 LEBL 170400Z 33005KT CAVOK 23/19 Q1016 NOSIG
12-08-17 LEBL 170430Z 31006KT CAVOK 23/19 Q1016 NOSIG
12-08-17 LEBL 170500Z 33005KT CAVOK 23/18 Q1016 NOSIG
12-08-17 LEBL 170530Z 33005KT 9999 FEW025 23/19 Q1016 NOSIG
12-08-17 LEBL 170600Z 33007KT 290V020 9999 FEW025 23/19 Q1016 NOSIG
12-08-17 LEBL 170630Z 33007KT 290V360 9999 FEW025 24/19 Q1017 NOSIG
12-08-17 LEBL 170700Z 32006KT 9999 FEW025 24/19 Q1017 NOSIG
12-08-17 LEBL 170730Z 33004KT 260V030 9999 FEW025 26/20 Q1017 NOSIG
12-08-17 LEBL 170800Z 01003KT 280V050 9999 FEW025 26/21 Q1017 NOSIG
12-08-17 LEBL NIL
12-08-17 LEBL 170830Z 09004KT 9999 FEW025 28/21 Q1017 NOSIG
12-08-17 LEBL 170900Z 08005KT CAVOK 29/21 Q1017 NOSIG
12-08-17 LEBL 170930Z 10005KT 070V140 CAVOK 29/21 Q1017 NOSIG
12-08-17 LEBL 171000Z 12005KT CAVOK 29/19 Q1017 NOSIG
12-08-17 LEBL 171030Z 11006KT 080V160 CAVOK 29/20 Q1017 NOSIG
12-08-17 LEBL 171100Z 12007KT 090V160 9999 FEW010 28/20 Q1017 NOSIG
12-08-17 LEBL 171130Z 11007KT 080V150 9999 FEW010 28/21 Q1017 NOSIG
12-08-17 LEBL 171200Z 12006KT 030V170 9999 FEW010 29/22 Q1017 NOSIG
12-08-17 LEBL 171230Z 12006KT 070V150 9999 FEW012 29/22 Q1017 NOSIG
12-08-17 LEBL 171300Z 12006KT 080V170 9999 FEW012 28/22 Q1017 NOSIG
12-08-17 LEBL 171330Z 11006KT 080V170 9999 FEW015 28/23 Q1017 NOSIG
12-08-17 LEBL 171400Z 14005KT 080V190 9999 FEW012 29/23 Q1017 NOSIG
12-08-17 LEBL 171430Z 11006KT 060V160 9999 FEW012 29/23 Q1017 NOSIG
12-08-17 LEBL 171500Z 11005KT 060V200 9999 FEW012 29/23 Q1017 NOSIG
12-08-17 LEBL 171530Z 11006KT 070V160 9999 FEW012 29/23 Q1016 NOSIG
12-08-17 LEBL 171600Z 10006KT 070V130 9999 FEW012 28/22 Q1016 NOSIG
12-08-17 LEBL 171630Z 09005KT 070V130 9999 FEW015 29/22 Q1016 NOSIG
12-08-17 LEBL 171700Z 08005KT 030V120 9999 FEW015 28/22 Q1016 NOSIG
12-08-17 LEBL 171730Z 06007KT 010V120 9999 FEW015 28/22 Q1016 NOSIG
12-08-17 LEBL 171800Z 05005KT 320V100 CAVOK 27/23 Q1016 NOSIG
12-08-17 LEBL 171830Z 05005KT 010V070 CAVOK 27/23 Q1016 NOSIG
12-08-17 LEBL 171900Z 03004KT 340V080 CAVOK 27/22 Q1016 NOSIG
12-08-17 LEBL 171930Z 04004KT 310V070 9999 FEW030 27/23 Q1016 NOSIG
12-08-17 LEBL 172000Z 03003KT 320V080 9999 FEW030 27/22 Q1017 NOSIG
12-08-17 LEBL 172030Z 05003KT 9999 FEW025 27/23 Q1017 NOSIG
12-08-17 LEBL 172100Z 02002KT 9999 FEW025 27/23 Q1017 NOSIG
12-08-17 LEBL 172130Z 09001KT 9999 FEW025 27/23 Q1017 NOSIG
12-08-17 LEBL 172200Z 09003KT 9999 FEW025 27/23 Q1017 NOSIG
12-08-17 LEBL 172230Z 09003KT 9999 FEW025 26/20 Q1017 NOSIG
12-08-17 LEBL 172300Z 30003KT 9999 FEW025 26/19 Q1017 NOSIG
12-08-17 LEBL 172330Z 35002KT 9999 FEW025 25/19 Q1017 NOSIG
12-08-18 LEBL 180000Z 33005KT 9999 FEW025 25/19 Q1017 NOSIG
12-08-18 LEBL 180030Z VRB02KT 9999 FEW025 24/18 Q1017 NOSIG
12-08-18 LEBL 180100Z 31006KT 9999 FEW025 24/19 Q1017 NOSIG
12-08-18 LEBL 180130Z 32004KT 9999 FEW025 24/18 Q1016 NOSIG
12-08-18 LEBL 180200Z 32005KT 9999 FEW025 24/18 Q1016 NOSIG
12-08-18 LEBL 180230Z 33006KT 9999 FEW025 24/18 Q1016 NOSIG
12-08-18 LEBL 180300Z 33006KT 9999 FEW025 24/17 Q1016 NOSIG
12-08-18 LEBL 180330Z 33008KT 9999 FEW025 23/17 Q1016 NOSIG
12-08-18 LEBL 180400Z 34006KT 310V010 9999 FEW025 23/17 Q1016 NOSIG
12-08-18 LEBL 180430Z 33006KT 9999 FEW025 23/17 Q1016 NOSIG
12-08-18 LEBL 180500Z 32006KT 9999 FEW025 23/16 Q1016 NOSIG
12-08-18 LEBL 180530Z 33007G20KT 290V350 9999 FEW025 23/16 Q1016 NOSIG
12-08-18 LEBL 180600Z 32007KT 280V350 9999 FEW025 24/16 Q1016 NOSIG
12-08-18 LEBL 180630Z 33006KT 230V350 9999 FEW025 24/16 Q1017 NOSIG
12-08-18 LEBL 180700Z 33006KT 9999 FEW025 25/16 Q1017 NOSIG
12-08-18 LEBL 180730Z 34005KT 300V010 9999 FEW025 26/16 Q1017 NOSIG
12-08-18 LEBL 180800Z 08006KT 9999 FEW025 27/19 Q1017 NOSIG
12-08-18 LEBL 180830Z 08007KT 9999 FEW025 28/23 Q1017 NOSIG
12-08-18 LEBL 180900Z NIL
12-08-18 LEBL 180900Z 10006KT 040V140 9999 FEW025 28/23 Q1018 NOSIG
12-08-18 LEBL 180930Z 08007KT 040V110 9999 FEW025 28/23 Q1018 NOSIG
12-08-18 LEBL 181000Z 08006KT 040V120 9999 FEW025 29/22 Q1018 NOSIG
12-08-18 LEBL 181030Z 09007KT 040V160 9999 FEW025 29/23 Q1018 NOSIG
12-08-18 LEBL 181100Z 07008KT 040V100 9999 FEW025 29/23 Q1018 NOSIG
12-08-18 LEBL 181130Z 07008KT 040V120 9999 FEW025 29/23 Q1018 NOSIG
12-08-18 LEBL 181200Z 08007KT 030V120 9999 FEW025 29/23 Q1017 NOSIG
12-08-18 LEBL 181230Z NIL
12-08-18 LEBL 181300Z 09009KT 060V130 9999 FEW020 29/24 Q1018 NOSIG
12-08-18 LEBL 181330Z NIL
12-08-18 LEBL 181400Z 09007KT 050V130 9999 FEW018 29/24 Q1017 NOSIG
12-08-18 LEBL 181430Z 09007KT 070V150 9999 FEW020 30/21 Q1017 NOSIG
12-08-18 LEBL 181500Z 08007KT 9999 FEW020 30/22 Q1017 NOSIG
12-08-18 LEBL 181530Z 10007KT 070V130 9999 FEW020 30/23 Q1017 NOSIG
12-08-18 LEBL 181600Z 09007KT 060V120 9999 FEW020 30/23 Q1017 NOSIG
12-08-18 LEBL 181630Z 10007KT 9999 FEW020 29/23 Q1017 NOSIG
12-08-18 LEBL 181700Z 09007KT 9999 FEW020 29/24 Q1017 NOSIG
12-08-18 LEBL 181730Z 07006KT 040V100 9999 FEW020 28/24 Q1017 NOSIG
12-08-18 LEBL 181800Z 08006KT 9999 FEW020 28/24 Q1017 NOSIG
12-08-18 LEBL 181830Z 07005KT 9999 FEW020 28/24 Q1017 NOSIG
12-08-18 LEBL 181900Z 07004KT 9999 FEW020 28/23 Q1017 NOSIG
12-08-18 LEBL 181930Z 07004KT 9999 FEW020 27/23 Q1018 NOSIG
12-08-18 LEBL 182000Z 07004KT 9999 FEW020 27/24 Q1018 NOSIG
12-08-18 LEBL 182030Z 08004KT 9999 FEW020 27/24 Q1018 NOSIG
12-08-18 LEBL 182100Z 09003KT 9999 FEW020 27/24 Q1019 NOSIG
12-08-18 LEBL 182130Z VRB01KT 9999 FEW020 27/24 Q1019 NOSIG
12-08-18 LEBL 182200Z 00000KT 9999 FEW020 26/24 Q1019 NOSIG
12-08-18 LEBL 182230Z 00000KT 9999 FEW020 26/22 Q1019 NOSIG
12-08-18 LEBL 182300Z 00000KT 9999 FEW020 26/21 Q1019 NOSIG
12-08-18 LEBL 182330Z 31003KT 9999 FEW020 26/20 Q1018 NOSIG
12-08-19 LEBL 190000Z 31004KT 9999 FEW020 26/19 Q1018 NOSIG
12-08-19 LEBL 190030Z 36003KT 9999 FEW020 25/20 Q1018 NOSIG
12-08-19 LEBL 190100Z NIL
12-08-19 LEBL 190100Z 34004KT 9999 FEW020 25/19 Q1018 NOSIG
12-08-19 LEBL 190130Z 33005KT 9999 FEW020 25/19 Q1018 NOSIG
12-08-19 LEBL 190200Z 34004KT 9999 FEW020 25/19 Q1018 NOSIG
12-08-19 LEBL 190230Z 32003KT 9999 FEW020 25/19 Q1018 NOSIG
12-08-19 LEBL 190300Z NIL
12-08-19 LEBL 190330Z NIL
12-08-19 LEBL 190400Z 33005KT 9999 FEW020 24/18 Q1018 NOSIG
12-08-19 LEBL 190430Z NIL
12-08-19 LEBL 190500Z 33006KT 9999 FEW020 24/17 Q1018 NOSIG
12-08-19 LEBL 190530Z 33007G18KT 300V360 9999 FEW020 24/17 Q1019 NOSIG
12-08-19 LEBL 190600Z VRB07G18KT 9999 FEW020 24/18 Q1019 NOSIG
12-08-19 LEBL 190630Z 32007KT 9999 FEW020 24/16 Q1019 NOSIG
12-08-19 LEBL 190700Z 33006KT 290V360 9999 FEW020 25/15 Q1019 NOSIG
12-08-19 LEBL 190730Z 32005KT 290V350 9999 FEW020 26/16 Q1019 NOSIG
12-08-19 LEBL 190800Z 33004KT 290V050 9999 FEW020 27/16 Q1019 NOSIG
12-08-19 LEBL NIL
12-08-19 LEBL 190830Z 34005KT 280V020 9999 FEW020 28/17 Q1019 NOSIG
12-08-19 LEBL 190900Z 04004KT 290V100 9999 FEW020 29/19 Q1019 NOSIG
12-08-19 LEBL 190930Z 09004KT 050V120 9999 FEW020 30/21 Q1020 NOSIG
12-08-19 LEBL 191000Z 09005KT 060V130 9999 FEW020 31/20 Q1020 NOSIG
12-08-19 LEBL 191030Z 12007KT 080V140 9999 FEW020 30/23 Q1020 NOSIG
12-08-19 LEBL 191100Z 12007KT 080V150 9999 FEW020 29/24 Q1020 NOSIG
12-08-19 LEBL 191130Z 13006KT 100V170 9999 FEW020 29/25 Q1020 NOSIG
12-08-19 LEBL 191200Z 13006KT 070V180 9999 FEW020 29/24 Q1020 NOSIG
12-08-19 LEBL 191230Z 13005KT 090V180 9999 FEW018 29/24 Q1020 NOSIG
12-08-19 LEBL 191300Z 16006KT 130V210 9999 FEW018 29/24 Q1019 NOSIG
12-08-19 LEBL 191330Z 16005KT 130V190 9999 FEW009 30/24 Q1019 NOSIG
12-08-19 LEBL 191400Z 13005KT 9999 FEW009 30/24 Q1019 NOSIG
12-08-19 LEBL 191430Z 17006KT 130V210 9999 FEW018 30/24 Q1019 NOSIG
12-08-19 LEBL 191500Z 16007KT 130V200 CAVOK 30/24 Q1019 NOSIG
12-08-19 LEBL 191530Z 20007KT 160V220 CAVOK 29/24 Q1019 NOSIG
12-08-19 LEBL 191600Z 19007KT CAVOK 29/25 Q1019 NOSIG
12-08-19 LEBL 191630Z 19008KT CAVOK 29/25 Q1018 NOSIG
12-08-19 LEBL 191700Z 20009KT CAVOK 29/25 Q1018 NOSIG
12-08-19 LEBL 191730Z 22011KT 9999 FEW020 28/25 Q1019 NOSIG
12-08-19 LEBL 191800Z 22011KT 9999 FEW020 29/24 Q1019 NOSIG
12-08-19 LEBL 191830Z 21009KT 9999 FEW020 29/22 Q1019 NOSIG
12-08-19 LEBL 191900Z 21007KT 9999 FEW020 29/22 Q1019 NOSIG
12-08-19 LEBL 191930Z 20007KT 9999 FEW020 29/22 Q1019 NOSIG
12-08-19 LEBL 192000Z 20008KT 9999 FEW020 29/23 Q1019 NOSIG
12-08-19 LEBL 192030Z 22007KT 9999 FEW020 28/24 Q1019 NOSIG
12-08-19 LEBL 192100Z 21009KT 9999 FEW020 28/26 Q1019 NOSIG
12-08-19 LEBL 192130Z 23009KT 9999 FEW020 28/25 Q1019 NOSIG
12-08-19 LEBL 192200Z 21007KT 9999 FEW020 28/23 Q1019 NOSIG
12-08-19 LEBL 192230Z 23009KT 9999 FEW020 29/21 Q1019 NOSIG
12-08-19 LEBL 192300Z 22012KT 9999 FEW020 29/18 Q1019 NOSIG
12-08-19 LEBL 192330Z 23014KT 9999 FEW020 29/19 Q1019 NOSIG
12-08-20 LEBL 200000Z 23012KT 9999 FEW020 29/16 Q1019 NOSIG
12-08-20 LEBL 200030Z 23010KT 9999 FEW020 29/16 Q1019 NOSIG
12-08-20 LEBL 200100Z 26005KT 240V310 9999 FEW020 28/16 Q1018 NOSIG
12-08-20 LEBL 200130Z 17003KT 9999 FEW020 29/15 Q1019 NOSIG
12-08-20 LEBL 200200Z 20006KT 9999 FEW020 28/17 Q1019 NOSIG
12-08-20 LEBL 200230Z 23006KT 9999 FEW020 28/21 Q1019 NOSIG
12-08-20 LEBL 200300Z 22007KT 9999 FEW020 27/19 Q1019 NOSIG
12-08-20 LEBL 200330Z 24007KT 9999 FEW020 27/23 Q1019 NOSIG
12-08-20 LEBL 200400Z 22008KT 9999 FEW020 27/23 Q1019 NOSIG
12-08-20 LEBL 200430Z 25008KT 230V300 9999 FEW020 27/22 Q1019 NOSIG
12-08-20 LEBL 200500Z 32004KT 9999 FEW020 26/18 Q1019 NOSIG
12-08-20 LEBL 200530Z 31004KT 9999 FEW020 26/17 Q1020 NOSIG
12-08-20 LEBL 200600Z 30005KT 250V320 9999 FEW025 27/17 Q1020 NOSIG
12-08-20 LEBL 200630Z 30005KT 240V350 9999 FEW025 27/17 Q1020 NOSIG
12-08-20 LEBL 200700Z VRB02KT 9999 FEW025 28/17 Q1020 NOSIG
12-08-20 LEBL 200730Z VRB02KT 9999 FEW025 28/17 Q1020 NOSIG
12-08-20 LEBL 200800Z VRB02KT 9999 FEW025 30/18 Q1020 NOSIG
12-08-20 LEBL NIL
12-08-20 LEBL 201000Z 21012KT 9999 FEW020 30/23 Q1020 NOSIG
12-08-20 LEBL 201030Z 21013KT 9999 FEW020 31/23 Q1020 NOSIG
12-08-20 LEBL 201100Z 21017KT 9999 FEW020 31/23 Q1020 NOSIG
12-08-20 LEBL 201130Z 21014KT 9999 FEW020 32/22 Q1019 NOSIG
12-08-20 LEBL 201200Z 20013KT CAVOK 32/24 Q1019 NOSIG
12-08-20 LEBL 201230Z 20014KT CAVOK 31/24 Q1019 NOSIG
12-08-20 LEBL 201300Z 21015KT CAVOK 30/25 Q1019 NOSIG
12-08-20 LEBL 201330Z 21017KT CAVOK 31/25 Q1019 NOSIG
12-08-20 LEBL 201400Z 21018KT CAVOK 31/25 Q1018 NOSIG
12-08-20 LEBL 201430Z 21018KT CAVOK 30/25 Q1018 NOSIG
12-08-20 LEBL 201500Z 21017KT 9999 FEW030 30/25 Q1018 NOSIG
12-08-20 LEBL 201530Z 22018KT 9999 FEW030 30/25 Q1018 NOSIG
12-08-20 LEBL 201600Z 21019KT 9999 FEW030 30/25 Q1018 NOSIG
12-08-20 LEBL 201630Z 22016KT CAVOK 29/24 Q1018 NOSIG
12-08-20 LEBL 201700Z 22013KT CAVOK 30/24 Q1018 NOSIG
12-08-20 LEBL 201730Z 20008KT 160V230 CAVOK 29/22 Q1018 NOSIG
12-08-20 LEBL 201800Z 20009KT CAVOK 29/25 Q1018 NOSIG
12-08-20 LEBL 201830Z 20009KT CAVOK 29/23 Q1018 NOSIG
12-08-20 LEBL 201900Z 21008KT CAVOK 28/24 Q1019 NOSIG
12-08-20 LEBL 201930Z 21006KT CAVOK 28/24 Q1019 NOSIG
12-08-20 LEBL 202000Z 19003KT 150V220 CAVOK 28/25 Q1019 NOSIG
12-08-20 LEBL 202030Z 20005KT 160V220 CAVOK 28/25 Q1019 NOSIG
12-08-20 LEBL 202100Z 21005KT CAVOK 27/25 Q1019 NOSIG
12-08-20 LEBL 202130Z 20003KT 170V240 CAVOK 27/25 Q1019 NOSIG
12-08-20 LEBL 202200Z 24003KT 210V280 CAVOK 27/25 Q1019 NOSIG
12-08-20 LEBL 202230Z 21004KT CAVOK 26/25 Q1019 NOSIG
12-08-20 LEBL 202300Z 21004KT CAVOK 26/25 Q1019 NOSIG
12-08-20 LEBL 202330Z 29003KT CAVOK 25/23 Q1019 NOSIG
12-08-21 LEBL 210000Z 29004KT CAVOK 25/20 Q1019 NOSIG
12-08-21 LEBL 210030Z 31003KT CAVOK 25/19 Q1019 NOSIG
12-08-21 LEBL 210100Z 30003KT CAVOK 25/16 Q1019 NOSIG
12-08-21 LEBL 210130Z 31003KT CAVOK 25/16 Q1019 NOSIG
12-08-21 LEBL 210200Z 29003KT CAVOK 25/16 Q1019 NOSIG
12-08-21 LEBL 210230Z 32004KT CAVOK 25/16 Q1018 NOSIG
12-08-21 LEBL 210300Z 32006KT CAVOK 25/17 Q1018 NOSIG
12-08-21 LEBL 210330Z 31005KT CAVOK 25/16 Q1018 NOSIG
12-08-21 LEBL 210400Z 31004KT CAVOK 25/16 Q1018 NOSIG
12-08-21 LEBL 210430Z 28004KT CAVOK 24/16 Q1018 NOSIG
12-08-21 LEBL 210500Z 30004KT 250V330 9999 FEW035 24/16 Q1018 NOSIG
12-08-21 LEBL 210530Z 32005KT 290V010 9999 FEW035 24/16 Q1018 NOSIG
12-08-21 LEBL 210600Z 31007KT 240V330 9999 FEW030 25/16 Q1018 NOSIG
12-08-21 LEBL 210630Z 32008KT 270V350 9999 FEW030 25/15 Q1018 NOSIG
12-08-21 LEBL 210700Z 32007KT 9999 FEW030 26/15 Q1018 NOSIG
12-08-21 LEBL 210730Z 31005KT 9999 FEW030 27/16 Q1018 NOSIG
12-08-21 LEBL 210800Z 31004KT 270V360 9999 FEW035 28/18 Q1018 NOSIG
12-08-21 LEBL 210830Z 28003KT 200V320 9999 FEW035 30/21 Q1018 NOSIG
12-08-21 LEBL 210900Z 21006KT 180V250 9999 FEW035 30/21 Q1018 NOSIG
12-08-21 LEBL 210930Z 22011KT 9999 FEW035 31/19 Q1018 NOSIG
12-08-21 LEBL 211000Z 23014KT 9999 FEW035 32/19 Q1018 NOSIG
12-08-21 LEBL 211030Z 22014KT 9999 FEW040 31/21 Q1018 NOSIG
12-08-21 LEBL 211100Z 22014KT 9999 FEW040 31/21 Q1017 NOSIG
12-08-21 LEBL 211130Z 22015KT 9999 FEW040 32/19 Q1017 NOSIG
12-08-21 LEBL 211200Z 21015KT 9999 FEW040 32/19 Q1017 NOSIG
12-08-21 LEBL 211230Z 21015KT CAVOK 31/21 Q1017 NOSIG
12-08-21 LEBL 211300Z 21015KT CAVOK 32/22 Q1017 NOSIG
12-08-21 LEBL 211330Z 21015KT CAVOK 31/23 Q1016 NOSIG
12-08-21 LEBL 211400Z 22016KT CAVOK 31/23 Q1016 NOSIG
12-08-21 LEBL 211430Z 22019KT CAVOK 31/23 Q1016 NOSIG
12-08-21 LEBL 211500Z 22018KT CAVOK 31/23 Q1015 NOSIG
12-08-21 LEBL 211530Z 22018KT CAVOK 31/24 Q1015 NOSIG
12-08-21 LEBL 211600Z 22020KT CAVOK 30/24 Q1015 NOSIG
12-08-21 LEBL 211630Z 22019KT CAVOK 30/24 Q1015 NOSIG
12-08-21 LEBL NIL
12-08-21 LEBL 211700Z 22017KT CAVOK 30/24 Q1014 NOSIG
12-08-21 LEBL 211730Z 22019KT CAVOK 29/24 Q1014 NOSIG
12-08-21 LEBL 211800Z 22017KT CAVOK 29/23 Q1014 NOSIG
12-08-21 LEBL 211830Z 22016KT CAVOK 29/24 Q1014 NOSIG
12-08-21 LEBL 211900Z 22014KT CAVOK 29/24 Q1014 NOSIG
12-08-21 LEBL 211930Z 22015KT CAVOK 28/24 Q1014 NOSIG
12-08-21 LEBL 212000Z 23013KT CAVOK 28/23 Q1015 NOSIG
12-08-21 LEBL 212030Z 22009KT CAVOK 28/24 Q1015 NOSIG
12-08-21 LEBL 212100Z 22007KT CAVOK 28/25 Q1015 NOSIG
12-08-21 LEBL 212130Z 21008KT CAVOK 28/25 Q1016 NOSIG
12-08-21 LEBL 212200Z 22006KT CAVOK 28/25 Q1016 NOSIG
12-08-21 LEBL 212230Z VRB02KT CAVOK 27/25 Q1016 NOSIG
12-08-21 LEBL 212300Z VRB02KT CAVOK 27/25 Q1016 NOSIG
12-08-21 LEBL 212330Z 00000KT CAVOK 27/25 Q1016 NOSIG
12-08-22 LEBL 220000Z 13002KT CAVOK 27/24 Q1016 NOSIG
12-08-22 LEBL 220030Z 10003KT CAVOK 27/24 Q1016 NOSIG
12-08-22 LEBL 220100Z 10003KT CAVOK 25/22 Q1016 NOSIG
12-08-22 LEBL 220130Z 00000KT CAVOK 25/20 Q1016 NOSIG
12-08-22 LEBL 220200Z 29002KT CAVOK 25/20 Q1016 NOSIG
12-08-22 LEBL 220230Z 26006KT CAVOK 24/19 Q1016 NOSIG
12-08-22 LEBL 220300Z 31003KT 280V020 CAVOK 25/19 Q1016 NOSIG
12-08-22 LEBL 220330Z 32003KT 280V360 CAVOK 25/17 Q1016 NOSIG
12-08-22 LEBL 220400Z 32005KT CAVOK 25/17 Q1016 NOSIG
12-08-22 LEBL 220430Z 32007KT CAVOK 25/16 Q1016 NOSIG
12-08-22 LEBL 220500Z 33007KT CAVOK 25/16 Q1016 NOSIG
12-08-22 LEBL 220530Z 32006KT CAVOK 25/15 Q1016 NOSIG
12-08-22 LEBL 220600Z 33008G18KT 260V010 9999 FEW030 25/15 Q1016 NOSIG
12-08-22 LEBL 220630Z 35005KT 310V040 9999 FEW030 25/15 Q1017 NOSIG
12-08-22 LEBL 220700Z 30004KT 260V350 9999 FEW030 26/15 Q1017 NOSIG
12-08-22 LEBL 220730Z 33004KT 280V040 9999 FEW030 27/15 Q1017 NOSIG
12-08-22 LEBL 220800Z 01003KT 9999 FEW030 29/15 Q1017 NOSIG
12-08-22 LEBL 220830Z 01003KT 300V070 9999 FEW030 30/17 Q1017 NOSIG
12-08-22 LEBL 220900Z 13003KT 9999 FEW030 32/17 Q1017 NOSIG
12-08-22 LEBL 220930Z 13005KT 100V190 9999 FEW030 29/23 Q1017 NOSIG
12-08-22 LEBL 221000Z 16007KT 110V200 9999 FEW030 30/23 Q1017 NOSIG
12-08-22 LEBL 221030Z 16007KT 130V200 9999 FEW030 30/23 Q1017 NOSIG
12-08-22 LEBL 221100Z 18007KT 9999 FEW030 30/23 Q1017 NOSIG
12-08-22 LEBL 221130Z 19005KT 160V240 9999 FEW030 31/22 Q1017 NOSIG
12-08-22 LEBL 221200Z 18008KT 150V210 9999 FEW030 31/23 Q1017 NOSIG
12-08-22 LEBL 221230Z 19008KT 160V220 9999 FEW030 31/23 Q1016 NOSIG
12-08-22 LEBL 221300Z 19009KT 170V240 9999 FEW030 31/23 Q1016 NOSIG
12-08-22 LEBL 221330Z 19009KT 150V230 9999 FEW030 31/23 Q1016 NOSIG
12-08-22 LEBL 221400Z 19009KT 160V220 CAVOK 31/23 Q1015 NOSIG
12-08-22 LEBL 221430Z 20009KT 160V220 CAVOK 32/23 Q1015 NOSIG
12-08-22 LEBL 221500Z 20007KT 170V240 CAVOK 32/22 Q1015 NOSIG
12-08-22 LEBL 221530Z 23009KT CAVOK 31/19 Q1015 NOSIG
12-08-22 LEBL NIL
12-08-22 LEBL 221600Z 21007KT CAVOK 32/21 Q1015 NOSIG
12-08-22 LEBL 221630Z 22007KT CAVOK 31/23 Q1014 NOSIG
12-08-22 LEBL 221700Z 22006KT 200V260 CAVOK 31/21 Q1014 NOSIG
12-08-22 LEBL 221730Z 21005KT 170V250 9999 FEW030 30/22 Q1014 NOSIG
12-08-22 LEBL 221800Z 19003KT 160V220 9999 FEW030 29/24 Q1014 NOSIG
12-08-22 LEBL 221830Z 19003KT 9999 FEW030 29/24 Q1014 NOSIG
12-08-22 LEBL 221900Z 21003KT 9999 FEW030 28/24 Q1014 NOSIG
12-08-22 LEBL 221930Z 21004KT 9999 FEW030 28/22 Q1014 NOSIG
12-08-22 LEBL 222000Z 22004KT 9999 FEW030 28/22 Q1015 NOSIG
12-08-22 LEBL 222030Z VRB02KT 9999 FEW030 28/23 Q1015 NOSIG
12-08-22 LEBL 222100Z 20003KT 9999 FEW030 28/23 Q1015 NOSIG
12-08-22 LEBL 222130Z 21002KT 9999 FEW030 27/19 Q1014 NOSIG
12-08-22 LEBL 222200Z 29004KT 9999 FEW025 28/15 Q1015 NOSIG
12-08-22 LEBL 222230Z 00000KT 9999 FEW025 28/16 Q1015 NOSIG
12-08-22 LEBL 222300Z 33004KT 290V020 9999 FEW025 27/16 Q1015 NOSIG
12-08-22 LEBL 222330Z 31002KT 9999 FEW025 27/16 Q1014 NOSIG
12-08-23 LEBL 230000Z 34002KT 9999 FEW025 27/15 Q1015 NOSIG
12-08-23 LEBL 230030Z 32003KT 9999 FEW025 27/14 Q1014 NOSIG
12-08-23 LEBL 230100Z 32004KT 9999 FEW025 27/14 Q1014 NOSIG
12-08-23 LEBL 230130Z 33006KT 9999 FEW025 27/14 Q1014 NOSIG
12-08-23 LEBL NIL
12-08-23 LEBL 230200Z 33004KT 9999 FEW025 27/14 Q1014 NOSIG
12-08-23 LEBL 230230Z 00000KT 9999 FEW025 26/14 Q1014 NOSIG
12-08-23 LEBL 230300Z 34001KT 9999 FEW025 26/14 Q1013 NOSIG
12-08-23 LEBL 230330Z 32004KT 9999 FEW025 26/14 Q1013 NOSIG
12-08-23 LEBL 230400Z 33007KT 9999 FEW025 26/15 Q1013 NOSIG
12-08-23 LEBL 230430Z 07003KT 330V100 9999 FEW025 26/15 Q1013 NOSIG
12-08-23 LEBL 230500Z 34004KT 9999 FEW025 25/15 Q1013 NOSIG
12-08-23 LEBL 230530Z VRB02KT 9999 FEW025 26/15 Q1013 NOSIG
12-08-23 LEBL 230600Z VRB02KT 9999 FEW025 26/15 Q1014 NOSIG
12-08-23 LEBL 230630Z 33004KT 270V010 9999 FEW030 26/15 Q1014 NOSIG
12-08-23 LEBL 230700Z 33004KT 250V020 CAVOK 26/15 Q1014 NOSIG
12-08-23 LEBL 230730Z 02003KT 9999 FEW035 28/15 Q1014 NOSIG
12-08-23 LEBL 230800Z 02004KT 350V070 9999 FEW035 29/17 Q1013 NOSIG
12-08-23 LEBL 230830Z 09004KT 040V150 9999 FEW035 30/20 Q1013 NOSIG
12-08-23 LEBL 230900Z 34003KT CAVOK 31/18 Q1013 NOSIG
12-08-23 LEBL 230930Z 11004KT 080V160 CAVOK 31/19 Q1013 NOSIG
12-08-23 LEBL 231000Z 12004KT 090V220 CAVOK 31/19 Q1014 NOSIG
12-08-23 LEBL 231030Z 13004KT 080V170 CAVOK 32/20 Q1014 NOSIG
12-08-23 LEBL 231100Z 13005KT 100V170 CAVOK 31/21 Q1013 NOSIG
12-08-23 LEBL 231130Z 14006KT 110V170 CAVOK 30/21 Q1013 NOSIG
12-08-23 LEBL 231200Z 13006KT CAVOK 31/21 Q1013 NOSIG
12-08-23 LEBL 231230Z 15005KT 110V210 CAVOK 31/19 Q1013 NOSIG
12-08-23 LEBL 231300Z 17006KT 140V210 CAVOK 31/20 Q1012 NOSIG
12-08-23 LEBL 231330Z 17007KT CAVOK 31/19 Q1012 NOSIG
12-08-23 LEBL 231400Z 17007KT 130V190 CAVOK 32/21 Q1012 NOSIG
12-08-23 LEBL 231430Z 16007KT 140V200 9999 FEW030 31/19 Q1012 NOSIG
12-08-23 LEBL 231500Z 17007KT 150V210 9999 FEW030 31/20 Q1012 NOSIG
12-08-23 LEBL 231530Z 18006KT 150V220 9999 FEW030 31/21 Q1011 NOSIG
12-08-23 LEBL 231600Z 18006KT 130V230 9999 FEW030 31/21 Q1011 NOSIG
12-08-23 LEBL 231630Z 17006KT 9999 FEW030 30/21 Q1011 NOSIG
12-08-23 LEBL 231700Z 16005KT 9999 FEW030 30/20 Q1011 NOSIG
12-08-23 LEBL 231730Z 15004KT 120V190 9999 FEW030 30/22 Q1011 NOSIG
12-08-23 LEBL 231800Z 16004KT 120V190 9999 FEW030 29/22 Q1011 NOSIG
12-08-23 LEBL 231830Z 14003KT 9999 FEW030 29/22 Q1011 NOSIG
12-08-23 LEBL 231900Z 13003KT 9999 FEW030 29/20 Q1011 NOSIG
12-08-23 LEBL 231930Z 12004KT 9999 FEW030 29/23 Q1011 NOSIG
12-08-23 LEBL 232000Z VRB01KT 9999 FEW030 28/24 Q1011 NOSIG
12-08-23 LEBL 232030Z 10003KT 9999 FEW030 28/24 Q1011 NOSIG
12-08-23 LEBL 232100Z 12002KT 9999 FEW030 28/24 Q1011 NOSIG
12-08-23 LEBL 232130Z 00000KT 9999 FEW030 28/24 Q1011 NOSIG
12-08-23 LEBL 232200Z 00000KT 9999 FEW030 27/22 Q1011 NOSIG
12-08-23 LEBL 232230Z 00000KT 9999 FEW030 27/23 Q1011 NOSIG
12-08-23 LEBL 232300Z 32004KT 9999 FEW030 27/21 Q1011 NOSIG
12-08-23 LEBL 232330Z 34005KT 9999 FEW030 26/21 Q1011 NOSIG
12-08-24 LEBL 240000Z 35004KT 9999 FEW030 26/19 Q1010 NOSIG
12-08-24 LEBL 240030Z 32003KT 9999 FEW030 26/20 Q1010 NOSIG
12-08-24 LEBL 240100Z 30004KT 9999 FEW030 26/20 Q1010 NOSIG
12-08-24 LEBL 240130Z 34004KT 9999 FEW030 25/20 Q1010 NOSIG
12-08-24 LEBL 240200Z 33002G13KT 9999 FEW030 25/19 Q1010 NOSIG
12-08-24 LEBL 240230Z 00000KT 9999 FEW030 25/19 Q1010 NOSIG
12-08-24 LEBL 240300Z 32003KT 9999 FEW030 25/19 Q1010 NOSIG
12-08-24 LEBL 240330Z 34004KT 9999 FEW025 24/19 Q1009 NOSIG
12-08-24 LEBL 240400Z 34005KT 9999 FEW025 24/19 Q1009 NOSIG
12-08-24 LEBL 240430Z 32004KT 9999 FEW025 24/18 Q1009 NOSIG
12-08-24 LEBL 240500Z 32005KT 9999 FEW025 24/19 Q1009 NOSIG
12-08-24 LEBL 240530Z 32006KT 290V350 9999 FEW025 24/18 Q1009 NOSIG
12-08-24 LEBL 240600Z 32004KT 260V010 9999 FEW025 24/18 Q1010 NOSIG
12-08-24 LEBL 240630Z 33005KT 9999 FEW025 25/17 Q1010 NOSIG
12-08-24 LEBL 240700Z 33005KT 260V030 9999 FEW025 26/17 Q1010 NOSIG
12-08-24 LEBL 240730Z 35003KT 9999 FEW025 27/18 Q1010 NOSIG
12-08-24 LEBL NIL
12-08-24 LEBL 240800Z 36001KT 9999 FEW025 28/21 Q1010 NOSIG
12-08-24 LEBL 240830Z 14004KT 100V200 9999 FEW025 29/23 Q1010 NOSIG
12-08-24 LEBL 240900Z 14005KT 090V180 9999 FEW025 29/23 Q1010 NOSIG
12-08-24 LEBL 240930Z 14006KT 9999 FEW020 29/23 Q1010 NOSIG
12-08-24 LEBL 241000Z 13005KT 070V180 9999 FEW020 29/24 Q1010 NOSIG
12-08-24 LEBL 241030Z 14007KT 100V190 9999 FEW020 29/24 Q1010 NOSIG
12-08-24 LEBL 241100Z 14007KT 100V200 9999 FEW020 30/24 Q1010 NOSIG
12-08-24 LEBL 241130Z 17008KT 130V200 9999 FEW020 30/24 Q1010 NOSIG
12-08-24 LEBL 241200Z 18007KT 130V220 9999 FEW012 SCT020 30/24 Q1010 NOSIG
12-08-24 LEBL 241230Z 17007KT 130V220 9999 FEW012 SCT020 30/24 Q1010 NOSIG
12-08-24 LEBL 241300Z 17008KT 130V240 9999 FEW015 SCT020 31/23 Q1010 NOSIG
12-08-24 LEBL 241330Z 20008KT 150V260 9999 FEW015 31/23 Q1009 NOSIG
12-08-24 LEBL 241400Z 19009KT 150V220 9999 FEW015 31/23 Q1009 NOSIG
12-08-24 LEBL 241430Z 19009KT 160V220 9999 FEW015 31/23 Q1009 NOSIG
12-08-24 LEBL 241500Z 21011KT 180V240 9999 SCT018 30/23 Q1008 NOSIG
12-08-24 LEBL 241530Z 21010KT 170V240 9999 FEW015 SCT022 30/24 Q1008 NOSIG
12-08-24 LEBL 241600Z 22010KT 190V250 9999 FEW015 SCT022 30/24 Q1008 NOSIG
12-08-24 LEBL 241630Z 22011KT 9999 FEW015 SCT020 30/24 Q1008 NOSIG
12-08-24 LEBL 241700Z 21009KT 9999 SCT020 29/24 Q1008 NOSIG
12-08-24 LEBL 241730Z 21008KT 9999 FEW020 29/24 Q1008 NOSIG
12-08-24 LEBL 241800Z 21008KT 9999 FEW020 29/23 Q1008 NOSIG
12-08-24 LEBL 241830Z 20007KT 9999 FEW020 28/24 Q1008 NOSIG
12-08-24 LEBL 241900Z 21007KT 9999 FEW016 SCT020 28/24 Q1008 NOSIG
12-08-24 LEBL 241930Z 21006KT 9999 FEW016 SCT020 28/24 Q1009 NOSIG
12-08-24 LEBL 242000Z 21005KT 9999 FEW016 28/24 Q1009 NOSIG
12-08-24 LEBL 242030Z 21005KT 9999 FEW016 27/24 Q1009 NOSIG
12-08-24 LEBL 242100Z 21005KT 9999 FEW016 27/23 Q1010 NOSIG
12-08-24 LEBL 242130Z 21007KT 9999 FEW020 27/23 Q1010 NOSIG
12-08-24 LEBL 242200Z 23007KT 9999 FEW020 27/23 Q1010 NOSIG
12-08-24 LEBL 242230Z 24006KT 9000 FEW020 27/23 Q1010 NOSIG
12-08-24 LEBL 242300Z 26006KT 240V310 9000 FEW020 27/23 Q1010 NOSIG
12-08-24 LEBL 242330Z 31003KT 290V350 9000 FEW025 27/23 Q1010 NOSIG
12-08-25 LEBL 250000Z 01003KT 9000 FEW025 27/23 Q1010 NOSIG
12-08-25 LEBL 250030Z 00000KT 9000 FEW020 26/23 Q1010 NOSIG
12-08-25 LEBL 250100Z 31004KT 9000 FEW020 SCT026 26/23 Q1010 NOSIG
12-08-25 LEBL 250130Z 27003KT 230V320 9000 FEW020 26/23 Q1010 NOSIG
12-08-25 LEBL 250200Z 33004KT 9000 FEW020 26/23 Q1010 NOSIG
12-08-25 LEBL 250230Z 33004KT 9000 FEW020 26/23 Q1010 NOSIG
12-08-25 LEBL 250300Z 32005KT 9000 FEW020 26/22 Q1010 NOSIG
12-08-25 LEBL 250330Z 34005KT 9000 FEW020 25/22 Q1010 NOSIG
12-08-25 LEBL 250400Z 05005KT 8000 FEW020 SCT031 26/22 Q1010 NOSIG
12-08-25 LEBL 250430Z 04005KT 8000 FEW020 BKN035 26/23 Q1010 NOSIG
12-08-25 LEBL 250500Z 03005KT 7000 FEW020 BKN035 26/23 Q1010 NOSIG
12-08-25 LEBL 250530Z 01005KT 7000 FEW020 SCT040 26/23 Q1011 NOSIG
12-08-25 LEBL 250600Z VRB02KT 7000 FEW014 SCT020 26/23 Q1011 NOSIG
12-08-25 LEBL 250630Z 04005KT 360V070 7000 FEW014 SCT025 26/23 Q1011 NOSIG
12-08-25 LEBL 250700Z 04005KT 010V070 8000 FEW014 SCT025 27/23 Q1012 NOSIG
12-08-25 LEBL 250730Z 35003KT 300V020 9000 FEW014 SCT030 27/23 Q1012 NOSIG
12-08-25 LEBL 250800Z VRB02KT 9000 FEW014 SCT030 28/23 Q1012 NOSIG
12-08-25 LEBL 250830Z 09004KT 040V120 9000 FEW014 SCT030 29/23 Q1012 NOSIG
12-08-25 LEBL 250900Z 11005KT 040V150 9000 FEW014 SCT030 29/23 Q1012 NOSIG
12-08-25 LEBL 250930Z 11005KT 080V150 9999 FEW014 SCT035 30/23 Q1012 NOSIG
12-08-25 LEBL 251000Z 12005KT 070V200 9999 FEW015 SCT035 30/22 Q1012 NOSIG
12-08-25 LEBL 251030Z 12007KT 100V160 9999 FEW020 SCT040 30/23 Q1012 NOSIG
12-08-25 LEBL 251100Z 14006KT 090V210 9999 FEW020 30/23 Q1012 NOSIG
12-08-25 LEBL 251130Z 13008KT 100V180 9999 FEW020 30/23 Q1012 NOSIG
12-08-25 LEBL 251200Z 17009KT 140V200 9999 FEW020 30/23 Q1012 NOSIG
12-08-25 LEBL 251230Z 16010KT 130V200 9999 FEW020 30/23 Q1012 NOSIG
12-08-25 LEBL 251300Z 17011KT 130V200 9999 FEW020 30/23 Q1012 NOSIG
12-08-25 LEBL 251330Z 18012KT 130V210 9999 FEW020 30/23 Q1011 NOSIG
12-08-25 LEBL 251400Z 18013KT 9999 FEW020 30/21 Q1011 NOSIG
12-08-25 LEBL 251430Z 18013KT 9999 FEW020 30/22 Q1011 NOSIG
12-08-25 LEBL 251500Z 18011KT 9999 FEW020 30/22 Q1011 NOSIG
12-08-25 LEBL 251530Z 18012KT 9999 FEW020 30/21 Q1011 NOSIG
12-08-25 LEBL 251600Z 18009KT 140V210 9999 FEW020 30/21 Q1011 NOSIG
12-08-25 LEBL 251630Z 16009KT 130V190 9999 FEW020 29/21 Q1011 NOSIG
12-08-25 LEBL 251700Z 16008KT 130V200 9999 FEW020 29/21 Q1012 NOSIG
12-08-25 LEBL 251730Z 15007KT 9999 FEW020 28/22 Q1012 NOSIG
12-08-25 LEBL 251800Z 15006KT 9999 SCT022 28/22 Q1012 NOSIG
12-08-25 LEBL 251830Z 14006KT 100V170 9999 SCT022 28/22 Q1013 NOSIG
12-08-25 LEBL 251900Z 13005KT 9999 SCT022 28/22 Q1013 NOSIG
12-08-25 LEBL 251930Z 14006KT 9999 FEW022 SCT035 28/21 Q1013 NOSIG
12-08-25 LEBL 252000Z 13006KT 100V160 9999 FEW022 SCT035 28/21 Q1014 NOSIG
12-08-25 LEBL 252030Z 13005KT 9999 SCT025 28/20 Q1014 NOSIG
12-08-25 LEBL 252100Z 13006KT 100V160 9999 SCT025 28/20 Q1014 NOSIG
12-08-25 LEBL 252130Z 14006KT 120V180 9999 FEW025 28/20 Q1015 NOSIG
12-08-25 LEBL 252200Z 15005KT 9999 SCT025 28/21 Q1015 NOSIG
12-08-25 LEBL 252230Z 14007KT 110V230 9999 FEW025 28/21 Q1015 NOSIG
12-08-25 LEBL 252300Z 12009KT 080V150 9999 FEW025 SCT035 27/21 Q1015 NOSIG
12-08-25 LEBL 252330Z 14008KT 9999 FEW025 SCT035 27/21 Q1016 NOSIG
12-08-26 LEBL 260000Z 11008KT 070V150 9999 FEW025 SCT035 27/20 Q1016 NOSIG
12-08-26 LEBL 260030Z 12007KT 100V160 9999 FEW025 SCT040 26/20 Q1016 NOSIG
12-08-26 LEBL 260100Z 13006KT 100V170 9999 TS FEW025CB SCT040 25/20 Q1016 NOSIG NOSIG
12-08-26 LEBL 260200Z 15004KT 110V210 9999 FEW025TCU SCT040 26/20 Q1016 NOSIG
12-08-26 LEBL 260230Z 16005KT 130V200 9999 FEW025 BKN040 26/19 Q1017 NOSIG
12-08-26 LEBL 260300Z 20004KT 9999 FEW022 BKN030 26/19 Q1017 NOSIG
12-08-26 LEBL 260330Z 26005KT 230V290 9999 FEW022 BKN030 25/20 Q1017 NOSIG
12-08-26 LEBL NIL
12-08-26 LEBL 260400Z 31008KT 9999 FEW022 BKN030 25/20 Q1017 NOSIG
12-08-26 LEBL 260430Z 33010KT 9999 FEW020 BKN035 24/11 Q1017 NOSIG
12-08-26 LEBL 260500Z 34011KT 9999 FEW020 SCT040 23/11 Q1017 NOSIG
12-08-26 LEBL 260530Z 33010KT 9999 FEW020 SCT030 23/11 Q1018 NOSIG
12-08-26 LEBL 260600Z 33009G19KT 290V010 9999 FEW020 SCT030 23/11 Q1018 NOSIG
12-08-26 LEBL 260630Z 33010KT 280V010 9999 FEW020 SCT030 24/11 Q1018 NOSIG
12-08-26 LEBL 260700Z 34010KT 290V010 9999 FEW020 BKN033 24/11 Q1019 NOSIG
12-08-26 LEBL 260730Z 32011G22KT 300V010 9999 FEW020 BKN033 24/11 Q1019 NOSIG
12-08-26 LEBL 260800Z 33012G22KT 9999 FEW020 BKN033 25/11 Q1019 NOSIG
12-08-26 LEBL 260830Z 33009KT 280V010 9999 FEW020 BKN034 26/11 Q1019 NOSIG
12-08-26 LEBL 260900Z VRB04KT 9999 FEW025 BKN034 26/16 Q1019 NOSIG
12-08-26 LEBL 260930Z 22006KT 190V280 9999 FEW025 BKN034 27/16 Q1020 NOSIG
12-08-26 LEBL 261000Z 19011KT 160V240 9999 SCT034 27/16 Q1020 NOSIG
12-08-26 LEBL 261030Z 23010KT 190V260 9999 SCT034 28/14 Q1020 NOSIG
12-08-26 LEBL 261100Z 21014KT 9999 FEW034 28/16 Q1020 NOSIG
12-08-26 LEBL 261130Z 20015KT 9999 FEW034 28/16 Q1020 NOSIG
12-08-26 LEBL 261200Z 20016KT 9999 FEW035 29/15 Q1019 NOSIG
12-08-26 LEBL 261230Z 21016KT 9999 FEW025 28/18 Q1019 NOSIG
12-08-26 LEBL 261300Z 20015KT 9999 FEW025 28/19 Q1019 NOSIG
12-08-26 LEBL 261330Z 20015KT 160V220 9999 FEW025 28/19 Q1019 NOSIG
12-08-26 LEBL 261400Z 19013KT 160V220 9999 FEW025 27/19 Q1019 NOSIG
12-08-26 LEBL 261430Z 18013KT 150V210 9999 SCT025 27/19 Q1019 NOSIG
12-08-26 LEBL 261500Z 18012KT 150V220 9999 BKN025 27/19 Q1018 NOSIG
12-08-26 LEBL 261530Z 18011KT 140V210 9999 BKN025 27/19 Q1018 NOSIG
12-08-26 LEBL 261600Z 18011KT 9999 BKN025 27/20 Q1019 NOSIG
12-08-26 LEBL 261630Z 19011KT 9999 SCT025 27/19 Q1018 NOSIG
12-08-26 LEBL 261700Z 19010KT 9999 SCT025 26/19 Q1019 NOSIG
12-08-26 LEBL 261730Z 18010KT 9999 FEW025 SCT035 26/19 Q1019 NOSIG
12-08-26 LEBL 261800Z 18009KT 9999 FEW035 SCT045 26/20 Q1019 NOSIG
12-08-26 LEBL 261830Z 18009KT 9999 FEW035 SCT045 26/20 Q1019 NOSIG
12-08-26 LEBL 261900Z 19009KT 160V220 9999 FEW035 SCT045 26/20 Q1019 NOSIG
12-08-26 LEBL 261930Z 18008KT 9999 FEW027 SCT045 26/20 Q1019 NOSIG
12-08-26 LEBL 262000Z 19008KT 130V210 9999 SCT025 SCT040 26/20 Q1020 NOSIG
12-08-26 LEBL 262030Z 20006KT 9999 SCT027 SCT045 26/20 Q1020 NOSIG
12-08-26 LEBL 262100Z 19006KT 150V220 9999 FEW027 26/20 Q1020 NOSIG
12-08-26 LEBL 262130Z 20004KT 180V240 9999 FEW025 25/20 Q1020 NOSIG
12-08-26 LEBL 262200Z 15005KT 110V210 9999 SCT020 26/21 Q1020 NOSIG
12-08-26 LEBL 262230Z 15008KT 9999 SCT020 SCT040 26/20 Q1020 NOSIG
12-08-26 LEBL 262300Z 15007KT 9999 SCT020 SCT033 26/20 Q1020 NOSIG
12-08-26 LEBL 262330Z 14006KT 110V170 9999 FEW020 SCT035 25/20 Q1020 NOSIG
12-08-27 LEBL 270000Z 13004KT 090V160 9999 FEW020 SCT040 26/21 Q1020 NOSIG
12-08-27 LEBL 270030Z 11005KT 030V140 9999 FEW020 SCT040 26/21 Q1019 NOSIG
12-08-27 LEBL 270103Z 08006KT 9999 -RA SCT019 SCT030 25/21 Q1019 NOSIG
12-08-27 LEBL 270100Z 08005KT 9999 SCT020 SCT038 26/21 Q1019 NOSIG
12-08-27 LEBL 270130Z 07008KT 050V110 9999 SCT019 SCT050 25/21 Q1019 RERA NOSIG
12-08-27 LEBL 270200Z 05008KT 9999 SCT025 25/21 Q1019 NOSIG
12-08-27 LEBL 270230Z 04006KT 9999 SCT025 25/21 Q1019 NOSIG
12-08-27 LEBL 270300Z 04005KT 9999 SCT025 SCT040 25/21 Q1019 NOSIG
12-08-27 LEBL 270330Z 04007KT 9999 DZ SCT025 SCT044 25/21 Q1019 NOSIG
12-08-27 LEBL 270400Z 04007KT 9999 SCT030 SCT044 25/21 Q1018 REDZ NOSIG
12-08-27 LEBL 270430Z 06005KT 9999 SCT025 SCT044 24/20 Q1018 NOSIG
12-08-27 LEBL 270500Z 02004KT 9999 SCT025 24/20 Q1018 NOSIG
12-08-27 LEBL 270530Z 35003KT 300V040 9999 SCT023 24/20 Q1019 NOSIG
12-08-27 LEBL 270600Z 34003KT 240V010 9999 SCT023 24/20 Q1019 NOSIG
12-08-27 LEBL 270630Z 32005KT 260V020 9999 SCT023 SCT042 25/20 Q1019 NOSIG
12-08-27 LEBL 270700Z 31005KT 270V360 9999 SCT023 SCT042 25/20 Q1019 NOSIG
12-08-27 LEBL 270730Z 32005KT 220V350 9999 FEW022 SCT030 25/20 Q1019 NOSIG
12-08-27 LEBL 270800Z 34004KT 290V020 9999 SCT022 BKN045 26/20 Q1019 NOSIG
12-08-27 LEBL 270830Z 10004KT 070V130 9999 FEW018 BKN022 26/21 Q1019 NOSIG
12-08-27 LEBL 270900Z 09006KT 070V130 9999 FEW018 BKN022 27/21 Q1019 NOSIG
12-08-27 LEBL 270930Z 11005KT 070V130 9999 FEW016 BKN020 27/21 Q1019 NOSIG
12-08-27 LEBL 271000Z VRB04KT 9999 FEW016 SCT020 28/21 Q1019 NOSIG
12-08-27 LEBL 271030Z 18006KT 130V240 9999 SCT018 28/22 Q1019 NOSIG
12-08-27 LEBL 271100Z 19007KT 120V240 9999 SCT020 28/22 Q1018 NOSIG
12-08-27 LEBL 271130Z 21009KT 170V230 9999 SCT020 28/23 Q1018 NOSIG
12-08-27 LEBL 271200Z 22017KT 9999 FEW018 SCT022 30/22 Q1018 NOSIG
12-08-27 LEBL 271230Z 22017KT 9999 FEW018 SCT022 30/22 Q1018 NOSIG
12-08-27 LEBL 271300Z 22018KT 9999 SCT020 30/22 Q1018 NOSIG
12-08-27 LEBL 271330Z 21016KT 9999 FEW020 30/22 Q1018 NOSIG
12-08-27 LEBL 271400Z 21017KT 9999 FEW020 30/22 Q1017 NOSIG
12-08-27 LEBL 271430Z 21018KT 9999 FEW018 30/22 Q1017 NOSIG
12-08-27 LEBL 271500Z 21015KT 9999 SCT018 30/22 Q1017 NOSIG
12-08-27 LEBL 271530Z 22014KT 190V250 9999 SCT018 29/22 Q1017 NOSIG
12-08-27 LEBL NIL
12-08-27 LEBL 271630Z 22014KT 9999 FEW018 29/22 Q1016 NOSIG
12-08-27 LEBL 271700Z 22014KT 9999 FEW018 28/22 Q1016 NOSIG
12-08-27 LEBL 271730Z 22014KT 9999 FEW020 28/22 Q1016 NOSIG
12-08-27 LEBL 271830Z 22012KT 9999 SCT018 27/23 Q1016 NOSIG
12-08-27 LEBL 271900Z 22011KT 9999 SCT018 27/23 Q1016 NOSIG
12-08-27 LEBL 271930Z 21010KT 9999 SCT020 27/23 Q1017 NOSIG
12-08-27 LEBL 272000Z 22009KT 9999 SCT020 27/22 Q1017 NOSIG
12-08-27 LEBL 272030Z 21009KT 9999 SCT020 27/23 Q1017 NOSIG
12-08-27 LEBL 272100Z 22010KT 9999 SCT020 27/23 Q1017 NOSIG
12-08-27 LEBL 272130Z 22010KT 9999 FEW018 SCT035 27/23 Q1017 NOSIG
12-08-27 LEBL 272200Z 21010KT 9999 FEW018 SCT035 27/23 Q1017 NOSIG
12-08-27 LEBL 272230Z 21010KT 9999 SCT020 27/23 Q1017 NOSIG
12-08-27 LEBL 272300Z 21010KT 9999 FEW018 27/23 Q1017 NOSIG
12-08-27 LEBL 272330Z 22011KT 9999 FEW018 SCT040 27/23 Q1017 NOSIG
12-08-28 LEBL 280000Z 22011KT 9999 FEW018 27/23 Q1017 NOSIG
12-08-28 LEBL 280030Z 21010KT 9999 FEW016 27/23 Q1017 NOSIG
12-08-28 LEBL 280100Z 22010KT 9999 SCT018 27/23 Q1017 NOSIG
12-08-28 LEBL 280130Z 21008KT 9999 SCT018 27/23 Q1016 NOSIG
12-08-28 LEBL 280200Z 21007KT 9999 FEW018 SCT030 27/23 Q1016 NOSIG
12-08-28 LEBL 280230Z 21009KT 9999 FEW016 SCT025 27/23 Q1016 NOSIG
12-08-28 LEBL 280300Z 22008KT 9999 FEW020 SCT035 27/23 Q1016 NOSIG
12-08-28 LEBL 280330Z 21007KT 9999 FEW015 27/23 Q1016 NOSIG
12-08-28 LEBL 280400Z 21008KT 9999 FEW020 27/23 Q1016 NOSIG
12-08-28 LEBL 280430Z 21009KT 9999 FEW020 27/23 Q1016 NOSIG
12-08-28 LEBL 280500Z 21008KT 9999 FEW020 27/23 Q1017 NOSIG
12-08-28 LEBL 280530Z 20005KT 9999 FEW020 26/23 Q1017 NOSIG
12-08-28 LEBL 280600Z 21007KT 9999 FEW020 SCT030 27/23 Q1017 NOSIG
12-08-28 LEBL 280630Z 21008KT 9999 FEW020 SCT030 27/23 Q1017 NOSIG
12-08-28 LEBL 280700Z 21007KT 9999 FEW020 BKN043 28/23 Q1017 NOSIG
12-08-28 LEBL 280730Z 20009KT 160V220 9999 FEW020 BKN043 28/22 Q1017 NOSIG
12-08-28 LEBL 280800Z 21009KT 9999 FEW020TCU BKN043 28/23 Q1018 NOSIG
12-08-28 LEBL 280830Z 21009KT 170V230 9999 FEW020TCU BKN043 28/23 Q1018 NOSIG
12-08-28 LEBL 280900Z 21010KT 9999 FEW016TCU BKN040 28/23 Q1018 NOSIG
12-08-28 LEBL 280930Z 21011KT 9999 FEW016TCU BKN050 29/23 Q1018 NOSIG
12-08-28 LEBL 281000Z 20011KT 9999 FEW020 SCT030 29/23 Q1019 NOSIG
12-08-28 LEBL 281030Z 20012KT 9999 FEW020 SCT035 29/22 Q1019 NOSIG
12-08-28 LEBL 281100Z 19011KT 160V220 9999 FEW020 SCT035 30/22 Q1019 NOSIG
12-08-28 LEBL 281130Z 19011KT 9999 FEW020 SCT035 30/22 Q1019 NOSIG
12-08-28 LEBL 281200Z 18011KT 150V210 9999 FEW020 SCT035 30/22 Q1018 NOSIG
12-08-28 LEBL 281230Z 18011KT 140V200 9999 FEW020 SCT035 30/22 Q1018 NOSIG
12-08-28 LEBL 281330Z 13011KT 9999 SCT020 29/23 Q1018 NOSIG
12-08-28 LEBL 281400Z 14010KT 110V180 9999 SCT025 29/22 Q1019 NOSIG
12-08-28 LEBL 281430Z 13010KT 9999 SCT030 29/23 Q1018 NOSIG
12-08-28 LEBL 281500Z 14011KT 9999 FEW021 SCT040 29/23 Q1018 NOSIG
12-08-28 LEBL 281530Z 13009KT 9999 FEW021 SCT040 29/22 Q1018 NOSIG
12-08-28 LEBL 281600Z 16009KT 120V200 9999 FEW020 SCT030 29/22 Q1018 NOSIG
12-08-28 LEBL 281630Z 16007KT 9999 FEW020TCU SCT030 28/22 Q1018 NOSIG
12-08-28 LEBL 281700Z 16006KT 9999 FEW020TCU SCT030 28/22 Q1018 NOSIG
12-08-28 LEBL 281730Z 13004KT 100V160 9999 FEW020TCU SCT030 28/23 Q1018 NOSIG
12-08-28 LEBL 281800Z 11003KT 090V150 9999 FEW020TCU SCT030 28/22 Q1018 NOSIG
12-08-28 LEBL 281830Z 11003KT 9999 FEW020TCU SCT030 27/23 Q1018 NOSIG
12-08-28 LEBL 281900Z 08003KT 020V110 9999 FEW020TCU SCT030 27/23 Q1018 NOSIG
12-08-28 LEBL 281930Z 08004KT 9999 FEW020TCU SCT030 27/23 Q1018 NOSIG
12-08-28 LEBL 282000Z 08003KT 020V130 9999 FEW015 27/23 Q1019 NOSIG
12-08-28 LEBL 282030Z VRB02KT 9999 FEW015 27/23 Q1018 NOSIG
12-08-28 LEBL 282100Z 12002KT 9999 FEW020 27/24 Q1018 NOSIG
12-08-28 LEBL 282130Z 00000KT 9999 FEW020 27/24 Q1018 NOSIG
12-08-28 LEBL 282200Z 00000KT 9999 FEW020 26/23 Q1018 NOSIG
12-08-28 LEBL 282230Z 02003KT 9999 FEW020 26/23 Q1019 NOSIG
12-08-28 LEBL 282300Z 05002KT 9999 FEW016 26/23 Q1019 NOSIG
12-08-28 LEBL 282330Z VRB02KT 9999 FEW016 26/22 Q1019 NOSIG
12-08-29 LEBL 290000Z 34002KT 9999 FEW020 26/22 Q1019 NOSIG
12-08-29 LEBL 290030Z 33004KT 9999 FEW020 25/22 Q1018 NOSIG
12-08-29 LEBL 290100Z 33003KT 9999 FEW015 25/22 Q1018 NOSIG
12-08-29 LEBL 290130Z 33003KT 9999 FEW015 25/22 Q1018 NOSIG
12-08-29 LEBL 290200Z 32005KT 9999 FEW018 25/22 Q1018 NOSIG
12-08-29 LEBL 290230Z 33003KT 9999 FEW018 25/22 Q1018 NOSIG
12-08-29 LEBL 290300Z 34004KT 9999 FEW018 24/22 Q1018 NOSIG
12-08-29 LEBL 290330Z 33005KT 9999 FEW018 24/22 Q1018 NOSIG
12-08-29 LEBL 290400Z NIL
12-08-29 LEBL 290430Z 33006KT 9999 FEW020 24/22 Q1017 NOSIG
12-08-29 LEBL 290500Z 33006KT 9999 FEW020 24/21 Q1017 NOSIG
12-08-29 LEBL 290530Z 33006KT 9999 FEW014 24/21 Q1018 NOSIG
12-08-29 LEBL 290600Z 33005KT 210V360 9999 FEW014 24/21 Q1018 NOSIG
12-08-29 LEBL 290630Z 33005KT 260V010 9999 FEW020 24/21 Q1018 NOSIG
12-08-29 LEBL 290700Z 32006KT 9999 FEW020 25/21 Q1018 NOSIG
12-08-29 LEBL 290730Z 32006KT 9999 FEW010 26/21 Q1018 NOSIG
12-08-29 LEBL NIL
12-08-29 LEBL 290800Z 31005KT 9999 FEW010 27/22 Q1018 NOSIG
12-08-29 LEBL 290830Z 01001KT 9999 FEW015 28/22 Q1018 NOSIG
12-08-29 LEBL 290900Z 13005KT 080V160 9999 FEW015 29/22 Q1018 NOSIG
12-08-29 LEBL 290930Z 13006KT 090V160 9999 FEW015 28/23 Q1018 NOSIG
12-08-29 LEBL 291000Z 12006KT 080V160 9999 FEW015 29/22 Q1018 NOSIG
12-08-29 LEBL 291030Z 11007KT 080V140 9999 FEW015 29/22 Q1018 NOSIG
12-08-29 LEBL 291100Z 12008KT 090V150 9999 FEW015 29/22 Q1018 NOSIG
12-08-29 LEBL 291130Z 13008KT 100V160 9999 FEW015 28/23 Q1018 NOSIG
12-08-29 LEBL 291200Z 15008KT 100V170 9999 FEW015 29/23 Q1018 NOSIG
12-08-29 LEBL 291230Z 15009KT 9999 FEW015 28/23 Q1017 NOSIG
12-08-29 LEBL 291300Z 14007KT 110V190 9999 FEW015 29/23 Q1018 NOSIG
12-08-29 LEBL 291330Z 16007KT 120V210 9999 FEW015 29/23 Q1017 NOSIG
12-08-29 LEBL 291400Z 15006KT 110V200 9999 FEW015 29/23 Q1017 NOSIG
12-08-29 LEBL 291430Z 17007KT 130V210 9999 FEW015 29/22 Q1017 NOSIG
12-08-29 LEBL 291500Z 17006KT 130V210 9999 FEW015 28/23 Q1017 NOSIG
12-08-29 LEBL 291530Z 17007KT 130V200 9999 FEW015 29/22 Q1016 NOSIG
12-08-29 LEBL 291600Z 17006KT 130V220 9999 FEW015 29/22 Q1016 NOSIG
12-08-29 LEBL 291630Z 18007KT 150V210 9999 FEW015 29/22 Q1016 NOSIG
12-08-29 LEBL 291700Z 18005KT 140V220 9999 FEW015 28/23 Q1016 NOSIG
12-08-29 LEBL 291730Z 18005KT 150V210 9999 FEW015 SCT035 28/22 Q1016 NOSIG
12-08-29 LEBL 291800Z 13004KT 9999 FEW015 SCT035 27/22 Q1016 NOSIG
12-08-29 LEBL 291830Z 13002KT 9999 FEW015 SCT040 27/22 Q1016 NOSIG
12-08-29 LEBL 291900Z 13003KT 110V180 9999 FEW015 28/23 Q1016 NOSIG
12-08-29 LEBL 291930Z 10003KT 9999 FEW020 28/23 Q1017 NOSIG
12-08-29 LEBL 292000Z 11003KT 080V140 9999 FEW020 27/22 Q1016 NOSIG
12-08-29 LEBL 292030Z VRB02KT 9999 FEW020 27/23 Q1016 NOSIG
12-08-29 LEBL 292100Z 09002KT 9999 FEW020 27/23 Q1016 NOSIG
12-08-29 LEBL 292130Z 09003KT 9999 FEW020 27/23 Q1016 NOSIG
12-08-29 LEBL 292200Z 07003KT 9999 FEW013 27/24 Q1016 NOSIG
12-08-29 LEBL 292230Z 10003KT 060V120 9999 FEW013 27/23 Q1016 NOSIG
12-08-29 LEBL 292300Z 06004KT 030V090 9999 FEW013 27/23 Q1017 NOSIG
12-08-29 LEBL 292330Z 07005KT 9999 SCT013 27/23 Q1017 NOSIG
12-08-30 LEBL 300000Z 06006KT 9999 FEW013 27/23 Q1017 NOSIG
12-08-30 LEBL 300030Z 36008KT 9999 FEW013 SCT023 26/22 Q1017 NOSIG
12-08-30 LEBL 300100Z 03006KT 9999 FEW020 26/22 Q1017 NOSIG
12-08-30 LEBL 300130Z 04005KT 9999 FEW020 26/22 Q1016 NOSIG
12-08-30 LEBL 300200Z 06006KT 9999 FEW020 26/23 Q1016 NOSIG
12-08-30 LEBL 300230Z 07007KT 9999 FEW012 26/23 Q1015 NOSIG
12-08-30 LEBL 300300Z 07007KT 040V100 9999 FEW015 26/23 Q1015 NOSIG
12-08-30 LEBL 300330Z 06006KT 020V080 9999 FEW015 26/22 Q1015 NOSIG
12-08-30 LEBL 300400Z NIL
12-08-30 LEBL 300400Z 04007KT 9999 FEW015 25/22 Q1016 NOSIG
12-08-30 LEBL 300430Z 02006KT 9999 FEW015 25/22 Q1016 NOSIG
12-08-30 LEBL 300500Z 04006KT 9999 FEW015 SCT055 25/22 Q1016 NOSIG
12-08-30 LEBL 300530Z 06013KT 9999 FEW015TCU SCT055 26/22 Q1016 NOSIG
12-08-30 LEBL 300600Z 06009KT 9999 FEW018TCU SCT026 26/23 Q1017 NOSIG
12-08-30 LEBL 300630Z 06004KT 9999 FEW018TCU SCT026 26/22 Q1016 NOSIG
12-08-30 LEBL 300700Z 07011KT 040V100 9999 FEW018TCU SCT026 27/21 Q1017 NOSIG
12-08-30 LEBL 300730Z 08009KT 050V110 9999 FEW018TCU SCT026 27/21 Q1017 NOSIG
12-08-30 LEBL 300800Z 07012KT 040V110 9999 FEW018TCU 27/21 Q1018 NOSIG
12-08-30 LEBL 300830Z 08014KT 9999 FEW018TCU SCT026 27/18 Q1018 NOSIG
12-08-30 LEBL 300900Z 08012KT 9999 FEW018TCU 27/18 Q1018 NOSIG
12-08-30 LEBL 300930Z 08013KT 9999 FEW018TCU 27/18 Q1018 NOSIG
12-08-30 LEBL 301000Z 08013KT 040V140 9999 FEW018TCU 27/18 Q1018 NOSIG
12-08-30 LEBL 301000Z 08013KT 040V110 9999 SCT018TCU 27/18 Q1018 TEMPO TSRA
12-08-30 LEBL 301030Z 07012KT 9999 TSRA SCT018CB 26/20 Q1018 NOSIG
12-08-30 LEBL 301100Z 09010KT 9999 RA SCT018TCU SCT045 25/21 Q1018 NOSIG
12-08-30 LEBL 301130Z 07009KT 9999 RA SCT018TCU SCT045 24/21 Q1018 NOSIG
12-08-30 LEBL 301200Z 06007KT 9999 RA SCT018TCU SCT045 24/21 Q1019 NOSIG
12-08-30 LEBL 301230Z 10003KT 060V160 9999 RA SCT018TCU SCT045 24/21 Q1019 NOSIG
12-08-30 LEBL 301330Z 08011KT 9999 SCT018TCU SCT045 24/21 Q1018 NOSIG
12-08-30 LEBL 301400Z 08010KT 9999 SCT020TCU SCT045 24/21 Q1018 NOSIG
12-08-30 LEBL 301430Z 08011KT 9999 SCT020TCU SCT045 24/20 Q1019 NOSIG
12-08-30 LEBL 301500Z 08009KT 9999 SCT020TCU SCT045 24/20 Q1019 NOSIG
12-08-30 LEBL 301530Z 08008KT 040V100 9999 SCT020TCU SCT045 24/20 Q1019 NOSIG
12-08-30 LEBL 301600Z 08008KT 9999 SCT020TCU SCT045 24/19 Q1019 NOSIG
12-08-30 LEBL 301630Z 08008KT 9999 SCT020TCU SCT045 24/18 Q1019 NOSIG
12-08-30 LEBL 301700Z 08006KT 9999 SCT020TCU SCT045 25/18 Q1019 NOSIG
12-08-30 LEBL 301730Z 07006KT 9999 SCT020TCU SCT032 25/17 Q1019 NOSIG
12-08-30 LEBL 301748Z 05010KT 9999 RA SCT020TCU BKN035 25/18 Q1019 NOSIG
12-08-30 LEBL 301800Z 06009KT 010V090 5000 +RA SCT020TCU BKN035 23/19 Q1019 NOSIG
12-08-30 LEBL 301830Z 01008KT 340V040 9000 +RA SCT020TCU BKN047 22/19 Q1020 NOSIG
12-08-30 LEBL 301900Z 04010KT 9999 -RA SCT020TCU BKN050 22/18 Q1020 NOSIG
12-08-30 LEBL 301911Z 02006KT 340V060 5000 +RA SCT020TCU BKN050 21/18 Q1021 NOSIG
12-08-30 LEBL 301930Z 36005KT 310V030 6000 +RA SCT020TCU BKN050 21/18 Q1021 NOSIG
12-08-30 LEBL 302000Z 34007KT 310V020 8000 RA SCT020TCU BKN050 20/18 Q1021 NOSIG
12-08-30 LEBL 302030Z 04006KT 9999 -RA FEW007 FEW020TCU BKN055 20/19 Q1021 NOSIG
12-08-30 LEBL 302100Z 05004KT 9999 -RA FEW010 FEW020TCU BKN055 21/18 Q1021 NOSIG
12-08-30 LEBL 302130Z 31008KT 9999 -RA FEW010 FEW020TCU SCT055 20/18 Q1022 NOSIG
12-08-30 LEBL 302230Z 32006KT 8000 RA FEW020TCU SCT050 20/18 Q1021 NOSIG
12-08-30 LEBL 302330Z 32010KT 9999 FEW015 20/19 Q1021 NOSIG
12-08-31 LEBL 310000Z 33009KT 9999 FEW015 20/18 Q1021 NOSIG
12-08-31 LEBL 310030Z 32008KT 9999 FEW015 20/18 Q1020 NOSIG
12-08-31 LEBL 310100Z 32008KT 9999 FEW015 20/18 Q1020 NOSIG
12-08-31 LEBL NIL
12-08-31 LEBL 310200Z 34007KT 9999 FEW015 20/18 Q1020 NOSIG
12-08-31 LEBL 310230Z 33008KT 9999 FEW015 19/18 Q1021 NOSIG
12-08-31 LEBL 310300Z 33009KT 9999 FEW020 20/18 Q1020 NOSIG
12-08-31 LEBL 310330Z 32009KT 9999 FEW020 20/17 Q1020 NOSIG
12-08-31 LEBL 310400Z 34010G20KT 9999 FEW020 20/15 Q1020 NOSIG
12-08-31 LEBL 310430Z 33011KT 9999 FEW020 19/14 Q1020 NOSIG
12-08-31 LEBL 310500Z 32008KT 9999 FEW020 18/14 Q1020 NOSIG
12-08-31 LEBL 310530Z 32007KT 290V020 9999 FEW020 19/12 Q1021 NOSIG
12-08-31 LEBL 310600Z 31009KT 290V350 9999 FEW020 19/12 Q1022 NOSIG
12-08-31 LEBL 310630Z 31014KT 9999 FEW020 19/12 Q1022 NOSIG
12-08-31 LEBL 310700Z 34012G22KT 300V030 9999 FEW020 19/12 Q1022 NOSIG
12-08-31 LEBL 310730Z 32011KT 290V350 9999 FEW020 20/12 Q1022 NOSIG
12-08-31 LEBL 310800Z 33013G23KT 9999 FEW020 21/11 Q1022 NOSIG
12-08-31 LEBL 310830Z 32009G20KT 280V020 9999 FEW020 22/10 Q1022 NOSIG
12-08-31 LEBL 310900Z 34010G22KT 290V010 CAVOK 22/10 Q1022 NOSIG
12-08-31 LEBL 310930Z 33009KT 290V010 CAVOK 23/10 Q1022 NOSIG
12-08-31 LEBL 311000Z 31008G24KT 260V020 CAVOK 24/10 Q1022 NOSIG
12-08-31 LEBL 311030Z 32007G17KT 280V010 CAVOK 25/06 Q1021 NOSIG
12-08-31 LEBL 311100Z 32009KT 260V350 CAVOK 26/08 Q1021 NOSIG
12-08-31 LEBL 311130Z 32006KT 280V010 CAVOK 26/05 Q1021 NOSIG
12-08-31 LEBL 311200Z 29003KT CAVOK 26/13 Q1021 NOSIG
12-08-31 LEBL 311230Z 18011KT 150V240 CAVOK 26/13 Q1020 NOSIG
12-08-31 LEBL 311300Z 19011KT 160V230 CAVOK 26/14 Q1020 NOSIG
12-08-31 LEBL 311330Z 19011KT 150V220 9999 FEW025 26/14 Q1020 NOSIG
12-08-31 LEBL 311400Z 17011KT 140V200 9999 FEW025 27/13 Q1019 NOSIG
12-08-31 LEBL 311430Z 20009KT 160V240 9999 FEW025 28/13 Q1019 NOSIG
12-08-31 LEBL 311500Z 17008KT 140V210 9999 FEW025 27/11 Q1019 NOSIG
12-08-31 LEBL 311530Z 18008KT 9999 FEW025 27/12 Q1019 NOSIG
12-08-31 LEBL 311600Z 17008KT 9999 FEW025 27/11 Q1019 NOSIG
12-08-31 LEBL 311630Z 16009KT 130V200 CAVOK 27/11 Q1019 NOSIG
12-08-31 LEBL 311700Z 14008KT 9999 FEW025 27/11 Q1019 NOSIG
12-08-31 LEBL 311730Z 12010KT 9999 FEW025 27/12 Q1019 NOSIG
12-08-31 LEBL 311800Z 09008KT 9999 FEW025 26/14 Q1019 NOSIG
12-08-31 LEBL 311830Z 07012KT 040V100 9999 FEW025 25/16 Q1019 NOSIG
12-08-31 LEBL 311900Z 07011KT 040V100 9999 FEW025 25/15 Q1019 NOSIG
12-08-31 LEBL 311930Z 06012KT 9999 FEW025 24/17 Q1020 NOSIG
12-08-31 LEBL 312000Z 07010KT 040V100 9999 FEW025 24/18 Q1020 NOSIG
12-08-31 LEBL 312030Z 06005KT 330V100 9999 FEW020 SCT040 25/16 Q1020 NOSIG
12-08-31 LEBL 312100Z 05011KT 9999 FEW020 SCT040 25/18 Q1020 NOSIG
12-08-31 LEBL 312118Z 07008KT 020V100 9999 RA FEW020 SCT040 23/18 Q1020 NOSIG
12-08-31 LEBL 312130Z 05009G20KT 020V090 9999 SHRA FEW020TCU SCT040 24/19 Q1020 NOSIG
12-08-31 LEBL 312200Z 10015KT 9999 DZ FEW020TCU SCT040 22/19 Q1020 NOSIG
12-08-31 LEBL 312230Z 08007KT 020V110 9999 FEW010 SCT055 22/19 Q1021 REDZ NOSIG
12-08-31 LEBL 312300Z 09010KT 060V120 9999 FEW010 SCT055 23/18 Q1021 REDZ NOSIG
12-08-31 LEBL 312330Z 02008KT 9999 DZ FEW010 SCT055 23/18 Q1021 NOSIG
12-09-01 LEBL 010000Z 01006KT 9999 FEW010 SCT055 21/13 Q1020 REDZ NOSIG
12-09-01 LEBL 010030Z 34006KT 9999 FEW010 SCT055 21/12 Q1020 REDZ NOSIG
12-09-01 LEBL 010100Z 32007KT 9999 FEW010 SCT055 20/09 Q1020 NOSIG
12-09-01 LEBL 010130Z 32007KT 9999 FEW010 SCT045 20/09 Q1020 NOSIG
12-09-01 LEBL 010200Z NIL
12-09-01 LEBL 010230Z NIL
12-09-01 LEBL 010230Z 32009KT 9999 FEW010 SCT055 19/08 Q1020 NOSIG
12-09-01 LEBL 010300Z 33007KT 9999 FEW010 SCT055 19/08 Q1020 NOSIG
12-09-01 LEBL 010330Z NIL
12-09-01 LEBL 010400Z 33006KT 9999 FEW020 SCT055 19/07 Q1020 NOSIG
12-09-01 LEBL 010430Z 33008KT 300V360 9999 FEW020 SCT050 19/06 Q1020 NOSIG
12-09-01 LEBL 010500Z 32007KT 9999 FEW020 19/05 Q1020 NOSIG
12-09-01 LEBL 010530Z 33010KT 9999 FEW020 19/06 Q1020 NOSIG
12-09-01 LEBL 010600Z 34014G24KT 310V020 9999 FEW020 19/06 Q1020 NOSIG
12-09-01 LEBL 010630Z 33011G25KT 310V020 9999 FEW020 19/07 Q1020 NOSIG
12-09-01 LEBL 010700Z 35008KT 290V040 9999 FEW020 19/06 Q1020 NOSIG
12-09-01 LEBL 010730Z 32008G19KT 270V040 9999 FEW020 19/07 Q1020 NOSIG
12-09-01 LEBL 010800Z 32012KT 290V350 9999 FEW020 20/06 Q1020 NOSIG
12-09-01 LEBL 010830Z 32015KT 290V350 9999 FEW020 20/06 Q1020 NOSIG
12-09-01 LEBL 010900Z 33013KT 280V360 9999 FEW025 21/05 Q1020 NOSIG
12-09-01 LEBL 010930Z 31009KT 260V030 9999 FEW025 21/04 Q1020 NOSIG
12-09-01 LEBL 011000Z 32009KT 280V360 9999 FEW025 22/03 Q1020 NOSIG
12-09-01 LEBL 011030Z 33011KT 300V360 9999 FEW025 22/03 Q1020 NOSIG
12-09-01 LEBL 011100Z 31009G23KT 9999 FEW025 23/03 Q1019 NOSIG
12-09-01 LEBL 011130Z 31009KT 280V360 9999 FEW025 23/03 Q1019 NOSIG
12-09-01 LEBL 011200Z 31010KT 9999 FEW025 24/01 Q1019 NOSIG
12-09-01 LEBL 011230Z 33009KT 9999 FEW025 24/02 Q1018 NOSIG
12-09-01 LEBL 011300Z 33006KT 240V030 9999 FEW025 24/02 Q1018 NOSIG
12-09-01 LEBL 011330Z 29005KT 250V330 9999 FEW025 25/00 Q1018 NOSIG
12-09-01 LEBL 011400Z 28006KT 220V350 9999 FEW025 25/01 Q1017 NOSIG
12-09-01 LEBL 011430Z 30003G14KT 200V350 9999 FEW025 27/01 Q1017 NOSIG
12-09-01 LEBL 011500Z 18004KT 120V270 9999 FEW030 26/02 Q1017 NOSIG
12-09-01 LEBL 011530Z 16010KT 130V190 9999 FEW030 26/05 Q1016 NOSIG
12-09-01 LEBL 011600Z 19012KT 9999 FEW030 25/05 Q1016 NOSIG
12-09-01 LEBL 011630Z 20010KT 9999 FEW030 25/04 Q1016 NOSIG
12-09-01 LEBL 011700Z 18007KT 160V220 9999 FEW030 25/04 Q1017 NOSIG
12-09-01 LEBL 011730Z 14005KT 9999 FEW030 25/05 Q1017 NOSIG
12-09-01 LEBL 011800Z 11007KT 9999 FEW030 25/04 Q1017 NOSIG
12-09-01 LEBL 011830Z 10007KT 9999 FEW030 24/02 Q1018 NOSIG
12-09-01 LEBL 011900Z 11006KT 9999 FEW030 24/06 Q1018 NOSIG
12-09-01 LEBL 011930Z 11006KT 9999 FEW030 24/06 Q1018 NOSIG
12-09-01 LEBL 012000Z 11006KT 9999 FEW030 23/07 Q1018 NOSIG
12-09-01 LEBL 012030Z 13006KT 9999 FEW030 23/06 Q1018 NOSIG
12-09-01 LEBL 012100Z 14006KT 110V190 9999 FEW040 23/13 Q1019 NOSIG
12-09-01 LEBL 012130Z 15010KT 9999 FEW038 23/14 Q1018 NOSIG
12-09-01 LEBL 012200Z 15011KT 9999 FEW038 23/13 Q1018 NOSIG
12-09-01 LEBL 012230Z 16006KT 120V200 9999 FEW038 23/13 Q1019 NOSIG
12-09-01 LEBL 012300Z 12001KT 9999 FEW040 22/11 Q1019 NOSIG
12-09-01 LEBL 012330Z 33006KT 9999 SCT040 20/10 Q1019 NOSIG
12-09-02 LEBL 020000Z 32007KT 9999 SCT050 20/11 Q1019 NOSIG
12-09-02 LEBL 020030Z 31009KT 9999 SCT045 20/11 Q1019 NOSIG
12-09-02 LEBL 020100Z 33007KT 9999 VCTS SCT040CB 20/10 Q1019 NOSIG
12-09-02 LEBL 020130Z 11007KT 080V150 9999 -RA SCT050CB 20/14 Q1019 NOSIG
12-09-02 LEBL 020200Z 16005KT 9999 SCT050 19/13 Q1019 RERA NOSIG
12-09-02 LEBL 020230Z 30003KT 9999 FEW050 18/14 Q1019 NOSIG
12-09-02 LEBL 020300Z 31004KT 9999 FEW040 18/14 Q1018 NOSIG
12-09-02 LEBL 020330Z 30005KT 9999 FEW055 18/12 Q1019 NOSIG
12-09-02 LEBL 020400Z 32005KT 9999 FEW055 17/10 Q1019 NOSIG
12-09-02 LEBL 020430Z 32003KT 9999 FEW055 17/08 Q1019 NOSIG
12-09-02 LEBL 020500Z 31010KT 9999 FEW055 16/06 Q1019 NOSIG
12-09-02 LEBL 020530Z 33009KT 9999 FEW055 16/06 Q1019 NOSIG
12-09-02 LEBL 020600Z 32011G21KT 280V010 9999 FEW035 16/06 Q1019 NOSIG
12-09-02 LEBL 020630Z 33009KT 9999 FEW035 17/06 Q1019 NOSIG
12-09-02 LEBL 020700Z 33010KT 9999 FEW035 17/05 Q1020 NOSIG
12-09-02 LEBL 020730Z 33013G24KT 300V010 9999 FEW035 19/04 Q1020 NOSIG
12-09-02 LEBL 020800Z 33012KT 300V010 9999 FEW035 20/04 Q1020 NOSIG
12-09-02 LEBL 020830Z 32009KT 280V010 9999 FEW030 21/04 Q1020 NOSIG
12-09-02 LEBL 020900Z 33009KT 280V010 9999 FEW030 23/04 Q1021 NOSIG
12-09-02 LEBL 020930Z 28002KT 9999 FEW030 24/03 Q1020 NOSIG
12-09-02 LEBL 021000Z 26001KT 9999 FEW030 25/03 Q1020 NOSIG
12-09-02 LEBL 021030Z 16006KT 9999 FEW030 25/04 Q1020 NOSIG
12-09-02 LEBL 021100Z 14007KT 110V180 9999 FEW030 25/06 Q1020 NOSIG
12-09-02 LEBL 021130Z 15009KT 9999 FEW030 25/05 Q1020 NOSIG
12-09-02 LEBL 021200Z 15009KT 110V190 9999 FEW030 25/07 Q1020 NOSIG
12-09-02 LEBL 021230Z 15008KT 9999 FEW025 25/07 Q1020 NOSIG
12-09-02 LEBL 021300Z 15007KT 110V200 9999 FEW025 24/07 Q1020 NOSIG
12-09-02 LEBL 021330Z 15008KT 120V190 9999 FEW025 25/07 Q1020 NOSIG
12-09-02 LEBL 021400Z 17008KT 130V200 9999 FEW025 25/07 Q1020 NOSIG
12-09-02 LEBL 021430Z 17010KT 140V200 9999 FEW025 25/07 Q1020 NOSIG
12-09-02 LEBL 021500Z 17009KT 130V200 9999 FEW025 25/06 Q1020 NOSIG
12-09-02 LEBL 021530Z 17008KT 130V220 9999 FEW025 SCT055 25/08 Q1020 NOSIG
12-09-02 LEBL 021600Z 17006KT 130V200 9999 FEW025 SCT055 24/11 Q1020 NOSIG
12-09-02 LEBL 021630Z 18005KT 140V210 9999 FEW025 SCT055 24/11 Q1020 NOSIG
12-09-02 LEBL 021700Z 18004KT 130V220 9999 FEW020 SCT055 24/11 Q1020 NOSIG
12-09-02 LEBL 021730Z 15003KT 9999 FEW015 SCT055 24/11 Q1020 NOSIG
12-09-02 LEBL 021800Z VRB02KT 9999 FEW015 SCT055 24/12 Q1020 NOSIG
12-09-02 LEBL 021830Z 22004KT 9999 FEW015 SCT055 23/12 Q1020 NOSIG
12-09-02 LEBL 021900Z 28005KT 250V340 9999 FEW020 22/13 Q1020 NOSIG
12-09-02 LEBL 021930Z 30003KT 260V330 9999 FEW020 22/12 Q1021 NOSIG
12-09-02 LEBL 022000Z 29005KT 280V340 9999 FEW020 22/12 Q1021 NOSIG
12-09-02 LEBL 022030Z 30006KT 220V340 9999 FEW020 21/12 Q1021 NOSIG
12-09-02 LEBL 022100Z 32006KT CAVOK 20/12 Q1021 NOSIG
12-09-02 LEBL 022130Z 32006KT CAVOK 20/12 Q1021 NOSIG
12-09-02 LEBL 022200Z 31005KT CAVOK 20/12 Q1021 NOSIG
12-09-02 LEBL 022230Z 31006KT CAVOK 20/12 Q1020 NOSIG
12-09-02 LEBL 022300Z 32007KT CAVOK 20/12 Q1020 NOSIG
12-09-02 LEBL 022330Z 32006KT CAVOK 19/12 Q1020 NOSIG
12-09-03 LEBL 030000Z 31007KT CAVOK 19/12 Q1020 NOSIG
12-09-03 LEBL 030030Z 32006KT CAVOK 19/12 Q1020 NOSIG
12-09-03 LEBL 030100Z 31007KT CAVOK 19/11 Q1019 NOSIG
12-09-03 LEBL 030130Z 32007KT CAVOK 19/11 Q1019 NOSIG
12-09-03 LEBL 030200Z 32007KT CAVOK 19/10 Q1019 NOSIG
12-09-03 LEBL 030230Z 32008KT CAVOK 18/10 Q1019 NOSIG
12-09-03 LEBL 030300Z 32008KT CAVOK 18/10 Q1018 NOSIG
12-09-03 LEBL 030330Z 32008KT CAVOK 18/10 Q1018 NOSIG
12-09-03 LEBL 030400Z 32007KT CAVOK 17/10 Q1018 NOSIG
12-09-03 LEBL 030430Z 32011KT CAVOK 17/10 Q1018 NOSIG
12-09-03 LEBL 030500Z 32011KT CAVOK 17/10 Q1018 NOSIG
12-09-03 LEBL 030530Z 32008KT 290V350 9999 FEW030 17/09 Q1018 NOSIG
12-09-03 LEBL 030600Z 32012G25KT 9999 FEW030 17/09 Q1018 NOSIG
12-09-03 LEBL 030630Z 32011KT 290V350 9999 FEW030 17/10 Q1017 NOSIG
12-09-03 LEBL 030700Z 32012KT 9999 FEW030 18/09 Q1017 NOSIG
12-09-03 LEBL 030730Z 33010KT 280V360 9999 FEW030 20/09 Q1017 NOSIG
12-09-03 LEBL NIL
12-09-03 LEBL 030800Z 33013KT 300V360 9999 FEW030 21/09 Q1017 NOSIG
12-09-03 LEBL 030830Z 32011G21KT 260V360 9999 FEW030 22/09 Q1016 NOSIG
12-09-03 LEBL 030900Z 33009G19KT 9999 FEW030 22/09 Q1016 NOSIG
12-09-03 LEBL 030930Z 31010KT 280V350 9999 FEW030 24/09 Q1016 NOSIG
12-09-03 LEBL 031000Z 32009G20KT 280V360 9999 FEW030 25/07 Q1016 NOSIG
12-09-03 LEBL 031030Z 34009G19KT 290V020 9999 FEW030 26/08 Q1016 NOSIG
12-09-03 LEBL 031100Z VRB05KT 9999 FEW030 27/08 Q1016 NOSIG
12-09-03 LEBL 031130Z 20011KT 160V220 9999 FEW030 26/12 Q1015 NOSIG
12-09-03 LEBL 031200Z 21012KT 9999 FEW035 27/11 Q1015 NOSIG
12-09-03 LEBL 031230Z 20012KT 9999 FEW035 27/09 Q1015 NOSIG
12-09-03 LEBL 031300Z 20012KT 9999 FEW035 28/08 Q1015 NOSIG
12-09-03 LEBL 031330Z 20013KT 9999 FEW035 28/08 Q1015 NOSIG
12-09-03 LEBL 031400Z 20014KT 9999 FEW035 28/10 Q1014 NOSIG
12-09-03 LEBL 031430Z 21013KT 9999 FEW035 28/10 Q1014 NOSIG
12-09-03 LEBL 031500Z 21013KT 9999 FEW035 28/12 Q1014 NOSIG
12-09-03 LEBL 031530Z 19009KT 160V220 9999 FEW035 28/12 Q1015 NOSIG
12-09-03 LEBL 031600Z 17007KT 140V200 9999 FEW035 28/12 Q1015 NOSIG
12-09-03 LEBL 031630Z 11007KT 9999 FEW035 27/13 Q1016 NOSIG
12-09-03 LEBL 031700Z 10012KT 9999 FEW035 26/14 Q1016 NOSIG
12-09-03 LEBL 031730Z 11010KT 9999 FEW035 27/11 Q1016 NOSIG
12-09-03 LEBL 031800Z 13006KT 9999 FEW035 26/08 Q1016 NOSIG
12-09-03 LEBL 031830Z 16005KT 130V190 9999 FEW035 26/10 Q1017 NOSIG
12-09-03 LEBL 031900Z 16004KT 9999 FEW035 25/12 Q1017 NOSIG
12-09-03 LEBL 031930Z 17005KT 130V210 9999 FEW035 25/14 Q1017 NOSIG
12-09-03 LEBL 032000Z VRB02KT 9999 FEW030 25/12 Q1017 NOSIG
12-09-03 LEBL 032030Z 21004KT 9999 FEW030 24/13 Q1017 NOSIG
12-09-03 LEBL 032100Z 22004KT 9999 FEW015 24/13 Q1017 NOSIG
12-09-03 LEBL 032130Z 28003KT 220V310 9999 FEW015 24/13 Q1018 NOSIG
12-09-03 LEBL 032200Z 32005KT 9999 FEW018 24/13 Q1018 NOSIG
12-09-03 LEBL 032230Z 33005KT 9999 FEW018 24/13 Q1018 NOSIG
12-09-03 LEBL 032300Z 30005KT 9999 FEW020 24/13 Q1018 NOSIG
12-09-03 LEBL 032330Z 31007KT 260V330 9999 FEW020 24/13 Q1017 NOSIG
12-09-04 LEBL 040000Z 30005KT 9999 FEW022 24/14 Q1017 NOSIG
12-09-04 LEBL 040030Z 31006KT 9999 FEW022 23/14 Q1017 NOSIG
12-09-04 LEBL 040100Z 27008KT 9999 FEW025 24/14 Q1017 NOSIG
12-09-04 LEBL 040130Z 28007KT 9999 FEW025 24/15 Q1016 NOSIG
12-09-04 LEBL 040200Z 28007KT 9999 FEW025 24/15 Q1016 NOSIG
12-09-04 LEBL 040230Z 28006KT 250V350 9999 FEW030 23/14 Q1016 NOSIG
12-09-04 LEBL 040300Z 27007KT 9999 FEW030 23/14 Q1016 NOSIG
12-09-04 LEBL 040330Z 26010KT 9999 FEW030 23/13 Q1016 NOSIG
12-09-04 LEBL NIL
12-09-04 LEBL 040400Z 31006KT 9999 FEW030 21/14 Q1015 NOSIG
12-09-04 LEBL 040430Z 34008KT CAVOK 21/14 Q1015 NOSIG
12-09-04 LEBL 040500Z 33008KT 9999 FEW030 21/14 Q1016 NOSIG
12-09-04 LEBL 040530Z 32009KT 9999 FEW030 21/13 Q1016 NOSIG
12-09-04 LEBL 040600Z 32009KT 9999 FEW035 21/13 Q1016 NOSIG
12-09-04 LEBL 040630Z 32008G20KT 280V010 9999 FEW035 20/13 Q1016 NOSIG
12-09-04 LEBL 040700Z 32011G23KT 290V350 9999 FEW035 20/12 Q1016 NOSIG
12-09-04 LEBL 040730Z 32013KT 9999 FEW035 21/12 Q1016 NOSIG
12-09-04 LEBL 040800Z 31011KT 260V340 9999 FEW035 23/12 Q1016 NOSIG
12-09-04 LEBL 040830Z 32008G18KT CAVOK 23/12 Q1016 NOSIG
12-09-04 LEBL 040900Z 31010KT 260V350 CAVOK 24/12 Q1016 NOSIG
12-09-04 LEBL 040930Z 32010G21KT 300V360 CAVOK 25/12 Q1016 NOSIG
12-09-04 LEBL 041000Z 34005KT 280V040 CAVOK 26/11 Q1016 NOSIG
12-09-04 LEBL 041030Z 01002KT CAVOK 27/10 Q1016 NOSIG
12-09-04 LEBL 041100Z 18009KT 140V210 9999 FEW030 26/13 Q1016 NOSIG
12-09-04 LEBL 041130Z 18009KT 140V220 9999 FEW030 26/14 Q1016 NOSIG
12-09-04 LEBL 041200Z 17009KT 150V210 9999 FEW030 27/15 Q1016 NOSIG
12-09-04 LEBL 041230Z 18009KT 130V210 9999 FEW030 26/15 Q1016 NOSIG
12-09-04 LEBL 041300Z 18008KT 150V210 9999 FEW030 26/15 Q1016 NOSIG
12-09-04 LEBL 041330Z 18008KT 130V220 9999 FEW030 27/15 Q1015 NOSIG
12-09-04 LEBL 041400Z 17008KT 130V210 9999 FEW030 27/14 Q1015 NOSIG
12-09-04 LEBL 041430Z 16007KT 120V190 9999 FEW030 27/15 Q1015 NOSIG
12-09-04 LEBL 041500Z 15007KT 100V180 9999 FEW030 27/15 Q1015 NOSIG
12-09-04 LEBL 041530Z 14008KT 9999 FEW030 26/16 Q1015 NOSIG
12-09-04 LEBL 041600Z 12008KT 100V160 9999 FEW030 27/16 Q1015 NOSIG
12-09-04 LEBL 041630Z 13007KT 100V160 9999 FEW030 26/16 Q1015 NOSIG
12-09-04 LEBL 041700Z 14006KT 9999 FEW030 26/16 Q1015 NOSIG
12-09-04 LEBL 041730Z 11005KT 9999 FEW030 25/16 Q1016 NOSIG
12-09-04 LEBL 041800Z 11004KT 9999 FEW030 25/17 Q1016 NOSIG
12-09-04 LEBL 041830Z 10003KT 9999 FEW030 25/16 Q1016 NOSIG
12-09-04 LEBL 041900Z 09004KT 9999 FEW030 25/16 Q1016 NOSIG
12-09-04 LEBL 041930Z 08003KT 9999 FEW030 25/17 Q1017 NOSIG
12-09-04 LEBL 042000Z 12004KT 9999 FEW030 25/15 Q1017 NOSIG
12-09-04 LEBL 042030Z 12004KT 9999 FEW030 25/16 Q1017 NOSIG
12-09-04 LEBL 042100Z VRB02KT 9999 FEW030 25/16 Q1017 NOSIG
12-09-04 LEBL 042130Z VRB02KT 9999 FEW030 25/16 Q1017 NOSIG
12-09-04 LEBL 042200Z 31003KT 290V040 9999 FEW030 23/17 Q1017 NOSIG
12-09-04 LEBL 042230Z 32004KT 9999 FEW030 23/16 Q1017 NOSIG
12-09-04 LEBL 042300Z 33005KT 9999 FEW030 23/16 Q1017 NOSIG
12-09-04 LEBL 042330Z 32006KT 280V340 9999 FEW030 23/16 Q1017 NOSIG
12-09-05 LEBL 050000Z 32007KT 9999 FEW030 23/16 Q1017 NOSIG
12-09-05 LEBL 050030Z 32007KT 9999 FEW030 23/16 Q1017 NOSIG
12-09-05 LEBL 050100Z 33007KT 9999 FEW030 22/16 Q1016 NOSIG
12-09-05 LEBL 050130Z 32005KT 9999 FEW030 22/16 Q1016 NOSIG
12-09-05 LEBL 050200Z 31006KT 9999 FEW030 22/16 Q1016 NOSIG
12-09-05 LEBL 050230Z 32006KT 9999 FEW030 22/16 Q1016 NOSIG
12-09-05 LEBL 050300Z 32005KT 9999 FEW030 23/16 Q1016 NOSIG
12-09-05 LEBL 050330Z 33006KT 9999 FEW030 22/15 Q1016 NOSIG
12-09-05 LEBL 050400Z 32008KT 9999 FEW030 22/15 Q1016 NOSIG
12-09-05 LEBL 050430Z 33008KT 9999 FEW030 22/15 Q1016 NOSIG
12-09-05 LEBL 050500Z 33011KT 9999 FEW030 21/16 Q1016 NOSIG
12-09-05 LEBL 050530Z 32008KT 9999 FEW030 21/16 Q1016 NOSIG
12-09-05 LEBL 050600Z 32007KT 9999 FEW030 21/16 Q1016 NOSIG
12-09-05 LEBL 050630Z 32008G20KT 9999 FEW030 21/16 Q1017 NOSIG
12-09-05 LEBL 050700Z 32010KT 9999 FEW030 22/15 Q1017 NOSIG
12-09-05 LEBL 050730Z 32009KT 280V350 9999 FEW030 23/15 Q1017 NOSIG
12-09-05 LEBL 050800Z 33011G23KT 290V010 9999 FEW030 24/14 Q1017 NOSIG
12-09-05 LEBL 050830Z 33011KT 290V020 9999 FEW030 25/14 Q1017 NOSIG
12-09-05 LEBL 050900Z 32008KT 230V350 9999 FEW030 26/14 Q1017 NOSIG
12-09-05 LEBL 050930Z 33008KT 280V020 9999 FEW030 26/14 Q1017 NOSIG
12-09-05 LEBL 051000Z 22007KT 190V260 9999 FEW030 27/17 Q1017 NOSIG
12-09-05 LEBL 051030Z 21007KT 170V240 9999 FEW025 27/16 Q1017 NOSIG
12-09-05 LEBL 051100Z 20009KT 170V230 9999 FEW025 27/16 Q1017 NOSIG
12-09-05 LEBL 051130Z 18008KT 150V210 9999 FEW025 27/17 Q1017 NOSIG
12-09-05 LEBL 051200Z 20010KT 170V230 9999 FEW025 28/16 Q1017 NOSIG
12-09-05 LEBL 051230Z 22013KT 9999 FEW025 28/17 Q1017 NOSIG
12-09-05 LEBL 051300Z 20012KT 9999 FEW025 28/17 Q1016 NOSIG
12-09-05 LEBL 051330Z 20013KT 9999 FEW025 28/17 Q1016 NOSIG
12-09-05 LEBL 051400Z 21013KT 9999 FEW025 28/17 Q1016 NOSIG
12-09-05 LEBL 051430Z 21012KT 170V230 9999 FEW025 28/16 Q1016 NOSIG
12-09-05 LEBL 051500Z 20011KT 9999 FEW025 28/18 Q1016 NOSIG
12-09-05 LEBL 051530Z 22012KT 9999 FEW025 28/18 Q1016 NOSIG
12-09-05 LEBL 051600Z 22011KT 9999 FEW025 28/18 Q1016 NOSIG
12-09-05 LEBL 051630Z 22011KT 9999 FEW025 27/18 Q1016 NOSIG
12-09-05 LEBL 051700Z 23011KT 9999 FEW025 27/19 Q1016 NOSIG
12-09-05 LEBL 051730Z 22010KT 9999 FEW025 26/19 Q1017 NOSIG
12-09-05 LEBL 051800Z 22009KT 9999 FEW025 26/19 Q1017 NOSIG
12-09-05 LEBL 051830Z 23009KT 9999 FEW025 25/19 Q1017 NOSIG
12-09-05 LEBL 051900Z 23009KT 9999 FEW025 25/20 Q1017 NOSIG
12-09-05 LEBL 051930Z 23008KT 9999 FEW025 25/20 Q1018 NOSIG
12-09-05 LEBL 052000Z 24007KT 220V280 9999 FEW025 25/20 Q1018 NOSIG
12-09-05 LEBL 052030Z 25007KT 9999 FEW025 25/20 Q1018 NOSIG
12-09-05 LEBL 052100Z 25008KT 220V280 9999 FEW025 25/20 Q1018 NOSIG
12-09-05 LEBL 052130Z 28005KT 240V310 9999 FEW025 25/20 Q1018 NOSIG
12-09-05 LEBL 052200Z 30004KT 9999 FEW025 25/19 Q1018 NOSIG
12-09-05 LEBL 052230Z 29004KT 9999 FEW025 25/20 Q1018 NOSIG
12-09-05 LEBL 052300Z 28003KT 9999 FEW025 25/19 Q1018 NOSIG
12-09-05 LEBL 052330Z VRB02KT 9999 FEW025 25/20 Q1018 NOSIG
12-09-06 LEBL 060000Z 29002KT 9999 FEW025 25/19 Q1019 NOSIG
12-09-06 LEBL 060030Z VRB02KT 9999 FEW025 24/20 Q1018 NOSIG
12-09-06 LEBL 060100Z 25006KT 9999 FEW025 23/20 Q1018 NOSIG
12-09-06 LEBL 060130Z 31004KT 9999 FEW025 23/19 Q1018 NOSIG
12-09-06 LEBL 060200Z 32004KT 9999 FEW025 23/19 Q1019 NOSIG
12-09-06 LEBL 060230Z 32005KT 9999 FEW025 23/18 Q1019 NOSIG
12-09-06 LEBL 060300Z 32006KT 9999 FEW025 23/19 Q1018 NOSIG
12-09-06 LEBL 060330Z 32006KT 9999 FEW025 22/18 Q1018 NOSIG
12-09-06 LEBL 060400Z 32009KT 9999 FEW025 22/18 Q1018 NOSIG
12-09-06 LEBL 060430Z 32008KT 9999 FEW025 22/18 Q1018 NOSIG
12-09-06 LEBL 060500Z 31006KT 9999 FEW025 22/18 Q1019 NOSIG
12-09-06 LEBL 060530Z 30007G18KT 270V340 9999 FEW025 22/17 Q1019 NOSIG
12-09-06 LEBL 060600Z 32007KT 270V340 9999 FEW025 21/17 Q1019 NOSIG
12-09-06 LEBL 060630Z 32009G21KT 250V350 9999 FEW025 22/17 Q1019 NOSIG
12-09-06 LEBL 060700Z 32007KT 260V350 9999 FEW025 22/16 Q1019 NOSIG
12-09-06 LEBL 060730Z NIL
12-09-06 LEBL 060730Z 32007KT 290V350 9999 FEW025 24/16 Q1019 NOSIG
12-09-06 LEBL 060800Z 32007KT 240V350 9999 FEW025 24/17 Q1019 NOSIG
12-09-06 LEBL NIL
12-09-06 LEBL 060830Z 31006KT 270V350 9999 FEW025 25/17 Q1019 NOSIG
12-09-06 LEBL 060900Z 31003KT 210V360 9999 FEW025 27/18 Q1019 NOSIG
12-09-06 LEBL 060930Z 30003KT 220V010 9999 FEW025 27/19 Q1019 NOSIG
12-09-06 LEBL 061000Z 20006KT 160V240 9999 FEW025 27/18 Q1019 NOSIG
12-09-06 LEBL 061030Z 19011KT 150V210 9999 FEW025 27/19 Q1020 NOSIG
12-09-06 LEBL 061100Z 21011KT 9999 FEW025 28/19 Q1020 NOSIG
12-09-06 LEBL 061130Z 21011KT 180V240 9999 FEW025 28/19 Q1020 NOSIG
12-09-06 LEBL 061200Z 20012KT 9999 FEW025 28/19 Q1019 NOSIG
12-09-06 LEBL 061230Z 21013KT 9999 FEW025 28/19 Q1019 NOSIG
12-09-06 LEBL 061300Z 21012KT 9999 FEW025 28/19 Q1019 NOSIG
12-09-06 LEBL 061330Z 21013KT 9999 FEW025 28/18 Q1019 NOSIG
12-09-06 LEBL 061400Z 22014KT 9999 FEW025 29/18 Q1019 NOSIG
12-09-06 LEBL 061430Z 22015KT 9999 FEW025 29/18 Q1019 NOSIG
12-09-06 LEBL 061500Z 22015KT CAVOK 27/18 Q1019 NOSIG
12-09-06 LEBL 061530Z 22015KT CAVOK 27/19 Q1019 NOSIG
12-09-06 LEBL 061600Z 22014KT CAVOK 27/19 Q1019 NOSIG
12-09-06 LEBL 061630Z 23014KT 9999 FEW025 28/18 Q1018 NOSIG
12-09-06 LEBL 061700Z 22013KT CAVOK 27/18 Q1018 NOSIG
12-09-06 LEBL 061730Z 22012KT CAVOK 27/19 Q1019 NOSIG
12-09-06 LEBL 061800Z 22011KT CAVOK 26/20 Q1019 NOSIG
12-09-06 LEBL 061830Z 21009KT CAVOK 26/19 Q1019 NOSIG
12-09-06 LEBL 061900Z 21009KT CAVOK 26/19 Q1019 NOSIG
12-09-06 LEBL 061930Z 21008KT CAVOK 25/20 Q1020 NOSIG
12-09-06 LEBL 062000Z 21007KT CAVOK 25/20 Q1020 NOSIG
12-09-06 LEBL 062030Z 20005KT 9999 FEW025 25/20 Q1021 NOSIG
12-09-06 LEBL 062100Z 23004KT 9999 FEW025 25/20 Q1021 NOSIG
12-09-06 LEBL 062130Z 22004KT 9999 FEW025 25/20 Q1021 NOSIG
12-09-06 LEBL 062200Z 25005KT 9999 FEW025 25/19 Q1021 NOSIG
12-09-06 LEBL 062230Z 28003KT 9999 FEW025 24/17 Q1021 NOSIG
12-09-06 LEBL 062300Z 32003KT 9999 FEW025 24/16 Q1021 NOSIG
12-09-06 LEBL 062330Z 30004KT 9999 FEW025 24/15 Q1021 NOSIG
12-09-07 LEBL 070000Z 32006KT 9999 FEW025 24/15 Q1021 NOSIG
12-09-07 LEBL 070030Z 33006KT 9999 FEW025 23/15 Q1021 NOSIG
12-09-07 LEBL 070100Z NIL
12-09-07 LEBL 070130Z NIL
12-09-07 LEBL 070200Z 32006KT 9999 FEW025 23/16 Q1020 NOSIG
12-09-07 LEBL 070230Z 30006KT 9999 FEW025 23/16 Q1021 NOSIG
12-09-07 LEBL 070300Z 33007KT 9999 FEW025 23/16 Q1021 NOSIG
12-09-07 LEBL 070330Z NIL
12-09-07 LEBL 070400Z 33009KT 9999 FEW025 23/15 Q1021 NOSIG
12-09-07 LEBL 070430Z 33008KT 9999 FEW025 22/15 Q1021 NOSIG
12-09-07 LEBL 070500Z 33008KT 9999 FEW025 22/15 Q1021 NOSIG
12-09-07 LEBL 070530Z 33008KT 9999 FEW025 22/15 Q1021 NOSIG
12-09-07 LEBL 070600Z 33007KT 9999 FEW025 22/15 Q1021 NOSIG
12-09-07 LEBL 070630Z 32008KT 290V010 9999 FEW025 22/15 Q1022 NOSIG
12-09-07 LEBL 070700Z 32007KT 290V360 9999 FEW025 23/15 Q1022 NOSIG
12-09-07 LEBL 070730Z 32007KT 290V350 CAVOK 24/16 Q1022 NOSIG
12-09-07 LEBL 070800Z 32005KT 260V010 CAVOK 25/15 Q1022 NOSIG
12-09-07 LEBL 070830Z 12004KT 070V170 CAVOK 27/17 Q1022 NOSIG
12-09-07 LEBL 070900Z 13005KT 100V160 CAVOK 26/17 Q1022 NOSIG
12-09-07 LEBL 070930Z 10008KT 070V130 CAVOK 28/17 Q1022 NOSIG
12-09-07 LEBL 071000Z 12008KT 080V150 CAVOK 28/18 Q1022 NOSIG
12-09-07 LEBL 071030Z 13007KT 080V190 CAVOK 27/18 Q1022 NOSIG
12-09-07 LEBL 071100Z 14006KT 080V180 CAVOK 27/18 Q1022 NOSIG
12-09-07 LEBL 071130Z 13007KT CAVOK 27/17 Q1022 NOSIG
12-09-07 LEBL 071200Z 15008KT 110V180 CAVOK 28/17 Q1022 NOSIG
12-09-07 LEBL 071230Z 14008KT 100V180 9999 FEW030 27/18 Q1021 NOSIG
12-09-07 LEBL 071300Z 15008KT 120V200 9999 FEW030 27/20 Q1021 NOSIG
12-09-07 LEBL 071330Z 14007KT 100V170 9999 FEW030 28/19 Q1021 NOSIG
12-09-07 LEBL 071400Z 14007KT 9999 FEW030 28/19 Q1021 NOSIG
12-09-07 LEBL 071430Z 13008KT 100V170 9999 FEW030 28/19 Q1021 NOSIG
12-09-07 LEBL 071500Z 13007KT 080V170 9999 FEW035 27/20 Q1021 NOSIG
12-09-07 LEBL 071530Z 10006KT 060V140 9999 FEW035 27/20 Q1020 NOSIG
12-09-07 LEBL 071600Z 11006KT 080V140 9999 FEW035 26/19 Q1020 NOSIG
12-09-07 LEBL 071630Z 11005KT 060V170 9999 FEW035 26/19 Q1020 NOSIG
12-09-07 LEBL 071700Z 14005KT 100V180 CAVOK 26/19 Q1020 NOSIG
12-09-07 LEBL 071730Z 12004KT 100V160 CAVOK 26/19 Q1020 NOSIG
12-09-07 LEBL 071800Z VRB02KT CAVOK 25/19 Q1020 NOSIG
12-09-07 LEBL 071830Z 11002KT CAVOK 25/19 Q1020 NOSIG
12-09-07 LEBL 071900Z 10001KT CAVOK 25/19 Q1021 NOSIG
12-09-07 LEBL 071930Z 07002KT CAVOK 25/19 Q1021 NOSIG
12-09-07 LEBL 072000Z 13002KT CAVOK 25/19 Q1021 NOSIG
12-09-07 LEBL 072030Z 00000KT CAVOK 25/19 Q1021 NOSIG
12-09-07 LEBL 072100Z VRB01KT 9999 FEW025 24/19 Q1021 NOSIG
12-09-07 LEBL 072130Z 31002KT 9999 FEW025 24/20 Q1021 NOSIG
12-09-07 LEBL 072200Z 31003KT 9000 6000 FEW025 24/19 Q1021 NOSIG
12-09-07 LEBL 072230Z 00000KT 9000 6000 FEW025 23/19 Q1021 NOSIG
12-09-07 LEBL 072300Z 30003KT 9000 6000 FEW025 23/19 Q1021 NOSIG
12-09-07 LEBL 072330Z 30003KT 9000 6000 FEW020 23/19 Q1021 NOSIG
12-09-08 LEBL 080000Z 32005KT 9000 FEW020 23/19 Q1020 NOSIG
12-09-08 LEBL 080030Z 30004KT 9000 FEW020 23/19 Q1020 NOSIG
12-09-08 LEBL 080100Z 31003KT 9000 FEW020 23/19 Q1020 NOSIG
12-09-08 LEBL 080130Z 32005KT 9000 FEW020 22/19 Q1020 NOSIG
12-09-08 LEBL 080200Z 32005KT 8000 FEW020 22/19 Q1019 NOSIG
12-09-08 LEBL 080230Z 31006KT 7000 FEW020 22/19 Q1019 NOSIG
12-09-08 LEBL 080300Z 33006KT 7000 FEW020 22/19 Q1019 NOSIG
12-09-08 LEBL 080330Z 32006KT 7000 FEW020 22/19 Q1019 NOSIG
12-09-08 LEBL 080400Z 32008KT 7000 FEW020 22/19 Q1019 NOSIG
12-09-08 LEBL 080430Z 32007KT 7000 FEW020 22/19 Q1019 NOSIG
12-09-08 LEBL 080500Z 32005KT 7000 FEW020 22/19 Q1019 NOSIG
12-09-08 LEBL 080530Z 32005KT 7000 FEW020 22/19 Q1019 NOSIG
12-09-08 LEBL 080600Z 32005KT 8000 FEW020 22/18 Q1019 NOSIG
12-09-08 LEBL 080630Z 32007KT 260V360 9000 FEW020 22/18 Q1019 NOSIG
12-09-08 LEBL 080700Z 32007KT 9000 FEW020 22/18 Q1019 NOSIG
12-09-08 LEBL 080730Z 33006KT 190V350 9000 FEW020 23/18 Q1020 NOSIG
12-09-08 LEBL NIL
12-09-08 LEBL 080800Z 34005KT 240V020 9000 FEW020 24/18 Q1020 NOSIG
12-09-08 LEBL 080830Z 06002KT 9000 FEW020 25/18 Q1020 NOSIG
12-09-08 LEBL 080900Z 12001KT 8000 FEW020 26/19 Q1020 NOSIG
12-09-08 LEBL 080930Z VRB02KT 8000 FEW020 26/20 Q1020 NOSIG
12-09-08 LEBL 081000Z 21004KT 170V260 9000 FEW020 26/21 Q1020 NOSIG
12-09-08 LEBL 081030Z 20005KT 170V260 9000 FEW020 26/21 Q1020 NOSIG
12-09-08 LEBL 081100Z 20007KT 160V240 9999 FEW018 27/21 Q1020 NOSIG
12-09-08 LEBL 081130Z 18007KT 130V220 9999 FEW018 27/21 Q1019 NOSIG
12-09-08 LEBL 081200Z 19007KT 150V220 9999 FEW018 27/21 Q1019 NOSIG
12-09-08 LEBL 081230Z 20009KT 160V220 9999 FEW018 28/21 Q1019 NOSIG
12-09-08 LEBL 081300Z 19010KT 160V220 9999 FEW020 27/21 Q1019 NOSIG
12-09-08 LEBL 081330Z 19010KT 9999 FEW020 27/21 Q1018 NOSIG
12-09-08 LEBL 081400Z 19010KT 160V220 9999 FEW020 27/21 Q1018 NOSIG
12-09-08 LEBL 081430Z 19011KT 160V220 9999 FEW020 27/22 Q1018 NOSIG
12-09-08 LEBL 081500Z 19009KT 9999 SCT018 27/21 Q1018 NOSIG
12-09-08 LEBL 081530Z 21009KT 9999 SCT018 28/21 Q1017 NOSIG
12-09-08 LEBL 081600Z 20009KT 9999 SCT018 27/21 Q1017 NOSIG
12-09-08 LEBL 081630Z 20009KT 9999 FEW018 SCT020 27/21 Q1017 NOSIG
12-09-08 LEBL 081700Z 21009KT 9999 FEW018 SCT020 27/21 Q1017 NOSIG
12-09-08 LEBL 081730Z 22008KT 9999 SCT020 26/21 Q1018 NOSIG
12-09-08 LEBL 081800Z 23009KT 9999 FEW020 FEW025TCU 26/21 Q1018 NOSIG
12-09-08 LEBL 081830Z 22008KT 9999 FEW020 FEW025TCU 26/21 Q1018 NOSIG
12-09-08 LEBL 081900Z 25006KT 210V290 9999 FEW020 FEW025TCU 26/21 Q1018 NOSIG
12-09-08 LEBL 081930Z 24008KT 9999 FEW020 25/21 Q1018 NOSIG
12-09-08 LEBL 082000Z 24011KT 9999 FEW020 25/21 Q1018 NOSIG
12-09-08 LEBL 082030Z 23008KT 9999 FEW020 25/21 Q1018 NOSIG
12-09-08 LEBL 082100Z 31005KT 210V340 9999 FEW020 25/21 Q1018 NOSIG
12-09-08 LEBL 082130Z NIL
12-09-08 LEBL 082130Z 30007KT 280V340 9999 FEW020 25/20 Q1018 NOSIG
12-09-08 LEBL 082200Z 32007KT 9999 FEW020 25/20 Q1018 NOSIG
12-09-08 LEBL 082230Z 30004KT 9999 FEW020 25/20 Q1018 NOSIG
12-09-08 LEBL 082300Z 25005KT 9999 FEW020 24/20 Q1018 NOSIG
12-09-08 LEBL 082330Z 24003KT 210V270 9999 FEW020 24/20 Q1018 NOSIG
12-09-09 LEBL 090000Z 26003KT 9999 FEW020 23/20 Q1017 NOSIG
12-09-09 LEBL 090030Z 29004KT 9999 FEW020 23/20 Q1017 NOSIG
12-09-09 LEBL 090100Z 28004KT 260V320 9999 FEW020 24/20 Q1017 NOSIG
12-09-09 LEBL 090130Z 31006KT 9999 FEW020 23/18 Q1017 NOSIG
12-09-09 LEBL 090200Z 32006KT 9999 FEW016 23/17 Q1017 NOSIG
12-09-09 LEBL 090230Z 32004KT 9999 FEW016 23/18 Q1017 NOSIG
12-09-09 LEBL 090300Z 32004KT 9999 FEW015 23/17 Q1017 NOSIG
12-09-09 LEBL 090330Z VRB01KT 9999 FEW020 23/17 Q1017 NOSIG
12-09-09 LEBL NIL
12-09-09 LEBL 090400Z VRB02KT 9999 FEW020 23/18 Q1017 NOSIG
12-09-09 LEBL 090430Z 31005KT 9999 FEW020 23/17 Q1017 NOSIG
12-09-09 LEBL 090500Z 32006KT 9999 FEW020 23/18 Q1016 NOSIG
12-09-09 LEBL 090530Z 32006KT 9999 FEW020 23/18 Q1017 NOSIG
12-09-09 LEBL 090600Z 32006G16KT 9999 FEW020 22/17 Q1017 NOSIG
12-09-09 LEBL 090630Z 32008KT 9999 FEW020 22/17 Q1017 NOSIG
12-09-09 LEBL 090700Z 32007G18KT 280V360 9999 FEW020 23/17 Q1017 NOSIG
12-09-09 LEBL 090730Z 32006KT 190V360 9999 FEW020 24/18 Q1017 NOSIG
12-09-09 LEBL 090800Z 32005KT 280V010 9999 FEW020 24/18 Q1017 NOSIG
12-09-09 LEBL 090830Z 31003KT 280V360 9999 FEW020 27/19 Q1017 NOSIG
12-09-09 LEBL 090900Z 21007KT 9999 FEW025 27/21 Q1017 NOSIG
12-09-09 LEBL 090930Z 21012KT 9999 FEW025 27/22 Q1018 NOSIG
12-09-09 LEBL 091000Z 20013KT 9999 FEW020 28/21 Q1018 NOSIG
12-09-09 LEBL 091030Z 20014KT 9999 FEW020 27/21 Q1018 NOSIG
12-09-09 LEBL 091100Z 21012KT 9999 FEW020 28/21 Q1017 NOSIG
12-09-09 LEBL 091130Z 20012KT 9999 FEW020 29/21 Q1017 NOSIG
12-09-09 LEBL 091200Z 20013KT 9999 FEW020 29/20 Q1017 NOSIG
12-09-09 LEBL 091230Z 20013KT 9999 FEW020 28/21 Q1017 NOSIG
12-09-09 LEBL 091300Z 20012KT 170V230 9999 FEW020 28/21 Q1017 NOSIG
12-09-09 LEBL 091330Z 20013KT 9999 FEW020 29/21 Q1017 NOSIG
12-09-09 LEBL 091400Z 20013KT 170V230 9999 FEW020 29/20 Q1016 NOSIG
12-09-09 LEBL 091430Z 21012KT 9999 FEW020 29/20 Q1016 NOSIG
12-09-09 LEBL 091500Z 21013KT 9999 FEW020 28/21 Q1016 NOSIG
12-09-09 LEBL 091530Z 21011KT 9999 FEW020 28/21 Q1016 NOSIG
12-09-09 LEBL 091600Z 22012KT 9999 FEW020 28/21 Q1016 NOSIG
12-09-09 LEBL 091630Z 22012KT 9999 FEW020 27/21 Q1016 NOSIG
12-09-09 LEBL 091700Z 23010KT 9999 FEW020 27/20 Q1016 NOSIG
12-09-09 LEBL 091730Z 22009KT 190V250 9999 FEW020 27/21 Q1016 NOSIG
12-09-09 LEBL 091800Z 22006KT 9999 FEW020 26/21 Q1016 NOSIG
12-09-09 LEBL 091830Z 23006KT 9999 FEW020 26/21 Q1017 NOSIG
12-09-09 LEBL 091900Z 31003KT 230V360 9999 FEW020 26/21 Q1017 NOSIG
12-09-09 LEBL 091930Z 26003KT 200V330 9999 FEW020 26/20 Q1017 NOSIG
12-09-09 LEBL 092000Z 23004KT 200V280 9999 FEW020 26/21 Q1017 NOSIG
12-09-09 LEBL 092030Z 22005KT 9999 FEW020 25/21 Q1017 NOSIG
12-09-09 LEBL 092100Z 24006KT 9999 FEW020 25/21 Q1017 NOSIG
12-09-09 LEBL 092130Z 25006KT 9999 FEW020 25/21 Q1017 NOSIG
12-09-09 LEBL 092200Z 25006KT 9999 FEW020 25/21 Q1017 NOSIG
12-09-09 LEBL 092230Z 30003KT 9999 FEW020 25/21 Q1017 NOSIG
12-09-09 LEBL 092300Z 30003KT 9999 FEW018 25/18 Q1017 NOSIG
12-09-09 LEBL 092330Z 00000KT 9999 FEW018 25/18 Q1017 NOSIG
12-09-10 LEBL 100000Z 34002KT 9999 FEW018 25/18 Q1017 NOSIG
12-09-10 LEBL 100030Z VRB01KT 9999 FEW018 24/18 Q1017 NOSIG
12-09-10 LEBL 100100Z 32001KT 9999 FEW018 24/17 Q1017 NOSIG
12-09-10 LEBL 100130Z 31005KT 9999 FEW020 24/18 Q1017 NOSIG
12-09-10 LEBL 100200Z 32004KT 9999 FEW020 23/18 Q1017 NOSIG
12-09-10 LEBL 100230Z 32003KT 9999 FEW020 23/18 Q1017 NOSIG
12-09-10 LEBL 100300Z 32006KT 9999 FEW018 23/18 Q1016 NOSIG
12-09-10 LEBL 100330Z 32007KT 9999 FEW018 23/18 Q1016 NOSIG
12-09-10 LEBL 100400Z 33007KT 9999 FEW020 23/18 Q1016 NOSIG
12-09-10 LEBL 100430Z 33008KT 9999 FEW025 23/17 Q1016 NOSIG
12-09-10 LEBL 100500Z 34009KT 310V010 9999 FEW025 22/18 Q1016 NOSIG
12-09-10 LEBL 100530Z 33009KT 9999 FEW025 22/17 Q1017 NOSIG
12-09-10 LEBL 100600Z 33008G21KT 290V360 9999 FEW035 22/18 Q1017 NOSIG
12-09-10 LEBL 100630Z 33009KT 9999 FEW025 SCT030 22/18 Q1017 NOSIG
12-09-10 LEBL 100700Z VRB08G20KT 9999 FEW020 SCT035 23/17 Q1017 NOSIG
12-09-10 LEBL 100730Z 33009KT 9999 FEW018 SCT035 24/17 Q1017 NOSIG
12-09-10 LEBL 100800Z 34007KT 220V010 9999 FEW018 SCT035 24/17 Q1017 NOSIG
12-09-10 LEBL 100830Z 32005KT 240V010 9999 FEW025 26/17 Q1018 NOSIG
12-09-10 LEBL 100900Z 04002KT 9999 FEW025 27/19 Q1018 NOSIG
12-09-10 LEBL 100930Z 27003KT 9999 FEW023 27/20 Q1018 NOSIG
12-09-10 LEBL 101000Z 19005KT 160V220 9999 FEW023 26/21 Q1017 NOSIG
12-09-10 LEBL 101030Z 14006KT 110V190 9999 FEW025 27/21 Q1017 NOSIG
12-09-10 LEBL 101100Z 17007KT 120V220 9999 FEW025 27/21 Q1017 NOSIG
12-09-10 LEBL 101130Z 16008KT 130V190 9999 FEW025 27/21 Q1017 NOSIG
12-09-10 LEBL 101200Z 17010KT 130V200 9999 FEW025 28/21 Q1017 NOSIG
12-09-10 LEBL 101230Z 17008KT 130V200 9999 FEW025 27/21 Q1017 NOSIG
12-09-10 LEBL 101300Z 17008KT 130V210 9999 FEW025 27/21 Q1017 NOSIG
12-09-10 LEBL 101330Z 19009KT 150V230 9999 FEW020 27/21 Q1017 NOSIG
12-09-10 LEBL 101400Z 21010KT 170V240 9999 FEW020 27/21 Q1017 NOSIG
12-09-10 LEBL 101430Z 19009KT 150V220 9999 FEW023 27/20 Q1017 NOSIG
12-09-10 LEBL 101500Z 19009KT 160V230 9999 SCT025 28/20 Q1016 NOSIG
12-09-10 LEBL 101530Z 19009KT 160V220 9999 SCT023 27/20 Q1016 NOSIG
12-09-10 LEBL 101600Z 20009KT 9999 SCT023 27/21 Q1016 NOSIG
12-09-10 LEBL 101630Z 19008KT 150V230 9999 SCT023 27/21 Q1016 NOSIG
12-09-10 LEBL 101700Z 20007KT 160V220 9999 FEW025 27/20 Q1016 NOSIG
12-09-10 LEBL 101730Z 21006KT 9999 FEW025 27/20 Q1016 NOSIG
12-09-10 LEBL 101800Z 21006KT 9999 FEW025 26/20 Q1016 NOSIG
12-09-10 LEBL 101830Z 20004KT 170V230 9999 FEW025 26/21 Q1016 NOSIG
12-09-10 LEBL 101900Z 22004KT 9999 FEW025 26/20 Q1016 NOSIG
12-09-10 LEBL 101930Z 20003KT 9999 FEW025 26/20 Q1017 NOSIG
12-09-10 LEBL NIL
12-09-10 LEBL 102000Z VRB02KT 9999 FEW025 26/20 Q1017 NOSIG
12-09-10 LEBL 102030Z VRB02KT 9999 FEW025 26/20 Q1017 NOSIG
12-09-10 LEBL 102100Z 17002KT 9999 FEW025 26/20 Q1017 NOSIG
12-09-10 LEBL 102130Z 18003KT 9999 FEW025 25/20 Q1017 NOSIG
12-09-10 LEBL 102200Z 18003KT 9999 FEW025 24/20 Q1017 NOSIG
12-09-10 LEBL 102230Z 32003KT 9999 FEW025 24/20 Q1017 NOSIG
12-09-10 LEBL 102300Z 31003KT 9999 FEW025 23/20 Q1017 NOSIG
12-09-10 LEBL 102330Z 31003KT 9999 FEW025 23/20 Q1017 NOSIG
12-09-11 LEBL 110000Z 32004KT 9999 FEW025 23/20 Q1017 NOSIG
12-09-11 LEBL 110030Z 32004KT 9999 FEW025 23/20 Q1017 NOSIG
12-09-11 LEBL 110100Z 32004KT 9999 FEW025 23/20 Q1017 NOSIG
12-09-11 LEBL 110130Z 32005KT 9999 SCT025 23/20 Q1017 NOSIG
12-09-11 LEBL 110200Z 33007KT 9999 SCT025 22/19 Q1017 NOSIG
12-09-11 LEBL 110230Z 33005KT 9999 SCT025 22/19 Q1017 NOSIG
12-09-11 LEBL 110300Z 33008KT 9999 SCT025 22/19 Q1017 NOSIG
12-09-11 LEBL 110330Z 33008KT 9999 SCT025 22/19 Q1017 NOSIG
12-09-11 LEBL 110400Z 33008KT 9999 SCT025 22/19 Q1017 NOSIG
12-09-11 LEBL 110430Z 33008KT 9999 FEW025 22/19 Q1017 NOSIG
12-09-11 LEBL 110500Z 33008KT 9999 FEW025 22/19 Q1017 NOSIG
12-09-11 LEBL 110530Z 33009G19KT 290V010 9999 FEW025 21/19 Q1017 NOSIG
12-09-11 LEBL 110600Z 33007KT 9999 FEW025 21/19 Q1017 NOSIG
12-09-11 LEBL 110630Z 33009G20KT 290V020 9999 FEW025 22/18 Q1017 NOSIG
12-09-11 LEBL 110700Z 33010KT 9999 FEW025 22/18 Q1017 NOSIG
12-09-11 LEBL 110730Z 33009G19KT 9999 FEW025 23/18 Q1017 NOSIG
12-09-11 LEBL 110800Z 32009G23KT 290V350 9999 FEW025 24/18 Q1017 NOSIG
12-09-11 LEBL 110830Z 32006KT 270V350 9999 FEW025 25/19 Q1017 NOSIG
12-09-11 LEBL 110900Z 34003KT 9999 SCT030 26/19 Q1018 NOSIG
12-09-11 LEBL 110930Z 13005KT 060V190 9999 SCT030 27/20 Q1017 NOSIG
12-09-11 LEBL 111000Z 15006KT 110V210 9999 FEW025 SCT040 27/19 Q1018 NOSIG
12-09-11 LEBL 111030Z 13008KT 9999 FEW025 27/20 Q1017 NOSIG
12-09-11 LEBL NIL
12-09-11 LEBL 111100Z 14007KT 110V190 9999 FEW025 27/20 Q1017 NOSIG
12-09-11 LEBL 111130Z 13009KT 9999 FEW025 27/21 Q1017 NOSIG
12-09-11 LEBL 111200Z NIL
12-09-11 LEBL 111230Z 17008KT 120V210 9999 FEW025 28/20 Q1017 NOSIG
12-09-11 LEBL 111300Z 16008KT 130V210 9999 FEW025 27/20 Q1017 NOSIG
12-09-11 LEBL 111330Z 16008KT 120V200 9999 FEW025 28/20 Q1017 NOSIG
12-09-11 LEBL 111400Z 17007KT 130V210 9999 FEW025 28/20 Q1017 NOSIG
12-09-11 LEBL 111430Z 17007KT 130V210 9999 FEW025 28/21 Q1017 NOSIG
12-09-11 LEBL 111500Z 19008KT 150V220 9999 FEW025 28/21 Q1017 NOSIG
12-09-11 LEBL 111530Z 19008KT 160V230 9999 FEW025 28/21 Q1016 NOSIG
12-09-11 LEBL 111600Z NIL
12-09-11 LEBL 111600Z 22007KT 170V250 9999 FEW025 27/21 Q1016 NOSIG
12-09-11 LEBL 111630Z 20007KT 170V250 9999 FEW025 27/20 Q1016 NOSIG
12-09-11 LEBL 111700Z 21006KT 9999 FEW025 27/21 Q1016 NOSIG
12-09-11 LEBL 111730Z 21006KT 180V240 9999 FEW025 27/21 Q1016 NOSIG
12-09-11 LEBL 111800Z 22006KT 9999 FEW025 26/21 Q1016 NOSIG
12-09-11 LEBL 111830Z 21005KT 9999 FEW025 26/20 Q1016 NOSIG
12-09-11 LEBL 111900Z 22006KT 9999 FEW025 26/21 Q1017 NOSIG
12-09-11 LEBL 111930Z 22006KT 9999 FEW025 26/21 Q1017 NOSIG
12-09-11 LEBL 112000Z 22007KT 9999 FEW025 25/21 Q1017 NOSIG
12-09-11 LEBL 112100Z 23005KT 9999 FEW025 25/21 Q1017 NOSIG
12-09-11 LEBL 112130Z 24006KT 9999 FEW025 25/20 Q1017 NOSIG
12-09-11 LEBL 112200Z 23004KT 9999 FEW025 25/20 Q1017 NOSIG
12-09-11 LEBL 112230Z 32003KT 9999 FEW025 25/20 Q1017 NOSIG
12-09-11 LEBL 112300Z 31005KT 9999 FEW025 24/20 Q1017 NOSIG
12-09-11 LEBL 112330Z 31004KT 9999 FEW025 24/19 Q1017 NOSIG
12-09-12 LEBL 120000Z 32006KT 9999 FEW025 23/20 Q1017 NOSIG
12-09-12 LEBL 120030Z 31006KT 9999 FEW025 23/20 Q1017 NOSIG
12-09-12 LEBL 120100Z 32005KT 9999 FEW025 23/20 Q1017 NOSIG
12-09-12 LEBL 120130Z 31007KT 9999 FEW025 23/20 Q1017 NOSIG
12-09-12 LEBL 120200Z 31005KT 9999 FEW025 23/20 Q1016 NOSIG
12-09-12 LEBL 120230Z 33005KT 300V360 9999 FEW025 23/19 Q1016 NOSIG
12-09-12 LEBL 120300Z 32006KT 9999 FEW025 22/19 Q1016 NOSIG
12-09-12 LEBL 120330Z 31003KT 9999 FEW025 22/19 Q1016 NOSIG
12-09-12 LEBL 120400Z 32007KT 9999 FEW025 22/19 Q1016 NOSIG
12-09-12 LEBL 120430Z 31007KT 9999 FEW025 22/19 Q1016 NOSIG
12-09-12 LEBL 120500Z 31005KT 9999 FEW025 22/19 Q1016 NOSIG
12-09-12 LEBL 120530Z 32006KT 230V010 9999 FEW025 22/19 Q1016 NOSIG
12-09-12 LEBL 120600Z 32005KT 280V350 CAVOK 22/19 Q1016 NOSIG
12-09-12 LEBL 120630Z 31007KT 280V360 CAVOK 22/19 Q1016 NOSIG
12-09-12 LEBL 120700Z 32008KT 290V350 CAVOK 23/19 Q1016 NOSIG
12-09-12 LEBL 120730Z 32006KT 290V350 CAVOK 24/19 Q1016 NOSIG
12-09-12 LEBL 120800Z 32004KT 280V360 CAVOK 25/19 Q1016 NOSIG
12-09-12 LEBL 120830Z 29003KT 9999 FEW015 27/21 Q1016 NOSIG
12-09-12 LEBL 120900Z 22010KT 9999 FEW015 27/21 Q1016 NOSIG
12-09-12 LEBL 120930Z 22012KT 9999 FEW015 27/21 Q1016 NOSIG
12-09-12 LEBL 121000Z 21011KT 9999 FEW020 27/21 Q1016 NOSIG
12-09-12 LEBL 121030Z 21011KT 9999 FEW020 27/21 Q1015 NOSIG
12-09-12 LEBL 121100Z 21012KT 9999 FEW020 28/18 Q1015 NOSIG
12-09-12 LEBL 121130Z 20012KT 170V240 9999 FEW020 28/19 Q1014 NOSIG
12-09-12 LEBL 121200Z 20011KT 170V240 9999 FEW020 28/20 Q1014 NOSIG
12-09-12 LEBL 121230Z 21015KT 9999 FEW020 29/19 Q1013 NOSIG
12-09-12 LEBL 121300Z 22020KT 9999 FEW020 29/19 Q1013 NOSIG
12-09-12 LEBL 121330Z 22019KT 9999 FEW020 28/20 Q1012 NOSIG
12-09-12 LEBL 121400Z 23019KT 9999 FEW020 29/21 Q1012 NOSIG
12-09-12 LEBL NIL
12-09-12 LEBL 121430Z 21018KT 9999 FEW020 29/22 Q1011 NOSIG
12-09-12 LEBL 121500Z 21019KT 9999 FEW020 29/23 Q1011 NOSIG
12-09-12 LEBL 121530Z 22015KT 9999 FEW020 28/22 Q1011 NOSIG
12-09-12 LEBL 121600Z 22013KT 9999 FEW015 28/22 Q1011 NOSIG
12-09-12 LEBL 121630Z 22015KT 9999 FEW015 26/23 Q1011 NOSIG
12-09-12 LEBL 121700Z 23013KT 9999 FEW015 26/23 Q1011 BECMG 09018KT
12-09-12 LEBL 121700Z 23013KT 9999 FEW015 26/23 Q1011 NOSIG
12-09-12 LEBL 121730Z 23007KT 190V270 9999 FEW015 SCT040 26/24 Q1011 BECMG 09018KT
12-09-12 LEBL 121800Z 09014KT 060V120 9999 BKN015 23/22 Q1012 NOSIG
12-09-12 LEBL 121830Z 09017KT 9999 BKN015 23/21 Q1013 NOSIG
12-09-12 LEBL 121900Z 08014KT 9999 BKN015 23/19 Q1013 NOSIG
12-09-12 LEBL 121930Z 08014KT 9999 BKN015 23/19 Q1014 NOSIG
12-09-12 LEBL 122000Z 09013KT 9999 BKN015 23/19 Q1014 NOSIG
12-09-12 LEBL 122030Z 09013KT 9999 BKN020 23/18 Q1014 NOSIG
12-09-12 LEBL 122100Z 10013KT 060V120 9999 BKN025 23/17 Q1014 NOSIG
12-09-12 LEBL 122130Z 10012KT 070V130 9999 BKN020 22/17 Q1014 NOSIG
12-09-12 LEBL 122200Z 09012KT 9999 BKN020 22/17 Q1014 NOSIG
12-09-12 LEBL 122230Z 10009KT 060V130 9999 SCT020 SCT030 22/18 Q1014 NOSIG
12-09-12 LEBL 122300Z 10007KT 9999 SCT020 SCT030 21/18 Q1014 NOSIG
12-09-12 LEBL 122330Z 11006KT 080V150 9999 FEW020 SCT050 21/17 Q1014 NOSIG
12-09-13 LEBL 130000Z 11004KT 070V150 9999 FEW020 21/17 Q1014 NOSIG
12-09-13 LEBL 130030Z 17004KT 130V210 9999 BKN020 21/17 Q1014 NOSIG
12-09-13 LEBL 130100Z 18003KT 9999 BKN020 22/16 Q1013 NOSIG
12-09-13 LEBL 130130Z 20004KT 160V240 9999 SCT020 SCT055 21/16 Q1013 NOSIG
12-09-13 LEBL 130200Z 21003KT 160V280 9999 BKN030 22/15 Q1013 NOSIG
12-09-13 LEBL 130230Z 24007KT 210V270 9999 BKN030 21/14 Q1013 NOSIG
12-09-13 LEBL 130300Z 26007KT 9999 BKN030 20/10 Q1013 NOSIG
12-09-13 LEBL 130330Z 27008KT 9999 FEW020 20/09 Q1013 NOSIG
12-09-13 LEBL 130400Z 29005KT 9999 FEW020 20/08 Q1013 NOSIG
12-09-13 LEBL 130430Z 30003KT 9999 FEW020 19/09 Q1013 NOSIG
12-09-13 LEBL 130500Z 31005KT 280V340 9999 FEW020 19/09 Q1014 NOSIG
12-09-13 LEBL 130530Z 29005KT 200V330 9999 FEW020 20/07 Q1014 NOSIG
12-09-13 LEBL 130600Z 34003KT 250V030 9999 FEW020 20/07 Q1014 NOSIG
12-09-13 LEBL 130630Z 33004KT 240V020 9999 FEW020 20/07 Q1014 NOSIG
12-09-13 LEBL 130700Z 32007KT 270V010 9999 FEW020 21/08 Q1014 NOSIG
12-09-13 LEBL 130730Z 32007G18KT 9999 FEW020 21/08 Q1014 NOSIG
12-09-13 LEBL 130800Z 32009KT 240V360 9999 FEW020 22/08 Q1014 NOSIG
12-09-13 LEBL 130830Z 32007KT 9999 FEW025 22/08 Q1014 NOSIG
12-09-13 LEBL 130900Z 32007G19KT 210V360 9999 FEW025 23/07 Q1014 NOSIG
12-09-13 LEBL 130930Z 30004KT 220V010 9999 FEW025 24/08 Q1014 NOSIG
12-09-13 LEBL 131000Z 19008KT 150V220 9999 FEW025 24/08 Q1014 NOSIG
12-09-13 LEBL 131030Z 22011KT 9999 FEW025 24/07 Q1013 NOSIG
12-09-13 LEBL 131100Z 22012KT 9999 FEW025 25/08 Q1013 NOSIG
12-09-13 LEBL 131130Z 21010KT 170V230 9999 FEW025 26/06 Q1013 NOSIG
12-09-13 LEBL 131200Z 20013KT 9999 FEW025 25/12 Q1013 NOSIG
12-09-13 LEBL 131230Z 20015KT 9999 FEW025 25/13 Q1012 NOSIG
12-09-13 LEBL NIL
12-09-13 LEBL 131300Z 22014KT 9999 FEW025 26/10 Q1012 NOSIG
12-09-13 LEBL 131330Z 22015KT 9999 FEW025 27/12 Q1011 NOSIG
12-09-13 LEBL 131400Z 22014KT 9999 FEW025 SCT055 27/11 Q1011 NOSIG
12-09-13 LEBL 131430Z 23017KT 9999 FEW025 SCT055 27/12 Q1011 NOSIG
12-09-13 LEBL 131500Z 23015KT 9999 FEW025 SCT055 26/12 Q1010 NOSIG
12-09-13 LEBL 131530Z 22014KT 9999 FEW025 SCT055 27/15 Q1010 BECMG 09012KT
12-09-13 LEBL 131600Z 18008KT 9999 FEW025 SCT055 28/15 Q1010 BECMG 09012KT
12-09-13 LEBL 131630Z 09016KT 9999 FEW030 26/14 Q1011 NOSIG
12-09-13 LEBL 131700Z 08016KT 9999 FEW030 25/14 Q1011 NOSIG
12-09-13 LEBL 131730Z 08016KT 9999 FEW030 24/15 Q1012 NOSIG
12-09-13 LEBL 131800Z 08012KT 9999 FEW030 24/15 Q1012 NOSIG
12-09-13 LEBL 131830Z 08010KT 9999 FEW030 23/14 Q1013 NOSIG
12-09-13 LEBL 131900Z 10007KT 9999 FEW030 24/13 Q1013 NOSIG
12-09-13 LEBL 131930Z 12005KT 080V150 9999 FEW030 24/13 Q1013 NOSIG
12-09-13 LEBL 132000Z 12003KT 090V160 9999 FEW030 24/13 Q1013 NOSIG
12-09-13 LEBL 132030Z VRB01KT 9999 FEW030 23/13 Q1014 NOSIG
12-09-13 LEBL 132100Z 00000KT 9999 FEW030 22/13 Q1014 NOSIG
12-09-13 LEBL 132130Z 31004KT 9999 FEW030 21/13 Q1014 NOSIG
12-09-13 LEBL 132200Z 31005KT 9999 FEW030 20/14 Q1014 NOSIG
12-09-13 LEBL 132230Z 31006KT 9999 FEW030 20/13 Q1014 NOSIG
12-09-13 LEBL 132300Z 31006KT 9999 FEW030 20/14 Q1014 NOSIG
12-09-13 LEBL 132330Z 32006KT 9999 FEW030 20/13 Q1014 NOSIG
12-09-14 LEBL 140000Z 00000KT 9999 FEW030 19/13 Q1013 NOSIG
12-09-14 LEBL 140030Z 35003KT 320V040 9999 FEW030 19/13 Q1014 NOSIG
12-09-14 LEBL 140100Z 31003KT 280V340 9999 FEW030 19/13 Q1013 NOSIG
12-09-14 LEBL 140130Z 31008KT 9999 FEW030 18/13 Q1013 NOSIG
12-09-14 LEBL 140200Z 31006KT 9999 FEW025 19/13 Q1013 NOSIG
12-09-14 LEBL 140230Z 32005KT 9999 FEW025 18/12 Q1013 NOSIG
12-09-14 LEBL 140300Z 30006KT 9999 FEW025 18/11 Q1013 NOSIG
12-09-14 LEBL 140330Z 31009KT 9999 FEW025 18/09 Q1013 NOSIG
12-09-14 LEBL 140400Z 33006KT 310V010 9999 FEW025 18/08 Q1013 NOSIG
12-09-14 LEBL 140430Z 33009KT 9999 FEW025 18/08 Q1013 NOSIG
12-09-14 LEBL 140500Z 32009KT 9999 FEW025 18/08 Q1013 NOSIG
12-09-14 LEBL 140530Z 33008KT 280V350 9999 FEW025 17/08 Q1014 NOSIG
12-09-14 LEBL 140600Z 33010G20KT 9999 FEW025 18/07 Q1014 NOSIG
12-09-14 LEBL 140630Z 36009G19KT 300V030 9999 FEW025 18/07 Q1014 NOSIG
12-09-14 LEBL 140700Z 34011KT 290V060 9999 FEW025 19/07 Q1014 NOSIG
12-09-14 LEBL 140730Z 33011KT 280V010 9999 FEW025 20/07 Q1015 NOSIG
12-09-14 LEBL 140800Z 34010KT 290V010 9999 FEW025 21/07 Q1015 NOSIG
12-09-14 LEBL 140830Z 34008KT 280V020 9999 FEW025 22/05 Q1015 NOSIG
12-09-14 LEBL 140900Z 32005KT 9999 FEW025 23/05 Q1015 NOSIG
12-09-14 LEBL 140930Z 26003KT 9999 FEW025 24/05 Q1015 NOSIG
12-09-14 LEBL 141000Z 19007KT 130V230 9999 FEW025 24/07 Q1015 NOSIG
12-09-14 LEBL 141030Z 20007KT 170V250 9999 FEW025 24/07 Q1014 NOSIG
12-09-14 LEBL 141100Z 19008KT 160V230 CAVOK 24/09 Q1014 NOSIG
12-09-14 LEBL 141130Z 20010KT 170V230 CAVOK 24/11 Q1014 NOSIG
12-09-14 LEBL 141200Z 19011KT 9999 FEW030 25/11 Q1014 NOSIG
12-09-14 LEBL 141230Z 20012KT 170V230 9999 FEW030 25/12 Q1014 NOSIG
12-09-14 LEBL 141300Z 20012KT 9999 FEW030 25/11 Q1013 NOSIG
12-09-14 LEBL 141330Z 20011KT CAVOK 25/11 Q1013 NOSIG
12-09-14 LEBL 141400Z 21014KT 170V230 CAVOK 26/12 Q1013 NOSIG
12-09-14 LEBL 141430Z 20014KT CAVOK 26/09 Q1012 NOSIG
12-09-14 LEBL 141500Z 21015KT CAVOK 26/10 Q1012 NOSIG
12-09-14 LEBL 141530Z 21017KT CAVOK 26/13 Q1012 NOSIG
12-09-14 LEBL 141600Z 22017KT CAVOK 26/13 Q1012 NOSIG
12-09-14 LEBL 141630Z 22017KT CAVOK 26/13 Q1012 NOSIG
12-09-14 LEBL 141700Z 22018KT CAVOK 26/14 Q1012 NOSIG
12-09-14 LEBL 141730Z 22016KT CAVOK 25/16 Q1012 NOSIG
12-09-14 LEBL 141800Z 23014KT CAVOK 24/16 Q1012 NOSIG
12-09-14 LEBL 141830Z 23015KT CAVOK 24/16 Q1013 NOSIG
12-09-14 LEBL 141900Z 23014KT CAVOK 24/17 Q1013 NOSIG
12-09-14 LEBL 141930Z 23014KT CAVOK 24/17 Q1013 NOSIG
12-09-14 LEBL 142000Z 24011KT CAVOK 23/16 Q1014 NOSIG
12-09-14 LEBL 142030Z 25008KT CAVOK 23/17 Q1014 NOSIG
12-09-14 LEBL 142100Z 26005KT 230V300 CAVOK 23/17 Q1014 NOSIG
12-09-14 LEBL 142130Z 00000KT CAVOK 22/16 Q1014 NOSIG
12-09-14 LEBL 142200Z 30002KT CAVOK 22/14 Q1014 NOSIG
12-09-14 LEBL 142230Z 32003KT 270V340 CAVOK 21/13 Q1014 NOSIG
12-09-14 LEBL 142300Z 31003KT CAVOK 21/14 Q1014 NOSIG
12-09-14 LEBL 142330Z 31006KT CAVOK 20/14 Q1014 NOSIG
12-09-15 LEBL 150000Z 33006KT CAVOK 20/13 Q1014 NOSIG
12-09-15 LEBL 150030Z 31006KT CAVOK 20/13 Q1014 NOSIG
12-09-15 LEBL 150100Z 33006KT CAVOK 20/13 Q1014 NOSIG
12-09-15 LEBL 150130Z 32008KT CAVOK 20/13 Q1014 NOSIG
12-09-15 LEBL 150200Z 32006KT CAVOK 19/12 Q1013 NOSIG
12-09-15 LEBL 150230Z 31008KT CAVOK 19/12 Q1014 NOSIG
12-09-15 LEBL 150300Z 33008KT CAVOK 19/10 Q1013 NOSIG
12-09-15 LEBL 150330Z 32008KT CAVOK 19/10 Q1013 NOSIG
12-09-15 LEBL 150400Z 33012KT CAVOK 19/09 Q1013 NOSIG
12-09-15 LEBL 150430Z 33008KT CAVOK 19/09 Q1013 NOSIG
12-09-15 LEBL 150500Z 34010KT CAVOK 19/08 Q1013 NOSIG
12-09-15 LEBL 150530Z 32013G25KT 260V340 CAVOK 20/08 Q1013 NOSIG
12-09-15 LEBL 150600Z 33012KT CAVOK 20/08 Q1014 NOSIG
12-09-15 LEBL 150630Z 33010G21KT 300V360 CAVOK 19/08 Q1014 NOSIG
12-09-15 LEBL 150700Z 34013KT 300V020 9999 FEW025 20/08 Q1014 NOSIG
12-09-15 LEBL 150730Z 34011G21KT 300V010 9999 FEW025 21/08 Q1014 NOSIG
12-09-15 LEBL 150800Z 34009KT 300V010 9999 FEW025 22/08 Q1014 NOSIG
12-09-15 LEBL 150830Z 34009G19KT 290V060 9999 FEW025 24/08 Q1014 NOSIG
12-09-15 LEBL 150900Z 02005KT 9999 FEW025 25/07 Q1015 NOSIG
12-09-15 LEBL 150930Z 09005KT 060V120 9999 FEW025 25/07 Q1015 NOSIG
12-09-15 LEBL 151000Z 08007KT 060V120 9999 FEW025 26/08 Q1015 NOSIG
12-09-15 LEBL 151030Z 08008KT 9999 FEW025 26/11 Q1015 NOSIG
12-09-15 LEBL 151100Z 09007KT 030V130 9999 FEW025 26/16 Q1015 NOSIG
12-09-15 LEBL 151130Z 11010KT 9999 FEW025 26/18 Q1014 NOSIG
12-09-15 LEBL 151200Z 11012KT 080V140 9999 FEW025 26/19 Q1014 NOSIG
12-09-15 LEBL 151230Z 11013KT 9999 FEW025 25/19 Q1014 NOSIG
12-09-15 LEBL 151300Z 11011KT 070V130 9999 FEW025 26/19 Q1014 NOSIG
12-09-15 LEBL 151330Z 11010KT 080V140 9999 FEW025 26/18 Q1014 NOSIG
12-09-15 LEBL 151400Z 12007KT 080V170 9999 FEW025 26/17 Q1014 NOSIG
12-09-15 LEBL 151430Z 13006KT 100V170 9999 FEW025 26/14 Q1014 NOSIG
12-09-15 LEBL 151500Z 14006KT 110V190 9999 FEW025 26/16 Q1013 NOSIG
12-09-15 LEBL 151530Z 16006KT 110V210 9999 FEW025 26/14 Q1014 NOSIG
12-09-15 LEBL 151600Z 18004KT 130V210 9999 FEW025 26/12 Q1014 NOSIG
12-09-15 LEBL 151630Z 14003KT 090V190 9999 FEW025 26/14 Q1014 NOSIG
12-09-15 LEBL 151700Z 11003KT 060V150 9999 FEW025 26/14 Q1014 NOSIG
12-09-15 LEBL 151730Z 06005KT 360V110 9999 FEW025 26/14 Q1014 NOSIG
12-09-15 LEBL 151800Z 04007KT 360V070 9999 FEW025 25/18 Q1014 NOSIG
12-09-15 LEBL 151830Z 05007KT 9999 FEW025 24/19 Q1014 NOSIG
12-09-15 LEBL 151900Z 04007KT 9999 FEW025 24/19 Q1014 NOSIG
12-09-15 LEBL 151930Z 04006KT 9999 FEW025 24/19 Q1014 NOSIG
12-09-15 LEBL NIL
12-09-15 LEBL 152000Z 04007KT 9999 FEW025 23/20 Q1015 NOSIG
12-09-15 LEBL 152030Z 04007KT 9999 FEW025 23/20 Q1015 NOSIG
12-09-15 LEBL 152100Z 03006KT 9999 FEW012 23/20 Q1015 NOSIG
12-09-15 LEBL 152130Z 02005KT 9999 FEW012 23/19 Q1015 NOSIG
12-09-15 LEBL 152200Z 36005KT 9999 FEW012 22/16 Q1015 NOSIG
12-09-15 LEBL 152230Z 36006KT 9999 FEW012 22/16 Q1015 NOSIG
12-09-15 LEBL 152300Z 34005KT 9999 FEW012 22/17 Q1015 NOSIG
12-09-15 LEBL 152330Z 35006KT 9999 FEW012 21/17 Q1015 NOSIG
12-09-16 LEBL 160000Z 34006KT 9999 FEW020 21/18 Q1015 NOSIG
12-09-16 LEBL 160030Z 34007KT 9999 FEW020 21/18 Q1015 NOSIG
12-09-16 LEBL 160100Z 34006KT 9999 SCT015 21/18 Q1015 NOSIG
12-09-16 LEBL 160130Z 33006KT 9999 SCT015 21/18 Q1015 NOSIG
12-09-16 LEBL 160200Z 34007KT 9999 SCT013 21/18 Q1015 NOSIG
12-09-16 LEBL 160230Z 34006KT 9999 SCT013 21/18 Q1015 NOSIG
12-09-16 LEBL 160300Z 34007KT 9999 SCT013 21/18 Q1014 NOSIG
12-09-16 LEBL 160330Z 33007KT 9999 SCT013 21/18 Q1015 NOSIG
12-09-16 LEBL 160400Z 33007KT 9999 SCT013 21/17 Q1014 NOSIG
12-09-16 LEBL 160430Z 34006KT 9999 SCT013 21/17 Q1015 NOSIG
12-09-16 LEBL 160500Z 33006KT 9999 SCT013 21/17 Q1015 NOSIG
12-09-16 LEBL 160530Z 33007KT 9999 SCT013 21/17 Q1015 NOSIG
12-09-16 LEBL 160600Z 33006G16KT 9999 SCT013 21/17 Q1015 NOSIG
12-09-16 LEBL 160630Z 34006KT 300V010 9999 SCT015 21/17 Q1015 NOSIG
12-09-16 LEBL 160700Z 34007KT 9999 FEW014 SCT035 21/17 Q1015 NOSIG
12-09-16 LEBL 160730Z 34006KT 310V010 9999 FEW014 SCT035 22/17 Q1015 NOSIG
12-09-16 LEBL 160800Z 34006G16KT 270V010 9999 FEW013 SCT026 23/17 Q1015 NOSIG
12-09-16 LEBL 160830Z 36005KT 290V100 9999 FEW012 SCT026 23/18 Q1016 NOSIG
12-09-16 LEBL 160900Z 05009KT 360V080 9999 FEW012 SCT026 24/19 Q1016 NOSIG
12-09-16 LEBL 160930Z 05009KT 010V080 9999 FEW012 SCT026 24/19 Q1016 NOSIG
12-09-16 LEBL 161000Z 06009KT 030V090 9999 FEW016 SCT026 24/19 Q1016 NOSIG
12-09-16 LEBL 161030Z 06009KT 9999 FEW016 SCT026 24/19 Q1016 NOSIG
12-09-16 LEBL 161100Z 07009KT 030V100 9999 SCT017 25/19 Q1015 NOSIG
12-09-16 LEBL 161130Z 07009KT 040V110 9999 SCT030 25/19 Q1015 NOSIG
12-09-16 LEBL 161200Z 08009KT 9999 SCT030 26/19 Q1015 NOSIG
12-09-16 LEBL 161230Z 08009KT 030V110 9999 SCT030 26/20 Q1015 NOSIG
12-09-16 LEBL 161300Z 09009KT 9999 FEW025 26/20 Q1014 NOSIG
12-09-16 LEBL 161330Z NIL
12-09-16 LEBL 161330Z 09009KT 9999 FEW025 27/20 Q1014 NOSIG
12-09-16 LEBL 161400Z 08007KT 030V120 9999 FEW025 27/20 Q1014 NOSIG
12-09-16 LEBL 161430Z 13004KT 9999 FEW025 27/20 Q1014 NOSIG
12-09-16 LEBL 161500Z 15005KT 9999 SCT025 26/20 Q1014 NOSIG
12-09-16 LEBL 161530Z 14005KT 110V230 9999 SCT025 26/20 Q1013 NOSIG
12-09-16 LEBL NIL
12-09-16 LEBL 161600Z 17005KT 130V220 9999 SCT025 26/21 Q1013 NOSIG
12-09-16 LEBL 161630Z 17006KT 130V220 9999 SCT022 26/20 Q1013 NOSIG
12-09-16 LEBL 161700Z 18007KT 150V210 9999 SCT022 26/20 Q1013 NOSIG
12-09-16 LEBL 161730Z 19006KT 9999 SCT022 25/20 Q1013 NOSIG
12-09-16 LEBL 161800Z 18005KT 150V210 9999 SCT022 25/20 Q1013 NOSIG
12-09-16 LEBL 161830Z 19004KT 9999 SCT022 25/20 Q1014 NOSIG
12-09-16 LEBL 161900Z 20004KT 9999 SCT022 25/20 Q1014 NOSIG
12-09-16 LEBL 161930Z 19003KT 160V220 9999 SCT027 25/20 Q1014 NOSIG
12-09-16 LEBL 162000Z 19004KT 160V220 9999 SCT027 25/20 Q1014 NOSIG
12-09-16 LEBL 162030Z VRB02KT 9999 SCT027 25/20 Q1014 NOSIG
12-09-16 LEBL 162100Z VRB02KT 9999 SCT027 24/20 Q1014 NOSIG
12-09-16 LEBL 162130Z 00000KT 9999 SCT025 24/20 Q1015 NOSIG
12-09-16 LEBL 162200Z 00000KT 9999 SCT025 24/20 Q1015 NOSIG
12-09-16 LEBL 162230Z 33003KT 9999 SCT025 23/20 Q1014 NOSIG
12-09-16 LEBL 162300Z 31002KT 9999 SCT025 23/20 Q1014 NOSIG
12-09-16 LEBL 162330Z 31003KT 9999 SCT025 23/20 Q1014 NOSIG
12-09-17 LEBL 170000Z 32005KT 9999 SCT025 22/19 Q1014 NOSIG
12-09-17 LEBL 170030Z 33005KT 9999 SCT025 22/19 Q1014 NOSIG
12-09-17 LEBL 170100Z 32004KT 9999 SCT025 22/19 Q1014 NOSIG
12-09-17 LEBL 170130Z 32005KT 9999 SCT025 22/19 Q1014 NOSIG
12-09-17 LEBL 170200Z 34007KT 9999 SCT022 21/19 Q1014 NOSIG
12-09-17 LEBL 170230Z 34006KT 9999 BKN026 21/19 Q1014 NOSIG
12-09-17 LEBL 170300Z 32006KT 9999 BKN026 22/19 Q1014 NOSIG
12-09-17 LEBL 170330Z 34006KT 9999 BKN026 22/19 Q1014 NOSIG
12-09-17 LEBL 170400Z 33005KT 9999 BKN028 22/19 Q1014 NOSIG
12-09-17 LEBL 170430Z 33005KT 9999 BKN028 22/19 Q1014 NOSIG
12-09-17 LEBL 170500Z 33003KT 9999 BKN028 22/19 Q1014 NOSIG
12-09-17 LEBL 170530Z 33005KT 9999 BKN030 22/19 Q1014 NOSIG
12-09-17 LEBL 170600Z 35003KT 290V070 9999 SCT035 22/19 Q1014 NOSIG
12-09-17 LEBL 170630Z 34005KT 290V020 9999 FEW014 SCT028 22/19 Q1014 NOSIG
12-09-17 LEBL 170700Z 32005KT 300V360 9999 SCT014 SCT030 23/19 Q1014 NOSIG
12-09-17 LEBL 170730Z VRB04KT 9999 SCT014 SCT030 23/19 Q1015 NOSIG
12-09-17 LEBL 170800Z 34004KT 230V030 9999 SCT014 SCT030 23/19 Q1015 NOSIG
12-09-17 LEBL 170830Z 01003KT 9999 SCT017 SCT030 24/20 Q1015 NOSIG
12-09-17 LEBL 170900Z 10005KT 360V160 9999 SCT017 SCT035 25/20 Q1015 NOSIG
12-09-17 LEBL 170930Z 09007KT 060V120 9999 SCT017 SCT035 26/20 Q1015 NOSIG
12-09-17 LEBL 171000Z 10007KT 070V140 9999 SCT017 SCT035 26/20 Q1015 NOSIG
12-09-17 LEBL 171030Z 12007KT 090V160 9999 SCT020 SCT035 26/20 Q1015 NOSIG
12-09-17 LEBL 171100Z 12008KT 090V160 9999 FEW020 SCT035 26/20 Q1015 NOSIG
12-09-17 LEBL 171130Z 12008KT 9999 FEW020 SCT035 26/20 Q1015 NOSIG
12-09-17 LEBL 171200Z 11007KT 090V150 9999 FEW020 SCT040 26/20 Q1015 NOSIG
12-09-17 LEBL 171230Z 11007KT 100V160 9999 FEW020 SCT040 26/20 Q1015 NOSIG
12-09-17 LEBL 171300Z 12006KT 9999 FEW020 SCT040 26/19 Q1015 NOSIG
12-09-17 LEBL 171330Z 12006KT 090V150 9999 SCT030 26/19 Q1015 NOSIG
12-09-17 LEBL 171400Z 11006KT 090V150 9999 SCT030 26/19 Q1015 NOSIG
12-09-17 LEBL 171430Z 12006KT 080V170 9999 FEW030 26/19 Q1014 NOSIG
12-09-17 LEBL 171500Z 14005KT 100V230 9999 FEW030 26/19 Q1014 NOSIG
12-09-17 LEBL 171530Z 14005KT 110V190 9999 FEW030 25/19 Q1014 NOSIG
12-09-17 LEBL 171600Z 15004KT 120V190 9999 FEW030 25/19 Q1014 NOSIG
12-09-17 LEBL 171630Z 16004KT 120V190 9999 FEW030 26/19 Q1014 NOSIG
12-09-17 LEBL 171700Z 17003KT 130V220 9999 FEW030 25/19 Q1014 NOSIG
12-09-17 LEBL 171730Z VRB02KT 9999 FEW030 25/20 Q1014 NOSIG
12-09-17 LEBL 171800Z VRB01KT 9999 FEW030 25/19 Q1014 NOSIG
12-09-17 LEBL 171830Z 15002KT 9999 FEW025 25/20 Q1014 NOSIG
12-09-17 LEBL 171900Z VRB01KT 9999 FEW025 25/20 Q1014 NOSIG
12-09-17 LEBL 171930Z 22003KT 9999 FEW025 25/20 Q1015 NOSIG
12-09-17 LEBL 172000Z VRB01KT 9999 FEW025 25/20 Q1015 NOSIG
12-09-17 LEBL 172030Z 22003KT 9999 FEW025 24/20 Q1015 NOSIG
12-09-17 LEBL 172100Z 00000KT 9999 FEW025 24/20 Q1015 NOSIG
12-09-17 LEBL 172130Z NIL
12-09-17 LEBL 172130Z 00000KT 9999 FEW025 24/20 Q1015 NOSIG
12-09-17 LEBL 172200Z 00000KT 9999 FEW025 23/20 Q1015 NOSIG
12-09-17 LEBL 172230Z 00000KT 9999 FEW025 23/19 Q1015 NOSIG
12-09-17 LEBL 172300Z 31002KT 9999 FEW025 23/19 Q1015 NOSIG
12-09-17 LEBL 172330Z 00000KT 9999 FEW025 23/19 Q1014 NOSIG
12-09-18 LEBL 180000Z 33004KT 9999 FEW025 23/19 Q1014 NOSIG
12-09-18 LEBL 180030Z 33002KT 9999 FEW025 22/19 Q1014 NOSIG
12-09-18 LEBL 180100Z 32003KT 9999 FEW025 22/19 Q1014 NOSIG
12-09-18 LEBL 180130Z 34005KT 9999 FEW025 22/19 Q1014 NOSIG
12-09-18 LEBL 180200Z 32004KT 9999 FEW025 22/19 Q1014 NOSIG
12-09-18 LEBL 180230Z 32005KT 9999 FEW025 22/19 Q1014 NOSIG
12-09-18 LEBL 180300Z 34006KT 9999 SCT030 22/19 Q1014 NOSIG
12-09-18 LEBL 180330Z NIL
12-09-18 LEBL 180400Z 32006KT 9999 SCT020 22/19 Q1013 NOSIG
12-09-18 LEBL 180430Z 33005KT 9999 SCT020 22/19 Q1013 NOSIG
12-09-18 LEBL 180500Z 33005KT 9999 SCT030 22/19 Q1013 NOSIG
12-09-18 LEBL 180530Z 33003KT 9999 SCT030 22/19 Q1013 NOSIG
12-09-18 LEBL 180600Z 33004KT 290V010 9999 SCT030 22/19 Q1013 NOSIG
12-09-18 LEBL 180630Z NIL
12-09-18 LEBL 180700Z 33003KT 9999 SCT019 SCT030 23/20 Q1014 NOSIG
12-09-18 LEBL 180730Z 33004KT 270V030 9999 SCT015 SCT028 23/20 Q1014 NOSIG
12-09-18 LEBL 180800Z 01003KT 300V050 9999 SCT013 SCT030 24/20 Q1014 NOSIG
12-09-18 LEBL 180830Z 34004KT 270V030 9999 SCT012 SCT030 24/19 Q1014 NOSIG
12-09-18 LEBL 180900Z 03004KT 330V070 9999 SCT012 SCT030 25/20 Q1014 NOSIG
12-09-18 LEBL 180930Z 05007KT 340V090 9999 SCT012 SCT030 25/21 Q1014 NOSIG
12-09-18 LEBL 181000Z 05006KT 300V100 9999 SCT012 SCT030 25/21 Q1014 NOSIG
12-09-18 LEBL 181030Z 09006KT 9999 SCT012 SCT040 25/21 Q1014 NOSIG
12-09-18 LEBL 181100Z 10008KT 9999 SCT012 BKN040 26/21 Q1014 NOSIG
12-09-18 LEBL 181130Z 10007KT 030V140 9999 SCT012 BKN030 25/21 Q1014 NOSIG
12-09-18 LEBL 181200Z 10008KT 9999 SCT011 BKN035 25/21 Q1014 NOSIG
12-09-18 LEBL 181230Z 11008KT 080V140 9999 SCT015 BKN040 26/21 Q1014 NOSIG
12-09-18 LEBL 181300Z 10007KT 080V140 9999 SCT012 BKN040 25/21 Q1013 NOSIG
12-09-18 LEBL 181330Z 10008KT 9999 SCT012 BKN025 25/21 Q1013 NOSIG
12-09-18 LEBL 181400Z 11006KT 080V140 9999 SCT012 BKN040 25/21 Q1013 NOSIG
12-09-18 LEBL 181430Z 11006KT 9999 SCT012 SCT040 25/21 Q1013 NOSIG
12-09-18 LEBL 181500Z 11006KT 9999 SCT015 SCT045 25/21 Q1013 NOSIG
12-09-18 LEBL 181530Z 10005KT 9999 SCT015 SCT040 25/21 Q1013 NOSIG
12-09-18 LEBL 181600Z 11006KT 9999 SCT012 SCT040 25/21 Q1013 NOSIG
12-09-18 LEBL 181630Z 09005KT 9999 SCT012 SCT035 25/21 Q1013 NOSIG
12-09-18 LEBL 181700Z 10005KT 9999 SCT010 SCT025 BKN037 25/22 Q1013 NOSIG
12-09-18 LEBL 181730Z 10004KT 9999 SCT010 SCT025 BKN037 24/21 Q1013 NOSIG
12-09-18 LEBL 181800Z 10006KT 9999 SCT012 SCT025 BKN037 24/21 Q1013 NOSIG
12-09-18 LEBL 181830Z 09006KT 060V130 9999 SCT012 SCT020 24/21 Q1013 NOSIG
12-09-18 LEBL 181900Z 09007KT 050V120 9999 SCT012 SCT020 24/21 Q1013 NOSIG
12-09-18 LEBL 181930Z 08007KT 9999 SCT020 SCT040 24/21 Q1014 NOSIG
12-09-18 LEBL 182000Z 08007KT 9999 SCT012 SCT025 24/21 Q1014 NOSIG
12-09-18 LEBL NIL
12-09-18 LEBL 182030Z 09008KT 9999 SCT011 SCT025 24/21 Q1014 NOSIG
12-09-18 LEBL 182100Z 08007KT 9999 SCT011 SCT020 24/21 Q1014 NOSIG
12-09-18 LEBL 182130Z 08008KT 9999 SCT012 BKN020 24/21 Q1014 NOSIG
12-09-18 LEBL 182200Z 09008KT 060V120 9999 SCT012 BKN020 24/20 Q1014 NOSIG
12-09-18 LEBL 182230Z 09005KT 9999 SCT015 SCT028 24/20 Q1014 NOSIG
12-09-18 LEBL 182300Z 07005KT 9999 SCT015 SCT028 24/20 Q1014 NOSIG
12-09-18 LEBL 182330Z 08006KT 9999 SCT015 BKN025 24/20 Q1014 NOSIG
12-09-19 LEBL 190000Z 06006KT 9999 BKN023 24/19 Q1014 NOSIG
12-09-19 LEBL 190030Z 07006KT 040V100 9999 BKN020 24/19 Q1014 NOSIG
12-09-19 LEBL 190100Z 09006KT 9999 BKN025 24/19 Q1014 NOSIG
12-09-19 LEBL 190130Z 08008KT 9999 BKN025 23/18 Q1014 NOSIG
12-09-19 LEBL 190200Z 09009KT 9999 BKN025 23/18 Q1014 NOSIG
12-09-19 LEBL 190230Z 10006KT 9999 BKN030 23/18 Q1014 NOSIG
12-09-19 LEBL 190300Z 09005KT 070V130 9999 SCT018 BKN030 23/19 Q1014 NOSIG
12-09-19 LEBL 190330Z 09003KT 9999 SCT018 BKN030 23/19 Q1014 NOSIG
12-09-19 LEBL 190400Z VRB02KT 9999 SCT018 BKN030 23/18 Q1014 NOSIG
12-09-19 LEBL 190430Z 00000KT 9999 SCT018 BKN030 23/19 Q1014 NOSIG
12-09-19 LEBL 190500Z 00000KT 9999 SCT018 BKN030 23/19 Q1014 NOSIG
12-09-19 LEBL 190530Z 00000KT 9999 SCT018 BKN030 23/19 Q1014 NOSIG
12-09-19 LEBL 190600Z 09003KT 050V120 9999 BKN020 22/19 Q1015 NOSIG
12-09-19 LEBL 190630Z 08004KT 050V110 9999 SCT018 BKN028 23/19 Q1015 NOSIG
12-09-19 LEBL 190700Z 05001KT 9999 DZ SCT018 BKN028 23/20 Q1015 NOSIG
12-09-19 LEBL 190730Z 12005KT 080V150 9999 DZ SCT018 BKN028 23/19 Q1015 NOSIG
12-09-19 LEBL 190800Z 08006KT 040V100 9999 SCT018 BKN028 22/19 Q1015 REDZ NOSIG
12-09-19 LEBL 190813Z 03006KT 250V060 9999 TSRA SCT016CB BKN028 21/19 Q1016 NOSIG
12-09-19 LEBL 190830Z 06003KT 9999 TSRA SCT020CB BKN048 21/19 Q1016 NOSIG
12-09-19 LEBL 190902Z 10007KT 070V140 9999 DZ SCT020CB BKN034 22/19 Q1017 TEMPO SHRA
12-09-19 LEBL 190904Z 11007KT 080V140 9999 SHRA SCT020CB BKN034 22/19 Q1017 NOSIG
12-09-19 LEBL 190900Z 09007KT 9999 DZ SCT020CB BKN034 22/20 Q1016 TEMPO SHRA
12-09-19 LEBL 190930Z 10006KT 9999 SHRA SCT020CB BKN034 21/19 Q1017 NOSIG
12-09-19 LEBL 191000Z 09006KT 030V110 8000 DZ SCT013CB BKN034 21/20 Q1017 TEMPO
12-09-19 LEBL 191030Z 07008KT 030V100 9999 SCT013CB BKN034 21/19 Q1017 REDZ NOSIG
12-09-19 LEBL 191100Z 06006KT 040V110 9999 SCT017CB BKN040 22/19 Q1017 NOSIG
12-09-19 LEBL 191130Z 05006KT 310V120 9999 SCT014CB BKN040 22/19 Q1017 NOSIG
12-09-19 LEBL 191200Z 09005KT 9999 SCT014 BKN040 22/19 Q1017 NOSIG
12-09-19 LEBL 191230Z 09004KT 060V120 9999 SCT014 BKN040 22/19 Q1017 NOSIG
12-09-19 LEBL 191300Z 09004KT 9999 SCT014 BKN040 22/19 Q1017 NOSIG
12-09-19 LEBL 191330Z 11003KT 060V160 9999 SCT020 BKN040 22/19 Q1017 NOSIG
12-09-19 LEBL 191400Z VRB02KT 9999 SCT020 BKN040 22/19 Q1017 NOSIG
12-09-19 LEBL 191430Z 19004KT 140V220 9999 SCT015 BKN040 23/19 Q1016 NOSIG
12-09-19 LEBL 191500Z 17004KT 120V210 9999 FEW015 SCT040 23/19 Q1016 NOSIG
12-09-19 LEBL 191530Z 20007KT 9999 FEW015 SCT040 23/19 Q1016 NOSIG
12-09-19 LEBL 191600Z 20008KT 9999 SCT020 24/18 Q1016 NOSIG
12-09-19 LEBL 191630Z 21008KT 9999 FEW025 23/18 Q1017 NOSIG
12-09-19 LEBL 191700Z 21008KT 9999 FEW020 23/18 Q1017 NOSIG
12-09-19 LEBL 191730Z 21007KT 9999 SCT025 23/18 Q1017 NOSIG
12-09-19 LEBL 191800Z 21005KT 9999 SCT025 23/18 Q1017 NOSIG
12-09-19 LEBL 191830Z 19005KT 9999 SCT025 23/18 Q1017 NOSIG
12-09-19 LEBL 191900Z 19005KT 9999 SCT025 23/18 Q1018 NOSIG
12-09-19 LEBL 191930Z 20005KT 9999 SCT025 23/18 Q1018 NOSIG
12-09-19 LEBL 192000Z 18005KT 150V210 9999 SCT025 23/18 Q1019 NOSIG
12-09-19 LEBL 192030Z 18005KT 9999 SCT025 23/17 Q1019 NOSIG
12-09-19 LEBL 192100Z 17004KT 130V210 9999 SCT025 23/18 Q1019 NOSIG
12-09-19 LEBL 192130Z 19006KT 9999 SCT025 23/18 Q1019 NOSIG
12-09-19 LEBL 192200Z 19006KT 9999 FEW020 SCT040 23/18 Q1019 NOSIG
12-09-19 LEBL 192230Z 18005KT 9999 FEW020 SCT040 23/17 Q1019 NOSIG
12-09-19 LEBL 192300Z 18004KT 120V210 9999 FEW020 SCT040 23/17 Q1019 NOSIG
12-09-19 LEBL 192330Z 30004KT 260V010 9999 FEW020 SCT040 22/18 Q1019 NOSIG
12-09-20 LEBL 200000Z 31003KT 9999 FEW020 SCT040 22/18 Q1019 NOSIG
12-09-20 LEBL 200030Z 32004KT 9999 FEW020 SCT050 21/18 Q1019 NOSIG
12-09-20 LEBL 200100Z NIL
12-09-20 LEBL 200100Z 31004KT 9999 FEW020 SCT050 21/18 Q1018 NOSIG
12-09-20 LEBL 200130Z 32004KT 9999 BKN030 21/18 Q1018 NOSIG
12-09-20 LEBL 200200Z 32003KT 9999 BKN030 21/18 Q1018 NOSIG
12-09-20 LEBL 200230Z 32003KT 9999 BKN030 21/18 Q1018 NOSIG
12-09-20 LEBL 200300Z 33003KT 9999 BKN030 21/18 Q1018 NOSIG
12-09-20 LEBL 200330Z NIL
12-09-20 LEBL 200330Z 34003KT 9999 BKN030 20/18 Q1018 NOSIG
12-09-20 LEBL 200400Z 32005KT 290V350 9999 BKN030 20/18 Q1018 NOSIG
12-09-20 LEBL 200430Z 33003KT 9999 BKN030 20/18 Q1018 NOSIG
12-09-20 LEBL 200500Z 32004KT 9999 BKN030 21/18 Q1018 NOSIG
12-09-20 LEBL 200530Z 32004KT 290V360 9999 BKN030 21/18 Q1018 NOSIG
12-09-20 LEBL 200600Z 31004KT 9999 BKN030 21/18 Q1018 NOSIG
12-09-20 LEBL 200630Z 32003KT 240V020 9999 BKN030 21/18 Q1019 NOSIG
12-09-20 LEBL 200700Z 02003KT 9999 BKN030 21/18 Q1019 NOSIG
12-09-20 LEBL 200730Z 02002KT 9999 BKN030 22/19 Q1019 NOSIG
12-09-20 LEBL 200800Z 13005KT 110V180 9999 BKN030 22/15 Q1019 NOSIG
12-09-20 LEBL 200830Z 13005KT 100V170 9999 BKN030 23/15 Q1019 NOSIG
12-09-20 LEBL 200900Z 14006KT 9999 BKN030 23/15 Q1020 NOSIG
12-09-20 LEBL 200930Z 14005KT 110V170 9999 BKN030 23/16 Q1020 NOSIG
12-09-20 LEBL 201000Z 15006KT 9999 BKN030 23/15 Q1020 NOSIG
12-09-20 LEBL 201030Z 15005KT 120V200 9999 BKN030 23/16 Q1020 NOSIG
12-09-20 LEBL 201100Z 16006KT 120V210 9999 BKN028 23/16 Q1020 NOSIG
12-09-20 LEBL 201130Z 15005KT 110V190 9999 BKN027 23/16 Q1020 NOSIG
12-09-20 LEBL 201200Z 16005KT 120V190 9999 BKN027 23/16 Q1020 NOSIG
12-09-20 LEBL 201230Z 14005KT 100V170 9999 BKN027 23/16 Q1020 NOSIG
12-09-20 LEBL 201300Z 15004KT 120V180 9999 BKN027 23/16 Q1019 NOSIG
12-09-20 LEBL 201330Z 18005KT 130V220 9999 BKN027 23/16 Q1019 NOSIG
12-09-20 LEBL 201400Z 20006KT 160V220 9999 BKN027 23/17 Q1019 NOSIG
12-09-20 LEBL 201430Z 20008KT 9999 BKN027 23/17 Q1019 NOSIG
12-09-20 LEBL 201500Z 18007KT 150V220 9999 BKN025 23/17 Q1019 NOSIG
12-09-20 LEBL 201530Z 20006KT 9999 BKN025 23/17 Q1019 NOSIG
12-09-20 LEBL 201600Z 21007KT 170V250 9999 BKN023 23/18 Q1019 NOSIG
12-09-20 LEBL 201630Z 22004KT 190V260 9999 BKN023 24/18 Q1018 NOSIG
12-09-20 LEBL 201700Z 20006KT 170V230 9999 BKN023 24/18 Q1018 NOSIG
12-09-20 LEBL 201730Z 25005KT 210V290 9999 BKN025 24/19 Q1018 NOSIG
12-09-20 LEBL 201800Z 22004KT 9999 FEW025 SCT030 23/19 Q1018 NOSIG
12-09-20 LEBL 201830Z 29003KT 260V010 9999 FEW025 SCT030 23/19 Q1018 NOSIG
12-09-20 LEBL 201900Z 30003KT 230V040 9999 FEW024 BKN028 23/19 Q1018 NOSIG
12-09-20 LEBL 201930Z 29003KT 260V340 9999 FEW022 BKN028 23/19 Q1019 NOSIG
12-09-20 LEBL 202000Z 31004KT 260V330 9999 FEW022 BKN029 22/19 Q1019 NOSIG
12-09-20 LEBL 202030Z 33003KT 250V020 9999 FEW022 SCT029 22/19 Q1019 NOSIG
12-09-20 LEBL 202100Z 32004KT 280V010 9999 SCT022 22/19 Q1019 NOSIG
12-09-20 LEBL 202130Z 34001KT 9999 SCT022 21/19 Q1019 NOSIG
12-09-20 LEBL 202200Z 32003KT 9999 FEW025 21/18 Q1019 NOSIG
12-09-20 LEBL 202230Z 32004KT 9999 FEW025 20/18 Q1019 NOSIG
12-09-20 LEBL 202300Z 33002KT 9999 FEW025 20/18 Q1019 NOSIG
12-09-20 LEBL 202330Z 32004KT 9999 FEW025 20/18 Q1019 NOSIG
12-09-21 LEBL 210000Z 33004KT 9999 FEW023 20/18 Q1019 NOSIG
12-09-21 LEBL 210030Z 34005KT 9999 FEW023 20/18 Q1019 NOSIG
12-09-21 LEBL 210100Z 32005KT 9999 FEW023 SCT029 20/18 Q1019 NOSIG
12-09-21 LEBL 210130Z 32006KT 9999 FEW020 SCT033 20/18 Q1019 NOSIG
12-09-21 LEBL 210200Z 34006KT 9999 FEW020 SCT036 20/18 Q1018 NOSIG
12-09-21 LEBL 210230Z 32004KT 9999 FEW020 SCT030 20/18 Q1018 NOSIG
12-09-21 LEBL 210300Z 32004KT 9999 FEW020 SCT030 20/18 Q1018 NOSIG
12-09-21 LEBL 210330Z 32005KT 9000 FEW020 19/17 Q1018 NOSIG
12-09-21 LEBL 210400Z 33004KT 9000 FEW020 19/18 Q1018 NOSIG
12-09-21 LEBL 210430Z 33006KT 9000 SCT022 19/18 Q1018 NOSIG
12-09-21 LEBL 210500Z 33004KT 8000 SCT022 20/18 Q1018 NOSIG
12-09-21 LEBL 210530Z 32005KT 290V350 9000 FEW022 19/18 Q1018 NOSIG
12-09-21 LEBL 210600Z 33006KT 270V020 9000 FEW015 SCT025 19/18 Q1018 NOSIG
12-09-21 LEBL 210630Z 32004KT 260V020 9999 FEW025 19/18 Q1018 NOSIG
12-09-21 LEBL 210700Z 33006KT 250V010 9999 FEW025 20/18 Q1018 NOSIG
12-09-21 LEBL 210730Z 31005KT 220V010 9999 FEW025 21/18 Q1018 NOSIG
12-09-21 LEBL 210800Z 33005KT 240V040 9999 FEW025 22/18 Q1018 NOSIG
12-09-21 LEBL 210830Z 32004KT 210V350 9999 FEW025 23/19 Q1019 NOSIG
12-09-21 LEBL 210900Z VRB02KT 9999 FEW025 25/19 Q1019 NOSIG
12-09-21 LEBL 210930Z 20003KT 160V240 9999 FEW025 25/19 Q1019 NOSIG
12-09-21 LEBL 211000Z 18006KT 150V210 9999 FEW025 25/18 Q1019 NOSIG
12-09-21 LEBL 211030Z 18006KT 120V210 9999 SCT022 26/18 Q1019 NOSIG
12-09-21 LEBL 211100Z 17006KT 9999 FEW022 SCT044 26/19 Q1018 NOSIG
12-09-21 LEBL 211130Z 16007KT 130V210 9999 FEW022 SCT044 26/19 Q1018 NOSIG
12-09-21 LEBL 211200Z 16008KT 130V210 9999 FEW022 SCT044 26/19 Q1018 NOSIG
12-09-21 LEBL 211230Z 17008KT 130V210 9999 SCT022 26/19 Q1018 NOSIG
12-09-21 LEBL 211300Z 17008KT 130V200 9999 SCT022 26/19 Q1018 NOSIG
12-09-21 LEBL 211330Z 17008KT 130V210 9999 SCT022 26/19 Q1017 NOSIG
12-09-21 LEBL 211400Z 16007KT 120V200 9999 SCT022 26/19 Q1017 NOSIG
12-09-21 LEBL 211430Z 17008KT 130V200 9999 SCT022 26/19 Q1017 NOSIG
12-09-21 LEBL 211500Z 16007KT 130V210 9999 SCT022 26/19 Q1017 NOSIG
12-09-21 LEBL 211530Z 17007KT 130V210 9999 SCT022 25/19 Q1017 NOSIG
12-09-21 LEBL 211600Z 17005KT 080V200 9999 SCT022 25/19 Q1016 NOSIG
12-09-21 LEBL 211630Z 15005KT 9999 SCT022 25/19 Q1016 NOSIG
12-09-21 LEBL 211700Z 15005KT 120V190 9999 SCT022 25/19 Q1016 NOSIG
12-09-21 LEBL 211730Z 12004KT 9999 SCT022 24/19 Q1016 NOSIG
12-09-21 LEBL 211800Z 13003KT 9999 SCT022 24/19 Q1016 NOSIG
12-09-21 LEBL 211830Z VRB02KT 9999 SCT022 24/19 Q1016 NOSIG
12-09-21 LEBL 211900Z VRB02KT 9999 FEW022 24/19 Q1016 NOSIG
12-09-21 LEBL 211930Z 10002KT 9999 FEW017 24/19 Q1016 NOSIG
12-09-21 LEBL 212000Z VRB02KT 9999 FEW017 24/19 Q1016 NOSIG
12-09-21 LEBL 212030Z 08002KT 9999 SCT020 24/19 Q1016 NOSIG
12-09-21 LEBL NIL
12-09-21 LEBL 212100Z 00000KT 9999 SCT020 24/19 Q1016 NOSIG
12-09-21 LEBL 212130Z 08002KT 9999 BKN020 23/19 Q1016 NOSIG
12-09-21 LEBL 212200Z VRB02KT 9999 BKN020 24/19 Q1016 NOSIG
12-09-21 LEBL 212230Z 34003KT 310V010 9999 SCT020 22/19 Q1015 NOSIG
12-09-21 LEBL 212300Z 32003KT 9999 FEW020 22/19 Q1015 NOSIG
12-09-21 LEBL 212330Z 33005KT 9999 SCT020 21/19 Q1015 NOSIG
12-09-22 LEBL 220000Z 33006KT 9999 BKN020 21/19 Q1015 NOSIG
12-09-22 LEBL 220030Z 33007KT 9999 FEW020 21/19 Q1015 NOSIG
12-09-22 LEBL 220100Z 33007KT 9999 FEW025 21/19 Q1015 NOSIG
12-09-22 LEBL 220130Z 33007KT 9999 FEW020 21/19 Q1015 NOSIG
12-09-22 LEBL 220200Z 33007KT 9999 FEW020 21/19 Q1015 NOSIG
12-09-22 LEBL 220230Z 33007KT 9999 FEW018 21/19 Q1015 NOSIG
12-09-22 LEBL 220300Z 32007KT 9999 FEW018 21/18 Q1014 NOSIG
12-09-22 LEBL 220330Z 32007KT 9999 FEW018 21/18 Q1014 NOSIG
12-09-22 LEBL 220400Z 32008KT 9999 FEW020 20/18 Q1014 NOSIG
12-09-22 LEBL 220430Z 33007KT 9999 FEW020 20/18 Q1014 NOSIG
12-09-22 LEBL 220500Z 33004KT 9999 FEW020 20/18 Q1014 NOSIG
12-09-22 LEBL 220530Z 32005KT 210V010 9999 FEW020 20/18 Q1014 NOSIG
12-09-22 LEBL 220600Z 33006KT 9999 FEW022 20/18 Q1014 NOSIG
12-09-22 LEBL 220630Z 33006KT 280V350 9999 FEW022 21/18 Q1014 NOSIG
12-09-22 LEBL 220700Z 32006KT 260V010 9999 FEW025 21/18 Q1015 NOSIG
12-09-22 LEBL 220730Z 33006KT 280V020 9999 FEW020 22/18 Q1015 NOSIG
12-09-22 LEBL 220800Z 02006KT 320V090 9999 SCT020 22/18 Q1015 NOSIG
12-09-22 LEBL 220830Z 06011KT 9999 SCT018 24/19 Q1015 NOSIG
12-09-22 LEBL 220900Z 06011KT 040V100 9999 FEW014 SCT030 24/19 Q1016 NOSIG
12-09-22 LEBL 220930Z 07011KT 9999 FEW014 SCT030 24/19 Q1016 NOSIG
12-09-22 LEBL 221000Z 07011KT 9999 FEW014 SCT030 24/19 Q1016 NOSIG
12-09-22 LEBL 221030Z 07011KT 050V110 9999 FEW014 SCT030 24/18 Q1015 NOSIG
12-09-22 LEBL 221100Z 09011KT 060V120 9999 FEW020 25/18 Q1015 NOSIG
12-09-22 LEBL 221130Z 09010KT 050V120 9999 SCT020 25/18 Q1015 NOSIG
12-09-22 LEBL 221200Z 10010KT 9999 SCT020 25/18 Q1015 NOSIG
12-09-22 LEBL 221230Z 09010KT 050V130 9999 SCT020 25/17 Q1015 NOSIG
12-09-22 LEBL 221300Z 10009KT 040V130 9999 FEW025 25/17 Q1014 NOSIG
12-09-22 LEBL 221330Z 09009KT 060V120 9999 FEW025 25/18 Q1014 NOSIG
12-09-22 LEBL 221400Z 10009KT 9999 FEW025 25/17 Q1014 NOSIG
12-09-22 LEBL 221430Z 11008KT 080V150 9999 FEW025 25/18 Q1014 NOSIG
12-09-22 LEBL 221500Z 10007KT 070V130 9999 FEW025 25/19 Q1014 NOSIG
12-09-22 LEBL 221530Z 11006KT 080V160 9999 FEW020 25/19 Q1014 NOSIG
12-09-22 LEBL 221600Z 13005KT 9999 FEW020 24/19 Q1014 NOSIG
12-09-22 LEBL 221630Z 13005KT 090V170 9999 FEW020 24/19 Q1014 NOSIG
12-09-22 LEBL 221700Z 13003KT 100V160 9999 FEW020 24/19 Q1014 NOSIG
12-09-22 LEBL 221730Z 12003KT 9999 FEW016 24/19 Q1014 NOSIG
12-09-22 LEBL 221800Z VRB02KT 9999 SCT019 24/19 Q1014 NOSIG
12-09-22 LEBL 221830Z VRB02KT 9999 BKN020 24/19 Q1014 NOSIG
12-09-22 LEBL 221900Z VRB02KT 9999 FEW017 SCT023 24/19 Q1014 NOSIG
12-09-22 LEBL 221930Z VRB02KT 9999 FEW017 SCT022 24/20 Q1015 NOSIG
12-09-22 LEBL 222000Z 11003KT 090V150 9999 FEW017 BKN022 24/20 Q1015 NOSIG
12-09-22 LEBL 222030Z 10003KT 9999 FEW017 BKN022 24/19 Q1015 NOSIG
12-09-22 LEBL 222100Z 09003KT 060V120 9999 FEW017 BKN024 24/19 Q1015 NOSIG
12-09-22 LEBL 222130Z 12003KT 100V160 9999 BKN026 24/19 Q1015 NOSIG
12-09-22 LEBL 222200Z 00000KT 9999 BKN026 24/19 Q1015 NOSIG
12-09-22 LEBL 222230Z 17001KT 9999 FEW015 SCT029 24/18 Q1015 NOSIG
12-09-22 LEBL 222300Z VRB01KT 9999 FEW015 SCT029 24/18 Q1015 NOSIG
12-09-22 LEBL 222330Z 00000KT 9999 FEW015 SCT031 23/19 Q1015 NOSIG
12-09-23 LEBL 230000Z VRB01KT 9999 FEW017 SCT032 23/19 Q1015 NOSIG
12-09-23 LEBL 230030Z 30003KT 290V360 9999 FEW017 SCT032 23/19 Q1015 NOSIG
12-09-23 LEBL 230100Z 34003KT 9999 FEW017 SCT032 23/19 Q1014 NOSIG
12-09-23 LEBL 230130Z 34004KT 9999 FEW017 SCT032 23/19 Q1014 NOSIG
12-09-23 LEBL 230200Z 32005KT 9999 FEW017 SCT033 23/19 Q1014 NOSIG
12-09-23 LEBL 230230Z 33003KT 260V360 9999 FEW017 SCT033 23/19 Q1014 NOSIG
12-09-23 LEBL 230300Z 34004KT 9999 FEW017 SCT033 23/19 Q1014 NOSIG
12-09-23 LEBL 230330Z 33005KT 9999 FEW017 SCT033 23/19 Q1013 NOSIG
12-09-23 LEBL 230400Z 33005KT 9999 FEW017 SCT033 23/19 Q1013 NOSIG
12-09-23 LEBL 230430Z 32005KT 9999 FEW017 SCT030 23/19 Q1013 NOSIG
12-09-23 LEBL 230500Z 33003KT 9999 FEW017 SCT030 23/19 Q1013 NOSIG
12-09-23 LEBL 230530Z VRB02KT 9999 FEW017 SCT035 23/19 Q1014 NOSIG
12-09-23 LEBL 230600Z 33004KT 9999 FEW017 BKN035 22/19 Q1014 NOSIG
12-09-23 LEBL 230630Z 32005KT 280V360 9999 FEW017 BKN035 23/19 Q1014 NOSIG
12-09-23 LEBL 230700Z 33005KT 280V350 9999 FEW017 BKN031 23/19 Q1014 NOSIG
12-09-23 LEBL 230730Z 33003KT 250V030 9999 FEW017 BKN031 23/19 Q1014 NOSIG
12-09-23 LEBL 230800Z 35003KT 9999 FEW017 BKN030 24/19 Q1014 NOSIG
12-09-23 LEBL 230830Z 32002KT 9999 FEW017 BKN030 24/19 Q1014 NOSIG
12-09-23 LEBL 230900Z 30003KT 250V010 9999 FEW017 BKN030 25/20 Q1014 NOSIG
12-09-23 LEBL 230930Z VRB01KT 9999 FEW017 BKN030 25/20 Q1014 NOSIG
12-09-23 LEBL 231000Z 21003KT 130V280 9999 FEW017 BKN030 25/20 Q1014 NOSIG
12-09-23 LEBL 231030Z 19004KT 150V220 9999 FEW017 BKN030 25/20 Q1013 NOSIG
12-09-23 LEBL 231100Z 22004KT 170V250 9999 FEW017 BKN030 25/21 Q1013 NOSIG
12-09-23 LEBL 231130Z 22006KT 190V250 9999 FEW017 BKN032 26/21 Q1013 NOSIG
12-09-23 LEBL 231200Z 23006KT 9999 FEW017 BKN034 25/21 Q1013 NOSIG
12-09-23 LEBL 231230Z 22008KT 9999 FEW017 BKN034 25/21 Q1012 NOSIG
12-09-23 LEBL 231300Z 23008KT 9999 FEW017 BKN034 26/21 Q1012 NOSIG
12-09-23 LEBL 231330Z 22008KT 200V260 9999 FEW017 BKN034 27/20 Q1011 NOSIG
12-09-23 LEBL 231400Z 23008KT 190V260 9999 FEW017 BKN034 26/20 Q1011 NOSIG
12-09-23 LEBL 231430Z 21010KT 9999 FEW017 BKN034 26/21 Q1011 NOSIG
12-09-23 LEBL 231500Z 22009KT 9999 FEW017 BKN034 26/21 Q1011 NOSIG
12-09-23 LEBL 231530Z 23008KT 9999 FEW017 BKN034 26/21 Q1011 NOSIG
12-09-23 LEBL 231600Z 21008KT 9999 FEW017 BKN034 26/20 Q1010 NOSIG
12-09-23 LEBL 231630Z 20008KT 140V230 9999 FEW019 BKN034 26/21 Q1010 NOSIG
12-09-23 LEBL 231700Z 21007KT 180V240 9999 FEW019 SCT034 26/21 Q1010 NOSIG
12-09-23 LEBL 231730Z 20007KT 9999 FEW019 SCT034 25/21 Q1009 NOSIG
12-09-23 LEBL 231800Z 20007KT 9999 FEW019 SCT034 25/21 Q1009 NOSIG
12-09-23 LEBL 231830Z 20009KT 9999 FEW017 SCT034 25/21 Q1009 NOSIG
12-09-23 LEBL 231900Z 19011KT 9999 FEW017 SCT034 25/22 Q1009 NOSIG
12-09-23 LEBL 231930Z 20010KT 9999 FEW017 SCT034 25/22 Q1009 NOSIG
12-09-23 LEBL 232000Z 21011KT 9999 FEW014 SCT034 25/22 Q1009 NOSIG
12-09-23 LEBL 232030Z 21008KT 9999 FEW014 SCT034 25/22 Q1008 NOSIG
12-09-23 LEBL 232100Z 21008KT 9999 FEW014 SCT030 25/22 Q1008 NOSIG
12-09-23 LEBL 232130Z 22008KT 9999 FEW014 SCT030 25/22 Q1008 NOSIG
12-09-23 LEBL 232200Z 22010KT 9999 FEW014 SCT030 25/22 Q1008 NOSIG
12-09-23 LEBL 232230Z 23013KT 9999 FEW014 SCT030 24/22 Q1007 NOSIG
12-09-23 LEBL 232300Z 23015KT 9999 FEW020 SCT035 25/22 Q1007 NOSIG
12-09-23 LEBL 232330Z 23013KT 9999 FEW015 SCT030 25/22 Q1007 NOSIG
12-09-24 LEBL 240000Z 25012KT 9999 FEW015 SCT030 25/22 Q1007 NOSIG
12-09-24 LEBL 240030Z 24011KT 9000 FEW015 SCT030 24/22 Q1007 NOSIG
12-09-24 LEBL 240100Z 23009KT 9000 SCT025 24/21 Q1007 NOSIG
12-09-24 LEBL 240130Z 24007KT 9000 SCT025 24/21 Q1007 NOSIG
12-09-24 LEBL 240200Z 24008KT 8000 SCT025 23/21 Q1006 NOSIG
12-09-24 LEBL 240230Z 27010KT 8000 SCT025 24/17 Q1006 NOSIG
12-09-24 LEBL 240300Z 25009KT 220V280 9999 FEW025 24/11 Q1006 NOSIG
12-09-24 LEBL 240330Z 26006KT 9999 FEW025 24/12 Q1007 NOSIG
12-09-24 LEBL 240400Z 27004KT 220V320 9999 FEW025 24/11 Q1007 NOSIG
12-09-24 LEBL 240430Z 29008KT 9999 FEW025 24/11 Q1007 NOSIG
12-09-24 LEBL 240500Z 28010KT 9999 FEW025 24/11 Q1007 NOSIG
12-09-24 LEBL 240530Z 26011KT 9999 FEW025 23/11 Q1008 NOSIG
12-09-24 LEBL 240600Z 26011KT 130V300 9999 FEW025 23/11 Q1008 NOSIG
12-09-24 LEBL 240630Z 27016KT 230V290 9999 FEW025 23/11 Q1008 NOSIG
12-09-24 LEBL 240700Z 27017KT 9999 FEW025 24/10 Q1009 NOSIG
12-09-24 LEBL 240730Z 28019KT 230V310 9999 FEW025 24/11 Q1009 NOSIG
12-09-24 LEBL 240800Z 28020KT 9999 FEW025 25/11 Q1010 NOSIG
12-09-24 LEBL 240830Z 27019KT 9999 FEW025 26/11 Q1010 NOSIG
12-09-24 LEBL 240900Z 29020G30KT 9999 FEW025 26/10 Q1010 NOSIG
12-09-24 LEBL 240930Z 28021KT 230V310 9999 FEW025 27/10 Q1010 NOSIG
12-09-24 LEBL 241000Z 28018G31KT 240V300 9999 FEW025 27/10 Q1010 NOSIG
12-09-24 LEBL 241030Z 29020G32KT 9999 FEW025 28/10 Q1010 NOSIG
12-09-24 LEBL 241100Z 28020G31KT 9999 FEW025 28/09 Q1010 NOSIG
12-09-24 LEBL 241130Z 27018KT 240V300 9999 FEW025 29/09 Q1011 NOSIG
12-09-24 LEBL 241200Z 28015KT 250V310 9999 FEW025 29/09 Q1010 NOSIG
12-09-24 LEBL 241230Z 26019KT 240V300 9999 FEW025 30/09 Q1010 NOSIG
12-09-24 LEBL 241300Z 22018KT 9999 FEW025 29/14 Q1010 NOSIG
12-09-24 LEBL 241330Z 23022KT 9999 FEW025 29/12 Q1010 NOSIG
12-09-24 LEBL 241400Z 22022KT 9999 FEW025 28/13 Q1010 NOSIG
12-09-24 LEBL 241430Z 24022KT 9999 FEW025 29/09 Q1010 NOSIG
12-09-24 LEBL 241500Z 23018KT 9999 FEW025 29/12 Q1010 NOSIG
12-09-24 LEBL 241530Z 23020KT 9999 FEW025 28/12 Q1010 NOSIG
12-09-24 LEBL 241600Z 23020KT 9999 FEW025 28/12 Q1010 NOSIG
12-09-24 LEBL 241630Z 23019KT 9999 FEW025 27/15 Q1010 NOSIG
12-09-24 LEBL 241700Z 23019KT 9999 FEW025 26/14 Q1010 NOSIG
12-09-24 LEBL 241730Z 22017KT 9999 FEW025 25/17 Q1010 NOSIG
12-09-24 LEBL 241800Z 23015KT 9999 FEW040 25/15 Q1010 NOSIG
12-09-24 LEBL 241830Z 23013KT 9999 FEW040 25/17 Q1010 NOSIG
12-09-24 LEBL 241900Z 23013KT 9999 FEW040 25/17 Q1010 NOSIG
12-09-24 LEBL 241930Z 24012KT 9999 FEW050 24/17 Q1010 NOSIG
12-09-24 LEBL 242000Z 25009KT 9999 FEW050 24/17 Q1010 NOSIG
12-09-24 LEBL 242030Z 25005KT 210V290 9999 FEW050 23/16 Q1010 NOSIG
12-09-24 LEBL 242100Z 27003KT 220V020 9999 FEW050 23/16 Q1010 NOSIG
12-09-24 LEBL 242130Z VRB01KT 9999 FEW050 23/15 Q1010 NOSIG
12-09-24 LEBL 242200Z VRB01KT CAVOK 23/14 Q1010 NOSIG
12-09-24 LEBL 242230Z 18001KT CAVOK 23/14 Q1009 NOSIG
12-09-24 LEBL 242300Z 25004KT CAVOK 22/14 Q1009 NOSIG
12-09-24 LEBL 242330Z 31002KT CAVOK 22/15 Q1009 NOSIG
12-09-25 LEBL 250000Z 33003KT CAVOK 21/15 Q1009 NOSIG
12-09-25 LEBL 250030Z 31006KT CAVOK 20/15 Q1008 NOSIG
12-09-25 LEBL 250100Z 32005KT CAVOK 20/15 Q1008 NOSIG
12-09-25 LEBL 250130Z 31006KT CAVOK 20/15 Q1007 NOSIG
12-09-25 LEBL 250200Z 32011KT CAVOK 20/15 Q1007 NOSIG
12-09-25 LEBL 250230Z 33009KT 9999 FEW050 20/14 Q1006 NOSIG
12-09-25 LEBL 250300Z 33007KT 9999 FEW050 20/14 Q1006 NOSIG
12-09-25 LEBL 250330Z 33008KT 9999 FEW050 20/14 Q1005 NOSIG
12-09-25 LEBL 250400Z 31005KT 9999 FEW050 20/14 Q1005 NOSIG
12-09-25 LEBL 250430Z 32010KT 9999 FEW050 20/11 Q1005 NOSIG
12-09-25 LEBL 250500Z 32012KT 9999 FEW050 20/10 Q1005 NOSIG
12-09-25 LEBL 250530Z 32008KT 280V350 9999 FEW050 20/09 Q1005 NOSIG
12-09-25 LEBL 250600Z 31005KT 260V350 9999 FEW050 20/09 Q1005 NOSIG
12-09-25 LEBL 250630Z 33008KT 280V350 9999 FEW048 21/08 Q1006 NOSIG
12-09-25 LEBL 250700Z 31005KT CAVOK 21/08 Q1006 NOSIG
12-09-25 LEBL 250730Z 32007KT 300V360 CAVOK 21/08 Q1006 NOSIG
12-09-25 LEBL 250800Z 33006KT 280V010 CAVOK 22/09 Q1006 NOSIG
12-09-25 LEBL 250830Z 29003KT 260V350 CAVOK 24/08 Q1006 NOSIG
12-09-25 LEBL 250900Z 26003KT CAVOK 25/07 Q1006 NOSIG
12-09-25 LEBL 250930Z 28007KT 250V320 CAVOK 26/09 Q1006 NOSIG
12-09-25 LEBL 251000Z 20010KT CAVOK 25/08 Q1006 NOSIG
12-09-25 LEBL 251030Z 20010KT CAVOK 26/08 Q1006 NOSIG
12-09-25 LEBL 251100Z 20012KT 160V220 CAVOK 27/07 Q1006 NOSIG
12-09-25 LEBL 251130Z 21013KT 180V240 CAVOK 28/08 Q1005 NOSIG
12-09-25 LEBL 251200Z 22017KT CAVOK 27/11 Q1005 NOSIG
12-09-25 LEBL 251230Z 21018KT 9999 FEW030 27/10 Q1005 NOSIG
12-09-25 LEBL 251300Z 21017KT 9999 FEW030 26/10 Q1004 NOSIG
12-09-25 LEBL 251330Z 21015KT 9999 FEW030 26/10 Q1004 NOSIG
12-09-25 LEBL 251400Z 22017KT 9999 FEW030 26/11 Q1004 NOSIG
12-09-25 LEBL 251430Z 21014KT 9999 FEW030 26/11 Q1004 NOSIG
12-09-25 LEBL 251500Z 21016KT CAVOK 26/11 Q1004 NOSIG
12-09-25 LEBL 251530Z 20015KT CAVOK 26/11 Q1004 NOSIG
12-09-25 LEBL 251600Z 21016KT CAVOK 25/10 Q1003 NOSIG
12-09-25 LEBL 251630Z 21016KT CAVOK 25/13 Q1003 NOSIG
12-09-25 LEBL 251700Z 21016KT CAVOK 24/13 Q1003 NOSIG
12-09-25 LEBL 251730Z 22015KT CAVOK 24/14 Q1003 NOSIG
12-09-25 LEBL 251800Z 22013KT CAVOK 24/13 Q1004 NOSIG
12-09-25 LEBL 251900Z 24014KT CAVOK 24/15 Q1004 NOSIG
12-09-25 LEBL 251930Z 26008KT CAVOK 23/14 Q1004 NOSIG
12-09-25 LEBL NIL
12-09-25 LEBL 252000Z 29004KT 240V320 9999 FEW030 23/14 Q1004 NOSIG
12-09-25 LEBL 252030Z 24006KT 210V290 9999 FEW030 24/16 Q1004 NOSIG
12-09-25 LEBL 252100Z 21012KT 9999 FEW030 24/16 Q1004 NOSIG
12-09-25 LEBL 252130Z 21012KT 9999 FEW030 24/16 Q1003 NOSIG
12-09-25 LEBL 252200Z 20014KT 9999 FEW030 24/17 Q1003 NOSIG
12-09-25 LEBL 252230Z 20012KT 9999 FEW030 24/18 Q1003 NOSIG
12-09-25 LEBL 252300Z 20010KT 9999 FEW030 24/18 Q1003 NOSIG
12-09-25 LEBL 252330Z 27004KT 230V300 7000 FEW030 22/14 Q1003 NOSIG
12-09-26 LEBL 260000Z 31012KT 9999 FEW030 23/16 Q1003 NOSIG
12-09-26 LEBL 260030Z 32010KT 9999 FEW030 22/13 Q1002 NOSIG
12-09-26 LEBL 260100Z NIL
12-09-26 LEBL 260130Z 31008KT 9999 FEW020 20/13 Q1003 NOSIG
12-09-26 LEBL 260200Z NIL
12-09-26 LEBL 260200Z 33004KT 300V360 9999 FEW020 20/13 Q1002 NOSIG
12-09-26 LEBL 260230Z 32005KT 9999 FEW020 20/13 Q1002 NOSIG
12-09-26 LEBL 260300Z NIL
12-09-26 LEBL 260300Z 35004KT 9999 FEW020 19/12 Q1002 NOSIG
12-09-26 LEBL 260330Z 33005KT 9999 FEW020 19/12 Q1002 NOSIG
12-09-26 LEBL 260400Z 32006KT 9999 FEW020 19/12 Q1002 NOSIG
12-09-26 LEBL 260430Z NIL
12-09-26 LEBL 260430Z 30005KT 9999 FEW020 18/12 Q1002 NOSIG
12-09-26 LEBL 260500Z 31004KT 270V330 9999 FEW020 18/12 Q1002 NOSIG
12-09-26 LEBL 260530Z 32005KT 9999 FEW020 18/11 Q1002 NOSIG
12-09-26 LEBL 260600Z NIL
12-09-26 LEBL 260600Z 32006KT 290V350 9999 FEW020 18/11 Q1002 NOSIG
12-09-26 LEBL 260630Z 33006KT 300V040 9999 FEW020 18/12 Q1002 NOSIG
12-09-26 LEBL 260700Z 33004KT 300V020 9999 FEW020 18/12 Q1002 NOSIG
12-09-26 LEBL 260730Z 33004KT 260V020 9999 FEW020 19/12 Q1003 NOSIG
12-09-26 LEBL 260800Z 28001KT 9999 FEW020 SCT040 21/12 Q1003 NOSIG
12-09-26 LEBL 260830Z 22012KT 9999 FEW020 SCT040 24/15 Q1003 NOSIG
12-09-26 LEBL 260900Z 21016KT 9999 FEW020 SCT040 24/15 Q1003 NOSIG
12-09-26 LEBL 260930Z 21016KT 9999 FEW020 SCT040 25/15 Q1003 NOSIG
12-09-26 LEBL 261000Z 22016KT 9999 FEW020 25/15 Q1003 NOSIG
12-09-26 LEBL 261030Z 22017KT 9999 FEW020 25/16 Q1003 NOSIG
12-09-26 LEBL 261100Z 22017KT 9999 FEW020 FEW025TCU 25/15 Q1003 NOSIG
12-09-26 LEBL 261100Z 22018KT 9999 FEW020 FEW025TCU 25/15 Q1003 NOSIG
12-09-26 LEBL 261130Z NIL
12-09-26 LEBL 261130Z 22020KT 9999 FEW020 FEW025TCU 25/14 Q1003 NOSIG
12-09-26 LEBL 261200Z 22020KT 9999 FEW020 FEW025TCU 25/14 Q1003 NOSIG
12-09-26 LEBL 261230Z NIL
12-09-26 LEBL 261230Z 22015KT 9999 FEW020 FEW025TCU 26/13 Q1003 NOSIG
12-09-26 LEBL 261300Z 22014KT 9999 FEW020 FEW025TCU 26/13 Q1003 NOSIG
12-09-26 LEBL 261330Z 31017KT 9999 FEW020 24/09 Q1004 NOSIG
12-09-26 LEBL 261400Z 31019KT 9999 FEW018 23/08 Q1004 NOSIG
12-09-26 LEBL 261430Z 31021G31KT 290V350 9999 FEW018 SCT055 21/07 Q1005 NOSIG
12-09-26 LEBL 261500Z 31025G35KT 9999 FEW018 SCT055 20/07 Q1005 NOSIG
12-09-26 LEBL 261530Z 31018KT 9999 FEW015 BKN055 19/09 Q1006 NOSIG
12-09-26 LEBL NIL
12-09-26 LEBL 261600Z 31013KT 280V340 9999 -RA FEW015 BKN055 18/11 Q1007 NOSIG
12-09-26 LEBL 261630Z 30007KT 220V330 9999 -RA FEW015 SCT055 17/12 Q1007 NOSIG
12-09-26 LEBL 261700Z 27005KT 230V320 9999 FEW015 18/11 Q1007 NOSIG
12-09-26 LEBL 261730Z 30006KT 250V340 9999 FEW015 19/11 Q1007 NOSIG
12-09-26 LEBL 261800Z 20004KT 160V240 9999 FEW018 18/10 Q1008 NOSIG
12-09-26 LEBL 261830Z 26001KT 9999 FEW020 18/08 Q1008 NOSIG
12-09-26 LEBL 261900Z 29005KT 190V340 9999 FEW020 18/07 Q1009 NOSIG
12-09-26 LEBL 261930Z 28005KT 250V310 9999 FEW020 19/08 Q1010 NOSIG
12-09-26 LEBL 262000Z 24002KT 9999 FEW020 18/09 Q1010 NOSIG
12-09-26 LEBL 262030Z 33003KT 9999 FEW020 18/08 Q1010 NOSIG
12-09-26 LEBL 262100Z 02004KT 310V050 9999 FEW020 17/09 Q1011 NOSIG
12-09-26 LEBL 262130Z 36004KT 320V030 9999 FEW020 17/09 Q1011 NOSIG
12-09-26 LEBL 262200Z 07003KT 9999 FEW025 16/10 Q1012 NOSIG
12-09-26 LEBL 262230Z 32004KT 9999 FEW025 16/10 Q1012 NOSIG
12-09-26 LEBL 262300Z 32004KT 9999 FEW025 16/10 Q1012 NOSIG
12-09-26 LEBL 262330Z 33005KT 9999 FEW025 15/10 Q1012 NOSIG
12-09-27 LEBL 270000Z 34005KT 9999 FEW025 15/10 Q1013 NOSIG
12-09-27 LEBL 270030Z 33005KT 9999 FEW025 15/10 Q1013 NOSIG
12-09-27 LEBL 270100Z 32006KT 9999 FEW020 15/11 Q1013 NOSIG
12-09-27 LEBL 270130Z 33007KT 9999 FEW020 15/10 Q1013 NOSIG
12-09-27 LEBL 270200Z 33009KT 9999 FEW020 15/09 Q1013 NOSIG
12-09-27 LEBL 270230Z 33010KT 9999 FEW020 15/09 Q1013 NOSIG
12-09-27 LEBL 270300Z 33010KT 9999 FEW020 15/10 Q1013 NOSIG
12-09-27 LEBL 270330Z 32011KT 9999 FEW020 14/10 Q1013 NOSIG
12-09-27 LEBL 270400Z 32010KT 9999 FEW020 14/09 Q1014 NOSIG
12-09-27 LEBL 270430Z 32010KT 9999 FEW020 14/09 Q1014 NOSIG
12-09-27 LEBL 270500Z 33011KT 9999 FEW020 14/09 Q1014 NOSIG
12-09-27 LEBL 270530Z 32011KT 9999 FEW020 14/10 Q1014 NOSIG
12-09-27 LEBL 270600Z 32013KT 290V350 9999 FEW020 15/09 Q1014 NOSIG
12-09-27 LEBL 270630Z 33013KT 9999 FEW020 15/09 Q1015 NOSIG
12-09-27 LEBL 270700Z 32013KT 290V010 9999 FEW020 15/09 Q1015 NOSIG
12-09-27 LEBL 270730Z 33013KT 9999 FEW020 15/09 Q1015 NOSIG
12-09-27 LEBL 270800Z 33013G23KT 9999 FEW020 16/09 Q1015 NOSIG
12-09-27 LEBL 270830Z 32012KT 9999 FEW020 17/08 Q1016 NOSIG
12-09-27 LEBL 270900Z 33010KT 9999 FEW020 17/09 Q1016 NOSIG
12-09-27 LEBL 270930Z 32009KT 260V350 9999 FEW020 18/09 Q1016 NOSIG
12-09-27 LEBL 271000Z 33008KT 270V010 9999 FEW025 19/08 Q1016 NOSIG
12-09-27 LEBL 271030Z 34005KT 280V070 9999 FEW025 20/08 Q1016 NOSIG
12-09-27 LEBL 271100Z 05005KT 350V090 9999 FEW025 20/09 Q1016 NOSIG
12-09-27 LEBL 271130Z 03006KT 340V080 9999 FEW025 SCT055 21/09 Q1016 NOSIG
12-09-27 LEBL 271200Z 06007KT 020V100 9999 SCT020 21/10 Q1016 NOSIG
12-09-27 LEBL 271230Z 07007KT 020V110 9999 SCT025 21/14 Q1016 NOSIG
12-09-27 LEBL 271300Z 05009KT 020V100 9999 SCT025 22/13 Q1015 NOSIG
12-09-27 LEBL 271330Z 08007KT 050V110 9999 SCT025 22/14 Q1015 NOSIG
12-09-27 LEBL 271400Z 08008KT 040V120 9999 SCT025 21/14 Q1015 NOSIG
12-09-27 LEBL 271430Z 09008KT 9999 SCT025 21/14 Q1015 NOSIG
12-09-27 LEBL 271500Z 08008KT 9999 SCT022 21/15 Q1015 NOSIG
12-09-27 LEBL 271530Z 08008KT 9999 SCT022 21/15 Q1015 NOSIG
12-09-27 LEBL 271600Z 09009KT 060V120 9999 SCT022 21/14 Q1016 NOSIG
12-09-27 LEBL 271630Z 09010KT 9999 SCT022 21/15 Q1016 NOSIG
12-09-27 LEBL 271700Z 07009KT 040V100 9999 SCT022 SCT055 21/15 Q1016 NOSIG
12-09-27 LEBL 271730Z 07010KT 9999 SCT022 SCT055 21/15 Q1016 NOSIG
12-09-27 LEBL 271800Z 05011KT 020V090 9999 SCT025 SCT055 21/15 Q1016 NOSIG
12-09-27 LEBL 271830Z 06011KT 9999 SCT025 SCT055 21/15 Q1017 NOSIG
12-09-27 LEBL 271900Z 06011KT 9999 SCT025 SCT055 21/15 Q1017 NOSIG
12-09-27 LEBL 271930Z 06012KT 9999 SCT025 21/15 Q1017 NOSIG
12-09-27 LEBL 272000Z 06013KT 9999 SCT025 20/15 Q1017 NOSIG
12-09-27 LEBL 272030Z 06011KT 9999 SCT025 20/14 Q1017 NOSIG
12-09-27 LEBL 272100Z 05011KT 020V080 9999 SCT025 20/14 Q1017 NOSIG
12-09-27 LEBL 272130Z 05010KT 9999 SCT025 20/15 Q1017 NOSIG
12-09-27 LEBL 272200Z NIL
12-09-27 LEBL 272200Z 05007KT 9999 SCT025 20/15 Q1017 NOSIG
12-09-27 LEBL 272230Z 04008KT 9999 SCT025 20/14 Q1017 NOSIG
12-09-27 LEBL 272300Z 02006KT 9999 SCT025 20/12 Q1017 NOSIG
12-09-27 LEBL 272330Z 01004KT 340V040 9999 SCT025 19/12 Q1017 NOSIG
12-09-28 LEBL 280000Z 36005KT 9999 SCT025 19/12 Q1017 NOSIG
12-09-28 LEBL 280030Z 02005KT 9999 SCT025 19/12 Q1017 NOSIG
12-09-28 LEBL 280100Z 33007KT 9999 SCT025 19/11 Q1017 NOSIG
12-09-28 LEBL 280130Z 33005KT 9999 SCT025 19/12 Q1016 NOSIG
12-09-28 LEBL 280200Z 33005KT 9999 SCT025 19/12 Q1016 NOSIG
12-09-28 LEBL 280230Z 33005KT 9999 FEW025 19/11 Q1016 NOSIG
12-09-28 LEBL 280300Z 32005KT 9999 FEW025 19/12 Q1016 NOSIG
12-09-28 LEBL NIL
12-09-28 LEBL 280330Z NIL
12-09-28 LEBL 280330Z 33006KT 9999 FEW025 18/12 Q1016 NOSIG
12-09-28 LEBL 280400Z 32006KT 9999 FEW025 18/12 Q1016 NOSIG
12-09-28 LEBL 280430Z 34006KT 9999 FEW025 18/12 Q1015 NOSIG
12-09-28 LEBL 280500Z 33006KT 9999 FEW020 19/12 Q1015 NOSIG
12-09-28 LEBL 280530Z 34006KT 290V020 9999 FEW020 19/12 Q1015 NOSIG
12-09-28 LEBL 280600Z 33006KT 9999 FEW020 19/12 Q1015 NOSIG
12-09-28 LEBL 280630Z 33006KT 9999 FEW020 19/12 Q1015 NOSIG
12-09-28 LEBL 280700Z VRB05KT 9999 FEW025 19/11 Q1015 NOSIG
12-09-28 LEBL 280730Z 34004G14KT 280V010 9999 FEW025 20/11 Q1015 NOSIG
12-09-28 LEBL 280800Z 03008KT 340V070 9999 FEW025 20/11 Q1015 NOSIG
12-09-28 LEBL 280830Z 06006KT 030V100 9999 FEW025 21/10 Q1015 NOSIG
12-09-28 LEBL 280900Z 05008KT 020V090 9999 FEW025 22/11 Q1015 NOSIG
12-09-28 LEBL 280930Z 07011KT 9999 FEW025 22/12 Q1015 NOSIG
12-09-28 LEBL 281000Z 08012KT 9999 FEW025 22/12 Q1016 NOSIG
12-09-28 LEBL 281030Z 04017KT 9000 RA FEW025 19/14 Q1015 NOSIG
12-09-28 LEBL 281100Z 05005KT 020V140 9999 FEW025 20/13 Q1016 RERA NOSIG
12-09-28 LEBL 281114Z 06007KT 020V080 9999 RA FEW025 20/15 Q1016 NOSIG
12-09-28 LEBL 281130Z 05011KT 9999 FEW025 20/15 Q1015 RERA NOSIG
12-09-28 LEBL 281200Z 02007KT 330V060 9999 RA FEW025 20/15 Q1014 NOSIG
12-09-28 LEBL 281230Z 02012KT 9999 SCT025 21/14 Q1013 NOSIG
12-09-28 LEBL 281300Z 04013KT 010V070 9999 SCT025 23/12 Q1013 NOSIG
12-09-28 LEBL 281330Z 06011KT 9999 SCT025 24/09 Q1013 NOSIG
12-09-28 LEBL 281400Z 07016KT 9999 SCT025 24/10 Q1013 NOSIG
12-09-28 LEBL 281430Z 06020G30KT 9999 SCT025 23/09 Q1012 NOSIG
12-09-28 LEBL 281500Z 06022KT 9999 SCT025 23/09 Q1011 NOSIG
12-09-28 LEBL 281530Z 06020KT 9999 SCT025 23/08 Q1011 NOSIG
12-09-28 LEBL 281600Z 06019KT 9999 SCT025 23/08 Q1011 NOSIG
12-09-28 LEBL 281630Z 06021KT 9999 SCT025 23/07 Q1012 NOSIG
12-09-28 LEBL 281700Z 05016G26KT 9999 SCT025 22/09 Q1011 NOSIG
12-09-28 LEBL 281730Z 06012KT 9999 SCT025 22/09 Q1011 NOSIG
12-09-28 LEBL 281800Z 02009KT 9999 SCT025 23/06 Q1011 NOSIG
12-09-28 LEBL 281830Z 03008KT 9999 SCT025 23/06 Q1011 NOSIG
12-09-28 LEBL 281900Z 04012KT 010V070 9999 SCT025 23/07 Q1011 NOSIG
12-09-28 LEBL 281930Z 04013KT 9999 SCT025 23/06 Q1011 NOSIG
12-09-28 LEBL 282000Z 04013KT 020V080 9999 SCT025 23/06 Q1011 NOSIG
12-09-28 LEBL 282030Z 06015KT 9999 SCT025 23/07 Q1012 NOSIG
12-09-28 LEBL 282100Z 05017KT 9999 SCT025 23/07 Q1011 NOSIG
12-09-28 LEBL 282130Z 05019KT 9999 SCT025 23/06 Q1011 NOSIG
12-09-28 LEBL 282200Z 05021G31KT 9999 BKN030 23/06 Q1011 NOSIG
12-09-28 LEBL 282230Z 06016KT 9999 BKN030 23/06 Q1011 NOSIG
12-09-28 LEBL 282300Z 06018KT 9999 FEW025 BKN038 23/07 Q1011 NOSIG
12-09-28 LEBL 282330Z 05024G35KT 020V080 9999 SCT025 23/08 Q1010 NOSIG
12-09-29 LEBL 290000Z 06024KT 9999 SCT025 SCT040 23/09 Q1011 NOSIG
12-09-29 LEBL 290030Z 06021G31KT 030V090 9999 SCT025 SCT040 23/10 Q1010 NOSIG
12-09-29 LEBL 290100Z 06021KT 9999 SCT025 SCT040 23/11 Q1010 NOSIG
12-09-29 LEBL 290130Z 06017KT 9999 SCT025 SCT055 23/11 Q1010 NOSIG
12-09-29 LEBL 290200Z 06017KT 9999 SCT025 SCT055 23/12 Q1010 NOSIG
12-09-29 LEBL 290230Z 06019KT 9999 SCT025 SCT055 23/12 Q1010 NOSIG
12-09-29 LEBL 290300Z 06017KT 9999 SCT025 SCT050 23/13 Q1010 NOSIG
12-09-29 LEBL 290330Z 06019KT 9999 SCT025 SCT055 23/13 Q1009 NOSIG
12-09-29 LEBL 290400Z 06016KT 9999 SCT025 SCT055 23/14 Q1009 NOSIG
12-09-29 LEBL 290430Z 06017KT 020V080 9999 SCT025 SCT055 23/14 Q1009 NOSIG
12-09-29 LEBL 290500Z 06017KT 9999 SCT025 BKN040 23/14 Q1009 NOSIG
12-09-29 LEBL 290530Z 06016KT 9999 SCT025 BKN040 23/14 Q1009 NOSIG
12-09-29 LEBL 290600Z 06013KT 9000 RA SCT025 BKN038 22/15 Q1010 NOSIG
12-09-29 LEBL 290630Z 06015KT 9999 SCT025 BKN045 22/15 Q1010 RERA NOSIG
12-09-29 LEBL 290700Z 06014KT 9999 SCT025 BKN040 21/15 Q1009 NOSIG
12-09-29 LEBL 290715Z 05006KT 7000 SHRA SCT018TCU BKN040 20/16 Q1010 NOSIG
12-09-29 LEBL 290730Z 03007KT 360V060 7000 SHRA SCT018TCU BKN040 20/17 Q1010 NOSIG
12-09-29 LEBL 290800Z 05007KT 7000 RA SCT018TCU BKN040 20/16 Q1010 NOSIG
12-09-29 LEBL 290830Z 10012KT 7000 +RA SCT018TCU BKN030 20/17 Q1011 NOSIG
12-09-29 LEBL 290900Z 10013KT 5000 TSRA SCT018CB BKN030 18/16 Q1011 NOSIG
12-09-29 LEBL 290930Z 07009KT 040V100 5000 TSRA SCT016CB BKN030 18/16 Q1011 NOSIG
12-09-29 LEBL 291000Z 09001KT 3000 SHRA SCT015TCU BKN055 18/17 Q1011 NOSIG
12-09-29 LEBL 291030Z 23004KT 3000 RA SCT015TCU BKN035 17/16 Q1011 NOSIG
12-09-29 LEBL 291100Z NIL
12-09-29 LEBL 291100Z 23005KT 3000 RA SCT010TCU BKN025 17/16 Q1011 NOSIG
12-09-29 LEBL 291130Z VRB02KT 3000 RA SCT010TCU BKN025 17/17 Q1011 NOSIG
12-09-29 LEBL 291200Z 13006KT 110V230 3000 RA SCT007TCU BKN012 17/17 Q1011 NOSIG
12-09-29 LEBL 291230Z 15006KT 7000 RA SCT010TCU SCT025 17/16 Q1011 NOSIG
12-09-29 LEBL 291300Z 13003KT 7000 RA SCT010TCU SCT025 18/17 Q1012 NOSIG
12-09-29 LEBL 291330Z 33001KT 7000 RA SCT010TCU SCT025 18/17 Q1012 NOSIG
12-09-29 LEBL 291400Z 31004KT 280V340 7000 RA SCT010TCU SCT025 18/17 Q1012 NOSIG
12-09-29 LEBL 291430Z 34004KT 290V010 7000 -RA FEW014 SCT035 18/17 Q1012 NOSIG
12-09-29 LEBL 291500Z 32003KT 280V020 9999 -RA FEW025 SCT050 18/17 Q1012 NOSIG
12-09-29 LEBL 291530Z 32003KT 270V010 9999 -RA FEW025 SCT050 18/17 Q1012 NOSIG
12-09-29 LEBL 291600Z VRB02KT 9999 DZ FEW025 SCT050 18/17 Q1012 NOSIG
12-09-29 LEBL 291630Z 33004KT 280V010 9999 RA FEW010 SCT035 18/16 Q1012 NOSIG
12-09-29 LEBL 291700Z VRB02KT 9999 RA FEW010 SCT035 17/15 Q1012 NOSIG
12-09-29 LEBL 291730Z VRB02KT 6000 RA FEW015 SCT050 17/15 Q1012 NOSIG
12-09-29 LEBL 291800Z 02005KT 310V090 6000 RA FEW020 SCT050 17/16 Q1012 NOSIG
12-09-29 LEBL 291830Z 08003KT 020V130 9999 -RA FEW018 SCT030 17/16 Q1013 NOSIG
12-09-29 LEBL 291900Z 03001KT 9999 RA SCT018 BKN030 17/15 Q1013 NOSIG
12-09-29 LEBL 291930Z VRB01KT 8000 RA SCT010 BKN030 17/15 Q1014 NOSIG
12-09-29 LEBL 292000Z 09007KT 9000 RA SCT010 BKN030 17/16 Q1014 NOSIG
12-09-29 LEBL 292030Z 06003KT 030V090 9999 DZ SCT015 BKN045 17/16 Q1014 NOSIG
12-09-29 LEBL 292100Z 07004KT 040V100 9999 DZ SCT015 BKN045 17/15 Q1014 NOSIG
12-09-29 LEBL 292130Z 08011KT 9999 RA SCT015 BKN045 18/15 Q1014 NOSIG
12-09-29 LEBL 292200Z 05011KT 020V080 9999 SCT025 BKN050 18/15 Q1014 RERA NOSIG
12-09-29 LEBL 292230Z 03007KT 350V060 9999 DZ SCT025 BKN035 17/16 Q1014 NOSIG
12-09-29 LEBL 292300Z 34007KT 9999 SCT025 BKN040 17/16 Q1014 REDZ NOSIG
12-09-29 LEBL 292330Z 34007KT 9999 SCT025 SCT050 17/15 Q1014 NOSIG
12-09-30 LEBL 300000Z 33009KT 9999 FEW025 SCT050 17/15 Q1014 NOSIG
12-09-30 LEBL 300030Z 33008KT 9999 FEW025 SCT050 17/15 Q1014 NOSIG
12-09-30 LEBL 300100Z 33008KT 9999 FEW025 SCT050 17/15 Q1014 NOSIG
12-09-30 LEBL 300130Z 34010KT 9999 SCT025 17/15 Q1014 NOSIG
12-09-30 LEBL 300200Z 34008KT 9999 SCT025 17/15 Q1015 NOSIG
12-09-30 LEBL 300230Z 33008KT 9999 SCT025 17/15 Q1014 NOSIG
12-09-30 LEBL 300300Z 34007KT 9999 SCT025 17/15 Q1014 NOSIG
12-09-30 LEBL 300330Z 33007KT 9999 SCT025 17/15 Q1015 NOSIG
12-09-30 LEBL 300400Z 32007KT 9999 SCT025 17/15 Q1015 NOSIG
12-09-30 LEBL 300430Z 32007KT 9999 SCT025 17/15 Q1015 NOSIG
12-09-30 LEBL 300500Z 33007KT 9999 SCT030 17/15 Q1015 NOSIG
12-09-30 LEBL 300530Z 33008KT 290V030 9999 FEW025 16/15 Q1015 NOSIG
12-09-30 LEBL 300600Z 33009G22KT 290V020 9999 FEW025 17/14 Q1015 NOSIG
12-09-30 LEBL 300630Z 34008KT 290V020 9999 FEW025 16/14 Q1016 NOSIG
12-09-30 LEBL 300700Z 34008G22KT 310V010 9999 FEW025 17/13 Q1016 NOSIG
12-09-30 LEBL 300730Z 33009KT 290V010 9999 FEW025 17/13 Q1017 NOSIG
12-09-30 LEBL 300800Z 33010KT 290V350 9999 FEW025 17/14 Q1017 NOSIG
12-09-30 LEBL 300830Z 33010KT 9999 FEW025 18/14 Q1017 NOSIG
12-09-30 LEBL 300900Z 33012KT 9999 FEW020 19/13 Q1017 NOSIG
12-09-30 LEBL 300930Z 34010KT 310V010 9999 FEW025 20/14 Q1017 NOSIG
12-09-30 LEBL 301000Z 34007KT 9999 FEW020 20/13 Q1017 NOSIG
12-09-30 LEBL 301030Z 36003KT 290V080 9999 FEW020TCU 21/12 Q1017 NOSIG
12-09-30 LEBL 301100Z 13005KT 050V170 9999 FEW020TCU 23/12 Q1017 NOSIG
12-09-30 LEBL 301130Z 14007KT 110V190 9999 FEW020TCU 21/11 Q1017 NOSIG
12-09-30 LEBL 301200Z 16007KT 130V190 9999 FEW025 21/12 Q1017 NOSIG
12-09-30 LEBL 301230Z 17008KT 9999 FEW025 21/12 Q1017 NOSIG
12-09-30 LEBL 301300Z 20007KT 160V240 9999 FEW025TCU 22/12 Q1017 NOSIG
12-09-30 LEBL 301330Z 19009KT 130V240 9999 SCT025TCU 22/13 Q1017 NOSIG
12-09-30 LEBL 301400Z 19007KT 150V220 9999 SCT025TCU 22/13 Q1017 NOSIG
12-09-30 LEBL 301430Z 16006KT 130V210 9999 SCT025TCU 22/13 Q1017 NOSIG
12-09-30 LEBL 301500Z 16007KT 130V190 9999 FEW025TCU 22/13 Q1017 NOSIG
12-09-30 LEBL 301530Z 16006KT 130V190 9999 FEW025TCU 21/13 Q1017 NOSIG
12-09-30 LEBL 301600Z 16006KT 120V190 9999 FEW025TCU 21/13 Q1017 NOSIG
12-09-30 LEBL 301630Z 15004KT 9999 FEW035 SCT056 21/14 Q1017 NOSIG
12-09-30 LEBL 301700Z 16006KT 9999 FEW035 SCT056 21/14 Q1017 NOSIG
12-09-30 LEBL 301730Z 16005KT 9999 FEW035 21/14 Q1017 NOSIG
12-09-30 LEBL 301800Z 17004KT 9999 FEW035 21/14 Q1017 NOSIG
12-09-30 LEBL 301830Z 19006KT 9999 FEW035 21/14 Q1017 NOSIG
12-09-30 LEBL 301900Z 20007KT 170V230 9999 FEW035 21/14 Q1018 NOSIG
12-09-30 LEBL 301930Z 21007KT 9999 FEW035 21/14 Q1018 NOSIG
12-09-30 LEBL NIL
12-09-30 LEBL 302000Z 21007KT 9999 FEW035 21/14 Q1018 NOSIG
12-09-30 LEBL 302030Z 21007KT 9999 FEW035 21/14 Q1018 NOSIG
12-09-30 LEBL 302100Z 18004KT 130V220 9999 FEW035 21/14 Q1019 NOSIG
12-09-30 LEBL 302130Z 19006KT 9999 FEW035 21/14 Q1019 NOSIG
12-09-30 LEBL 302200Z 20006KT 9999 SCT035 21/14 Q1019 NOSIG
12-09-30 LEBL 302230Z 20007KT 9999 SCT035 21/15 Q1019 NOSIG
12-09-30 LEBL 302300Z 21008KT 9999 SCT035 20/15 Q1019 NOSIG
12-09-30 LEBL 302330Z 25007KT 9999 FEW035 19/12 Q1019 NOSIG
12-10-01 LEBL 010000Z 32006KT 9999 FEW035 19/14 Q1019 NOSIG
12-10-01 LEBL 010030Z 33004KT 290V350 9999 FEW035 18/14 Q1019 NOSIG
12-10-01 LEBL 010100Z 32005KT 9999 FEW035 18/14 Q1018 NOSIG
12-10-01 LEBL 010130Z 32006KT 9999 FEW035 18/14 Q1018 NOSIG
12-10-01 LEBL 010200Z 32007KT 9999 FEW035 18/14 Q1018 NOSIG
12-10-01 LEBL 010230Z 32006KT 9999 FEW035 17/14 Q1018 NOSIG
12-10-01 LEBL 010300Z 32007KT 9999 FEW035 17/13 Q1018 NOSIG
12-10-01 LEBL 010330Z 32011KT 9999 FEW035 17/12 Q1018 NOSIG
12-10-01 LEBL 010400Z 32009KT 9999 FEW035 17/11 Q1018 NOSIG
12-10-01 LEBL 010430Z 32008KT 9999 FEW035 16/11 Q1018 NOSIG
12-10-01 LEBL 010500Z 32008KT 9999 FEW035 17/09 Q1018 NOSIG
12-10-01 LEBL 010530Z 32008KT 9999 FEW035 17/09 Q1018 NOSIG
12-10-01 LEBL 010600Z 33010G21KT 290V350 9999 FEW035 16/08 Q1018 NOSIG
12-10-01 LEBL 010630Z 29008KT 260V330 CAVOK 17/08 Q1018 NOSIG
12-10-01 LEBL 010700Z 31007KT 280V350 CAVOK 17/08 Q1019 NOSIG
12-10-01 LEBL 010730Z 31008KT CAVOK 17/09 Q1019 NOSIG
12-10-01 LEBL 010800Z 31010KT CAVOK 18/09 Q1019 NOSIG
12-10-01 LEBL 010830Z 31010KT CAVOK 19/09 Q1019 NOSIG
12-10-01 LEBL 010900Z 33011KT 290V360 CAVOK 19/09 Q1019 NOSIG
12-10-01 LEBL 010930Z 33011KT 280V010 CAVOK 20/09 Q1019 NOSIG
12-10-01 LEBL 011000Z 34008G19KT 260V020 CAVOK 21/08 Q1019 NOSIG
12-10-01 LEBL 011030Z 33007G17KT 290V050 CAVOK 22/08 Q1019 NOSIG
12-10-01 LEBL 011100Z 33003KT CAVOK 22/09 Q1019 NOSIG
12-10-01 LEBL 011130Z 20009KT 160V240 CAVOK 22/10 Q1019 NOSIG
12-10-01 LEBL 011200Z 20010KT 170V230 CAVOK 23/10 Q1019 NOSIG
12-10-01 LEBL 011230Z 22012KT CAVOK 23/11 Q1019 NOSIG
12-10-01 LEBL 011300Z 21011KT CAVOK 23/11 Q1019 NOSIG
12-10-01 LEBL 011330Z 21013KT CAVOK 23/11 Q1018 NOSIG
12-10-01 LEBL 011400Z 22016KT CAVOK 24/12 Q1018 NOSIG
12-10-01 LEBL 011430Z 23017KT CAVOK 23/12 Q1018 NOSIG
12-10-01 LEBL 011500Z 23017KT 9999 FEW035 23/12 Q1018 NOSIG
12-10-01 LEBL 011530Z 23018KT 9999 FEW035 23/12 Q1018 NOSIG
12-10-01 LEBL 011600Z 22013KT 9999 FEW035 23/13 Q1018 NOSIG
12-10-01 LEBL 011630Z 23012KT 9999 FEW035 23/13 Q1018 NOSIG
12-10-01 LEBL 011700Z 23013KT 9999 FEW035 22/14 Q1018 NOSIG
12-10-01 LEBL 011730Z 23012KT 9999 FEW035 22/14 Q1019 NOSIG
12-10-01 LEBL 011800Z 23012KT CAVOK 21/15 Q1019 NOSIG
12-10-01 LEBL 011830Z 25008KT CAVOK 21/15 Q1019 NOSIG
12-10-01 LEBL 011900Z 29006KT 250V330 CAVOK 20/14 Q1019 NOSIG
12-10-01 LEBL 011930Z 30005KT CAVOK 21/14 Q1020 NOSIG
12-10-01 LEBL 012000Z 32004KT 280V360 CAVOK 21/14 Q1020 NOSIG
12-10-01 LEBL 012030Z 31003KT 230V020 CAVOK 20/14 Q1020 NOSIG
12-10-01 LEBL 012100Z 28004KT 230V340 CAVOK 20/15 Q1021 NOSIG
12-10-01 LEBL 012130Z 31004KT CAVOK 19/14 Q1021 NOSIG
12-10-01 LEBL 012200Z 32003KT 290V350 CAVOK 18/14 Q1021 NOSIG
12-10-01 LEBL 012230Z 34006KT CAVOK 18/14 Q1021 NOSIG
12-10-01 LEBL 012300Z 33006KT CAVOK 17/13 Q1021 NOSIG
12-10-01 LEBL 012330Z 34007KT CAVOK 17/12 Q1021 NOSIG
12-10-02 LEBL 020000Z 33006KT CAVOK 17/12 Q1021 NOSIG
12-10-02 LEBL 020030Z 33006KT CAVOK 16/12 Q1021 NOSIG
12-10-02 LEBL 020100Z 33006KT 300V360 CAVOK 16/11 Q1021 NOSIG
12-10-02 LEBL 020130Z 32007KT CAVOK 16/11 Q1020 NOSIG
12-10-02 LEBL 020200Z 32008KT CAVOK 16/11 Q1020 NOSIG
12-10-02 LEBL 020230Z 34009KT CAVOK 15/11 Q1020 NOSIG
12-10-02 LEBL 020300Z 32009KT CAVOK 15/10 Q1020 NOSIG
12-10-02 LEBL 020330Z 33009KT CAVOK 14/10 Q1020 NOSIG
12-10-02 LEBL 020400Z 33011KT CAVOK 15/10 Q1020 NOSIG
12-10-02 LEBL 020430Z 33011KT 9999 FEW035 14/10 Q1020 NOSIG
12-10-02 LEBL 020500Z 33010KT 9999 FEW035 14/10 Q1020 NOSIG
12-10-02 LEBL 020530Z 33011KT 290V350 9999 FEW030 14/10 Q1020 NOSIG
12-10-02 LEBL 020600Z 33010G20KT 9999 FEW030 14/10 Q1020 NOSIG
12-10-02 LEBL 020630Z 33010KT 9999 FEW030 14/10 Q1020 NOSIG
12-10-02 LEBL 020700Z 33010KT 300V030 9999 FEW030 15/10 Q1021 NOSIG
12-10-02 LEBL 020730Z 33011G23KT 300V360 9999 FEW030 16/11 Q1021 NOSIG
12-10-02 LEBL 020800Z NIL
12-10-02 LEBL 020800Z 33009KT 290V350 9999 FEW030 17/11 Q1021 NOSIG
12-10-02 LEBL 020830Z 33008KT 300V360 9999 FEW030 18/11 Q1021 NOSIG
12-10-02 LEBL 020900Z 32007KT 270V350 9999 FEW030 19/12 Q1022 NOSIG
12-10-02 LEBL 020930Z 01005KT 9999 FEW030 21/13 Q1022 NOSIG
12-10-02 LEBL 021000Z 06007KT 010V110 9999 FEW020 22/15 Q1022 NOSIG
12-10-02 LEBL 021030Z 07008KT 030V110 9999 FEW020 22/16 Q1022 NOSIG
12-10-02 LEBL 021100Z 08008KT 060V120 9999 FEW022 22/15 Q1021 NOSIG
12-10-02 LEBL 021130Z 10009KT 9999 FEW022 22/16 Q1021 NOSIG
12-10-02 LEBL 021200Z 09009KT 060V120 9999 FEW022 23/15 Q1021 NOSIG
12-10-02 LEBL 021230Z 10008KT 060V120 9999 FEW022 23/15 Q1021 NOSIG
12-10-02 LEBL 021300Z 09009KT 060V130 9999 FEW020 23/15 Q1021 NOSIG
12-10-02 LEBL 021330Z 09008KT 060V130 9999 FEW020 23/16 Q1020 NOSIG
12-10-02 LEBL 021400Z 09008KT 060V120 9999 FEW020 23/16 Q1020 NOSIG
12-10-02 LEBL 021430Z 10007KT 060V130 9999 FEW020 23/16 Q1020 NOSIG
12-10-02 LEBL 021500Z 11006KT 080V160 9999 FEW024 23/12 Q1020 NOSIG
12-10-02 LEBL 021530Z 18003KT 120V230 9999 FEW024 23/12 Q1020 NOSIG
12-10-02 LEBL 021600Z 20006KT 170V230 9999 FEW024 23/12 Q1020 NOSIG
12-10-02 LEBL 021630Z 19005KT 9999 FEW024 23/12 Q1020 NOSIG
12-10-02 LEBL 021700Z 23006KT 9999 FEW025 22/13 Q1020 NOSIG
12-10-02 LEBL 021730Z 23006KT 9999 FEW025 21/14 Q1020 NOSIG
12-10-02 LEBL 021800Z 23005KT 9999 FEW025 21/14 Q1020 NOSIG
12-10-02 LEBL 021830Z 25005KT 220V280 9999 FEW025 21/13 Q1020 NOSIG
12-10-02 LEBL 021900Z 26005KT 240V300 9999 FEW025 20/14 Q1020 NOSIG
12-10-02 LEBL 021930Z 30004KT 270V330 9999 FEW025 20/14 Q1020 NOSIG
12-10-02 LEBL 022000Z 29003KT 230V330 9999 FEW025 19/13 Q1020 NOSIG
12-10-02 LEBL 022030Z 30003KT 260V330 9999 FEW025 19/14 Q1021 NOSIG
12-10-02 LEBL 022100Z 32005KT 290V350 9999 FEW025 18/14 Q1021 NOSIG
12-10-02 LEBL 022130Z 31004KT 9999 FEW025 18/13 Q1021 NOSIG
12-10-02 LEBL 022200Z 31006KT 9999 FEW025 17/13 Q1021 NOSIG
12-10-02 LEBL 022230Z 32006KT 9999 FEW025 17/13 Q1021 NOSIG
12-10-02 LEBL 022300Z 31005KT 280V340 9999 FEW025 17/13 Q1020 NOSIG
12-10-02 LEBL 022330Z 32006KT 300V050 9999 FEW025 17/13 Q1020 NOSIG
12-10-03 LEBL 030000Z 32006KT 9999 FEW025 17/13 Q1020 NOSIG
12-10-03 LEBL 030030Z 33005KT 300V010 9999 FEW025 17/13 Q1020 NOSIG
12-10-03 LEBL 030100Z 33007KT 9999 FEW025 17/13 Q1020 NOSIG
12-10-03 LEBL 030130Z 32006KT 9999 FEW025 17/13 Q1020 NOSIG
12-10-03 LEBL 030200Z 34009KT CAVOK 17/13 Q1020 NOSIG
12-10-03 LEBL 030230Z 33009KT CAVOK 17/13 Q1020 NOSIG
12-10-03 LEBL 030300Z 33011KT CAVOK 17/13 Q1020 NOSIG
12-10-03 LEBL 030330Z 33009KT CAVOK 16/13 Q1020 NOSIG
12-10-03 LEBL 030400Z 33008KT CAVOK 16/13 Q1019 NOSIG
12-10-03 LEBL 030430Z 33009KT CAVOK 16/12 Q1020 NOSIG
12-10-03 LEBL 030500Z 33009KT CAVOK 16/12 Q1020 NOSIG
12-10-03 LEBL 030530Z 33009G20KT 260V010 CAVOK 16/12 Q1020 NOSIG
12-10-03 LEBL 030600Z 33010KT CAVOK 15/12 Q1020 NOSIG
12-10-03 LEBL 030630Z 33010KT 300V360 CAVOK 15/12 Q1020 NOSIG
12-10-03 LEBL 030700Z 32011KT CAVOK 16/12 Q1020 NOSIG
12-10-03 LEBL 030730Z 33010KT CAVOK 17/12 Q1020 NOSIG
12-10-03 LEBL NIL
12-10-03 LEBL 030800Z 33010G22KT 260V010 CAVOK 18/13 Q1021 NOSIG
12-10-03 LEBL 030830Z 33008KT 250V350 CAVOK 19/13 Q1021 NOSIG
12-10-03 LEBL 030900Z 33008KT 290V360 9999 FEW025 20/13 Q1021 NOSIG
12-10-03 LEBL 030930Z 32004KT 280V360 9999 FEW025 22/14 Q1021 NOSIG
12-10-03 LEBL 031000Z 31001KT 9999 FEW025 23/15 Q1021 NOSIG
12-10-03 LEBL 031030Z 12003KT 060V190 9999 FEW025 24/16 Q1021 NOSIG
12-10-03 LEBL 031100Z 16004KT 110V210 9999 FEW025 24/16 Q1021 NOSIG
12-10-03 LEBL 031130Z 15005KT 110V220 9999 FEW020 24/16 Q1020 NOSIG
12-10-03 LEBL 031200Z 18006KT 120V220 9999 FEW020 24/17 Q1020 NOSIG
12-10-03 LEBL 031230Z 17006KT 130V210 9999 FEW025 24/18 Q1020 NOSIG
12-10-03 LEBL 031300Z 16006KT 130V210 9999 FEW025 24/17 Q1019 NOSIG
12-10-03 LEBL 031330Z 20006KT 160V240 9999 FEW025 24/18 Q1019 NOSIG
12-10-03 LEBL 031400Z 18007KT 150V220 9999 FEW025 24/18 Q1019 NOSIG
12-10-03 LEBL 031430Z 20007KT 9999 FEW025 24/18 Q1018 NOSIG
12-10-03 LEBL 031500Z 21007KT 170V250 9999 FEW025 24/18 Q1018 NOSIG
12-10-03 LEBL 031530Z 21008KT 180V240 9999 FEW025 24/18 Q1018 NOSIG
12-10-03 LEBL 031600Z 21008KT 9999 FEW025 24/18 Q1018 NOSIG
12-10-03 LEBL 031630Z 21007KT 9999 FEW025 23/18 Q1018 NOSIG
12-10-03 LEBL 031700Z 21007KT 9999 FEW025 23/18 Q1018 NOSIG
12-10-03 LEBL 031730Z 21007KT 9999 FEW025 22/18 Q1018 NOSIG
12-10-03 LEBL 031800Z 21007KT 9999 FEW025 22/18 Q1018 NOSIG
12-10-03 LEBL 031830Z 24005KT 220V290 9999 FEW025 22/18 Q1018 NOSIG
12-10-03 LEBL 031900Z 23005KT 210V290 9999 SCT018 22/18 Q1018 NOSIG
12-10-03 LEBL 031930Z 22007KT 9999 FEW018 22/18 Q1018 NOSIG
12-10-03 LEBL 032000Z 22007KT 9999 FEW018 22/18 Q1018 NOSIG
12-10-03 LEBL 032030Z 24006KT 210V290 9999 FEW018 21/18 Q1018 NOSIG
12-10-03 LEBL 032100Z 28005KT 240V330 9999 FEW020 21/18 Q1018 NOSIG
12-10-03 LEBL 032130Z 29004KT 250V320 9999 SCT020 21/18 Q1018 NOSIG
12-10-03 LEBL 032200Z 30003KT 260V330 9999 SCT020 21/17 Q1018 NOSIG
12-10-03 LEBL 032230Z 30003KT 9999 BKN020 20/17 Q1018 NOSIG
12-10-03 LEBL 032300Z 31003KT 280V350 9999 SCT020 20/17 Q1018 NOSIG
12-10-03 LEBL 032330Z 31003KT 290V350 9999 FEW020 21/18 Q1018 NOSIG
12-10-04 LEBL 040000Z 31004KT 9999 FEW020 19/17 Q1018 NOSIG
12-10-04 LEBL 040030Z NIL
12-10-04 LEBL 040030Z 32005KT 9999 FEW020 19/17 Q1018 NOSIG
12-10-04 LEBL 040100Z 33005KT 9999 SCT020 19/17 Q1017 NOSIG
12-10-04 LEBL 040130Z 33005KT 290V350 9999 FEW020 19/17 Q1017 NOSIG
12-10-04 LEBL 040200Z 32006KT 9999 FEW020 18/17 Q1017 NOSIG
12-10-04 LEBL 040230Z 33006KT 9999 FEW020 18/17 Q1017 NOSIG
12-10-04 LEBL 040300Z 32004KT 6000 FEW018 18/17 Q1017 NOSIG
12-10-04 LEBL 040330Z 32007KT 6000 FEW018 18/17 Q1017 NOSIG
12-10-04 LEBL NIL
12-10-04 LEBL 040400Z 32007KT 6000 SCT018 18/17 Q1017 NOSIG
12-10-04 LEBL 040430Z 32005KT 290V350 6000 SCT018 SCT030 18/16 Q1017 NOSIG
12-10-04 LEBL 040500Z 32006KT 6000 SCT018 18/16 Q1017 NOSIG
12-10-04 LEBL 040530Z 32006KT 6000 FEW018 SCT030 18/16 Q1017 NOSIG
12-10-04 LEBL 040600Z 32007G17KT 280V340 5000 BR FEW018 SCT030 18/16 Q1017 NOSIG
12-10-04 LEBL 040630Z 32006KT 240V010 5000 BR FEW020 SCT030 18/16 Q1017 NOSIG
12-10-04 LEBL 040700Z 32006KT 6000 FEW025 18/16 Q1017 NOSIG
12-10-04 LEBL 040730Z 32006KT 260V350 6000 FEW025 19/16 Q1017 NOSIG
12-10-04 LEBL 040800Z 32005KT 9000 FEW035 20/16 Q1018 NOSIG
12-10-04 LEBL 040830Z 32006KT 270V350 9000 FEW035 21/17 Q1018 NOSIG
12-10-04 LEBL 040900Z 30004KT 9999 FEW035 23/17 Q1018 NOSIG
12-10-04 LEBL 040930Z 23011KT 9999 FEW035 24/18 Q1018 NOSIG
12-10-04 LEBL 041000Z 22010KT 200V260 9999 FEW025 25/17 Q1018 NOSIG
12-10-04 LEBL 041030Z 21012KT 9999 FEW025 25/17 Q1017 NOSIG
12-10-04 LEBL 041100Z NIL
12-10-04 LEBL 041100Z 21013KT 9999 FEW025 25/18 Q1018 NOSIG
12-10-04 LEBL 041130Z 21012KT 9999 FEW025 24/19 Q1017 NOSIG
12-10-04 LEBL 041200Z 21012KT 9999 FEW025 25/19 Q1017 NOSIG
12-10-04 LEBL 041230Z 21012KT 9999 FEW025 24/18 Q1017 NOSIG
12-10-04 LEBL 041300Z 20012KT 9999 FEW025 25/19 Q1017 NOSIG
12-10-04 LEBL 041330Z 20011KT 170V230 9999 FEW025 25/18 Q1017 NOSIG
12-10-04 LEBL 041400Z 21013KT 170V230 9999 FEW025 25/19 Q1016 NOSIG
12-10-04 LEBL 041430Z 21013KT 9999 FEW025 25/18 Q1016 NOSIG
12-10-04 LEBL 041500Z 21012KT 9999 FEW025 25/18 Q1016 NOSIG
12-10-04 LEBL 041530Z 22012KT 9999 FEW025 24/18 Q1016 NOSIG
12-10-04 LEBL 041600Z 21009KT 9999 FEW025 24/18 Q1017 NOSIG
12-10-04 LEBL 041630Z 20008KT 9999 FEW025 24/18 Q1017 NOSIG
12-10-04 LEBL 041700Z 21006KT 9999 FEW018 23/18 Q1017 NOSIG
12-10-04 LEBL 041730Z 21005KT 9999 SCT020 23/18 Q1017 NOSIG
12-10-04 LEBL 041800Z 19003KT 160V220 9999 FEW018 SCT023 23/18 Q1017 NOSIG
12-10-04 LEBL 041830Z VRB02KT 9999 FEW018 SCT023 23/18 Q1017 NOSIG
12-10-04 LEBL 041900Z 14002KT 9999 SCT020 23/19 Q1018 NOSIG
12-10-04 LEBL 041930Z 14002KT 9999 SCT025 23/18 Q1018 NOSIG
12-10-04 LEBL 042000Z 15002KT 9999 FEW030 23/18 Q1018 NOSIG
12-10-04 LEBL 042030Z VRB02KT 9999 FEW020 22/18 Q1018 NOSIG
12-10-04 LEBL 042100Z 04005KT 330V070 9999 FEW020 SCT025 22/19 Q1018 NOSIG
12-10-04 LEBL 042130Z 05003KT 9999 FEW025 22/19 Q1018 NOSIG
12-10-04 LEBL 042200Z 04005KT 9999 FEW025 21/19 Q1018 NOSIG
12-10-04 LEBL 042230Z 01003KT 9999 FEW025 20/18 Q1018 NOSIG
12-10-04 LEBL 042300Z 34003KT 9999 FEW025 20/17 Q1018 NOSIG
12-10-04 LEBL 042330Z 33004KT 9999 FEW025 20/17 Q1018 NOSIG
12-10-05 LEBL 050000Z 33003KT 9999 FEW025 20/17 Q1019 NOSIG
12-10-05 LEBL 050030Z 33004KT 9999 FEW025 19/17 Q1019 NOSIG
12-10-05 LEBL 050100Z 32003KT 9999 FEW028 19/17 Q1019 NOSIG
12-10-05 LEBL 050130Z 34005KT 9999 FEW030 19/17 Q1018 NOSIG
12-10-05 LEBL 050200Z 34005KT 9999 SCT030 19/17 Q1018 NOSIG
12-10-05 LEBL 050230Z 34004KT 9999 SCT026 19/17 Q1018 NOSIG
12-10-05 LEBL 050300Z 34006KT 9999 SCT027 19/17 Q1018 NOSIG
12-10-05 LEBL 050330Z 32006KT 9999 SCT026 19/17 Q1018 NOSIG
12-10-05 LEBL 050400Z 33004KT 9999 SCT026 19/17 Q1018 NOSIG
12-10-05 LEBL 050430Z 33006KT 9000 FEW025 19/17 Q1018 NOSIG
12-10-05 LEBL 050500Z 33003KT 300V010 9999 FEW025 19/17 Q1018 NOSIG
12-10-05 LEBL 050530Z 34004KT 310V010 9999 FEW025 19/17 Q1018 NOSIG
12-10-05 LEBL 050600Z 34004KT 260V010 9000 FEW022 18/17 Q1018 NOSIG
12-10-05 LEBL 050630Z 32008KT 260V010 8000 FEW020 18/17 Q1018 NOSIG
12-10-05 LEBL 050700Z 33009G19KT 310V020 8000 FEW020 19/17 Q1018 NOSIG
12-10-05 LEBL 050730Z 32008KT 280V340 9000 FEW020 20/17 Q1019 NOSIG
12-10-05 LEBL 050800Z 33007KT 290V010 9000 FEW020 20/17 Q1019 NOSIG
12-10-05 LEBL 050830Z 32007KT 9000 FEW018 21/17 Q1019 NOSIG
12-10-05 LEBL 050900Z 31005KT 260V360 8000 FEW018 23/16 Q1019 NOSIG
12-10-05 LEBL 050930Z 33004KT 250V050 8000 FEW018 23/17 Q1019 NOSIG
12-10-05 LEBL 051000Z 13004KT 9000 FEW018 24/17 Q1019 NOSIG
12-10-05 LEBL 051030Z 11006KT 9000 FEW020 24/17 Q1019 NOSIG
12-10-05 LEBL 051100Z 12006KT 080V180 9999 FEW020 24/18 Q1019 NOSIG
12-10-05 LEBL 051130Z 12006KT 080V170 9999 FEW020 24/18 Q1019 NOSIG
12-10-05 LEBL 051200Z 13006KT 090V180 9999 FEW025 24/18 Q1019 NOSIG
12-10-05 LEBL 051230Z 12006KT 080V160 9999 FEW025 24/18 Q1019 NOSIG
12-10-05 LEBL 051300Z 13006KT 070V190 9999 FEW025 24/18 Q1019 NOSIG
12-10-05 LEBL 051330Z 11007KT 070V150 9999 FEW025 24/18 Q1018 NOSIG
12-10-05 LEBL 051400Z 11007KT 070V160 9999 FEW025 24/18 Q1018 NOSIG
12-10-05 LEBL 051430Z 11007KT 080V150 9999 FEW025 24/18 Q1018 NOSIG
12-10-05 LEBL 051500Z 11007KT 080V140 9999 FEW025 24/18 Q1018 NOSIG
12-10-05 LEBL 051530Z 11006KT 080V150 9999 FEW025 24/18 Q1018 NOSIG
12-10-05 LEBL 051600Z 11006KT 060V140 9999 FEW025 24/18 Q1018 NOSIG
12-10-05 LEBL 051630Z 11005KT 9999 FEW025 24/18 Q1018 NOSIG
12-10-05 LEBL 051700Z 11004KT 080V140 9999 FEW020 23/18 Q1018 NOSIG
12-10-05 LEBL 051730Z VRB02KT 9999 SCT016 23/19 Q1018 NOSIG
12-10-05 LEBL 051800Z 08003KT 9999 SCT016 23/18 Q1018 NOSIG
12-10-05 LEBL 051830Z 05003KT 340V100 9999 SCT017 22/18 Q1019 NOSIG
12-10-05 LEBL 051900Z 04003KT 360V100 9999 SCT017 22/18 Q1019 NOSIG
12-10-05 LEBL 051930Z 03003KT 320V080 9999 SCT017 22/18 Q1019 NOSIG
12-10-05 LEBL NIL
12-10-05 LEBL 052000Z 03004KT 300V100 9999 FEW020 22/18 Q1019 NOSIG
12-10-05 LEBL 052030Z 02003KT 290V070 9999 SCT020 21/18 Q1019 NOSIG
12-10-05 LEBL 052100Z 03004KT 330V060 9999 SCT020 21/18 Q1019 NOSIG
12-10-05 LEBL 052130Z NIL
12-10-05 LEBL 052130Z 34004KT 9999 SCT018 20/18 Q1019 NOSIG
12-10-05 LEBL 052200Z 32005KT 9999 SCT018 20/17 Q1019 NOSIG
12-10-05 LEBL 052230Z 32006KT 9999 FEW017 19/17 Q1019 NOSIG
12-10-05 LEBL 052300Z 33009KT 9999 SCT017 19/17 Q1019 NOSIG
12-10-05 LEBL 052330Z 33007KT 9999 SCT017 20/17 Q1019 NOSIG
12-10-06 LEBL 060000Z 33006KT 9999 SCT017 19/17 Q1019 NOSIG
12-10-06 LEBL 060030Z 32006KT 9999 FEW020 19/17 Q1019 NOSIG
12-10-06 LEBL 060100Z 32004KT 9999 FEW020 19/17 Q1019 NOSIG
12-10-06 LEBL 060130Z 31005KT 9000 SCT016 18/17 Q1019 NOSIG
12-10-06 LEBL 060200Z 31006KT 9000 SCT016 19/17 Q1019 NOSIG
12-10-06 LEBL 060230Z 33007KT 9000 SCT016 19/17 Q1019 NOSIG
12-10-06 LEBL 060300Z 33007KT 9000 SCT016 18/17 Q1019 NOSIG
12-10-06 LEBL 060330Z 33009KT 9000 FEW022 18/16 Q1019 NOSIG
12-10-06 LEBL 060400Z 33009KT 8000 FEW022 18/16 Q1019 NOSIG
12-10-06 LEBL 060430Z 32009KT 290V350 8000 FEW022 18/16 Q1019 NOSIG
12-10-06 LEBL 060500Z 32011G21KT 8000 FEW022 17/15 Q1019 NOSIG
12-10-06 LEBL 060530Z 33012KT 6000 FEW022 17/16 Q1019 NOSIG
12-10-06 LEBL 060600Z 33011KT 5000 BR FEW022 17/16 Q1019 NOSIG
12-10-06 LEBL 060630Z 33012KT 5000 BR FEW022 17/16 Q1019 NOSIG
12-10-06 LEBL 060700Z 32011KT 270V340 5000 BR FEW016 17/15 Q1020 NOSIG
12-10-06 LEBL 060730Z 32008KT 290V010 6000 FEW015 18/15 Q1020 NOSIG
12-10-06 LEBL 060800Z 33008KT 290V350 7000 FEW015 19/16 Q1020 NOSIG
12-10-06 LEBL 060830Z 34007G18KT 280V030 8000 FEW012 20/16 Q1020 NOSIG
12-10-06 LEBL 060900Z 34004KT 9999 FEW012 21/16 Q1021 NOSIG
12-10-06 LEBL 060930Z 34003KT 9999 FEW012 22/17 Q1021 NOSIG
12-10-06 LEBL 061000Z 08005KT 020V130 9999 SCT017 24/17 Q1021 NOSIG
12-10-06 LEBL 061030Z 08007KT 060V120 9999 FEW018 24/18 Q1020 NOSIG
12-10-06 LEBL 061100Z 09007KT 050V130 9999 FEW018 24/17 Q1020 NOSIG
12-10-06 LEBL 061130Z 09008KT 060V120 9999 FEW020 24/18 Q1020 NOSIG
12-10-06 LEBL 061200Z 09007KT 060V130 9999 FEW015 SCT022 24/18 Q1020 NOSIG
12-10-06 LEBL 061230Z 09006KT 050V120 9999 FEW018 24/18 Q1019 NOSIG
12-10-06 LEBL 061300Z 12006KT 080V160 9999 FEW018 24/18 Q1019 NOSIG
12-10-06 LEBL 061330Z 11006KT 080V150 9999 FEW018 24/18 Q1019 NOSIG
12-10-06 LEBL 061400Z 13006KT 100V170 9999 FEW018 24/18 Q1019 NOSIG
12-10-06 LEBL 061430Z 14007KT 9999 FEW016 23/18 Q1019 NOSIG
12-10-06 LEBL 061500Z 14005KT 110V170 9999 FEW016 23/18 Q1019 NOSIG
12-10-06 LEBL 061530Z 17005KT 130V210 9999 FEW018 24/18 Q1019 NOSIG
12-10-06 LEBL NIL
12-10-06 LEBL 061600Z 17005KT 130V200 9999 FEW018 23/18 Q1019 NOSIG
12-10-06 LEBL 061630Z 17004KT 130V200 9999 FEW020 23/19 Q1019 NOSIG
12-10-06 LEBL 061700Z 18003KT 150V220 9999 FEW020 22/19 Q1019 NOSIG
12-10-06 LEBL 061730Z VRB02KT 9999 FEW015 22/19 Q1019 NOSIG
12-10-06 LEBL 061800Z 19002KT 9999 FEW015 22/19 Q1019 NOSIG
12-10-06 LEBL 061830Z 19002KT 9999 FEW015 22/19 Q1019 NOSIG
12-10-06 LEBL 061900Z 00000KT 9999 FEW014 22/19 Q1019 NOSIG
12-10-06 LEBL 061930Z 00000KT 9999 FEW014 22/19 Q1019 NOSIG
12-10-06 LEBL 062000Z VRB01KT 9999 FEW014 21/19 Q1019 NOSIG
12-10-06 LEBL 062030Z 29003KT 260V340 9999 FEW020 21/18 Q1019 NOSIG
12-10-06 LEBL 062100Z 30004KT 9999 FEW020 21/18 Q1019 NOSIG
12-10-06 LEBL 062130Z 30005KT 9999 FEW020 21/18 Q1020 NOSIG
12-10-06 LEBL 062200Z 31004KT 9999 FEW020 20/18 Q1019 NOSIG
12-10-06 LEBL 062230Z 30004KT 9999 FEW020 20/18 Q1019 NOSIG
12-10-06 LEBL 062300Z 32004KT 9999 FEW020 20/18 Q1019 NOSIG
12-10-06 LEBL 062330Z 31004KT 9999 FEW020 20/17 Q1019 NOSIG
12-10-07 LEBL 070000Z 34002KT 9999 FEW020 20/18 Q1019 NOSIG
12-10-07 LEBL 070030Z 29002KT 9999 FEW020 20/18 Q1018 NOSIG
12-10-07 LEBL 070100Z 33005KT 9999 FEW020 20/18 Q1018 NOSIG
12-10-07 LEBL 070130Z NIL
12-10-07 LEBL 070130Z 33005KT 9999 FEW020 20/18 Q1018 NOSIG
12-10-07 LEBL 070200Z 30006KT 9999 FEW020 20/18 Q1018 NOSIG
12-10-07 LEBL 070230Z 30004KT 9999 FEW020 20/18 Q1018 NOSIG
12-10-07 LEBL 070300Z 30003KT 9999 FEW020 20/18 Q1018 NOSIG
12-10-07 LEBL 070330Z 31006KT 9000 FEW020 20/17 Q1018 NOSIG
12-10-07 LEBL 070330Z 32005KT 290V350 9000 FEW020 20/17 Q1018 NOSIG
12-10-07 LEBL 070400Z 34006KT 9999 FEW020 20/17 Q1018 NOSIG
12-10-07 LEBL 070430Z 34005KT 9999 FEW020 20/17 Q1018 NOSIG
12-10-07 LEBL 070500Z 33008KT 9999 FEW020 20/17 Q1018 NOSIG
12-10-07 LEBL 070530Z 32005KT 280V350 9999 FEW020 20/17 Q1018 NOSIG
12-10-07 LEBL 070600Z 32006KT 300V010 9000 FEW020 19/17 Q1019 NOSIG
12-10-07 LEBL 070630Z 33006KT 290V350 9000 FEW020 20/17 Q1019 NOSIG
12-10-07 LEBL 070700Z 32007KT 260V010 9000 SCT017 20/17 Q1019 NOSIG
12-10-07 LEBL 070730Z 33007G17KT 210V010 9000 SCT017 20/17 Q1020 NOSIG
12-10-07 LEBL 070800Z 33004KT 250V020 9000 FEW018 21/18 Q1020 NOSIG
12-10-07 LEBL 070830Z 01004KT 340V060 9000 FEW015 22/18 Q1020 NOSIG
12-10-07 LEBL 070900Z 04006KT 9999 FEW015 23/18 Q1020 NOSIG
12-10-07 LEBL 070930Z 05006KT 9999 FEW015 23/18 Q1020 NOSIG
12-10-07 LEBL 071000Z 05006KT 350V080 9999 FEW020 24/18 Q1020 NOSIG
12-10-07 LEBL 071030Z 07005KT 360V110 9999 FEW025 25/18 Q1020 NOSIG
12-10-07 LEBL 071100Z 09006KT 9999 FEW025 25/18 Q1020 NOSIG
12-10-07 LEBL 071130Z 09006KT 9999 FEW025 25/18 Q1020 NOSIG
12-10-07 LEBL 071200Z 09004KT 050V130 9999 FEW025 25/19 Q1020 NOSIG
12-10-07 LEBL 071230Z 12005KT 080V160 9999 FEW025 25/18 Q1020 NOSIG
12-10-07 LEBL 071300Z 14005KT 9999 FEW025 25/18 Q1019 NOSIG
12-10-07 LEBL 071330Z 14004KT 9999 FEW025 25/19 Q1019 NOSIG
12-10-07 LEBL 071400Z 13004KT 100V160 9999 FEW025 25/19 Q1019 NOSIG
12-10-07 LEBL 071430Z 17005KT 130V210 9999 FEW025 24/19 Q1019 NOSIG
12-10-07 LEBL 071500Z 15003KT 090V170 9999 FEW035 24/19 Q1019 NOSIG
12-10-07 LEBL 071530Z 14004KT 110V190 9999 FEW035 24/19 Q1019 NOSIG
12-10-07 LEBL 071600Z 13004KT 100V160 9999 FEW035 24/19 Q1019 NOSIG
12-10-07 LEBL 071630Z 13004KT 080V160 9999 FEW035 24/19 Q1019 NOSIG
12-10-07 LEBL NIL
12-10-07 LEBL 071700Z 15003KT 110V170 9999 FEW035 24/19 Q1019 NOSIG
12-10-07 LEBL 071730Z 13002KT 9999 FEW035 23/20 Q1019 NOSIG
12-10-07 LEBL 071800Z VRB02KT 9999 FEW035 23/20 Q1019 NOSIG
12-10-07 LEBL 071830Z 21003KT 170V230 9999 FEW035 23/20 Q1019 NOSIG
12-10-07 LEBL 071900Z 21003KT CAVOK 23/20 Q1020 NOSIG
12-10-07 LEBL 071930Z 22003KT CAVOK 23/20 Q1020 NOSIG
12-10-07 LEBL 072000Z 22003KT CAVOK 23/20 Q1020 NOSIG
12-10-07 LEBL 072030Z 24004KT 9999 FEW030 22/20 Q1020 NOSIG
12-10-07 LEBL 072100Z 28004KT 240V330 9999 FEW030 22/19 Q1020 NOSIG
12-10-07 LEBL 072130Z 28003KT 9999 FEW030 21/19 Q1020 NOSIG
12-10-07 LEBL 072200Z 32004KT 9999 FEW030 21/19 Q1020 NOSIG
12-10-07 LEBL 072230Z 33003KT 9999 FEW030 21/18 Q1020 NOSIG
12-10-07 LEBL 072300Z 31004KT 9999 FEW030 21/17 Q1020 NOSIG
12-10-07 LEBL 072330Z 32004KT 9999 FEW030 21/17 Q1020 NOSIG
12-10-08 LEBL 080000Z 32006KT 9999 FEW030 21/17 Q1020 NOSIG
12-10-08 LEBL 080030Z 30005KT 9999 FEW030 21/18 Q1020 NOSIG
12-10-08 LEBL 080100Z 30007KT 9999 FEW030 20/17 Q1020 NOSIG
12-10-08 LEBL 080130Z 32006KT 9999 FEW030 20/17 Q1019 NOSIG
12-10-08 LEBL 080200Z 32008KT 9999 FEW030 20/17 Q1019 NOSIG
12-10-08 LEBL 080230Z NIL
12-10-08 LEBL 080300Z NIL
12-10-08 LEBL 080300Z 32008KT 9999 FEW030 20/17 Q1018 NOSIG
12-10-08 LEBL 080330Z 32010KT CAVOK 20/16 Q1018 NOSIG
12-10-08 LEBL 080400Z 32009KT CAVOK 19/16 Q1018 NOSIG
12-10-08 LEBL 080430Z 32009KT 9999 FEW035 20/16 Q1019 NOSIG
12-10-08 LEBL 080500Z 32009KT 9999 FEW035 19/16 Q1019 NOSIG
12-10-08 LEBL 080530Z 33007KT 9999 FEW035 19/16 Q1019 NOSIG
12-10-08 LEBL 080600Z 32006KT 250V360 9999 FEW035 19/16 Q1019 NOSIG
12-10-08 LEBL 080630Z 33008KT 9999 FEW035 19/16 Q1019 NOSIG
12-10-08 LEBL 080700Z 32006KT 260V010 8000 FEW010 19/16 Q1019 NOSIG
12-10-08 LEBL 080730Z 33005KT 9000 FEW010 19/16 Q1019 NOSIG
12-10-08 LEBL 080800Z 32006KT 260V350 9000 NSC 21/16 Q1019 NOSIG
12-10-08 LEBL 080830Z 32005KT 7000 NSC 22/16 Q1019 NOSIG
12-10-08 LEBL 080900Z 32004KT 240V010 7000 NSC 23/16 Q1019 NOSIG
12-10-08 LEBL 080930Z 30005KT 230V350 7000 NSC 23/16 Q1019 NOSIG
12-10-08 LEBL 081000Z 27002KT 7000 FEW035 25/19 Q1019 NOSIG
12-10-08 LEBL 081030Z 22008KT 200V260 7000 FEW040 25/20 Q1019 NOSIG
12-10-08 LEBL 081100Z 20008KT 7000 NSC 25/20 Q1019 NOSIG
12-10-08 LEBL 081130Z 21009KT 8000 NSC 25/20 Q1018 NOSIG
12-10-08 LEBL 081200Z 20010KT 9000 NSC 25/20 Q1018 NOSIG
12-10-08 LEBL 081230Z 20014KT 9999 FEW040 25/21 Q1017 NOSIG
12-10-08 LEBL NIL
12-10-08 LEBL 081300Z 21014KT 9999 FEW040 25/21 Q1017 NOSIG
12-10-08 LEBL 081330Z 21014KT 9999 FEW040 24/21 Q1017 NOSIG
12-10-08 LEBL 081400Z 21013KT 9999 FEW040 25/21 Q1016 NOSIG
12-10-08 LEBL 081430Z 21013KT 9000 FEW040 25/21 Q1016 NOSIG
12-10-08 LEBL 081500Z 22013KT 8000 FEW040 25/21 Q1016 NOSIG
12-10-08 LEBL 081530Z 22012KT 200V260 9999 FEW018 25/21 Q1016 NOSIG
12-10-08 LEBL 081600Z 23013KT 9999 FEW009 24/21 Q1016 NOSIG
12-10-08 LEBL 081630Z 22012KT 9999 FEW010 24/21 Q1016 NOSIG
12-10-08 LEBL 081700Z 22013KT 9000 FEW010 24/21 Q1016 NOSIG
12-10-08 LEBL 081730Z 23012KT 8000 FEW009 23/21 Q1016 NOSIG
12-10-08 LEBL 081800Z 23011KT 8000 FEW009 23/21 Q1016 NOSIG
12-10-08 LEBL 081830Z 23012KT 8000 FEW008 23/21 Q1016 NOSIG
12-10-08 LEBL 081900Z 22012KT 8000 FEW008 23/21 Q1015 NOSIG
12-10-08 LEBL 081930Z 23012KT 8000 FEW010 23/21 Q1016 NOSIG
12-10-08 LEBL 082000Z 21011KT 7000 FEW010 23/21 Q1015 NOSIG
12-10-08 LEBL 082030Z 23012KT 8000 FEW012 23/20 Q1016 NOSIG
12-10-08 LEBL 082100Z 25009KT 220V280 9999 FEW012 23/20 Q1016 NOSIG
12-10-08 LEBL 082130Z 26006KT 9000 FEW012 23/20 Q1016 NOSIG
12-10-08 LEBL 082200Z 25007KT 9000 FEW015 23/20 Q1015 NOSIG
12-10-08 LEBL 082230Z 25007KT 9000 FEW015 23/20 Q1015 NOSIG
12-10-08 LEBL 082300Z 27003KT 9000 FEW015 22/20 Q1015 NOSIG
12-10-08 LEBL 082330Z 32005KT 9999 FEW015 22/18 Q1015 NOSIG
12-10-09 LEBL 090000Z 31004KT 9999 FEW015 22/18 Q1015 NOSIG
12-10-09 LEBL 090030Z 28003KT 250V310 9000 FEW015 22/19 Q1015 NOSIG
12-10-09 LEBL 090100Z 28003KT 8000 FEW015 21/18 Q1015 NOSIG
12-10-09 LEBL 090130Z 32003KT 290V010 7000 FEW015 21/18 Q1015 NOSIG
12-10-09 LEBL 090200Z 31002KT 6000 FEW010 20/18 Q1015 NOSIG
12-10-09 LEBL 090230Z 32006KT 6000 FEW010 21/18 Q1015 NOSIG
12-10-09 LEBL 090300Z 32006KT 6000 FEW010 20/18 Q1015 NOSIG
12-10-09 LEBL 090330Z 33005KT 6000 FEW010 20/18 Q1015 NOSIG
12-10-09 LEBL 090400Z 33006KT 7000 FEW010 20/18 Q1015 NOSIG
12-10-09 LEBL 090430Z 33006KT 7000 FEW012 20/18 Q1015 NOSIG
12-10-09 LEBL 090500Z 31005KT 8000 NSC 20/18 Q1015 NOSIG
12-10-09 LEBL 090530Z 31004KT 220V340 9000 NSC 20/18 Q1015 NOSIG
12-10-09 LEBL 090600Z 33007KT 250V360 8000 NSC 20/17 Q1015 NOSIG
12-10-09 LEBL 090630Z NIL
12-10-09 LEBL 090630Z 32005KT 240V360 8000 NSC 20/17 Q1016 NOSIG
12-10-09 LEBL 090700Z 32005KT 240V350 7000 FEW030 20/17 Q1016 NOSIG
12-10-09 LEBL 090730Z 33004KT 240V010 7000 FEW009 20/17 Q1016 NOSIG
12-10-09 LEBL 090800Z 32003KT 280V020 7000 FEW010 22/18 Q1016 NOSIG
12-10-09 LEBL 090830Z VRB02KT 7000 FEW010 23/18 Q1017 NOSIG
12-10-09 LEBL 090900Z 29003KT 230V350 6000 FEW010 24/19 Q1017 NOSIG
12-10-09 LEBL 090930Z VRB02KT 6000 NSC 25/20 Q1017 NOSIG
12-10-09 LEBL 091000Z VRB02KT 7000 NSC 26/19 Q1017 NOSIG
12-10-09 LEBL 091030Z 21005KT 170V250 9000 FEW025 26/19 Q1016 NOSIG
12-10-09 LEBL 091100Z 20007KT 160V240 9999 FEW025 25/20 Q1016 NOSIG
12-10-09 LEBL 091130Z 21008KT 170V250 9999 FEW025 25/20 Q1016 NOSIG
12-10-09 LEBL 091200Z 21008KT 180V250 9000 FEW013 25/21 Q1016 NOSIG
12-10-09 LEBL 091230Z 19007KT 130V220 8000 FEW013 25/21 Q1015 NOSIG
12-10-09 LEBL 091300Z 19007KT 150V220 8000 FEW020 26/21 Q1015 NOSIG
12-10-09 LEBL 091330Z 20008KT 160V240 8000 FEW012 26/21 Q1015 NOSIG
12-10-09 LEBL 091400Z 21009KT 7000 SCT011 26/21 Q1015 NOSIG
12-10-09 LEBL 091430Z 19009KT 170V230 9000 FEW011 26/21 Q1014 NOSIG
12-10-09 LEBL 091500Z 20008KT 9999 FEW015 26/21 Q1014 NOSIG
12-10-09 LEBL 091530Z 20008KT 9999 FEW015 25/21 Q1014 NOSIG
12-10-09 LEBL 091600Z 19007KT 9999 FEW015 25/21 Q1014 NOSIG
12-10-09 LEBL 091630Z 20007KT 9999 SCT018 25/21 Q1014 NOSIG
12-10-09 LEBL 091700Z 20007KT 9999 BKN017 24/21 Q1015 NOSIG
12-10-09 LEBL 091730Z 20006KT 9999 SCT017 SCT020 24/21 Q1015 NOSIG
12-10-09 LEBL 091800Z 20004KT 9999 SCT017 SCT020 24/21 Q1015 NOSIG
12-10-09 LEBL 091830Z 19004KT 9999 FEW017 BKN022 24/21 Q1015 NOSIG
12-10-09 LEBL 091900Z 19004KT 9999 FEW017 BKN022 24/21 Q1015 NOSIG
12-10-09 LEBL 091930Z 19005KT 9999 FEW014 BKN023 24/21 Q1015 NOSIG
12-10-09 LEBL 092000Z 18004KT 9999 FEW014 BKN023 24/21 Q1015 NOSIG
12-10-09 LEBL 092030Z 18005KT 9999 FEW014 BKN023 24/21 Q1015 NOSIG
12-10-09 LEBL 092100Z 18004KT 9999 FEW011 BKN022 24/21 Q1015 NOSIG
12-10-09 LEBL 092130Z 19004KT 9999 FEW011 BKN018 24/21 Q1015 NOSIG
12-10-09 LEBL 092200Z 19003KT 9999 FEW011 BKN018 23/21 Q1015 NOSIG
12-10-09 LEBL 092230Z 30003KT 250V340 7000 SCT010 BKN018 22/20 Q1015 NOSIG
12-10-09 LEBL 092300Z 34003KT 6000 SCT010 22/20 Q1015 NOSIG
12-10-09 LEBL 092330Z 36002KT 6000 FEW010 21/19 Q1015 NOSIG
12-10-10 LEBL 100000Z 30002KT 8000 FEW007 21/19 Q1015 NOSIG
12-10-10 LEBL 100030Z NIL
12-10-10 LEBL 100030Z 34005KT 8000 FEW007 21/19 Q1015 NOSIG
12-10-10 LEBL 100100Z 32004KT 8000 FEW010 21/19 Q1014 NOSIG
12-10-10 LEBL 100130Z 32004KT 7000 FEW010 21/19 Q1014 NOSIG
12-10-10 LEBL 100200Z 33005KT 6000 FEW010 20/19 Q1014 NOSIG
12-10-10 LEBL 100230Z 33006KT 6000 FEW010 20/18 Q1014 NOSIG
12-10-10 LEBL 100300Z 33007KT 4000 BR FEW009 BKN012 20/19 Q1014 NOSIG
12-10-10 LEBL 100330Z 33006KT 5000 BR FEW006 BKN008 20/19 Q1014 NOSIG
12-10-10 LEBL 100400Z 33004KT 4000 BR FEW006 BKN007 21/19 Q1014 NOSIG
12-10-10 LEBL 100430Z 33007KT 4000 BR FEW006 BKN008 21/19 Q1014 NOSIG
12-10-10 LEBL 100500Z 33006KT 4000 BR FEW006 BKN008 21/19 Q1013 NOSIG
12-10-10 LEBL 100530Z 33006KT 270V010 4000 BR FEW007 BKN010 21/19 Q1014 NOSIG
12-10-10 LEBL 100600Z 33007KT 290V360 4000 BR FEW007 BKN010 21/19 Q1014 NOSIG
12-10-10 LEBL 100630Z 33006KT 290V360 5000 BR FEW008 SCT012 21/19 Q1014 NOSIG
12-10-10 LEBL 100700Z 33007G18KT 290V350 5000 BR FEW008 SCT014 21/19 Q1014 NOSIG
12-10-10 LEBL 100730Z 32005KT 290V350 7000 FEW010 SCT026 22/19 Q1014 NOSIG
12-10-10 LEBL 100800Z 33006KT 7000 SCT025 22/19 Q1014 NOSIG
12-10-10 LEBL 100830Z 34004KT 250V040 8000 SCT025 23/19 Q1015 NOSIG
12-10-10 LEBL 100900Z 36003KT 230V030 8000 FEW013 SCT031 24/19 Q1015 NOSIG
12-10-10 LEBL 100930Z 36002KT 9000 FEW013 SCT031 25/20 Q1015 NOSIG
12-10-10 LEBL NIL
12-10-10 LEBL 101000Z 12005KT 070V160 9999 FEW018 SCT031 25/20 Q1015 NOSIG
12-10-10 LEBL 101030Z 10005KT 060V150 9999 FEW018 SCT031 25/20 Q1015 NOSIG
12-10-10 LEBL 101100Z 12007KT 070V160 9999 FEW012 SCT031 25/21 Q1014 NOSIG
12-10-10 LEBL 101130Z 15008KT 9999 SCT015 25/20 Q1014 NOSIG
12-10-10 LEBL 101200Z 15007KT 9999 SCT015 25/21 Q1014 NOSIG
12-10-10 LEBL 101230Z 17007KT 150V210 9999 SCT030 26/20 Q1013 NOSIG
12-10-10 LEBL 101300Z 17007KT 140V200 9999 SCT030 25/20 Q1013 NOSIG
12-10-10 LEBL 101330Z 17007KT 150V210 9999 SCT030 25/20 Q1013 NOSIG
12-10-10 LEBL 101400Z 18007KT 9999 SCT015 25/20 Q1013 NOSIG
12-10-10 LEBL 101430Z 20007KT 9999 SCT015 24/21 Q1013 NOSIG
12-10-10 LEBL 101500Z 20007KT 160V220 9999 FEW012 SCT030 25/21 Q1012 NOSIG
12-10-10 LEBL 101530Z 19006KT 160V220 9999 FEW012 SCT030 25/21 Q1012 NOSIG
12-10-10 LEBL 101600Z 16004KT 130V200 9999 FEW012 SCT030 25/21 Q1012 NOSIG
12-10-10 LEBL 101630Z 19005KT 160V220 9999 FEW012 SCT030 24/21 Q1012 NOSIG
12-10-10 LEBL 101700Z 19003KT 9999 SCT030 24/21 Q1012 NOSIG
12-10-10 LEBL 101730Z 00000KT 9999 SCT030 24/20 Q1012 NOSIG
12-10-10 LEBL 101800Z 00000KT 9999 SCT030 24/21 Q1012 NOSIG
12-10-10 LEBL 101830Z VRB01KT 9999 SCT030 23/21 Q1012 NOSIG
12-10-10 LEBL 101900Z 21004KT 9999 SCT030 23/21 Q1013 NOSIG
12-10-10 LEBL 101930Z 22002KT 9999 SCT030 23/21 Q1013 NOSIG
12-10-10 LEBL 102000Z 00000KT 9999 RA SCT018 23/21 Q1012 NOSIG
12-10-10 LEBL 102030Z 09004KT 9999 -RA FEW018 SCT030 23/21 Q1012 NOSIG
12-10-10 LEBL 102100Z 20003KT 9000 FEW012 SCT026 BKN036 23/22 Q1012 RERA NOSIG
12-10-10 LEBL 102130Z 21002KT 8000 BKN014 SCT026 22/21 Q1013 NOSIG
12-10-10 LEBL 102200Z 30003KT 8000 BKN014 SCT030 22/21 Q1013 NOSIG
12-10-10 LEBL 102230Z 34001KT 7000 BKN014 SCT020 23/21 Q1012 NOSIG
12-10-10 LEBL 102300Z 32002KT 7000 BKN015 SCT020 23/21 Q1012 NOSIG
12-10-10 LEBL 102330Z 31005KT 5000 RA BKN015 SCT020 22/21 Q1012 NOSIG
12-10-10 LEBL 102350Z 28005KT 3000 TSRA SCT018CB BKN025 22/20 Q1013 NOSIG
12-10-11 LEBL 110000Z 28005KT 260V330 3000 TSRA SCT018CB BKN025 21/20 Q1012 NOSIG
12-10-11 LEBL 110030Z 19007KT 4000 VCTS RA SCT008 SCT015CB BKN017 22/21 Q1012 NOSIG
12-10-11 LEBL 110100Z 17004KT 4000 RA SCT008 SCT018 22/21 Q1011 RETS NOSIG
12-10-11 LEBL 110130Z 16002KT 5000 BR SCT008 SCT018 22/21 Q1010 RERA NOSIG
12-10-11 LEBL 110200Z 18003KT 8000 SCT010 SCT015 22/20 Q1010 NOSIG
12-10-11 LEBL 110230Z 26001KT 8000 SCT008 SCT015 21/20 Q1010 NOSIG
12-10-11 LEBL 110300Z 31010KT 8000 SCT008 SCT015 22/21 Q1011 NOSIG
12-10-11 LEBL NIL
12-10-11 LEBL 110330Z 35004KT 310V010 9000 SCT018 SCT055 22/20 Q1011 NOSIG
12-10-11 LEBL 110400Z 11002KT 9000 SCT018 22/20 Q1010 NOSIG
12-10-11 LEBL 110430Z 22003KT 200V260 8000 SCT018 21/19 Q1010 NOSIG
12-10-11 LEBL 110500Z 29004KT 8000 SCT018 21/20 Q1010 NOSIG
12-10-11 LEBL 110530Z VRB01KT 8000 SCT018 20/19 Q1009 NOSIG
12-10-11 LEBL 110600Z 31003KT 270V330 9000 SCT018 20/19 Q1009 NOSIG
12-10-11 LEBL 110630Z 31005G16KT 260V350 9999 SCT018 20/18 Q1010 NOSIG
12-10-11 LEBL 110700Z 31005KT 250V350 9999 FEW020 20/18 Q1010 NOSIG
12-10-11 LEBL 110730Z 32008G18KT 270V030 9999 FEW020 21/19 Q1010 NOSIG
12-10-11 LEBL 110800Z 36004KT 300V030 9999 FEW020 21/18 Q1009 NOSIG
12-10-11 LEBL 110830Z 29003KT 9999 FEW020 22/19 Q1009 NOSIG
12-10-11 LEBL 110900Z NIL
12-10-11 LEBL 110900Z 32003KT 260V010 9999 FEW020 23/19 Q1010 NOSIG
12-10-11 LEBL 110930Z 26004KT 9999 FEW020 24/20 Q1010 BECMG TSRA
12-10-11 LEBL 111000Z NIL
12-10-11 LEBL 111000Z 28007KT 240V320 3000 TSRA FEW018CB 23/19 Q1010 NOSIG
12-10-11 LEBL 111000Z 29007KT 240V330 3000 TSRA FEW018CB SCT030 23/19 Q1010 NOSIG
12-10-11 LEBL 111030Z 32008KT 290V350 6000 TSRA FEW017CB SCT045 23/19 Q1010 NOSIG
12-10-11 LEBL 111100Z VRB02KT 9999 -RA FEW020 22/19 Q1010 NOSIG
12-10-11 LEBL 111130Z 00000KT 9999 FEW020 23/19 Q1009 RERA NOSIG
12-10-11 LEBL 111200Z 33004KT 280V010 9999 FEW020 23/19 Q1009 NOSIG
12-10-11 LEBL 111230Z 29003KT 230V360 9999 FEW020 24/19 Q1009 NOSIG
12-10-11 LEBL 111300Z 30003KT 250V360 9999 -RA FEW020 SCT050 23/19 Q1009 NOSIG
12-10-11 LEBL 111400Z 25002KT 9999 FEW020 23/20 Q1008 RERA NOSIG
12-10-11 LEBL 111430Z 25009KT 220V280 9999 FEW020 23/20 Q1008 NOSIG
12-10-11 LEBL 111500Z NIL
12-10-11 LEBL 111500Z 25007KT 9999 FEW020 23/19 Q1007 NOSIG
12-10-11 LEBL 111530Z 23009KT 9999 FEW020 23/20 Q1008 NOSIG
12-10-11 LEBL 111600Z 23011KT 9999 FEW020 24/20 Q1008 NOSIG
12-10-11 LEBL 111630Z 22008KT 9999 FEW020 23/21 Q1007 NOSIG
12-10-11 LEBL 111700Z 22008KT 9999 FEW020 23/21 Q1008 NOSIG
12-10-11 LEBL 111730Z 23011KT 9999 FEW020 22/20 Q1008 NOSIG
12-10-11 LEBL 111800Z 25009KT 9999 FEW020 22/20 Q1008 NOSIG
12-10-11 LEBL 111830Z 24008KT 9999 FEW020 22/20 Q1009 NOSIG
12-10-11 LEBL 111900Z NIL
12-10-11 LEBL 111900Z 32003KT 260V040 9999 FEW020 21/19 Q1009 NOSIG
12-10-11 LEBL 111930Z VRB01KT 9999 FEW020 21/19 Q1009 NOSIG
12-10-11 LEBL 112000Z 35004KT 230V040 9999 FEW020 21/19 Q1009 NOSIG
12-10-11 LEBL 112030Z 35006KT 240V020 9999 FEW020 21/19 Q1010 NOSIG
12-10-11 LEBL 112100Z 32003KT 250V020 9999 FEW020 21/18 Q1010 NOSIG
12-10-11 LEBL 112130Z 30003KT 270V330 9999 FEW020 20/18 Q1010 NOSIG
12-10-11 LEBL 112200Z 32004KT 290V350 9999 FEW020 19/17 Q1010 NOSIG
12-10-11 LEBL 112230Z 35006KT 9999 FEW020 19/17 Q1010 NOSIG
12-10-11 LEBL 112300Z 02005KT 9999 FEW020 20/17 Q1011 NOSIG
12-10-11 LEBL 112330Z 35004KT 9999 FEW025 19/17 Q1011 NOSIG
12-10-12 LEBL 120000Z 33004KT 9999 FEW025 19/17 Q1010 NOSIG
12-10-12 LEBL 120030Z 33006KT 9999 FEW025 18/17 Q1010 NOSIG
12-10-12 LEBL 120100Z 32007KT 9999 FEW025 18/17 Q1010 NOSIG
12-10-12 LEBL 120130Z 33006KT 9999 FEW025 19/17 Q1010 NOSIG
12-10-12 LEBL 120200Z 33006KT 9999 FEW025 19/17 Q1010 NOSIG
12-10-12 LEBL 120230Z 33007KT 9999 FEW025 18/17 Q1010 NOSIG
12-10-12 LEBL 120300Z 33009KT 9999 FEW025 18/17 Q1010 NOSIG
12-10-12 LEBL 120330Z 33007KT 9999 FEW025 18/17 Q1011 NOSIG
12-10-12 LEBL 120400Z NIL
12-10-12 LEBL 120400Z 33007KT 9999 FEW025 18/17 Q1011 NOSIG
12-10-12 LEBL 120430Z 33007KT 9999 FEW030 18/17 Q1011 NOSIG
12-10-12 LEBL 120500Z 33006KT 9999 FEW030 18/17 Q1011 NOSIG
12-10-12 LEBL 120530Z 32007G18KT 300V360 9999 SCT030 18/17 Q1012 NOSIG
12-10-12 LEBL 120600Z 34006KT 300V360 9999 FEW020 SCT037 18/16 Q1012 NOSIG
12-10-12 LEBL 120630Z NIL
12-10-12 LEBL 120700Z 36006KT 310V100 9999 FEW020 SCT038 19/16 Q1012 NOSIG
12-10-12 LEBL 120730Z 32005KT 240V340 9999 FEW025 SCT040CB 19/15 Q1013 NOSIG
12-10-12 LEBL 120800Z 33008G21KT 270V030 9999 -RA VCTS FEW022 SCT038CB BKN052 19/16 Q1013 NOSIG
12-10-12 LEBL 120830Z 33003KT 250V020 9999 -RA VCTS FEW015 SCT020CB BKN040 19/16 Q1014 NOSIG
12-10-12 LEBL 120900Z 32001KT 9999 VCTS FEW015 SCT025CB BKN040 19/15 Q1014 RERA NOSIG
12-10-12 LEBL 120930Z 05004KT 360V100 9999 VCTS FEW020 SCT025CB BKN042 20/16 Q1014
12-10-12 LEBL 121000Z 00000KT 9999 VCTS FEW020 SCT030CB BKN042 21/15 Q1014 NOSIG
12-10-12 LEBL 121030Z 17004KT 9999 VCSH FEW020 SCT033CB BKN050 20/17 Q1015 NOSIG
12-10-12 LEBL 121046Z 19003KT 150V230 5000 +RA FEW009 SCT030CB BKN040 19/17 Q1015
12-10-12 LEBL 121100Z 21004KT 5000 R25L/1300VP2000N RA FEW014 SCT020CB BKN040 19/17
12-10-12 LEBL 121130Z 08006KT 3000 RA FEW007 SCT015CB BKN035 19/18 Q1015 NOSIG
12-10-12 LEBL 121140Z 09006KT 6000 RA FEW013 SCT020CB BKN040 19/17 Q1015 NOSIG
12-10-12 LEBL 121200Z 11005KT 6000 RA FEW015 SCT030CB BKN050 19/18 Q1015 NOSIG
12-10-12 LEBL 121230Z 09004KT 060V120 9999 FEW025 SCT035CB BKN055 19/18 Q1014 RERA
12-10-12 LEBL 121300Z VRB02KT 9999 FEW025 SCT035CB BKN055 20/18 Q1014 NOSIG
12-10-12 LEBL 121330Z 14004KT 100V170 9999 FEW025 SCT035CB BKN055 21/18 Q1014 NOSIG
12-10-12 LEBL 121400Z 14004KT 9999 FEW015 SCT025CB BKN040 21/18 Q1014 NOSIG
12-10-12 LEBL 121430Z 13005KT 110V170 9999 VCSH FEW015 SCT020CB BKN040 21/17 Q1014
12-10-12 LEBL 121500Z 13004KT 100V170 9999 VCSH FEW015 SCT020CB BKN040 21/17 Q1014
12-10-12 LEBL 121530Z 13005KT 9999 DZ FEW015 SCT020CB BKN040 21/17 Q1014 NOSIG
12-10-12 LEBL 121600Z 13003KT 100V160 9999 FEW015 SCT025CB BKN050 21/16 Q1014 NOSIG
12-10-12 LEBL 121630Z 11005KT 9999 DZ VCSH FEW018 SCT025CB BKN045 21/17 Q1014 NOSIG
12-10-12 LEBL 121700Z 11007KT 9999 RA FEW015 SCT023CB BKN054 21/16 Q1015 NOSIG
12-10-12 LEBL 121730Z 12003KT 090V250 9999 2000W +RA FEW015 SCT023CB BKN040 19/17
12-10-12 LEBL 121800Z 17005KT 130V200 5000 RA FEW010 SCT024CB BKN032 19/17 Q1015
12-10-12 LEBL 121830Z 00000KT 9999 -RA FEW013 SCT022CB BKN040 19/17 Q1016 NOSIG
12-10-12 LEBL 121900Z 09006KT 060V120 9999 -RA FEW013 SCT022CB BKN040 18/17 Q1016
12-10-12 LEBL 121930Z VRB02KT 6000 2000S RA FEW013 SCT020CB BKN043 18/16 Q1016
12-10-12 LEBL 122000Z 28001KT 5000 RA FEW012 SCT020CB BKN030 18/17 Q1016 NOSIG
12-10-12 LEBL 122030Z 33003KT 290V010 6000 RA FEW020 SCT030CB BKN050 18/17 Q1016
12-10-12 LEBL 122100Z 33006KT 280V350 9000 RA FEW020 SCT030 BKN055 17/16 Q1016
12-10-12 LEBL 122130Z 34006KT 9000 RA FEW020 SCT030 17/16 Q1016 NOSIG
12-10-12 LEBL 122200Z VRB01KT 9999 FEW020 SCT030 17/16 Q1016 RERA NOSIG
12-10-12 LEBL 122230Z 33004KT 9999 FEW020 SCT030 17/16 Q1015 NOSIG
12-10-12 LEBL 122300Z 33005KT 9999 FEW020 SCT030 17/16 Q1015 NOSIG
12-10-12 LEBL 122330Z 32007KT 9999 FEW020 SCT030 17/16 Q1015 NOSIG
12-10-13 LEBL 130000Z 33006KT 9999 SCT035 17/16 Q1015 NOSIG
12-10-13 LEBL 130030Z 33007KT 9999 SCT035 17/16 Q1014 NOSIG
12-10-13 LEBL 130100Z 31006KT 9999 SCT035 17/16 Q1014 NOSIG
12-10-13 LEBL 130130Z 33005KT 9999 SCT038 17/16 Q1014 NOSIG
12-10-13 LEBL 130200Z 32003KT 9999 SCT030 17/16 Q1014 NOSIG
12-10-13 LEBL 130230Z 32003KT 9999 VCTS SCT025CB BKN045 17/16 Q1014 NOSIG
12-10-13 LEBL 130300Z 29003KT 9999 VCSH SCT025CB BKN045 17/16 Q1014 NOSIG
12-10-13 LEBL 130330Z 29002KT 9999 VCSH SCT025CB BKN045 17/16 Q1014 NOSIG
12-10-13 LEBL 130400Z 30004KT 9999 VCSH SCT025CB BKN055 17/16 Q1014 NOSIG
12-10-13 LEBL 130430Z 32003KT 9999 VCSH SCT020CB BKN055 17/16 Q1014 NOSIG
12-10-13 LEBL 130500Z 31006KT 280V340 9999 -RA SCT020CB BKN055 17/16 Q1014 NOSIG
12-10-13 LEBL 130530Z 32005KT 9999 SCT020 17/16 Q1014 RERA NOSIG
12-10-13 LEBL 130600Z 35006KT 310V020 9999 VCSH FEW015 SCT020CB BKN047 17/16 Q1014 NOSIG
12-10-13 LEBL 130630Z 05006KT 350V080 9999 VCSH FEW015 SCT020CB BKN030 17/16 Q1014
12-10-13 LEBL 130700Z 04006KT 350V080 9999 FEW011 BKN030 17/15 Q1014 NOSIG
12-10-13 LEBL 130730Z 33003KT 9999 RA FEW011 BKN030 17/14 Q1014 NOSIG
12-10-13 LEBL NIL
12-10-13 LEBL 130800Z 33010KT 280V350 9999 FEW025 SCT037 17/13 Q1015 RERA NOSIG
12-10-13 LEBL 130830Z 33007KT 270V010 9999 FEW025 SCT037 17/12 Q1015 NOSIG
12-10-13 LEBL 130900Z 33006KT 9999 FEW030 17/13 Q1015 NOSIG
12-10-13 LEBL 130930Z 32005KT 9999 SCT030 18/13 Q1015 NOSIG
12-10-13 LEBL 131000Z 32002KT 9999 FEW028 18/13 Q1015 NOSIG
12-10-13 LEBL 131030Z 14003KT 110V170 9999 FEW025 19/14 Q1015 NOSIG
12-10-13 LEBL 131100Z VRB02KT 9999 FEW014 SCT025 19/15 Q1014 NOSIG
12-10-13 LEBL 131130Z 20007KT 170V240 9999 FEW014 SCT035 20/16 Q1014 NOSIG
12-10-13 LEBL 131200Z 20008KT 170V230 9999 SCT015 20/15 Q1014 NOSIG
12-10-13 LEBL 131230Z 20009KT 9999 SCT015 21/15 Q1014 NOSIG
12-10-13 LEBL 131300Z 21011KT 9999 FEW024 20/14 Q1014 NOSIG
12-10-13 LEBL 131330Z 20011KT 9999 FEW025 21/15 Q1013 NOSIG
12-10-13 LEBL 131400Z 19012KT 9999 FEW025 21/15 Q1013 NOSIG
12-10-13 LEBL 131430Z 21012KT 9999 FEW025 21/15 Q1013 NOSIG
12-10-13 LEBL 131500Z 21013KT 9999 FEW028 21/14 Q1012 NOSIG
12-10-13 LEBL 131530Z 22012KT 9999 FEW028 21/13 Q1012 NOSIG
12-10-13 LEBL 131600Z 22011KT 9999 FEW025 21/12 Q1012 NOSIG
12-10-13 LEBL 131630Z 22009KT 9999 FEW025 21/12 Q1013 NOSIG
12-10-13 LEBL 131700Z 22007KT 9999 FEW025 20/12 Q1013 NOSIG
12-10-13 LEBL 131730Z 22004KT 170V240 9999 FEW025 20/14 Q1013 NOSIG
12-10-13 LEBL 131800Z VRB02KT 9999 FEW025 20/14 Q1013 NOSIG
12-10-13 LEBL 131830Z VRB02KT 9999 FEW025 19/14 Q1013 NOSIG
12-10-13 LEBL 131900Z VRB02KT 9999 FEW025 19/13 Q1013 NOSIG
12-10-13 LEBL 131930Z 00000KT 9999 FEW025 19/14 Q1013 NOSIG
12-10-13 LEBL 132000Z 32003KT 280V350 9999 FEW025 18/14 Q1013 NOSIG
12-10-13 LEBL 132030Z NIL
12-10-13 LEBL 132030Z 31004KT 280V350 9999 FEW025 17/14 Q1013 NOSIG
12-10-13 LEBL 132100Z 32005KT 280V020 9999 FEW025 17/13 Q1013 NOSIG
12-10-13 LEBL 132130Z 31003KT 9999 FEW025 16/13 Q1013 NOSIG
12-10-13 LEBL 132200Z 33004KT 300V010 9999 FEW025 16/13 Q1013 NOSIG
12-10-13 LEBL 132230Z 32007KT 9999 FEW025 16/13 Q1013 NOSIG
12-10-13 LEBL 132300Z 31009KT 9999 FEW025 16/13 Q1013 NOSIG
12-10-13 LEBL 132330Z 32008KT 9999 FEW025 16/13 Q1013 NOSIG
12-10-14 LEBL 140000Z 32009KT 9999 FEW025 15/13 Q1012 NOSIG
12-10-14 LEBL 140030Z 31008KT 9999 FEW025 15/12 Q1012 NOSIG
12-10-14 LEBL 140100Z NIL
12-10-14 LEBL 140100Z 32006KT 9999 FEW025 15/12 Q1012 NOSIG
12-10-14 LEBL 140130Z 33007KT 9999 FEW025 15/11 Q1012 NOSIG
12-10-14 LEBL 140200Z 33004KT 300V010 9999 FEW025 14/11 Q1011 NOSIG
12-10-14 LEBL 140230Z NIL
12-10-14 LEBL 140300Z NIL
12-10-14 LEBL 140330Z NIL
12-10-14 LEBL 140330Z 33004KT 9999 FEW025 14/11 Q1010 NOSIG
12-10-14 LEBL 140400Z 33004KT 300V010 9999 FEW025 14/11 Q1010 NOSIG
12-10-14 LEBL 140430Z 34005KT 310V020 9999 FEW025 14/11 Q1010 NOSIG
12-10-14 LEBL 140500Z 34003KT 300V020 9999 FEW025 14/11 Q1010 NOSIG
12-10-14 LEBL 140530Z 31007KT 9999 FEW025 14/11 Q1009 NOSIG
12-10-14 LEBL 140600Z 31008G18KT 9999 FEW025 14/11 Q1009 NOSIG
12-10-14 LEBL 140630Z 30007KT 250V320 9999 FEW025 14/11 Q1009 NOSIG
12-10-14 LEBL 140700Z 29008KT 250V330 9999 FEW025 14/11 Q1009 NOSIG
12-10-14 LEBL 140730Z 30010KT 9999 FEW025 15/11 Q1009 NOSIG
12-10-14 LEBL 140800Z 30007G17KT 270V350 9999 FEW025 16/12 Q1009 NOSIG
12-10-14 LEBL 140830Z 29006KT 260V320 9999 FEW025 20/15 Q1009 NOSIG
12-10-14 LEBL NIL
12-10-14 LEBL 140900Z 25008KT 220V300 9999 FEW025 21/17 Q1008 NOSIG
12-10-14 LEBL 140930Z 23012KT 9999 FEW025 21/16 Q1008 NOSIG
12-10-14 LEBL 141000Z 24012KT 9999 FEW025 21/16 Q1007 NOSIG
12-10-14 LEBL 141030Z 28008KT 240V340 9999 FEW025 22/16 Q1007 NOSIG
12-10-14 LEBL 141100Z 22015KT 9999 FEW025 22/15 Q1007 NOSIG
12-10-14 LEBL 141130Z 23018KT 9999 FEW025 22/16 Q1006 NOSIG
12-10-14 LEBL 141200Z 23016KT 9999 FEW025 22/17 Q1006 NOSIG
12-10-14 LEBL 141230Z 24017KT 9999 FEW025 23/16 Q1005 NOSIG
12-10-14 LEBL 141300Z 24017KT 9999 FEW025 22/14 Q1004 NOSIG
12-10-14 LEBL 141330Z 24019KT 9999 FEW025 23/15 Q1004 NOSIG
12-10-14 LEBL 141400Z 24016KT 9999 FEW025 23/16 Q1004 NOSIG
12-10-14 LEBL 141430Z 22016KT 9999 FEW025 23/15 Q1003 NOSIG
12-10-14 LEBL 141500Z 23018KT 9999 FEW025 23/14 Q1003 NOSIG
12-10-14 LEBL 141530Z 22017KT 9999 FEW025 23/14 Q1003 NOSIG
12-10-14 LEBL 141600Z 23015KT 9999 FEW025 22/12 Q1003 NOSIG
12-10-14 LEBL 141630Z 23015KT 9999 FEW022 22/13 Q1003 NOSIG
12-10-14 LEBL 141700Z 24014KT 9999 FEW022 22/14 Q1003 NOSIG
12-10-14 LEBL 141730Z 25009KT 9999 FEW020 21/14 Q1003 NOSIG
12-10-14 LEBL 141800Z 26008KT 9999 FEW020 SCT055 21/14 Q1003 NOSIG
12-10-14 LEBL 141830Z 26006KT 230V290 9999 FEW020 SCT055 20/14 Q1003 NOSIG
12-10-14 LEBL 141900Z 33004KT 250V360 9999 FEW020 SCT055 20/12 Q1003 NOSIG
12-10-14 LEBL 141930Z 35004KT 9999 FEW020 SCT055 21/13 Q1003 TEMPO SHRA
12-10-14 LEBL 142000Z 33008KT 290V360 9999 FEW020 SCT039 21/10 Q1004 TEMPO SHRA
12-10-14 LEBL 142030Z 34011G22KT 320V020 9999 FEW020 SCT039 20/10 Q1004 TEMPO SHRA
12-10-14 LEBL 142100Z 32013KT 9999 FEW020 SCT039 19/11 Q1004 TEMPO SHRA
12-10-14 LEBL 142130Z 32017KT 9999 FEW020 SCT039 18/11 Q1003 TEMPO SHRA
12-10-14 LEBL 142200Z 33017KT 300V360 9999 FEW020 SCT039 18/12 Q1004 TEMPO SHRA
12-10-14 LEBL 142230Z 33014KT 9999 RA FEW020 SCT039 17/13 Q1004 NOSIG
12-10-14 LEBL 142300Z 33008KT 9999 RA FEW020 SCT040 17/12 Q1003 NOSIG
12-10-14 LEBL 142330Z 32006KT 300V360 9999 FEW020 SCT040 17/13 Q1004 RERA NOSIG
12-10-15 LEBL 150000Z 35009KT 310V020 9999 FEW020 SCT040 17/12 Q1004 NOSIG
12-10-15 LEBL 150030Z 31006KT 280V340 9999 FEW020 SCT040 16/11 Q1005 NOSIG
12-10-15 LEBL 150100Z 34008KT 9999 SCT025 16/10 Q1005 NOSIG
12-10-15 LEBL 150130Z 33006KT 9999 SCT025 16/10 Q1005 NOSIG
12-10-15 LEBL 150200Z 31008KT 9999 SCT025 15/09 Q1005 NOSIG
12-10-15 LEBL 150230Z 30006KT 9999 SCT025 15/09 Q1005 NOSIG
12-10-15 LEBL 150300Z 30005KT 9999 SCT025 15/09 Q1005 NOSIG
12-10-15 LEBL 150330Z 32007KT 9999 SCT025 14/10 Q1005 NOSIG
12-10-15 LEBL 150400Z 35007KT 9999 FEW025 14/10 Q1006 NOSIG
12-10-15 LEBL 150430Z 33009KT 9999 FEW025 14/09 Q1007 NOSIG
12-10-15 LEBL NIL
12-10-15 LEBL 150500Z 33011KT 9999 FEW030 14/09 Q1007 NOSIG
12-10-15 LEBL 150530Z 31010KT 9999 FEW026 SCT034 14/09 Q1008 NOSIG
12-10-15 LEBL 150600Z 32008KT 270V360 9999 FEW025 SCT030 14/09 Q1007 NOSIG
12-10-15 LEBL 150630Z 32010KT 290V010 9999 FEW032 13/08 Q1007 NOSIG
12-10-15 LEBL 150700Z 32012KT 9999 BKN032 14/09 Q1008 NOSIG
12-10-15 LEBL 150730Z 31010KT 270V350 9999 FEW036 14/09 Q1008 NOSIG
12-10-15 LEBL 150800Z 33010KT 300V360 9999 FEW036 15/09 Q1009 NOSIG
12-10-15 LEBL 150830Z 32011KT 270V350 9999 FEW036 15/08 Q1009 NOSIG
12-10-15 LEBL 150900Z 32013KT 270V360 9999 FEW040 16/09 Q1010 NOSIG
12-10-15 LEBL 150930Z 32009G19KT 280V360 9999 FEW040 17/09 Q1010 NOSIG
12-10-15 LEBL 151000Z 32011G21KT 280V350 CAVOK 17/09 Q1010 NOSIG
12-10-15 LEBL 151030Z 33007KT 290V360 CAVOK 18/07 Q1010 NOSIG
12-10-15 LEBL 151100Z 31006KT 9999 FEW025 19/08 Q1010 NOSIG
12-10-15 LEBL 151130Z 33007KT 280V020 9999 FEW025 19/06 Q1010 NOSIG
12-10-15 LEBL 151200Z 30011KT 9999 FEW025 20/07 Q1010 NOSIG
12-10-15 LEBL 151230Z 31011KT 280V350 9999 FEW025 20/05 Q1010 NOSIG
12-10-15 LEBL 151300Z 24004KT 9999 FEW025 21/10 Q1009 NOSIG
12-10-15 LEBL 151330Z 21009KT 180V250 9999 FEW025 20/10 Q1009 NOSIG
12-10-15 LEBL 151400Z 21010KT 9999 FEW025 21/09 Q1010 NOSIG
12-10-15 LEBL 151430Z 21011KT 9999 FEW025 21/09 Q1010 NOSIG
12-10-15 LEBL 151500Z 22014KT 9999 FEW025 21/10 Q1010 NOSIG
12-10-15 LEBL 151530Z 21014KT 9999 FEW025 21/08 Q1010 NOSIG
12-10-15 LEBL 151600Z 24007KT 170V290 9999 FEW025 22/03 Q1010 NOSIG
12-10-15 LEBL 151630Z 33008KT 260V360 9999 FEW025 21/06 Q1010 NOSIG
12-10-15 LEBL 151700Z 27004KT 220V290 9999 FEW025 20/07 Q1011 NOSIG
12-10-15 LEBL 151730Z 28005KT 250V330 9999 FEW030 20/06 Q1011 NOSIG
12-10-15 LEBL 151800Z 32006KT 290V350 9999 FEW030 19/05 Q1012 NOSIG
12-10-15 LEBL 151830Z 30005KT 210V340 9999 FEW030 19/05 Q1012 NOSIG
12-10-15 LEBL 151900Z 28005KT 9999 FEW030 18/05 Q1012 NOSIG
12-10-15 LEBL 151930Z VRB02KT 9999 FEW030 17/07 Q1013 NOSIG
12-10-15 LEBL 152000Z VRB06KT 9999 FEW030 17/07 Q1013 NOSIG
12-10-15 LEBL 152030Z VRB02KT 9999 FEW030 17/06 Q1013 NOSIG
12-10-15 LEBL 152100Z 36005KT 320V040 9999 FEW030 17/07 Q1014 NOSIG
12-10-15 LEBL 152130Z 34006KT 9999 FEW030 15/08 Q1014 NOSIG
12-10-15 LEBL 152200Z VRB02KT 9999 FEW030 15/08 Q1014 NOSIG
12-10-15 LEBL 152230Z VRB02KT 9999 FEW030 15/08 Q1014 NOSIG
12-10-15 LEBL 152300Z 29005KT 190V340 9999 FEW030 14/08 Q1014 NOSIG
12-10-15 LEBL 152330Z 33005KT 9999 FEW030 15/08 Q1014 NOSIG
12-10-16 LEBL 160000Z 33005KT 9999 FEW030 14/08 Q1014 NOSIG
12-10-16 LEBL 160030Z 33007KT 9999 FEW030 13/08 Q1014 NOSIG
12-10-16 LEBL 160100Z 33007KT 9999 FEW030 13/08 Q1014 NOSIG
12-10-16 LEBL 160130Z 33007KT 9999 FEW030 13/08 Q1014 NOSIG
12-10-16 LEBL 160200Z 32007KT 9999 FEW030 13/07 Q1014 NOSIG
12-10-16 LEBL 160230Z 33008KT 9999 FEW030 13/07 Q1014 NOSIG
12-10-16 LEBL 160300Z 33008KT 9999 FEW030 13/07 Q1014 NOSIG
12-10-16 LEBL 160330Z 32009KT 9999 FEW030 13/07 Q1014 NOSIG
12-10-16 LEBL 160400Z 32011KT 9999 FEW030 12/07 Q1014 NOSIG
12-10-16 LEBL 160430Z 32008KT 9999 FEW030 12/07 Q1014 NOSIG
12-10-16 LEBL 160500Z 32007KT 9999 FEW030 12/07 Q1014 NOSIG
12-10-16 LEBL 160530Z 32009KT 9999 FEW030 12/07 Q1014 NOSIG
12-10-16 LEBL 160600Z 32010KT 9999 FEW030 12/07 Q1015 NOSIG
12-10-16 LEBL 160630Z 32009G19KT 9999 FEW030 12/07 Q1015 NOSIG
12-10-16 LEBL 160700Z 33010KT 9999 FEW030 12/07 Q1015 NOSIG
12-10-16 LEBL 160730Z 33013KT 9999 FEW030 13/07 Q1016 NOSIG
12-10-16 LEBL 160800Z NIL
12-10-16 LEBL 160800Z 32013KT 280V340 9999 FEW030 13/07 Q1016 NOSIG
12-10-16 LEBL 160830Z 33012KT 9999 FEW030 15/07 Q1016 NOSIG
12-10-16 LEBL 160900Z 32009KT 9999 FEW030 16/07 Q1016 NOSIG
12-10-16 LEBL 160930Z 32009KT 280V010 9999 FEW030 17/07 Q1016 NOSIG
12-10-16 LEBL 161000Z 31005KT 270V340 9999 FEW030 18/08 Q1016 NOSIG
12-10-16 LEBL 161030Z 30004KT 250V010 9999 FEW030 19/08 Q1016 NOSIG
12-10-16 LEBL 161100Z NIL
12-10-16 LEBL 161100Z 30004KT 250V010 9999 FEW030 19/08 Q1016 NOSIG
12-10-16 LEBL 161130Z 24015KT 9999 FEW030 22/05 Q1016 NOSIG
12-10-16 LEBL 161200Z 24017KT 9999 FEW030 22/06 Q1015 NOSIG
12-10-16 LEBL 161230Z 22017KT 9999 FEW030 22/06 Q1015 NOSIG
12-10-16 LEBL 161300Z 23014KT 9999 FEW030 22/06 Q1015 NOSIG
12-10-16 LEBL 161330Z 22016KT 9999 FEW030 22/06 Q1015 NOSIG
12-10-16 LEBL 161400Z 22015KT 9999 FEW030 22/08 Q1015 NOSIG
12-10-16 LEBL 161430Z 23014KT 9999 FEW030 22/07 Q1014 NOSIG
12-10-16 LEBL 161500Z 22015KT 9999 FEW030 21/08 Q1014 NOSIG
12-10-16 LEBL 161530Z 23014KT 9999 FEW030 21/09 Q1014 NOSIG
12-10-16 LEBL 161600Z 23013KT 9999 FEW030 21/10 Q1014 NOSIG
12-10-16 LEBL 161630Z 23013KT 9999 FEW030 21/11 Q1014 NOSIG
12-10-16 LEBL 161700Z 23010KT 9999 FEW030 20/12 Q1014 NOSIG
12-10-16 LEBL 161730Z 24008KT 9999 FEW030 20/12 Q1014 NOSIG
12-10-16 LEBL 161800Z 26008KT 9999 FEW030 19/11 Q1015 NOSIG
12-10-16 LEBL 161830Z 25007KT 9999 FEW030 19/12 Q1015 NOSIG
12-10-16 LEBL 161900Z 25008KT 9999 FEW030 19/12 Q1015 NOSIG
12-10-16 LEBL 161930Z 26005KT 9999 FEW030 18/13 Q1015 NOSIG
12-10-16 LEBL 162000Z 29004KT 260V340 9999 FEW035 19/13 Q1015 NOSIG
12-10-16 LEBL 162030Z 27003KT 9999 FEW035 18/13 Q1015 NOSIG
12-10-16 LEBL 162100Z 29004KT 230V340 9999 FEW033 18/13 Q1015 NOSIG
12-10-16 LEBL 162130Z 30005KT 9999 FEW030 17/13 Q1015 NOSIG
12-10-16 LEBL 162200Z 31005KT 9999 FEW030 17/12 Q1015 NOSIG
12-10-16 LEBL 162230Z 33005KT 9999 FEW030 16/12 Q1015 NOSIG
12-10-16 LEBL 162300Z 32007KT 9999 FEW030 16/12 Q1015 NOSIG
12-10-16 LEBL 162330Z 32007KT 9999 FEW030 16/12 Q1015 NOSIG
12-10-17 LEBL 170000Z 32007KT 9999 FEW030 16/12 Q1015 NOSIG
12-10-17 LEBL 170030Z 32006KT 9999 FEW030 16/12 Q1014 NOSIG
12-10-17 LEBL 170100Z 33007KT 9999 FEW030 16/12 Q1014 NOSIG
12-10-17 LEBL 170130Z 32007KT 9999 FEW030 15/12 Q1014 NOSIG
12-10-17 LEBL 170200Z 33009KT 9999 FEW028 SCT043 16/11 Q1014 NOSIG
12-10-17 LEBL 170230Z 33008KT 9999 FEW028 SCT043 16/11 Q1014 NOSIG
12-10-17 LEBL 170300Z 33010KT 9999 SCT030 SCT045 16/11 Q1014 NOSIG
12-10-17 LEBL 170330Z 33008KT 9999 SCT025 SCT045 16/10 Q1013 NOSIG
12-10-17 LEBL 170400Z 33010KT 9999 SCT025 SCT045 16/11 Q1013 NOSIG
12-10-17 LEBL 170430Z 33009KT 9999 SCT025 SCT045 16/11 Q1014 NOSIG
12-10-17 LEBL 170500Z 33008KT 9999 SCT025 SCT050 16/10 Q1014 NOSIG
12-10-17 LEBL 170530Z 33008KT 310V060 9999 SCT028 SCT045 16/10 Q1014 NOSIG
12-10-17 LEBL 170600Z 31005KT 280V350 9999 SCT028 BKN045 15/11 Q1014 NOSIG
12-10-17 LEBL 170630Z 32006KT 260V020 9999 SCT025 BKN035 15/10 Q1014 NOSIG
12-10-17 LEBL 170700Z 32007KT 290V350 9999 SCT025 BKN035 16/10 Q1015 NOSIG
12-10-17 LEBL 170730Z 32008KT 290V010 9999 SCT025 16/10 Q1015 NOSIG
12-10-17 LEBL 170800Z 32006KT 260V360 9999 SCT025 17/11 Q1015 NOSIG
12-10-17 LEBL 170830Z 33004KT 290V030 9999 SCT025 18/12 Q1015 NOSIG
12-10-17 LEBL 170900Z 33004KT 290V020 9999 SCT025 20/13 Q1015 NOSIG
12-10-17 LEBL 170930Z 27004KT 9999 FEW025 23/15 Q1015 NOSIG
12-10-17 LEBL 171000Z 20010KT 9999 FEW025 23/14 Q1015 NOSIG
12-10-17 LEBL 171030Z 20009KT 170V230 9999 FEW025 SCT040 23/14 Q1015 NOSIG
12-10-17 LEBL 171100Z 20008KT 9999 FEW025 SCT040 23/16 Q1015 NOSIG
12-10-17 LEBL 171130Z 21007KT 180V240 9999 FEW020 SCT035 23/15 Q1015 NOSIG
12-10-17 LEBL 171200Z 20009KT 150V230 9999 FEW025 24/15 Q1014 NOSIG
12-10-17 LEBL 171230Z 19007KT 160V220 9999 FEW025 24/15 Q1014 NOSIG
12-10-17 LEBL 171300Z 18006KT 150V210 9999 FEW025 23/15 Q1014 NOSIG
12-10-17 LEBL 171330Z 16007KT 120V200 9999 SCT030 23/15 Q1013 NOSIG
12-10-17 LEBL 171400Z 14007KT 9999 FEW025 23/16 Q1013 NOSIG
12-10-17 LEBL 171430Z 14007KT 100V170 9999 FEW025 23/15 Q1013 NOSIG
12-10-17 LEBL 171500Z 14005KT 100V190 9999 FEW025 23/15 Q1013 NOSIG
12-10-17 LEBL 171530Z 11006KT 9999 FEW025 23/15 Q1013 NOSIG
12-10-17 LEBL 171600Z 11006KT 9999 FEW025 23/14 Q1012 NOSIG
12-10-17 LEBL 171630Z 09006KT 9999 FEW025 22/15 Q1012 NOSIG
12-10-17 LEBL NIL
12-10-17 LEBL 171700Z 09005KT 9999 FEW025 22/15 Q1012 NOSIG
12-10-17 LEBL 171730Z 08004KT 9999 FEW025 22/16 Q1012 NOSIG
12-10-17 LEBL 171800Z 07004KT 040V100 9999 FEW025 22/17 Q1012 NOSIG
12-10-17 LEBL 171830Z NIL
12-10-17 LEBL 171830Z 05008KT 010V070 9999 FEW025 21/17 Q1012 NOSIG
12-10-17 LEBL 171900Z 05010KT 9999 FEW025 21/17 Q1012 NOSIG
12-10-17 LEBL 171930Z 04007KT 9999 FEW025 21/16 Q1012 NOSIG
12-10-17 LEBL 172000Z 04008G20KT 350V120 9999 FEW025 21/16 Q1012 NOSIG
12-10-17 LEBL 172030Z 04008KT 9999 FEW025 21/16 Q1012 NOSIG
12-10-17 LEBL 172100Z 03006KT 9999 FEW020 21/16 Q1013 NOSIG
12-10-17 LEBL 172130Z NIL
12-10-17 LEBL 172200Z 04009KT 9999 FEW015 SCT040 21/18 Q1012 NOSIG
12-10-17 LEBL 172230Z 09006KT 9999 FEW015 SCT034 21/19 Q1012 NOSIG
12-10-17 LEBL 172300Z 08007KT 9999 FEW015 SCT034 22/19 Q1012 NOSIG
12-10-17 LEBL 172330Z 04010KT 9999 FEW015 SCT034 21/18 Q1012 NOSIG
12-10-18 LEBL 180000Z 05008KT 9999 FEW015 BKN034 21/19 Q1012 NOSIG
12-10-18 LEBL 180030Z 05009KT 9999 FEW015 BKN039 21/19 Q1012 NOSIG
12-10-18 LEBL 180100Z 05010KT 9999 FEW015 BKN039 21/19 Q1012 NOSIG
12-10-18 LEBL 180130Z 04011KT 9999 FEW015 BKN039 21/19 Q1011 NOSIG
12-10-18 LEBL 180200Z 04010KT 9999 FEW015 BKN039 21/19 Q1011 NOSIG
12-10-18 LEBL 180230Z 03010KT 9999 FEW015 BKN039 20/18 Q1011 NOSIG
12-10-18 LEBL 180300Z 03010KT 9999 FEW015 BKN030 20/18 Q1010 NOSIG
12-10-18 LEBL 180330Z 03009KT 9999 FEW015 BKN030 20/18 Q1010 NOSIG
12-10-18 LEBL 180400Z 03010KT 9999 FEW015 SCT030 20/18 Q1010 NOSIG
12-10-18 LEBL 180430Z 03011KT 9999 FEW015 SCT030 20/18 Q1010 NOSIG
12-10-18 LEBL 180500Z 04010KT 9999 FEW009 SCT020 20/18 Q1010 NOSIG
12-10-18 LEBL 180530Z 04011KT 9999 FEW009 SCT032 20/18 Q1010 NOSIG
12-10-18 LEBL 180600Z 04012KT 8000 FEW012 BKN036 21/20 Q1010 NOSIG
12-10-18 LEBL 180630Z 04012KT 7000 SCT008 BKN036 21/20 Q1010 NOSIG
12-10-18 LEBL 180700Z 04011KT 7000 FEW010 BKN015 21/20 Q1010 NOSIG
12-10-18 LEBL 180730Z 04012KT 7000 FEW006 BKN016 22/20 Q1010 NOSIG
12-10-18 LEBL 180800Z 05014KT 7000 FEW010 BKN016 22/20 Q1010 NOSIG
12-10-18 LEBL 180830Z 05015KT 7000 FEW008 BKN015 22/20 Q1010 NOSIG
12-10-18 LEBL 180900Z 06015KT 7000 FEW008 BKN015 23/20 Q1010 NOSIG
12-10-18 LEBL 180930Z 05015KT 6000 BKN007 23/21 Q1010 NOSIG
12-10-18 LEBL 181000Z 05015KT 6000 SCT008 SCT025 23/21 Q1010 NOSIG
12-10-18 LEBL 181013Z 06016KT 4000 BR SCT010 SCT028 23/20 Q1010 NOSIG
12-10-18 LEBL 181030Z 05018KT 7000 FEW010 BKN028 23/21 Q1010 NOSIG
12-10-18 LEBL 181100Z 06016KT 7000 FEW008 BKN028 23/21 Q1010 NOSIG
12-10-18 LEBL 181130Z 05016KT 6000 FEW014 BKN030 23/21 Q1009 NOSIG
12-10-18 LEBL 181200Z 05016KT 7000 FEW008 SCT028 23/21 Q1009 NOSIG
12-10-18 LEBL 181230Z 05016KT 7000 FEW008 SCT024 24/21 Q1009 NOSIG
12-10-18 LEBL 181300Z 05015KT 7000 FEW008 SCT028 23/20 Q1009 NOSIG
12-10-18 LEBL 181330Z 05015KT 6000 FEW008 BKN020 23/21 Q1009 NOSIG
12-10-18 LEBL 181400Z 06017KT 7000 FEW005 SCT023 24/21 Q1008 NOSIG
12-10-18 LEBL 181430Z 05016KT 7000 FEW008 SCT021 23/20 Q1008 NOSIG
12-10-18 LEBL 181500Z 06018KT 7000 FEW008 SCT017 23/20 Q1008 NOSIG
12-10-18 LEBL NIL
12-10-18 LEBL 181530Z 05018KT 7000 FEW008 SCT016 23/20 Q1008 NOSIG
12-10-18 LEBL 181600Z 06016KT 7000 FEW008 SCT017 23/20 Q1008 NOSIG
12-10-18 LEBL 181630Z 05017KT 7000 FEW018 23/20 Q1009 NOSIG
12-10-18 LEBL 181700Z 05015KT 7000 FEW018 SCT050 23/20 Q1009 NOSIG
12-10-18 LEBL 181730Z 06014KT 7000 FEW018 SCT050 23/20 Q1009 NOSIG
12-10-18 LEBL 181800Z 05014KT 7000 FEW018 23/20 Q1009 NOSIG
12-10-18 LEBL 181830Z 06013KT 8000 FEW018 23/20 Q1009 NOSIG
12-10-18 LEBL 181900Z 06012KT 8000 SCT018 23/20 Q1009 NOSIG
12-10-18 LEBL 181930Z 08011KT 8000 SCT018 23/21 Q1010 NOSIG
12-10-18 LEBL 182000Z 07010KT 8000 SCT020 23/20 Q1010 NOSIG
12-10-18 LEBL 182030Z 06012KT 8000 SCT020 23/21 Q1010 NOSIG
12-10-18 LEBL 182100Z 06008KT 5000 RA BKN018 23/21 Q1011 NOSIG
12-10-18 LEBL 182130Z 05013KT 6000 -RA SCT020 22/20 Q1010 NOSIG
12-10-18 LEBL 182200Z 06019KT 6000 -RA SCT020 22/20 Q1011 NOSIG
12-10-18 LEBL 182230Z 05021KT 6000 SCT020 22/20 Q1010 RERA NOSIG
12-10-18 LEBL 182300Z 07016KT 6000 SCT020 22/20 Q1012 RERA NOSIG
12-10-18 LEBL 182330Z NIL
12-10-19 LEBL 190000Z NIL
12-10-19 LEBL 190000Z 06019KT 6000 BKN020 21/20 Q1011 NOSIG
12-10-19 LEBL 190030Z 05019KT 6000 R25R/1400N -RA SCT020 21/20 Q1011 NOSIG
12-10-19 LEBL 190100Z 06019KT 030V090 6000 R25R/1300N -RA SCT020 21/20 Q1011 NOSIG
12-10-19 LEBL 190130Z 06019KT 6000 R25R/1200N -RA SCT020 21/20 Q1011 NOSIG
12-10-19 LEBL 190200Z 05020KT 6000 R25R/1300N -RA SCT020 21/20 Q1010 NOSIG
12-10-19 LEBL 190230Z 05016KT 6000 R25R/1200N -RA SCT008 21/20 Q1010 NOSIG
12-10-19 LEBL 190300Z 05019KT 6000 R25R/1200N DZ SCT008 21/20 Q1010 NOSIG
12-10-19 LEBL 190330Z 06016KT 6000 R25R/1200N DZ SCT008 21/20 Q1010 NOSIG
12-10-19 LEBL NIL
12-10-19 LEBL 190400Z 05015G25KT 6000 R25R/1200N SCT008 21/20 Q1010 REDZ NOSIG
12-10-19 LEBL 190430Z 06013KT 6000 R25R/1200N SCT008 21/20 Q1011 NOSIG
12-10-19 LEBL 190500Z 06016KT 6000 R25R/1200N RA SCT008 21/20 Q1010 NOSIG
12-10-19 LEBL 190530Z 06014KT 6000 R25R/1200N SCT008 21/20 Q1010 RERA NOSIG
12-10-19 LEBL 190600Z 06014KT 6000 R25R/1200N BKN008 21/20 Q1011 NOSIG
12-10-19 LEBL 190630Z 07012KT 5000 R25R/1200N -RA BKN008 21/20 Q1010 NOSIG
12-10-19 LEBL 190700Z 05016KT 4000 R25R/1100N -RA BKN008 21/20 Q1010 NOSIG
12-10-19 LEBL 190730Z 06015KT 4000 R25R/1100N R25L/1400N -RA BKN006 21/20 Q1011 NOSIG
12-10-19 LEBL 190800Z 07012KT 3000 R25R/1100N RA FEW006 BKN010 21/20 Q1011 NOSIG
12-10-19 LEBL 190830Z 06013KT 3000 R25R/1100N R07R/1300N RA BR FEW006 BKN010 21/20 Q1011 NOSIG
12-10-19 LEBL 190900Z 06010KT 040V100 3000 R25R/1100N R07R/1200N R25L/1300N RA BR FEW006 BKN010 21/20 Q1011 NOSIG
12-10-19 LEBL 190930Z 06010KT 3000 R25R/1100N R07L/1400N R07R/1100N R25L/1200N RA BR FEW006 BKN011 21/20 Q1012 NOSIG
12-10-19 LEBL 191000Z 06011KT 3000 R25R/1100N R07L/1400N R07R/1100N R25L/1100N RA BR FEW006 BKN011 22/21 Q1011 NOSIG
12-10-19 LEBL 191030Z 07013KT 3500 R25R/1100N R07L/1300N R07R/1000N R25L/1000N RA BR FEW006 BKN011 22/21 Q1012 NOSIG
12-10-19 LEBL 191100Z 06013KT 4000 R25R/1100N R07L/1400N R07R/0900N R25L/1000N BR FEW006 BKN015 22/21 Q1012 NOSIG
12-10-19 LEBL 191130Z 07012KT 4000 R25R/1100N R07L/1400N R07R/1000N R25L/1100N BR FEW006 BKN013 22/21 Q1011 NOSIG
12-10-19 LEBL 191200Z 07010KT 4000 BR FEW006 SCT012 BKN030 22/21 Q1011 NOSIG
12-10-19 LEBL 191230Z 06010KT 4000 BR FEW004 SCT012 BKN030 23/22 Q1011 NOSIG
12-10-19 LEBL 191300Z 07010KT 6000 FEW010 SCT017 24/22 Q1011 NOSIG
12-10-19 LEBL 191330Z 06010KT 5000 BR FEW010 SCT015 24/22 Q1011 NOSIG
12-10-19 LEBL 191400Z 07008KT 040V100 5000 BR FEW010 SCT020 24/22 Q1011 NOSIG
12-10-19 LEBL 191430Z 08008KT 6000 FEW010 SCT020 24/22 Q1011 NOSIG
12-10-19 LEBL 191500Z 08007KT 050V110 7000 FEW012 SCT020 24/22 Q1011 NOSIG
12-10-19 LEBL 191530Z 08006KT 060V120 9000 FEW012 SCT025 24/21 Q1011 NOSIG
12-10-19 LEBL 191600Z 07005KT 030V110 9000 FEW012 SCT025 24/21 Q1011 NOSIG
12-10-19 LEBL 191630Z 05004KT 330V100 9000 DZ FEW012 SCT025 24/21 Q1011 NOSIG
12-10-19 LEBL 191700Z 09004KT 9000 FEW012 SCT025 23/21 Q1011 NOSIG
12-10-19 LEBL 191730Z 08003KT 030V120 9000 FEW015 SCT025 24/21 Q1012 NOSIG
12-10-19 LEBL 191800Z 04004KT 350V080 7000 FEW015 SCT025 24/21 Q1012 NOSIG
12-10-19 LEBL 191812Z 02004KT 330V070 6000 RA FEW011 SCT020 BKN050 23/21 Q1013
12-10-19 LEBL 191830Z 01004KT 300V060 4000 SHRA FEW011 SCT025TCU BKN050 22/19 Q1013
12-10-19 LEBL 191900Z 00000KT 7000 RA FEW011 SCT025 22/17 Q1013 NOSIG
12-10-19 LEBL 191930Z 02001KT 9999 RA FEW010 SCT025 22/18 Q1013 NOSIG
12-10-19 LEBL 192000Z 03007KT 360V060 9999 RA FEW012 SCT025 BKN055 22/20 Q1013
12-10-19 LEBL 192030Z 05004KT 360V070 8000 FEW010 SCT025 22/20 Q1013 RERA NOSIG
12-10-19 LEBL 192100Z 03005KT 330V080 8000 RA FEW010 SCT025 21/20 Q1014 NOSIG
12-10-19 LEBL 192130Z 35005KT 7000 DZ FEW010 SCT048 21/20 Q1014 NOSIG
12-10-19 LEBL 192200Z 36006KT 7000 FEW010 SCT048 21/20 Q1013 RERA NOSIG
12-10-19 LEBL 192230Z 01004KT 8000 RA FEW010 SCT035 21/19 Q1013 NOSIG
12-10-19 LEBL 192300Z 35005KT 9999 SCT032 21/19 Q1013 RERA NOSIG
12-10-19 LEBL 192330Z 04001KT 3000 BR SCT016 21/20 Q1013 NOSIG
12-10-20 LEBL 200000Z 06008KT 040V100 6000 BKN006 21/20 Q1013 NOSIG
12-10-20 LEBL 200030Z 06011KT 6000 BKN005 21/20 Q1013 NOSIG
12-10-20 LEBL 200100Z 05011KT 6000 SCT006 21/20 Q1013 NOSIG
12-10-20 LEBL 200130Z 04010KT 7000 BKN007 21/20 Q1012 NOSIG
12-10-20 LEBL 200200Z 04011KT 6000 BKN009 21/20 Q1012 NOSIG
12-10-20 LEBL 200230Z 04009KT 7000 SCT010 21/20 Q1011 NOSIG
12-10-20 LEBL 200300Z 06012KT 8000 BKN009 21/20 Q1012 NOSIG
12-10-20 LEBL 200330Z 06015KT 7000 BKN006 21/20 Q1012 NOSIG
12-10-20 LEBL 200400Z 06015KT 7000 SCT007 BKN011 21/20 Q1012 NOSIG
12-10-20 LEBL 200430Z 06015KT 7000 SCT008 BKN012 21/20 Q1012 NOSIG
12-10-20 LEBL 200500Z 06014KT 7000 SCT008 BKN012 22/20 Q1012 NOSIG
12-10-20 LEBL 200530Z 06013KT 6000 BKN007 22/20 Q1012 NOSIG
12-10-20 LEBL 200600Z 05014KT 6000 SCT006 SCT034 22/20 Q1012 NOSIG
12-10-20 LEBL 200630Z 05011KT 6000 FEW008 SCT024 22/20 Q1012 NOSIG
12-10-20 LEBL 200700Z 06013KT 5000 BR SCT003 SCT016 22/20 Q1012 NOSIG
12-10-20 LEBL 200730Z 06014KT 5000 BR SCT004 SCT016 22/21 Q1012 NOSIG
12-10-20 LEBL 200800Z 06017KT 5000 BR SCT004 SCT012 22/21 Q1012 NOSIG
12-10-20 LEBL 200830Z 06014KT 5000 BR FEW004 BKN008 22/21 Q1012 NOSIG
12-10-20 LEBL 200900Z 07016KT 5000 BR FEW005 BKN006 22/21 Q1012 NOSIG
12-10-20 LEBL 200930Z 06016KT 5000 BR FEW005 SCT006 BKN010 22/21 Q1012 NOSIG
12-10-20 LEBL 201000Z 06015KT 5000 BR FEW005 BKN007 23/21 Q1012 NOSIG
12-10-20 LEBL 201030Z 06017KT 5000 BR SCT006 SCT010 23/21 Q1012 NOSIG
12-10-20 LEBL 201100Z 06017KT 6000 SCT006 SCT010 23/21 Q1012 NOSIG
12-10-20 LEBL 201130Z 06015KT 6000 FEW006 BKN007 23/21 Q1011 NOSIG
12-10-20 LEBL 201200Z 06016KT 6000 SCT007 BKN011 24/21 Q1010 NOSIG
12-10-20 LEBL 201230Z 06015KT 6000 BKN007 23/21 Q1010 NOSIG
12-10-20 LEBL 201300Z 06014KT 6000 BKN007 23/21 Q1010 NOSIG
12-10-20 LEBL 201330Z 06015KT 6000 FEW005 BKN007 23/21 Q1010 NOSIG
12-10-20 LEBL 201400Z 06016KT 5000 BR FEW005 BKN007 23/21 Q1010 NOSIG
12-10-20 LEBL 201430Z 06016KT 5000 BR FEW005 BKN007 22/21 Q1010 NOSIG
12-10-20 LEBL 201500Z 07014KT 5000 BR FEW005 BKN007 FEW018TCU 22/21 Q1010 NOSIG
12-10-20 LEBL 201530Z 07016KT 5000 BR FEW005 BKN007 FEW018TCU 22/21 Q1010 NOSIG
12-10-20 LEBL 201600Z 07014KT 4500 BR FEW005 BKN008 FEW018TCU 22/21 Q1010 NOSIG
12-10-20 LEBL 201630Z 09012KT 4500 BR FEW005 BKN006 FEW018TCU 22/21 Q1010 NOSIG
12-10-20 LEBL 201700Z 09011KT 4000 BR FEW004 SCT006 FEW018TCU 22/21 Q1010 NOSIG
12-10-20 LEBL 201730Z 10008KT 4000 BR FEW006 FEW020TCU 22/21 Q1010 NOSIG
12-10-20 LEBL 201800Z 13007KT 5000 BR FEW010 23/21 Q1010 NOSIG
12-10-20 LEBL 201830Z 14005KT 110V170 5000 BR FEW010 23/21 Q1011 NOSIG
12-10-20 LEBL 201900Z 17003KT 140V200 5000 BR FEW010 23/21 Q1011 NOSIG
12-10-20 LEBL 201930Z 00000KT 5000 BR FEW010 22/20 Q1011 NOSIG
12-10-20 LEBL 202000Z VRB01KT 5000 BR FEW010 22/20 Q1011 NOSIG
12-10-20 LEBL 202030Z 04004KT 350V060 6000 RA SCT010 22/20 Q1011 NOSIG
12-10-20 LEBL 202100Z 07004KT 010V100 5000 RA BR SCT010 22/20 Q1012 NOSIG
12-10-20 LEBL 202107Z 06006KT 3000 RA BR SCT010 22/20 Q1011 NOSIG
12-10-20 LEBL 202130Z 08006KT 3000 RA BR FEW005 SCT025 21/20 Q1012 NOSIG
12-10-20 LEBL 202200Z 09008KT 3000 DZ BR FEW010 SCT035 21/20 Q1012 NOSIG
12-10-20 LEBL 202230Z 08007KT 3000 RA BR FEW005 SCT030 21/20 Q1011 NOSIG
12-10-20 LEBL 202300Z 11006KT 5000 RA BR FEW010 SCT035 20/19 Q1011 NOSIG
12-10-20 LEBL 202330Z 11004KT 5000 RA BR SCT006 SCT025 21/18 Q1011 NOSIG
12-10-21 LEBL 210000Z 08007KT 040V120 5000 RA BR FEW010 SCT030 21/18 Q1010 NOSIG
12-10-21 LEBL 210030Z 10006KT 8000 DZ FEW010 SCT030 20/18 Q1011 NOSIG
12-10-21 LEBL 210100Z 13008KT 100V160 8000 RA FEW010 BKN048 21/17 Q1011 NOSIG
12-10-21 LEBL 210130Z 12009KT 7000 +RA FEW010 BKN030 20/18 Q1011 NOSIG
12-10-21 LEBL 210200Z 12006KT 090V150 7000 RA FEW010 BKN043 19/17 Q1011 NOSIG
12-10-21 LEBL 210230Z 10003KT 7000 RA FEW010 BKN040 19/17 Q1010 NOSIG
12-10-21 LEBL 210239Z 12006KT 090V160 2500 +RA SCT009 BKN030 19/17 Q1011 NOSIG
12-10-21 LEBL 210300Z 05005KT 020V080 6000 RA SCT006 BKN030 18/17 Q1010 NOSIG
12-10-21 LEBL 210330Z 03006KT 9000 -RA FEW006 SCT018 BKN040 18/17 Q1009 NOSIG
12-10-21 LEBL 210400Z 02005KT 9999 FEW010 SCT040 18/17 Q1009 NOSIG
12-10-21 LEBL 210430Z 02004KT 9999 SCT010 18/17 Q1009 NOSIG
12-10-21 LEBL 210500Z 05007KT 9999 SCT010 SCT020 18/17 Q1009 NOSIG
12-10-21 LEBL 210530Z 06008KT 020V100 5000 RA SCT010 SCT020 19/17 Q1009 NOSIG
12-10-21 LEBL 210600Z 17016KT 7000 RA FEW010 SCT020 BKN050 18/16 Q1010 NOSIG
12-10-21 LEBL 210630Z 17007KT 9999 -RA FEW015 FEW020TCU BKN050 20/17 Q1010 NOSIG
12-10-21 LEBL 210700Z 18005KT 130V220 9999 FEW015 FEW020TCU BKN050 20/17 Q1011 RERA
12-10-21 LEBL 210730Z 18009KT 9999 FEW020TCU SCT025 BKN040 20/17 Q1011 NOSIG
12-10-21 LEBL 210800Z 18009KT 150V210 9999 FEW020TCU SCT025 21/17 Q1011 NOSIG
12-10-21 LEBL 210830Z 17008KT 140V200 9999 FEW020TCU SCT025 21/16 Q1011 NOSIG
12-10-21 LEBL 210900Z 18009KT 9999 FEW020TCU SCT025 22/15 Q1012 NOSIG
12-10-21 LEBL 210930Z 17010KT 9999 FEW020TCU SCT025 22/15 Q1012 NOSIG
12-10-21 LEBL 211000Z 18009KT 9999 FEW020TCU SCT025 22/14 Q1012 NOSIG
12-10-21 LEBL 211030Z 17008KT 9999 FEW020TCU SCT030 23/14 Q1012 NOSIG
12-10-21 LEBL NIL
12-10-21 LEBL 211100Z 17011KT 9999 FEW020TCU SCT030 23/14 Q1012 NOSIG
12-10-21 LEBL 211130Z 17010KT 130V200 9999 FEW020TCU SCT030 23/14 Q1012 NOSIG
12-10-21 LEBL 211200Z 21008KT 9999 FEW020TCU BKN033 20/14 Q1012 NOSIG
12-10-21 LEBL 211230Z 16008KT 130V190 9999 FEW020TCU BKN030 22/16 Q1012 NOSIG
12-10-21 LEBL 211300Z 16011KT 140V200 9999 FEW020TCU BKN030 22/15 Q1012 NOSIG
12-10-21 LEBL 211330Z 15011KT 110V180 9999 FEW020TCU BKN030 22/15 Q1012 NOSIG
12-10-21 LEBL 211351Z 19012KT 5000 SHRA FEW020TCU BKN035 20/16 Q1012 NOSIG
12-10-21 LEBL 211400Z 18011KT 150V210 9999 FEW020TCU BKN035 21/16 Q1012 RERA NOSIG
12-10-21 LEBL 211430Z 16011KT 130V190 9999 FEW020TCU BKN035 22/15 Q1012 NOSIG
12-10-21 LEBL 211500Z 16010KT 130V190 9999 FEW030TCU SCT055 22/16 Q1012 NOSIG
12-10-21 LEBL 211530Z 16010KT 130V190 9999 FEW030TCU SCT035 22/16 Q1012 NOSIG
12-10-21 LEBL 211600Z 16010KT 130V190 9999 FEW025TCU SCT030 21/15 Q1012 NOSIG
12-10-21 LEBL 211630Z 15007KT 9999 FEW025TCU SCT035 21/15 Q1012 NOSIG
12-10-21 LEBL 211700Z 15008KT 080V220 9999 FEW030CB SCT035 21/14 Q1012 NOSIG
12-10-21 LEBL 211730Z 14007KT 110V180 9999 FEW030CB SCT055 21/14 Q1013 NOSIG
12-10-21 LEBL 211800Z 15007KT 9999 FEW030CB SCT050 21/14 Q1013 NOSIG
12-10-21 LEBL 211830Z 15008KT 9999 VCTS FEW020CB SCT035 21/14 Q1013 NOSIG
12-10-21 LEBL 211900Z 10017KT 9999 TS FEW020CB BKN035 20/12 Q1014 NOSIG
12-10-21 LEBL 211930Z 08006KT 050V120 3000 TS +SHRA FEW020CB SCT032 18/13 Q1014
12-10-21 LEBL 211941Z 06007KT 9999 TS RA FEW020CB BKN032 17/13 Q1014 NOSIG
12-10-21 LEBL 212000Z 06006G20KT 010V150 9999 RA FEW020CB BKN027 18/13 Q1015 RETS
12-10-21 LEBL 212021Z 06006KT 030V100 9000 SHRA FEW020CB BKN035 17/13 Q1015 NOSIG
12-10-21 LEBL 212030Z 02007KT 350V050 9999 FEW020CB SCT035 17/13 Q1015 RESHRA NOSIG
12-10-21 LEBL 212100Z 02008KT 9999 DZ FEW020CB SCT028 17/15 Q1015 NOSIG
12-10-21 LEBL 212130Z 32005KT 9999 DZ FEW020CB SCT028 17/15 Q1015 NOSIG
12-10-21 LEBL 212200Z 34006KT 300V010 9999 RA FEW020CB BKN028 17/15 Q1015 NOSIG
12-10-21 LEBL 212230Z 34004KT 9999 FEW023 BKN035 17/15 Q1015 RERA NOSIG
12-10-21 LEBL 212300Z 33007KT 9999 FEW025 SCT056 16/14 Q1015 NOSIG
12-10-21 LEBL 212330Z 33006KT 9999 FEW025 16/14 Q1014 NOSIG
12-10-22 LEBL 220000Z 32004KT 300V030 9999 DZ FEW025 BKN048 16/14 Q1014 NOSIG
12-10-22 LEBL 220100Z 01006KT 9999 FEW025TCU BKN040 16/14 Q1015 REDZ NOSIG
12-10-22 LEBL 220130Z 01006KT 9999 DZ FEW020CB 16/14 Q1014 NOSIG
12-10-22 LEBL 220200Z 35006KT 9999 RA FEW020CB 16/14 Q1014 NOSIG
12-10-22 LEBL 220300Z 03009KT 9999 FEW018 FEW020TCU 16/14 Q1014 NOSIG
12-10-22 LEBL 220330Z 36008KT 9999 FEW018 FEW020TCU 16/14 Q1014 NOSIG
12-10-22 LEBL 220430Z 01008KT 9999 FEW018 FEW020TCU 17/14 Q1015 NOSIG
12-10-22 LEBL 220500Z 01007KT 9999 FEW018 FEW020TCU 16/14 Q1015 NOSIG
12-10-22 LEBL 220530Z 33006KT 9999 FEW018 17/14 Q1015 NOSIG
12-10-22 LEBL 220600Z 34007KT 9999 FEW018 FEW020TCU 17/14 Q1015 NOSIG
12-10-22 LEBL 220630Z 01008KT 340V060 9999 FEW018 FEW020CB 17/14 Q1015 REDZ NOSIG
12-10-22 LEBL 220700Z 02009G19KT 350V070 9999 FEW025CB SCT050 17/14 Q1016 NOSIG
12-10-22 LEBL 220730Z 03010KT 9999 FEW025CB SCT050 17/14 Q1016 NOSIG
12-10-22 LEBL 220800Z 02008KT 9999 SCT030 17/15 Q1016 NOSIG
12-10-22 LEBL 220830Z 04010KT 9999 SCT030 18/15 Q1016 NOSIG
12-10-22 LEBL 220900Z 03011KT 9999 SCT030 20/15 Q1016 NOSIG
12-10-22 LEBL 220930Z 05013KT 9999 SCT030 20/15 Q1017 NOSIG
12-10-22 LEBL 221000Z 06019KT 9999 SCT030 21/15 Q1017 NOSIG
12-10-22 LEBL 221030Z 06015KT 9999 SCT030 21/15 Q1017 NOSIG
12-10-22 LEBL 221100Z NIL
12-10-22 LEBL 221100Z 05013KT 9999 FEW020 SCT040 20/15 Q1017 NOSIG
12-10-22 LEBL 221130Z 05015KT 9999 FEW020 SCT040 21/15 Q1017 NOSIG
12-10-22 LEBL 221200Z 05016KT 9999 FEW020 SCT040 21/15 Q1017 NOSIG
12-10-22 LEBL 221230Z 05015KT 030V090 9999 FEW020 SCT040 21/15 Q1017 NOSIG
12-10-22 LEBL 221300Z 06016KT 9999 FEW020 SCT050 22/15 Q1017 NOSIG
12-10-22 LEBL 221330Z 05014KT 9999 FEW020 SCT050 21/15 Q1017 NOSIG
12-10-22 LEBL 221400Z 06013KT 9999 FEW020 SCT050 21/15 Q1017 NOSIG
12-10-22 LEBL 221430Z 07013KT 9999 SCT025 22/15 Q1017 NOSIG
12-10-22 LEBL 221500Z 07013KT 9999 SCT025TCU 21/16 Q1017 NOSIG
12-10-22 LEBL 221530Z 07010KT 040V100 9999 SCT025TCU 21/16 Q1017 NOSIG
12-10-22 LEBL 221600Z 06009KT 9999 SCT025TCU 21/15 Q1017 NOSIG
12-10-22 LEBL 221630Z 06008KT 9999 SCT025TCU 21/15 Q1017 NOSIG
12-10-22 LEBL 221700Z 04006KT 9999 FEW025 20/15 Q1017 NOSIG
12-10-22 LEBL 221730Z 33004KT 9999 FEW025 19/15 Q1018 NOSIG
12-10-22 LEBL 221800Z 32005KT 9999 FEW025 19/15 Q1018 NOSIG
12-10-22 LEBL 221830Z 32005KT 9999 FEW025 19/15 Q1018 NOSIG
12-10-22 LEBL 221900Z 33004KT 9999 FEW025 SCT055 18/15 Q1019 NOSIG
12-10-22 LEBL 221930Z VRB05KT 9999 FEW025 18/16 Q1019 NOSIG
12-10-22 LEBL 222000Z 32006KT 260V010 9999 FEW025 18/16 Q1019 NOSIG
12-10-22 LEBL 222030Z 32005KT 290V350 9999 FEW025 17/15 Q1019 NOSIG
12-10-22 LEBL 222100Z 33007KT 280V010 9999 FEW025 SCT044 18/15 Q1019 NOSIG
12-10-22 LEBL 222130Z 34005KT 9999 FEW025 SCT044 17/15 Q1019 NOSIG
12-10-22 LEBL 222200Z 32006KT 9999 FEW025 17/15 Q1019 NOSIG
12-10-22 LEBL 222230Z 32006KT 9999 FEW025 17/15 Q1019 NOSIG
12-10-22 LEBL 222300Z 34007KT 9999 FEW025 SCT055 16/15 Q1019 NOSIG
12-10-22 LEBL 222330Z 33006KT 9999 FEW025 SCT055 17/15 Q1019 NOSIG
12-10-23 LEBL 230000Z 34006KT 9999 FEW025 SCT055 17/15 Q1019 NOSIG
12-10-23 LEBL 230030Z VRB02KT 9999 FEW025 SCT055 17/15 Q1019 NOSIG
12-10-23 LEBL 230100Z 32005KT 9999 FEW025 17/15 Q1019 NOSIG
12-10-23 LEBL 230130Z 32007KT 9999 FEW025 17/15 Q1019 NOSIG
12-10-23 LEBL 230200Z 32007KT 9999 FEW025 17/15 Q1019 NOSIG
12-10-23 LEBL 230230Z 32007KT 9999 FEW025 16/15 Q1018 NOSIG
12-10-23 LEBL 230300Z 32008KT 9999 FEW025 16/14 Q1018 NOSIG
12-10-23 LEBL 230330Z 33009KT 9999 FEW025 16/14 Q1018 NOSIG
12-10-23 LEBL 230400Z 33008KT 9999 FEW025 16/15 Q1018 NOSIG
12-10-23 LEBL 230430Z 33011KT 9999 FEW025 16/14 Q1018 NOSIG
12-10-23 LEBL 230500Z 33010KT 9999 FEW025 16/14 Q1018 NOSIG
12-10-23 LEBL 230530Z 33010KT 9999 FEW025 16/14 Q1018 NOSIG
12-10-23 LEBL 230600Z 32009KT 280V340 9999 FEW025 15/14 Q1018 NOSIG
12-10-23 LEBL 230630Z 32009G19KT 280V340 9999 FEW025 15/13 Q1019 NOSIG
12-10-23 LEBL 230700Z 32010KT 9999 FEW025 16/13 Q1019 NOSIG
12-10-23 LEBL 230730Z 32011KT 300V360 9999 FEW025 16/13 Q1019 NOSIG
12-10-23 LEBL 230800Z 32011KT 9999 FEW025 16/13 Q1019 NOSIG
12-10-23 LEBL 230830Z 32010KT 9999 FEW025 17/13 Q1019 NOSIG
12-10-23 LEBL 230900Z 32009KT 9999 FEW025 18/14 Q1019 NOSIG
12-10-23 LEBL 230930Z 33007KT 260V350 9999 FEW025 19/14 Q1019 NOSIG
12-10-23 LEBL 231000Z 31005KT 9999 FEW025 20/14 Q1019 NOSIG
12-10-23 LEBL 231030Z 30003KT 9999 FEW025 22/14 Q1019 NOSIG
12-10-23 LEBL 231100Z 00000KT 9999 FEW025 22/13 Q1019 NOSIG
12-10-23 LEBL 231130Z 16006KT 9999 FEW025 22/14 Q1018 NOSIG
12-10-23 LEBL 231200Z 18006KT 9999 FEW025 22/13 Q1018 NOSIG
12-10-23 LEBL 231230Z 17007KT 140V200 9999 FEW025 22/15 Q1018 NOSIG
12-10-23 LEBL 231300Z 17007KT 130V220 9999 FEW025 22/15 Q1018 NOSIG
12-10-23 LEBL 231330Z 18007KT 140V210 9999 FEW025 22/15 Q1018 NOSIG
12-10-23 LEBL 231400Z 16007KT 140V200 9999 FEW025 22/15 Q1018 NOSIG
12-10-23 LEBL 231430Z 16007KT 9999 FEW025 21/15 Q1018 NOSIG
12-10-23 LEBL 231500Z 17005KT 9999 FEW025 21/16 Q1018 NOSIG
12-10-23 LEBL 231530Z 17005KT 130V220 9999 FEW025 21/15 Q1018 NOSIG
12-10-23 LEBL 231600Z 15004KT 130V190 9999 FEW025 21/15 Q1018 NOSIG
12-10-23 LEBL 231630Z 15003KT 9999 FEW025 21/14 Q1018 NOSIG
12-10-23 LEBL 231700Z 16004KT 130V190 9999 FEW025 21/15 Q1018 NOSIG
12-10-23 LEBL 231730Z VRB02KT 9999 FEW025 21/15 Q1018 NOSIG
12-10-23 LEBL 231800Z VRB02KT 9999 FEW025 21/15 Q1018 NOSIG
12-10-23 LEBL 231830Z VRB01KT 9999 FEW025 21/15 Q1018 NOSIG
12-10-23 LEBL 231900Z 17002KT 9999 FEW025 21/15 Q1018 NOSIG
12-10-23 LEBL 231930Z VRB02KT 9999 FEW025 20/16 Q1018 NOSIG
12-10-23 LEBL 232000Z VRB01KT 9999 SCT025 20/16 Q1018 NOSIG
12-10-23 LEBL 232030Z VRB01KT 9999 FEW025 20/16 Q1018 NOSIG
12-10-23 LEBL 232100Z 29003KT 9999 FEW020 20/16 Q1018 NOSIG
12-10-23 LEBL 232130Z 32003KT 9999 FEW020 19/16 Q1018 NOSIG
12-10-23 LEBL 232200Z 36003KT 9999 FEW020 19/16 Q1018 NOSIG
12-10-23 LEBL 232230Z 28002KT 9999 FEW025 19/16 Q1018 NOSIG
12-10-23 LEBL 232300Z 31004KT 9999 FEW025 18/16 Q1018 NOSIG
12-10-23 LEBL 232330Z 32005KT 9999 FEW025 18/16 Q1017 NOSIG
12-10-24 LEBL 240000Z 33004KT 9999 FEW025 18/16 Q1017 NOSIG
12-10-24 LEBL 240030Z 32005KT 9999 FEW025 18/16 Q1017 NOSIG
12-10-24 LEBL 240100Z 31006KT 9999 FEW025 17/15 Q1017 NOSIG
12-10-24 LEBL 240130Z 33007KT 9999 FEW025 17/15 Q1016 NOSIG
12-10-24 LEBL 240200Z 33007KT 9999 FEW025 17/15 Q1016 NOSIG
12-10-24 LEBL 240230Z 33006KT 9999 FEW025 17/15 Q1016 NOSIG
12-10-24 LEBL 240300Z 32008KT 9999 FEW025 17/15 Q1015 NOSIG
12-10-24 LEBL 240330Z 32009KT 9999 FEW025 17/15 Q1015 NOSIG
12-10-24 LEBL 240400Z 33009KT 9999 FEW025 17/14 Q1016 NOSIG
12-10-24 LEBL 240430Z 33008KT 9999 FEW010 17/14 Q1016 NOSIG
12-10-24 LEBL 240500Z 33006KT 9999 FEW025 16/14 Q1016 NOSIG
12-10-24 LEBL 240530Z 32007G18KT 9999 FEW025 SCT050 17/14 Q1016 NOSIG
12-10-24 LEBL 240600Z 32008KT 290V350 9999 SCT050 17/14 Q1016 NOSIG
12-10-24 LEBL 240630Z 33008KT 290V350 9999 SCT050 16/14 Q1016 NOSIG
12-10-24 LEBL 240700Z 33007KT 190V360 9999 FEW050 16/14 Q1016 NOSIG
12-10-24 LEBL 240730Z 33007KT 270V020 9999 FEW055 16/14 Q1016 NOSIG
12-10-24 LEBL 240800Z 32006G17KT 300V010 9999 FEW055 17/14 Q1016 NOSIG
12-10-24 LEBL 240830Z 32006KT 260V030 9999 FEW055 18/14 Q1017 NOSIG
12-10-24 LEBL 240900Z 33003KT 280V030 9999 FEW055 19/15 Q1017 NOSIG
12-10-24 LEBL 240930Z 07004KT 9999 FEW020 20/15 Q1017 NOSIG
12-10-24 LEBL 241000Z 07006KT 010V110 9999 FEW020 21/16 Q1016 NOSIG
12-10-24 LEBL 241030Z 09006KT 050V110 9999 FEW020 21/16 Q1016 NOSIG
12-10-24 LEBL 241100Z 10006KT 060V120 9999 FEW020 21/16 Q1016 NOSIG
12-10-24 LEBL 241130Z 11007KT 070V130 9999 FEW020 21/16 Q1016 NOSIG
12-10-24 LEBL 241200Z 12006KT 070V150 9999 FEW020 21/15 Q1016 NOSIG
12-10-24 LEBL 241230Z 11006KT 040V150 9999 FEW020 21/15 Q1015 NOSIG
12-10-24 LEBL 241300Z 12006KT 080V160 9999 FEW020 21/15 Q1015 NOSIG
12-10-24 LEBL 241330Z 12007KT 080V150 9999 FEW025 21/16 Q1015 NOSIG
12-10-24 LEBL 241400Z 13006KT 100V160 9999 FEW025 20/16 Q1014 NOSIG
12-10-24 LEBL 241430Z 14006KT 100V180 9999 FEW025 21/16 Q1014 NOSIG
12-10-24 LEBL 241500Z 16006KT 130V210 9999 FEW025 21/16 Q1014 NOSIG
12-10-24 LEBL 241530Z 19006KT 9999 FEW025 21/16 Q1014 NOSIG
12-10-24 LEBL 241600Z 18004KT 140V200 9999 FEW025 20/16 Q1014 NOSIG
12-10-24 LEBL 241630Z 18003KT 9999 FEW025 20/16 Q1014 NOSIG
12-10-24 LEBL 241700Z 19003KT 9999 FEW020 20/17 Q1014 NOSIG
12-10-24 LEBL 241730Z VRB02KT 9999 FEW017 20/17 Q1014 NOSIG
12-10-24 LEBL 241800Z VRB01KT 9999 FEW017 20/16 Q1014 NOSIG
12-10-24 LEBL 241830Z 08003KT 9999 FEW017 20/16 Q1014 NOSIG
12-10-24 LEBL 241900Z 09002KT 9999 FEW017 20/16 Q1014 NOSIG
12-10-24 LEBL 241930Z 08002KT 9999 FEW017 19/16 Q1014 NOSIG
12-10-24 LEBL 242000Z 00000KT 9999 FEW017 19/16 Q1014 NOSIG
12-10-24 LEBL 242030Z 00000KT 9999 FEW017 18/16 Q1014 NOSIG
12-10-24 LEBL 242100Z 30005KT 240V340 9999 SCT017 18/16 Q1014 NOSIG
12-10-24 LEBL 242130Z 33003KT 9999 FEW020 18/16 Q1014 NOSIG
12-10-24 LEBL 242200Z NIL
12-10-24 LEBL 242200Z 36004KT 9999 FEW020 17/15 Q1014 NOSIG
12-10-24 LEBL 242230Z 36002KT 9999 FEW020 17/15 Q1014 NOSIG
12-10-24 LEBL 242300Z 35005KT 9999 FEW020 17/15 Q1014 NOSIG
12-10-24 LEBL 242330Z 31004KT 9999 FEW020 17/15 Q1014 NOSIG
12-10-25 LEBL 250000Z 34006KT 9999 FEW020 17/15 Q1014 NOSIG
12-10-25 LEBL 250030Z 33004KT 9999 FEW020 17/15 Q1014 NOSIG
12-10-25 LEBL 250100Z 33006KT 9999 FEW020 17/15 Q1013 NOSIG
12-10-25 LEBL 250130Z 34006KT 9000 FEW020 17/15 Q1013 NOSIG
12-10-25 LEBL 250200Z 32006KT 9000 FEW020 17/15 Q1013 NOSIG
12-10-25 LEBL 250230Z 34005KT 9000 FEW020 17/15 Q1013 NOSIG
12-10-25 LEBL 250300Z 34004KT 7000 FEW020 17/15 Q1013 NOSIG
12-10-25 LEBL 250330Z 33006KT 8000 FEW020 SCT052 17/15 Q1012 NOSIG
12-10-25 LEBL 250400Z 33005KT 7000 FEW020 SCT056 17/15 Q1012 NOSIG
12-10-25 LEBL 250430Z 34004KT 8000 SCT056 17/15 Q1012 NOSIG
12-10-25 LEBL 250500Z 31001KT 7000 SCT046 17/15 Q1012 NOSIG
12-10-25 LEBL 250530Z 33003KT 7000 SCT055 17/15 Q1012 NOSIG
12-10-25 LEBL 250600Z 34005KT 290V030 7000 FEW028 SCT056 17/15 Q1012 NOSIG
12-10-25 LEBL 250630Z 32003KT 260V010 7000 FEW028 SCT056 17/15 Q1012 NOSIG
12-10-25 LEBL 250700Z 34004KT 290V040 7000 SCT030 SCT056 18/15 Q1012 NOSIG
12-10-25 LEBL 250730Z 33004G15KT 290V010 7000 SCT030 SCT056 18/15 Q1012 NOSIG
12-10-25 LEBL 250800Z 33004KT 7000 SCT030 18/16 Q1012 NOSIG
12-10-25 LEBL 250830Z 33003KT 240V040 8000 FEW030 BKN055 19/16 Q1013 NOSIG
12-10-25 LEBL 250900Z 05004KT 320V120 8000 FEW013 BKN055 19/16 Q1012 NOSIG
12-10-25 LEBL 250930Z 08005KT 040V100 8000 FEW013 SCT055 20/17 Q1012 NOSIG
12-10-25 LEBL 251000Z 07007KT 9000 FEW015 SCT055 20/17 Q1012 NOSIG
12-10-25 LEBL 251030Z 05009KT 010V110 9999 FEW012 SCT055 20/17 Q1012 NOSIG
12-10-25 LEBL 251100Z 07008KT 040V100 9999 FEW015 20/17 Q1011 NOSIG
12-10-25 LEBL 251130Z 06008KT 9999 FEW009 20/17 Q1011 NOSIG
12-10-25 LEBL 251219Z 06008KT 6000 RA FEW009 BKN018 19/17 Q1010 NOSIG
12-10-25 LEBL 251230Z 06008KT 5000 RA FEW008 BKN020 19/17 Q1010 NOSIG
12-10-25 LEBL 251300Z 07008KT 9000 -SHRA SCT015 FEW020TCU BKN040 19/18 Q1010 NOSIG
12-10-25 LEBL 251330Z 05009KT 9999 FEW008 FEW020TCU BKN055 20/18 Q1010 NOSIG
12-10-25 LEBL 251400Z 05007KT 9999 FEW012 FEW020TCU BKN055 20/18 Q1009 NOSIG
12-10-25 LEBL 251430Z 06008KT 9999 FEW015 FEW020TCU SCT055 20/17 Q1009 NOSIG
12-10-25 LEBL 251500Z 06006KT 9999 FEW018 SCT050 20/18 Q1009 NOSIG
12-10-25 LEBL 251530Z 07009KT 9999 SCT015 20/18 Q1009 NOSIG
12-10-25 LEBL 251600Z 06009KT 9999 FEW015 20/18 Q1009 NOSIG
12-10-25 LEBL 251630Z 05007KT 9999 FEW015 20/18 Q1009 NOSIG
12-10-25 LEBL 251700Z 05007KT 9999 FEW015 20/18 Q1009 NOSIG
12-10-25 LEBL 251730Z 06008KT 9999 FEW020 19/17 Q1009 NOSIG
12-10-25 LEBL 251800Z 06008KT 9999 FEW020 19/17 Q1009 NOSIG
12-10-25 LEBL 251830Z 05006KT 9999 FEW010 SCT025 19/17 Q1009 NOSIG
12-10-25 LEBL 251900Z 04007KT 9999 FEW010 SCT025 20/17 Q1008 NOSIG
12-10-25 LEBL 251930Z 05007KT 9999 FEW010 SCT025 20/18 Q1008 NOSIG
12-10-25 LEBL 252000Z 06007KT 9999 FEW010 SCT035 19/18 Q1008 NOSIG
12-10-25 LEBL 252006Z 06007KT 9999 -RA FEW010 SCT035 19/18 Q1008 NOSIG
12-10-25 LEBL 252030Z 06006KT 9000 -RA FEW010 SCT025 19/18 Q1008 NOSIG
12-10-25 LEBL 252100Z 04005KT 9000 DZ FEW010 SCT025 19/17 Q1008 NOSIG
12-10-25 LEBL 252130Z 06006KT 7000 RA SCT015 SCT025 19/18 Q1007 NOSIG
12-10-25 LEBL 252200Z 06006KT 5000 RA BR BKN012 SCT025 18/17 Q1007 NOSIG
12-10-25 LEBL 252230Z 05006KT 5000 -RA BR SCT015 SCT030 18/17 Q1007 NOSIG
12-10-25 LEBL 252300Z 06006KT 5000 -RA BR SCT015 SCT030 19/18 Q1006 NOSIG
12-10-25 LEBL 252330Z 01005KT 4000 RA BR SCT015 BKN024 18/17 Q1006 NOSIG
12-10-26 LEBL 260000Z 35008KT 4000 +RA BR SCT010 BKN020 17/17 Q1006 NOSIG
12-10-26 LEBL 260030Z 01007KT 4000 +RA BR SCT010 BKN020 17/16 Q1005 NOSIG
12-10-26 LEBL 260100Z 03005KT 360V060 5000 RA BR SCT010 BKN020 17/16 Q1005 NOSIG
12-10-26 LEBL 260130Z 33005KT 9999 RA SCT010 BKN020 17/16 Q1004 NOSIG
12-10-26 LEBL 260200Z 33006KT 9999 -RA SCT010 BKN022 17/16 Q1004 NOSIG
12-10-26 LEBL 260230Z 34006KT 9999 -RA SCT010 BKN030 17/16 Q1003 NOSIG
12-10-26 LEBL 260300Z VRB02KT 9999 -RA SCT010 BKN030 17/16 Q1003 NOSIG
12-10-26 LEBL NIL
12-10-26 LEBL 260330Z 34005KT 9999 DZ SCT015 SCT030 17/16 Q1002 NOSIG
12-10-26 LEBL 260400Z 35007KT 9999 -RA SCT015 BKN030 17/16 Q1002 NOSIG
12-10-26 LEBL 260430Z 35003KT 320V060 9999 SCT015 BKN030 17/16 Q1002 NOSIG
12-10-26 LEBL 260500Z 34004KT 9999 SCT015 BKN030 17/16 Q1001 NOSIG
12-10-26 LEBL 260530Z 31004KT 260V350 9999 SCT015 BKN035 17/16 Q1001 NOSIG
12-10-26 LEBL 260600Z 34006KT 300V020 9999 SCT015 BKN035 17/16 Q1001 NOSIG
12-10-26 LEBL 260700Z 34006G17KT 210V010 9999 -RA SCT015 BKN030 17/16 Q1001 NOSIG
12-10-26 LEBL 260730Z 32005KT 9999 FEW015 BKN040 18/17 Q1001 NOSIG
12-10-26 LEBL 260800Z 32006KT 230V020 9999 FEW018 BKN040 19/17 Q1001 NOSIG
12-10-26 LEBL 260830Z 32006KT 9999 FEW015 SCT018 BKN040 18/17 Q1000 NOSIG
12-10-26 LEBL 260900Z NIL
12-10-26 LEBL 260900Z 32007KT 280V350 9999 FEW015 SCT018 BKN040 18/17 Q1000 NOSIG
12-10-26 LEBL 260930Z 32008KT 270V020 6000 SHRA FEW015 FEW018TCU BKN040 18/17 Q1000 NOSIG
12-10-26 LEBL 260948Z 32007KT 260V020 7000 -SHRA FEW015 FEW018TCU SCT035 18/17 Q1000
12-10-26 LEBL 261000Z 31007KT 7000 FEW012 FEW018TCU 18/17 Q1000 NOSIG
12-10-26 LEBL 261030Z 31004G14KT 9999 FEW014 FEW018CB 19/17 Q1000 NOSIG
12-10-26 LEBL 261100Z 26003KT 210V310 9999 FEW018CB 20/18 Q0999 NOSIG
12-10-26 LEBL 261130Z 22011KT 9999 FEW018TCU 21/17 Q0999 NOSIG
12-10-26 LEBL 261200Z 22013KT 9999 FEW018 SCT055 20/18 Q0998 NOSIG
12-10-26 LEBL 261230Z 24012KT 9999 FEW018 22/17 Q0998 NOSIG
12-10-26 LEBL 261300Z 23015KT 9999 FEW018 FEW020TCU 21/17 Q0998 NOSIG
12-10-26 LEBL 261330Z 22017KT 9999 FEW018 FEW020TCU 21/17 Q0997 NOSIG
12-10-26 LEBL 261400Z 24016KT 9999 VCSH FEW018 SCT020CB 21/18 Q0997 NOSIG
12-10-26 LEBL 261400Z 24014KT 9999 VCSH FEW018 SCT020CB 21/17 Q0997 TEMPO TSRA
12-10-26 LEBL 261430Z 24012KT 9999 -SHRA FEW015 SCT020CB 19/16 Q0997 TEMPO TSRA
12-10-26 LEBL 261450Z 24010KT 9999 -TSRA FEW015 SCT020CB 19/17 Q0997 NOSIG
12-10-26 LEBL 261500Z 24011KT 9999 -TSRA FEW015 SCT020CB 19/15 Q0997 NOSIG
12-10-26 LEBL 261514Z 23014KT 8000 TSRA FEW015 SCT020CB 17/15 Q0997 NOSIG
12-10-26 LEBL 261530Z 23015KT 9000 TSRA FEW015 SCT020CB 17/15 Q0997 NOSIG
12-10-26 LEBL 261550Z 24007KT 210V300 9999 FEW015 SCT020CB 18/15 Q0997 RETS NOSIG
12-10-26 LEBL 261600Z 27006KT 250V310 9999 VCTS FEW015 SCT020CB BKN055 18/15 Q0997
12-10-26 LEBL 261613Z 28008KT 240V310 9999 TSRA FEW015 SCT020CB BKN055 18/15 Q0997
12-10-26 LEBL 261630Z 25008KT 220V290 9999 -TSRA FEW015 SCT020CB BKN055 18/15 Q0997
12-10-26 LEBL 261700Z 23010KT 9999 -RA VCSH FEW015 SCT020CB 18/15 Q0997 NOSIG
12-10-26 LEBL 261730Z 23011KT 9999 FEW015 FEW020CB 18/14 Q0997 NOSIG
12-10-26 LEBL 261800Z 23014KT 9999 FEW018 FEW025TCU 17/14 Q0997 NOSIG
12-10-26 LEBL 261830Z 25014KT 9999 FEW015 FEW025TCU 18/14 Q0997 NOSIG
12-10-26 LEBL 261900Z 25013KT 9999 FEW015 FEW025TCU 18/13 Q0997 NOSIG
12-10-26 LEBL 261930Z 25010KT 9999 FEW020 18/13 Q0997 NOSIG
12-10-26 LEBL 262000Z 25009KT 220V280 9999 FEW020 19/12 Q0997 NOSIG
12-10-26 LEBL 262030Z 27010KT 9999 FEW020 19/12 Q0997 NOSIG
12-10-26 LEBL 262100Z 27009KT 9999 FEW020 19/12 Q0997 NOSIG
12-10-26 LEBL 262130Z 26013KT 9999 FEW020 FEW025TCU 19/13 Q0997 NOSIG
12-10-26 LEBL 262200Z 26013KT 9999 FEW020 19/13 Q0996 NOSIG
12-10-26 LEBL 262230Z 27007KT 9999 FEW020 18/13 Q0996 NOSIG
12-10-26 LEBL 262300Z 25006KT 220V280 9999 FEW018 19/13 Q0996 NOSIG
12-10-26 LEBL 262330Z 01003KT 330V040 9999 FEW018 18/14 Q0996 NOSIG
12-10-27 LEBL 270000Z 26008KT 9999 FEW018 19/12 Q0996 NOSIG
12-10-27 LEBL 270030Z 34005KT 9999 FEW018 18/12 Q0995 NOSIG
12-10-27 LEBL 270100Z 28003KT 9999 FEW020 17/13 Q0995 NOSIG
12-10-27 LEBL 270130Z VRB02KT 9999 FEW020 18/12 Q0995 NOSIG
12-10-27 LEBL 270200Z 24005KT 220V290 9999 FEW020 17/12 Q0995 NOSIG
12-10-27 LEBL 270230Z 26006KT 9999 FEW020 17/13 Q0995 NOSIG
12-10-27 LEBL 270300Z 22007KT 9999 FEW020 18/13 Q0994 NOSIG
12-10-27 LEBL 270330Z 22007KT 9999 FEW020 17/13 Q0994 NOSIG
12-10-27 LEBL 270400Z 24005KT 9999 FEW025 17/13 Q0994 NOSIG
12-10-27 LEBL 270430Z 25007KT 9999 FEW020 SCT030 17/13 Q0994 NOSIG
12-10-27 LEBL 270500Z VRB02KT 9999 FEW020 17/12 Q0994 NOSIG
12-10-27 LEBL 270530Z 30004KT 260V340 9999 FEW020 16/13 Q0994 NOSIG
12-10-27 LEBL 270600Z 28005KT 250V330 9999 FEW020 16/12 Q0994 NOSIG
12-10-27 LEBL 270630Z 26006KT 240V300 9999 FEW020 17/12 Q0994 NOSIG
12-10-27 LEBL 270700Z 31005KT 220V360 9999 FEW020 17/12 Q0995 NOSIG
12-10-27 LEBL 270730Z 29004KT 260V330 9999 FEW020 17/12 Q0995 NOSIG
12-10-27 LEBL 270800Z 29005G16KT 9999 FEW020 18/12 Q0996 NOSIG
12-10-27 LEBL 270830Z 30007KT 260V340 9999 FEW020 18/13 Q0996 NOSIG
12-10-27 LEBL 270900Z 30009KT 270V330 9999 FEW020 18/13 Q0996 NOSIG
12-10-27 LEBL 270930Z 31009KT 260V340 9999 FEW020 18/12 Q0996 NOSIG
12-10-27 LEBL 271000Z 33013G25KT 290V010 9999 FEW020 19/13 Q0996 NOSIG
12-10-27 LEBL 271030Z 34013G25KT 9999 FEW020 19/13 Q0996 NOSIG
12-10-27 LEBL 271100Z 33011KT 9999 FEW020 19/13 Q0996 NOSIG
12-10-27 LEBL 271130Z 33010KT 290V010 9999 FEW020 19/13 Q0996 NOSIG
12-10-27 LEBL 271200Z 32012KT 9999 FEW020 19/14 Q0996 NOSIG
12-10-27 LEBL 271230Z 32009G20KT 280V340 9999 FEW020 20/13 Q0996 NOSIG
12-10-27 LEBL 271300Z 31008KT 230V360 9999 FEW030 20/13 Q0996 NOSIG
12-10-27 LEBL 271330Z 31005KT 230V010 9999 FEW020 SCT034 20/12 Q0996 NOSIG
12-10-27 LEBL 271400Z 01004KT 9999 FEW020 SCT034 20/12 Q0996 NOSIG
12-10-27 LEBL 271430Z 13006KT 100V160 9999 FEW020 SCT034 20/14 Q0996 NOSIG
12-10-27 LEBL 271500Z 11007KT 9999 FEW020TCU SCT034 19/14 Q0996 NOSIG
12-10-27 LEBL 271530Z 13006KT 9999 FEW020TCU SCT050 19/15 Q0996 NOSIG
12-10-27 LEBL 271600Z 13005KT 100V170 9999 FEW020TCU SCT050 19/15 Q0996 NOSIG
12-10-27 LEBL 271630Z 15005KT 9999 FEW020TCU BKN050 19/15 Q0997 NOSIG
12-10-27 LEBL 271700Z 15006KT 9999 FEW020TCU BKN050 19/15 Q0997 NOSIG
12-10-27 LEBL 271730Z 32018KT 9999 FEW020TCU BKN050 18/06 Q0998 NOSIG
12-10-27 LEBL 271800Z 30012KT 280V340 9999 FEW020TCU BKN055 17/04 Q0999 NOSIG
12-10-27 LEBL 271830Z 29011KT 260V330 9999 FEW020TCU BKN055 16/00 Q1000 NOSIG
12-10-27 LEBL 271900Z 32007KT 260V030 9999 FEW020TCU SCT055 16/M01 Q1001 NOSIG
12-10-27 LEBL 271930Z 01009KT 9999 FEW020 SCT055 15/M02 Q1001 NOSIG
12-10-27 LEBL 272000Z 36013KT 9999 FEW020 15/M04 Q1002 NOSIG
12-10-27 LEBL 272030Z 01013G23KT 9999 FEW022 15/M06 Q1003 NOSIG
12-10-27 LEBL 272100Z 36009KT 330V050 9999 FEW025 14/M05 Q1005 NOSIG
12-10-27 LEBL 272130Z 35011KT 330V030 9999 FEW025 13/M07 Q1005 NOSIG
12-10-27 LEBL 272200Z 32006KT 9999 FEW025 12/M01 Q1006 NOSIG
12-10-27 LEBL 272230Z 29007KT 9999 FEW025 11/M02 Q1006 NOSIG
12-10-27 LEBL 272300Z 29005KT 9999 FEW030 11/M04 Q1007 NOSIG
12-10-27 LEBL 272330Z 31005KT 9999 FEW030 11/M05 Q1007 NOSIG
12-10-28 LEBL 280000Z 30006KT 9999 FEW035 11/M06 Q1007 NOSIG
12-10-28 LEBL 280030Z 30005KT 230V340 9999 FEW035 12/M08 Q1007 NOSIG
12-10-28 LEBL 280100Z 31012KT 270V330 9999 FEW030 11/M08 Q1007 NOSIG
12-10-28 LEBL 280130Z 31016KT 9999 FEW030 12/M10 Q1008 NOSIG
12-10-28 LEBL 280200Z 32012G22KT CAVOK 11/M08 Q1008 NOSIG
12-10-28 LEBL 280230Z 32016KT 290V360 CAVOK 11/M07 Q1007 NOSIG
12-10-28 LEBL 280300Z 31016KT CAVOK 11/M06 Q1008 NOSIG
12-10-28 LEBL 280330Z 33011KT CAVOK 10/M05 Q1008 NOSIG
12-10-28 LEBL 280400Z 31015KT CAVOK 09/M03 Q1008 NOSIG
12-10-28 LEBL 280430Z 31013KT CAVOK 09/M03 Q1009 NOSIG
12-10-28 LEBL 280500Z 32011KT 290V350 CAVOK 09/M03 Q1009 NOSIG
12-10-28 LEBL 280530Z 32011KT CAVOK 09/M04 Q1009 NOSIG
12-10-28 LEBL 280600Z 32010KT 9999 FEW025 09/M04 Q1009 NOSIG
12-10-28 LEBL 280630Z 32012KT 9999 FEW025 09/M04 Q1010 NOSIG
12-10-28 LEBL 280700Z 31011KT 9999 FEW025 09/M04 Q1010 NOSIG
12-10-28 LEBL 280730Z 32011KT CAVOK 10/M04 Q1011 NOSIG
12-10-28 LEBL 280800Z 31017KT CAVOK 11/M06 Q1011 NOSIG
12-10-28 LEBL 280830Z 30016KT 280V350 CAVOK 12/M09 Q1011 NOSIG
12-10-28 LEBL 280900Z 30015KT CAVOK 12/M07 Q1011 NOSIG
12-10-28 LEBL 280930Z 30018G33KT 260V330 CAVOK 12/M07 Q1011 NOSIG
12-10-28 LEBL 281000Z 29015KT 250V330 CAVOK 13/M08 Q1011 NOSIG
12-10-28 LEBL 281030Z 29012G23KT 250V330 CAVOK 14/M08 Q1011 NOSIG
12-10-28 LEBL 281100Z 33011G24KT 270V010 CAVOK 14/M13 Q1011 NOSIG
12-10-28 LEBL 281130Z 30021G32KT 280V340 CAVOK 15/M13 Q1011 NOSIG
12-10-28 LEBL 281200Z 31017G32KT 280V360 CAVOK 15/M14 Q1010 NOSIG
12-10-28 LEBL 281230Z 31014G25KT 290V350 CAVOK 15/M12 Q1010 NOSIG
12-10-28 LEBL 281300Z 30017KT CAVOK 15/M14 Q1010 NOSIG
12-10-28 LEBL 281330Z 31021G32KT 280V340 CAVOK 15/M14 Q1010 NOSIG
12-10-28 LEBL 281400Z 31020G31KT CAVOK 16/M14 Q1010 NOSIG
12-10-28 LEBL 281430Z 31015G28KT CAVOK 16/M14 Q1010 NOSIG
12-10-28 LEBL 281500Z 31019G31KT 290V350 CAVOK 16/M13 Q1010 NOSIG
12-10-28 LEBL 281530Z 31018KT CAVOK 16/M12 Q1010 NOSIG
12-10-28 LEBL 281600Z 31013G26KT 270V360 CAVOK 15/M11 Q1010 NOSIG
12-10-28 LEBL 281630Z 30012KT 270V330 CAVOK 15/M11 Q1011 NOSIG
12-10-28 LEBL 281700Z 29009KT 260V330 CAVOK 15/M13 Q1011 NOSIG
12-10-28 LEBL 281730Z 29007KT CAVOK 14/M11 Q1011 NOSIG
12-10-28 LEBL 281800Z 27005KT 250V310 CAVOK 12/M07 Q1012 NOSIG
12-10-28 LEBL 281830Z 26009KT CAVOK 11/M04 Q1012 NOSIG
12-10-28 LEBL 281900Z 26009KT CAVOK 11/M02 Q1013 NOSIG
12-10-28 LEBL 281930Z 27010KT CAVOK 12/M02 Q1013 NOSIG
12-10-28 LEBL 282000Z 27012KT CAVOK 12/M03 Q1013 NOSIG
12-10-28 LEBL 282030Z 27007KT 240V310 CAVOK 11/M03 Q1013 NOSIG
12-10-28 LEBL 282100Z 33005KT CAVOK 11/M04 Q1013 NOSIG
12-10-28 LEBL 282130Z 30008KT CAVOK 11/M04 Q1014 NOSIG
12-10-28 LEBL 282200Z 30005KT 250V350 CAVOK 11/M05 Q1014 NOSIG
12-10-28 LEBL 282230Z 31006KT 290V350 CAVOK 11/M06 Q1014 NOSIG
12-10-28 LEBL 282300Z 32008KT 300V020 CAVOK 10/M05 Q1014 NOSIG
12-10-28 LEBL 282330Z 34008KT CAVOK 10/M05 Q1014 NOSIG
12-10-29 LEBL 290000Z 33009KT 300V360 CAVOK 09/M04 Q1014 NOSIG
12-10-29 LEBL 290030Z 34011KT CAVOK 09/M04 Q1014 NOSIG
12-10-29 LEBL 290100Z 33012KT CAVOK 09/M04 Q1014 NOSIG
12-10-29 LEBL 290130Z 33008KT 290V350 CAVOK 10/M04 Q1014 NOSIG
12-10-29 LEBL 290200Z 18002KT CAVOK 09/M03 Q1015 NOSIG
12-10-29 LEBL 290230Z 31005KT 220V010 CAVOK 10/M03 Q1015 NOSIG
12-10-29 LEBL 290300Z 29006KT 260V320 CAVOK 09/M03 Q1015 NOSIG
12-10-29 LEBL 290330Z 33005KT CAVOK 08/M02 Q1015 NOSIG
12-10-29 LEBL 290400Z 31008KT CAVOK 08/M01 Q1015 NOSIG
12-10-29 LEBL 290430Z 32010KT CAVOK 08/M01 Q1015 NOSIG
12-10-29 LEBL 290500Z 34007KT 310V010 CAVOK 08/M01 Q1014 NOSIG
12-10-29 LEBL 290530Z 32010KT CAVOK 07/00 Q1015 NOSIG
12-10-29 LEBL 290600Z 33010KT CAVOK 07/00 Q1015 NOSIG
12-10-29 LEBL 290630Z 33009KT CAVOK 07/00 Q1015 NOSIG
12-10-29 LEBL 290700Z 33011KT CAVOK 07/00 Q1015 NOSIG
12-10-29 LEBL 290730Z 33013KT 300V360 CAVOK 08/00 Q1016 NOSIG
12-10-29 LEBL 290800Z 33014G24KT CAVOK 08/01 Q1016 NOSIG
12-10-29 LEBL 290830Z 33012KT CAVOK 09/01 Q1016 NOSIG
12-10-29 LEBL 290900Z 33013KT 280V360 CAVOK 10/01 Q1016 NOSIG
12-10-29 LEBL 290930Z 33012KT 300V360 CAVOK 11/00 Q1016 NOSIG
12-10-29 LEBL 291000Z 33009KT 280V010 CAVOK 12/M01 Q1016 NOSIG
12-10-29 LEBL 291030Z 32007KT 230V010 CAVOK 13/M03 Q1015 NOSIG
12-10-29 LEBL 291100Z 33004KT CAVOK 13/M02 Q1015 NOSIG
12-10-29 LEBL 291130Z VRB02KT CAVOK 14/M06 Q1015 NOSIG
12-10-29 LEBL 291200Z 24005KT 190V280 CAVOK 15/M01 Q1015 NOSIG
12-10-29 LEBL 291230Z 23011KT 200V260 CAVOK 15/M00 Q1015 NOSIG
12-10-29 LEBL 291300Z 22010KT 190V250 CAVOK 15/03 Q1014 NOSIG
12-10-29 LEBL 291330Z 22011KT 200V270 CAVOK 15/01 Q1014 NOSIG
12-10-29 LEBL 291400Z 22012KT CAVOK 15/01 Q1013 NOSIG
12-10-29 LEBL 291430Z 22013KT CAVOK 15/M01 Q1013 NOSIG
12-10-29 LEBL 291500Z 23013KT CAVOK 15/M01 Q1013 NOSIG
12-10-29 LEBL 291530Z 23012KT CAVOK 15/01 Q1013 NOSIG
12-10-29 LEBL 291600Z 23013KT CAVOK 14/01 Q1012 NOSIG
12-10-29 LEBL 291630Z 22012KT CAVOK 14/03 Q1012 NOSIG
12-10-29 LEBL 291700Z 25008KT CAVOK 13/04 Q1012 NOSIG
12-10-29 LEBL 291730Z 26006KT CAVOK 12/04 Q1012 NOSIG
12-10-29 LEBL 291800Z 29004KT 260V330 CAVOK 13/02 Q1012 NOSIG
12-10-29 LEBL 291830Z 28005KT 260V330 CAVOK 11/03 Q1012 NOSIG
12-10-29 LEBL 291900Z 30005KT 220V320 CAVOK 11/03 Q1012 NOSIG
12-10-29 LEBL 291930Z 31005KT 260V330 CAVOK 11/02 Q1012 NOSIG
12-10-29 LEBL 292000Z 33005KT 270V050 CAVOK 11/03 Q1012 NOSIG
12-10-29 LEBL 292030Z 34005KT 300V010 CAVOK 10/03 Q1012 NOSIG
12-10-29 LEBL 292100Z 32007KT CAVOK 10/03 Q1012 NOSIG
12-10-29 LEBL 292130Z 32007KT CAVOK 10/03 Q1012 NOSIG
12-10-29 LEBL 292200Z 33009KT 270V350 CAVOK 10/03 Q1012 NOSIG
12-10-29 LEBL 292230Z 33008KT CAVOK 09/03 Q1011 NOSIG
12-10-29 LEBL 292300Z 33009KT CAVOK 10/03 Q1011 NOSIG
12-10-29 LEBL 292330Z 32009KT CAVOK 09/03 Q1011 NOSIG
12-10-30 LEBL 300000Z 33009KT CAVOK 09/03 Q1011 NOSIG
12-10-30 LEBL 300030Z 33010KT 9999 FEW035 09/03 Q1011 NOSIG
12-10-30 LEBL 300100Z 33012KT 9999 FEW035 08/03 Q1010 NOSIG
12-10-30 LEBL 300130Z 33012KT 9999 FEW035 08/03 Q1010 NOSIG
12-10-30 LEBL 300200Z 33012KT 9999 FEW035 08/03 Q1010 NOSIG
12-10-30 LEBL 300230Z 33013KT 9999 SCT038 08/02 Q1010 NOSIG
12-10-30 LEBL 300300Z 33014KT 9999 FEW038 08/02 Q1009 NOSIG
12-10-30 LEBL 300330Z 33014KT 9999 FEW038 08/02 Q1009 NOSIG
12-10-30 LEBL 300400Z 33013KT 9999 FEW038 08/02 Q1009 NOSIG
12-10-30 LEBL 300430Z 33013KT CAVOK 08/02 Q1009 NOSIG
12-10-30 LEBL 300500Z 33012KT CAVOK 08/02 Q1008 NOSIG
12-10-30 LEBL 300530Z 33013KT 9999 FEW043 07/02 Q1008 NOSIG
12-10-30 LEBL 300600Z 33013KT 9999 SCT038 07/02 Q1008 NOSIG
12-10-30 LEBL 300630Z 33012KT 9999 SCT045 07/02 Q1008 NOSIG
12-10-30 LEBL 300700Z 33013KT 300V010 9999 SCT040 08/02 Q1008 NOSIG
12-10-30 LEBL 300730Z 33011KT 300V050 9999 SCT033 08/02 Q1008 NOSIG
12-10-30 LEBL 300800Z 33012KT 290V350 9999 FEW033 SCT043 09/02 Q1008 NOSIG
12-10-30 LEBL 300830Z 33010KT 290V350 9999 BKN034 09/03 Q1009 NOSIG
12-10-30 LEBL 300900Z 33011KT 290V030 9999 SCT038 BKN056 10/03 Q1009 NOSIG
12-10-30 LEBL 300930Z 33010KT 290V360 9999 SCT038 BKN056 11/03 Q1009 NOSIG
12-10-30 LEBL 301000Z 33010KT 270V350 9999 SCT034 SCT056 11/03 Q1008 NOSIG
12-10-30 LEBL 301030Z 33008KT 270V350 9999 SCT033 SCT048 13/04 Q1008 NOSIG
12-10-30 LEBL 301100Z 33007KT 290V010 9999 SCT037 SCT043 14/05 Q1008 NOSIG
12-10-30 LEBL 301130Z 33007KT 9999 FEW025 SCT035 BKN043 13/04 Q1007 NOSIG
12-10-30 LEBL 301200Z 34006KT 280V350 9999 FEW025TCU SCT035 BKN043 13/06 Q1006 REDZ NOSIG
12-10-30 LEBL 301230Z 34006KT 250V030 9999 FEW025TCU SCT038 BKN045 14/07 Q1006
12-10-30 LEBL 301300Z 04010KT 340V070 9999 FEW025TCU SCT038 BKN056 14/07 Q1005
12-10-30 LEBL 301330Z 02006KT 9999 FEW025TCU SCT042 BKN056 14/07 Q1005 NOSIG
12-10-30 LEBL 301400Z 33006KT 9999 FEW025TCU SCT050 14/08 Q1005 NOSIG
12-10-30 LEBL 301430Z 33005KT 300V020 9999 FEW025TCU 15/08 Q1005 NOSIG
12-10-30 LEBL 301500Z 34004KT 280V030 9999 FEW025TCU 14/08 Q1004 NOSIG
12-10-30 LEBL 301530Z 34007G18KT 300V020 9999 FEW025TCU 15/09 Q1004 NOSIG
12-10-30 LEBL 301600Z 02005KT 310V050 9999 FEW020 FEW025TCU 14/09 Q1003 NOSIG
12-10-30 LEBL 301630Z 32007KT 250V350 9999 FEW015 FEW025TCU SCT034 14/09 Q1003
12-10-30 LEBL 301700Z 33007KT 290V350 9999 FEW020 FEW025TCU BKN032 14/09 Q1003 BECMG RA
12-10-30 LEBL 301730Z 34006KT 290V040 9999 -RA FEW020TCU SCT022 BKN032 14/10 Q1003 BECMG RA
12-10-30 LEBL 301800Z 36005KT 4000 RA FEW015TCU SCT022 BKN032 14/10 Q1003 BECMG RA
12-10-30 LEBL 301830Z 33004KT 300V360 9999 -RA FEW015TCU SCT022 BKN038 14/11 Q1003
12-10-30 LEBL 301900Z 04006KT 010V070 9999 -RA FEW015TCU SCT022 BKN038 13/11 Q1002
12-10-30 LEBL 301930Z 03008KT 9999 -RA FEW015TCU SCT022 BKN038 13/12 Q1001 NOSIG
12-10-30 LEBL 302000Z 03005KT 350V060 9999 DZ FEW015TCU SCT022 BKN050 13/12 Q1001
12-10-30 LEBL 302030Z 01008KT 9999 DZ FEW015TCU SCT022 BKN044 13/12 Q1001 NOSIG
12-10-30 LEBL 302100Z 34007KT 9999 DZ FEW015TCU SCT022 BKN044 13/12 Q1001 NOSIG
12-10-30 LEBL 302130Z 35006KT 9999 DZ FEW015TCU SCT022 BKN044 13/12 Q1000 NOSIG
12-10-30 LEBL 302200Z 34007KT 9999 DZ FEW018 BKN033 13/12 Q1000 NOSIG
12-10-30 LEBL 302230Z 36008KT 9999 DZ FEW018 BKN020 13/12 Q0999 NOSIG
12-10-30 LEBL 302300Z 33006KT 9999 SCT018 13/12 Q0999 REDZ NOSIG
12-10-30 LEBL 302330Z 01009KT 9999 SCT018 13/11 Q0999 NOSIG
12-10-31 LEBL 310000Z 02010KT 9999 FEW020 SCT055 13/12 Q0998 NOSIG
12-10-31 LEBL 310030Z 36008KT 9999 BKN018 13/12 Q0997 NOSIG
12-10-31 LEBL 310100Z NIL
12-10-31 LEBL 310100Z 36008KT 9999 BKN020 13/12 Q0997 NOSIG
12-10-31 LEBL 310130Z 03014KT 350V060 7000 BKN016 14/13 Q0996 NOSIG
12-10-31 LEBL 310130Z 03014KT 350V060 7000 RA BKN016 14/13 Q0996 NOSIG
12-10-31 LEBL 310200Z 05019KT 5000 +RA BKN018 14/13 Q0995 NOSIG
12-10-31 LEBL 310230Z 04017KT 010V070 2000 R25R/1400VP2000U SHRA BKN018TCU 14/13 Q0994 NOSIG
12-10-31 LEBL 310300Z 06011KT 2000 SHRA BKN008TCU 13/12 Q0993 NOSIG
12-10-31 LEBL 310330Z 04016KT 2000 SHRA BKN008TCU 13/13 Q0993 NOSIG
12-10-31 LEBL 310400Z 03016KT 2000 SHRA BKN018TCU 13/12 Q0993 NOSIG
12-10-31 LEBL 310430Z 02019G29KT 3000 SHRA BKN010TCU 12/12 Q0992 NOSIG
12-10-31 LEBL 310500Z NIL
12-10-31 LEBL 310530Z NIL
12-10-31 LEBL 310530Z 36013KT 8000 RA SCT020 13/12 Q0992 NOSIG
12-10-31 LEBL 310600Z 36016KT 9999 RA SCT020 13/12 Q0992 NOSIG
12-10-31 LEBL 310630Z 01016KT 9999 RA SCT020 12/11 Q0992 NOSIG
12-10-31 LEBL 310700Z 34014KT 9999 RA SCT022 13/11 Q0992 NOSIG
12-10-31 LEBL 310730Z 33014KT 9999 RA SCT022 13/11 Q0992 NOSIG
12-10-31 LEBL 310800Z 32012KT 9000 RA FEW015 SCT022 BKN050 13/11 Q0992 NOSIG
12-10-31 LEBL 310830Z 32013KT 9000 -RA FEW015 SCT022 BKN050 13/11 Q0992 NOSIG
12-10-31 LEBL 310900Z 02006KT 340V060 9000 -RA FEW015 SCT022 BKN050 13/11 Q0992 NOSIG
12-10-31 LEBL 310930Z 32015KT 8000 RA FEW015 SCT025 BKN045 13/11 Q0992 NOSIG
12-10-31 LEBL 311000Z 33016KT 290V350 7000 RA FEW010 SCT025 BKN050 13/11 Q0992
12-10-31 LEBL 311030Z 33012G25KT 230V010 9000 DZ FEW010 SCT025 BKN045 14/11 Q0993
12-10-31 LEBL 311100Z 33011KT 290V350 9000 -RA FEW015 SCT025 BKN045 15/11 Q0993
12-10-31 LEBL 311130Z 33013KT 9999 FEW015 SCT027 BKN050 17/10 Q0993 RERA NOSIG
12-10-31 LEBL 311200Z 31014KT 9999 FEW020 SCT050 18/10 Q0993 NOSIG
12-10-31 LEBL 311230Z 31014KT 9999 FEW020 SCT050 18/10 Q0993 NOSIG
12-10-31 LEBL 311300Z 31012KT 9999 FEW020 SCT050 19/11 Q0993 NOSIG
12-10-31 LEBL 311330Z 30015KT 9999 FEW020 SCT050 19/09 Q0993 NOSIG
12-10-31 LEBL 311400Z 32018G30KT 290V020 9999 FEW020 SCT050 19/09 Q0994 NOSIG
12-10-31 LEBL 311430Z 31015KT 280V340 9999 FEW020 SCT050 19/09 Q0994 NOSIG
12-10-31 LEBL 311500Z 31011KT 270V330 9999 FEW020 SCT055 19/09 Q0994 NOSIG
12-10-31 LEBL 311530Z 29007KT 240V350 9999 FEW025 19/09 Q0994 NOSIG
12-10-31 LEBL 311600Z 30004KT 240V340 9999 FEW025 19/09 Q0995 NOSIG
12-10-31 LEBL 311630Z 31005KT 250V330 9999 FEW025 19/07 Q0995 NOSIG
12-10-31 LEBL 311700Z 20001KT 9999 FEW025 18/09 Q0996 NOSIG
12-10-31 LEBL 311730Z 35003KT 260V040 9999 FEW025 17/09 Q0996 NOSIG
12-10-31 LEBL 311800Z 33009KT 300V010 9999 FEW025 16/09 Q0996 NOSIG
12-10-31 LEBL 311830Z 33006KT 300V030 9999 FEW025 15/08 Q0996 NOSIG
12-10-31 LEBL 311900Z 33008KT 290V020 9999 FEW025 15/08 Q0997 NOSIG
12-10-31 LEBL 311930Z 27006KT 250V330 9999 FEW025 14/08 Q0997 NOSIG
12-10-31 LEBL 312000Z 29004KT 200V350 9999 FEW025 14/07 Q0997 NOSIG
12-10-31 LEBL 312030Z 27003KT 220V330 9999 FEW030 13/08 Q0998 NOSIG
12-10-31 LEBL 312100Z 32003KT 270V010 CAVOK 13/08 Q0998 NOSIG
12-10-31 LEBL 312130Z 32004KT 290V360 9999 FEW025 12/08 Q0998 NOSIG
12-10-31 LEBL 312200Z 31005KT 280V340 9999 FEW025 12/08 Q0998 NOSIG
12-10-31 LEBL 312230Z 30007KT 9999 FEW025 11/08 Q0998 NOSIG
12-10-31 LEBL 312300Z 32006KT 9999 FEW025 11/08 Q0998 NOSIG
12-10-31 LEBL 312330Z 31006KT 9999 FEW025 11/08 Q0998 NOSIG
12-11-01 LEBL 010000Z 29005KT 230V310 9999 FEW025 11/08 Q0998 NOSIG
12-11-01 LEBL 010030Z 29005KT 9999 FEW025 10/08 Q0998 NOSIG
12-11-01 LEBL 010100Z 27005KT 240V300 9999 FEW025 10/08 Q0997 NOSIG
12-11-01 LEBL 010130Z 28003KT 9999 FEW025 11/07 Q0998 NOSIG
12-11-01 LEBL 010200Z VRB02KT 9999 FEW025 12/07 Q0998 NOSIG
12-11-01 LEBL 010230Z 00000KT 9999 FEW025 11/07 Q0997 NOSIG
12-11-01 LEBL 010300Z VRB02KT 9999 FEW025 11/07 Q0997 NOSIG
12-11-01 LEBL 010330Z 26003KT 220V290 9999 FEW025 12/06 Q0997 NOSIG
12-11-01 LEBL 010400Z 29004KT 9999 FEW025 11/06 Q0997 NOSIG
12-11-01 LEBL 010430Z VRB01KT 9999 FEW025 12/06 Q0997 NOSIG
12-11-01 LEBL 010500Z 26001KT 9999 FEW025 12/06 Q0998 NOSIG
12-11-01 LEBL 010530Z 00000KT 9999 FEW025 12/06 Q0998 NOSIG
12-11-01 LEBL 010600Z 28001KT 9999 FEW025 13/06 Q0998 NOSIG
12-11-01 LEBL 010630Z VRB02KT CAVOK 13/06 Q0998 NOSIG
12-11-01 LEBL 010700Z 25001KT CAVOK 13/06 Q0998 NOSIG
12-11-01 LEBL 010730Z 26004KT 220V310 CAVOK 14/06 Q0999 NOSIG
12-11-01 LEBL 010800Z 26011KT CAVOK 15/06 Q0999 NOSIG
12-11-01 LEBL 010830Z 26010KT CAVOK 16/06 Q0999 NOSIG
12-11-01 LEBL 010900Z 24012KT CAVOK 16/06 Q0999 NOSIG
12-11-01 LEBL 010930Z 23012KT CAVOK 16/07 Q1000 NOSIG
12-11-01 LEBL 011000Z 24013KT CAVOK 17/08 Q1000 NOSIG
12-11-01 LEBL 011030Z 25012KT 220V280 CAVOK 18/08 Q1000 NOSIG
12-11-01 LEBL 011100Z 25015KT CAVOK 18/08 Q1000 NOSIG
12-11-01 LEBL 011130Z 23014KT CAVOK 19/08 Q1000 NOSIG
12-11-01 LEBL 011200Z 28012KT 9999 FEW025 19/05 Q1000 NOSIG
12-11-01 LEBL 011230Z 28012KT 250V310 9999 FEW025 20/06 Q0999 NOSIG
12-11-01 LEBL 011300Z 28013KT 9999 FEW025 20/05 Q0999 NOSIG
12-11-01 LEBL 011330Z 25015KT 9999 FEW025 20/06 Q0999 NOSIG
12-11-01 LEBL 011400Z 26014KT 220V280 9999 FEW025 20/04 Q0999 NOSIG
12-11-01 LEBL 011430Z 27013KT 240V300 9999 FEW025 20/06 Q1000 NOSIG
12-11-01 LEBL 011500Z 27014KT 9999 FEW025 20/05 Q1000 NOSIG
12-11-01 LEBL 011530Z 26017KT 240V300 9999 FEW025 20/06 Q1000 NOSIG
12-11-01 LEBL 011600Z 27015KT 9999 FEW025 19/07 Q1001 NOSIG
12-11-01 LEBL 011630Z 27015KT 250V310 9999 FEW025 19/06 Q1001 NOSIG
12-11-01 LEBL 011700Z 26017KT 9999 FEW025 18/07 Q1001 NOSIG
12-11-01 LEBL 011730Z 25014KT 9999 FEW025 18/10 Q1002 NOSIG
12-11-01 LEBL 011800Z 26014KT 9999 FEW025 17/12 Q1003 NOSIG
12-11-01 LEBL 011830Z 26012KT 9999 FEW025 17/12 Q1003 NOSIG
12-11-01 LEBL 011900Z 26011KT 9999 FEW025 16/11 Q1003 NOSIG
12-11-01 LEBL 011930Z 26011KT 240V300 9999 FEW025 15/10 Q1004 NOSIG
12-11-01 LEBL 012000Z 28010KT 9999 FEW025 16/09 Q1004 NOSIG
12-11-01 LEBL 012030Z 28007KT 9999 FEW025 16/09 Q1005 NOSIG
12-11-01 LEBL 012100Z 33008KT 9999 FEW025 16/10 Q1005 NOSIG
12-11-01 LEBL 012130Z 32007KT 290V020 9999 FEW025 14/09 Q1005 NOSIG
12-11-01 LEBL 012200Z 32006KT 290V350 9999 FEW025 14/08 Q1005 NOSIG
12-11-01 LEBL 012230Z 31003KT 260V350 9999 FEW025 13/09 Q1006 NOSIG
12-11-01 LEBL 012300Z 33001KT CAVOK 15/09 Q1006 NOSIG
12-11-01 LEBL 012330Z 26012KT CAVOK 16/08 Q1006 NOSIG
12-11-02 LEBL 020000Z 26011KT CAVOK 16/08 Q1006 NOSIG
12-11-02 LEBL 020030Z 06003KT CAVOK 17/08 Q1007 NOSIG
12-11-02 LEBL 020100Z 07002KT CAVOK 15/08 Q1007 NOSIG
12-11-02 LEBL 020130Z 32003KT 9999 FEW025 14/09 Q1008 NOSIG
12-11-02 LEBL 020200Z 00000KT 9999 FEW025 14/09 Q1008 NOSIG
12-11-02 LEBL 020230Z 29010KT 9999 FEW025 17/08 Q1008 NOSIG
12-11-02 LEBL 020300Z 28006KT 9999 FEW025 16/08 Q1009 NOSIG
12-11-02 LEBL 020330Z 10004KT 9999 FEW025 15/08 Q1009 NOSIG
12-11-02 LEBL 020400Z 36002KT 9999 FEW025 15/09 Q1009 NOSIG
12-11-02 LEBL 020430Z 36005KT 220V030 9999 FEW025 15/08 Q1009 NOSIG
12-11-02 LEBL 020500Z 33005KT 9999 FEW025 16/08 Q1009 NOSIG
12-11-02 LEBL 020530Z 32006KT 260V340 9999 FEW025 16/07 Q1009 NOSIG
12-11-02 LEBL 020600Z 22001KT 9999 FEW025 15/08 Q1010 NOSIG
12-11-02 LEBL 020630Z VRB02KT 9999 FEW025 13/08 Q1010 NOSIG
12-11-02 LEBL 020700Z 30004KT 9999 FEW025 13/08 Q1010 NOSIG
12-11-02 LEBL 020730Z 32003KT 280V030 9999 FEW025 14/09 Q1011 NOSIG
12-11-02 LEBL 020800Z 30004KT 260V340 9999 FEW025 16/09 Q1012 NOSIG
12-11-02 LEBL 020830Z 29004KT 260V340 9999 FEW025 15/09 Q1012 NOSIG
12-11-02 LEBL 020900Z 24003KT 200V290 9999 FEW025 17/09 Q1012 NOSIG
12-11-02 LEBL 020930Z 26004KT 210V310 9999 FEW025 18/08 Q1012 NOSIG
12-11-02 LEBL 021000Z 27013KT 240V300 9999 FEW025 19/08 Q1012 NOSIG
12-11-02 LEBL 021030Z 26017G34KT 240V300 9999 FEW025 20/07 Q1012 NOSIG
12-11-02 LEBL NIL
12-11-02 LEBL 021100Z 26013KT 230V310 9999 FEW025 20/08 Q1012 NOSIG
12-11-02 LEBL 021130Z 23016KT 9999 FEW025 20/09 Q1011 NOSIG
12-11-02 LEBL 021200Z 23017KT 9999 FEW025 21/08 Q1011 NOSIG
12-11-02 LEBL 021230Z 22016KT 9999 FEW025 21/09 Q1011 NOSIG
12-11-02 LEBL 021300Z 23019KT 9999 FEW025 21/09 Q1011 NOSIG
12-11-02 LEBL 021330Z 23019KT 9999 FEW025 21/08 Q1011 NOSIG
12-11-02 LEBL 021400Z 23017KT 9999 FEW025 21/09 Q1011 NOSIG
12-11-02 LEBL 021430Z 23016KT 9999 FEW025 21/10 Q1011 NOSIG
12-11-02 LEBL 021500Z 25013KT 9999 FEW025 21/10 Q1011 NOSIG
12-11-02 LEBL 021530Z 22011KT 9999 FEW025 20/11 Q1011 NOSIG
12-11-02 LEBL 021600Z 21011KT 9999 FEW025 20/13 Q1011 NOSIG
12-11-02 LEBL 021630Z 21011KT 9999 FEW025 19/13 Q1011 NOSIG
12-11-02 LEBL 021700Z 22010KT 9999 FEW025 18/12 Q1012 NOSIG
12-11-02 LEBL 021730Z 25009KT 9999 FEW025 18/13 Q1012 NOSIG
12-11-02 LEBL 021800Z 24010KT 9999 FEW025 18/13 Q1012 NOSIG
12-11-02 LEBL 021830Z 24010KT 9999 FEW025 18/14 Q1012 NOSIG
12-11-02 LEBL 021900Z 24009KT 9999 FEW025 17/14 Q1013 NOSIG
12-11-02 LEBL 021930Z 24006KT 9999 FEW025 17/13 Q1013 NOSIG
12-11-02 LEBL 022000Z 25006KT 9999 FEW025 17/13 Q1013 NOSIG
12-11-02 LEBL 022030Z 25007KT 9999 FEW025 16/12 Q1013 NOSIG
12-11-02 LEBL 022100Z 25009KT 220V280 9999 FEW025 16/12 Q1013 NOSIG
12-11-02 LEBL 022130Z 25007KT 9999 FEW025 16/12 Q1013 NOSIG
12-11-02 LEBL 022200Z 26008KT 240V300 9999 FEW025 15/11 Q1013 NOSIG
12-11-02 LEBL 022230Z 25003KT 220V280 9999 FEW025 15/11 Q1013 NOSIG
12-11-02 LEBL 022300Z VRB02KT 9999 FEW025 16/11 Q1012 NOSIG
12-11-02 LEBL 022330Z VRB01KT 9999 FEW025 17/11 Q1012 NOSIG
12-11-03 LEBL 030000Z VRB01KT 9999 FEW025 16/12 Q1012 NOSIG
12-11-03 LEBL 030030Z 29002KT 9999 FEW025 16/12 Q1012 NOSIG
12-11-03 LEBL 030100Z 29003KT 9999 FEW025 14/10 Q1012 NOSIG
12-11-03 LEBL 030130Z 31004KT 9999 FEW025 14/10 Q1012 NOSIG
12-11-03 LEBL 030200Z 32007KT 9999 FEW025 14/09 Q1011 NOSIG
12-11-03 LEBL 030230Z 32004KT 9999 FEW025 14/09 Q1011 NOSIG
12-11-03 LEBL 030300Z 32005KT 9999 FEW016 14/09 Q1011 NOSIG
12-11-03 LEBL 030330Z 31004KT 9999 FEW015 14/09 Q1011 NOSIG
12-11-03 LEBL 030400Z 30004KT 9999 FEW015 14/09 Q1010 NOSIG
12-11-03 LEBL 030430Z 32005KT 9999 FEW018 14/10 Q1010 NOSIG
12-11-03 LEBL 030500Z 31003KT 9999 FEW018 14/10 Q1010 NOSIG
12-11-03 LEBL 030530Z 31005KT 9999 FEW020 14/10 Q1010 NOSIG
12-11-03 LEBL 030600Z 31005KT 9999 FEW020 14/10 Q1010 NOSIG
12-11-03 LEBL 030630Z 31006KT 9999 FEW020 14/10 Q1010 NOSIG
12-11-03 LEBL 030700Z 31004KT 270V330 9999 FEW020 14/09 Q1010 NOSIG
12-11-03 LEBL 030730Z 31003KT 270V360 9999 FEW018 14/09 Q1010 NOSIG
12-11-03 LEBL 030800Z 32004KT 280V360 9999 FEW025 14/09 Q1010 NOSIG
12-11-03 LEBL 030830Z 32005KT 230V350 9999 FEW025 15/10 Q1010 NOSIG
12-11-03 LEBL 030900Z 31005KT 280V350 9999 FEW025 16/10 Q1010 NOSIG
12-11-03 LEBL 030930Z 33007KT 9999 FEW025 16/10 Q1010 NOSIG
12-11-03 LEBL 031000Z 32005KT 220V360 9999 FEW025 16/10 Q1010 NOSIG
12-11-03 LEBL 031030Z 32005KT 290V360 9999 FEW025 17/09 Q1010 NOSIG
12-11-03 LEBL 031100Z 33003KT 9999 FEW025 18/10 Q1010 NOSIG
12-11-03 LEBL 031130Z 23003KT 160V330 9999 FEW025 19/10 Q1009 NOSIG
12-11-03 LEBL 031200Z 21004KT 180V260 9999 FEW025 19/12 Q1009 NOSIG
12-11-03 LEBL 031230Z 21004KT 160V250 9999 FEW025 SCT055 20/10 Q1009 NOSIG
12-11-03 LEBL 031300Z 21006KT 9999 FEW025 SCT049 20/11 Q1008 NOSIG
12-11-03 LEBL 031330Z 20006KT 9999 FEW025 SCT041 20/09 Q1008 NOSIG
12-11-03 LEBL 031400Z 20006KT 9999 FEW025 SCT041 19/12 Q1008 NOSIG
12-11-03 LEBL 031430Z 23006KT 9999 FEW025 SCT044 19/12 Q1008 NOSIG
12-11-03 LEBL 031500Z 22005KT 9999 FEW025 SCT046 19/12 Q1008 NOSIG
12-11-03 LEBL 031530Z 22004KT 9999 FEW025 19/11 Q1007 NOSIG
12-11-03 LEBL 031600Z 21006KT 190V250 9999 FEW025 19/12 Q1008 NOSIG
12-11-03 LEBL 031630Z 21005KT 9999 SCT040 18/13 Q1008 NOSIG
12-11-03 LEBL 031700Z 21005KT 9999 FEW020 18/13 Q1008 NOSIG
12-11-03 LEBL 031730Z 22004KT 9999 FEW020 18/13 Q1008 NOSIG
12-11-03 LEBL 031800Z 22006KT 9999 FEW030 18/13 Q1008 NOSIG
12-11-03 LEBL 031830Z 22007KT 9999 FEW030 18/12 Q1008 NOSIG
12-11-03 LEBL 031900Z 23009KT 9999 FEW030 18/12 Q1008 NOSIG
12-11-03 LEBL 031930Z 23010KT 9999 FEW030 18/12 Q1008 NOSIG
12-11-03 LEBL 032000Z 23011KT 9999 FEW030 18/12 Q1008 NOSIG
12-11-03 LEBL 032030Z 22006KT 9999 FEW030 17/13 Q1008 NOSIG
12-11-03 LEBL 032100Z 22004KT 9999 FEW030 17/13 Q1008 NOSIG
12-11-03 LEBL 032130Z VRB02KT 9999 FEW030 17/12 Q1008 NOSIG
12-11-03 LEBL 032200Z 30003KT 280V350 9999 FEW030 16/11 Q1008 NOSIG
12-11-03 LEBL 032230Z 30003KT 270V340 9999 FEW030 16/11 Q1008 NOSIG
12-11-03 LEBL 032300Z 00000KT 9999 FEW030 16/11 Q1008 NOSIG
12-11-03 LEBL 032330Z 00000KT 9999 FEW025 15/11 Q1008 NOSIG
12-11-04 LEBL 040000Z 32003KT 270V340 9999 FEW025 15/12 Q1008 NOSIG
12-11-04 LEBL 040030Z VRB01KT 9999 FEW025 14/11 Q1007 NOSIG
12-11-04 LEBL 040100Z 30004KT 230V330 9999 FEW025 14/11 Q1007 NOSIG
12-11-04 LEBL 040130Z 31006KT 9999 FEW025 14/12 Q1007 NOSIG
12-11-04 LEBL 040200Z 31006KT 9999 FEW025 14/12 Q1007 NOSIG
12-11-04 LEBL 040230Z 31006KT 9999 FEW025 14/11 Q1006 NOSIG
12-11-04 LEBL 040300Z 31006KT 9999 FEW025 14/11 Q1006 NOSIG
12-11-04 LEBL 040330Z 30006KT 9999 FEW025 14/11 Q1006 NOSIG
12-11-04 LEBL 040400Z VRB02KT 9999 FEW025 14/11 Q1006 NOSIG
12-11-04 LEBL 040430Z VRB01KT 9999 FEW025 14/12 Q1006 NOSIG
12-11-04 LEBL 040500Z VRB02KT 9999 FEW025 14/11 Q1006 NOSIG
12-11-04 LEBL 040530Z 31003KT 9999 FEW025 14/11 Q1006 NOSIG
12-11-04 LEBL 040600Z 31004KT 9999 FEW025 14/11 Q1006 NOSIG
12-11-04 LEBL 040630Z 31003KT 9999 FEW025 14/11 Q1006 NOSIG
12-11-04 LEBL 040700Z 31004KT 270V340 9999 FEW025 14/11 Q1006 NOSIG
12-11-04 LEBL 040730Z 33005KT 290V360 9999 DZ FEW015 SCT035 15/12 Q1006 NOSIG
12-11-04 LEBL 040800Z 32005KT 260V020 9999 FEW015 SCT035 15/12 Q1005 REDZ NOSIG
12-11-04 LEBL 040830Z 30005KT 260V340 9999 FEW025 16/12 Q1006 NOSIG
12-11-04 LEBL 040900Z 29005KT 250V330 9999 FEW025 17/13 Q1005 NOSIG
12-11-04 LEBL 040912Z 33004KT 280V030 9999 DZ FEW025 17/14 Q1005 NOSIG
12-11-04 LEBL 040930Z 34003KT 260V030 9999 FEW025 17/13 Q1005 REDZ NOSIG
12-11-04 LEBL 041000Z 31002KT 9999 FEW009 18/15 Q1005 NOSIG
12-11-04 LEBL 041030Z 23004KT 200V260 6000 RA FEW007 SCT018 BKN030 19/16 Q1005 NOSIG
12-11-04 LEBL 041100Z 21006KT 9000 DZ FEW006 SCT018 BKN030 18/17 Q1004 NOSIG
12-11-04 LEBL 041230Z 21006KT 180V240 9999 FEW008 SCT020 20/18 Q1003 NOSIG
12-11-04 LEBL 041300Z 23005KT 9999 FEW007 BKN011 20/18 Q1002 NOSIG
12-11-04 LEBL 041330Z 20005KT 9999 FEW007 SCT010 20/18 Q1002 NOSIG
12-11-04 LEBL 041400Z 20005KT 9999 RA SCT007 BKN055 20/17 Q1001 NOSIG
12-11-04 LEBL 041415Z 21005KT 170V240 9999 SCT006 SCT020 BKN055 20/18 Q1001 RERA
12-11-04 LEBL 041430Z 21005KT 9999 -RA FEW005 SCT020 BKN056 19/17 Q1001 NOSIG
12-11-04 LEBL 041500Z 21006KT 9999 -RA FEW005 SCT016 19/17 Q1002 NOSIG
12-11-04 LEBL 041600Z 21011KT 9999 FEW007 SCT020 19/17 Q1001 NOSIG
12-11-04 LEBL 041630Z 22010KT 9999 FEW018 19/18 Q1001 NOSIG
12-11-04 LEBL 041700Z 21010KT 9999 FEW018 18/17 Q1002 NOSIG
12-11-04 LEBL 041730Z 24008KT 9999 FEW020 SCT038 18/17 Q1002 NOSIG
12-11-04 LEBL 041800Z 28004KT 220V360 9999 FEW020 SCT038 18/17 Q1002 NOSIG
12-11-04 LEBL 041830Z 32011KT 280V350 9000 FEW020 SCT030 18/17 Q1002 NOSIG
12-11-04 LEBL 041900Z 31014G25KT 280V350 9999 FEW020 19/14 Q1003 NOSIG
12-11-04 LEBL 041930Z 31013KT 9999 FEW020 SCT042 18/13 Q1003 NOSIG
12-11-04 LEBL NIL
12-11-04 LEBL 042000Z 32006KT 280V350 9999 FEW020 SCT050 18/13 Q1003 NOSIG
12-11-04 LEBL 042030Z 32007KT 280V360 9999 FEW020 SCT050 18/12 Q1003 NOSIG
12-11-04 LEBL 042100Z 30012KT 9999 RA FEW020 SCT050 19/11 Q1004 NOSIG
12-11-04 LEBL 042130Z 34010KT 9999 FEW020 SCT050 18/11 Q1004 RERA NOSIG
12-11-04 LEBL 042200Z 31008KT 260V350 9999 FEW020 18/11 Q1004 NOSIG
12-11-04 LEBL 042230Z 29006KT 260V330 9999 FEW020 18/11 Q1005 NOSIG
12-11-04 LEBL 042300Z 30011KT 9999 FEW020 18/09 Q1005 NOSIG
12-11-04 LEBL 042330Z 32006KT 280V360 9999 FEW020 18/10 Q1005 NOSIG
12-11-05 LEBL 050000Z 32010KT 9999 FEW020 17/10 Q1006 NOSIG
12-11-05 LEBL 050030Z 32011KT 9999 FEW020 17/10 Q1006 NOSIG
12-11-05 LEBL 050100Z 33008KT 9999 FEW020 17/10 Q1006 NOSIG
12-11-05 LEBL 050130Z 34008KT 9999 FEW020 17/10 Q1007 NOSIG
12-11-05 LEBL 050200Z 34007KT 9999 FEW020 16/10 Q1007 NOSIG
12-11-05 LEBL 050230Z 35005KT 9999 FEW020 16/10 Q1007 NOSIG
12-11-05 LEBL 050300Z VRB02KT 9999 FEW020 16/10 Q1007 NOSIG
12-11-05 LEBL 050330Z VRB01KT 9999 FEW020 15/10 Q1007 NOSIG
12-11-05 LEBL 050400Z 11004KT 080V210 9999 FEW020 16/10 Q1008 NOSIG
12-11-05 LEBL 050430Z 28005KT 220V300 9999 FEW020 15/10 Q1008 NOSIG
12-11-05 LEBL 050500Z 28009KT 240V310 9999 FEW025 16/09 Q1008 NOSIG
12-11-05 LEBL 050530Z 26010KT 9999 FEW025 15/08 Q1009 NOSIG
12-11-05 LEBL 050600Z 25009KT 220V280 9999 FEW025 14/07 Q1009 NOSIG
12-11-05 LEBL 050630Z 31009KT 9999 FEW025 15/05 Q1010 NOSIG
12-11-05 LEBL 050700Z 34008KT 310V010 9999 FEW025 14/05 Q1010 NOSIG
12-11-05 LEBL 050730Z 33008KT 9999 FEW025 13/06 Q1011 NOSIG
12-11-05 LEBL 050800Z 32006KT 9999 FEW025 14/06 Q1012 NOSIG
12-11-05 LEBL 050830Z 34006KT 270V060 9999 FEW025 15/05 Q1012 NOSIG
12-11-05 LEBL 050900Z 34009KT 290V060 9999 FEW025 14/05 Q1013 NOSIG
12-11-05 LEBL 050930Z 34013KT 290V040 9999 FEW025 15/04 Q1013 NOSIG
12-11-05 LEBL 051000Z 33010KT 300V020 9999 FEW025 16/04 Q1013 NOSIG
12-11-05 LEBL 051030Z 33011G23KT 280V350 9999 FEW025 17/03 Q1013 NOSIG
12-11-05 LEBL 051100Z 31013KT 260V350 9999 FEW025 17/04 Q1013 NOSIG
12-11-05 LEBL 051130Z 33012G22KT 300V360 9999 FEW025 18/05 Q1013 NOSIG
12-11-05 LEBL 051200Z 33013KT 9999 FEW025 18/05 Q1013 NOSIG
12-11-05 LEBL 051230Z 21005KT 9999 FEW025 18/05 Q1013 NOSIG
12-11-05 LEBL 051300Z 25005KT 9999 FEW025 18/04 Q1013 NOSIG
12-11-05 LEBL 051330Z 31011KT 280V340 9999 FEW025 18/04 Q1013 NOSIG
12-11-05 LEBL 051400Z 31013G23KT 270V350 9999 FEW025 18/05 Q1013 NOSIG
12-11-05 LEBL 051430Z 30012KT 9999 FEW025 18/04 Q1014 NOSIG
12-11-05 LEBL 051500Z 30013KT 9999 FEW025 17/05 Q1014 NOSIG
12-11-05 LEBL 051530Z 30008KT 280V340 9999 FEW025 17/05 Q1014 NOSIG
12-11-05 LEBL 051600Z 32009KT 290V010 9999 FEW025 17/04 Q1015 NOSIG
12-11-05 LEBL 051630Z 29006KT 250V340 9999 FEW030 17/05 Q1015 NOSIG
12-11-05 LEBL 051700Z 28004KT 9999 FEW030 16/06 Q1015 NOSIG
12-11-05 LEBL 051730Z 27005KT 9999 FEW030 16/05 Q1016 NOSIG
12-11-05 LEBL 051800Z 28005KT 240V310 9999 FEW030 15/05 Q1016 NOSIG
12-11-05 LEBL 051830Z 27004KT 9999 FEW030 15/04 Q1016 NOSIG
12-11-05 LEBL 051900Z 30003KT 260V350 9999 FEW030 15/05 Q1017 NOSIG
12-11-05 LEBL 051930Z 28004KT 240V320 9999 FEW030 15/04 Q1017 NOSIG
12-11-05 LEBL 052000Z VRB02KT 9999 FEW030 15/04 Q1017 NOSIG
12-11-05 LEBL 052030Z 26003KT 190V340 9999 FEW030 15/04 Q1017 NOSIG
12-11-05 LEBL 052100Z 32003KT 240V020 9999 FEW030 14/05 Q1017 NOSIG
12-11-05 LEBL 052130Z 35003KT 290V030 9999 FEW030 13/06 Q1018 NOSIG
12-11-05 LEBL 052200Z 31005KT 260V010 9999 FEW030 13/05 Q1018 NOSIG
12-11-05 LEBL 052230Z 27005KT 220V290 9999 FEW030 13/06 Q1017 NOSIG
12-11-05 LEBL 052300Z 28005KT 9999 FEW030 12/06 Q1018 NOSIG
12-11-05 LEBL 052330Z 30006KT 9999 FEW030 13/06 Q1018 NOSIG
12-11-06 LEBL 060000Z VRB05KT 9999 FEW030 13/06 Q1018 NOSIG
12-11-06 LEBL 060030Z 33008KT 9999 FEW030 12/07 Q1018 NOSIG
12-11-06 LEBL 060100Z 31007KT 9999 FEW030 13/06 Q1018 NOSIG
12-11-06 LEBL 060130Z 32008KT 9999 FEW030 13/06 Q1018 NOSIG
12-11-06 LEBL 060200Z 31007KT 9999 FEW030 13/06 Q1018 NOSIG
12-11-06 LEBL 060230Z 32006KT 9999 FEW025 12/06 Q1018 NOSIG
12-11-06 LEBL 060300Z 33008KT 9999 FEW020 12/07 Q1017 NOSIG
12-11-06 LEBL 060330Z 32010KT 9999 FEW020 12/06 Q1017 NOSIG
12-11-06 LEBL 060400Z 33010KT 9999 FEW020 11/06 Q1018 NOSIG
12-11-06 LEBL 060430Z 33010KT 9999 FEW020 11/06 Q1018 NOSIG
12-11-06 LEBL 060500Z 33009KT 9999 FEW020 11/06 Q1018 NOSIG
12-11-06 LEBL 060530Z 32008KT 9999 FEW020 11/06 Q1018 NOSIG
12-11-06 LEBL 060600Z 32008KT 9999 FEW020 11/06 Q1018 NOSIG
12-11-06 LEBL 060630Z 33008KT 9999 FEW020 11/06 Q1018 NOSIG
12-11-06 LEBL 060700Z 32010KT 300V360 9999 FEW020 11/06 Q1019 NOSIG
12-11-06 LEBL 060730Z 32006KT 260V360 9999 FEW018 11/06 Q1019 NOSIG
12-11-06 LEBL 060800Z 33005KT 270V040 9999 FEW018 12/06 Q1019 NOSIG
12-11-06 LEBL 060830Z 33007G17KT 280V030 9999 FEW020 13/06 Q1020 NOSIG
12-11-06 LEBL 060900Z 32007KT 270V340 9999 FEW020 13/06 Q1020 NOSIG
12-11-06 LEBL 060930Z 33006KT 280V010 9999 R07L/1300D FEW020 14/07 Q1020 NOSIG
12-11-06 LEBL 060930Z 35004KT 290V030 9999 FEW020 14/07 Q1020 NOSIG
12-11-06 LEBL 061000Z 34005KT 240V020 9999 FEW022 14/07 Q1020 NOSIG
12-11-06 LEBL 061030Z 34006KT 280V010 9999 FEW022 14/07 Q1020 NOSIG
12-11-06 LEBL 061100Z 32007KT 260V010 9999 FEW022 14/06 Q1020 NOSIG
12-11-06 LEBL 061130Z 31010KT 280V350 9999 FEW025 15/06 Q1020 NOSIG
12-11-06 LEBL 061200Z 31012KT 280V340 9999 FEW025 15/06 Q1020 NOSIG
12-11-06 LEBL 061230Z 32012KT 9999 FEW025 16/06 Q1020 NOSIG
12-11-06 LEBL 061300Z 31009KT 9999 FEW025 16/06 Q1019 NOSIG
12-11-06 LEBL 061330Z 32010KT 9999 FEW025 16/06 Q1019 NOSIG
12-11-06 LEBL 061400Z 31010KT 270V330 9999 FEW025 16/06 Q1020 NOSIG
12-11-06 LEBL 061430Z 31011KT 270V340 9999 FEW025 16/06 Q1020 NOSIG
12-11-06 LEBL 061500Z 31009KT 9999 FEW025 16/06 Q1020 NOSIG
12-11-06 LEBL 061530Z 32007KT 9999 FEW025 16/07 Q1020 NOSIG
12-11-06 LEBL 061600Z 31008KT 9999 FEW025 16/07 Q1020 NOSIG
12-11-06 LEBL 061630Z 32008KT 9999 FEW025 15/07 Q1021 NOSIG
12-11-06 LEBL 061700Z 32006KT 270V350 9999 FEW025 14/07 Q1021 NOSIG
12-11-06 LEBL 061730Z 31008KT 9999 FEW025 14/07 Q1021 NOSIG
12-11-06 LEBL 061800Z 32008KT 280V350 9999 FEW025 13/07 Q1022 NOSIG
12-11-06 LEBL 061830Z 32006KT 250V360 9999 FEW025 13/07 Q1022 NOSIG
12-11-06 LEBL 061900Z 34007KT 310V020 9999 FEW025 SCT035 13/07 Q1023 TEMPO 06012KT
12-11-06 LEBL 061930Z 09008KT 060V120 9999 FEW025 SCT035 15/10 Q1023 NOSIG
12-11-06 LEBL 062000Z 06008KT 030V090 9999 FEW025 SCT035 14/09 Q1024 NOSIG
12-11-06 LEBL 062030Z 08006KT 9999 FEW025 SCT035 14/09 Q1024 NOSIG
12-11-06 LEBL 062100Z 06006KT 9999 FEW025 SCT042 14/10 Q1024 NOSIG
12-11-06 LEBL 062130Z 06005KT 9999 FEW025 SCT042 13/10 Q1024 NOSIG
12-11-06 LEBL 062200Z 31003KT 290V360 9999 FEW025 SCT042 13/10 Q1025 NOSIG
12-11-06 LEBL 062230Z 32006KT 9999 FEW025 SCT042 12/08 Q1025 NOSIG
12-11-06 LEBL 062300Z 33007KT 9999 FEW025 SCT042 12/08 Q1026 NOSIG
12-11-06 LEBL 062330Z 33007KT 9999 FEW025 SCT042 12/09 Q1026 NOSIG
12-11-07 LEBL 070000Z 33007KT 9999 FEW025 11/08 Q1026 NOSIG
12-11-07 LEBL 070030Z 33009KT 9999 FEW025 SCT040 11/08 Q1026 NOSIG
12-11-07 LEBL 070100Z NIL
12-11-07 LEBL 070100Z 32011KT 9999 FEW025 10/07 Q1026 NOSIG
12-11-07 LEBL 070130Z 33010KT 9999 FEW025 10/07 Q1026 NOSIG
12-11-07 LEBL 070200Z 33007KT 9999 FEW025 10/07 Q1027 NOSIG
12-11-07 LEBL 070230Z 33009KT 9999 FEW025 10/06 Q1027 NOSIG
12-11-07 LEBL 070300Z NIL
12-11-07 LEBL 070300Z 33008KT 9999 FEW025 10/05 Q1027 NOSIG
12-11-07 LEBL 070330Z 33011KT 9999 FEW025 10/04 Q1027 NOSIG
12-11-07 LEBL 070400Z 33012KT 9999 FEW025 09/05 Q1027 NOSIG
12-11-07 LEBL 070400Z 33011KT 9999 FEW025 09/05 Q1027 NOSIG
12-11-07 LEBL 070430Z 32010KT 9999 FEW025 09/05 Q1027 NOSIG
12-11-07 LEBL 070500Z 33012KT 9999 FEW025 09/04 Q1027 NOSIG
12-11-07 LEBL 070530Z 33011KT 9999 FEW025 09/04 Q1027 NOSIG
12-11-07 LEBL 070600Z NIL
12-11-07 LEBL 070630Z 33011KT 9999 FEW025 08/04 Q1028 NOSIG
12-11-07 LEBL 070700Z 34013KT 9999 FEW025 08/03 Q1028 NOSIG
12-11-07 LEBL 070730Z 33013KT 9999 FEW025 09/03 Q1029 NOSIG
12-11-07 LEBL 070800Z 33014KT 9999 FEW035 09/03 Q1029 NOSIG
12-11-07 LEBL 070830Z 33013G24KT 9999 FEW035 10/03 Q1029 NOSIG
12-11-07 LEBL 070900Z 33012KT 9999 FEW030 11/04 Q1030 NOSIG
12-11-07 LEBL 070930Z 33011KT 300V360 9999 FEW030 11/03 Q1030 NOSIG
12-11-07 LEBL 071000Z 33010G21KT 9999 FEW030 12/03 Q1030 NOSIG
12-11-07 LEBL 071030Z 32008KT 280V350 9999 FEW030 13/04 Q1030 NOSIG
12-11-07 LEBL 071100Z 31006KT 270V350 9999 FEW030 14/04 Q1029 NOSIG
12-11-07 LEBL 071130Z 34006KT 290V360 9999 FEW030 15/04 Q1029 NOSIG
12-11-07 LEBL 071200Z VRB02KT 9999 FEW030 16/05 Q1029 NOSIG
12-11-07 LEBL 071230Z 13006KT 100V160 9999 FEW030 16/05 Q1028 NOSIG
12-11-07 LEBL 071300Z 11005KT 9999 FEW030 17/07 Q1028 NOSIG
12-11-07 LEBL 071330Z 13005KT CAVOK 16/08 Q1028 NOSIG
12-11-07 LEBL 071400Z 16004KT CAVOK 15/08 Q1027 NOSIG
12-11-07 LEBL 071430Z 17004KT 140V210 CAVOK 16/08 Q1027 NOSIG
12-11-07 LEBL 071500Z 19003KT 150V220 CAVOK 16/08 Q1027 NOSIG
12-11-07 LEBL 071530Z 18003KT 120V220 CAVOK 16/08 Q1027 NOSIG
12-11-07 LEBL 071600Z 19003KT CAVOK 15/08 Q1027 NOSIG
12-11-07 LEBL 071630Z 21004KT 9999 FEW040 14/09 Q1027 NOSIG
12-11-07 LEBL 071700Z 23004KT 9999 FEW040 14/09 Q1027 NOSIG
12-11-07 LEBL 071730Z 24003KT 9999 FEW040 13/09 Q1027 NOSIG
12-11-07 LEBL 071800Z 24004KT 9999 FEW030 12/09 Q1028 NOSIG
12-11-07 LEBL 071830Z 25006KT 9999 FEW030 12/09 Q1028 NOSIG
12-11-07 LEBL 071900Z 31004KT 240V350 9999 FEW030 12/08 Q1028 NOSIG
12-11-07 LEBL 071930Z 30005KT 230V330 9999 FEW030 11/08 Q1028 NOSIG
12-11-07 LEBL 072000Z 34006KT 300V020 9999 FEW030 11/07 Q1028 NOSIG
12-11-07 LEBL 072030Z 32005KT 200V360 9999 FEW030 11/07 Q1028 NOSIG
12-11-07 LEBL 072100Z 32005KT 240V020 9999 FEW030 11/07 Q1028 NOSIG
12-11-07 LEBL 072130Z 31006KT 220V340 9999 FEW030 11/06 Q1028 NOSIG
12-11-07 LEBL 072200Z 33007KT 9999 FEW030 10/06 Q1027 NOSIG
12-11-07 LEBL 072230Z 32007KT 9999 FEW030 10/06 Q1027 NOSIG
12-11-07 LEBL 072300Z 31006KT 9999 FEW030 10/06 Q1027 NOSIG
12-11-07 LEBL 072330Z 33009KT 9999 FEW030 10/05 Q1027 NOSIG
12-11-08 LEBL 080000Z 32008KT 9999 FEW030 10/04 Q1026 NOSIG
12-11-08 LEBL 080030Z 32009KT 9999 FEW030 10/05 Q1026 NOSIG
12-11-08 LEBL 080100Z 32009KT 9999 FEW030 09/05 Q1026 NOSIG
12-11-08 LEBL 080130Z 32008KT 9999 FEW030 09/04 Q1026 NOSIG
12-11-08 LEBL 080200Z 32008KT 9999 FEW030 09/04 Q1025 NOSIG
12-11-08 LEBL 080230Z 33008KT 9999 FEW030 09/04 Q1025 NOSIG
12-11-08 LEBL 080300Z 32008KT 9999 FEW030 09/04 Q1025 NOSIG
12-11-08 LEBL 080330Z 33008KT 9999 FEW030 09/04 Q1025 NOSIG
12-11-08 LEBL 080400Z 32007KT 9999 FEW030 09/04 Q1025 NOSIG
12-11-08 LEBL 080430Z 34008KT 9999 FEW030 09/04 Q1025 NOSIG
12-11-08 LEBL 080500Z 32009KT 9999 FEW030 09/04 Q1025 NOSIG
12-11-08 LEBL 080530Z 32009KT 9999 FEW030 09/04 Q1024 NOSIG
12-11-08 LEBL 080600Z 32009KT 9999 FEW030 09/04 Q1024 NOSIG
12-11-08 LEBL 080630Z 32007KT 9999 FEW030 08/04 Q1024 NOSIG
12-11-08 LEBL 080700Z 32008KT 9999 FEW040 09/04 Q1025 NOSIG
12-11-08 LEBL 080730Z 32007KT 290V350 9999 FEW040 09/04 Q1025 NOSIG
12-11-08 LEBL 080800Z 32008KT 280V350 9999 FEW040 10/04 Q1025 NOSIG
12-11-08 LEBL 080830Z 32007KT 9999 FEW030 11/05 Q1025 NOSIG
12-11-08 LEBL 080900Z 32007KT 280V010 9999 FEW030 12/06 Q1025 NOSIG
12-11-08 LEBL 080930Z 33005KT 290V350 9999 FEW030 13/06 Q1024 NOSIG
12-11-08 LEBL 081000Z 31003KT 230V350 9999 FEW030 15/08 Q1024 NOSIG
12-11-08 LEBL 081030Z 24003KT 190V300 9999 FEW030 17/10 Q1024 NOSIG
12-11-08 LEBL 081100Z 21007KT 180V250 9999 FEW030 17/09 Q1024 NOSIG
12-11-08 LEBL 081130Z 20007KT 9999 FEW030 18/09 Q1023 NOSIG
12-11-08 LEBL 081200Z 20007KT 170V230 9999 FEW030 18/09 Q1023 NOSIG
12-11-08 LEBL 081230Z 19007KT 9999 FEW030 18/08 Q1022 NOSIG
12-11-08 LEBL 081300Z 20006KT 170V230 9999 FEW030 18/08 Q1022 NOSIG
12-11-08 LEBL 081330Z 19007KT 150V220 9999 FEW030 18/09 Q1022 NOSIG
12-11-08 LEBL 081400Z 19007KT 9999 FEW030 17/08 Q1021 NOSIG
12-11-08 LEBL 081430Z 19007KT 9999 FEW030 17/10 Q1021 NOSIG
12-11-08 LEBL 081500Z 19006KT 150V220 9999 FEW030 17/10 Q1021 NOSIG
12-11-08 LEBL 081530Z 21006KT 9999 FEW030 17/09 Q1021 NOSIG
12-11-08 LEBL 081600Z 21005KT 9999 FEW030 17/10 Q1021 NOSIG
12-11-08 LEBL 081630Z VRB02KT 9999 FEW030 SCT055 16/10 Q1021 NOSIG
12-11-08 LEBL 081700Z 23003KT 9999 FEW030 16/10 Q1021 NOSIG
12-11-08 LEBL 081730Z 20004KT 9999 FEW030 16/10 Q1021 NOSIG
12-11-08 LEBL 081800Z 22005KT 9999 FEW030 15/10 Q1021 NOSIG
12-11-08 LEBL 081830Z 22004KT 9999 FEW030 SCT055 15/10 Q1021 NOSIG
12-11-08 LEBL 081900Z VRB02KT 9999 FEW030 SCT055 15/10 Q1021 NOSIG
12-11-08 LEBL 081930Z VRB02KT 9999 FEW024 SCT055 15/10 Q1021 NOSIG
12-11-08 LEBL 082000Z 32003KT 270V010 9999 FEW025 SCT055 15/10 Q1021 NOSIG
12-11-08 LEBL 082030Z 35003KT 9999 FEW025 SCT055 15/10 Q1021 NOSIG
12-11-08 LEBL 082100Z 31004KT 280V340 9999 FEW025 SCT055 14/09 Q1021 NOSIG
12-11-08 LEBL 082130Z 32004KT 250V350 9999 FEW030 14/10 Q1021 NOSIG
12-11-08 LEBL 082200Z 34007KT 290V020 9999 FEW030 13/09 Q1020 NOSIG
12-11-08 LEBL 082230Z 33007KT 9999 FEW030 13/09 Q1020 NOSIG
12-11-08 LEBL 082300Z 32006KT 9999 FEW030 13/09 Q1020 NOSIG
12-11-08 LEBL 082330Z 33005KT 9999 FEW030 12/09 Q1020 NOSIG
12-11-09 LEBL 090000Z 32005KT 9999 FEW030 12/09 Q1019 NOSIG
12-11-09 LEBL 090030Z 32005KT 290V350 9999 FEW025 12/09 Q1019 NOSIG
12-11-09 LEBL 090100Z 32011KT 9999 SCT023 12/09 Q1019 NOSIG
12-11-09 LEBL 090130Z 32008KT 9999 SCT025 12/09 Q1019 NOSIG
12-11-09 LEBL 090200Z 33008KT 9999 FEW025 12/09 Q1019 NOSIG
12-11-09 LEBL 090230Z 32008KT 9999 FEW025 12/09 Q1019 NOSIG
12-11-09 LEBL 090300Z 32006KT 9999 FEW025 12/09 Q1018 NOSIG
12-11-09 LEBL 090330Z 32005KT 9999 FEW025 12/09 Q1017 NOSIG
12-11-09 LEBL 090400Z 31005KT 9999 FEW025 12/09 Q1017 NOSIG
12-11-09 LEBL 090430Z 32008KT 9999 FEW025 12/09 Q1017 NOSIG
12-11-09 LEBL NIL
12-11-09 LEBL 090500Z 32006KT 9999 FEW025 12/08 Q1017 NOSIG
12-11-09 LEBL 090530Z VRB02KT 9999 FEW025 12/08 Q1016 NOSIG
12-11-09 LEBL 090600Z 31005KT 9999 FEW025 12/08 Q1016 NOSIG
12-11-09 LEBL 090630Z 33007KT 9999 FEW025 12/08 Q1015 NOSIG
12-11-09 LEBL 090700Z 32003KT 260V350 9999 FEW025 12/08 Q1015 NOSIG
12-11-09 LEBL 090730Z 30007KT 9999 FEW025 12/09 Q1016 NOSIG
12-11-09 LEBL 090800Z 31008KT 280V340 9999 FEW025 13/09 Q1016 NOSIG
12-11-09 LEBL 090830Z 29007KT 230V340 9999 FEW014 14/09 Q1017 NOSIG
12-11-09 LEBL 090900Z 24007KT 9999 FEW014 SCT052 16/11 Q1017 NOSIG
12-11-09 LEBL 090907Z 26007KT 220V360 9999 DZ FEW014 BKN035 16/11 Q1015 NOSIG
12-11-09 LEBL 090930Z 31006KT 280V340 9999 FEW014 BKN025 14/10 Q1017 NOSIG
12-11-09 LEBL 091000Z 33006KT 270V010 9999 FEW014 BKN035 15/10 Q1017 NOSIG
12-11-09 LEBL 091030Z 36006KT 280V090 9999 FEW020 SCT035 17/09 Q1016 NOSIG
12-11-09 LEBL 091100Z 33004KT 250V040 9999 -RA FEW020 BKN035 17/10 Q1016 NOSIG
12-11-09 LEBL 091130Z 30008KT 260V330 9999 -RA FEW020 BKN030 16/10 Q1015 NOSIG
12-11-09 LEBL 091200Z NIL
12-11-09 LEBL 091200Z 33006KT 260V010 9999 FEW020 SCT030 17/11 Q1015 NOSIG
12-11-09 LEBL 091230Z 33002KT 9999 FEW020 SCT035 18/11 Q1014 NOSIG
12-11-09 LEBL 091300Z 35001KT 9999 FEW012 18/11 Q1014 NOSIG
12-11-09 LEBL 091330Z 18003KT 120V240 9999 FEW012 19/11 Q1014 NOSIG
12-11-09 LEBL 091400Z 24006KT 210V290 9999 FEW020 18/12 Q1014 NOSIG
12-11-09 LEBL 091430Z 22003KT 9999 FEW020 SCT050 17/12 Q1014 NOSIG
12-11-09 LEBL 091500Z 25005KT 9999 FEW020 SCT050 17/12 Q1014 NOSIG
12-11-09 LEBL 091530Z 22003KT 9999 FEW020 BKN050 17/12 Q1013 NOSIG
12-11-09 LEBL 091600Z 26004KT 220V310 9999 FEW020 17/12 Q1013 NOSIG
12-11-09 LEBL 091630Z 25004KT 240V310 9999 FEW020 16/12 Q1013 NOSIG
12-11-09 LEBL 091700Z 27006KT 250V310 9999 FEW020 16/12 Q1013 NOSIG
12-11-09 LEBL 091900Z VRB02KT 9999 FEW020 BKN045 17/13 Q1013 NOSIG
12-11-09 LEBL 091930Z 35003KT 300V020 9999 FEW020 SCT045 16/13 Q1012 NOSIG
12-11-09 LEBL 092000Z 35004KT 290V030 9999 FEW020 SCT045 16/13 Q1012 NOSIG
12-11-09 LEBL 092030Z 34006KT 250V060 9999 BKN025 16/13 Q1012 NOSIG
12-11-09 LEBL 092100Z 33003KT 290V360 9999 FEW020 BKN035 16/13 Q1012 NOSIG
12-11-09 LEBL 092130Z 31003KT 250V350 9999 BKN020 16/13 Q1012 NOSIG
12-11-09 LEBL 092200Z VRB03KT 9999 BKN020 16/13 Q1012 NOSIG
12-11-09 LEBL 092230Z 00000KT 9000 RA BKN020 16/14 Q1012 NOSIG
12-11-09 LEBL 092300Z 29005KT 9000 RA BKN018 15/14 Q1011 NOSIG
12-11-09 LEBL 092330Z 29004KT 9999 DZ BKN020 15/14 Q1011 NOSIG
12-11-10 LEBL 100000Z 30004KT 8000 DZ FEW020 BKN025 15/14 Q1011 NOSIG
12-11-10 LEBL 100030Z 31005KT 9000 FEW020 BKN025 15/14 Q1011 REDZ NOSIG
12-11-10 LEBL 100100Z VRB02KT 9000 FEW020 BKN025 15/14 Q1011 NOSIG
12-11-10 LEBL 100130Z 01001KT 9000 FEW020 SCT025 15/14 Q1010 NOSIG
12-11-10 LEBL 100200Z 29001KT 9000 FEW020 SCT030 15/14 Q1010 NOSIG
12-11-10 LEBL 100230Z 00000KT 9000 FEW020 BKN030 15/14 Q1010 NOSIG
12-11-10 LEBL 100300Z VRB01KT 9000 FEW020 SCT030 15/14 Q1009 NOSIG
12-11-10 LEBL 100330Z 27002KT 7000 FEW020 SCT030 14/14 Q1009 NOSIG
12-11-10 LEBL 100400Z 29002KT 7000 FEW020 SCT030 14/13 Q1009 NOSIG
12-11-10 LEBL 100430Z 27002KT 9000 FEW020 SCT027 14/14 Q1009 NOSIG
12-11-10 LEBL 100500Z 29004KT 9999 FEW020 SCT029 14/13 Q1009 NOSIG
12-11-10 LEBL 100530Z 32006KT 9999 FEW020 BKN030 14/13 Q1008 NOSIG
12-11-10 LEBL 100600Z VRB02KT 9999 FEW020 BKN031 15/14 Q1009 NOSIG
12-11-10 LEBL 100630Z 31002KT 9999 FEW020 BKN030 15/14 Q1009 NOSIG
12-11-10 LEBL 100700Z 31004KT 9999 FEW020 BKN029 15/14 Q1009 NOSIG
12-11-10 LEBL 100730Z 33002KT 9999 FEW020 BKN030 15/14 Q1009 NOSIG
12-11-10 LEBL 100800Z 30004KT 9999 FEW020 SCT030 BKN050 15/14 Q1009 NOSIG
12-11-10 LEBL 100830Z 30006KT 260V330 9999 FEW020 SCT030 BKN050 15/14 Q1009 NOSIG
12-11-10 LEBL 100900Z 30005KT 260V340 9000 FEW020 SCT030 16/14 Q1009 NOSIG
12-11-10 LEBL 100930Z 31008KT 260V020 9999 FEW020 SCT040 16/14 Q1009 NOSIG
12-11-10 LEBL 101000Z 28004KT 240V320 9999 FEW020 18/14 Q1009 NOSIG
12-11-10 LEBL 101030Z 25006KT 230V290 9999 FEW020 18/15 Q1008 NOSIG
12-11-10 LEBL 101100Z 20008KT 9999 FEW020 18/15 Q1008 NOSIG
12-11-10 LEBL 101130Z 23011KT 9999 FEW020 18/15 Q1008 NOSIG
12-11-10 LEBL 101200Z 22010KT 9999 FEW020 18/15 Q1007 NOSIG
12-11-10 LEBL 101230Z 23012KT 9999 FEW020 18/15 Q1007 NOSIG
12-11-10 LEBL 101300Z 22010KT 9999 FEW020 18/15 Q1007 NOSIG
12-11-10 LEBL 101330Z 23010KT 9999 FEW020 18/15 Q1006 NOSIG
12-11-10 LEBL 101400Z 23011KT 9999 FEW025 19/15 Q1006 NOSIG
12-11-10 LEBL 101430Z 23011KT 9999 FEW025 18/15 Q1006 NOSIG
12-11-10 LEBL 101500Z 23013KT 9999 FEW025 18/15 Q1006 NOSIG
12-11-10 LEBL 101530Z 23013KT 9999 FEW025 18/14 Q1006 NOSIG
12-11-10 LEBL 101600Z 23012KT 9999 FEW025 18/14 Q1006 NOSIG
12-11-10 LEBL 101630Z 24011KT 9999 FEW025 17/14 Q1006 NOSIG
12-11-10 LEBL 101700Z 23009KT 9999 FEW030 17/14 Q1006 NOSIG
12-11-10 LEBL 101730Z 25009KT 9999 FEW030 16/14 Q1006 NOSIG
12-11-10 LEBL 101800Z 24009KT 9999 FEW030 16/14 Q1006 NOSIG
12-11-10 LEBL 101830Z 23008KT 9999 FEW030 16/14 Q1006 NOSIG
12-11-10 LEBL 101900Z 28004KT 9999 FEW030 15/14 Q1006 NOSIG
12-11-10 LEBL 101930Z 26005KT 9999 FEW030 14/13 Q1006 NOSIG
12-11-10 LEBL 102000Z 26004KT 230V320 9999 FEW030 14/12 Q1006 NOSIG
12-11-10 LEBL 102030Z 30004KT 260V360 9999 FEW030 14/12 Q1006 NOSIG
12-11-10 LEBL 102100Z VRB02KT 9999 FEW030 14/12 Q1006 NOSIG
12-11-10 LEBL 102130Z 35001KT 9999 FEW030 14/11 Q1006 NOSIG
12-11-10 LEBL 102200Z VRB02KT 9999 FEW030 14/11 Q1006 NOSIG
12-11-10 LEBL 102230Z 31003KT 9999 FEW030 14/11 Q1006 NOSIG
12-11-10 LEBL 102300Z 31005KT 9999 FEW030 13/11 Q1006 NOSIG
12-11-10 LEBL 102330Z 33004KT 300V030 9999 FEW030 13/10 Q1006 NOSIG
12-11-11 LEBL 110000Z 33006KT 9999 FEW030 13/10 Q1005 NOSIG
12-11-11 LEBL 110030Z 34004KT 9999 FEW030 13/10 Q1005 NOSIG
12-11-11 LEBL 110100Z 32003KT 290V350 9999 FEW030 12/10 Q1005 NOSIG
12-11-11 LEBL 110130Z 34006KT 9999 FEW030 12/10 Q1005 NOSIG
12-11-11 LEBL 110200Z 34004KT 9999 FEW030 12/10 Q1005 NOSIG
12-11-11 LEBL 110230Z 33008KT 9999 FEW030 12/10 Q1005 NOSIG
12-11-11 LEBL 110300Z 30007KT 9999 FEW030 12/09 Q1005 NOSIG
12-11-11 LEBL 110330Z 32010KT 9999 FEW030 12/09 Q1005 NOSIG
12-11-11 LEBL 110400Z 33007KT 9999 FEW030 12/10 Q1005 NOSIG
12-11-11 LEBL 110430Z 33009KT 9999 FEW025 12/09 Q1005 NOSIG
12-11-11 LEBL 110500Z 33009KT 9999 FEW025 12/10 Q1005 NOSIG
12-11-11 LEBL 110530Z 32009KT 9999 FEW020 12/09 Q1005 NOSIG
12-11-11 LEBL 110600Z 33010KT 9999 SCT020 12/10 Q1006 NOSIG
12-11-11 LEBL 110630Z 33010KT 9999 SCT020 12/09 Q1006 NOSIG
12-11-11 LEBL 110700Z 32012KT 9999 FEW020TCU SCT035 12/10 Q1006 NOSIG
12-11-11 LEBL 110730Z 32012KT 270V350 9999 FEW020TCU BKN030 13/09 Q1007 NOSIG
12-11-11 LEBL 110800Z 33012G22KT 310V010 9999 FEW020TCU BKN030 13/10 Q1007 NOSIG
12-11-11 LEBL 110830Z 32012G26KT 9999 FEW020TCU SCT030 BKN045 13/10 Q1008 NOSIG
12-11-11 LEBL 110900Z 32011KT 300V010 9999 FEW020TCU BKN045 13/10 Q1008 NOSIG
12-11-11 LEBL 110930Z 33010KT 300V010 9999 FEW020TCU BKN045 13/10 Q1008 NOSIG
12-11-11 LEBL 111000Z 33009KT 280V010 9999 FEW020 SCT050 14/10 Q1009 NOSIG
12-11-11 LEBL 111030Z 33008G18KT 280V030 9999 FEW020 SCT050 14/10 Q1009 NOSIG
12-11-11 LEBL 111100Z 34006KT 300V070 9999 FEW020TCU SCT045 14/11 Q1009 NOSIG
12-11-11 LEBL 111130Z 36003KT 330V030 9999 FEW020TCU SCT045 15/11 Q1009 NOSIG
12-11-11 LEBL 111200Z 06007KT 9999 -RA FEW020TCU SCT045 15/11 Q1009 NOSIG
12-11-11 LEBL 111230Z 07006KT 360V100 9999 FEW020TCU BKN045 15/11 Q1009 NOSIG
12-11-11 LEBL 111300Z 05006KT 9999 FEW020TCU BKN050 15/11 Q1009 NOSIG
12-11-11 LEBL 111330Z 08005KT 050V110 9999 FEW020TCU BKN050 16/09 Q1010 NOSIG
12-11-11 LEBL 111400Z 07006KT 030V100 9999 FEW020TCU BKN050 16/09 Q1009 NOSIG
12-11-11 LEBL 111430Z 07007KT 040V100 9999 FEW020TCU SCT050 16/10 Q1010 NOSIG
12-11-11 LEBL 111500Z 08010KT 040V100 9999 FEW020 FEW025TCU 17/09 Q1010 NOSIG
12-11-11 LEBL 111530Z 07008KT 9999 FEW020 FEW025TCU 16/10 Q1010 NOSIG
12-11-11 LEBL 111600Z 06010KT 9999 FEW025 17/08 Q1010 NOSIG
12-11-11 LEBL 111630Z 06012KT 9999 FEW025 16/07 Q1011 NOSIG
12-11-11 LEBL 111700Z 06013KT 9999 FEW025 16/07 Q1011 NOSIG
12-11-11 LEBL 111730Z 06012KT 9999 FEW025 16/07 Q1012 NOSIG
12-11-11 LEBL 111800Z 04007KT 9999 FEW025 15/08 Q1013 NOSIG
12-11-11 LEBL 111830Z 34006KT 9999 FEW025 14/09 Q1013 NOSIG
12-11-11 LEBL 111900Z 32005KT 9999 FEW025 14/08 Q1014 NOSIG
12-11-11 LEBL 111930Z 34006KT 9999 FEW025 14/08 Q1014 NOSIG
12-11-11 LEBL 112000Z 33006KT 9999 FEW025 13/08 Q1015 NOSIG
12-11-11 LEBL 112030Z 33007KT 9999 FEW025 13/08 Q1015 NOSIG
12-11-11 LEBL 112100Z 32006KT 270V010 9999 FEW025 13/07 Q1015 NOSIG
12-11-11 LEBL 112130Z 32006KT 240V040 9999 FEW025 12/08 Q1016 NOSIG
12-11-11 LEBL 112200Z 33008KT 9999 FEW025 12/09 Q1016 NOSIG
12-11-11 LEBL 112230Z 33010KT 9999 FEW025 12/09 Q1016 NOSIG
12-11-11 LEBL 112300Z 33010KT 9999 FEW025 12/09 Q1016 NOSIG
12-11-11 LEBL 112330Z 34010KT 9999 FEW025 11/08 Q1016 NOSIG
12-11-12 LEBL 120000Z 34011KT 9999 FEW025 12/08 Q1016 NOSIG
12-11-12 LEBL 120030Z 34011KT 9999 FEW025 11/08 Q1016 NOSIG
12-11-12 LEBL 120100Z 34010KT 9999 FEW025 11/08 Q1017 NOSIG
12-11-12 LEBL 120130Z 33011KT 9999 FEW025 11/08 Q1017 NOSIG
12-11-12 LEBL 120130Z 33012KT 9999 FEW025 11/08 Q1017 NOSIG
12-11-12 LEBL 120200Z 33009KT 9999 FEW025 11/07 Q1017 NOSIG
12-11-12 LEBL 120230Z 35010KT 9999 FEW025 11/07 Q1017 NOSIG
12-11-12 LEBL 120300Z 33012KT 9999 FEW025 11/07 Q1017 NOSIG
12-11-12 LEBL 120330Z NIL
12-11-12 LEBL 120330Z 33010KT 300V010 9999 FEW025 10/07 Q1017 NOSIG
12-11-12 LEBL 120400Z 33011KT 9999 FEW025 10/07 Q1018 NOSIG
12-11-12 LEBL 120430Z 34012KT 9999 FEW025 10/07 Q1018 NOSIG
12-11-12 LEBL 120500Z 33012KT 9999 FEW025 10/06 Q1018 NOSIG
12-11-12 LEBL 120530Z NIL
12-11-12 LEBL 120530Z 34010KT 9999 FEW025 10/06 Q1019 NOSIG
12-11-12 LEBL 120600Z 33011KT 9999 FEW025 10/06 Q1019 NOSIG
12-11-12 LEBL 120630Z 33012G22KT 300V010 9999 FEW025 10/06 Q1019 NOSIG
12-11-12 LEBL 120700Z 33013KT 280V350 9999 FEW025 10/06 Q1020 NOSIG
12-11-12 LEBL 120730Z 34013KT 300V360 9999 FEW025 10/07 Q1020 NOSIG
12-11-12 LEBL 120800Z 33015G25KT 310V010 CAVOK 11/07 Q1020 NOSIG
12-11-12 LEBL 120830Z 33011KT 300V010 CAVOK 11/07 Q1021 NOSIG
12-11-12 LEBL 120900Z 33014KT CAVOK 12/07 Q1021 NOSIG
12-11-12 LEBL 120930Z 34015KT 300V010 CAVOK 13/07 Q1021 NOSIG
12-11-12 LEBL NIL
12-11-12 LEBL 121000Z NIL
12-11-12 LEBL 121230Z 26004KT 210V310 CAVOK 17/08 Q1021 NOSIG
12-11-12 LEBL 121330Z 21004KT 180V240 CAVOK 18/09 Q1021 NOSIG
12-11-12 LEBL 121400Z 31005KT CAVOK 17/09 Q1021 NOSIG
12-11-12 LEBL 121430Z 33008KT CAVOK 18/07 Q1020 NOSIG
12-11-12 LEBL 121500Z 31008KT 260V350 CAVOK 18/07 Q1020 NOSIG
12-11-12 LEBL 121530Z 33007KT 270V350 CAVOK 18/07 Q1020 NOSIG
12-11-12 LEBL 121600Z 32008KT CAVOK 17/08 Q1020 NOSIG
12-11-12 LEBL 121630Z 31010KT 280V350 CAVOK 16/07 Q1021 NOSIG
12-11-12 LEBL 121700Z 30007KT 240V340 CAVOK 15/07 Q1021 NOSIG
12-11-12 LEBL 121730Z 31007KT 290V350 CAVOK 15/07 Q1021 NOSIG
12-11-12 LEBL 121800Z 32009KT 270V350 CAVOK 15/07 Q1022 NOSIG
12-11-12 LEBL 121830Z 33010KT 300V010 CAVOK 14/07 Q1022 NOSIG
12-11-12 LEBL 121900Z 33011KT CAVOK 13/07 Q1022 NOSIG
12-11-12 LEBL 121930Z 33012G23KT CAVOK 13/06 Q1022 NOSIG
12-11-12 LEBL 122000Z 33014KT 300V360 CAVOK 13/06 Q1022 NOSIG
12-11-12 LEBL 122030Z 33013KT CAVOK 12/06 Q1021 NOSIG
12-11-12 LEBL 122100Z 33012KT 290V350 CAVOK 12/06 Q1022 NOSIG
12-11-12 LEBL 122130Z 33010G23KT CAVOK 12/07 Q1022 NOSIG
12-11-12 LEBL 122200Z 33011KT CAVOK 12/07 Q1022 NOSIG
12-11-12 LEBL 122230Z 34013KT CAVOK 12/07 Q1023 NOSIG
12-11-12 LEBL 122300Z 34013KT CAVOK 12/07 Q1022 NOSIG
12-11-12 LEBL 122330Z 33012KT CAVOK 11/07 Q1022 NOSIG
12-11-13 LEBL 130000Z 34013KT CAVOK 11/07 Q1022 NOSIG
12-11-13 LEBL 130030Z 34012KT CAVOK 11/07 Q1021 NOSIG
12-11-13 LEBL 130100Z 33012KT CAVOK 11/07 Q1021 NOSIG
12-11-13 LEBL NIL
12-11-13 LEBL 130200Z 33013KT 9999 FEW025 10/06 Q1021 NOSIG
12-11-13 LEBL 130230Z 33014KT 9999 FEW025 10/06 Q1021 NOSIG
12-11-13 LEBL 130300Z 33012KT 9999 FEW025 10/06 Q1021 NOSIG
12-11-13 LEBL 130330Z 33016KT 9999 FEW025 10/06 Q1021 NOSIG
12-11-13 LEBL 130400Z 34011KT 300V360 9999 FEW025 10/06 Q1021 NOSIG
12-11-13 LEBL 130430Z 33010KT 9999 FEW025 10/05 Q1021 NOSIG
12-11-13 LEBL 130500Z NIL
12-11-13 LEBL 130500Z 33010KT 9999 FEW025 10/05 Q1021 NOSIG
12-11-13 LEBL 130530Z 33012KT 9999 FEW025 10/05 Q1021 NOSIG
12-11-13 LEBL 130600Z 33013KT 9999 FEW025 09/05 Q1021 NOSIG
12-11-13 LEBL 130630Z 33011KT 9999 FEW025 09/05 Q1021 NOSIG
12-11-13 LEBL 130700Z 34012G22KT 300V040 9999 FEW025 09/05 Q1021 NOSIG
12-11-13 LEBL 130730Z 33015KT 9999 FEW025 09/05 Q1020 NOSIG
12-11-13 LEBL 130800Z 33019G29KT 9999 FEW025 10/04 Q1020 NOSIG
12-11-13 LEBL 130830Z 33020G33KT 300V360 9999 FEW025 11/04 Q1019 NOSIG
12-11-13 LEBL 130900Z 34014KT 9999 FEW025 11/03 Q1021 NOSIG
12-11-13 LEBL 130930Z 32010KT 9999 FEW025 SCT055 13/03 Q1021 NOSIG
12-11-13 LEBL 131000Z 33011KT 9999 FEW025 SCT055 12/03 Q1021 NOSIG
12-11-13 LEBL 131030Z 33010KT 9999 FEW025 BKN050 13/03 Q1021 NOSIG
12-11-13 LEBL 131100Z 33008KT 9999 FEW020 BKN035 14/03 Q1021 NOSIG
12-11-13 LEBL 131130Z 33007KT 9999 FEW020 BKN032 15/04 Q1020 NOSIG
12-11-13 LEBL 131200Z 04015KT 010V070 9999 FEW020 BKN032 16/05 Q1020 NOSIG
12-11-13 LEBL 131230Z 03016KT 360V060 9999 FEW020 BKN040 16/06 Q1019 NOSIG
12-11-13 LEBL 131300Z 02010KT 9999 FEW020 SCT030 BKN040 17/06 Q1019 NOSIG
12-11-13 LEBL 131330Z 02010KT 9999 FEW018 SCT030 BKN040 18/07 Q1019 NOSIG
12-11-13 LEBL 131400Z 04010KT 9999 FEW018 BKN050 19/07 Q1019 NOSIG
12-11-13 LEBL 131430Z 05013KT 9999 FEW018 BKN050 19/08 Q1018 NOSIG
12-11-13 LEBL 131500Z 06015KT 9999 FEW018 BKN030 19/10 Q1018 NOSIG
12-11-13 LEBL 131530Z 05020KT 9999 FEW018 BKN030 19/10 Q1018 NOSIG
12-11-13 LEBL 131600Z 05021KT 9999 FEW018 BKN030 19/10 Q1018 NOSIG
12-11-13 LEBL 131630Z NIL
12-11-13 LEBL 131630Z 04018KT 9999 FEW018 BKN030 18/11 Q1018 NOSIG
12-11-13 LEBL 131700Z 05016KT 9999 FEW018 BKN030 18/11 Q1019 NOSIG
12-11-13 LEBL 131730Z 04015KT 020V080 9999 FEW015 BKN025 18/11 Q1019 NOSIG
12-11-13 LEBL 131800Z 04010KT 9999 FEW015 BKN025 19/11 Q1019 NOSIG
12-11-13 LEBL 131830Z 05012G23KT 020V100 9999 FEW015 BKN025 19/11 Q1019 NOSIG
12-11-13 LEBL 131930Z 05014KT 9999 FEW015 BKN025 18/12 Q1019 NOSIG
12-11-13 LEBL 132000Z 06015KT 9999 FEW015 BKN025 18/12 Q1020 NOSIG
12-11-13 LEBL 132030Z 06014KT 9999 FEW015 BKN026 18/12 Q1020 NOSIG
12-11-13 LEBL 132100Z 05017KT 9999 FEW015 BKN029 18/12 Q1020 NOSIG
12-11-13 LEBL 132130Z 04015KT 9999 FEW015 BKN029 18/12 Q1020 NOSIG
12-11-13 LEBL 132200Z 04012KT 9999 FEW015 BKN030 18/12 Q1020 NOSIG
12-11-13 LEBL 132230Z 03011KT 9999 FEW020 18/11 Q1020 NOSIG
12-11-13 LEBL 132300Z 03009KT 9999 FEW020 18/11 Q1019 NOSIG
12-11-13 LEBL 132330Z 03009KT 9999 FEW020 17/11 Q1019 NOSIG
12-11-14 LEBL 140000Z 03008KT 9999 FEW020 SCT023 17/11 Q1019 NOSIG
12-11-14 LEBL 140030Z 05007KT 9999 FEW020 BKN024 17/12 Q1020 NOSIG
12-11-14 LEBL 140100Z 05011KT 020V080 9999 SCT022 BKN034 18/12 Q1019 NOSIG
12-11-14 LEBL NIL
12-11-14 LEBL 140230Z 05015KT 9999 BKN018 18/13 Q1019 NOSIG
12-11-14 LEBL 140300Z 04012KT 9999 BKN018 18/13 Q1019 NOSIG
12-11-14 LEBL 140330Z 04012KT 9999 FEW015 BKN020 18/13 Q1018 NOSIG
12-11-14 LEBL 140400Z 03013KT 010V070 9999 FEW015 BKN020 18/13 Q1018 NOSIG
12-11-14 LEBL 140430Z 05013KT 9999 FEW015 BKN020 18/13 Q1018 NOSIG
12-11-14 LEBL 140500Z 07013KT 9999 FEW015 BKN020 18/14 Q1018 NOSIG
12-11-14 LEBL 140530Z 05014KT 9999 FEW015 BKN020 18/14 Q1018 NOSIG
12-11-14 LEBL 140600Z 06015KT 9999 BKN018 18/14 Q1019 NOSIG
12-11-14 LEBL 140630Z 05016KT 9999 BKN017 18/14 Q1019 NOSIG
12-11-14 LEBL 140700Z 05013KT 9999 BKN017 18/14 Q1019 NOSIG
12-11-14 LEBL 140730Z 05017KT 9999 BKN017 18/14 Q1019 NOSIG
12-11-14 LEBL 140800Z 05015KT 9999 BKN017 18/14 Q1019 NOSIG
12-11-14 LEBL 140830Z 05019KT 9999 BKN017 18/14 Q1019 NOSIG
12-11-14 LEBL 140900Z 05019KT 9999 BKN018 19/14 Q1019 NOSIG
12-11-14 LEBL 140930Z 06017KT 9999 BKN020 19/14 Q1020 NOSIG
12-11-14 LEBL 141000Z 06016KT 9999 BKN019 19/14 Q1020 NOSIG
12-11-14 LEBL 141030Z 06018KT 9999 BKN020 19/14 Q1020 NOSIG
12-11-14 LEBL 141100Z 06018KT 9999 BKN020 19/14 Q1020 NOSIG
12-11-14 LEBL 141130Z 05018KT 9999 BKN023 19/14 Q1020 NOSIG
12-11-14 LEBL 141200Z 06016KT 9999 BKN023 19/14 Q1020 NOSIG
12-11-14 LEBL 141230Z 06015KT 9999 FEW015 SCT027 19/13 Q1019 NOSIG
12-11-14 LEBL 141300Z 06018KT 9999 FEW015 SCT027 19/14 Q1019 NOSIG
12-11-14 LEBL 141330Z 05018KT 9999 FEW015 SCT027 20/13 Q1019 NOSIG
12-11-14 LEBL 141400Z 04017KT 9999 FEW015 SCT035 20/14 Q1019 NOSIG
12-11-14 LEBL 141430Z 04012KT 9999 FEW015 SCT023 20/14 Q1019 NOSIG
12-11-14 LEBL 141500Z 04009KT 9999 FEW015 BKN030 20/14 Q1019 NOSIG
12-11-14 LEBL 141530Z 05010KT 9999 FEW015 BKN030 19/14 Q1019 NOSIG
12-11-14 LEBL 141600Z 05009KT 9999 FEW015 BKN035 19/14 Q1019 NOSIG
12-11-14 LEBL 141630Z 07008KT 9999 FEW015 BKN035 18/14 Q1019 NOSIG
12-11-14 LEBL 141700Z 06009KT 9999 FEW015 BKN035 18/14 Q1019 NOSIG
12-11-14 LEBL 141730Z 06008KT 030V090 9999 FEW015 BKN035 18/14 Q1019 NOSIG
12-11-14 LEBL 141800Z 08012KT 9999 FEW015 BKN035 18/14 Q1020 NOSIG
12-11-14 LEBL 141830Z 06011KT 9999 FEW015 BKN037 18/13 Q1020 NOSIG
12-11-14 LEBL 141900Z 05012KT 9999 FEW015 BKN045 18/13 Q1020 NOSIG
12-11-14 LEBL 141930Z 05013KT 9999 FEW015 SCT031 BKN044 18/13 Q1020 NOSIG
12-11-14 LEBL 142000Z 05012KT 9999 FEW015 SCT023 BKN038 18/13 Q1020 NOSIG
12-11-14 LEBL 142030Z 05012KT 9999 FEW015 SCT021 BKN036 18/13 Q1020 NOSIG
12-11-14 LEBL 142100Z 04010KT 9999 FEW020 SCT037 18/13 Q1020 NOSIG
12-11-14 LEBL 142130Z 04010KT 9999 FEW020 SCT040 18/13 Q1020 NOSIG
12-11-14 LEBL 142200Z 05007KT 9999 FEW020 SCT040 18/13 Q1020 NOSIG
12-11-14 LEBL 142300Z 03005KT 9999 FEW020 16/13 Q1020 NOSIG
12-11-14 LEBL 142300Z NIL
12-11-14 LEBL 142330Z 05004KT 9999 FEW020 16/13 Q1020 NOSIG
12-11-15 LEBL 150000Z 36002KT 9999 FEW020 SCT023 16/13 Q1020 NOSIG
12-11-15 LEBL 150030Z 33002KT 9999 FEW020 SCT023 16/12 Q1020 NOSIG
12-11-15 LEBL 150100Z 03003KT 360V060 9999 FEW020 BKN025 16/13 Q1020 NOSIG
12-11-15 LEBL 150130Z 02005KT 340V060 9999 FEW020 BKN028 16/13 Q1020 NOSIG
12-11-15 LEBL 150200Z 36005KT 9999 FEW020 SCT030 16/12 Q1020 NOSIG
12-11-15 LEBL 150230Z 35004KT 9999 FEW020 SCT030 15/12 Q1020 NOSIG
12-11-15 LEBL 150300Z 32004KT 9999 FEW030 14/12 Q1020 NOSIG
12-11-15 LEBL 150330Z 32006KT 9999 FEW030 15/12 Q1020 NOSIG
12-11-15 LEBL 150400Z 33005KT 9999 FEW030 14/12 Q1020 NOSIG
12-11-15 LEBL 150430Z 36005KT 9999 FEW030 14/12 Q1020 NOSIG
12-11-15 LEBL 150500Z 36004KT 9999 FEW030 14/11 Q1020 NOSIG
12-11-15 LEBL 150530Z 34005KT 9999 FEW030 14/11 Q1020 NOSIG
12-11-15 LEBL 150600Z 33006KT 9999 FEW030 14/11 Q1020 NOSIG
12-11-15 LEBL 150630Z 32006KT 9999 FEW030 13/11 Q1020 NOSIG
12-11-15 LEBL 150700Z 33007KT 9999 FEW030 13/11 Q1021 NOSIG
12-11-15 LEBL 150730Z 33007KT 280V350 9999 FEW030 13/11 Q1021 NOSIG
12-11-15 LEBL 150800Z 33007KT 290V010 CAVOK 14/11 Q1021 NOSIG
12-11-15 LEBL 150830Z 32007KT 270V020 CAVOK 15/11 Q1021 NOSIG
12-11-15 LEBL 150900Z 33006KT 230V360 CAVOK 15/11 Q1021 NOSIG
12-11-15 LEBL 150930Z 31003KT CAVOK 16/12 Q1021 NOSIG
12-11-15 LEBL 151000Z 32003KT 240V030 CAVOK 17/11 Q1021 NOSIG
12-11-15 LEBL NIL
12-11-15 LEBL 151130Z 10008KT 070V130 CAVOK 18/11 Q1020 NOSIG
12-11-15 LEBL 151200Z 090009KT CAVOK 19/11 Q1020 NOSIG
12-11-15 LEBL 151200 090009KT CAVOK 19/11 Q1020 NOSIG
12-11-15 LEBL 151230Z 09009KT CAVOK 18/12 Q1020 NOSIG
12-11-15 LEBL 151230 09009KT CAVOK 18/12 Q1020 NOSIG
12-11-15 LEBL 151300Z 09008KT 030V130 CAVOK 18/12 Q1020 NOSIG
12-11-15 LEBL 151330Z 09008 KT CAVOK 18/13 Q1019 NOSIG
12-11-15 LEBL 151400Z 11006KT 080V140 CAVOK 18/13 Q1019 NOSIG
12-11-15 LEBL 151430Z 11007KT 080V140 CAVOK 18/13 Q1019 NOSIG
12-11-15 LEBL 151500Z 10005KT CAVOK 18/13 Q1019 NOSIG
12-11-15 LEBL 151530Z 12004KT CAVOK 17/13 Q1019 NOSIG
12-11-15 LEBL 151600Z 11004KT CAVOK 17/13 Q1019 NOSIG
12-11-15 LEBL 151630Z 06004KT 020V100 CAVOK 16/14 Q1019 NOSIG
12-11-15 LEBL 151700Z 05005KT 020V090 CAVOK 16/13 Q1019 NOSIG
12-11-15 LEBL 151730Z 05006KT 010V070 CAVOK 16/13 Q1019 NOSIG
12-11-15 LEBL 151800Z 04005KT 340V080 CAVOK 16/14 Q1020 NOSIG
12-11-15 LEBL 151830Z NIL
12-11-15 LEBL 151900Z 00000KT CAVOK 15/13 Q1020 NOSIG
12-11-15 LEBL 151930Z VRB02KT CAVOK 15/13 Q1020 NOSIG
12-11-15 LEBL 152000Z 30003KT 270V340 9000 NSC 14/12 Q1020 NOSIG
12-11-15 LEBL 152030Z 32004KT 280V350 9000 NSC 14/12 Q1019 NOSIG
12-11-15 LEBL 152100Z 32004KT 9000 FEW020 14/12 Q1019 NOSIG
12-11-15 LEBL 152130Z 34004KT 260V030 9000 FEW020 14/12 Q1019 NOSIG
12-11-15 LEBL 152200Z 32005KT 240V010 9000 FEW020 14/12 Q1019 NOSIG
12-11-15 LEBL 152300Z NIL
12-11-15 LEBL 152300Z 32004KT 300V360 9000 FEW020 13/11 Q1019 NOSIG
12-11-15 LEBL 152330Z 32004KT 300V360 8000 FEW020 13/11 Q1019 NOSIG
12-11-16 LEBL 160000Z 31004KT 8000 FEW010 BKN016 13/12 Q1019 NOSIG
12-11-16 LEBL 160030Z 31004KT 290V350 8000 FEW010 BKN016 13/12 Q1019 NOSIG
12-11-16 LEBL 160100Z 33003KT 8000 FEW010 BKN016 13/12 Q1019 NOSIG
12-11-16 LEBL 160200Z 33004KT 8000 FEW010 BKN015 13/12 Q1019 NOSIG
12-11-16 LEBL 160230Z 32006KT 7000 FEW010 SCT015 13/11 Q1019 NOSIG
12-11-16 LEBL 160300Z 33006KT 6000 FEW010 SCT015 13/12 Q1019 NOSIG
12-11-16 LEBL 160330Z 32006KT 6000 BKN015 SCT026 13/11 Q1018 NOSIG
12-11-16 LEBL 160400Z 33007KT 6000 BKN014 SCT020 13/12 Q1018 NOSIG
12-11-16 LEBL 160430Z 32008KT 6000 BKN014 SCT025 13/11 Q1018 NOSIG
12-11-16 LEBL 160500Z 33008KT 6000 BKN014 13/11 Q1018 NOSIG
12-11-16 LEBL 160530Z 32007KT 290V350 6000 BKN014 13/11 Q1018 NOSIG
12-11-16 LEBL 160600Z 32007KT 6000 SCT020 13/11 Q1018 NOSIG
12-11-16 LEBL 160630Z 32007KT 6000 SCT020 13/11 Q1018 NOSIG
12-11-16 LEBL 160700Z 31007KT 5000 BR SCT020 13/11 Q1018 NOSIG
12-11-16 LEBL 160730Z 33007KT 270V350 5000 BR SCT020 13/12 Q1018 NOSIG
12-11-16 LEBL 160800Z 32004KT 5000 BR FEW020 13/12 Q1019 NOSIG
12-11-16 LEBL 160830Z NIL
12-11-16 LEBL 160830Z 33004KT 280V030 7000 FEW020 14/12 Q1019 NOSIG
12-11-16 LEBL 160900Z 31006KT 240V350 7000 FEW020 15/12 Q1019 NOSIG
12-11-16 LEBL 160930Z 31005KT 200V010 8000 FEW020 15/12 Q1019 NOSIG
12-11-16 LEBL 161000Z 25004KT 210V330 8000 FEW020 17/14 Q1019 NOSIG
12-11-16 LEBL 161030Z 22006KT 190V250 9999 FEW020 17/14 Q1019 NOSIG
12-11-16 LEBL 161100Z 21009KT 190V260 9999 FEW020 18/14 Q1018 NOSIG
12-11-16 LEBL 161130Z 21011KT 9999 FEW020 18/14 Q1018 NOSIG
12-11-16 LEBL 161200Z 21011KT 9999 FEW020 18/14 Q1017 NOSIG
12-11-16 LEBL 161230Z 21010KT 9999 SCT015 18/14 Q1017 NOSIG
12-11-16 LEBL 161300Z 21011KT 7000 SCT015 18/13 Q1017 NOSIG
12-11-16 LEBL 161330Z 20009KT 180V240 9999 SCT015 18/14 Q1017 NOSIG
12-11-16 LEBL 161400Z 21009KT 9999 SCT015 17/14 Q1017 NOSIG
12-11-16 LEBL 161430Z 22011KT 9999 SCT012 17/14 Q1017 NOSIG
12-11-16 LEBL 161500Z 21011KT 9999 SCT012 17/13 Q1017 NOSIG
12-11-16 LEBL 161530Z 23009KT 9999 SCT020 17/13 Q1017 NOSIG
12-11-16 LEBL 161600Z 24006KT 9999 SCT020 17/13 Q1017 NOSIG
12-11-16 LEBL 161630Z NIL
12-11-16 LEBL 161630Z 29003KT 260V330 9999 SCT020 16/13 Q1016 NOSIG
12-11-16 LEBL 161700Z 28003KT 240V310 9999 FEW020 16/13 Q1017 NOSIG
12-11-16 LEBL 161730Z 29002KT 9999 SCT032 16/13 Q1016 NOSIG
12-11-16 LEBL 161800Z VRB02KT 9999 SCT032 16/13 Q1017 NOSIG
12-11-16 LEBL 161830Z NIL
12-11-16 LEBL 161830Z 00000KT 9999 SCT032 16/13 Q1016 NOSIG
12-11-16 LEBL 161900Z VRB02KT 9999 SCT032 16/13 Q1017 NOSIG
12-11-16 LEBL 161930Z 30003KT 220V340 9999 SCT035 16/13 Q1017 NOSIG
12-11-16 LEBL 162000Z 31001KT 9999 FEW021 SCT044 16/13 Q1017 NOSIG
12-11-16 LEBL 162030Z 33003KT 290V360 9999 FEW018 SCT030 16/13 Q1017 NOSIG
12-11-16 LEBL 162100Z 33003KT 220V020 9999 FEW018 SCT030 16/13 Q1016 NOSIG
12-11-16 LEBL 162130Z 31004KT 9999 FEW018 BKN030 16/13 Q1016 NOSIG
12-11-16 LEBL 162200Z 36003KT 250V040 9000 DZ FEW018 BKN030 16/13 Q1016 NOSIG
12-11-16 LEBL 162230Z 27002KT 5000 RA FEW018 BKN030 16/13 Q1016 NOSIG
12-11-16 LEBL 162300Z 33002KT 4000 RA FEW020 BKN040 15/14 Q1016 NOSIG
12-11-16 LEBL 162330Z VRB02KT 4000 BR FEW020 BKN040 15/14 Q1016 NOSIG
12-11-17 LEBL 170000Z 34003KT 4000 BR FEW020 SCT030 15/14 Q1015 NOSIG
12-11-17 LEBL 170030Z 00000KT 5000 BR FEW020 SCT030 15/14 Q1015 NOSIG
12-11-17 LEBL 170100Z 00000KT 7000 FEW020 SCT040 15/14 Q1015 NOSIG
12-11-17 LEBL 170130Z 00000KT 7000 FEW018 SCT040 15/14 Q1015 NOSIG
12-11-17 LEBL 170200Z VRB01KT 6000 FEW018 SCT040 15/13 Q1015 NOSIG
12-11-17 LEBL 170230Z 33003KT 6000 FEW018 SCT040 15/13 Q1014 NOSIG
12-11-17 LEBL 170300Z 34002KT 6000 FEW018 SCT040 15/13 Q1014 NOSIG
12-11-17 LEBL 170330Z 32001KT 6000 FEW018 SCT040 15/13 Q1014 NOSIG
12-11-17 LEBL 170400Z 36004KT 6000 FEW020 SCT040 14/13 Q1014 NOSIG
12-11-17 LEBL 170430Z 31003KT 6000 FEW020 SCT040 14/13 Q1013 NOSIG
12-11-17 LEBL 170500Z 34004KT 6000 FEW015 SCT040 14/13 Q1013 NOSIG
12-11-17 LEBL 170530Z 32002KT 2000 RA FEW015 SCT040 14/13 Q1013 NOSIG
12-11-17 LEBL 170600Z 34005KT 2000 RA FEW013 SCT040 14/13 Q1013 NOSIG
12-11-17 LEBL 170630Z 34003KT 290V010 5000 DZ FEW013 SCT040 14/13 Q1013 NOSIG
12-11-17 LEBL 170700Z 34004KT 310V060 5000 BR FEW013 SCT050 14/13 Q1013 NOSIG
12-11-17 LEBL 170730Z 34003KT 6000 FEW019 SCT050 14/13 Q1013 NOSIG
12-11-17 LEBL 170800Z 32005KT 260V360 6000 FEW017 SCT040 15/13 Q1013 NOSIG
12-11-17 LEBL 170830Z 33005KT 250V010 6000 FEW020 SCT045 15/13 Q1013 NOSIG
12-11-17 LEBL 170900Z 33005KT 250V050 6000 FEW018 SCT045 15/14 Q1013 NOSIG
12-11-17 LEBL 170930Z 33004KT 280V010 6000 FEW022 SCT050 16/14 Q1013 NOSIG
12-11-17 LEBL 171000Z 01003KT 320V070 7000 FEW022 SCT050 17/15 Q1013 NOSIG
12-11-17 LEBL 171030Z 06005KT 8000 FEW022 SCT055 18/16 Q1012 NOSIG
12-11-17 LEBL 171100Z 10004KT 070V130 9999 FEW020 SCT045 18/15 Q1012 NOSIG
12-11-17 LEBL 171130Z 10006KT 9999 SCT042 18/16 Q1011 NOSIG
12-11-17 LEBL 171200Z 10004KT 070V190 9999 SCT018 SCT040 18/16 Q1011 NOSIG
12-11-17 LEBL 171230Z 12006KT 9999 FEW020 SCT040 18/16 Q1011 NOSIG
12-11-17 LEBL 171300Z 12006KT 9999 FEW020 SCT040 18/16 Q1010 NOSIG
12-11-17 LEBL 171330Z 12006KT 9999 FEW020 SCT040 18/15 Q1010 NOSIG
12-11-17 LEBL 171400Z 11006KT 090V150 9999 FEW020 BKN047 18/15 Q1010 NOSIG
12-11-17 LEBL 171430Z 10005KT 070V130 9999 FEW020 BKN048 18/15 Q1010 NOSIG
12-11-17 LEBL 171500Z 08006KT 9999 FEW020 BKN048 18/15 Q1010 NOSIG
12-11-17 LEBL 171530Z 05007KT 9999 FEW020 BKN048 17/15 Q1010 NOSIG
12-11-17 LEBL 171600Z 05009KT 9999 FEW020 BKN055 17/15 Q1009 NOSIG
12-11-17 LEBL 171630Z 06008KT 9999 FEW020 SCT055 17/15 Q1009 NOSIG
12-11-17 LEBL 171700Z 06008KT 9999 FEW020 SCT055 17/15 Q1009 NOSIG
12-11-17 LEBL 171730Z 06005KT 9999 FEW020 16/14 Q1010 NOSIG
12-11-17 LEBL 171800Z 05008KT 010V070 9999 SCT028 17/14 Q1010 NOSIG
12-11-17 LEBL 171830Z 05007KT 9999 FEW025 SCT056 17/14 Q1010 NOSIG
12-11-17 LEBL 171900Z 06008KT 9999 FEW025 SCT056 17/14 Q1010 NOSIG
12-11-17 LEBL 171930Z 05009KT 9999 FEW028 SCT040 17/14 Q1009 NOSIG
12-11-17 LEBL 172000Z NIL
12-11-17 LEBL 172030Z 05010KT 9999 FEW028 SCT030 17/14 Q1009 NOSIG
12-11-17 LEBL 172100Z 05011KT 9999 FEW028 SCT030 17/13 Q1009 NOSIG
12-11-17 LEBL 172130Z 05010KT 9999 FEW028 SCT050 17/13 Q1009 NOSIG
12-11-17 LEBL 172200Z 04010KT 9999 FEW028 SCT050 17/13 Q1009 NOSIG
12-11-17 LEBL 172230Z 04011KT 9999 FEW020 SCT050 17/13 Q1009 NOSIG
12-11-17 LEBL 172300Z NIL
12-11-17 LEBL 172300Z 05012KT 9999 FEW020 SCT050 17/13 Q1009 NOSIG
12-11-17 LEBL 172330Z 04013KT 9999 FEW020 SCT050 16/13 Q1009 NOSIG
12-11-18 LEBL 180000Z 05012KT 9999 FEW020 SCT050 16/13 Q1009 NOSIG
12-11-18 LEBL 180030Z 05012KT 9999 FEW020 SCT050 16/13 Q1008 NOSIG
12-11-18 LEBL 180100Z 05012KT 9999 FEW020 16/13 Q1008 NOSIG
12-11-18 LEBL 180200Z 04011KT 9999 FEW020 SCT050 16/13 Q1008 NOSIG
12-11-18 LEBL 180230Z 03008KT 9999 FEW020 SCT050 16/12 Q1008 NOSIG
12-11-18 LEBL 180300Z 02008KT 9999 FEW020 SCT050 15/13 Q1007 NOSIG
12-11-18 LEBL 180330Z 01006KT 9999 SCT030 15/13 Q1007 NOSIG
12-11-18 LEBL 180400Z 36003KT 9999 SCT030 15/12 Q1007 NOSIG
12-11-18 LEBL 180430Z 34004KT 9999 SCT030 15/12 Q1007 NOSIG
12-11-18 LEBL 180500Z 35005KT 290V060 9999 SCT030 16/12 Q1007 NOSIG
12-11-18 LEBL 180530Z NIL
12-11-18 LEBL 180600Z 02005KT 9999 FEW020 SCT055 15/12 Q1008 NOSIG
12-11-18 LEBL 180630Z 01005KT 310V040 9999 FEW020 SCT055 15/12 Q1008 NOSIG
12-11-18 LEBL 180700Z 34005KT 9999 FEW020 SCT045 15/12 Q1008 NOSIG
12-11-18 LEBL 180900Z 04013KT 9999 SCT015 SCT050 17/14 Q1009 NOSIG
12-11-18 LEBL 180930Z 04012KT 9999 SCT018 SCT050 17/13 Q1009 NOSIG
12-11-18 LEBL 181000Z 04011KT 9999 SCT020 SCT050 17/13 Q1009 NOSIG
12-11-18 LEBL 181030Z 04011KT 9999 SCT020 SCT050 18/13 Q1009 NOSIG
12-11-18 LEBL 181100Z 04014KT 9999 SCT020 SCT050 19/12 Q1009 NOSIG
12-11-18 LEBL 181130Z 06012KT 040V100 9999 SCT020 18/12 Q1009 NOSIG
12-11-18 LEBL 181200Z 05012KT 030V090 9999 SCT020 18/13 Q1009 NOSIG
12-11-18 LEBL 181230Z 07011KT 040V100 9999 SCT020 19/14 Q1009 NOSIG
12-11-18 LEBL 181300Z 06013KT 9999 SCT020 18/14 Q1009 NOSIG
12-11-18 LEBL 181330Z 06014KT 9999 SCT020 18/13 Q1009 NOSIG
12-11-18 LEBL 181400Z 06012KT 9999 SCT020 17/13 Q1009 NOSIG
12-11-18 LEBL 181430Z 06012KT 9999 FEW012 SCT025 17/13 Q1009 NOSIG
12-11-18 LEBL 181500Z 07010KT 030V090 9999 FEW012 SCT020 BKN055 17/14 Q1009 NOSIG
12-11-18 LEBL 181530Z 05012KT 020V080 9999 FEW012 SCT020 BKN055 17/13 Q1009 NOSIG
12-11-18 LEBL 181600Z 05013KT 9999 -RA FEW012 SCT020 BKN050 16/13 Q1010 NOSIG
12-11-18 LEBL 181630Z 04014KT 9999 DZ FEW012 SCT020 BKN050 16/12 Q1010 NOSIG
12-11-18 LEBL 181700Z 04011KT 9999 FEW012 SCT020 16/12 Q1010 REDZ NOSIG
12-11-18 LEBL 181730Z 04012KT 010V070 9999 SCT020 BKN050 16/12 Q1011 NOSIG
12-11-18 LEBL 181800Z 03009KT 9999 SCT020 BKN050 16/12 Q1011 NOSIG
12-11-18 LEBL 181830Z 04011KT 9999 SCT020 BKN050 16/12 Q1011 NOSIG
12-11-18 LEBL 181900Z 03009KT 9999 SCT020 BKN050 16/11 Q1012 NOSIG
12-11-18 LEBL 181930Z 03009KT 9999 SCT020 16/11 Q1012 NOSIG
12-11-18 LEBL 182000Z 03007KT 9999 SCT020 16/11 Q1012 NOSIG
12-11-18 LEBL 182030Z 02006KT 9999 SCT020 BKN040 16/11 Q1012 NOSIG
12-11-18 LEBL 182100Z 02006KT 9999 SCT020 BKN040 16/11 Q1012 NOSIG
12-11-18 LEBL 182130Z 36003KT 9999 SCT020 BKN050 16/11 Q1012 NOSIG
12-11-18 LEBL 182200Z 36006KT 9999 FEW020 SCT050 16/11 Q1013 NOSIG
12-11-18 LEBL 182230Z 36005KT 9999 FEW020 SCT050 15/11 Q1013 NOSIG
12-11-18 LEBL 182300Z 34004KT 9999 FEW020 SCT050 15/11 Q1013 NOSIG
12-11-18 LEBL 182330Z 33003KT 9999 FEW020 15/11 Q1013 NOSIG
12-11-19 LEBL 190000Z 36005KT 9999 FEW020 15/10 Q1013 NOSIG
12-11-19 LEBL 190030Z 34003KT 9999 FEW020 15/11 Q1013 NOSIG
12-11-19 LEBL 190100Z 33004KT 9999 FEW020 14/11 Q1013 NOSIG
12-11-19 LEBL 190130Z VRB02KT 9999 FEW020 SCT056 14/12 Q1013 NOSIG
12-11-19 LEBL 190200Z 32005KT 9999 FEW020 SCT056 14/12 Q1013 NOSIG
12-11-19 LEBL 190230Z 33005KT 9999 FEW020 SCT056 14/12 Q1013 NOSIG
12-11-19 LEBL 190300Z 32006KT 9999 FEW020 SCT056 14/12 Q1013 NOSIG
12-11-19 LEBL 190330Z 32007KT 9999 FEW020 SCT056 14/12 Q1013 NOSIG
12-11-19 LEBL 190400Z 33006KT 9999 FEW020 SCT055 14/12 Q1013 NOSIG
12-11-19 LEBL 190430Z 33006KT 9999 FEW020 SCT055 14/12 Q1013 NOSIG
12-11-19 LEBL 190500Z 33005KT 9999 FEW020 SCT055 14/12 Q1014 NOSIG
12-11-19 LEBL 190530Z 32005KT 9999 FEW020 SCT055 14/12 Q1014 NOSIG
12-11-19 LEBL 190600Z 32005KT 9999 DZ FEW020 SCT055 14/12 Q1014 NOSIG
12-11-19 LEBL 190630Z 33005KT 9999 DZ FEW020 SCT056 14/12 Q1014 NOSIG
12-11-19 LEBL 190700Z 33005KT 290V350 9999 FEW020 14/12 Q1014 REDZ NOSIG
12-11-19 LEBL NIL
12-11-19 LEBL 190800Z 33007KT 290V050 9999 FEW020 14/11 Q1015 NOSIG
12-11-19 LEBL 190830Z 33007KT 290V360 9999 FEW020 15/12 Q1015 NOSIG
12-11-19 LEBL 190900Z 31008KT 9999 FEW020 16/11 Q1015 NOSIG
12-11-19 LEBL 190930Z 31009KT 270V360 9999 FEW020 16/11 Q1015 NOSIG
12-11-19 LEBL 191000Z NIL
12-11-19 LEBL 191000Z 31010KT 9999 FEW020 16/10 Q1016 NOSIG
12-11-19 LEBL 191030Z 31011KT 270V340 9999 FEW020 16/10 Q1016 NOSIG
12-11-19 LEBL 191100Z 32012KT 270V350 9999 FEW020 17/11 Q1015 NOSIG
12-11-19 LEBL 191130Z 31008G21KT 270V350 9999 FEW020 17/10 Q1015 NOSIG
12-11-19 LEBL 191200Z 32009KT 260V340 9999 FEW020 SCT040 18/10 Q1015 NOSIG
12-11-19 LEBL 191230Z 30009KT 270V330 9999 FEW016 17/10 Q1014 NOSIG
12-11-19 LEBL 191300Z 33007KT 300V060 9999 FEW016 18/10 Q1014 NOSIG
12-11-19 LEBL 191330Z 33006KT 250V360 9999 FEW020 18/10 Q1014 NOSIG
12-11-19 LEBL 191400Z 33006KT 290V010 9999 FEW020 18/10 Q1014 NOSIG
12-11-19 LEBL 191430Z NIL
12-11-19 LEBL 191430Z 30005G15KT 260V330 9999 FEW020 18/09 Q1014 NOSIG
12-11-19 LEBL 191500Z 30005KT 270V340 9999 FEW025 18/09 Q1014 NOSIG
12-11-19 LEBL 191530Z 32006G16KT 290V010 9999 FEW025 SCT035 18/11 Q1015 NOSIG
12-11-19 LEBL 191600Z 24010KT 9999 SCT035 17/12 Q1015 NOSIG
12-11-19 LEBL 191630Z 23009KT 9999 FEW030 16/11 Q1015 NOSIG
12-11-19 LEBL 191700Z 25009KT 9999 FEW030 15/11 Q1015 NOSIG
12-11-19 LEBL 191730Z 25007KT 9999 FEW030 14/11 Q1016 NOSIG
12-11-19 LEBL 191800Z 28004KT 250V310 9999 FEW030 14/10 Q1016 NOSIG
12-11-19 LEBL 191830Z 29004KT 9999 FEW030 14/10 Q1016 NOSIG
12-11-19 LEBL 191900Z 31007KT 260V360 9999 FEW030 14/10 Q1016 NOSIG
12-11-19 LEBL 191930Z 31005KT 9999 FEW030 14/09 Q1016 NOSIG
12-11-19 LEBL 192000Z 33006KT 260V020 9999 FEW030 14/09 Q1016 NOSIG
12-11-19 LEBL 192030Z 31006KT 9999 FEW030 13/09 Q1017 NOSIG
12-11-19 LEBL 192100Z 30007KT 250V330 9999 FEW030 13/09 Q1017 NOSIG
12-11-19 LEBL 192130Z 30006KT 250V330 9999 FEW030 12/09 Q1017 NOSIG
12-11-19 LEBL 192200Z 30009KT 9999 FEW030 13/09 Q1017 NOSIG
12-11-19 LEBL 192230Z 31006KT 9999 FEW030 12/09 Q1017 NOSIG
12-11-19 LEBL 192300Z 33007KT 9999 FEW030 12/09 Q1017 NOSIG
12-11-19 LEBL 192330Z 33009KT 9999 FEW030 11/09 Q1017 NOSIG
12-11-20 LEBL 200000Z 32005KT 9999 FEW030 12/09 Q1017 NOSIG
12-11-20 LEBL 200030Z 32007KT 9999 FEW030 11/09 Q1017 NOSIG
12-11-20 LEBL 200100Z VRB02KT 9999 FEW030 12/09 Q1016 NOSIG
12-11-20 LEBL 200130Z 33005KT 290V350 9999 FEW030 12/09 Q1017 NOSIG
12-11-20 LEBL 200200Z 33007KT 9999 FEW030 12/09 Q1017 NOSIG
12-11-20 LEBL 200230Z 33008KT 9999 FEW030 11/08 Q1016 NOSIG
12-11-20 LEBL 200300Z 33008KT 9999 FEW030 11/08 Q1016 NOSIG
12-11-20 LEBL 200330Z 32006KT 9999 FEW030 11/08 Q1016 NOSIG
12-11-20 LEBL 200400Z 32003KT 9999 FEW030 11/08 Q1016 NOSIG
12-11-20 LEBL 200430Z VRB01KT 9999 FEW030 11/08 Q1016 NOSIG
12-11-20 LEBL 200500Z 31005KT 9999 FEW030 11/08 Q1016 NOSIG
12-11-20 LEBL 200530Z 33009KT 9999 FEW030 11/08 Q1016 NOSIG
12-11-20 LEBL 200600Z 34008KT 310V010 9999 FEW030 10/08 Q1016 NOSIG
12-11-20 LEBL 200630Z 34007KT 9999 FEW030 10/08 Q1017 NOSIG
12-11-20 LEBL 200700Z 33007KT CAVOK 10/08 Q1017 NOSIG
12-11-20 LEBL 200730Z 32009KT 290V350 CAVOK 10/08 Q1017 NOSIG
12-11-20 LEBL 200800Z 33011KT 300V360 CAVOK 10/08 Q1018 NOSIG
12-11-20 LEBL 200830Z 33010KT 9999 FEW030 11/08 Q1018 NOSIG
12-11-20 LEBL 200900Z 34008KT 310V060 9999 FEW030 12/08 Q1018 NOSIG
12-11-20 LEBL 200930Z 34010KT 310V040 CAVOK 13/09 Q1018 NOSIG
12-11-20 LEBL 201000Z 33010KT 260V350 CAVOK 14/09 Q1018 NOSIG
12-11-20 LEBL 201030Z 34008KT 260V020 CAVOK 15/09 Q1018 NOSIG
12-11-20 LEBL 201100Z 32005G17KT 270V360 CAVOK 16/09 Q1017 NOSIG
12-11-20 LEBL 201130Z 30005KT 260V330 9999 FEW030 17/09 Q1017 NOSIG
12-11-20 LEBL 201200Z 26002KT 9999 FEW030 17/08 Q1017 NOSIG
12-11-20 LEBL 201230Z 20007KT 9999 FEW030 17/09 Q1017 NOSIG
12-11-20 LEBL 201300Z 19006KT 150V220 9999 FEW030 17/10 Q1016 NOSIG
12-11-20 LEBL 201330Z 17006KT 140V200 9999 FEW030 17/10 Q1016 NOSIG
12-11-20 LEBL 201400Z 18005KT 160V220 9999 FEW030 17/10 Q1016 NOSIG
12-11-20 LEBL 201430Z 17005KT 140V200 9999 FEW030 17/10 Q1016 NOSIG
12-11-20 LEBL 201500Z 20005KT 170V230 9999 FEW030 17/11 Q1016 NOSIG
12-11-20 LEBL 201530Z 19006KT 9999 FEW030 16/10 Q1016 NOSIG
12-11-20 LEBL 201600Z 21005KT CAVOK 16/11 Q1016 NOSIG
12-11-20 LEBL 201630Z 21004KT CAVOK 15/11 Q1016 NOSIG
12-11-20 LEBL 201700Z 23005KT CAVOK 15/11 Q1016 NOSIG
12-11-20 LEBL 201730Z 23006KT CAVOK 15/11 Q1016 NOSIG
12-11-20 LEBL 201800Z 24008KT CAVOK 14/11 Q1016 NOSIG
12-11-20 LEBL 201830Z 26005KT 240V300 CAVOK 14/12 Q1016 NOSIG
12-11-20 LEBL 201900Z 25006KT CAVOK 14/11 Q1017 NOSIG
12-11-20 LEBL 201930Z 28003KT 260V330 9999 FEW030 14/11 Q1016 NOSIG
12-11-20 LEBL 202000Z 29004KT 260V320 9999 FEW030 13/10 Q1016 NOSIG
12-11-20 LEBL 202030Z 31005KT 9999 FEW030 13/10 Q1016 NOSIG
12-11-20 LEBL 202100Z 31005KT 250V350 9999 FEW030 12/10 Q1017 NOSIG
12-11-20 LEBL 202130Z 32005KT 280V350 9999 FEW015 12/10 Q1017 NOSIG
12-11-20 LEBL 202200Z 33004KT 280V350 9999 FEW015 SCT018 12/10 Q1017 NOSIG
12-11-20 LEBL 202230Z VRB02KT 9999 FEW012 SCT018 12/10 Q1016 NOSIG
12-11-20 LEBL 202300Z NIL
12-11-20 LEBL 202300Z 33005KT 9999 FEW012 SCT018 12/10 Q1016 NOSIG
12-11-20 LEBL 202330Z 32005KT 9999 FEW012 12/09 Q1016 NOSIG
12-11-21 LEBL 210000Z 32007KT 9999 FEW012 12/09 Q1016 NOSIG
12-11-21 LEBL 210030Z 32007KT 9000 FEW015 12/09 Q1016 NOSIG
12-11-21 LEBL 210100Z 32007KT 9000 FEW012 12/10 Q1016 NOSIG
12-11-21 LEBL 210130Z 33008KT 9999 FEW012 BKN018 12/09 Q1016 NOSIG
12-11-21 LEBL 210200Z 32008KT 9999 FEW012 12/09 Q1016 NOSIG
12-11-21 LEBL 210230Z 32007KT 9999 FEW012 12/09 Q1016 NOSIG
12-11-21 LEBL 210300Z 33008KT 9999 FEW014 12/09 Q1016 NOSIG
12-11-21 LEBL 210330Z 33010KT 9000 FEW014 12/09 Q1015 NOSIG
12-11-21 LEBL 210400Z 32009KT 9000 FEW014 11/09 Q1015 NOSIG
12-11-21 LEBL 210430Z 32008KT 9999 FEW018 11/08 Q1015 NOSIG
12-11-21 LEBL 210500Z 33009KT 9999 FEW018 11/09 Q1015 NOSIG
12-11-21 LEBL 210530Z 32007KT 9999 FEW018 11/08 Q1015 NOSIG
12-11-21 LEBL 210600Z 32007KT 9999 FEW018 11/09 Q1015 NOSIG
12-11-21 LEBL 210630Z NIL
12-11-21 LEBL 210630Z 32009G19KT 9999 FEW014 BKN016 11/08 Q1016 NOSIG
12-11-21 LEBL 210700Z 32009G19KT 9999 FEW014 BKN016 11/08 Q1016 NOSIG
12-11-21 LEBL 210730Z 32007G18KT 260V360 9999 FEW014 SCT018 11/09 Q1016 NOSIG
12-11-21 LEBL 210800Z 32007KT 240V010 9999 FEW020 12/09 Q1016 NOSIG
12-11-21 LEBL 210830Z 32007KT 9999 FEW020 12/09 Q1017 NOSIG
12-11-21 LEBL 210900Z 32005KT 280V010 9999 FEW020 13/09 Q1017 NOSIG
12-11-21 LEBL 210930Z 32008KT 260V020 9999 FEW020 13/09 Q1017 NOSIG
12-11-21 LEBL 211000Z 32005KT 190V350 9999 FEW020 14/10 Q1017 NOSIG
12-11-21 LEBL 211030Z 30005KT 240V330 9999 FEW025 15/11 Q1017 NOSIG
12-11-21 LEBL 211100Z 32005KT 9999 FEW025 16/12 Q1017 NOSIG
12-11-21 LEBL 211130Z VRB01KT 9999 FEW025 17/11 Q1017 NOSIG
12-11-21 LEBL 211200Z 30004KT 250V350 9999 FEW025 17/11 Q1017 NOSIG
12-11-21 LEBL 211230Z 28003KT 250V310 9999 FEW025 17/11 Q1017 NOSIG
12-11-21 LEBL 211300Z 30003KT 250V350 9999 FEW025 18/09 Q1017 NOSIG
12-11-21 LEBL 211330Z NIL
12-11-21 LEBL 211330Z 32003KT 300V010 9999 FEW025 18/09 Q1017 NOSIG
12-11-21 LEBL 211400Z 34006KT 250V360 9999 FEW025 18/10 Q1017 NOSIG
12-11-21 LEBL 211430Z 10003KT 9999 FEW015 18/10 Q1017 NOSIG
12-11-21 LEBL 211500Z 08007KT 9999 FEW020 17/13 Q1018 NOSIG
12-11-21 LEBL 211530Z 07005KT 9999 FEW020 17/14 Q1018 NOSIG
12-11-21 LEBL 211600Z 06006KT 9999 FEW020 17/15 Q1018 NOSIG
12-11-21 LEBL 211630Z 04004KT 9999 SCT008 16/14 Q1019 NOSIG
12-11-21 LEBL 211700Z 06004KT 9999 FEW010 SCT030 16/15 Q1019 NOSIG
12-11-21 LEBL 211730Z 07006KT 050V110 9999 FEW010 SCT044 16/15 Q1019 NOSIG
12-11-21 LEBL 211800Z 04005KT 9999 FEW010 SCT044 16/14 Q1020 NOSIG
12-11-21 LEBL 211830Z 06004KT 020V100 9999 FEW010 SCT044 17/13 Q1020 NOSIG
12-11-21 LEBL 211900Z 07005KT 9999 FEW020 SCT055 16/14 Q1020 NOSIG
12-11-21 LEBL 211930Z 07005KT 9999 SCT025 15/13 Q1021 NOSIG
12-11-21 LEBL 212000Z 01004KT 290V050 9999 FEW030 SCT055 15/13 Q1021 NOSIG
12-11-21 LEBL 212030Z 33005KT 300V030 9999 FEW030 14/12 Q1021 NOSIG
12-11-21 LEBL 212100Z 34005KT 9999 FEW030 14/11 Q1021 NOSIG
12-11-21 LEBL 212130Z 32007KT 280V010 9999 FEW030 13/11 Q1021 NOSIG
12-11-21 LEBL 212200Z 33007KT 9999 FEW030 13/10 Q1021 NOSIG
12-11-21 LEBL 212230Z 32006KT 9999 FEW030 13/10 Q1022 NOSIG
12-11-21 LEBL 212300Z 32006KT 9999 FEW030 SCT055 13/10 Q1022 NOSIG
12-11-21 LEBL 212330Z 32005KT 9999 FEW030 SCT055 13/10 Q1022 NOSIG
12-11-22 LEBL 220000Z 32004KT 9999 FEW030 SCT055 13/10 Q1022 NOSIG
12-11-22 LEBL 220030Z 32006KT 9999 FEW030 SCT055 13/10 Q1022 NOSIG
12-11-22 LEBL 220100Z 32006KT 9999 FEW030 SCT055 13/10 Q1022 NOSIG
12-11-22 LEBL 220130Z 32006KT 9999 FEW030 SCT055 13/10 Q1022 NOSIG
12-11-22 LEBL 220200Z 33006KT 9999 FEW030 13/10 Q1022 NOSIG
12-11-22 LEBL 220230Z 30005KT 9999 FEW030 13/10 Q1022 NOSIG
12-11-22 LEBL 220300Z 31005KT 9999 FEW025 13/10 Q1022 NOSIG
12-11-22 LEBL 220330Z 32007KT 9999 FEW025 13/10 Q1022 NOSIG
12-11-22 LEBL 220400Z 33005KT 9999 FEW025 13/10 Q1022 NOSIG
12-11-22 LEBL 220430Z 29005KT 9999 FEW025 13/10 Q1022 NOSIG
12-11-22 LEBL 220500Z 32005KT 9999 FEW025 13/10 Q1022 NOSIG
12-11-22 LEBL 220530Z 32005KT 9999 FEW025 SCT055 13/09 Q1022 NOSIG
12-11-22 LEBL 220600Z 34006KT 9999 FEW025 SCT055 13/09 Q1022 NOSIG
12-11-22 LEBL 220630Z 32010KT 9999 FEW025 SCT055 12/09 Q1022 NOSIG
12-11-22 LEBL 220700Z 32007KT 9999 FEW025 12/09 Q1022 NOSIG
12-11-22 LEBL 220730Z 33008KT 290V350 9999 FEW025 12/09 Q1022 NOSIG
12-11-22 LEBL 220800Z 33010KT 9999 FEW025 13/09 Q1023 NOSIG
12-11-22 LEBL 220830Z 33011KT 280V350 9999 FEW025 13/09 Q1023 NOSIG
12-11-22 LEBL 220900Z 33009KT 280V360 9999 FEW025 14/09 Q1023 NOSIG
12-11-22 LEBL 220930Z 33008KT 9999 FEW025 14/09 Q1023 NOSIG
12-11-22 LEBL 221000Z 33008KT 290V350 9999 FEW025 14/09 Q1023 NOSIG
12-11-22 LEBL NIL
12-11-22 LEBL 221030Z 33008KT 9999 FEW025 15/09 Q1023 NOSIG
12-11-22 LEBL 221100Z 32008KT 9999 FEW025 16/09 Q1023 NOSIG
12-11-22 LEBL 221130Z 32006G17KT 300V360 9999 FEW025 16/09 Q1023 NOSIG
12-11-22 LEBL 221200Z 31004KT 9999 FEW025 17/09 Q1022 NOSIG
12-11-22 LEBL 221230Z 30003KT 260V340 9999 FEW025 18/09 Q1022 NOSIG
12-11-22 LEBL 221300Z 21003KT 9999 FEW025 18/06 Q1022 NOSIG
12-11-22 LEBL 221330Z 19005KT 160V220 9999 FEW020 18/09 Q1022 NOSIG
12-11-22 LEBL 221400Z 20005KT 9999 FEW020 18/07 Q1021 NOSIG
12-11-22 LEBL 221430Z 19005KT 9999 FEW020 17/08 Q1021 NOSIG
12-11-22 LEBL 221500Z 19006KT CAVOK 17/07 Q1021 NOSIG
12-11-22 LEBL 221530Z 19006KT CAVOK 17/09 Q1021 NOSIG
12-11-22 LEBL 221600Z 19005KT CAVOK 16/08 Q1021 NOSIG
12-11-22 LEBL 221630Z 19004KT CAVOK 16/09 Q1021 NOSIG
12-11-22 LEBL 221700Z 21004KT CAVOK 15/10 Q1021 NOSIG
12-11-22 LEBL 221730Z 24005KT CAVOK 15/11 Q1022 NOSIG
12-11-22 LEBL 221800Z 22005KT CAVOK 14/10 Q1021 NOSIG
12-11-22 LEBL 221830Z 28004KT 210V330 CAVOK 13/10 Q1022 NOSIG
12-11-22 LEBL 221900Z VRB02KT CAVOK 13/10 Q1022 NOSIG
12-11-22 LEBL 221930Z 30003KT 260V350 CAVOK 13/09 Q1022 NOSIG
12-11-22 LEBL 222000Z 31005KT 250V340 CAVOK 13/09 Q1022 NOSIG
12-11-22 LEBL 222030Z 32005KT 260V360 CAVOK 12/09 Q1022 NOSIG
12-11-22 LEBL 222100Z 31006KT 260V340 CAVOK 12/09 Q1022 NOSIG
12-11-22 LEBL 222130Z 32007KT 300V360 CAVOK 12/09 Q1022 NOSIG
12-11-22 LEBL 222200Z 33006KT 300V010 CAVOK 12/09 Q1022 NOSIG
12-11-22 LEBL 222230Z 32007KT CAVOK 16/09 Q1022 NOSIG
12-11-22 LEBL 222300Z 33006KT CAVOK 12/09 Q1022 NOSIG
12-11-22 LEBL 222330Z 33006KT CAVOK 12/09 Q1022 NOSIG
12-11-23 LEBL 230000Z 32007KT 300V360 CAVOK 11/08 Q1022 NOSIG
12-11-23 LEBL 230030Z 32007KT CAVOK 11/08 Q1022 NOSIG
12-11-23 LEBL 230100Z 32008KT CAVOK 11/08 Q1022 NOSIG
12-11-23 LEBL 230130Z 32007KT CAVOK 11/08 Q1021 NOSIG
12-11-23 LEBL 230200Z 32008KT CAVOK 10/07 Q1022 NOSIG
12-11-23 LEBL 230230Z 32008KT CAVOK 10/07 Q1022 NOSIG
12-11-23 LEBL 230300Z 32009KT CAVOK 09/07 Q1021 NOSIG
12-11-23 LEBL 230330Z 32007KT CAVOK 09/07 Q1021 NOSIG
12-11-23 LEBL 230400Z 31007KT CAVOK 09/07 Q1021 NOSIG
12-11-23 LEBL 230430Z 32009KT CAVOK 09/07 Q1021 NOSIG
12-11-23 LEBL 230500Z 31007KT CAVOK 09/06 Q1021 NOSIG
12-11-23 LEBL 230530Z 32008KT CAVOK 09/06 Q1021 NOSIG
12-11-23 LEBL 230600Z 33008KT 9999 FEW030 09/06 Q1021 NOSIG
12-11-23 LEBL 230630Z 32010KT 9999 FEW030 09/06 Q1021 NOSIG
12-11-23 LEBL 230700Z 32008KT 9999 FEW030 09/06 Q1022 NOSIG
12-11-23 LEBL 230730Z 32009KT 270V360 9999 FEW030 09/06 Q1022 NOSIG
12-11-23 LEBL 230800Z 32008KT 270V350 9999 FEW030 10/07 Q1022 NOSIG
12-11-23 LEBL 230830Z 32008KT 280V340 CAVOK 11/07 Q1022 NOSIG
12-11-23 LEBL 230900Z 32007KT 250V340 CAVOK 12/07 Q1022 NOSIG
12-11-23 LEBL 230930Z 32006KT 200V350 CAVOK 12/07 Q1022 NOSIG
12-11-23 LEBL 231000Z 30004KT 230V360 CAVOK 14/08 Q1022 NOSIG
12-11-23 LEBL 231030Z 29005KT 250V360 CAVOK 16/10 Q1022 NOSIG
12-11-23 LEBL 231100Z 26006KT 220V310 CAVOK 17/12 Q1022 NOSIG
12-11-23 LEBL 231130Z 22013KT CAVOK 17/11 Q1022 NOSIG
12-11-23 LEBL 231200Z NIL
12-11-23 LEBL 21012KT CAVOK 17/12 Q1021 NOSIG
12-11-23 LEBL 231200Z 21012KT CAVOK 17/12 Q1021 NOSIG
12-11-23 LEBL 231230Z 22014KT CAVOK 17/12 Q1021 NOSIG
12-11-23 LEBL 231300Z 22014KT 9999 FEW030 17/12 Q1021 NOSIG
12-11-23 LEBL 231330Z 22014KT 9999 FEW030 17/12 Q1021 NOSIG
12-11-23 LEBL 231400Z 22014KT 9999 FEW030 17/13 Q1020 NOSIG
12-11-23 LEBL 231430Z 22014KT 9999 FEW030 17/13 Q1020 NOSIG
12-11-23 LEBL 231500Z 22013KT 9999 FEW035 17/13 Q1020 NOSIG
12-11-23 LEBL 231530Z 22012KT 9999 FEW035 16/13 Q1020 NOSIG
12-11-23 LEBL 231600Z 22012KT 9999 FEW035 16/14 Q1020 NOSIG
12-11-23 LEBL 231630Z 23011KT 9999 FEW030 15/13 Q1020 NOSIG
12-11-23 LEBL 231700Z 22010KT 9999 FEW030 15/13 Q1020 NOSIG
12-11-23 LEBL 231730Z 23009KT 9999 FEW030 15/13 Q1020 NOSIG
12-11-23 LEBL 231800Z 24008KT 9999 FEW015 15/13 Q1021 NOSIG
12-11-23 LEBL 231830Z 26005KT 9999 FEW015 15/13 Q1021 NOSIG
12-11-23 LEBL 231900Z 26005KT 220V310 9999 FEW015 14/13 Q1021 NOSIG
12-11-23 LEBL 231930Z 26006KT 9999 FEW018 14/12 Q1021 NOSIG
12-11-23 LEBL 232000Z 25006KT 9999 FEW018 14/13 Q1021 NOSIG
12-11-23 LEBL 232030Z 26005KT 240V310 9999 FEW020 14/13 Q1021 NOSIG
12-11-23 LEBL 232100Z 27004KT 9999 FEW020 14/12 Q1021 NOSIG
12-11-23 LEBL 232130Z 23003KT 9999 FEW020 14/12 Q1021 NOSIG
12-11-23 LEBL 232200Z 23005KT 9999 FEW020 15/13 Q1021 NOSIG
12-11-23 LEBL 232230Z 26003KT 240V310 9999 FEW020 14/12 Q1021 NOSIG
12-11-23 LEBL 232300Z 32002KT 9999 FEW020 12/11 Q1021 NOSIG
12-11-23 LEBL 232330Z 31004KT 9000 FEW020 12/11 Q1021 NOSIG
12-11-24 LEBL 240000Z 31004KT 8000 FEW020 12/11 Q1021 NOSIG
12-11-24 LEBL 240030Z 31004KT 7000 FEW020 12/11 Q1021 NOSIG
12-11-24 LEBL 240100Z 32006KT 7000 FEW020 12/10 Q1021 NOSIG
12-11-24 LEBL 240130Z 32006KT 7000 FEW020 12/11 Q1021 NOSIG
12-11-24 LEBL 240200Z 33004KT 7000 FEW020 12/11 Q1021 NOSIG
12-11-24 LEBL 240230Z VRB02KT 8000 FEW020 12/11 Q1021 NOSIG
12-11-24 LEBL 240300Z VRB02KT 7000 SCT020 12/10 Q1020 NOSIG
12-11-24 LEBL 240330Z 32006KT 7000 FEW020 12/10 Q1020 NOSIG
12-11-24 LEBL 240400Z 32006KT 7000 FEW020 11/10 Q1020 NOSIG
12-11-24 LEBL 240430Z 32006KT 9000 FEW020 11/10 Q1020 NOSIG
12-11-24 LEBL 240500Z 32006KT 9999 FEW020 11/09 Q1020 NOSIG
12-11-24 LEBL 240530Z 32007KT 9999 FEW020 11/09 Q1020 NOSIG
12-11-24 LEBL 240600Z 32007KT 9999 FEW020 11/09 Q1020 NOSIG
12-11-24 LEBL 240630Z 32007KT 9999 FEW020 11/09 Q1020 NOSIG
12-11-24 LEBL 240700Z 32007KT 9000 FEW020 11/09 Q1020 NOSIG
12-11-24 LEBL 240730Z 32007KT 9000 FEW020 11/09 Q1020 NOSIG
12-11-24 LEBL 240800Z NIL
12-11-24 LEBL 240800Z 33007KT 9000 FEW020 12/09 Q1020 NOSIG
12-11-24 LEBL 240830Z 32007KT 280V350 9000 FEW010 SCT015 12/09 Q1021 NOSIG
12-11-24 LEBL 240900Z 32006KT 200V360 9000 FEW012 13/09 Q1021 NOSIG
12-11-24 LEBL 240930Z 32006KT 9999 FEW012 14/10 Q1021 NOSIG
12-11-24 LEBL 241000Z 30003KT 260V340 9999 FEW012 16/12 Q1021 NOSIG
12-11-24 LEBL 241030Z 27003KT 230V310 9999 FEW012 18/14 Q1021 NOSIG
12-11-24 LEBL 241100Z 22006KT 9999 FEW015 17/14 Q1020 NOSIG
12-11-24 LEBL 241130Z 22008KT 9999 FEW018 18/14 Q1020 NOSIG
12-11-24 LEBL 241200Z 22008KT 9999 FEW018 18/14 Q1020 NOSIG
12-11-24 LEBL 241230Z 22008KT 9999 FEW020 18/14 Q1019 NOSIG
12-11-24 LEBL 241300Z 22010KT 9999 FEW015 18/13 Q1019 NOSIG
12-11-24 LEBL 241330Z 23010KT 200V260 9999 FEW015 18/13 Q1019 NOSIG
12-11-24 LEBL 241400Z 22011KT 9999 FEW015 18/13 Q1019 NOSIG
12-11-24 LEBL 241430Z 22012KT 9999 FEW015 18/13 Q1019 NOSIG
12-11-24 LEBL 241500Z 23011KT 9999 FEW015 18/13 Q1019 NOSIG
12-11-24 LEBL 241530Z 24009KT 9999 FEW020 17/13 Q1019 NOSIG
12-11-24 LEBL 241600Z 24008KT 9999 FEW020 17/13 Q1019 NOSIG
12-11-24 LEBL 241630Z 23007KT 9999 FEW020 16/13 Q1019 NOSIG
12-11-24 LEBL 241700Z 21007KT 9999 FEW020 15/13 Q1019 NOSIG
12-11-24 LEBL 241730Z 22007KT 9999 FEW016 15/13 Q1019 NOSIG
12-11-24 LEBL 241800Z 22007KT 9999 FEW012 SCT020 15/13 Q1019 NOSIG
12-11-24 LEBL 241830Z 23008KT 9000 FEW015 15/13 Q1019 NOSIG
12-11-24 LEBL 241900Z 22010KT 9999 SCT015 15/13 Q1019 NOSIG
12-11-24 LEBL 241930Z 24009KT 9999 SCT015 15/13 Q1019 NOSIG
12-11-24 LEBL 242000Z 24006KT 9000 SCT015 15/13 Q1019 NOSIG
12-11-24 LEBL 242030Z 26005KT 8000 SCT015 15/13 Q1020 NOSIG
12-11-24 LEBL 242100Z VRB02KT 8000 SCT015 15/13 Q1019 NOSIG
12-11-24 LEBL 242130Z 22003KT 9000 SCT015 15/13 Q1019 NOSIG
12-11-24 LEBL 242200Z 22008KT 9999 FEW015 14/12 Q1019 NOSIG
12-11-24 LEBL 242230Z 23008KT 9999 FEW015 14/12 Q1020 NOSIG
12-11-24 LEBL 242300Z 24008KT 9000 FEW020 14/12 Q1019 NOSIG
12-11-24 LEBL 242330Z 25006KT 9000 FEW020 14/12 Q1019 NOSIG
12-11-25 LEBL 250000Z 28004KT 240V300 9000 FEW020 13/12 Q1019 NOSIG
12-11-25 LEBL 250030Z 30005KT 7000 FEW020 12/10 Q1019 NOSIG
12-11-25 LEBL 250100Z VRB02KT 7000 FEW020 12/11 Q1019 NOSIG
12-11-25 LEBL 250130Z 33003KT 290V360 5000 BR FEW020 12/11 Q1019 NOSIG
12-11-25 LEBL 250200Z 32003KT 270V350 5000 BR FEW020 12/11 Q1019 NOSIG
12-11-25 LEBL 250230Z 32004KT 5000 BR FEW020 12/11 Q1019 NOSIG
12-11-25 LEBL 250300Z VRB01KT 5000 BR FEW020 12/11 Q1019 NOSIG
12-11-25 LEBL 250330Z 33003KT 5000 BR FEW020 12/11 Q1019 NOSIG
12-11-25 LEBL 250400Z 32004KT 5000 BR FEW018 12/10 Q1019 NOSIG
12-11-25 LEBL 250430Z VRB02KT 5000 BR FEW018 12/10 Q1019 NOSIG
12-11-25 LEBL 250500Z 32007KT 5000 BR FEW018 11/10 Q1019 NOSIG
12-11-25 LEBL 250530Z 33007KT 6000 FEW018 11/10 Q1019 NOSIG
12-11-25 LEBL 250600Z 32008KT 6000 FEW018 11/10 Q1019 NOSIG
12-11-25 LEBL 250630Z 32006KT 6000 FEW018 11/09 Q1020 NOSIG
12-11-25 LEBL 250700Z 34003KT 310V010 6000 FEW015 11/09 Q1020 NOSIG
12-11-25 LEBL 250730Z 34005KT 7000 FEW015 11/10 Q1020 NOSIG
12-11-25 LEBL 250800Z 33008KT 300V010 7000 FEW012 12/10 Q1020 NOSIG
12-11-25 LEBL 250830Z 33008KT 280V010 8000 FEW012 12/10 Q1020 NOSIG
12-11-25 LEBL 250900Z 34006KT 280V350 7000 FEW012 13/11 Q1021 NOSIG
12-11-25 LEBL 250930Z 32006KT 290V360 7000 FEW012 15/11 Q1021 NOSIG
12-11-25 LEBL 251000Z VRB02KT 7000 FEW015 16/11 Q1020 NOSIG
12-11-25 LEBL 251030Z 34001KT 7000 FEW015 16/11 Q1020 NOSIG
12-11-25 LEBL 251100Z VRB02KT 6000 FEW015 17/11 Q1020 NOSIG
12-11-25 LEBL 251130Z 11003KT 070V170 6000 FEW018 18/11 Q1020 NOSIG
12-11-25 LEBL 251200Z 15004KT 120V180 7000 FEW018 16/12 Q1020 NOSIG
12-11-25 LEBL 251230Z 15004KT 7000 FEW020 16/13 Q1019 NOSIG
12-11-25 LEBL 251300Z 15004KT 110V190 8000 FEW020 16/13 Q1019 NOSIG
12-11-25 LEBL 251330Z VRB02KT 8000 FEW020 17/13 Q1018 NOSIG
12-11-25 LEBL 251400Z 14004KT 110V170 8000 FEW020 17/13 Q1018 NOSIG
12-11-25 LEBL 251430Z 14003KT 9000 FEW020 17/12 Q1018 NOSIG
12-11-25 LEBL 251500Z 17004KT 9999 FEW020 17/13 Q1018 NOSIG
12-11-25 LEBL 251530Z 17006KT 9999 FEW020 SCT030 16/14 Q1018 NOSIG
12-11-25 LEBL 251600Z 18005KT 9999 SCT025 16/14 Q1018 NOSIG
12-11-25 LEBL 251700Z NIL
12-11-25 LEBL 251700Z 18003KT 150V210 9999 SCT025 16/14 Q1018 NOSIG
12-11-25 LEBL 251730Z 20002KT 9999 FEW020 BKN025 16/14 Q1018 NOSIG
12-11-25 LEBL 251800Z 20002KT 7000 FEW010 BKN025 15/13 Q1018 NOSIG
12-11-25 LEBL 251830Z 24001KT 7000 FEW012 SCT025 15/14 Q1017 NOSIG
12-11-25 LEBL 251900Z 23001KT 5000 BR FEW012 SCT025 15/13 Q1017 NOSIG
12-11-25 LEBL 251930Z VRB02KT 5000 BR FEW010 SCT025 14/13 Q1017 NOSIG
12-11-25 LEBL 252000Z 32004KT 260V360 6000 FEW010 BKN025 15/13 Q1017 NOSIG
12-11-25 LEBL 252030Z 35003KT 300V060 6000 FEW013 BKN030 15/13 Q1017 NOSIG
12-11-25 LEBL 252100Z 32002KT 6000 FEW013 BKN030 15/14 Q1017 NOSIG
12-11-25 LEBL 252130Z 31003KT 280V010 6000 FEW012 BKN030 15/13 Q1017 NOSIG
12-11-25 LEBL 252200Z 33004KT 270V010 6000 FEW015 BKN032 15/13 Q1017 NOSIG
12-11-25 LEBL 252230Z 30003KT 230V330 5000 BR FEW015 BKN030 15/13 Q1017 NOSIG
12-11-25 LEBL 252300Z 31003KT 280V340 6000 FEW015 BKN030 15/13 Q1016 NOSIG
12-11-25 LEBL 252330Z 33006KT 6000 FEW015 BKN030 15/13 Q1016 NOSIG
12-11-26 LEBL 260000Z 31005KT 6000 FEW015 BKN030 15/13 Q1016 NOSIG
12-11-26 LEBL 260030Z 33005KT 6000 FEW015 BKN033 15/13 Q1016 NOSIG
12-11-26 LEBL 260100Z VRB01KT 6000 FEW015 BKN030 14/12 Q1015 NOSIG
12-11-26 LEBL 260130Z VRB02KT 6000 FEW012 BKN030 14/13 Q1015 NOSIG
12-11-26 LEBL 260200Z VRB02KT 6000 FEW012 BKN027 14/13 Q1015 NOSIG
12-11-26 LEBL 260230Z VRB01KT 5000 BR FEW010 BKN027 14/12 Q1015 NOSIG
12-11-26 LEBL 260300Z 30002KT 5000 BR FEW010 BKN027 14/13 Q1015 NOSIG
12-11-26 LEBL 260330Z 32003KT 5000 BR FEW010 BKN030 14/12 Q1014 NOSIG
12-11-26 LEBL 260400Z 00000KT 6000 FEW013 BKN030 14/13 Q1014 NOSIG
12-11-26 LEBL 260430Z VRB02KT 7000 FEW013 BKN030 14/13 Q1014 NOSIG
12-11-26 LEBL 260500Z 00000KT 7000 FEW013 BKN030 14/12 Q1014 NOSIG
12-11-26 LEBL 260530Z 35001KT 6000 FEW015 SCT030 14/12 Q1013 NOSIG
12-11-26 LEBL 260600Z 33004KT 5000 BR FEW015 14/12 Q1013 NOSIG
12-11-26 LEBL 260630Z 31002KT 5000 BR FEW015 SCT030 14/12 Q1013 NOSIG
12-11-26 LEBL 260700Z 33003KT 280V040 6000 FEW015 BKN030 14/13 Q1013 NOSIG
12-11-26 LEBL 260730Z VRB02KT 6000 FEW018 BKN030 14/13 Q1013 NOSIG
12-11-26 LEBL 260800Z 32003KT 260V040 6000 FEW018 BKN025 15/13 Q1013 NOSIG
12-11-26 LEBL 260830Z 30004KT 230V340 9000 FEW018 BKN028 15/13 Q1013 NOSIG
12-11-26 LEBL 260900Z VRB02KT 9000 FEW018 BKN028 16/14 Q1013 NOSIG
12-11-26 LEBL 260930Z 21004KT 160V310 9999 FEW017 BKN027 18/15 Q1013 NOSIG
12-11-26 LEBL 261000Z 21009KT 9999 SCT013 BKN028 17/15 Q1013 NOSIG
12-11-26 LEBL 261030Z 22009KT 9999 FEW015 BKN028 17/15 Q1012 NOSIG
12-11-26 LEBL 261100Z 22006KT 9999 FEW017 BKN026 18/15 Q1012 NOSIG
12-11-26 LEBL 261130Z 24007KT 9999 FEW011 BKN026 18/15 Q1011 NOSIG
12-11-26 LEBL 261200Z 24006KT 200V260 9999 FEW014 BKN026 18/14 Q1011 NOSIG
12-11-26 LEBL 261230Z 22007KT 9999 FEW014 BKN025 18/14 Q1011 NOSIG
12-11-26 LEBL 261300Z 20005KT 9999 FEW014 SCT025 18/14 Q1010 NOSIG
12-11-26 LEBL 261330Z 19005KT 9999 FEW014 SCT025 17/14 Q1010 NOSIG
12-11-26 LEBL 261400Z 20004KT 9999 FEW015 SCT023 17/15 Q1009 NOSIG
12-11-26 LEBL 261430Z 20005KT 9999 FEW015 SCT025 17/15 Q1009 NOSIG
12-11-26 LEBL 261500Z 20005KT 9999 FEW012 BKN028 17/15 Q1009 NOSIG
12-11-26 LEBL 261530Z 23005KT 9999 FEW015 BKN030 17/14 Q1009 NOSIG
12-11-26 LEBL 261600Z 20005KT 170V230 9999 FEW015 SCT030 17/15 Q1009 NOSIG
12-11-26 LEBL 261630Z 20004KT 9000 FEW015 SCT035 17/15 Q1008 NOSIG
12-11-26 LEBL 261700Z 22006KT 7000 FEW015 SCT032 16/15 Q1009 NOSIG
12-11-26 LEBL 261730Z 33007KT 8000 FEW014 BKN025 16/13 Q1009 NOSIG
12-11-26 LEBL 261800Z 31007KT 9999 FEW014 BKN025 16/10 Q1009 NOSIG
12-11-26 LEBL 261830Z 32006KT 290V350 9999 FEW015 BKN025 16/09 Q1009 NOSIG
12-11-26 LEBL 261900Z 33009KT 9999 FEW018 SCT030 BKN042 16/09 Q1009 NOSIG
12-11-26 LEBL 261930Z 31011KT 290V350 9999 FEW018 BKN040 15/09 Q1009 NOSIG
12-11-26 LEBL 262000Z 30011KT 9999 FEW020 BKN040 15/08 Q1009 NOSIG
12-11-26 LEBL 262030Z 30011KT 250V330 9999 RA FEW020 BKN050 14/09 Q1009 NOSIG
12-11-26 LEBL 262100Z 31009KT 9999 -RA FEW020 BKN050 14/10 Q1009 NOSIG
12-11-26 LEBL 262130Z 31008KT 270V340 9999 FEW020 SCT050 13/09 Q1009 RERA NOSIG
12-11-26 LEBL 262200Z 31007KT 9999 FEW020 SCT050 13/09 Q1009 NOSIG
12-11-26 LEBL 262230Z 32008KT 9999 RA FEW020 SCT050 13/09 Q1009 NOSIG
12-11-26 LEBL 262300Z 32008KT 290V350 9999 RA FEW020 SCT055 13/09 Q1009 NOSIG
12-11-26 LEBL 262330Z 34005KT 9999 -RA FEW020 SCT055 13/09 Q1009 NOSIG
12-11-27 LEBL 270000Z 32006KT 9999 -RA FEW020 SCT055 13/09 Q1009 NOSIG
12-11-27 LEBL 270030Z 34005KT 310V020 9999 -RA FEW020 SCT055 13/09 Q1008 NOSIG
12-11-27 LEBL 270100Z 34006KT 9999 -RA FEW020 SCT055 13/10 Q1008 NOSIG
12-11-27 LEBL 270130Z 35006KT 9999 FEW020 SCT055 13/09 Q1007 RERA NOSIG
12-11-27 LEBL 270200Z 33005KT 9999 FEW020 SCT055 13/09 Q1007 NOSIG
12-11-27 LEBL 270230Z 34003KT 310V010 9999 FEW020 SCT055 12/10 Q1007 NOSIG
12-11-27 LEBL 270300Z 29003KT 250V340 9999 RA FEW020 SCT043 12/10 Q1007 NOSIG
12-11-27 LEBL 270330Z NIL
12-11-27 LEBL 270400Z 32004KT 9999 SCT020 SCT043 12/10 Q1007 NOSIG
12-11-27 LEBL 270430Z 34006KT 9999 SCT020 SCT043 12/09 Q1006 NOSIG
12-11-27 LEBL 270500Z NIL
12-11-27 LEBL 270500Z 03005KT 9999 SCT020 SCT043 12/09 Q1006 NOSIG
12-11-27 LEBL 270530Z 02006KT 5000 RA SCT013 SCT023 12/09 Q1006 NOSIG
12-11-27 LEBL 270600Z 01004KT 6000 RA SCT015 BKN030 12/09 Q1006 NOSIG
12-11-27 LEBL 270630Z VRB02KT 5000 RA SCT015 BKN025 12/10 Q1006 NOSIG
12-11-27 LEBL 270700Z 01006KT 340V050 7000 RA FEW015 BKN028 11/10 Q1006 NOSIG
12-11-27 LEBL 270730Z 02004KT 310V120 7000 RA FEW015 BKN030 11/09 Q1006 NOSIG
12-11-27 LEBL 270800Z 35003KT 8000 RA SCT010 BKN030 11/09 Q1006 NOSIG
12-11-27 LEBL 270830Z 36005KT 330V040 5000 RA SCT010 BKN030 11/10 Q1006 NOSIG
12-11-27 LEBL 270900Z VRB05KT 7000 RA SCT015 BKN040 11/10 Q1006 NOSIG
12-11-27 LEBL 270930Z 01006KT 320V070 9999 RA SCT030 BKN045 11/10 Q1005 NOSIG
12-11-27 LEBL 271000Z 03008KT 330V070 9999 DZ SCT030 BKN045 12/10 Q1006 NOSIG
12-11-27 LEBL 271030Z 04007KT 010V070 9999 RA SCT030 BKN045 11/09 Q1005 NOSIG
12-11-27 LEBL 271100Z 05005KT 340V100 9999 DZ SCT040 BKN050 12/09 Q1005 NOSIG
12-11-27 LEBL 271130Z 02005KT 350V050 9999 SCT014 BKN043 12/09 Q1004 REDZ NOSIG
12-11-27 LEBL 271200Z 32005KT 9999 SCT022 SCT044 12/09 Q1004 NOSIG
12-11-27 LEBL 271230Z 31007KT 9999 FEW020 SCT045 12/09 Q1003 NOSIG
12-11-27 LEBL 271300Z 33007KT 270V350 9999 SCT030 SCT048 13/08 Q1003 NOSIG
12-11-27 LEBL 271330Z 33008KT 290V360 9999 RA SCT028 SCT048 13/08 Q1003 NOSIG
12-11-27 LEBL 271400Z 32008KT 270V350 9999 SCT028 SCT049 12/08 Q1002 RERA NOSIG
12-11-27 LEBL 271430Z 33012KT 9999 SCT028 SCT049 11/08 Q1002 NOSIG
12-11-27 LEBL 271500Z 32013G24KT 9999 DZ SCT028 SCT049 11/07 Q1002 NOSIG
12-11-27 LEBL NIL
12-11-27 LEBL 271530Z 32013KT 300V360 9999 RA FEW020 BKN050 11/07 Q1002 NOSIG
12-11-27 LEBL 271600Z 32013KT 9999 RA SCT038 SCT052 10/07 Q1002 NOSIG
12-11-27 LEBL 271630Z 32013G23KT 9999 RA SCT038 SCT050 10/06 Q1003 NOSIG
12-11-27 LEBL 271700Z 31012KT 280V340 9999 RA FEW020 BKN045 10/07 Q1002 NOSIG
12-11-27 LEBL 271712Z 31011G21KT 9999 SHRA FEW020CB BKN045 09/07 Q1002 NOSIG
12-11-27 LEBL 271730Z 32010KT 280V340 9000 SHRA FEW020CB BKN045 09/07 Q1002 NOSIG
12-11-27 LEBL 271800Z 33008KT 9000 SHRA FEW020CB BKN045 09/07 Q1003 NOSIG
12-11-27 LEBL 271830Z 33004KT 290V020 9000 SHRA FEW020CB BKN042 09/07 Q1003 NOSIG
12-11-27 LEBL 271900Z 30008KT 260V330 9000 SHRA FEW020CB BKN036 09/08 Q1002 NOSIG
12-11-27 LEBL 271930Z 32006KT 280V350 9000 SHRA FEW020CB BKN036 09/08 Q1003 NOSIG
12-11-27 LEBL 272000Z 32007KT 290V360 9000 SHRA FEW020CB SCT036 09/07 Q1002 NOSIG
12-11-27 LEBL 272030Z 33008KT 270V360 9999 -RA FEW020TCU SCT040 09/07 Q1002 NOSIG
12-11-27 LEBL 272100Z 33006KT 250V010 9999 FEW020 SCT040 09/07 Q1002 NOSIG
12-11-27 LEBL 272130Z 33005KT 200V010 9999 FEW020 SCT050 09/08 Q1002 NOSIG
12-11-27 LEBL 272200Z 34009KT 9999 FEW020 09/07 Q1001 NOSIG
12-11-27 LEBL 272230Z 33006KT 9999 FEW020 09/07 Q1001 NOSIG
12-11-27 LEBL 272300Z 31007KT 9999 FEW020 SCT040 09/07 Q1000 NOSIG
12-11-27 LEBL 272330Z 00000KT 9999 FEW020 SCT040 09/07 Q1000 NOSIG
12-11-28 LEBL 280030Z 30005KT 9999 -RA FEW018 BKN044 09/07 Q1000 NOSIG
12-11-28 LEBL 280100Z 26004KT 9999 FEW018 BKN044 09/07 Q1000 NOSIG
12-11-28 LEBL 280130Z 30006KT 9999 -RA FEW018 BKN042 09/07 Q0999 NOSIG
12-11-28 LEBL 280200Z 32006KT 9999 -RA FEW018 BKN045 09/07 Q0999 NOSIG
12-11-28 LEBL 280230Z 31007KT 9999 -RA FEW018 BKN045 09/07 Q0999 NOSIG
12-11-28 LEBL 280300Z 28004KT 9999 -RA FEW018 SCT042 BKN055 09/07 Q0998 NOSIG
12-11-28 LEBL 280330Z 33003KT 9999 FEW018 SCT050 09/07 Q0998 NOSIG
12-11-28 LEBL 280400Z 33003KT 310V010 9999 FEW018 09/07 Q0998 NOSIG
12-11-28 LEBL 280430Z 30009KT 9999 FEW020 09/06 Q0997 NOSIG
12-11-28 LEBL 280500Z 28007KT 250V310 9999 FEW020 09/06 Q0997 NOSIG
12-11-28 LEBL 280530Z 33008KT 9999 FEW020 09/06 Q0997 NOSIG
12-11-28 LEBL 280600Z 33006KT 9999 FEW020 09/06 Q0996 NOSIG
12-11-28 LEBL 280630Z 34007KT 9999 FEW020 09/05 Q0996 NOSIG
12-11-28 LEBL 280700Z 32006KT 9999 FEW020 09/05 Q0996 NOSIG
12-11-28 LEBL 280730Z 30009KT 270V340 9999 FEW020 09/04 Q0996 NOSIG
12-11-28 LEBL 280800Z 31008KT 250V360 9999 FEW020 10/05 Q0996 NOSIG
12-11-28 LEBL 280830Z 30009KT 9999 FEW020 10/04 Q0996 NOSIG
12-11-28 LEBL 280900Z 32007KT 260V340 9999 FEW020 10/05 Q0996 NOSIG
12-11-28 LEBL 280930Z 32007KT 250V020 9999 FEW020 10/05 Q0996 NOSIG
12-11-28 LEBL 281000Z 34007KT 300V010 9999 FEW020 10/05 Q0997 NOSIG
12-11-28 LEBL 281030Z 33006KT 250V030 9999 FEW020 10/05 Q0996 NOSIG
12-11-28 LEBL 281100Z 34005KT 250V040 9999 FEW020 11/05 Q0996 NOSIG
12-11-28 LEBL 281130Z 32005KT 290V360 9999 FEW020 11/05 Q0996 NOSIG
12-11-28 LEBL 281200Z 31006KT 290V350 9999 FEW020 12/05 Q0995 NOSIG
12-11-28 LEBL 281230Z 31004KT 280V340 9999 FEW020 12/06 Q0995 NOSIG
12-11-28 LEBL 281300Z 30002KT 9999 FEW020 12/06 Q0995 NOSIG
12-11-28 LEBL 281330Z 24006KT 9999 FEW020 12/06 Q0995 NOSIG
12-11-28 LEBL 281400Z 26006KT 220V300 9999 FEW020 12/06 Q0994 NOSIG
12-11-28 LEBL 281430Z 34003KT 9999 FEW020 12/06 Q0994 NOSIG
12-11-28 LEBL 281500Z 24004KT 220V280 9999 FEW020 12/04 Q0994 NOSIG
12-11-28 LEBL 281530Z 29003KT 230V350 9999 FEW020 13/03 Q0994 NOSIG
12-11-28 LEBL 281600Z 31007KT 170V340 9999 FEW020 14/02 Q0993 NOSIG
12-11-28 LEBL 281630Z 31012KT 9999 FEW020 14/01 Q0993 NOSIG
12-11-28 LEBL 281700Z 30011KT 9999 FEW020 14/01 Q0993 NOSIG
12-11-28 LEBL 281730Z 29010KT 9999 FEW020 13/01 Q0994 NOSIG
12-11-28 LEBL 281800Z 30015KT 9999 FEW020 13/01 Q0994 NOSIG
12-11-28 LEBL 281830Z 30013KT 270V340 9999 FEW018 13/01 Q0994 NOSIG
12-11-28 LEBL 281900Z 31019KT 9999 FEW018 13/M00 Q0994 NOSIG
12-11-28 LEBL 281930Z 31019KT 9999 FEW025 13/M01 Q0994 NOSIG
12-11-28 LEBL 282000Z 31020KT 9999 FEW025 13/M02 Q0994 NOSIG
12-11-28 LEBL 282030Z 31018KT 290V350 9999 FEW025 13/M03 Q0995 NOSIG
12-11-28 LEBL 282100Z 31019KT 9999 FEW025 13/M02 Q0995 NOSIG
12-11-28 LEBL 282130Z 32018KT 280V340 9999 FEW025 13/M03 Q0995 NOSIG
12-11-28 LEBL 282200Z 32021KT 9999 FEW025 13/M03 Q0995 NOSIG
12-11-28 LEBL 282230Z 32018KT 9999 FEW025 13/M03 Q0996 NOSIG
12-11-28 LEBL 282300Z 32016KT 9999 FEW025 13/M03 Q0996 NOSIG
12-11-28 LEBL 282330Z 32015KT 9999 FEW025 12/M03 Q0996 NOSIG
12-11-29 LEBL 290000Z 32015KT 9999 FEW025 12/M03 Q0996 NOSIG
12-11-29 LEBL 290030Z 32014KT 290V350 9999 FEW025 12/M03 Q0997 NOSIG
12-11-29 LEBL 290100Z 32014KT 9999 FEW025 12/M02 Q0997 NOSIG
12-11-29 LEBL 290130Z 31015KT 9999 FEW025 12/M03 Q0997 NOSIG
12-11-29 LEBL 290200Z 32014KT 9999 FEW025 12/M03 Q0997 NOSIG
12-11-29 LEBL 290230Z 32013KT 9999 FEW025 11/M02 Q0997 NOSIG
12-11-29 LEBL 290300Z 32015KT 9999 FEW025 11/M02 Q0998 NOSIG
12-11-29 LEBL 290330Z 32012KT 9999 FEW025 11/M01 Q0998 NOSIG
12-11-29 LEBL 290400Z 32011KT 9999 FEW025 11/M01 Q0998 NOSIG
12-11-29 LEBL 290430Z 32011KT 9999 FEW025 11/M03 Q0998 NOSIG
12-11-29 LEBL 290500Z 32011KT 9999 FEW025 11/M02 Q0999 NOSIG
12-11-29 LEBL 290530Z 32013KT 9999 FEW025 11/M03 Q0999 NOSIG
12-11-29 LEBL 290600Z 33009KT 290V350 9999 FEW025 11/M03 Q0999 NOSIG
12-11-29 LEBL 290630Z 33012KT 9999 FEW025 09/M02 Q0999 NOSIG
12-11-29 LEBL 290700Z 33009KT 9999 FEW025 10/M03 Q1000 NOSIG
12-11-29 LEBL 290730Z 31015KT 9999 FEW025 10/M03 Q1000 NOSIG
12-11-29 LEBL 290800Z 32009KT 9999 FEW025 11/M02 Q1001 NOSIG
12-11-29 LEBL 290830Z 32009KT 220V010 9999 FEW025 11/M02 Q1001 NOSIG
12-11-29 LEBL 290900Z 32011KT 9999 FEW020 12/M03 Q1002 NOSIG
12-11-29 LEBL 290930Z 33011KT 300V050 9999 FEW020 12/M01 Q1002 NOSIG
12-11-29 LEBL NIL
12-11-29 LEBL 291000Z 32011KT 9999 FEW020 SCT025 13/M02 Q1002 NOSIG
12-11-29 LEBL 291030Z 31009G20KT 260V340 9999 FEW020 SCT025 14/M02 Q1002 NOSIG
12-11-29 LEBL 291100Z 31012KT 9999 FEW020 BKN025 14/M02 Q1002 NOSIG
12-11-29 LEBL 291130Z 31011KT 270V330 9999 FEW025 BKN035 13/M01 Q1002 NOSIG
12-11-29 LEBL 291200Z 31010KT 9999 FEW025 BKN035 13/M00 Q1002 NOSIG
12-11-29 LEBL 291230Z 31009G21KT 240V350 9999 BKN040 14/M02 Q1002 NOSIG
12-11-29 LEBL 291300Z 31010KT 260V340 9999 BKN040 14/M02 Q1002 NOSIG
12-11-29 LEBL 291330Z 30008KT 210V330 9999 SCT040 15/M03 Q1002 NOSIG
12-11-29 LEBL 291400Z 32009KT 290V010 CAVOK 16/M03 Q1002 NOSIG
12-11-29 LEBL 291430Z 34009KT 300V010 CAVOK 16/M04 Q1002 NOSIG
12-11-29 LEBL 291500Z 31011KT 9999 FEW030 15/M04 Q1002 NOSIG
12-11-29 LEBL 291530Z 31009KT CAVOK 15/M05 Q1002 NOSIG
12-11-29 LEBL 291600Z 30009KT 250V330 CAVOK 14/M05 Q1002 NOSIG
12-11-29 LEBL 291630Z 31008KT 260V350 CAVOK 14/M04 Q1002 NOSIG
12-11-29 LEBL 291700Z 31011KT CAVOK 13/M06 Q1002 NOSIG
12-11-29 LEBL 291730Z 32008KT 280V350 CAVOK 12/M05 Q1003 NOSIG
12-11-29 LEBL 291800Z 33007KT 280V010 9999 FEW030 12/M04 Q1003 NOSIG
12-11-29 LEBL 291830Z 36007KT 320V040 9999 FEW030 11/M04 Q1003 NOSIG
12-11-29 LEBL 291900Z 33006KT 9999 FEW030 10/M04 Q1003 NOSIG
12-11-29 LEBL 291930Z 32007KT 9999 FEW030 10/M05 Q1003 NOSIG
12-11-29 LEBL 292000Z 32008KT 270V350 9999 FEW030 10/M05 Q1003 NOSIG
12-11-29 LEBL 292030Z 33009KT 9999 FEW030 10/M04 Q1004 NOSIG
12-11-29 LEBL 292100Z 32008KT 9999 FEW030 09/M04 Q1004 NOSIG
12-11-29 LEBL 292130Z 32009KT 280V340 9999 FEW030 09/M04 Q1004 NOSIG
12-11-29 LEBL 292200Z 33008KT 280V010 9999 FEW030 08/M04 Q1004 NOSIG
12-11-29 LEBL 292230Z 33008KT 9999 FEW030 07/M03 Q1003 NOSIG
12-11-29 LEBL 292300Z 32010KT 9999 FEW030 07/M04 Q1003 NOSIG
12-11-29 LEBL 292330Z 30008KT 9999 FEW030 07/M03 Q1004 NOSIG
12-11-30 LEBL 300000Z 32010KT 9999 FEW030 07/M04 Q1003 NOSIG
12-11-30 LEBL 300030Z NIL
12-11-30 LEBL 300030Z 32008KT 9999 FEW030 07/M04 Q1003 NOSIG
12-11-30 LEBL 300100Z 32010KT 9999 FEW030 06/M03 Q1003 NOSIG
12-11-30 LEBL 300130Z 33008KT 9999 FEW030 06/M02 Q1003 NOSIG
12-11-30 LEBL 300200Z 32010KT 290V350 9999 FEW030 06/M02 Q1003 NOSIG
12-11-30 LEBL 300200Z 32010KT 9999 FEW030 06/M02 Q1003 NOSIG
12-11-30 LEBL 300230Z 33011KT 290V350 9999 FEW030 06/M01 Q1003 NOSIG
12-11-30 LEBL 300300Z 32008KT 9999 FEW030 05/M01 Q1003 NOSIG
12-11-30 LEBL 300330Z 31009KT 9999 FEW030 05/M01 Q1003 NOSIG
12-11-30 LEBL 300400Z 33008KT 9999 FEW030 05/M00 Q1003 NOSIG
12-11-30 LEBL 300430Z 33012KT 9999 FEW030 04/M00 Q1002 NOSIG
12-11-30 LEBL 300500Z 33012KT 9999 FEW030 04/M00 Q1002 NOSIG
12-11-30 LEBL 300530Z 34013KT 9999 FEW030 04/M01 Q1002 NOSIG
12-11-30 LEBL 300600Z 33015KT 9999 FEW030 04/M01 Q1002 NOSIG
12-11-30 LEBL 300630Z 33011KT 9999 FEW030 04/M01 Q1002 NOSIG
12-11-30 LEBL 300700Z 34013KT 9999 FEW020 04/M01 Q1002 NOSIG
12-11-30 LEBL 300730Z 33013KT CAVOK 04/M01 Q1002 NOSIG
12-11-30 LEBL 300800Z 32010KT CAVOK 04/M01 Q1003 NOSIG
12-11-30 LEBL 300830Z 33014KT CAVOK 05/M01 Q1003 NOSIG
12-11-30 LEBL 300900Z 33012KT 9999 FEW030 06/M01 Q1003 NOSIG
12-11-30 LEBL 300930Z 32011G22KT 270V010 CAVOK 07/M00 Q1003 NOSIG
12-11-30 LEBL 301000Z 32013KT CAVOK 08/M01 Q1003 NOSIG
12-11-30 LEBL 301030Z 31010KT 280V350 CAVOK 09/M01 Q1003 NOSIG
12-11-30 LEBL 301100Z 32009KT 280V340 CAVOK 09/M02 Q1003 NOSIG
12-11-30 LEBL 301130Z 31006KT 260V350 CAVOK 11/M04 Q1003 NOSIG
12-11-30 LEBL 301200Z 31005KT 250V010 9999 FEW030 11/M03 Q1002 NOSIG
12-11-30 LEBL 301230Z VRB02KT 9999 FEW030 12/M05 Q1002 NOSIG
12-11-30 LEBL 301300Z 32003KT 250V060 9999 FEW030 13/M06 Q1002 NOSIG
12-11-30 LEBL 301330Z 31004KT 9999 FEW030 13/M07 Q1002 NOSIG
12-11-30 LEBL 301400Z 20004KT 9999 FEW030 12/M05 Q1002 NOSIG
12-11-30 LEBL 301430Z 19007KT 9999 FEW030 12/M05 Q1002 NOSIG
12-11-30 LEBL 301500Z 19007KT 9999 FEW030 12/M03 Q1002 NOSIG
12-11-30 LEBL 301530Z 21005KT 9999 FEW030 12/M05 Q1002 NOSIG
12-11-30 LEBL 301600Z 22006KT 9999 FEW030 11/M02 Q1003 NOSIG
12-11-30 LEBL 301630Z 22006KT 9999 FEW030 11/M01 Q1003 NOSIG
12-11-30 LEBL 301700Z 24004KT 9999 FEW030 10/M01 Q1003 NOSIG
12-11-30 LEBL 301730Z 26004KT 240V300 9999 FEW030 09/00 Q1003 NOSIG
12-11-30 LEBL 301800Z 32003KT 280V350 9999 FEW030 08/01 Q1004 NOSIG
12-11-30 LEBL 301830Z 32005KT 280V350 9999 FEW030 08/01 Q1004 NOSIG
12-11-30 LEBL 301900Z 33007KT 220V360 9999 FEW030 08/00 Q1005 NOSIG
12-11-30 LEBL 301930Z 33009KT 280V010 9999 FEW030 08/01 Q1005 NOSIG
12-11-30 LEBL 302000Z 33010KT 310V010 9999 FEW030 07/01 Q1005 NOSIG
12-11-30 LEBL 302030Z 33010G26KT 290V360 9999 FEW030 07/01 Q1006 NOSIG
12-11-30 LEBL 302100Z 33011KT 290V030 9999 FEW030 07/01 Q1006 NOSIG
12-11-30 LEBL 302130Z 33011KT 300V010 9999 FEW030 07/01 Q1006 NOSIG
12-11-30 LEBL 302200Z 33011KT 290V350 9999 FEW030 07/01 Q1006 NOSIG
12-11-30 LEBL 302230Z 33011KT 9999 FEW030 07/01 Q1006 NOSIG
12-11-30 LEBL 302300Z 33012KT 9999 FEW030 07/01 Q1006 NOSIG
12-11-30 LEBL 302330Z 32012KT 9999 FEW030 06/01 Q1006 NOSIG
12-12-01 LEBL 010000Z 33012KT 9999 FEW025 06/01 Q1007 NOSIG
12-12-01 LEBL 010030Z 33011KT 9999 FEW025 05/01 Q1007 NOSIG
12-12-01 LEBL 010100Z 33010KT 9999 FEW025 SCT043 05/01 Q1007 NOSIG
12-12-01 LEBL 010130Z 33009KT 9999 FEW025 SCT040 05/00 Q1007 NOSIG
12-12-01 LEBL 010200Z 33008KT 9999 FEW025 BKN040 05/00 Q1007 NOSIG
12-12-01 LEBL 010230Z 31010KT 9999 FEW025 SCT037 BKN050 05/00 Q1008 NOSIG
12-12-01 LEBL 010300Z 32007KT 9999 -RA FEW022 SCT028 BKN047 05/01 Q1008 NOSIG
12-12-01 LEBL 010330Z 33010KT 9999 DZ FEW022 SCT055 05/01 Q1007 NOSIG
12-12-01 LEBL 010400Z 32011KT 9999 FEW022 SCT055 04/00 Q1007 REDZ NOSIG
12-12-01 LEBL 010430Z 32014KT 9999 FEW022 SCT055 04/00 Q1007 NOSIG
12-12-01 LEBL 010500Z 33015KT 9999 FEW030 SCT055 03/00 Q1008 NOSIG
12-12-01 LEBL 010530Z 33015KT 9999 FEW030 03/M00 Q1008 NOSIG
12-12-01 LEBL 010600Z 33017KT 9999 FEW030 03/M00 Q1008 NOSIG
12-12-01 LEBL 010630Z 34016KT 9999 FEW042 03/M00 Q1008 NOSIG
12-12-01 LEBL 010700Z 33014KT 9999 FEW042 03/M00 Q1009 NOSIG
12-12-01 LEBL 010730Z 34013KT 9999 FEW036 04/M00 Q1009 NOSIG
12-12-01 LEBL 010800Z 34013KT 9999 FEW035 BKN040 04/M01 Q1009 NOSIG
12-12-01 LEBL 010830Z 34014KT 310V010 9999 FEW035 BKN040 04/M00 Q1010 NOSIG
12-12-01 LEBL 010900Z 34015KT 300V360 9999 FEW030 SCT035 05/M00 Q1010 NOSIG
12-12-01 LEBL 010930Z 34013G23KT 310V010 9999 FEW030 SCT035 06/M00 Q1010 NOSIG
12-12-01 LEBL 011000Z 34012G23KT 300V010 9999 FEW030 SCT035 06/M00 Q1010 NOSIG
12-12-01 LEBL 011030Z 35013KT 9999 FEW030 07/M00 Q1010 NOSIG
12-12-01 LEBL 011100Z 34010KT 310V010 9999 FEW030 07/M01 Q1010 NOSIG
12-12-01 LEBL 011130Z 34009KT 290V010 9999 FEW030 08/M01 Q1010 NOSIG
12-12-01 LEBL 011200Z 35008KT 9999 FEW030 09/M01 Q1010 NOSIG
12-12-01 LEBL 011230Z 34010KT 310V010 9999 FEW030 09/M01 Q1010 NOSIG
12-12-01 LEBL 011300Z 34009KT 310V020 9999 FEW030 10/M01 Q1010 NOSIG
12-12-01 LEBL 011330Z 34008KT 290V350 9999 FEW030 10/M01 Q1010 NOSIG
12-12-01 LEBL 011400Z 33007KT 300V010 9999 FEW030 10/M01 Q1010 NOSIG
12-12-01 LEBL 011430Z 34005KT 300V080 9999 FEW030 10/M01 Q1010 NOSIG
12-12-01 LEBL 011500Z 34004KT 300V020 9999 FEW030 11/M01 Q1010 NOSIG
12-12-01 LEBL 011530Z 34005KT 9999 FEW030 10/M01 Q1011 NOSIG
12-12-01 LEBL 011600Z 34004KT 260V010 9999 FEW030 10/M01 Q1011 NOSIG
12-12-01 LEBL 011630Z 34003KT 300V050 9999 FEW030 09/00 Q1011 NOSIG
12-12-01 LEBL 011700Z 32006KT 9999 FEW030 08/00 Q1012 NOSIG
12-12-01 LEBL 011730Z 32006KT 9999 FEW030 08/M00 Q1012 NOSIG
12-12-01 LEBL 011800Z 32007KT 9999 FEW030 08/M01 Q1012 NOSIG
12-12-01 LEBL 011830Z 32007KT 9999 FEW030 07/M01 Q1013 NOSIG
12-12-01 LEBL 011900Z 32007KT 290V350 9999 FEW030 07/M00 Q1013 NOSIG
12-12-01 LEBL 011930Z 31006KT 290V360 9999 FEW030 06/M00 Q1013 NOSIG
12-12-01 LEBL 012000Z 35014KT 9999 FEW030 06/M00 Q1014 NOSIG
12-12-01 LEBL 012030Z 33008KT 9999 FEW030 06/M00 Q1014 NOSIG
12-12-01 LEBL 012100Z 31007KT 9999 FEW030 06/M00 Q1014 NOSIG
12-12-01 LEBL 012130Z 32008KT 260V350 9999 FEW030 05/M00 Q1015 NOSIG
12-12-01 LEBL 012200Z 31009KT 260V330 9999 FEW030 05/00 Q1015 NOSIG
12-12-01 LEBL 012230Z 31010KT 9999 FEW030 05/00 Q1015 NOSIG
12-12-01 LEBL 012300Z 32011KT 9999 FEW030 04/00 Q1015 NOSIG
12-12-01 LEBL 012330Z 32011KT 9999 FEW030 04/00 Q1015 NOSIG
12-12-02 LEBL 020000Z 32011KT CAVOK 04/00 Q1016 NOSIG
12-12-02 LEBL 020030Z 32011KT CAVOK 03/M00 Q1016 NOSIG
12-12-02 LEBL 020100Z 32012KT CAVOK 03/00 Q1015 NOSIG
12-12-02 LEBL 020130Z 32013KT CAVOK 04/M00 Q1016 NOSIG
12-12-02 LEBL 020200Z 33013KT CAVOK 03/M00 Q1016 NOSIG
12-12-02 LEBL 020230Z 33011KT CAVOK 03/M01 Q1016 NOSIG
12-12-02 LEBL 020300Z 32007KT CAVOK 03/M01 Q1016 NOSIG
12-12-02 LEBL 020330Z 32009KT CAVOK 03/M01 Q1016 NOSIG
12-12-02 LEBL 020400Z 32008KT CAVOK 03/M01 Q1016 NOSIG
12-12-02 LEBL 020430Z 33013KT CAVOK 03/M01 Q1017 NOSIG
12-12-02 LEBL 020500Z 31008KT 290V350 CAVOK 03/M02 Q1017 NOSIG
12-12-02 LEBL 020530Z 32012KT CAVOK 03/M02 Q1017 NOSIG
12-12-02 LEBL 020600Z 31012KT CAVOK 03/M02 Q1018 NOSIG
12-12-02 LEBL 020630Z 31014KT CAVOK 03/M02 Q1018 NOSIG
12-12-02 LEBL 020700Z 32013KT 9999 FEW030 03/M02 Q1018 NOSIG
12-12-02 LEBL 020730Z 32014KT 9999 FEW030 03/M02 Q1018 NOSIG
12-12-02 LEBL 020800Z 33014KT CAVOK 03/M02 Q1019 NOSIG
12-12-02 LEBL 020830Z 32013KT 300V360 CAVOK 04/M03 Q1019 NOSIG
12-12-02 LEBL 020900Z 32011KT CAVOK 05/M03 Q1019 NOSIG
12-12-02 LEBL 020930Z 32011KT CAVOK 06/M02 Q1019 NOSIG
12-12-02 LEBL 021000Z 32012KT CAVOK 07/M03 Q1020 NOSIG
12-12-02 LEBL 021030Z 32011KT CAVOK 08/M02 Q1020 NOSIG
12-12-02 LEBL 021100Z 32010KT CAVOK 09/M02 Q1020 NOSIG
12-12-02 LEBL 021130Z 32008KT 290V350 CAVOK 10/M02 Q1020 NOSIG
12-12-02 LEBL 021200Z 32011KT CAVOK 10/M02 Q1019 NOSIG
12-12-02 LEBL 021230Z 32008KT 270V010 CAVOK 11/M02 Q1019 NOSIG
12-12-02 LEBL 021300Z 32012G23KT CAVOK 12/M02 Q1019 NOSIG
12-12-02 LEBL 021330Z 30008KT 260V360 CAVOK 13/M02 Q1019 NOSIG
12-12-02 LEBL 021400Z 21005KT CAVOK 13/01 Q1019 NOSIG
12-12-02 LEBL 021430Z 24003KT 200V280 CAVOK 14/01 Q1019 NOSIG
12-12-02 LEBL 021500Z 32007KT 240V350 CAVOK 13/00 Q1019 NOSIG
12-12-02 LEBL NIL
12-12-02 LEBL 021530Z 31008KT CAVOK 14/01 Q1019 NOSIG
12-12-02 LEBL 021600Z 32008KT 290V020 CAVOK 12/M03 Q1019 NOSIG
12-12-02 LEBL 021630Z 33010KT CAVOK 11/M04 Q1019 NOSIG
12-12-02 LEBL 021700Z 32009KT CAVOK 10/M03 Q1019 NOSIG
12-12-02 LEBL 021730Z 32009KT CAVOK 09/M02 Q1019 NOSIG
12-12-02 LEBL 021800Z 31007KT 280V340 9999 FEW030 09/M01 Q1019 NOSIG
12-12-02 LEBL 021830Z 34005KT 9999 FEW030 10/M01 Q1019 NOSIG
12-12-02 LEBL 021900Z 35006KT 270V020 9999 FEW030 09/00 Q1020 NOSIG
12-12-02 LEBL 021930Z VRB02KT 9999 FEW030 09/01 Q1020 NOSIG
12-12-02 LEBL 022000Z VRB02KT 9999 FEW030 09/01 Q1020 NOSIG
12-12-02 LEBL 022030Z 33004KT 250V020 9999 FEW030 08/01 Q1020 NOSIG
12-12-02 LEBL 022100Z 01004KT 340V060 9999 FEW030 07/01 Q1020 NOSIG
12-12-02 LEBL 022130Z 33008KT 300V360 9999 FEW030 10/02 Q1020 NOSIG
12-12-02 LEBL 022200Z 34007KT 270V010 9999 FEW030 08/01 Q1020 NOSIG
12-12-02 LEBL 022230Z 33008KT 9999 FEW030 09/03 Q1021 NOSIG
12-12-02 LEBL 022300Z 33010KT 9999 FEW030 09/03 Q1021 NOSIG
12-12-02 LEBL 022330Z 33008KT 9999 FEW030 07/02 Q1021 NOSIG
12-12-03 LEBL 030000Z 33008KT 9999 FEW030 08/04 Q1021 NOSIG
12-12-03 LEBL 030030Z 33010KT 310V010 9999 FEW030 10/03 Q1021 NOSIG
12-12-03 LEBL 030100Z 32006KT 290V360 9999 FEW030 09/03 Q1021 NOSIG
12-12-03 LEBL 030130Z 33004KT 290V020 9999 FEW030 09/03 Q1021 NOSIG
12-12-03 LEBL 030200Z 34011KT 9999 FEW030 09/03 Q1021 NOSIG
12-12-03 LEBL 030230Z 34010KT 9999 FEW030 08/03 Q1022 NOSIG
12-12-03 LEBL 030300Z 34010KT 9999 FEW030 08/04 Q1022 NOSIG
12-12-03 LEBL 030330Z 34007KT 9999 FEW030 08/03 Q1022 NOSIG
12-12-03 LEBL 030400Z 33008KT 9999 FEW030 08/04 Q1022 NOSIG
12-12-03 LEBL 030430Z 34006KT 9999 FEW030 08/04 Q1022 NOSIG
12-12-03 LEBL 030500Z 32005KT 9999 FEW030 08/04 Q1022 NOSIG
12-12-03 LEBL 030530Z 33008KT 300V360 9999 FEW030 08/04 Q1022 NOSIG
12-12-03 LEBL 030600Z 33009KT CAVOK 08/04 Q1022 NOSIG
12-12-03 LEBL 030630Z 34010G21KT CAVOK 08/04 Q1023 NOSIG
12-12-03 LEBL 030700Z 35012KT 320V020 9999 FEW030 09/04 Q1023 NOSIG
12-12-03 LEBL 030730Z 34011KT 9999 FEW030 08/04 Q1023 NOSIG
12-12-03 LEBL 030800Z 33011KT 300V360 9999 FEW030 09/04 Q1024 NOSIG
12-12-03 LEBL 030830Z 32009KT 290V360 9999 FEW030 10/04 Q1024 NOSIG
12-12-03 LEBL 030900Z 31006G17KT 280V360 9999 FEW030 10/05 Q1024 NOSIG
12-12-03 LEBL 030930Z 33007KT 260V010 9999 FEW030 11/05 Q1024 NOSIG
12-12-03 LEBL 031000Z 33012KT 300V360 9999 FEW030 12/05 Q1024 NOSIG
12-12-03 LEBL 031030Z 32009KT 280V010 9999 FEW030 12/05 Q1024 NOSIG
12-12-03 LEBL 031100Z 31011G26KT 9999 FEW030 13/06 Q1024 NOSIG
12-12-03 LEBL 031130Z 31015KT 9999 FEW030 13/06 Q1024 NOSIG
12-12-03 LEBL 031200Z 32010KT 290V360 9999 FEW045 14/06 Q1024 NOSIG
12-12-03 LEBL 031230Z 30009KT 260V350 9999 FEW045 14/07 Q1024 NOSIG
12-12-03 LEBL 031300Z 30008KT 240V340 9999 FEW045 14/07 Q1023 NOSIG
12-12-03 LEBL 031330Z 27008KT 200V340 9999 FEW045 14/07 Q1023 NOSIG
12-12-03 LEBL 031400Z 21007KT 9999 FEW045 14/08 Q1023 NOSIG
12-12-03 LEBL 031430Z 22008KT 9999 FEW045 14/08 Q1023 NOSIG
12-12-03 LEBL 031500Z 23008KT 9999 FEW050 14/08 Q1023 NOSIG
12-12-03 LEBL 031530Z 22008KT 9999 FEW050 14/08 Q1023 NOSIG
12-12-03 LEBL 031600Z 22006KT 9999 FEW050 13/08 Q1023 NOSIG
12-12-03 LEBL 031630Z 21005KT 9999 FEW050 13/08 Q1023 NOSIG
12-12-03 LEBL 031700Z 22005KT 9999 FEW050 13/08 Q1022 NOSIG
12-12-03 LEBL 031730Z 20003KT 160V230 9999 FEW050 12/08 Q1023 NOSIG
12-12-03 LEBL 031800Z 26007KT 9999 FEW050 12/08 Q1022 NOSIG
12-12-03 LEBL 031830Z 29003KT 250V340 9999 FEW050 10/08 Q1022 NOSIG
12-12-03 LEBL 031900Z VRB02KT 9999 FEW050 10/07 Q1022 NOSIG
12-12-03 LEBL 031930Z VRB02KT 9999 FEW030 10/08 Q1022 NOSIG
12-12-03 LEBL 032000Z 33003KT 230V030 9999 FEW030 11/08 Q1022 NOSIG
12-12-03 LEBL 032030Z VRB01KT 9999 FEW030 12/09 Q1022 NOSIG
12-12-03 LEBL 032100Z 26010KT 9999 FEW030 13/08 Q1021 NOSIG
12-12-03 LEBL 032130Z 27009KT 9999 FEW030 13/06 Q1021 NOSIG
12-12-03 LEBL 032200Z 26007KT 9999 FEW030 12/05 Q1021 NOSIG
12-12-03 LEBL 032230Z 23011KT 9999 FEW030 13/05 Q1021 NOSIG
12-12-03 LEBL 032300Z 25013KT 9999 FEW030 12/05 Q1020 NOSIG
12-12-03 LEBL 032330Z 25009KT 9999 FEW030 12/05 Q1020 NOSIG
12-12-04 LEBL 040000Z 25011KT 9999 FEW030 12/05 Q1019 NOSIG
12-12-04 LEBL 040030Z 23010KT 9999 FEW030 12/05 Q1019 NOSIG
12-12-04 LEBL 040100Z 32005KT 280V340 9999 FEW030 09/05 Q1019 NOSIG
12-12-04 LEBL 040130Z 28006KT 240V310 9999 FEW030 08/05 Q1018 NOSIG
12-12-04 LEBL 040200Z 31003KT 240V340 9999 FEW030 09/04 Q1018 NOSIG
12-12-04 LEBL 040230Z 26003KT 220V290 9999 FEW030 09/04 Q1017 NOSIG
12-12-04 LEBL 040300Z 28008KT 9999 FEW030 09/05 Q1017 NOSIG
12-12-04 LEBL 040330Z 33005KT 9999 FEW030 10/04 Q1017 NOSIG
12-12-04 LEBL 040400Z 32006KT 9999 FEW030 09/04 Q1017 NOSIG
12-12-04 LEBL 040430Z VRB02KT 9999 FEW030 12/04 Q1016 NOSIG
12-12-04 LEBL 040500Z 25012KT 9999 FEW030 12/04 Q1016 NOSIG
12-12-04 LEBL 040530Z 27005KT 9999 FEW030 12/04 Q1015 NOSIG
12-12-04 LEBL 040600Z 25013KT 9999 FEW030 12/04 Q1015 NOSIG
12-12-04 LEBL 040630Z 28004KT 230V350 9999 FEW030 12/04 Q1015 NOSIG
12-12-04 LEBL 040700Z 35004KT 310V030 9999 FEW030 12/05 Q1015 NOSIG
12-12-04 LEBL 040730Z 32007KT 280V020 9999 FEW030 12/04 Q1015 NOSIG
12-12-04 LEBL 040800Z 33007KT 290V020 9999 FEW030 12/05 Q1014 NOSIG
12-12-04 LEBL 040830Z 33009G21KT 280V360 9999 FEW030 12/05 Q1014 NOSIG
12-12-04 LEBL 040900Z 30007KT 250V340 9999 FEW030 13/05 Q1014 NOSIG
12-12-04 LEBL 040930Z 29012KT 9999 FEW025 13/05 Q1015 NOSIG
12-12-04 LEBL 041000Z 30008KT 270V350 9999 FEW020 13/05 Q1015 NOSIG
12-12-04 LEBL 041030Z 28009KT 9999 FEW030 14/06 Q1014 NOSIG
12-12-04 LEBL 041100Z 31014KT 9999 FEW042 15/05 Q1014 NOSIG
12-12-04 LEBL 041130Z 30013KT 9999 FEW042 15/05 Q1014 NOSIG
12-12-04 LEBL 041200Z 29010KT 250V320 9999 FEW042 16/05 Q1014 NOSIG
12-12-04 LEBL 041230Z 30017G27KT 270V330 9999 FEW042 16/05 Q1013 NOSIG
12-12-04 LEBL 041300Z 30013KT 260V340 9999 FEW042 16/05 Q1013 NOSIG
12-12-04 LEBL 041330Z 31013KT 280V340 9999 FEW042 16/05 Q1013 NOSIG
12-12-04 LEBL 041400Z 31018KT 9999 FEW030 16/05 Q1012 NOSIG
12-12-04 LEBL 041430Z 30019KT 9999 FEW030 16/04 Q1012 NOSIG
12-12-04 LEBL 041500Z 30018KT 9999 FEW030 16/03 Q1013 NOSIG
12-12-04 LEBL 041530Z 31017KT 9999 FEW030 16/03 Q1013 NOSIG
12-12-04 LEBL 041600Z 31015G25KT 270V330 9999 FEW030 15/03 Q1013 NOSIG
12-12-04 LEBL 041630Z 30007KT 250V340 9999 FEW030 15/02 Q1013 NOSIG
12-12-04 LEBL 041700Z 28008KT 250V310 9999 FEW030 14/02 Q1014 NOSIG
12-12-04 LEBL 041730Z 27009KT 240V300 9999 FEW030 14/01 Q1014 NOSIG
12-12-04 LEBL 041800Z 29005KT 240V010 9999 FEW030 14/02 Q1014 NOSIG
12-12-04 LEBL 041830Z 30005KT 230V330 9999 FEW030 14/01 Q1015 NOSIG
12-12-04 LEBL 041900Z NIL
12-12-04 LEBL 041900Z 36004KT 320V040 9999 FEW030 13/01 Q1015 NOSIG
12-12-04 LEBL 041930Z 36006KT 300V040 9999 FEW030 13/00 Q1015 NOSIG
12-12-04 LEBL 042000Z 36006KT 310V050 9999 FEW030 12/00 Q1015 NOSIG
12-12-04 LEBL 042030Z 35005KT 310V060 9999 FEW030 12/00 Q1015 NOSIG
12-12-04 LEBL 042100Z 34008KT 300V040 9999 FEW030 11/00 Q1015 NOSIG
12-12-04 LEBL 042130Z 36004KT 300V040 9999 FEW030 11/00 Q1015 NOSIG
12-12-04 LEBL 042200Z 31003KT 250V030 9999 FEW030 11/01 Q1015 NOSIG
12-12-04 LEBL 042230Z 28003KT 9999 FEW030 10/01 Q1015 NOSIG
12-12-04 LEBL 042300Z 34007KT 9999 FEW030 10/02 Q1014 NOSIG
12-12-04 LEBL 042330Z 35006KT 9999 FEW030 09/01 Q1014 NOSIG
12-12-05 LEBL 050000Z 00000KT 9999 FEW030 09/02 Q1014 NOSIG
12-12-05 LEBL 050030Z 33003KT 290V010 9999 FEW030 09/02 Q1013 NOSIG
12-12-05 LEBL 050100Z 35003KT 330V060 9999 FEW030 09/02 Q1013 NOSIG
12-12-05 LEBL 050130Z 35003KT 300V020 9999 FEW030 09/02 Q1013 NOSIG
12-12-05 LEBL 050200Z 27014KT 9999 FEW030 10/02 Q1012 NOSIG
12-12-05 LEBL 050230Z 30010KT 9999 FEW030 11/00 Q1012 NOSIG
12-12-05 LEBL 050300Z 30010KT 9999 FEW030 11/01 Q1012 NOSIG
12-12-05 LEBL 050330Z 30009KT 260V320 9999 FEW030 12/00 Q1011 NOSIG
12-12-05 LEBL 050400Z NIL
12-12-05 LEBL 050430Z NIL
12-12-05 LEBL 050430Z 04003KT 310V070 9999 FEW030 10/02 Q1011 NOSIG
12-12-05 LEBL 050500Z VRB02KT 9999 FEW030 10/02 Q1011 NOSIG
12-12-05 LEBL 050530Z VRB02KT 9999 FEW030 09/01 Q1011 NOSIG
12-12-05 LEBL 050600Z NIL
12-12-05 LEBL 050600Z 30007KT 270V340 9999 FEW030 09/02 Q1011 NOSIG
12-12-05 LEBL 050630Z 32007KT 9999 FEW030 09/01 Q1011 NOSIG
12-12-05 LEBL 050700Z 34007KT 9999 FEW030 09/02 Q1012 NOSIG
12-12-05 LEBL 050730Z 33009KT 300V010 9999 FEW030 09/02 Q1012 NOSIG
12-12-05 LEBL 050800Z 33008KT 9999 FEW030 09/02 Q1012 NOSIG
12-12-05 LEBL 050830Z 34006KT 240V010 9999 FEW030 10/02 Q1012 NOSIG
12-12-05 LEBL 050900Z 33005KT 250V040 9999 FEW030 11/02 Q1012 NOSIG
12-12-05 LEBL 050930Z 32007KT 270V360 9999 FEW030 12/02 Q1012 NOSIG
12-12-05 LEBL 051000Z 32009KT 9999 FEW030 12/02 Q1012 NOSIG
12-12-05 LEBL 051030Z 31010KT 280V340 9999 FEW030 13/01 Q1012 NOSIG
12-12-05 LEBL 051100Z 30012G28KT 260V340 9999 FEW030 13/01 Q1012 NOSIG
12-12-05 LEBL 051130Z 31016G27KT 250V340 9999 FEW030 13/01 Q1012 NOSIG
12-12-05 LEBL 051200Z 30018G28KT 9999 FEW030 14/02 Q1011 NOSIG
12-12-05 LEBL 051230Z 31021G31KT 9999 FEW030 14/01 Q1011 NOSIG
12-12-05 LEBL 051300Z 31020KT 9999 FEW030 14/02 Q1011 NOSIG
12-12-05 LEBL 051330Z 31021G32KT 9999 FEW030 14/02 Q1011 NOSIG
12-12-05 LEBL 051400Z 31023G33KT 9999 FEW030 14/02 Q1011 NOSIG
12-12-05 LEBL 051430Z 31019G29KT 280V350 9999 FEW030 14/02 Q1011 NOSIG
12-12-05 LEBL 051500Z 31020KT 9999 FEW030 14/03 Q1011 NOSIG
12-12-05 LEBL 051530Z 30016KT 9999 FEW030 13/02 Q1012 NOSIG
12-12-05 LEBL 051600Z 30016KT 9999 FEW030 13/02 Q1012 NOSIG
12-12-05 LEBL 051630Z 30015KT 9999 FEW030 13/02 Q1013 NOSIG
12-12-05 LEBL 051700Z 25010KT 9999 FEW030 12/03 Q1013 NOSIG
12-12-05 LEBL 051730Z 26007KT 9999 FEW030 12/02 Q1013 NOSIG
12-12-05 LEBL 051800Z 31014KT 270V330 9999 FEW030 12/02 Q1013 NOSIG
12-12-05 LEBL 051830Z 31017KT 9999 FEW030 12/02 Q1014 NOSIG
12-12-05 LEBL 051900Z 31017KT 9999 FEW030 11/02 Q1014 NOSIG
12-12-05 LEBL 051930Z 31017KT 9999 FEW030 11/02 Q1014 NOSIG
12-12-05 LEBL 052000Z 32014KT 9999 FEW030 11/02 Q1014 NOSIG
12-12-05 LEBL 052030Z 32009KT 300V360 9999 FEW030 11/02 Q1014 NOSIG
12-12-05 LEBL 052100Z 31013KT 280V340 9999 FEW030 11/01 Q1014 NOSIG
12-12-05 LEBL 052130Z 31011KT 9999 FEW030 11/01 Q1014 NOSIG
12-12-05 LEBL 052200Z 33011KT 300V360 9999 FEW030 11/01 Q1014 NOSIG
12-12-05 LEBL 052230Z 32013KT 9999 FEW030 10/01 Q1015 NOSIG
12-12-05 LEBL 052300Z 31011KT 9999 FEW030 10/02 Q1015 NOSIG
12-12-05 LEBL 052330Z 31015KT 9999 FEW030 10/02 Q1015 NOSIG
12-12-05 LEBL 052330Z NIL
12-12-06 LEBL 060000Z 31015KT CAVOK 10/02 Q1015 NOSIG
12-12-06 LEBL 060030Z 32017KT CAVOK 09/02 Q1015 NOSIG
12-12-06 LEBL 060100Z 32012KT CAVOK 10/02 Q1015 NOSIG
12-12-06 LEBL 060130Z 32009KT CAVOK 09/02 Q1015 NOSIG
12-12-06 LEBL 060200Z 31007KT CAVOK 09/02 Q1015 NOSIG
12-12-06 LEBL 060230Z 31012KT CAVOK 09/02 Q1015 NOSIG
12-12-06 LEBL 060300Z 31012KT CAVOK 08/02 Q1015 NOSIG
12-12-06 LEBL 060330Z 32007KT 290V010 9999 FEW030 08/02 Q1015 NOSIG
12-12-06 LEBL 060400Z 33006KT 9999 FEW030 08/02 Q1015 NOSIG
12-12-06 LEBL 060430Z 34009KT 310V010 CAVOK 08/02 Q1015 NOSIG
12-12-06 LEBL 060500Z 35010KT CAVOK 08/02 Q1016 NOSIG
12-12-06 LEBL 060530Z 34010KT 310V010 9999 FEW030 08/02 Q1016 NOSIG
12-12-06 LEBL 060600Z 33005KT 280V020 9999 FEW030 07/02 Q1017 NOSIG
12-12-06 LEBL 060630Z 28012KT 9999 FEW030 07/02 Q1017 NOSIG
12-12-06 LEBL 060700Z 31016KT 9999 FEW030 06/02 Q1017 NOSIG
12-12-06 LEBL 060730Z 33010KT 310V010 9999 FEW030 06/02 Q1018 NOSIG
12-12-06 LEBL 060800Z 32012KT 290V350 9999 FEW030 06/02 Q1018 NOSIG
12-12-06 LEBL 060830Z 33011KT 300V360 9999 FEW030 07/02 Q1018 NOSIG
12-12-06 LEBL 060900Z 32013KT 9999 FEW030 08/02 Q1019 NOSIG
12-12-06 LEBL 060930Z 32014KT 9999 FEW030 09/02 Q1019 NOSIG
12-12-06 LEBL 061000Z 33013KT 9999 FEW035 10/03 Q1019 NOSIG
12-12-06 LEBL 061030Z 32011KT 290V350 9999 FEW035 11/03 Q1020 NOSIG
12-12-06 LEBL 061100Z 33011KT 300V010 9999 FEW030 11/03 Q1019 NOSIG
12-12-06 LEBL 061130Z 33009KT 260V340 9999 FEW025 12/03 Q1019 NOSIG
12-12-06 LEBL NIL
12-12-06 LEBL 061200Z 34006KT 220V010 9999 FEW025 12/03 Q1019 NOSIG
12-12-06 LEBL 061230Z 00000KT 9999 FEW025 14/03 Q1019 NOSIG
12-12-06 LEBL 061300Z 25003KT 190V310 9999 FEW025 13/05 Q1019 NOSIG
12-12-06 LEBL 061330Z 21006KT 9999 FEW025 13/05 Q1018 NOSIG
12-12-06 LEBL 061400Z 20009KT 9999 FEW025 14/05 Q1018 NOSIG
12-12-06 LEBL 061430Z 21009KT 9999 FEW025 13/05 Q1018 NOSIG
12-12-06 LEBL 061500Z 21009KT 9999 FEW025 13/06 Q1018 NOSIG
12-12-06 LEBL 061530Z 21008KT 9999 FEW025 13/06 Q1018 NOSIG
12-12-06 LEBL 061600Z 21009KT 9999 FEW025 12/07 Q1018 NOSIG
12-12-06 LEBL 061630Z 21010KT 9999 FEW025 12/07 Q1018 NOSIG
12-12-06 LEBL 061700Z 22010KT 9999 FEW027 11/05 Q1018 NOSIG
12-12-06 LEBL 061730Z 23009KT 9999 FEW027 11/05 Q1018 NOSIG
12-12-06 LEBL 061800Z 30006KT 260V350 9999 FEW025 10/05 Q1018 NOSIG
12-12-06 LEBL 061830Z 32004KT 260V020 9999 FEW030 09/04 Q1018 NOSIG
12-12-06 LEBL 061900Z 33003KT 9999 FEW030 09/05 Q1019 NOSIG
12-12-06 LEBL 061930Z 31005KT 9999 FEW030 08/04 Q1018 NOSIG
12-12-06 LEBL 062000Z 32006KT 260V010 9999 FEW030 08/05 Q1018 NOSIG
12-12-06 LEBL 062030Z 32005KT 260V040 9999 FEW030 07/04 Q1018 NOSIG
12-12-06 LEBL 062100Z 31005KT 9999 FEW030 07/04 Q1018 NOSIG
12-12-06 LEBL 062130Z 32005KT 280V350 9999 FEW030 07/04 Q1018 NOSIG
12-12-06 LEBL 062200Z VRB02KT 9999 FEW035 07/04 Q1018 NOSIG
12-12-06 LEBL 062230Z 32004KT 290V020 9999 FEW035 06/03 Q1018 NOSIG
12-12-06 LEBL 062300Z 31008KT 9999 FEW035 07/03 Q1018 NOSIG
12-12-06 LEBL 062330Z 33008KT CAVOK 06/03 Q1017 NOSIG
12-12-07 LEBL 070000Z 31004KT 280V350 CAVOK 06/03 Q1017 NOSIG
12-12-07 LEBL 070030Z 31003KT 280V360 9999 FEW035 06/03 Q1017 NOSIG
12-12-07 LEBL 070100Z 32008KT 9999 FEW035 05/03 Q1016 NOSIG
12-12-07 LEBL 070130Z 33008KT 9999 FEW035 05/02 Q1016 NOSIG
12-12-07 LEBL 070200Z VRB02KT 9999 FEW035 06/02 Q1016 NOSIG
12-12-07 LEBL 070230Z 32006KT 290V350 9999 FEW035 06/02 Q1015 NOSIG
12-12-07 LEBL 070300Z 31009KT 9999 FEW035 05/02 Q1015 NOSIG
12-12-07 LEBL 070330Z 32008KT 9999 FEW035 05/02 Q1015 NOSIG
12-12-07 LEBL 070400Z 32009KT 9999 FEW035 06/02 Q1014 NOSIG
12-12-07 LEBL 070430Z 32009KT 9999 FEW035 06/02 Q1014 NOSIG
12-12-07 LEBL 070500Z 32007KT 9999 FEW035 06/01 Q1014 NOSIG
12-12-07 LEBL 070530Z 31009KT 9999 FEW035 05/01 Q1014 NOSIG
12-12-07 LEBL 070600Z NIL
12-12-07 LEBL 070600Z 32010G20KT 9999 FEW035 05/01 Q1014 NOSIG
12-12-07 LEBL 070630Z 32011KT 9999 FEW030 05/01 Q1013 NOSIG
12-12-07 LEBL 070700Z 32011KT 9999 FEW030 05/01 Q1013 NOSIG
12-12-07 LEBL 070730Z 32012KT 9999 FEW030 05/01 Q1013 NOSIG
12-12-07 LEBL 070800Z 33012KT 9999 FEW030 06/01 Q1014 NOSIG
12-12-07 LEBL 070830Z 33011KT 9999 FEW030 06/01 Q1014 NOSIG
12-12-07 LEBL 070900Z 32010KT 9999 FEW030 06/02 Q1014 NOSIG
12-12-07 LEBL 070930Z 32006KT 280V360 9999 FEW030 08/02 Q1013 NOSIG
12-12-07 LEBL 071000Z 31005KT 260V010 9999 FEW030 09/02 Q1013 NOSIG
12-12-07 LEBL 071030Z 32007KT 240V350 9999 FEW030 10/03 Q1013 NOSIG
12-12-07 LEBL 071100Z 33005KT 270V350 9999 FEW030 11/03 Q1012 NOSIG
12-12-07 LEBL 071130Z 32004KT 9999 FEW030 12/03 Q1012 NOSIG
12-12-07 LEBL 071200Z VRB02KT 9999 FEW030 15/05 Q1011 NOSIG
12-12-07 LEBL 071230Z 29002KT 9999 FEW030 16/04 Q1010 NOSIG
12-12-07 LEBL 071300Z 24012KT 210V280 9999 FEW030 15/06 Q1010 NOSIG
12-12-07 LEBL 071330Z 25014KT 220V280 9999 FEW030 16/07 Q1009 NOSIG
12-12-07 LEBL 071400Z 24014KT 9999 FEW030 16/07 Q1009 NOSIG
12-12-07 LEBL 071430Z 31010KT 9999 FEW030 17/06 Q1008 NOSIG
12-12-07 LEBL 071500Z 30008KT 250V330 9999 FEW048 16/06 Q1008 NOSIG
12-12-07 LEBL 071530Z 28013KT 240V310 9999 FEW040 15/06 Q1008 NOSIG
12-12-07 LEBL 071600Z 29011KT 9999 FEW040 15/06 Q1008 NOSIG
12-12-07 LEBL 071630Z 26013KT 9999 FEW040 14/06 Q1008 NOSIG
12-12-07 LEBL 071700Z 31006KT 9999 FEW040 15/06 Q1008 NOSIG
12-12-07 LEBL 071730Z 01004KT 290V070 9999 FEW046 14/06 Q1008 NOSIG
12-12-07 LEBL 071800Z 36006KT 310V080 9999 FEW046 13/06 Q1009 NOSIG
12-12-07 LEBL 071830Z 03005KT 300V080 9999 FEW046 13/06 Q1009 NOSIG
12-12-07 LEBL 071900Z 01006KT 300V070 9999 FEW046 12/06 Q1009 NOSIG
12-12-07 LEBL 071930Z 03007KT 310V080 9999 FEW042 13/06 Q1010 NOSIG
12-12-07 LEBL 072000Z 04008KT 350V070 9999 FEW040 13/06 Q1010 NOSIG
12-12-07 LEBL 072030Z 03005KT 330V070 9999 BKN037 12/06 Q1010 NOSIG
12-12-07 LEBL 072100Z 34004KT 270V030 9999 BKN040 12/06 Q1010 NOSIG
12-12-07 LEBL 072130Z 35005KT 9999 FEW030 BKN045 10/06 Q1011 NOSIG
12-12-07 LEBL 072200Z 01002KT 9999 FEW020 BKN042 11/06 Q1011 NOSIG
12-12-07 LEBL 072230Z 35002KT 9999 FEW018 SCT025 BKN045 11/07 Q1011 NOSIG
12-12-07 LEBL 072300Z 35003KT 9999 FEW018 BKN025 11/06 Q1012 NOSIG
12-12-07 LEBL 072330Z VRB02KT 9999 FEW018 BKN030 11/07 Q1012 NOSIG
12-12-08 LEBL 080000Z 11004KT 9999 FEW018 BKN042 11/07 Q1012 NOSIG
12-12-08 LEBL 080030Z 30004KT 9999 FEW018 SCT035 10/07 Q1012 NOSIG
12-12-08 LEBL 080100Z 32006KT 9999 FEW018 BKN035 09/06 Q1012 NOSIG
12-12-08 LEBL 080130Z 32006KT 9999 FEW020 SCT035 09/06 Q1012 NOSIG
12-12-08 LEBL 080200Z 32006KT 9999 BKN030 09/06 Q1013 NOSIG
12-12-08 LEBL 080230Z 33008KT 9999 SCT030 09/05 Q1013 NOSIG
12-12-08 LEBL 080300Z 33009KT 9999 FEW030 09/04 Q1013 NOSIG
12-12-08 LEBL 080330Z 33008KT 9999 FEW030 09/03 Q1013 NOSIG
12-12-08 LEBL 080400Z 35007KT 310V010 9999 FEW030 09/02 Q1013 NOSIG
12-12-08 LEBL 080430Z 35011KT 9999 FEW030 08/02 Q1013 NOSIG
12-12-08 LEBL 080500Z 35011KT 9999 FEW030 08/02 Q1014 NOSIG
12-12-08 LEBL 080530Z 34007KT 9999 FEW030 07/03 Q1014 NOSIG
12-12-08 LEBL 080600Z 32008KT 9999 FEW030 07/03 Q1014 NOSIG
12-12-08 LEBL 080630Z 30010G22KT 240V330 9999 FEW030 07/02 Q1013 NOSIG
12-12-08 LEBL 080700Z 12004KT 010V150 9999 FEW030 08/02 Q1014 NOSIG
12-12-08 LEBL 080730Z 35003KT 9999 FEW030 09/02 Q1014 NOSIG
12-12-08 LEBL 080800Z 33009G19KT 9999 FEW030 09/02 Q1015 NOSIG
12-12-08 LEBL 080830Z 33014G24KT 290V350 9999 FEW025 09/02 Q1015 NOSIG
12-12-08 LEBL 080900Z 32012KT 280V350 9999 FEW025 10/02 Q1015 NOSIG
12-12-08 LEBL 080930Z 34011KT 9999 FEW025 12/01 Q1016 NOSIG
12-12-08 LEBL 081000Z 34009KT 260V010 9999 FEW025 12/01 Q1016 NOSIG
12-12-08 LEBL 081030Z 34008KT 300V020 9999 FEW025 14/M01 Q1016 NOSIG
12-12-08 LEBL 081100Z 36009KT 310V070 CAVOK 14/M01 Q1016 NOSIG
12-12-08 LEBL 081130Z 33008G18KT 270V360 CAVOK 14/M00 Q1016 NOSIG
12-12-08 LEBL 081200Z 29008KT 260V320 9999 FEW030 15/M00 Q1016 NOSIG
12-12-08 LEBL 081230Z 28009KT 9999 FEW030 16/M02 Q1016 NOSIG
12-12-08 LEBL 081300Z 28010KT 250V310 9999 FEW030 16/M02 Q1015 NOSIG
12-12-08 LEBL 081330Z 28013KT CAVOK 16/M03 Q1015 NOSIG
12-12-08 LEBL 081400Z 29012KT 230V310 CAVOK 16/M03 Q1015 NOSIG
12-12-08 LEBL 081430Z 31014KT 280V340 CAVOK 16/M02 Q1015 NOSIG
12-12-08 LEBL 081500Z 31012KT CAVOK 16/M01 Q1016 NOSIG
12-12-08 LEBL 081530Z 32010G20KT CAVOK 16/M00 Q1016 NOSIG
12-12-08 LEBL 081600Z 32008KT CAVOK 15/01 Q1017 NOSIG
12-12-08 LEBL 081630Z 34003KT 290V040 CAVOK 14/00 Q1018 NOSIG
12-12-08 LEBL 081700Z 12003KT CAVOK 14/01 Q1018 NOSIG
12-12-08 LEBL 081730Z 08005KT 040V110 CAVOK 14/06 Q1019 NOSIG
12-12-08 LEBL 081800Z 01004KT 310V070 CAVOK 12/05 Q1019 NOSIG
12-12-08 LEBL 081830Z 33003KT 230V010 CAVOK 12/04 Q1019 NOSIG
12-12-08 LEBL 081900Z 31006KT 260V340 CAVOK 10/04 Q1020 NOSIG
12-12-08 LEBL 081930Z 32008KT 250V360 CAVOK 10/03 Q1020 NOSIG
12-12-08 LEBL 082000Z 33007KT 240V020 CAVOK 09/04 Q1020 NOSIG
12-12-08 LEBL 082030Z 33007KT 300V020 9999 FEW040 10/04 Q1021 NOSIG
12-12-08 LEBL 082100Z 33008KT CAVOK 10/04 Q1021 NOSIG
12-12-08 LEBL 082130Z 33010KT 280V350 CAVOK 09/04 Q1022 NOSIG
12-12-08 LEBL 082200Z 33009KT CAVOK 09/02 Q1022 NOSIG
12-12-08 LEBL 082230Z 33008KT CAVOK 08/02 Q1022 NOSIG
12-12-08 LEBL 082300Z 33005KT 210V350 CAVOK 08/01 Q1022 NOSIG
12-12-08 LEBL 082330Z 32007KT CAVOK 08/00 Q1023 NOSIG
12-12-09 LEBL 090000Z 32005KT CAVOK 07/01 Q1022 NOSIG
12-12-09 LEBL 090030Z 32005KT CAVOK 06/00 Q1022 NOSIG
12-12-09 LEBL 090100Z VRB02KT CAVOK 06/M00 Q1023 NOSIG
12-12-09 LEBL 090130Z 32008KT CAVOK 06/M01 Q1023 NOSIG
12-12-09 LEBL 090200Z 33006KT 300V360 CAVOK 07/M02 Q1023 NOSIG
12-12-09 LEBL 090230Z 32009KT CAVOK 06/M01 Q1023 NOSIG
12-12-09 LEBL 090300Z 34010KT CAVOK 06/M01 Q1023 NOSIG
12-12-09 LEBL 090330Z 34014KT CAVOK 06/M00 Q1023 NOSIG
12-12-09 LEBL 090400Z 34009KT CAVOK 06/M01 Q1023 NOSIG
12-12-09 LEBL 090430Z 33010KT CAVOK 06/00 Q1023 NOSIG
12-12-09 LEBL 090500Z 33010KT CAVOK 06/00 Q1024 NOSIG
12-12-09 LEBL 090530Z 33011KT CAVOK 06/00 Q1024 NOSIG
12-12-09 LEBL 090600Z 32009KT CAVOK 06/M00 Q1024 NOSIG
12-12-09 LEBL 090630Z 31009KT CAVOK 05/M00 Q1024 NOSIG
12-12-09 LEBL 090700Z 33009KT 310V010 9999 FEW030 05/M00 Q1025 NOSIG
12-12-09 LEBL 090730Z 33010KT 290V350 CAVOK 05/M00 Q1025 NOSIG
12-12-09 LEBL 090800Z 33012KT CAVOK 05/M00 Q1025 NOSIG
12-12-09 LEBL 090830Z 33011KT 300V010 CAVOK 06/00 Q1025 NOSIG
12-12-09 LEBL 090900Z 33015KT CAVOK 06/00 Q1025 NOSIG
12-12-09 LEBL 090930Z 33015KT CAVOK 07/00 Q1026 NOSIG
12-12-09 LEBL 091000Z 32012KT 290V010 CAVOK 08/00 Q1026 NOSIG
12-12-09 LEBL 091030Z 31011KT CAVOK 09/00 Q1026 NOSIG
12-12-09 LEBL 091100Z 33008KT 270V020 CAVOK 10/M00 Q1025 NOSIG
12-12-09 LEBL 091130Z 32008KT 290V350 CAVOK 11/M00 Q1025 NOSIG
12-12-09 LEBL 091200Z 31004KT 270V350 CAVOK 11/M00 Q1025 NOSIG
12-12-09 LEBL 091230Z 26003KT 210V310 CAVOK 12/01 Q1025 NOSIG
12-12-09 LEBL 091300Z 21005KT 180V240 CAVOK 13/01 Q1024 NOSIG
12-12-09 LEBL 091330Z 22005KT 190V250 CAVOK 13/01 Q1024 NOSIG
12-12-09 LEBL 091400Z 22006KT 190V250 CAVOK 12/02 Q1024 NOSIG
12-12-09 LEBL 091430Z 22007KT CAVOK 12/02 Q1024 NOSIG
12-12-09 LEBL 091500Z 23007KT CAVOK 12/03 Q1024 NOSIG
12-12-09 LEBL 091530Z 22007KT CAVOK 12/04 Q1024 NOSIG
12-12-09 LEBL 091600Z 23007KT CAVOK 11/04 Q1023 NOSIG
12-12-09 LEBL 091630Z 24007KT CAVOK 10/04 Q1023 NOSIG
12-12-09 LEBL 091700Z 27007KT 240V310 CAVOK 10/03 Q1023 NOSIG
12-12-09 LEBL 091730Z 32006KT 280V340 CAVOK 09/03 Q1023 NOSIG
12-12-09 LEBL 091800Z 32005KT 210V360 CAVOK 09/03 Q1023 NOSIG
12-12-09 LEBL 091830Z 32008KT 240V340 CAVOK 08/03 Q1023 NOSIG
12-12-09 LEBL 091900Z 33009KT CAVOK 08/03 Q1023 NOSIG
12-12-09 LEBL 091930Z 32010KT CAVOK 08/03 Q1023 NOSIG
12-12-09 LEBL 092000Z VRB09KT CAVOK 08/02 Q1023 NOSIG
12-12-09 LEBL 092030Z 33012KT CAVOK 08/02 Q1023 NOSIG
12-12-09 LEBL 092100Z 33010KT 280V010 CAVOK 08/02 Q1023 NOSIG
12-12-09 LEBL 092130Z 33011KT CAVOK 07/02 Q1023 NOSIG
12-12-09 LEBL 092200Z 33008KT CAVOK 07/02 Q1023 NOSIG
12-12-09 LEBL 092230Z 32007KT CAVOK 06/01 Q1023 NOSIG
12-12-09 LEBL 092300Z 32009KT 9999 FEW030 06/01 Q1022 NOSIG
12-12-09 LEBL 092330Z 32008KT 9999 FEW030 06/01 Q1022 NOSIG
12-12-10 LEBL 100000Z 32010KT 9999 FEW030 06/01 Q1022 NOSIG
12-12-10 LEBL 100030Z 32010KT 9999 FEW030 05/01 Q1022 NOSIG
12-12-10 LEBL 100100Z 32010KT 9999 FEW030 05/01 Q1021 NOSIG
12-12-10 LEBL 100130Z 33012KT 9999 FEW030 05/01 Q1021 NOSIG
12-12-10 LEBL 100200Z 32013KT 9999 FEW030 05/01 Q1021 NOSIG
12-12-10 LEBL 100230Z 32013KT 9999 FEW030 05/01 Q1021 NOSIG
12-12-10 LEBL 100300Z 32012KT 9999 FEW030 05/00 Q1020 NOSIG
12-12-10 LEBL 100330Z 32011KT 9999 FEW030 05/00 Q1020 NOSIG
12-12-10 LEBL 100400Z 33009KT 9999 FEW030 04/00 Q1019 NOSIG
12-12-10 LEBL 100430Z 33009KT 9999 FEW030 05/00 Q1019 NOSIG
12-12-10 LEBL 100500Z 30008KT 260V320 9999 FEW030 04/00 Q1019 NOSIG
12-12-10 LEBL 100530Z 32012KT 9999 FEW030 04/00 Q1019 NOSIG
12-12-10 LEBL 100600Z 32012KT 9999 FEW030 04/00 Q1019 NOSIG
12-12-10 LEBL 100630Z 32012KT 9999 FEW030 04/00 Q1019 NOSIG
12-12-10 LEBL 100700Z 33013KT 9999 FEW030 04/00 Q1019 NOSIG
12-12-10 LEBL 100730Z 33012KT 9999 FEW030 04/00 Q1019 NOSIG
12-12-10 LEBL 100800Z 33012KT 260V340 9999 FEW030 04/00 Q1019 NOSIG
12-12-10 LEBL 100830Z 34012KT 300V030 9999 FEW030 05/00 Q1019 NOSIG
12-12-10 LEBL 100900Z 33013G23KT 9999 FEW030 05/00 Q1019 NOSIG
12-12-10 LEBL 100930Z 32011KT 9999 FEW030 06/00 Q1019 NOSIG
12-12-10 LEBL 101000Z 32011KT 280V350 9999 FEW030 07/01 Q1019 NOSIG
12-12-10 LEBL 101030Z 32011G22KT 280V360 9999 FEW030 09/01 Q1019 NOSIG
12-12-10 LEBL 101100Z 31011KT 240V340 9999 FEW020 10/01 Q1019 NOSIG
12-12-10 LEBL 101130Z 31008KT 9999 FEW020 11/02 Q1018 NOSIG
12-12-10 LEBL 101200Z 32006KT 280V010 9999 FEW020 11/03 Q1018 NOSIG
12-12-10 LEBL 101230Z 05006KT 010V070 9999 FEW020 12/03 Q1018 NOSIG
12-12-10 LEBL 101300Z 05006KT 010V080 9999 FEW020 12/06 Q1017 NOSIG
12-12-10 LEBL 101330Z 04008KT 9999 FEW020 12/05 Q1017 NOSIG
12-12-10 LEBL 101400Z 04010KT 9999 SCT025 12/05 Q1017 NOSIG
12-12-10 LEBL 101430Z 07011KT 9999 SCT025 12/05 Q1017 NOSIG
12-12-10 LEBL 101500Z 07008KT 9999 SCT025 12/06 Q1017 NOSIG
12-12-10 LEBL 101530Z 07008KT 050V110 9999 SCT025 12/06 Q1017 NOSIG
12-12-10 LEBL 101600Z 07008KT 040V100 9999 SCT030 12/05 Q1018 NOSIG
12-12-10 LEBL 101630Z 08006KT 9999 SCT030 11/05 Q1018 NOSIG
12-12-10 LEBL 101700Z 08005KT 9999 FEW018 SCT040 11/05 Q1018 NOSIG
12-12-10 LEBL 101730Z 07002KT 9999 FEW020 11/05 Q1018 NOSIG
12-12-10 LEBL 101800Z 02002KT 9999 FEW020 11/05 Q1018 NOSIG
12-12-10 LEBL 101830Z 33006KT 280V010 9999 FEW020 09/05 Q1019 NOSIG
12-12-10 LEBL 101900Z 33007KT 270V360 9999 FEW020 08/05 Q1019 NOSIG
12-12-10 LEBL 101930Z 33008KT 270V350 9999 FEW020 08/05 Q1019 NOSIG
12-12-10 LEBL 102000Z 33010KT 290V350 9999 FEW025 08/05 Q1019 NOSIG
12-12-10 LEBL 102030Z 32010KT 290V350 9999 FEW025 08/04 Q1019 NOSIG
12-12-10 LEBL 102100Z NIL
12-12-10 LEBL 102100Z 32011KT 9999 FEW035 08/04 Q1019 NOSIG
12-12-10 LEBL 102130Z 32010KT 290V350 9999 FEW035 08/02 Q1019 NOSIG
12-12-10 LEBL 102200Z 33012G22KT 9999 FEW035 07/02 Q1019 NOSIG
12-12-10 LEBL 102230Z 32012KT 9999 FEW035 07/02 Q1020 NOSIG
12-12-10 LEBL 102300Z NIL
12-12-10 LEBL 102330Z 32013KT 9999 FEW035 SCT054 07/01 Q1020 NOSIG
12-12-11 LEBL 110000Z 33014KT 9999 FEW035 SCT054 07/01 Q1019 NOSIG
12-12-11 LEBL 110030Z 32014KT 9999 FEW035 SCT054 06/01 Q1019 NOSIG
12-12-11 LEBL 110100Z 32016KT 9999 FEW020 SCT041 06/01 Q1019 NOSIG
12-12-11 LEBL 110130Z 33015KT 9999 FEW020 SCT041 06/01 Q1019 NOSIG
12-12-11 LEBL 110200Z 32013KT 9999 BKN036 06/01 Q1019 NOSIG
12-12-11 LEBL 110230Z 32013KT 9999 FEW036 SCT055 06/01 Q1020 NOSIG
12-12-11 LEBL 110300Z 33013KT 9999 SCT036 06/01 Q1019 NOSIG
12-12-11 LEBL 110330Z 33012KT 9999 FEW035 SCT041 06/01 Q1019 NOSIG
12-12-11 LEBL 110400Z 33011KT 9999 SCT037 BKN051 06/01 Q1019 NOSIG
12-12-11 LEBL 110430Z 35009KT 9999 FEW030 SCT037 BKN051 06/01 Q1019 NOSIG
12-12-11 LEBL 110500Z 33010KT 9999 FEW030 SCT034 BKN044 06/01 Q1019 NOSIG
12-12-11 LEBL 110530Z 33009KT 9999 FEW025 SCT035 BKN048 06/01 Q1019 NOSIG
12-12-11 LEBL 110600Z 33008KT 9999 FEW025 SCT035 BKN045 06/01 Q1019 NOSIG
12-12-11 LEBL 110630Z 33009KT 9999 FEW025 SCT042 BKN047 06/01 Q1019 NOSIG
12-12-11 LEBL 110700Z 33009G19KT 9999 FEW025 BKN049 05/01 Q1019 NOSIG
12-12-11 LEBL 110730Z 33010KT 260V340 9999 FEW025 BKN050 05/01 Q1020 NOSIG
12-12-11 LEBL 110800Z 33011G21KT 9999 SCT025 BKN050 05/01 Q1020 NOSIG
12-12-11 LEBL 110830Z 32011KT 300V360 9999 FEW025 BKN050 05/01 Q1020 NOSIG
12-12-11 LEBL 110900Z 32012KT 270V350 9999 FEW025 BKN040 06/01 Q1020 NOSIG
12-12-11 LEBL 110930Z 32011KT 290V350 9999 SCT020 BKN040 07/01 Q1020 NOSIG
12-12-11 LEBL 111000Z 33011KT 280V360 9999 FEW020 SCT050 08/02 Q1020 NOSIG
12-12-11 LEBL 111030Z 32008KT 280V350 9999 FEW020 SCT050 09/02 Q1020 NOSIG
12-12-11 LEBL 111100Z 32007KT 280V020 9999 FEW022 SCT055 10/03 Q1020 NOSIG
12-12-11 LEBL 111130Z 32007G17KT 9999 FEW022 11/03 Q1020 NOSIG
12-12-11 LEBL 111200Z 35002KT 9999 FEW025 11/04 Q1019 NOSIG
12-12-11 LEBL 111230Z 10006KT 070V140 9999 FEW025 12/06 Q1019 NOSIG
12-12-11 LEBL 111300Z 08007KT 9999 FEW025 12/06 Q1019 NOSIG
12-12-11 LEBL 111330Z 09007KT 9999 FEW020 SCT025 12/06 Q1019 NOSIG
12-12-11 LEBL 111400Z 09006KT 060V140 9999 FEW018 SCT025 12/06 Q1019 NOSIG
12-12-11 LEBL 111430Z 10006KT 070V130 9999 FEW018 SCT025 12/07 Q1019 NOSIG
12-12-11 LEBL 111500Z 12005KT 080V160 9999 FEW018 BKN030 12/06 Q1019 NOSIG
12-12-11 LEBL 111530Z 10005KT 9999 FEW020 BKN030 11/06 Q1019 NOSIG
12-12-11 LEBL 111600Z 07005KT 9999 FEW020 BKN030 11/06 Q1019 NOSIG
12-12-11 LEBL 111630Z 08005KT 9999 FEW020 BKN030 11/06 Q1019 NOSIG
12-12-11 LEBL 111700Z 07004KT 9999 SCT025 SCT040 11/06 Q1019 NOSIG
12-12-11 LEBL 111730Z 08006KT 9999 SCT023 SCT040 11/07 Q1019 NOSIG
12-12-11 LEBL 111800Z 09005KT 060V120 9999 FEW025 SCT040 11/06 Q1019 NOSIG
12-12-11 LEBL 111830Z 08005KT 9999 FEW025 SCT040 11/06 Q1019 NOSIG
12-12-11 LEBL 111900Z 09004KT 9999 FEW025 10/06 Q1020 NOSIG
12-12-11 LEBL 111930Z VRB02KT 9999 SCT025 09/06 Q1020 NOSIG
12-12-11 LEBL 112000Z 09008KT 9999 SCT030 10/05 Q1020 NOSIG
12-12-11 LEBL 112030Z 09005KT 9999 BKN030 10/04 Q1020 NOSIG
12-12-11 LEBL 112100Z 09006KT 9999 BKN030 10/03 Q1020 NOSIG
12-12-11 LEBL 112130Z 33004KT 300V360 9999 BKN030 09/03 Q1020 NOSIG
12-12-11 LEBL 112200Z 34005KT 9999 BKN030 08/02 Q1020 NOSIG
12-12-11 LEBL 112230Z 33006KT 9999 BKN035 08/02 Q1021 NOSIG
12-12-11 LEBL 112300Z 32007KT 9999 BKN035 08/02 Q1021 NOSIG
12-12-11 LEBL 112330Z 33008KT 9999 BKN035 08/03 Q1021 NOSIG
12-12-12 LEBL 120000Z 33008KT 9999 BKN035 08/02 Q1020 NOSIG
12-12-12 LEBL 120030Z 33008KT 9999 BKN035 07/02 Q1020 NOSIG
12-12-12 LEBL 120100Z 33008KT 9999 BKN035 07/03 Q1020 NOSIG
12-12-12 LEBL 120130Z 33008KT 9999 SCT035 07/03 Q1020 NOSIG
12-12-12 LEBL 120200Z 33008KT 9999 SCT035 07/03 Q1020 NOSIG
12-12-12 LEBL 120230Z 33007KT 9999 SCT035 06/03 Q1020 NOSIG
12-12-12 LEBL 120300Z NIL
12-12-12 LEBL 120300Z 33008KT 9999 SCT035 06/03 Q1020 NOSIG
12-12-12 LEBL 120330Z 33009KT 9999 SCT035 06/03 Q1020 NOSIG
12-12-12 LEBL 120400Z NIL
12-12-12 LEBL 120400Z 33008KT 9999 SCT035 06/02 Q1020 NOSIG
12-12-12 LEBL 120430Z NIL
12-12-12 LEBL 120500Z NIL
12-12-12 LEBL 120500Z 33008KT 9999 FEW020 SCT040 06/02 Q1019 NOSIG
12-12-12 LEBL 120530Z 33008KT 9999 FEW020 BKN040 06/02 Q1019 NOSIG
12-12-12 LEBL 120600Z 33007KT 9999 FEW020 BKN040 06/02 Q1019 NOSIG
12-12-12 LEBL 120630Z 33008KT 9999 FEW020 BKN040 06/02 Q1019 NOSIG
12-12-12 LEBL 120700Z 33008KT 280V010 9999 FEW020 SCT050 06/02 Q1019 NOSIG
12-12-12 LEBL 120730Z 33007KT 280V350 9999 FEW020 05/01 Q1020 NOSIG
12-12-12 LEBL 120800Z 32009KT 9999 FEW025 06/01 Q1020 NOSIG
12-12-12 LEBL 120830Z 33008G18KT 9999 SCT045 06/02 Q1020 NOSIG
12-12-12 LEBL 120900Z 33008KT 280V030 9000 SCT050 07/03 Q1020 NOSIG
12-12-12 LEBL 120930Z 33008KT 9000 BKN045 07/02 Q1020 NOSIG
12-12-12 LEBL 121000Z 33007KT 9000 BKN055 07/03 Q1020 NOSIG
12-12-12 LEBL 121030Z 32006KT 260V350 9000 FEW038 BKN055 09/03 Q1020 NOSIG
12-12-12 LEBL 121100Z 31006KT 230V010 9000 FEW040 BKN055 09/03 Q1020 NOSIG
12-12-12 LEBL 121130Z 34005G15KT 9999 FEW040 BKN055 10/04 Q1019 NOSIG
12-12-12 LEBL 121200Z 05003KT 010V120 9999 BKN045 11/04 Q1019 NOSIG
12-12-12 LEBL 121230Z 05004KT 340V080 9999 BKN045 11/04 Q1019 NOSIG
12-12-12 LEBL 121300Z 03003KT 290V080 9999 BKN045 11/05 Q1018 NOSIG
12-12-12 LEBL 121330Z 02003KT 340V070 9999 BKN045 11/05 Q1018 NOSIG
12-12-12 LEBL 121400Z VRB02KT 9999 SCT025 BKN040 11/05 Q1017 NOSIG
12-12-12 LEBL 121430Z VRB02KT 9999 BKN035 11/05 Q1017 NOSIG
12-12-12 LEBL 121500Z VRB02KT 9999 BKN035 11/05 Q1017 NOSIG
12-12-12 LEBL 121530Z 00000KT 9999 BKN040 11/05 Q1017 NOSIG
12-12-12 LEBL 121600Z VRB01KT 9999 BKN055 11/05 Q1017 NOSIG
12-12-12 LEBL 121630Z 36002KT 9999 FEW034 BKN050 11/05 Q1016 NOSIG
12-12-12 LEBL 121700Z VRB02KT 9999 FEW030 BKN050 11/05 Q1016 NOSIG
12-12-12 LEBL 121730Z VRB02KT 9999 FEW030 BKN050 11/06 Q1016 NOSIG
12-12-12 LEBL 121800Z 33003KT 300V010 9999 FEW025 BKN040 10/06 Q1016 NOSIG
12-12-12 LEBL 121830Z 33004KT 270V360 9999 FEW025 BKN045 10/06 Q1016 NOSIG
12-12-12 LEBL 121900Z 34005KT 290V030 9999 SCT025 BKN050 10/06 Q1016 NOSIG
12-12-12 LEBL 121930Z 32006KT 280V350 6000 -RA SCT030 BKN045 10/07 Q1016 NOSIG
12-12-12 LEBL 122000Z 33007KT 9000 SCT030 BKN045 10/07 Q1016 RERA NOSIG
12-12-12 LEBL 122030Z 33005KT 300V060 9999 SCT025 BKN040 10/06 Q1016 NOSIG
12-12-12 LEBL 122100Z 33006KT 270V350 9999 DZ SCT022 BKN035 10/06 Q1016 NOSIG
12-12-12 LEBL 122130Z 34005KT 9999 SCT022 BKN035 10/06 Q1016 REDZ NOSIG
12-12-12 LEBL 122200Z 33006KT 260V010 9000 SCT022 BKN040 10/06 Q1016 NOSIG
12-12-12 LEBL 122230Z 32004KT 4000 RA SCT015 BKN025 10/07 Q1016 NOSIG
12-12-12 LEBL 122300Z 32006KT 4000 -RA SCT018 BKN035 09/07 Q1016 NOSIG
12-12-12 LEBL 122330Z 34005KT 7000 -RA SCT020 BKN035 09/07 Q1016 NOSIG
12-12-13 LEBL 130000Z 33007KT 5000 -RA SCT015 BKN025 09/07 Q1015 NOSIG
12-12-13 LEBL 130030Z 32007KT 3000 -RA SCT015 BKN025 09/07 Q1015 NOSIG
12-12-13 LEBL 130100Z 33005KT 3000 RA SCT018 BKN030 09/08 Q1015 NOSIG
12-12-13 LEBL 130130Z 34009KT 6000 SCT025 BKN050 09/08 Q1014 RERA NOSIG
12-12-13 LEBL 130200Z 34007KT 6000 -RA SCT020 BKN050 09/08 Q1014 NOSIG
12-12-13 LEBL 130230Z 33007KT 6000 RA SCT018 BKN025 09/08 Q1014 NOSIG
12-12-13 LEBL 130300Z 33005KT 5000 -RA BKN016 09/08 Q1014 NOSIG
12-12-13 LEBL 130330Z 33009KT 5000 -RA BKN016 09/08 Q1014 NOSIG
12-12-13 LEBL 130400Z 33008KT 4000 -RA BKN015 09/08 Q1013 NOSIG
12-12-13 LEBL 130430Z 33008KT 4000 RA BKN015 09/08 Q1013 NOSIG
12-12-13 LEBL 130500Z 33011KT 4000 RA SCT015 BKN055 09/08 Q1013 NOSIG
12-12-13 LEBL 130530Z 33009KT 5000 RA SCT015 BKN055 09/08 Q1013 NOSIG
12-12-13 LEBL 130600Z 31009KT 6000 -RA SCT025 BKN055 09/08 Q1013 NOSIG
12-12-13 LEBL 130630Z 33008KT 6000 RA SCT025 BKN055 09/08 Q1013 NOSIG
12-12-13 LEBL 130700Z 32005KT 7000 FEW025 SCT055 09/07 Q1013 RERA NOSIG
12-12-13 LEBL 130730Z 32009KT 300V010 8000 FEW025 SCT055 09/07 Q1013 NOSIG
12-12-13 LEBL 130800Z 32010KT 280V340 7000 FEW025 SCT055 08/06 Q1013 NOSIG
12-12-13 LEBL 130900Z 32010KT 9000 FEW025 SCT055 09/07 Q1014 NOSIG
12-12-13 LEBL 130930Z 32009G19KT 300V010 8000 FEW025 SCT055 10/08 Q1014 NOSIG
12-12-13 LEBL 131000Z 32007KT 8000 FEW025 SCT055 10/08 Q1014 NOSIG
12-12-13 LEBL 131030Z 32004KT 250V010 9000 FEW025 SCT055 11/09 Q1014 NOSIG
12-12-13 LEBL 131100Z 29003KT 210V340 9000 FEW025 SCT055 12/09 Q1013 NOSIG
12-12-13 LEBL 131130Z 26003KT 9999 FEW025 SCT055 13/10 Q1013 NOSIG
12-12-13 LEBL 131200Z 23011KT 9999 FEW025 SCT055 13/10 Q1013 NOSIG
12-12-13 LEBL 131230Z 23011KT 9999 FEW025 SCT055 14/10 Q1013 NOSIG
12-12-13 LEBL 131300Z 23013KT 9999 FEW025 SCT055 14/09 Q1012 NOSIG
12-12-13 LEBL 131330Z 22015KT 9999 FEW025 14/09 Q1012 NOSIG
12-12-13 LEBL 131400Z 24015KT 9999 FEW025 14/09 Q1012 NOSIG
12-12-13 LEBL 131430Z 23012KT 9999 FEW025 13/09 Q1011 NOSIG
12-12-13 LEBL 131500Z 25012KT 9999 FEW025 13/09 Q1011 NOSIG
12-12-13 LEBL 131530Z 23012KT 9999 FEW025 13/10 Q1011 NOSIG
12-12-13 LEBL 131600Z 24011KT 9999 FEW025 13/10 Q1012 NOSIG
12-12-13 LEBL 131630Z 23008KT 9999 FEW025 13/10 Q1012 NOSIG
12-12-13 LEBL 131700Z 23006KT 9999 FEW025 12/10 Q1012 NOSIG
12-12-13 LEBL 131730Z 21004KT 9999 FEW025 12/10 Q1011 NOSIG
12-12-13 LEBL 131800Z 24004KT 220V280 9999 FEW025 12/10 Q1011 NOSIG
12-12-13 LEBL 131830Z 21004KT 9999 SCT016 12/10 Q1011 NOSIG
12-12-13 LEBL 131900Z 24005KT 9999 SCT016 12/10 Q1011 NOSIG
12-12-13 LEBL 131930Z 24005KT 9999 SCT018 12/10 Q1011 NOSIG
12-12-13 LEBL 132000Z 25006KT 230V290 9999 FEW020 12/10 Q1011 NOSIG
12-12-13 LEBL 132030Z 25007KT 9999 FEW020 12/10 Q1011 NOSIG
12-12-13 LEBL 132100Z 28005KT 250V330 9000 FEW020 12/10 Q1011 NOSIG
12-12-13 LEBL 132130Z 31003KT 9000 FEW020 11/09 Q1011 NOSIG
12-12-13 LEBL 132200Z 29003KT 9000 FEW015 11/09 Q1011 NOSIG
12-12-13 LEBL 132230Z 28003KT 220V330 8000 FEW015 10/08 Q1011 NOSIG
12-12-13 LEBL 132300Z 26003KT 220V310 8000 FEW015 11/09 Q1011 NOSIG
12-12-13 LEBL 132330Z VRB02KT 7000 FEW015 10/08 Q1011 NOSIG
12-12-14 LEBL 140000Z 30003KT 250V330 7000 FEW015 10/08 Q1011 NOSIG
12-12-14 LEBL 140030Z 30006KT 250V310 6000 FEW015 10/08 Q1011 NOSIG
12-12-14 LEBL 140100Z 31007KT 7000 FEW015 10/08 Q1011 NOSIG
12-12-14 LEBL 140130Z 30005KT 7000 FEW015 09/07 Q1011 NOSIG
12-12-14 LEBL 140200Z 29004KT 260V320 8000 FEW015 09/07 Q1011 NOSIG
12-12-14 LEBL 140230Z 31005KT 280V340 9000 FEW015 09/07 Q1011 NOSIG
12-12-14 LEBL 140300Z 33004KT 300V010 9999 FEW015 10/06 Q1010 NOSIG
12-12-14 LEBL 140330Z 25001KT 9999 FEW017 10/06 Q1010 NOSIG
12-12-14 LEBL 140400Z 28002KT 9999 FEW018 10/06 Q1010 NOSIG
12-12-14 LEBL 140430Z 14001KT 9999 FEW020 10/06 Q1010 NOSIG
12-12-14 LEBL 140500Z 07003KT 020V160 9999 FEW020 10/06 Q1010 NOSIG
12-12-14 LEBL 140530Z VRB02KT 9999 FEW020 10/07 Q1011 NOSIG
12-12-14 LEBL 140600Z 22005KT 190V260 9999 FEW020 12/07 Q1010 NOSIG
12-12-14 LEBL 140630Z 19005KT 9999 FEW020 12/08 Q1010 NOSIG
12-12-14 LEBL 140700Z 35005KT 9999 FEW025 11/07 Q1010 NOSIG
12-12-14 LEBL 140730Z 36005KT 310V030 9999 FEW025 12/07 Q1010 NOSIG
12-12-14 LEBL 140800Z 36003KT 280V090 9999 FEW025 11/07 Q1010 NOSIG
12-12-14 LEBL 140830Z 29003KT 190V340 9999 FEW030 12/07 Q1010 NOSIG
12-12-14 LEBL 140900Z 27005KT 250V310 9999 FEW030 12/07 Q1011 NOSIG
12-12-14 LEBL 140930Z 22007KT 9999 FEW030 13/10 Q1011 NOSIG
12-12-14 LEBL 141000Z 24004KT 210V280 9999 FEW030 14/10 Q1011 NOSIG
12-12-14 LEBL 141030Z 26005KT 220V290 9999 FEW030 14/09 Q1011 NOSIG
12-12-14 LEBL 141100Z 26006KT 220V290 9999 FEW030 15/09 Q1011 NOSIG
12-12-14 LEBL 141130Z 23008KT 9999 FEW030 15/09 Q1010 NOSIG
12-12-14 LEBL 141200Z 22007KT 9999 FEW030 16/09 Q1010 NOSIG
12-12-14 LEBL 141230Z 21008KT 9999 FEW030 15/10 Q1010 NOSIG
12-12-14 LEBL 141300Z 22004KT 190V260 9999 FEW030 15/10 Q1009 NOSIG
12-12-14 LEBL 141330Z 23008KT 9999 FEW025 15/10 Q1009 NOSIG
12-12-14 LEBL 141400Z 24008KT 9999 FEW025 15/07 Q1009 NOSIG
12-12-14 LEBL 141430Z 23015KT 9999 FEW025 15/08 Q1009 NOSIG
12-12-14 LEBL 141500Z 22014KT 9999 FEW025 14/09 Q1008 NOSIG
12-12-14 LEBL 141530Z 24017KT 9999 FEW025 14/10 Q1009 NOSIG
12-12-14 LEBL 141600Z 23014KT 9999 FEW025 14/10 Q1009 NOSIG
12-12-14 LEBL 141630Z 24018KT 9999 FEW025 14/10 Q1009 NOSIG
12-12-14 LEBL 141700Z 24016KT 9999 FEW025 14/10 Q1009 NOSIG
12-12-14 LEBL 141730Z 25011KT 9999 FEW025 14/09 Q1009 NOSIG
12-12-14 LEBL 141830Z 24015KT 9999 SCT025 14/09 Q1009 NOSIG
12-12-14 LEBL 141930Z 24011KT 9999 SCT025 14/09 Q1009 NOSIG
12-12-14 LEBL 142000Z 23012KT 9999 SCT025 14/10 Q1009 NOSIG
12-12-14 LEBL 142030Z 22013KT 9999 SCT025 14/11 Q1009 NOSIG
12-12-14 LEBL 142100Z 23013KT 9999 RA SCT025 14/11 Q1009 NOSIG
12-12-14 LEBL 142130Z 23012KT 9999 DZ SCT025 14/12 Q1009 NOSIG
12-12-14 LEBL 142200Z 23015KT 9999 DZ SCT025 14/12 Q1008 NOSIG
12-12-14 LEBL 142230Z 24016KT 9999 DZ SCT025 14/12 Q1008 NOSIG
12-12-14 LEBL 142330Z 24018KT 9999 SCT025 15/12 Q1008 NOSIG
12-12-15 LEBL 150000Z 24018KT 9999 SCT025 16/12 Q1008 NOSIG
12-12-15 LEBL 150030Z 24019KT 9999 SCT025 16/12 Q1008 NOSIG
12-12-15 LEBL 150100Z 24017KT 9999 SCT025 16/12 Q1008 NOSIG
12-12-15 LEBL 150130Z 24012KT 9999 SCT022 16/12 Q1008 NOSIG
12-12-15 LEBL 150200Z 25018KT 220V280 9999 SCT022 16/12 Q1009 NOSIG
12-12-15 LEBL 150230Z 25018KT 9999 SCT022 17/12 Q1009 NOSIG
12-12-15 LEBL 150300Z 25019KT 9999 FEW022 BKN055 17/12 Q1010 NOSIG
12-12-15 LEBL 150330Z 25023KT 9999 FEW022 BKN055 17/12 Q1009 NOSIG
12-12-15 LEBL 150400Z 24019KT 9999 FEW022 16/12 Q1009 NOSIG
12-12-15 LEBL 150430Z 23014KT 9000 FEW018 16/12 Q1009 NOSIG
12-12-15 LEBL 150500Z 22013KT 9999 FEW018 16/12 Q1009 NOSIG
12-12-15 LEBL 150530Z 22011KT 9999 FEW018 15/12 Q1010 NOSIG
12-12-15 LEBL 150600Z 22011KT 9999 FEW018 15/12 Q1010 NOSIG
12-12-15 LEBL 150630Z 22008KT 9999 FEW018 16/12 Q1011 NOSIG
12-12-15 LEBL 150700Z 22006KT 9999 FEW018 17/11 Q1011 NOSIG
12-12-15 LEBL 150730Z 22010KT 9999 FEW018 16/12 Q1012 NOSIG
12-12-15 LEBL 150800Z 21011KT 9999 FEW025 16/12 Q1012 NOSIG
12-12-15 LEBL 150830Z 21010KT 9999 FEW025 16/12 Q1013 NOSIG
12-12-15 LEBL 150900Z 22009KT 9999 FEW025 16/11 Q1013 NOSIG
12-12-15 LEBL 150930Z 23008KT 9999 FEW025 16/11 Q1014 NOSIG
12-12-15 LEBL 151000Z 30010KT 250V340 9999 FEW025 18/07 Q1014 NOSIG
12-12-15 LEBL 151030Z 29013KT 9999 FEW025 19/06 Q1014 NOSIG
12-12-15 LEBL 151100Z 29018KT 9999 FEW025 19/06 Q1015 NOSIG
12-12-15 LEBL 151130Z 28013KT 9999 FEW025 20/05 Q1015 NOSIG
12-12-15 LEBL 151200Z 28011KT 250V310 9999 FEW025 20/05 Q1014 NOSIG
12-12-15 LEBL 151230Z 29014KT 9999 FEW025 20/06 Q1014 NOSIG
12-12-15 LEBL 151300Z 27016KT 9999 FEW025 20/04 Q1014 NOSIG
12-12-15 LEBL 151330Z 28018G29KT 9999 FEW025 20/05 Q1014 NOSIG
12-12-15 LEBL 151400Z NIL
12-12-15 LEBL 151430Z 27013KT 9999 FEW025 20/05 Q1014 NOSIG
12-12-15 LEBL 151500Z 28014KT 230V300 9999 FEW025 19/05 Q1015 NOSIG
12-12-15 LEBL 151530Z 28012KT 9999 FEW025 19/06 Q1015 NOSIG
12-12-15 LEBL 151600Z 30015KT 9999 FEW025 19/05 Q1015 NOSIG
12-12-15 LEBL 151630Z 29013KT 9999 FEW025 18/05 Q1015 NOSIG
12-12-15 LEBL 151700Z 27010KT 9999 FEW025 17/06 Q1015 NOSIG
12-12-15 LEBL 151730Z 28010KT 9999 FEW025 17/06 Q1015 NOSIG
12-12-15 LEBL 151800Z 27009KT 9999 FEW025 17/05 Q1016 NOSIG
12-12-15 LEBL 151830Z 27009KT 250V320 9999 FEW025 16/08 Q1016 NOSIG
12-12-15 LEBL 151900Z 36003KT 9999 FEW025 16/11 Q1017 NOSIG
12-12-15 LEBL 151930Z 27002KT 9999 FEW025 15/12 Q1017 NOSIG
12-12-15 LEBL 152000Z 30003KT 260V010 9999 FEW025 15/11 Q1017 NOSIG
12-12-15 LEBL 152030Z 30005KT 260V340 9999 FEW025 15/10 Q1017 NOSIG
12-12-15 LEBL 152100Z 27003KT 220V330 9999 FEW025 15/10 Q1017 NOSIG
12-12-15 LEBL 152130Z 33004KT 290V010 9999 FEW025 15/08 Q1017 NOSIG
12-12-15 LEBL 152200Z 32004KT 280V340 9999 FEW025 15/07 Q1017 NOSIG
12-12-15 LEBL 152230Z 22001KT 9999 FEW025 14/07 Q1017 NOSIG
12-12-15 LEBL 152300Z VRB02KT 9999 FEW025 14/08 Q1017 NOSIG
12-12-15 LEBL 152330Z 00000KT 9999 FEW025 13/09 Q1017 NOSIG
12-12-16 LEBL 160000Z 00000KT 9999 FEW025 13/10 Q1017 NOSIG
12-12-16 LEBL 160030Z VRB02KT 9999 FEW025 14/09 Q1017 NOSIG
12-12-16 LEBL 160100Z 04006KT 9999 FEW025 14/09 Q1017 NOSIG
12-12-16 LEBL 160130Z 31003KT 9999 FEW018 14/09 Q1017 NOSIG
12-12-16 LEBL 160200Z 02003KT 310V060 9999 FEW018 15/08 Q1017 NOSIG
12-12-16 LEBL 160230Z 06003KT 040V120 9999 FEW025 14/07 Q1017 NOSIG
12-12-16 LEBL 160300Z 04003KT 020V190 9999 FEW025 13/06 Q1017 NOSIG
12-12-16 LEBL 160330Z VRB02KT 9999 FEW025 14/07 Q1017 NOSIG
12-12-16 LEBL 160400Z 06002KT 9999 FEW025 14/06 Q1016 NOSIG
12-12-16 LEBL 160430Z 29017KT 9999 FEW025 16/06 Q1016 NOSIG
12-12-16 LEBL 160500Z 23004KT 160V290 9999 FEW025 15/07 Q1017 NOSIG
12-12-16 LEBL 160530Z 22002KT 9999 FEW025 16/07 Q1017 NOSIG
12-12-16 LEBL 160600Z 28006KT 9999 FEW025 15/08 Q1017 NOSIG
12-12-16 LEBL 160630Z 31006G16KT 260V350 9999 FEW025 15/07 Q1018 NOSIG
12-12-16 LEBL 160700Z 18001KT 9999 FEW025 15/08 Q1018 NOSIG
12-12-16 LEBL 160730Z 27003KT 220V330 9999 FEW030 15/08 Q1018 NOSIG
12-12-16 LEBL 160800Z VRB02KT 9999 FEW030 15/08 Q1018 NOSIG
12-12-16 LEBL 160830Z 33003KT 270V060 9999 FEW030 14/08 Q1019 NOSIG
12-12-16 LEBL 160900Z 32007KT 260V350 9999 FEW030 15/08 Q1019 NOSIG
12-12-16 LEBL 160930Z 32007G20KT 220V030 9999 FEW030 16/08 Q1020 NOSIG
12-12-16 LEBL 161000Z 34007KT 300V010 9999 FEW030 16/08 Q1020 NOSIG
12-12-16 LEBL 161030Z 33005KT 260V010 9999 FEW030 17/08 Q1020 NOSIG
12-12-16 LEBL 161100Z VRB02KT 9999 FEW030 17/08 Q1020 NOSIG
12-12-16 LEBL 161130Z 27002KT 9999 FEW030 17/08 Q1019 NOSIG
12-12-16 LEBL 161200Z 23005KT 190V270 9999 FEW030 18/09 Q1019 NOSIG
12-12-16 LEBL 161230Z 20008KT 150V230 9999 FEW030 18/10 Q1018 NOSIG
12-12-16 LEBL 161300Z 21006KT 9999 FEW030 19/09 Q1018 NOSIG
12-12-16 LEBL 161330Z 19007KT 9999 FEW030 18/09 Q1017 NOSIG
12-12-16 LEBL 161400Z 26009KT 220V310 9999 FEW030 18/09 Q1017 NOSIG
12-12-16 LEBL 161430Z 24014KT 220V280 9999 FEW030 18/08 Q1017 NOSIG
12-12-16 LEBL 161500Z 25011KT 220V280 9999 FEW030 18/08 Q1017 NOSIG
12-12-16 LEBL 161530Z 28013KT 9999 FEW030 18/06 Q1017 NOSIG
12-12-16 LEBL 161600Z 28011KT 250V330 9999 FEW030 18/06 Q1017 NOSIG
12-12-16 LEBL 161630Z 27011KT 230V300 9999 FEW030 17/07 Q1017 NOSIG
12-12-16 LEBL 161700Z 27016KT 9999 FEW030 17/06 Q1017 NOSIG
12-12-16 LEBL 161730Z 27014KT 9999 FEW030 16/10 Q1017 NOSIG
12-12-16 LEBL 161800Z 24014KT 9999 FEW030 16/11 Q1017 NOSIG
12-12-16 LEBL 161830Z 24016KT 9999 FEW030 15/12 Q1017 NOSIG
12-12-16 LEBL 161900Z 24011KT 9999 FEW030 15/11 Q1017 NOSIG
12-12-16 LEBL 161930Z 24007KT 9999 FEW020 SCT056 15/11 Q1017 NOSIG
12-12-16 LEBL 162000Z 26006KT 240V310 9999 FEW020 SCT056 16/10 Q1016 NOSIG
12-12-16 LEBL 162030Z 30007KT 250V340 9999 FEW025 SCT056 15/10 Q1016 NOSIG
12-12-16 LEBL 162100Z 31006KT 250V340 9999 FEW025 SCT056 15/09 Q1016 NOSIG
12-12-16 LEBL 162130Z 29003KT 220V340 9999 FEW025 SCT056 15/08 Q1015 NOSIG
12-12-16 LEBL 162200Z 27005KT 250V310 9999 FEW025 SCT056 15/09 Q1015 NOSIG
12-12-16 LEBL 162230Z 28005KT 9999 FEW025 SCT056 15/10 Q1015 NOSIG
12-12-16 LEBL 162300Z 29005KT 260V330 9999 FEW025 SCT054 15/11 Q1015 NOSIG
12-12-16 LEBL 162330Z 28005KT 250V310 9999 FEW025 BKN050 15/08 Q1015 NOSIG
12-12-17 LEBL 170000Z 26003KT 9999 FEW025 SCT050 15/12 Q1015 NOSIG
12-12-17 LEBL 170030Z 27003KT 230V310 9999 FEW025 SCT050 14/12 Q1014 NOSIG
12-12-17 LEBL 170100Z 34004KT 290V010 9999 FEW025 SCT050 15/12 Q1014 NOSIG
12-12-17 LEBL 170130Z 34005KT 9999 FEW025 SCT050 14/09 Q1015 NOSIG
12-12-17 LEBL 170200Z VRB02KT 9999 FEW025 13/08 Q1015 NOSIG
12-12-17 LEBL 170230Z 26009KT 9999 FEW025 14/10 Q1015 NOSIG
12-12-17 LEBL 170300Z 26011KT 9999 FEW025 15/10 Q1015 NOSIG
12-12-17 LEBL 170330Z 26014KT 9999 FEW025 15/10 Q1014 NOSIG
12-12-17 LEBL 170400Z 26014KT 9999 FEW025 15/09 Q1014 NOSIG
12-12-17 LEBL 170430Z 27011KT 9999 FEW025 14/09 Q1014 NOSIG
12-12-17 LEBL 170500Z NIL
12-12-17 LEBL 170500Z 34007KT 9999 FEW025 14/09 Q1015 NOSIG
12-12-17 LEBL 170530Z 33007KT 9999 FEW025 14/09 Q1015 NOSIG
12-12-17 LEBL 170600Z 33007KT 9999 FEW025 13/09 Q1015 NOSIG
12-12-17 LEBL 170630Z 31009KT 9999 FEW025 13/09 Q1015 NOSIG
12-12-17 LEBL 170700Z 31007KT 250V020 9999 FEW025 13/08 Q1016 NOSIG
12-12-17 LEBL 170730Z 34008KT 9999 FEW025 13/08 Q1016 NOSIG
12-12-17 LEBL 170800Z 32009KT 9999 FEW025 13/07 Q1017 NOSIG
12-12-17 LEBL 170830Z 31011KT 9999 FEW025 12/08 Q1017 NOSIG
12-12-17 LEBL 170900Z 31009KT 220V330 9999 FEW030 13/07 Q1017 NOSIG
12-12-17 LEBL 170930Z 30009KT 270V330 9999 FEW030 14/07 Q1018 NOSIG
12-12-17 LEBL 171000Z 31011KT 280V360 9999 FEW030 14/06 Q1018 NOSIG
12-12-17 LEBL 171030Z 31009KT 270V350 9999 FEW030 14/07 Q1018 NOSIG
12-12-17 LEBL 171100Z 34010KT 300V010 9999 FEW030 15/07 Q1018 NOSIG
12-12-17 LEBL 171130Z 34010KT 290V020 9999 FEW030 15/07 Q1018 NOSIG
12-12-17 LEBL 171200Z 34010KT 310V010 9999 FEW030 16/06 Q1017 NOSIG
12-12-17 LEBL 171230Z 33006KT 290V020 9999 FEW030 16/06 Q1017 NOSIG
12-12-17 LEBL 171300Z 30005KT 250V330 9999 FEW030 18/05 Q1017 NOSIG
12-12-17 LEBL 171330Z 22007KT 190V260 9999 FEW030 18/04 Q1017 NOSIG
12-12-17 LEBL 171400Z 30007KT 280V340 9999 FEW030 18/04 Q1017 NOSIG
12-12-17 LEBL 171430Z 28008KT 250V330 9999 FEW030 18/04 Q1017 NOSIG
12-12-17 LEBL 171500Z 30010KT 280V340 9999 FEW030 18/04 Q1017 NOSIG
12-12-17 LEBL 171530Z 30008KT 230V330 9999 FEW030 17/04 Q1017 NOSIG
12-12-17 LEBL 171600Z 27010KT 220V310 9999 FEW030 16/05 Q1017 NOSIG
12-12-17 LEBL 171630Z 26011KT 230V290 9999 FEW030 16/04 Q1017 NOSIG
12-12-17 LEBL 171700Z 27009KT 9999 FEW030 16/05 Q1018 NOSIG
12-12-17 LEBL 171730Z 27009KT 240V300 9999 FEW030 16/04 Q1018 NOSIG
12-12-17 LEBL 171800Z 28009KT 250V350 9999 FEW030 15/04 Q1018 NOSIG
12-12-17 LEBL 171830Z 29006KT 9999 FEW030 15/04 Q1018 NOSIG
12-12-17 LEBL 171900Z 28006KT 250V340 9999 FEW030 15/04 Q1018 NOSIG
12-12-17 LEBL 171930Z 28008KT 260V320 9999 FEW030 15/03 Q1019 NOSIG
12-12-17 LEBL 172000Z 30006KT 250V350 9999 FEW030 15/03 Q1019 NOSIG
12-12-17 LEBL 172030Z 32007KT 240V020 9999 FEW030 14/03 Q1019 NOSIG
12-12-17 LEBL 172100Z 33003KT 9999 FEW030 15/02 Q1019 NOSIG
12-12-17 LEBL 172130Z VRB02KT CAVOK 14/03 Q1019 NOSIG
12-12-17 LEBL 172200Z 33007KT 290V360 CAVOK 12/04 Q1020 NOSIG
12-12-17 LEBL 172230Z 02006KT CAVOK 12/04 Q1020 NOSIG
12-12-17 LEBL 172300Z 02004KT 350V060 CAVOK 12/03 Q1020 NOSIG
12-12-17 LEBL 172330Z 00000KT CAVOK 13/03 Q1020 NOSIG
12-12-18 LEBL 180000Z VRB02KT CAVOK 12/04 Q1020 NOSIG
12-12-18 LEBL 180030Z VRB02KT CAVOK 12/03 Q1020 NOSIG
12-12-18 LEBL 180100Z 36008KT 9999 FEW030 11/04 Q1020 NOSIG
12-12-18 LEBL 180130Z 35008KT 9999 FEW030 11/04 Q1020 NOSIG
12-12-18 LEBL 180200Z 33004KT 9999 FEW030 10/04 Q1020 NOSIG
12-12-18 LEBL 180230Z 33008KT 9999 FEW030 10/04 Q1020 NOSIG
12-12-18 LEBL 180300Z 33006KT 9999 FEW030 10/04 Q1020 NOSIG
12-12-18 LEBL 180330Z 30008KT 9999 FEW030 09/04 Q1020 NOSIG
12-12-18 LEBL 180400Z 32008KT CAVOK 09/04 Q1020 NOSIG
12-12-18 LEBL 180430Z NIL
12-12-18 LEBL 180430Z 32007KT CAVOK 08/04 Q1019 NOSIG
12-12-18 LEBL 180500Z 31010KT CAVOK 08/04 Q1020 NOSIG
12-12-18 LEBL 180530Z 31009KT CAVOK 08/04 Q1020 NOSIG
12-12-18 LEBL 180600Z 31008KT 9999 FEW030 08/04 Q1020 NOSIG
12-12-18 LEBL 180630Z 31006KT 9999 FEW030 07/03 Q1020 NOSIG
12-12-18 LEBL 180700Z 29007KT 270V340 9999 FEW030 07/03 Q1021 NOSIG
12-12-18 LEBL 180730Z 32007KT 290V350 9999 FEW030 07/03 Q1021 NOSIG
12-12-18 LEBL 180800Z 30012KT 9999 FEW030 08/04 Q1021 NOSIG
12-12-18 LEBL 180830Z 33010KT 9999 FEW030 10/04 Q1021 NOSIG
12-12-18 LEBL 180900Z 31011KT 280V350 9999 FEW030 10/04 Q1021 NOSIG
12-12-18 LEBL 180930Z 31013KT 9999 FEW030 10/04 Q1021 NOSIG
12-12-18 LEBL 181000Z 32013KT 9999 FEW030 11/04 Q1022 NOSIG
12-12-18 LEBL 181030Z 32013KT 290V350 9999 FEW030 12/04 Q1022 NOSIG
12-12-18 LEBL 181100Z 33013KT 9999 FEW030 13/05 Q1021 NOSIG
12-12-18 LEBL 181130Z 33014KT 9999 FEW025 13/04 Q1021 NOSIG
12-12-18 LEBL 181200Z 33012KT 300V360 CAVOK 14/05 Q1021 NOSIG
12-12-18 LEBL 181230Z 34009KT CAVOK 14/05 Q1021 NOSIG
12-12-18 LEBL 181300Z 34008KT 310V020 CAVOK 15/05 Q1020 NOSIG
12-12-18 LEBL 181330Z 32007KT 290V360 CAVOK 15/05 Q1020 NOSIG
12-12-18 LEBL 181400Z 32007KT CAVOK 15/05 Q1020 NOSIG
12-12-18 LEBL 181430Z 29006KT CAVOK 15/05 Q1020 NOSIG
12-12-18 LEBL 181500Z 21006KT CAVOK 15/07 Q1020 NOSIG
12-12-18 LEBL 181530Z 22006KT CAVOK 14/06 Q1020 NOSIG
12-12-18 LEBL 181600Z 25006KT 230V290 CAVOK 13/07 Q1020 NOSIG
12-12-18 LEBL 181630Z 25006KT 9999 FEW025 13/06 Q1020 NOSIG
12-12-18 LEBL 181700Z 31001KT 9999 FEW025 12/06 Q1020 NOSIG
12-12-18 LEBL 181730Z VRB02KT 9999 FEW025 12/06 Q1020 NOSIG
12-12-18 LEBL 181800Z VRB01KT 9999 FEW025 12/07 Q1020 NOSIG
12-12-18 LEBL 181830Z 31004KT 260V010 9999 FEW025 12/06 Q1020 NOSIG
12-12-18 LEBL 181900Z 31005KT 9999 FEW025 12/06 Q1020 NOSIG
12-12-18 LEBL 181930Z 32007KT 280V340 9999 FEW025 12/06 Q1021 NOSIG
12-12-18 LEBL 182000Z 34006KT 300V020 9999 FEW025 12/06 Q1021 NOSIG
12-12-18 LEBL 182030Z 33007KT 9999 FEW025 12/06 Q1021 NOSIG
12-12-18 LEBL 182100Z 32006KT 9999 FEW025 11/06 Q1021 NOSIG
12-12-18 LEBL 182130Z 34005KT 270V010 9999 FEW025 11/06 Q1021 NOSIG
12-12-18 LEBL 182200Z 34006KT 300V020 9999 FEW025 11/06 Q1021 NOSIG
12-12-18 LEBL 182230Z 33007KT 9999 FEW025 11/06 Q1021 NOSIG
12-12-18 LEBL 182300Z 36006KT 330V030 9999 FEW025 11/06 Q1021 NOSIG
12-12-18 LEBL 182330Z 33007KT 9999 FEW025 11/06 Q1021 NOSIG
12-12-19 LEBL 190000Z 33006KT 9999 FEW025 10/06 Q1021 NOSIG
12-12-19 LEBL 190030Z 32007KT 9999 FEW025 10/06 Q1021 NOSIG
12-12-19 LEBL 190100Z NIL
12-12-19 LEBL 190100Z 32008KT 9999 FEW025 10/05 Q1021 NOSIG
12-12-19 LEBL 190130Z 33007KT 9999 FEW025 10/05 Q1021 NOSIG
12-12-19 LEBL 190200Z 32009KT 9999 FEW025 10/05 Q1021 NOSIG
12-12-19 LEBL 190230Z NIL
12-12-19 LEBL 190230Z 35008KT 9999 FEW025 10/05 Q1021 NOSIG
12-12-19 LEBL 190300Z 32008KT 9999 FEW025 10/05 Q1021 NOSIG
12-12-19 LEBL 190330Z 32010KT 9999 FEW025 SCT045 09/05 Q1021 NOSIG
12-12-19 LEBL 190400Z 33008KT 9999 FEW025 SCT045 09/05 Q1020 NOSIG
12-12-19 LEBL 190430Z NIL
12-12-19 LEBL 190430Z 32009KT 9999 FEW025 SCT045 10/05 Q1020 NOSIG
12-12-19 LEBL 190500Z NIL
12-12-19 LEBL 190500Z 32009KT 9999 FEW025 SCT045 10/05 Q1020 NOSIG
12-12-19 LEBL 190530Z 33008KT 9999 FEW025 SCT045 10/05 Q1020 NOSIG
12-12-19 LEBL 190600Z 33010KT 9999 FEW025 SCT040 10/05 Q1021 NOSIG
12-12-19 LEBL 190630Z 32009KT 9999 FEW025 SCT040 10/05 Q1021 NOSIG
12-12-19 LEBL 190700Z 33009KT 250V360 9999 FEW025 SCT040 10/05 Q1021 NOSIG
12-12-19 LEBL 190730Z 32009KT 290V010 9999 FEW025 SCT040 10/05 Q1021 NOSIG
12-12-19 LEBL 190800Z 33009KT 290V350 9999 FEW025 SCT040 10/05 Q1021 NOSIG
12-12-19 LEBL 190830Z 32009KT 280V350 9999 FEW025 BKN040 10/05 Q1021 NOSIG
12-12-19 LEBL 190900Z 33010KT 9999 FEW020 BKN037 11/06 Q1022 NOSIG
12-12-19 LEBL 190930Z 33009KT 270V060 9999 FEW020 BKN035 11/06 Q1022 NOSIG
12-12-19 LEBL 191000Z 32008KT 290V350 8000 FEW020 BKN035 12/06 Q1022 NOSIG
12-12-19 LEBL 191030Z 32007KT 260V350 9000 FEW012 BKN035 12/06 Q1022 NOSIG
12-12-19 LEBL 191100Z 32006KT 280V360 9999 FEW015 BKN030 12/06 Q1022 NOSIG
12-12-19 LEBL 191130Z 33006G19KT 250V010 9999 FEW015 SCT035 12/06 Q1022 NOSIG
12-12-19 LEBL 191200Z 33007KT 270V350 9999 FEW015 SCT035 12/06 Q1021 NOSIG
12-12-19 LEBL 191230Z 32007KT 9999 FEW020 13/06 Q1021 NOSIG
12-12-19 LEBL 191300Z 32007KT 280V350 9999 FEW020 13/07 Q1021 NOSIG
12-12-19 LEBL 191330Z 31007KT 250V350 9999 FEW020 13/07 Q1020 NOSIG
12-12-19 LEBL 191400Z 32005KT 270V340 9999 FEW025 14/07 Q1020 NOSIG
12-12-19 LEBL 191430Z 33006KT 300V010 9999 FEW025 14/07 Q1020 NOSIG
12-12-19 LEBL 191500Z 30005KT 270V340 9999 FEW025 14/07 Q1020 NOSIG
12-12-19 LEBL 191530Z 29005KT 260V350 9999 FEW025 14/07 Q1020 NOSIG
12-12-19 LEBL 191600Z 30003KT 9999 FEW025 14/08 Q1020 NOSIG
12-12-19 LEBL 191630Z VRB02KT 9999 FEW025 14/08 Q1020 NOSIG
12-12-19 LEBL 191700Z VRB02KT 9999 FEW025 13/09 Q1019 NOSIG
12-12-19 LEBL 191730Z 29003KT 9999 FEW025 13/10 Q1020 NOSIG
12-12-19 LEBL 191800Z 28003KT 240V310 9999 FEW025 12/08 Q1019 NOSIG
12-12-19 LEBL 191830Z 33004KT 290V020 9999 FEW020 12/08 Q1019 NOSIG
12-12-19 LEBL 191900Z 31004KT 280V360 9999 FEW020 12/08 Q1019 NOSIG
12-12-19 LEBL 191930Z 32005KT 220V350 9999 FEW020 12/08 Q1020 NOSIG
12-12-19 LEBL 192000Z 32006KT 9999 FEW018 12/08 Q1020 NOSIG
12-12-19 LEBL 192030Z 34004KT 290V040 9999 FEW018 11/07 Q1019 NOSIG
12-12-19 LEBL 192100Z 32008KT 250V360 9999 FEW018 11/07 Q1020 NOSIG
12-12-19 LEBL 192130Z 33006KT 9999 FEW018 11/07 Q1019 NOSIG
12-12-19 LEBL 192200Z 32006KT 9999 FEW018 11/07 Q1019 NOSIG
12-12-19 LEBL 192230Z 32006KT 9999 FEW018 11/07 Q1019 NOSIG
12-12-19 LEBL 192300Z 32006KT 9999 FEW018 11/07 Q1019 NOSIG
12-12-19 LEBL 192330Z 32006KT 9999 SCT014 10/08 Q1019 NOSIG
12-12-20 LEBL 200000Z 32006KT 9999 FEW010 SCT014 10/07 Q1018 NOSIG
12-12-20 LEBL 200030Z 32008KT 9999 FEW012 BKN022 10/07 Q1018 NOSIG
12-12-20 LEBL 200100Z 32008KT 9999 FEW012 BKN022 10/07 Q1017 NOSIG
12-12-20 LEBL 200130Z 32010KT 9999 SCT010 BKN022 10/07 Q1017 NOSIG
12-12-20 LEBL 200200Z 33007KT 9999 FEW010 BKN015 10/07 Q1017 NOSIG
12-12-20 LEBL 200230Z 32006KT 9999 FEW009 BKN015 10/07 Q1016 NOSIG
12-12-20 LEBL 200300Z 32007KT 9999 SCT010 BKN014 10/07 Q1016 NOSIG
12-12-20 LEBL 200330Z 32009KT 9999 FEW009 SCT015 BKN025 10/07 Q1016 NOSIG
12-12-20 LEBL 200400Z 32007KT 9999 FEW009 SCT015 BKN025 10/07 Q1016 NOSIG
12-12-20 LEBL 200430Z 32009KT 9999 FEW010 BKN030 10/07 Q1016 NOSIG
12-12-20 LEBL 200500Z 32007KT 9999 FEW010 BKN030 10/07 Q1015 NOSIG
12-12-20 LEBL 200530Z 31004KT 9999 FEW010 BKN030 10/08 Q1015 NOSIG
12-12-20 LEBL 200600Z 31006KT 9999 FEW010 BKN030 11/08 Q1015 NOSIG
12-12-20 LEBL 200630Z 32005G20KT 9999 FEW014 10/07 Q1015 NOSIG
12-12-20 LEBL 200700Z 29004KT 240V340 7000 FEW018 09/07 Q1015 NOSIG
12-12-20 LEBL 200730Z 31006KT 270V350 9000 FEW018 09/07 Q1014 NOSIG
12-12-20 LEBL 200800Z 31005KT 280V350 9000 FEW018 09/07 Q1014 NOSIG
12-12-20 LEBL NIL
12-12-20 LEBL 200830Z 29005KT 9000 FEW020 10/07 Q1014 NOSIG
12-12-20 LEBL 200900Z 31004KT 270V350 9000 FEW020 11/08 Q1014 NOSIG
12-12-20 LEBL 200930Z 26004KT 220V300 9999 FEW025 14/10 Q1014 NOSIG
12-12-20 LEBL 201000Z 23013KT 9999 FEW025 14/09 Q1014 NOSIG
12-12-20 LEBL 201030Z 23015KT 9999 FEW025 14/10 Q1015 NOSIG
12-12-20 LEBL 201100Z 23019KT 9999 FEW025 14/12 Q1015 NOSIG
12-12-20 LEBL 201130Z 23016KT 9999 FEW025 14/12 Q1014 NOSIG
12-12-20 LEBL 201200Z 24016KT 9999 FEW025 14/11 Q1014 NOSIG
12-12-20 LEBL 201230Z 24016KT 9999 FEW025 15/11 Q1014 NOSIG
12-12-20 LEBL 201300Z 23012KT 9999 FEW025 15/12 Q1014 NOSIG
12-12-20 LEBL 201330Z 24012KT 9999 FEW025 15/12 Q1014 NOSIG
12-12-20 LEBL 201400Z 24012KT 9999 FEW025 16/13 Q1014 NOSIG
12-12-20 LEBL 201430Z 23011KT 9999 FEW025 16/12 Q1014 NOSIG
12-12-20 LEBL 201500Z 22010KT 9999 FEW025 16/13 Q1014 NOSIG
12-12-20 LEBL 201530Z 24004KT 210V270 9999 FEW025 16/12 Q1014 NOSIG
12-12-20 LEBL 201600Z VRB02KT 9999 FEW025 16/10 Q1014 NOSIG
12-12-20 LEBL 201630Z VRB01KT 9999 FEW025 16/10 Q1014 NOSIG
12-12-20 LEBL 201700Z 31004KT 250V350 9999 FEW025 15/10 Q1015 NOSIG
12-12-20 LEBL 201730Z 32003KT 270V010 9999 FEW025 15/09 Q1016 NOSIG
12-12-20 LEBL 201800Z 31005KT 250V350 9999 FEW025 14/08 Q1016 NOSIG
12-12-20 LEBL 201830Z 31005KT 260V340 9999 FEW025 14/08 Q1016 NOSIG
12-12-20 LEBL 201900Z 30007KT 200V330 9999 FEW025 14/08 Q1017 NOSIG
12-12-20 LEBL 201930Z 32007KT 290V350 9999 FEW025 14/08 Q1017 NOSIG
12-12-20 LEBL 202000Z 32002KT 9999 FEW025 12/08 Q1017 NOSIG
12-12-20 LEBL 202030Z 00000KT 9999 FEW025 13/08 Q1017 NOSIG
12-12-20 LEBL 202100Z 00000KT 9999 FEW025 13/08 Q1017 NOSIG
12-12-20 LEBL 202130Z 31005KT 260V340 9999 FEW025 11/08 Q1017 NOSIG
12-12-20 LEBL 202200Z 36005KT 240V050 9999 FEW025 12/08 Q1017 NOSIG
12-12-20 LEBL 202230Z VRB02KT 9999 FEW025 12/08 Q1017 NOSIG
12-12-20 LEBL 202300Z 35005KT 320V020 9999 FEW025 12/08 Q1018 NOSIG
12-12-20 LEBL 202330Z 04003KT 350V080 9999 FEW025 12/08 Q1017 NOSIG
12-12-21 LEBL 210000Z 28003KT 220V010 9999 FEW025 12/08 Q1017 NOSIG
12-12-21 LEBL 210030Z 33003KT 300V010 9999 FEW025 12/08 Q1017 NOSIG
12-12-21 LEBL 210100Z 32007KT 9999 FEW025 12/08 Q1017 NOSIG
12-12-21 LEBL 210130Z 31007KT 9999 FEW025 12/08 Q1017 NOSIG
12-12-21 LEBL 210200Z 34009KT 9999 FEW025 12/08 Q1016 NOSIG
12-12-21 LEBL 210230Z 32006KT 9999 FEW025 12/07 Q1016 NOSIG
12-12-21 LEBL 210300Z 30004KT 270V340 9999 FEW025 12/07 Q1016 NOSIG
12-12-21 LEBL 210330Z 34006KT 9999 FEW025 12/07 Q1016 NOSIG
12-12-21 LEBL 210400Z 31004KT 9999 FEW025 11/07 Q1016 NOSIG
12-12-21 LEBL 210430Z 30005KT 9999 FEW025 11/07 Q1016 NOSIG
12-12-21 LEBL 210500Z 29003KT 9999 FEW025 11/07 Q1016 NOSIG
12-12-21 LEBL 210530Z 32006KT 9999 FEW025 11/07 Q1016 NOSIG
12-12-21 LEBL 210600Z 29005KT 9999 FEW025 12/06 Q1016 NOSIG
12-12-21 LEBL 210630Z 30005KT 260V330 9999 FEW025 12/06 Q1015 NOSIG
12-12-21 LEBL 210700Z 29002KT 9999 FEW025 11/05 Q1015 NOSIG
12-12-21 LEBL 210730Z 29008KT 250V340 9999 FEW025 12/05 Q1015 NOSIG
12-12-21 LEBL 210800Z 29006KT 9999 FEW025 12/06 Q1015 NOSIG
12-12-21 LEBL 210830Z 29006KT 260V330 9999 FEW025 13/06 Q1015 NOSIG
12-12-21 LEBL 210900Z 28007KT 250V310 9999 FEW025 14/07 Q1015 NOSIG
12-12-21 LEBL 210930Z 30007KT 9999 FEW025 15/06 Q1015 NOSIG
12-12-21 LEBL 211000Z 28009KT 9999 FEW025 16/05 Q1015 NOSIG
12-12-21 LEBL 211030Z 27012KT 9999 FEW025 16/08 Q1014 NOSIG
12-12-21 LEBL 211100Z NIL
12-12-21 LEBL 211130Z 26014KT 9999 FEW025 17/07 Q1013 NOSIG
12-12-21 LEBL 211100Z 24014KT 9999 FEW025 16/08 Q1014 NOSIG
12-12-21 LEBL 211200Z 27010KT 250V310 9999 FEW025 17/07 Q1013 NOSIG
12-12-21 LEBL 211230Z 25012KT 200V280 9999 FEW025 17/09 Q1013 NOSIG
12-12-21 LEBL 211300Z 25010KT 210V280 9999 FEW025 17/09 Q1013 NOSIG
12-12-21 LEBL 211330Z 26012KT 9999 FEW025 18/08 Q1012 NOSIG
12-12-21 LEBL 211400Z 28014KT 250V320 9999 FEW025 18/07 Q1012 NOSIG
12-12-21 LEBL 211430Z 29010G20KT 250V320 9999 FEW025 18/07 Q1012 NOSIG
12-12-21 LEBL 211500Z 32005KT 220V030 9999 FEW025 18/06 Q1012 NOSIG
12-12-21 LEBL 211530Z 31011KT 260V340 9999 FEW025 18/07 Q1012 NOSIG
12-12-21 LEBL 211600Z 29006KT 250V360 9999 FEW025 18/07 Q1013 NOSIG
12-12-21 LEBL 211630Z 11002KT 9999 FEW025 18/07 Q1013 NOSIG
12-12-21 LEBL 211700Z VRB02KT 9999 FEW025 17/07 Q1014 NOSIG
12-12-21 LEBL 211730Z 05004KT 9999 FEW025 15/07 Q1014 NOSIG
12-12-21 LEBL 211800Z 07005KT 030V110 9999 FEW025 15/08 Q1014 NOSIG
12-12-21 LEBL 211830Z 04008KT 350V060 9999 FEW025 14/09 Q1014 NOSIG
12-12-21 LEBL 211900Z 03007KT 350V100 9999 FEW025 13/10 Q1015 NOSIG
12-12-21 LEBL 211930Z 05008KT 010V070 9999 FEW025 13/10 Q1015 NOSIG
12-12-21 LEBL 212000Z 09003KT 9999 FEW025 13/10 Q1016 NOSIG
12-12-21 LEBL 212030Z 05008KT 9999 FEW025 13/10 Q1017 NOSIG
12-12-21 LEBL 212100Z 04008KT 9999 FEW025 13/10 Q1017 NOSIG
12-12-21 LEBL 212130Z 06007KT 9999 FEW025 13/11 Q1018 NOSIG
12-12-21 LEBL 212200Z 07008KT 9999 FEW025 13/11 Q1018 NOSIG
12-12-21 LEBL 212230Z 06005KT 9999 FEW025 13/10 Q1019 NOSIG
12-12-21 LEBL 212300Z 31004KT 290V350 9999 FEW025 12/10 Q1020 NOSIG
12-12-21 LEBL 212330Z 29004KT 230V310 9999 FEW025 10/08 Q1020 NOSIG
12-12-22 LEBL 220000Z 31008KT 9999 FEW025 10/08 Q1020 NOSIG
12-12-22 LEBL 220030Z 31005KT 9999 FEW025 10/08 Q1020 NOSIG
12-12-22 LEBL 220100Z 32008KT 9999 FEW025 10/08 Q1020 NOSIG
12-12-22 LEBL 220130Z 31007KT 9999 FEW025 10/08 Q1021 NOSIG
12-12-22 LEBL 220200Z 32008KT 9999 FEW025 10/08 Q1021 NOSIG
12-12-22 LEBL 220230Z 32007KT 9999 FEW025 10/08 Q1021 NOSIG
12-12-22 LEBL 220300Z 32007KT 9999 FEW025 09/07 Q1021 NOSIG
12-12-22 LEBL 220330Z 33007KT 9999 FEW025 09/07 Q1021 NOSIG
12-12-22 LEBL 220400Z 31010KT 9999 FEW025 10/07 Q1021 NOSIG
12-12-22 LEBL 220430Z 33008KT 9999 FEW025 10/06 Q1021 NOSIG
12-12-22 LEBL 220500Z 33010KT 9999 FEW025 09/06 Q1021 NOSIG
12-12-22 LEBL 220530Z 33010KT 9999 FEW022 09/06 Q1021 NOSIG
12-12-22 LEBL 220600Z 32012KT 9999 FEW022 09/06 Q1022 NOSIG
12-12-22 LEBL 220630Z 33008KT 9999 SCT022 09/06 Q1022 NOSIG
12-12-22 LEBL 220700Z 33009KT 9999 SCT022 09/06 Q1022 NOSIG
12-12-22 LEBL 220730Z 33009KT 290V360 9999 SCT022 BKN030 09/06 Q1023 NOSIG
12-12-22 LEBL 220800Z 33008KT 300V360 9999 SCT022 BKN030 09/06 Q1023 NOSIG
12-12-22 LEBL 220830Z 33007G17KT 260V010 9999 SCT022 BKN030 09/06 Q1023 NOSIG
12-12-22 LEBL 220900Z 33010KT 9999 SCT022 BKN030 10/06 Q1024 NOSIG
12-12-22 LEBL 220930Z 33010KT 280V010 9999 SCT022 BKN030 11/06 Q1024 NOSIG
12-12-22 LEBL 221000Z 33010KT 290V010 9999 FEW022 SCT040 12/07 Q1024 NOSIG
12-12-22 LEBL 221030Z 33008G19KT 260V010 9999 FEW022 SCT040 13/07 Q1024 NOSIG
12-12-22 LEBL 221100Z 33007KT 9999 FEW022 14/07 Q1024 NOSIG
12-12-22 LEBL 221130Z 33006KT 300V060 9999 FEW022 14/07 Q1024 NOSIG
12-12-22 LEBL 221200Z NIL
12-12-22 LEBL 221200Z 31005KT 220V340 9999 FEW022 15/07 Q1023 NOSIG
12-12-22 LEBL 221230Z 29003KT 250V360 9999 FEW022 16/10 Q1023 NOSIG
12-12-22 LEBL 221300Z 22005KT 170V260 9999 SCT022 15/10 Q1023 NOSIG
12-12-22 LEBL 221330Z 19003KT 120V250 9999 SCT020 16/11 Q1023 NOSIG
12-12-22 LEBL 221400Z 17003KT 120V200 9999 SCT020 16/11 Q1022 NOSIG
12-12-22 LEBL 221430Z 16003KT 130V190 9999 FEW020 15/11 Q1022 NOSIG
12-12-22 LEBL 221500Z 16004KT 140V200 9999 FEW020 15/11 Q1022 NOSIG
12-12-22 LEBL 221530Z 21006KT 9999 FEW020 15/10 Q1022 NOSIG
12-12-22 LEBL 221600Z 21005KT 9999 FEW020 15/10 Q1023 NOSIG
12-12-22 LEBL 221630Z 23004KT 9999 FEW020 14/10 Q1023 NOSIG
12-12-22 LEBL 221700Z 27005KT 9999 FEW020 14/10 Q1023 NOSIG
12-12-22 LEBL 221730Z 26005KT 9999 FEW020 14/11 Q1023 NOSIG
12-12-22 LEBL 221800Z 02002KT 9000 FEW020 13/10 Q1023 NOSIG
12-12-22 LEBL 221830Z VRB02KT 9000 FEW020 13/10 Q1023 NOSIG
12-12-22 LEBL 221900Z 29001KT 9999 FEW020 13/10 Q1023 NOSIG
12-12-22 LEBL 221930Z 31003KT 270V340 9999 FEW025 12/10 Q1024 NOSIG
12-12-22 LEBL 222000Z 33004KT 300V010 9999 FEW025 12/09 Q1024 NOSIG
12-12-22 LEBL 222030Z NIL
12-12-22 LEBL 222100Z 32007KT 9999 FEW025 11/09 Q1024 NOSIG
12-12-22 LEBL 222130Z 31004KT 270V330 9999 FEW025 11/09 Q1023 NOSIG
12-12-22 LEBL 222200Z 28003KT 9999 FEW025 11/09 Q1023 NOSIG
12-12-22 LEBL 222230Z 32004KT 9999 FEW025 11/08 Q1024 NOSIG
12-12-22 LEBL 222300Z 31008KT 9999 FEW025 11/08 Q1024 NOSIG
12-12-22 LEBL 222330Z 31007KT 9999 FEW025 11/08 Q1023 NOSIG
12-12-23 LEBL 230000Z 32005KT 280V340 9999 FEW025 11/08 Q1023 NOSIG
12-12-23 LEBL 230030Z 30004KT 250V330 9999 FEW025 11/08 Q1023 NOSIG
12-12-23 LEBL 230100Z 31008KT 9999 FEW025 10/08 Q1022 NOSIG
12-12-23 LEBL 230130Z 31006KT 9999 FEW025 10/08 Q1022 NOSIG
12-12-23 LEBL 230200Z 31008KT 9999 FEW025 10/07 Q1022 NOSIG
12-12-23 LEBL 230230Z 32007KT 270V340 9999 FEW025 10/07 Q1022 NOSIG
12-12-23 LEBL 230300Z 32009KT 280V340 9999 FEW025 10/07 Q1022 NOSIG
12-12-23 LEBL 230330Z 32009KT 9999 FEW025 09/07 Q1022 NOSIG
12-12-23 LEBL 230400Z 33007KT 9999 FEW025 09/07 Q1022 NOSIG
12-12-23 LEBL 230430Z NIL
12-12-23 LEBL 230430Z 32009KT 9999 FEW025 09/07 Q1022 NOSIG
12-12-23 LEBL 230500Z 31012KT 9999 FEW025 09/07 Q1022 NOSIG
12-12-23 LEBL 230530Z 32013KT 9999 FEW025 09/07 Q1022 NOSIG
12-12-23 LEBL 230600Z 31011KT 9999 FEW025 09/07 Q1022 NOSIG
12-12-23 LEBL 230630Z 31011KT 9999 FEW025 09/06 Q1022 NOSIG
12-12-23 LEBL 230700Z 32013KT 9999 FEW025 09/06 Q1022 NOSIG
12-12-23 LEBL 230730Z 31014KT 9999 FEW025 09/06 Q1022 NOSIG
12-12-23 LEBL 230800Z 31012G23KT 260V340 9999 FEW025 09/07 Q1022 NOSIG
12-12-23 LEBL 230830Z 31010KT 9999 FEW025 10/07 Q1022 NOSIG
12-12-23 LEBL 230900Z 31011KT 280V340 9999 FEW025 11/07 Q1023 NOSIG
12-12-23 LEBL 230930Z 30010KT 9999 FEW025 12/07 Q1023 NOSIG
12-12-23 LEBL 231000Z 30007KT 250V340 CAVOK 13/08 Q1023 NOSIG
12-12-23 LEBL 231030Z 30008KT CAVOK 14/09 Q1023 NOSIG
12-12-23 LEBL 231100Z 30007KT 250V350 CAVOK 15/10 Q1022 NOSIG
12-12-23 LEBL 231130Z 30006KT 250V340 CAVOK 16/11 Q1022 NOSIG
12-12-23 LEBL 231200Z 27004KT 220V310 CAVOK 17/11 Q1021 NOSIG
12-12-23 LEBL 231230Z 22009KT CAVOK 16/11 Q1021 NOSIG
12-12-23 LEBL 231300Z 22009KT CAVOK 16/11 Q1020 NOSIG
12-12-23 LEBL 231330Z 22009KT CAVOK 16/12 Q1020 NOSIG
12-12-23 LEBL 231400Z 22013KT CAVOK 16/11 Q1020 NOSIG
12-12-23 LEBL 231430Z 24011KT CAVOK 16/11 Q1019 NOSIG
12-12-23 LEBL 231500Z 24010KT CAVOK 17/11 Q1019 NOSIG
12-12-23 LEBL 231530Z 24010KT CAVOK 17/11 Q1019 NOSIG
12-12-23 LEBL 231600Z 24014KT CAVOK 16/10 Q1019 NOSIG
12-12-23 LEBL 231630Z 23011KT CAVOK 15/11 Q1019 NOSIG
12-12-23 LEBL 231700Z 23012KT CAVOK 15/12 Q1019 NOSIG
12-12-23 LEBL 231730Z 23011KT CAVOK 14/12 Q1019 NOSIG
12-12-23 LEBL 231746Z 23012KT 5000 R07R/1200VP2000D BR FEW002 14/13 Q1019 NOSIG
12-12-23 LEBL 231800Z 23012KT 3000 R07R/0800N R25L/0750V1600D BR SCT001 13/13 Q1019
12-12-23 LEBL 231830Z 23014KT 0400 R25R/1300VP2000D R07L/1100N R07R/1000U R25L/0750V1400U BCFG SCT002 BKN010 13/12 Q1019 NOSIG
12-12-23 LEBL 231900Z 23014KT 2000 BR SCT002 13/12 Q1019 NOSIG
12-12-23 LEBL 231930Z 24012KT 1500 BR BKN002 13/12 Q1020 NOSIG
12-12-23 LEBL 232000Z 22012KT 1500 BR BKN002 12/12 Q1020 NOSIG
12-12-23 LEBL 232030Z 22014KT 3000 BR BKN002 12/12 Q1020 NOSIG
12-12-23 LEBL 232100Z 23012KT 3000 BR BKN002 12/12 Q1020 NOSIG
12-12-23 LEBL 232130Z 23014KT 2000 BR BKN002 12/12 Q1020 NOSIG
12-12-23 LEBL 232200Z NIL
12-12-23 LEBL 232200Z 24014KT 0500 R25R/P2000 R07L/1900N R07R/1900N R25L/P2000 FG BKN002 12/12 Q1020 NOSIG
12-12-23 LEBL 232230Z 23013KT 0500 R25R/1900N R07L/1900N R07R/1800N R25L/1900N BCFG
12-12-23 LEBL 232300Z 24013KT 0500 R25R/P2000 R07L/1900N R07R/P2000 R25L/P2000 BCFG
12-12-23 LEBL 232330Z 25010KT 0500 R25R/1900N R07L/1800D R07R/1900N R25L/P2000 BCFG
12-12-24 LEBL 240000Z 24010KT 1000 R25R/P2000 R07L/P2000 R07R/P2000 R25L/P2000 BR BKN002 12/11 Q1020 NOSIG
12-12-24 LEBL 240030Z 24012KT 1000 R25R/P2000 R07L/P2000 R07R/1900N R25L/P2000 BR BKN002 12/11 Q1019 NOSIG
12-12-24 LEBL 240100Z 24013KT 1000 R25R/P2000 R07L/P2000 R07R/P2000 R25L/P2000 BR BKN002 11/11 Q1019 NOSIG
12-12-24 LEBL 240130Z 24012KT 1000 R25R/P2000 R07L/P2000 R07R/1900N R25L/P2000 BR
12-12-24 LEBL 240200Z 27009KT 1000 R25R/P2000 R07L/1700U R07R/1800U R25L/1900N BR
12-12-24 LEBL 240230Z 25008KT 220V310 1000 R25R/P2000 R07L/1900N R07R/P2000 R25L/P2000 BR BKN002 11/11 Q1018 NOSIG
12-12-24 LEBL 240300Z 28007KT 250V310 1000 R25R/P2000 R07L/P2000 R07R/1800D R25L/P2000 BR BKN002 10/10 Q1018 NOSIG
12-12-24 LEBL 240330Z 28005KT 1000 R25R/P2000 R07L/P2000 R07R/P2000 R25L/P2000 BR BKN002 11/11 Q1018 NOSIG
12-12-24 LEBL 240400Z NIL
12-12-24 LEBL 240430Z NIL
12-12-24 LEBL 240430Z 29004KT 250V330 1000 R07R/P2000 R07L/P2000 R25L/P2000 R25R/P2000 BR BKN002 10/08 Q1017 NOSIG
12-12-24 LEBL 240500Z 31005KT 1000 R25R/P2000 R07L/P2000 R07R/P2000 R25L/P2000 BR BKN002 10/08 Q1018 NOSIG
12-12-24 LEBL 240500Z 30005KT 5000 BR BKN003 10/08 Q1018 NOSIG
12-12-24 LEBL 240530Z 30005KT 8000 BKN003 10/08 Q1018 NOSIG
12-12-24 LEBL 240600Z 30005KT 9999 BKN003 10/08 Q1018 NOSIG
12-12-24 LEBL 240630Z 30005KT 9999 BKN004 10/09 Q1018 NOSIG
12-12-24 LEBL 240700Z NIL
12-12-24 LEBL 240700Z 30007KT 260V350 9999 BKN004 10/08 Q1018 NOSIG
12-12-24 LEBL 240730Z 31005KT 260V350 9999 BKN005 10/09 Q1018 NOSIG
12-12-24 LEBL 240800Z 31005KT 250V340 9999 FEW003 BKN005 10/08 Q1018 NOSIG
12-12-24 LEBL 240830Z 30005KT 260V330 7000 FEW002 BKN004 11/09 Q1018 NOSIG
12-12-24 LEBL 240900Z 32004KT 280V360 8000 FEW002 BKN004 10/08 Q1019 NOSIG
12-12-24 LEBL 240930Z 31004KT 9000 FEW003 BKN004 10/08 Q1019 NOSIG
12-12-24 LEBL 241000Z 31003KT 250V350 8000 FEW004 BKN006 11/09 Q1019 NOSIG
12-12-24 LEBL 241030Z 29003KT 230V330 8000 FEW005 BKN008 13/12 Q1019 NOSIG
12-12-24 LEBL 241100Z 23009KT 200V260 8000 FEW005 BKN008 13/11 Q1019 NOSIG
12-12-24 LEBL 241130Z 22011KT 8000 FEW006 BKN008 14/12 Q1018 NOSIG
12-12-24 LEBL 241200Z 23011KT 8000 FEW005 BKN007 14/12 Q1018 NOSIG
12-12-24 LEBL 241230Z 22009KT 8000 FEW005 BKN007 14/12 Q1017 NOSIG
12-12-24 LEBL 241300Z 21010KT 8000 FEW005 BKN007 14/12 Q1017 NOSIG
12-12-24 LEBL 241330Z 23011KT 8000 FEW005 BKN007 14/12 Q1017 NOSIG
12-12-24 LEBL 241400Z 22009KT 8000 FEW005 BKN007 14/12 Q1016 NOSIG
12-12-24 LEBL 241430Z 22010KT 7000 FEW005 BKN007 13/12 Q1016 NOSIG
12-12-24 LEBL 241500Z 22010KT 7000 FEW005 BKN007 13/12 Q1016 NOSIG
12-12-24 LEBL 241530Z 22009KT 7000 FEW005 BKN007 13/12 Q1016 NOSIG
12-12-24 LEBL 241600Z 23009KT 6000 FEW005 BKN007 13/12 Q1016 NOSIG
12-12-24 LEBL 241630Z 23009KT 5000 BR BKN007 13/12 Q1016 NOSIG
12-12-24 LEBL 241700Z 23008KT 5000 BR BKN007 13/11 Q1016 NOSIG
12-12-24 LEBL 241730Z 23010KT 6000 BKN007 12/11 Q1015 NOSIG
12-12-24 LEBL 241800Z 24008KT 6000 FEW007 BKN008 12/11 Q1015 NOSIG
12-12-24 LEBL 241830Z 24008KT 6000 FEW007 BKN008 13/11 Q1016 NOSIG
12-12-24 LEBL 241900Z 25006KT 7000 FEW007 BKN009 13/11 Q1016 NOSIG
12-12-24 LEBL 241930Z 24006KT 7000 FEW007 BKN009 12/11 Q1016 NOSIG
12-12-24 LEBL 242000Z 28004KT 250V310 7000 FEW007 BKN010 12/11 Q1016 NOSIG
12-12-24 LEBL 242030Z VRB02KT 5000 BR FEW007 BKN010 12/11 Q1016 NOSIG
12-12-24 LEBL 242100Z 32004KT 270V010 4000 BR FEW007 BKN010 12/11 Q1016 NOSIG
12-12-24 LEBL 242130Z 32003KT 260V350 3000 BR FEW007 BKN014 12/11 Q1016 NOSIG
12-12-24 LEBL 242200Z 32005KT 3000 BR FEW007 SCT014 12/11 Q1016 NOSIG
12-12-24 LEBL 242230Z 33004KT 290V350 3000 BR FEW007 SCT014 12/11 Q1016 NOSIG
12-12-24 LEBL 242300Z 34007KT 3000 BR FEW007 SCT015 12/10 Q1016 NOSIG
12-12-24 LEBL 242330Z 33006KT 5000 BR FEW007 SCT018 11/10 Q1015 NOSIG
12-12-25 LEBL 250000Z 34009KT 5000 BR FEW007 SCT018 11/10 Q1015 NOSIG
12-12-25 LEBL 250030Z 33006KT 6000 FEW007 SCT018 11/10 Q1015 NOSIG
12-12-25 LEBL 250100Z 32007KT 6000 FEW007 BKN016 11/10 Q1014 NOSIG
12-12-25 LEBL 250130Z 32007KT 6000 FEW007 BKN016 11/10 Q1014 NOSIG
12-12-25 LEBL 250200Z 33008KT 7000 FEW007 BKN015 11/10 Q1014 NOSIG
12-12-25 LEBL 250230Z 31006KT 7000 FEW007 BKN015 12/10 Q1014 NOSIG
12-12-25 LEBL 250300Z 32008KT 6000 FEW007 BKN015 11/10 Q1014 NOSIG
12-12-25 LEBL 250330Z 31006KT 6000 FEW007 SCT015 11/10 Q1014 NOSIG
12-12-25 LEBL 250400Z 31006KT 6000 FEW007 SCT015 11/09 Q1013 NOSIG
12-12-25 LEBL 250430Z 31006KT 6000 FEW007 SCT013 11/09 Q1013 NOSIG
12-12-25 LEBL 250500Z 32007KT 6000 FEW007 SCT011 10/09 Q1013 NOSIG
12-12-25 LEBL 250530Z 31006KT 6000 FEW007 SCT011 10/09 Q1013 NOSIG
12-12-25 LEBL 250600Z 32006KT 6000 BKN009 10/09 Q1013 NOSIG
12-12-25 LEBL 250630Z 32007KT 5000 BR BKN009 10/09 Q1013 NOSIG
12-12-25 LEBL 250700Z 31006KT 5000 BR BKN009 10/09 Q1013 NOSIG
12-12-25 LEBL 250730Z 32007G17KT 5000 BR BKN009 10/08 Q1013 NOSIG
12-12-25 LEBL 250800Z 33006KT 270V350 5000 BR BKN008 09/08 Q1013 NOSIG
12-12-25 LEBL 250830Z 32006KT 5000 BR BKN008 10/09 Q1013 NOSIG
12-12-25 LEBL 250900Z 33007KT 6000 BKN008 10/09 Q1014 NOSIG
12-12-25 LEBL 250930Z 33005KT 240V030 6000 BKN008 11/09 Q1014 NOSIG
12-12-25 LEBL 251000Z 34005KT 290V350 8000 BKN008 11/08 Q1014 NOSIG
12-12-25 LEBL 251030Z 32006KT 8000 BKN009 11/08 Q1014 NOSIG
12-12-25 LEBL 251100Z 32005KT 7000 FEW009 BKN011 12/09 Q1014 NOSIG
12-12-25 LEBL 251130Z VRB02KT 8000 FEW009 BKN010 13/09 Q1013 NOSIG
12-12-25 LEBL 251200Z VRB02KT 8000 FEW009 BKN010 13/10 Q1013 NOSIG
12-12-25 LEBL 251230Z VRB02KT 7000 FEW009 BKN010 13/10 Q1013 NOSIG
12-12-25 LEBL 251300Z 31003KT 260V060 7000 FEW008 BKN010 14/11 Q1012 NOSIG
12-12-25 LEBL 251330Z VRB02KT 7000 FEW008 BKN010 14/10 Q1012 NOSIG
12-12-25 LEBL 251400Z 25003KT 210V280 9000 SCT009 14/11 Q1011 NOSIG
12-12-25 LEBL 251430Z VRB02KT 9000 FEW009 14/11 Q1011 NOSIG
12-12-25 LEBL 251500Z 16003KT 130V200 9999 FEW009 14/11 Q1011 NOSIG
12-12-25 LEBL 251530Z 00000KT 9000 FEW012 14/11 Q1011 NOSIG
12-12-25 LEBL 251600Z 15002KT 8000 FEW014 13/11 Q1011 NOSIG
12-12-25 LEBL 251630Z 11003KT 8000 FEW010 13/11 Q1012 NOSIG
12-12-25 LEBL 251700Z 09002KT 8000 FEW009 SCT012 13/11 Q1012 NOSIG
12-12-25 LEBL 251730Z 08005KT 060V120 7000 FEW009 SCT012 13/12 Q1012 NOSIG
12-12-25 LEBL 251800Z 07005KT 7000 FEW009 BKN015 13/12 Q1013 NOSIG
12-12-25 LEBL 251830Z 06007KT 9000 FEW009 BKN015 14/11 Q1013 NOSIG
12-12-25 LEBL 251900Z 06006KT 9000 FEW010 BKN018 14/11 Q1013 NOSIG
12-12-25 LEBL 251930Z 06010KT 8000 FEW010 SCT018 14/11 Q1014 NOSIG
12-12-25 LEBL 252000Z 07011KT 7000 FEW012 SCT022 13/11 Q1014 NOSIG
12-12-25 LEBL 252030Z 06007KT 7000 FEW012 BKN025 13/11 Q1014 NOSIG
12-12-25 LEBL 252100Z 08009KT 9000 FEW012 BKN025 14/10 Q1014 NOSIG
12-12-25 LEBL 252130Z 08006KT 9000 FEW015 SCT025 14/11 Q1015 NOSIG
12-12-25 LEBL 252200Z 09004KT 9999 FEW015 SCT022 14/11 Q1015 NOSIG
12-12-25 LEBL 252230Z VRB01KT 9000 FEW017 SCT025 13/11 Q1015 NOSIG
12-12-25 LEBL 252300Z 00000KT 8000 FEW013 SCT020 13/11 Q1015 NOSIG
12-12-26 LEBL 260000Z 31009KT 7000 FEW014 SCT018 13/10 Q1016 NOSIG
12-12-26 LEBL 260030Z 32006KT 7000 FEW018 SCT025 12/10 Q1016 NOSIG
12-12-26 LEBL 260100Z 33005KT 7000 FEW025 12/10 Q1016 NOSIG
12-12-26 LEBL 260130Z 30004KT 6000 FEW025 12/10 Q1016 NOSIG
12-12-26 LEBL 260200Z 31004KT 7000 FEW025 12/10 Q1016 NOSIG
12-12-26 LEBL 260230Z 32007KT 6000 FEW025 12/10 Q1016 NOSIG
12-12-26 LEBL 260300Z 32008KT 5000 BR FEW025 12/10 Q1016 NOSIG
12-12-26 LEBL 260330Z 33008KT 5000 BR FEW025 11/10 Q1016 NOSIG
12-12-26 LEBL 260400Z 32007KT 6000 FEW025 11/09 Q1017 NOSIG
12-12-26 LEBL 260430Z 32007KT 6000 FEW025 11/09 Q1017 NOSIG
12-12-26 LEBL 260500Z 33008KT 6000 FEW025 12/10 Q1017 NOSIG
12-12-26 LEBL 260530Z 32009KT 7000 FEW025 12/09 Q1017 NOSIG
12-12-26 LEBL 260600Z 33010KT 8000 FEW025 12/09 Q1018 NOSIG
12-12-26 LEBL 260630Z 33010KT 9000 FEW025 12/08 Q1018 NOSIG
12-12-26 LEBL 260700Z 33009KT 300V010 9999 FEW025 12/08 Q1019 NOSIG
12-12-26 LEBL 260730Z 33009KT 9999 FEW025 12/07 Q1019 NOSIG
12-12-26 LEBL 260800Z 32011KT 9999 FEW025 12/07 Q1020 NOSIG
12-12-26 LEBL 260830Z 33007G18KT 280V350 9999 FEW025 12/07 Q1020 NOSIG
12-12-26 LEBL 260900Z 32008KT 9999 FEW025 12/07 Q1021 NOSIG
12-12-26 LEBL 260930Z 32008KT 290V350 9999 FEW025 13/07 Q1021 NOSIG
12-12-26 LEBL 261000Z 33008KT 230V020 9999 FEW025 13/07 Q1022 NOSIG
12-12-26 LEBL 261030Z 32008KT 290V350 9999 FEW025 14/07 Q1022 NOSIG
12-12-26 LEBL 261100Z 31009KT 9999 FEW025 15/07 Q1022 NOSIG
12-12-26 LEBL 261130Z 31007KT 9999 FEW025 15/07 Q1022 NOSIG
12-12-26 LEBL 261200Z 30005KT 260V350 9999 FEW025 15/07 Q1022 NOSIG
12-12-26 LEBL 261230Z 32005KT 260V030 9999 FEW025 16/06 Q1022 NOSIG
12-12-26 LEBL 261300Z 22003KT 9999 FEW025 15/08 Q1022 NOSIG
12-12-26 LEBL 261330Z 21008KT 9999 FEW025 15/08 Q1022 NOSIG
12-12-26 LEBL 261400Z 20009KT 9999 FEW025 15/08 Q1022 NOSIG
12-12-26 LEBL 261430Z 21009KT 9999 FEW025 15/08 Q1022 NOSIG
12-12-26 LEBL 261500Z 20007KT CAVOK 15/08 Q1023 NOSIG
12-12-26 LEBL 261530Z 21006KT CAVOK 15/08 Q1023 NOSIG
12-12-26 LEBL 261600Z 22005KT 9999 FEW025 14/08 Q1023 NOSIG
12-12-26 LEBL 261630Z 22005KT 9999 FEW025 14/09 Q1023 NOSIG
12-12-26 LEBL 261700Z 22004KT 9999 FEW025 13/09 Q1024 NOSIG
12-12-26 LEBL 261730Z 21004KT 9999 FEW025 13/09 Q1024 NOSIG
12-12-26 LEBL 261800Z 26004KT 230V340 9999 FEW025 12/09 Q1024 NOSIG
12-12-26 LEBL 261830Z 28004KT 9999 FEW025 11/08 Q1025 NOSIG
12-12-26 LEBL 261900Z 29003KT 240V330 9999 FEW025 11/08 Q1025 NOSIG
12-12-26 LEBL 261930Z 32004KT 240V350 9999 FEW025 11/07 Q1025 NOSIG
12-12-26 LEBL 262000Z 33004KT 290V350 9999 FEW025 10/06 Q1026 NOSIG
12-12-26 LEBL 262030Z 32002KT 9999 FEW025 10/05 Q1025 NOSIG
12-12-26 LEBL 262100Z 24004KT 200V300 CAVOK 10/05 Q1026 NOSIG
12-12-26 LEBL 262130Z 30005KT 250V340 CAVOK 10/05 Q1026 NOSIG
12-12-26 LEBL 262200Z 32008KT 270V350 CAVOK 09/05 Q1026 NOSIG
12-12-26 LEBL 262230Z 32009KT CAVOK 09/05 Q1026 NOSIG
12-12-26 LEBL 262300Z 32007KT CAVOK 09/05 Q1026 NOSIG
12-12-26 LEBL 262330Z 33006KT CAVOK 10/05 Q1026 NOSIG
12-12-27 LEBL 270000Z 32005KT CAVOK 08/05 Q1026 NOSIG
12-12-27 LEBL 270030Z 32007KT CAVOK 08/05 Q1026 NOSIG
12-12-27 LEBL 270100Z 33007KT CAVOK 09/05 Q1026 NOSIG
12-12-27 LEBL 270130Z 33007KT CAVOK 09/05 Q1026 NOSIG
12-12-27 LEBL 270200Z 33008KT CAVOK 09/05 Q1026 NOSIG
12-12-27 LEBL 270230Z 33010KT CAVOK 09/05 Q1026 NOSIG
12-12-27 LEBL 270300Z 33010KT CAVOK 09/05 Q1026 NOSIG
12-12-27 LEBL 270330Z 32008KT CAVOK 09/04 Q1026 NOSIG
12-12-27 LEBL 270400Z 32009KT CAVOK 09/04 Q1026 NOSIG
12-12-27 LEBL 270430Z 32009KT 9999 FEW025 08/04 Q1026 NOSIG
12-12-27 LEBL 270500Z 32011KT 9999 FEW025 08/04 Q1026 NOSIG
12-12-27 LEBL 270530Z 31011KT 9999 FEW025 08/04 Q1027 NOSIG
12-12-27 LEBL 270600Z 30006KT 260V340 CAVOK 09/03 Q1027 NOSIG
12-12-27 LEBL 270630Z 32006KT 280V010 CAVOK 08/03 Q1027 NOSIG
12-12-27 LEBL 270700Z 33009KT 9999 FEW025 08/03 Q1027 NOSIG
12-12-27 LEBL 270730Z 32007KT 9999 FEW025 08/03 Q1027 NOSIG
12-12-27 LEBL 270800Z NIL
12-12-27 LEBL 270800Z 31006KT 260V350 9999 FEW025 08/03 Q1027 NOSIG
12-12-27 LEBL 270830Z 33008KT 300V030 9999 FEW025 08/03 Q1027 NOSIG
12-12-27 LEBL 270900Z 33011KT 270V010 9999 FEW025 09/03 Q1028 NOSIG
12-12-27 LEBL 270930Z 33008KT 280V350 9999 FEW025 10/03 Q1028 NOSIG
12-12-27 LEBL 271000Z 32007KT 290V360 9999 FEW025 11/04 Q1028 NOSIG
12-12-27 LEBL 271030Z 33007KT 280V020 CAVOK 12/03 Q1028 NOSIG
12-12-27 LEBL 271100Z 28003KT 240V350 CAVOK 14/03 Q1028 NOSIG
12-12-27 LEBL 271130Z VRB02KT CAVOK 13/03 Q1027 NOSIG
12-12-27 LEBL 271200Z 28003KT 170V340 CAVOK 14/04 Q1027 NOSIG
12-12-27 LEBL 271230Z 30004KT 250V020 CAVOK 14/04 Q1026 NOSIG
12-12-27 LEBL 271300Z 29003G13KT CAVOK 15/04 Q1026 NOSIG
12-12-27 LEBL 271330Z VRB01KT CAVOK 16/06 Q1026 NOSIG
12-12-27 LEBL 271400Z VRB02KT CAVOK 16/05 Q1025 NOSIG
12-12-27 LEBL 271430Z 02004KT 280V070 CAVOK 16/04 Q1025 NOSIG
12-12-27 LEBL 271500Z 02001KT CAVOK 16/04 Q1025 NOSIG
12-12-27 LEBL 271530Z 30005KT 270V330 CAVOK 15/04 Q1025 NOSIG
12-12-27 LEBL 271600Z 33005KT 290V040 CAVOK 15/04 Q1026 NOSIG
12-12-27 LEBL 271630Z 33006KT 290V080 CAVOK 14/04 Q1026 NOSIG
12-12-27 LEBL 271700Z 33007KT 280V360 CAVOK 14/04 Q1026 NOSIG
12-12-27 LEBL 271730Z VRB02KT 9999 FEW025 13/04 Q1026 NOSIG
12-12-27 LEBL 271800Z 32007KT 200V360 9999 FEW025 12/04 Q1026 NOSIG
12-12-27 LEBL 271830Z 33008KT 260V350 9999 FEW025 12/05 Q1026 NOSIG
12-12-27 LEBL 271900Z 35007KT 9999 FEW025 11/05 Q1026 NOSIG
12-12-27 LEBL 271930Z 33009KT 9999 FEW025 11/05 Q1026 NOSIG
12-12-27 LEBL 272000Z 33010KT 260V020 9999 FEW025 11/05 Q1026 NOSIG
12-12-27 LEBL 272030Z 32011G21KT 9999 FEW025 11/05 Q1026 NOSIG
12-12-27 LEBL 272100Z 32010KT 280V350 9999 FEW025 11/05 Q1026 NOSIG
12-12-27 LEBL 272130Z 32009KT 9999 FEW025 12/05 Q1027 NOSIG
12-12-27 LEBL 272200Z 34009KT 270V040 CAVOK 12/05 Q1027 NOSIG
12-12-27 LEBL 272230Z 33007KT CAVOK 11/05 Q1027 NOSIG
12-12-27 LEBL 272300Z 31009KT CAVOK 11/05 Q1028 NOSIG
12-12-27 LEBL 272330Z 31008KT 280V350 CAVOK 12/05 Q1028 NOSIG
12-12-28 LEBL 280000Z 29016KT CAVOK 12/05 Q1028 NOSIG
12-12-28 LEBL 280030Z 32012KT CAVOK 12/05 Q1028 NOSIG
12-12-28 LEBL 280100Z 32011KT CAVOK 12/05 Q1028 NOSIG
12-12-28 LEBL 280130Z 32011KT CAVOK 11/05 Q1028 NOSIG
12-12-28 LEBL 280200Z 34012KT CAVOK 10/05 Q1028 NOSIG
12-12-28 LEBL 280230Z 34011KT 300V360 CAVOK 10/05 Q1028 NOSIG
12-12-28 LEBL 280300Z 32011KT CAVOK 10/05 Q1028 NOSIG
12-12-28 LEBL 280330Z 33012KT CAVOK 10/06 Q1028 NOSIG
12-12-28 LEBL 280400Z 33013KT CAVOK 10/05 Q1028 NOSIG
12-12-28 LEBL 280430Z 32013KT CAVOK 10/05 Q1028 NOSIG
12-12-28 LEBL 280500Z 33015KT CAVOK 10/06 Q1028 NOSIG
12-12-28 LEBL 280530Z 33012KT CAVOK 10/05 Q1029 NOSIG
12-12-28 LEBL 280600Z 33011KT 310V010 CAVOK 10/05 Q1029 NOSIG
12-12-28 LEBL 280630Z 33011KT CAVOK 09/05 Q1030 NOSIG
12-12-28 LEBL 280700Z 32009KT 9999 FEW025 09/05 Q1030 NOSIG
12-12-28 LEBL 280730Z 32014KT 9999 FEW025 09/05 Q1030 NOSIG
12-12-28 LEBL 280800Z 32013KT 300V360 9999 FEW025 09/05 Q1031 NOSIG
12-12-28 LEBL 280830Z 33013KT 9999 SCT022 10/05 Q1031 NOSIG
12-12-28 LEBL 280900Z 33013KT 9999 FEW022 11/06 Q1031 NOSIG
12-12-28 LEBL 280930Z 32011KT 9999 SCT022 11/06 Q1032 NOSIG
12-12-28 LEBL 281000Z 32013KT 290V350 9999 SCT022 11/05 Q1032 NOSIG
12-12-28 LEBL 281030Z 33013KT 9999 SCT022 11/06 Q1032 NOSIG
12-12-28 LEBL 281100Z 33012KT 300V360 9999 SCT022 12/06 Q1032 NOSIG
12-12-28 LEBL 281130Z 33010KT 9999 SCT022 13/06 Q1032 NOSIG
12-12-28 LEBL 281200Z 32008KT 280V070 9999 FEW025 14/07 Q1031 NOSIG
12-12-28 LEBL 281230Z 32007G17KT 270V350 9999 FEW022 14/07 Q1030 NOSIG
12-12-28 LEBL 281300Z 32006KT 290V020 9999 FEW022 15/08 Q1030 NOSIG
12-12-28 LEBL 281330Z 31004KT 9999 FEW021 16/08 Q1030 NOSIG
12-12-28 LEBL 281400Z 31005KT 260V360 9999 FEW021 15/08 Q1030 NOSIG
12-12-28 LEBL 281430Z 28004KT 250V310 9999 FEW021 15/08 Q1030 NOSIG
12-12-28 LEBL 281500Z 27004KT 240V330 9999 FEW025 16/11 Q1029 NOSIG
12-12-28 LEBL 281530Z 22005KT 9999 FEW025 16/11 Q1030 NOSIG
12-12-28 LEBL 281600Z VRB02KT 9999 FEW025 15/11 Q1029 NOSIG
12-12-28 LEBL 281630Z VRB02KT 9999 FEW025 15/11 Q1029 NOSIG
12-12-28 LEBL 281700Z 27003KT 220V340 9999 FEW025 14/11 Q1029 NOSIG
12-12-28 LEBL 281730Z 33006KT 9999 FEW025 13/09 Q1029 NOSIG
12-12-28 LEBL 281800Z 32007KT 9999 FEW025 12/08 Q1029 NOSIG
12-12-28 LEBL 281830Z 32007KT 9999 FEW025 12/07 Q1030 NOSIG
12-12-28 LEBL 281900Z 32006KT 250V350 9999 FEW025 11/07 Q1030 NOSIG
12-12-28 LEBL 281930Z 31006KT 240V350 9999 FEW025 11/07 Q1029 NOSIG
12-12-28 LEBL 282000Z 32006KT 270V010 9999 FEW025 11/08 Q1029 NOSIG
12-12-28 LEBL 282030Z 32006KT 260V340 9999 FEW025 11/07 Q1029 NOSIG
12-12-28 LEBL 282100Z 32008KT 9999 FEW025 11/07 Q1029 NOSIG
12-12-28 LEBL 282130Z 32009KT 290V010 9999 FEW025 10/07 Q1029 NOSIG
12-12-28 LEBL 282200Z 31008KT 260V340 9999 FEW025 10/07 Q1029 NOSIG
12-12-28 LEBL 282230Z 31009KT 9999 FEW025 10/07 Q1029 NOSIG
12-12-28 LEBL 282300Z 32008KT 9999 FEW025 10/07 Q1028 NOSIG
12-12-28 LEBL 282330Z 31008KT 9999 FEW025 10/07 Q1028 NOSIG
12-12-29 LEBL 290000Z 31010KT 9999 FEW025 09/06 Q1028 NOSIG
12-12-29 LEBL 290030Z 32009KT 9999 FEW025 09/06 Q1027 NOSIG
12-12-29 LEBL 290100Z 32010KT 9999 FEW025 09/06 Q1027 NOSIG
12-12-29 LEBL 290130Z 32008KT 9999 FEW025 09/06 Q1027 NOSIG
12-12-29 LEBL 290200Z 30007KT 9999 FEW025 09/06 Q1026 NOSIG
12-12-29 LEBL 290230Z 32009KT 9999 FEW025 08/05 Q1026 NOSIG
12-12-29 LEBL 290300Z 31009KT 9999 FEW025 08/05 Q1026 NOSIG
12-12-29 LEBL 290330Z 31008KT 9999 FEW025 08/05 Q1026 NOSIG
12-12-29 LEBL 290400Z 31008KT 9999 FEW025 07/05 Q1025 NOSIG
12-12-29 LEBL 290430Z 32009KT 9999 FEW025 07/05 Q1025 NOSIG
12-12-29 LEBL 290500Z 31009KT 9999 FEW025 07/05 Q1025 NOSIG
12-12-29 LEBL 290530Z 32009KT 9999 FEW025 07/04 Q1025 NOSIG
12-12-29 LEBL 290600Z 32008KT 9999 FEW025 07/04 Q1024 NOSIG
12-12-29 LEBL 290630Z 31007KT 250V360 9999 FEW025 07/04 Q1024 NOSIG
12-12-29 LEBL 290700Z 31006KT 290V350 9999 FEW025 06/04 Q1024 NOSIG
12-12-29 LEBL 290730Z 31005KT 260V340 9999 FEW025 07/04 Q1024 NOSIG
12-12-29 LEBL 290800Z 31007KT 9999 FEW025 07/04 Q1024 NOSIG
12-12-29 LEBL 290830Z 30007KT 220V340 9999 FEW025 08/05 Q1024 NOSIG
12-12-29 LEBL 290900Z 31006KT 260V360 9999 FEW025 09/05 Q1024 NOSIG
12-12-29 LEBL 290930Z 31007KT 250V330 9999 FEW025 10/06 Q1024 NOSIG
12-12-29 LEBL 291000Z 31006KT 260V340 9999 FEW025 12/08 Q1024 NOSIG
12-12-29 LEBL 291030Z 28004KT 220V340 9999 FEW025 14/11 Q1024 NOSIG
12-12-29 LEBL 291100Z 22014KT 9999 FEW025 14/11 Q1024 NOSIG
12-12-29 LEBL 291130Z 22016KT 9999 FEW025 14/11 Q1023 NOSIG
12-12-29 LEBL 291200Z 22013KT 9999 FEW025 14/11 Q1023 NOSIG
12-12-29 LEBL 291230Z 22014KT 9999 FEW025 14/11 Q1022 NOSIG
12-12-29 LEBL 291300Z 23014KT 9999 FEW025 15/11 Q1021 NOSIG
12-12-29 LEBL 291330Z 23017KT 9999 FEW025 15/11 Q1021 NOSIG
12-12-29 LEBL 291400Z 23014KT 9999 FEW025 15/11 Q1021 NOSIG
12-12-29 LEBL 291430Z 23015KT 9999 FEW025 15/11 Q1020 NOSIG
12-12-29 LEBL 291500Z 23013KT 9999 FEW025 15/11 Q1020 NOSIG
12-12-29 LEBL 291530Z 23011KT 9999 FEW025 14/11 Q1020 NOSIG
12-12-29 LEBL 291600Z 23013KT 9999 FEW025 14/11 Q1020 NOSIG
12-12-29 LEBL 291630Z 24009KT 9999 FEW010 13/11 Q1020 NOSIG
12-12-29 LEBL 291700Z 24011KT 9999 FEW010 13/11 Q1020 NOSIG
12-12-29 LEBL 291730Z 24008KT 9999 FEW025 12/10 Q1020 NOSIG
12-12-29 LEBL 291800Z 25007KT 9999 FEW025 12/10 Q1020 NOSIG
12-12-29 LEBL 291830Z 23014KT 9999 FEW025 12/10 Q1020 NOSIG
12-12-29 LEBL 291900Z 23010KT 9999 FEW025 12/10 Q1020 NOSIG
12-12-29 LEBL 291930Z 29006KT 260V330 9999 FEW025 11/09 Q1021 NOSIG
12-12-29 LEBL 292000Z 27004KT 240V310 9999 FEW025 12/10 Q1021 NOSIG
12-12-29 LEBL 292030Z 26005KT 9999 FEW025 11/09 Q1021 NOSIG
12-12-29 LEBL 292100Z 26001KT 9999 FEW025 11/09 Q1021 NOSIG
12-12-29 LEBL 292130Z 09005KT 9999 FEW025 11/06 Q1022 NOSIG
12-12-29 LEBL 292200Z 02006KT 340V070 9999 FEW030 11/05 Q1022 NOSIG
12-12-29 LEBL 292230Z 32008KT 9999 FEW030 13/04 Q1022 NOSIG
12-12-29 LEBL 292300Z 32008KT 9999 FEW030 11/04 Q1023 NOSIG
12-12-29 LEBL 292330Z 32011KT 9999 FEW030 11/04 Q1023 NOSIG
12-12-30 LEBL 300000Z 32011KT 9999 FEW030 11/04 Q1023 NOSIG
12-12-30 LEBL 300030Z 32007KT 9999 FEW030 10/04 Q1024 NOSIG
12-12-30 LEBL 300100Z 35001KT 9999 FEW030 10/04 Q1024 NOSIG
12-12-30 LEBL 300130Z 32012KT 9999 FEW030 09/04 Q1024 NOSIG
12-12-30 LEBL 300200Z 33010KT 9999 FEW030 10/04 Q1024 NOSIG
12-12-30 LEBL 300230Z 33011KT 9999 FEW030 09/04 Q1025 NOSIG
12-12-30 LEBL 300300Z 33009KT 9999 FEW030 09/04 Q1025 NOSIG
12-12-30 LEBL 300330Z 32009KT 9999 FEW030 09/04 Q1025 NOSIG
12-12-30 LEBL 300400Z 33014KT 9999 FEW030 SCT050 09/04 Q1025 NOSIG
12-12-30 LEBL 300430Z NIL
12-12-30 LEBL 300430Z 32011KT 9999 FEW030 SCT050 09/04 Q1026 NOSIG
12-12-30 LEBL 300500Z NIL
12-12-30 LEBL 300500Z 33009KT 9999 FEW030 SCT050 09/04 Q1026 NOSIG
12-12-30 LEBL 300530Z 32009KT 9999 FEW030 SCT050 08/04 Q1026 NOSIG
12-12-30 LEBL 300600Z 33009KT 9999 FEW030 SCT050 08/04 Q1026 NOSIG
12-12-30 LEBL 300630Z 32009KT 9999 FEW030 08/04 Q1027 NOSIG
12-12-30 LEBL 300700Z 33010KT 9999 FEW030 08/03 Q1027 NOSIG
12-12-30 LEBL 300730Z 33012KT 310V020 9999 FEW030 07/03 Q1027 NOSIG
12-12-30 LEBL 300800Z 33011KT 9999 FEW030 07/03 Q1028 NOSIG
12-12-30 LEBL 300830Z 32012KT 270V360 9999 FEW030 07/03 Q1028 NOSIG
12-12-30 LEBL 300900Z 32013KT 9999 FEW030 08/03 Q1028 NOSIG
12-12-30 LEBL 300930Z 32013KT 9999 FEW030 09/03 Q1029 NOSIG
12-12-30 LEBL 301000Z 32012KT 290V360 9999 FEW030 10/03 Q1029 NOSIG
12-12-30 LEBL 301030Z 33013KT 9999 FEW030 11/04 Q1029 NOSIG
12-12-30 LEBL 301100Z 33013KT 300V010 9999 FEW030 12/03 Q1029 NOSIG
12-12-30 LEBL 301130Z 33012KT 9999 FEW030 12/04 Q1029 NOSIG
12-12-30 LEBL 301200Z 32010G21KT 290V350 CAVOK 13/03 Q1028 NOSIG
12-12-30 LEBL 301230Z 32009KT 290V350 CAVOK 13/03 Q1028 NOSIG
12-12-30 LEBL 301300Z 32008KT 280V350 CAVOK 14/02 Q1028 NOSIG
12-12-30 LEBL 301330Z 32006KT CAVOK 14/02 Q1027 NOSIG
12-12-30 LEBL 301400Z 30004KT 250V360 CAVOK 15/02 Q1027 NOSIG
12-12-30 LEBL 301430Z 11003KT 060V130 CAVOK 15/04 Q1027 NOSIG
12-12-30 LEBL 301500Z 16004KT 130V210 CAVOK 14/06 Q1028 NOSIG
12-12-30 LEBL 301530Z 20004KT CAVOK 13/06 Q1028 NOSIG
12-12-30 LEBL 301600Z 22005KT CAVOK 13/06 Q1028 NOSIG
12-12-30 LEBL 301630Z 24003KT 9999 FEW020 12/07 Q1028 NOSIG
12-12-30 LEBL 301700Z 26004KT 230V290 9999 FEW025 12/06 Q1028 NOSIG
12-12-30 LEBL 301730Z 28003KT 260V330 9999 FEW025 12/07 Q1029 NOSIG
12-12-30 LEBL 301800Z 30003KT 260V010 9999 FEW025 11/07 Q1029 NOSIG
12-12-30 LEBL 301830Z 33003KT 290V030 9999 FEW030 10/06 Q1029 NOSIG
12-12-30 LEBL 301900Z 33005KT 9999 FEW030 10/05 Q1029 NOSIG
12-12-30 LEBL 301930Z 33006KT 9999 FEW030 10/04 Q1029 NOSIG
12-12-30 LEBL 302000Z 33006KT 250V010 9999 FEW030 09/04 Q1029 NOSIG
12-12-30 LEBL 302030Z 33006KT 250V010 9999 FEW030 09/04 Q1029 NOSIG
12-12-30 LEBL 302100Z 33009KT 9999 FEW030 10/03 Q1029 NOSIG
12-12-30 LEBL 302130Z 33009KT 260V360 9999 FEW030 09/03 Q1029 NOSIG
12-12-30 LEBL 302200Z 33010KT 9999 FEW030 09/03 Q1029 NOSIG
12-12-30 LEBL 302230Z 32011KT 9999 FEW030 09/03 Q1029 NOSIG
12-12-30 LEBL 302300Z 33010KT 9999 FEW030 08/03 Q1029 NOSIG
12-12-30 LEBL 302330Z 33011KT 9999 FEW030 08/03 Q1029 NOSIG
12-12-31 LEBL 310000Z 32012KT 9999 FEW030 08/03 Q1029 NOSIG
12-12-31 LEBL 310030Z 32011KT 9999 FEW030 07/03 Q1029 NOSIG
12-12-31 LEBL 310100Z 32013KT 9999 FEW030 07/03 Q1029 NOSIG
12-12-31 LEBL 310130Z 32012KT 9999 FEW030 07/03 Q1028 NOSIG
12-12-31 LEBL 310200Z 32012KT CAVOK 07/03 Q1028 NOSIG
12-12-31 LEBL 310230Z 32013KT CAVOK 06/03 Q1028 NOSIG
12-12-31 LEBL 310300Z 33012KT 9999 FEW030 06/03 Q1028 NOSIG
12-12-31 LEBL 310330Z 32012KT 9999 FEW030 06/03 Q1028 NOSIG
12-12-31 LEBL 310400Z 32013KT 9999 FEW030 06/03 Q1028 NOSIG
12-12-31 LEBL 310430Z 32013KT 9999 FEW030 06/02 Q1027 NOSIG
12-12-31 LEBL 310500Z 32013KT 9999 FEW030 05/02 Q1027 NOSIG
12-12-31 LEBL 310530Z 33013KT 9999 FEW030 05/02 Q1027 NOSIG
12-12-31 LEBL 310600Z 33012KT 9999 FEW030 05/02 Q1027 NOSIG
12-12-31 LEBL 310630Z 33012KT 9999 FEW030 05/02 Q1027 NOSIG
12-12-31 LEBL 310700Z 33012KT 9999 FEW030 05/02 Q1027 NOSIG
12-12-31 LEBL 310730Z 33012KT 9999 FEW030 05/02 Q1027 NOSIG
12-12-31 LEBL 310800Z 32013KT 9999 FEW030 05/02 Q1027 NOSIG
12-12-31 LEBL 310830Z 32013KT 9999 FEW030 05/02 Q1027 NOSIG
12-12-31 LEBL 310900Z 33013KT 9999 FEW030 06/02 Q1027 NOSIG
12-12-31 LEBL 310930Z 33011KT 290V360 9999 FEW030 07/03 Q1027 NOSIG
12-12-31 LEBL 311000Z 32009KT 290V350 9999 FEW030 08/03 Q1027 NOSIG
12-12-31 LEBL 311030Z 33008KT 9999 FEW030 09/04 Q1027 NOSIG
12-12-31 LEBL 311100Z 31006KT 250V350 9999 FEW030 10/04 Q1026 NOSIG
12-12-31 LEBL 311130Z 29005KT 240V330 9999 FEW030 12/05 Q1025 NOSIG
12-12-31 LEBL 311200Z 22007KT CAVOK 13/07 Q1025 NOSIG
12-12-31 LEBL 311230Z 21010KT CAVOK 13/06 Q1024 NOSIG
12-12-31 LEBL 311300Z 22012KT CAVOK 13/06 Q1023 NOSIG
12-12-31 LEBL 311330Z 23012KT CAVOK 13/06 Q1022 NOSIG
12-12-31 LEBL 311400Z 22016KT 9999 FEW030 13/06 Q1022 NOSIG
12-12-31 LEBL 311430Z 24015KT 9999 FEW030 14/05 Q1022 NOSIG
12-12-31 LEBL 311500Z 23017KT 9999 FEW030 13/05 Q1021 NOSIG
12-12-31 LEBL 311530Z 23014KT 9999 FEW030 13/07 Q1021 NOSIG
12-12-31 LEBL 311600Z 23016KT 9999 FEW030 13/07 Q1021 NOSIG
12-12-31 LEBL 311630Z NIL
12-12-31 LEBL 311630Z 23012KT 9999 FEW030 12/08 Q1021 NOSIG
12-12-31 LEBL 311700Z 23012KT 9999 FEW030 12/08 Q1021 NOSIG
12-12-31 LEBL 311730Z 24010KT 9999 FEW020 12/08 Q1020 NOSIG
12-12-31 LEBL 311800Z 25008KT 220V280 9999 SCT020 11/08 Q1020 NOSIG
12-12-31 LEBL 311830Z 25007KT 9999 SCT020 11/08 Q1020 NOSIG
12-12-31 LEBL 311900Z 25006KT 9999 FEW020 10/08 Q1020 NOSIG
12-12-31 LEBL 311930Z 25009KT 9999 FEW020 10/08 Q1020 NOSIG
12-12-31 LEBL 312000Z 25009KT 9999 FEW020 10/07 Q1019 NOSIG
12-12-31 LEBL 312030Z 26007KT 9999 FEW020 10/07 Q1019 NOSIG
12-12-31 LEBL 312100Z 25007KT 9999 FEW020 09/07 Q1019 NOSIG
12-12-31 LEBL 312130Z 25008KT 9999 FEW020 10/07 Q1019 NOSIG
12-12-31 LEBL 312200Z 26008KT 9999 FEW020 09/07 Q1018 NOSIG
12-12-31 LEBL 312230Z 25008KT 9999 FEW020 09/06 Q1018 NOSIG
12-12-31 LEBL 312300Z 26008KT 9999 FEW020 09/06 Q1018 NOSIG
12-12-31 LEBL 312330Z 30004KT 9999 FEW020 09/07 Q1017 NOSIG
13-01-01 LEBL 010000Z 32005KT 9999 FEW020 09/06 Q1017 NOSIG
13-01-01 LEBL 010030Z 31004KT 9999 FEW020 08/05 Q1017 NOSIG
13-01-01 LEBL 010100Z 32004KT 9999 FEW020 07/05 Q1016 NOSIG
13-01-01 LEBL 010130Z 31004KT 9999 FEW020 07/05 Q1016 NOSIG
13-01-01 LEBL 010200Z 32007KT 9999 FEW020 07/04 Q1016 NOSIG
13-01-01 LEBL 010230Z 32008KT 9999 FEW020 07/04 Q1015 NOSIG
13-01-01 LEBL 010300Z 32009KT 9999 FEW020 07/04 Q1015 NOSIG
13-01-01 LEBL 010330Z 32008KT 9999 FEW020 08/04 Q1015 NOSIG
13-01-01 LEBL 010400Z 31006KT 9999 FEW022 08/03 Q1014 NOSIG
13-01-01 LEBL 010430Z 31007KT 9999 FEW022 07/03 Q1014 NOSIG
13-01-01 LEBL 010500Z 32006KT 9999 FEW025 07/04 Q1014 NOSIG
13-01-01 LEBL 010530Z 32007KT 9999 FEW025 07/03 Q1014 NOSIG
13-01-01 LEBL 010600Z 32003KT 300V010 9999 FEW025 08/03 Q1015 NOSIG
13-01-01 LEBL 010630Z 33003KT 9999 FEW025 07/03 Q1015 NOSIG
13-01-01 LEBL 010700Z 31007KT 9999 FEW025 08/03 Q1015 NOSIG
13-01-01 LEBL 010730Z 31008KT 270V340 9999 FEW025 08/03 Q1015 NOSIG
13-01-01 LEBL 010800Z 33008KT 9999 FEW025 08/03 Q1016 NOSIG
13-01-01 LEBL 010830Z 33008KT 310V020 9999 FEW025 08/03 Q1016 NOSIG
13-01-01 LEBL 010900Z 33010KT 290V350 9999 FEW025 08/03 Q1017 NOSIG
13-01-01 LEBL 010930Z 32010KT 9999 FEW025 08/03 Q1017 NOSIG
13-01-01 LEBL 011000Z 32010KT 290V350 9999 FEW025 09/03 Q1017 NOSIG
13-01-01 LEBL 011030Z 32010KT 280V340 9999 FEW025 SCT056 09/03 Q1017 NOSIG
13-01-01 LEBL 011100Z 32007KT 9999 FEW025 SCT056 10/04 Q1017 NOSIG
13-01-01 LEBL 011130Z 31010KT 9999 FEW025 SCT056 10/04 Q1017 NOSIG
13-01-01 LEBL 011200Z 30011KT 9999 FEW025 10/04 Q1016 NOSIG
13-01-01 LEBL 011230Z 31011KT 9999 FEW025 11/04 Q1016 NOSIG
13-01-01 LEBL 011300Z 32009KT 280V340 9999 FEW025 11/04 Q1016 NOSIG
13-01-01 LEBL 011330Z 31007KT 230V350 9999 FEW025 SCT055 11/04 Q1016 NOSIG
13-01-01 LEBL 011400Z 34008KT 310V020 9999 FEW025 BKN055 11/05 Q1016 NOSIG
13-01-01 LEBL 011430Z 03008KT 340V080 9999 FEW025 BKN055 12/05 Q1016 NOSIG
13-01-01 LEBL 011500Z 03006KT 350V060 9999 FEW025 BKN055 12/05 Q1017 NOSIG
13-01-01 LEBL 011530Z 03005KT 340V080 9999 FEW025 SCT055 12/06 Q1017 NOSIG
13-01-01 LEBL 011600Z 34007KT 290V010 9999 FEW025 SCT045 12/06 Q1017 NOSIG
13-01-01 LEBL 011630Z 33007KT 260V010 9999 FEW025 SCT045 11/06 Q1017 NOSIG
13-01-01 LEBL 011700Z 32007KT 290V350 9999 FEW025 SCT045 11/06 Q1017 NOSIG
13-01-01 LEBL 011730Z 32008KT 270V350 9999 FEW025 SCT045 10/06 Q1018 NOSIG
13-01-01 LEBL 011800Z 34008KT 270V350 9999 FEW025 SCT045 10/06 Q1018 NOSIG
13-01-01 LEBL 011830Z 33008KT 9999 FEW025 SCT045 09/05 Q1018 NOSIG
13-01-01 LEBL 011900Z 30007KT 9999 FEW025 09/05 Q1018 NOSIG
13-01-01 LEBL 011930Z 30006KT 260V340 9999 FEW025 09/05 Q1018 NOSIG
13-01-01 LEBL 012000Z 32009KT 260V340 9999 FEW025 09/05 Q1018 NOSIG
13-01-01 LEBL 012030Z 32007KT 9999 FEW025 09/05 Q1019 NOSIG
13-01-01 LEBL 012100Z 33008KT 9999 FEW025 08/05 Q1019 NOSIG
13-01-01 LEBL 012130Z 32008KT 290V350 9999 FEW025 08/05 Q1019 NOSIG
13-01-01 LEBL 012200Z 32009KT 290V350 9999 FEW025 08/05 Q1019 NOSIG
13-01-01 LEBL 012230Z 33009KT 9999 FEW025 07/05 Q1019 NOSIG
13-01-01 LEBL 012300Z 32010KT 9999 FEW025 07/05 Q1019 NOSIG
13-01-01 LEBL 012330Z 33011KT 9999 FEW025 07/05 Q1019 NOSIG
13-01-02 LEBL 020000Z 32006KT 9999 FEW025 07/05 Q1019 NOSIG
13-01-02 LEBL 020030Z 33007KT 9999 FEW025 07/05 Q1019 NOSIG
13-01-02 LEBL 020100Z 31008KT 9999 FEW025 07/04 Q1019 NOSIG
13-01-02 LEBL 020130Z 33006KT 290V360 9999 FEW025 06/04 Q1019 NOSIG
13-01-02 LEBL 020200Z 33008KT 9999 FEW025 06/04 Q1020 NOSIG
13-01-02 LEBL 020230Z 33011KT 9999 FEW025 06/04 Q1020 NOSIG
13-01-02 LEBL 020300Z 32012KT 9999 FEW025 06/04 Q1020 NOSIG
13-01-02 LEBL 020330Z 31012KT 9999 FEW025 06/04 Q1020 NOSIG
13-01-02 LEBL 020400Z 33013KT 9999 FEW025 06/04 Q1020 NOSIG
13-01-02 LEBL 020430Z 32012KT 9999 FEW025 06/04 Q1020 NOSIG
13-01-02 LEBL 020500Z 33010KT 9999 FEW025 06/04 Q1020 NOSIG
13-01-02 LEBL 020530Z 32010KT 9999 FEW025 06/04 Q1020 NOSIG
13-01-02 LEBL 020600Z 32010KT 9999 FEW025 06/04 Q1021 NOSIG
13-01-02 LEBL 020630Z 33011KT 9999 FEW025 06/04 Q1021 NOSIG
13-01-02 LEBL 020700Z 33011KT 9999 FEW025 06/04 Q1021 NOSIG
13-01-02 LEBL 020730Z 32013KT 9999 FEW025 06/04 Q1021 NOSIG
13-01-02 LEBL 020800Z 32012KT 9999 FEW025 06/04 Q1022 NOSIG
13-01-02 LEBL 020830Z 33010KT 9999 FEW025 07/04 Q1022 NOSIG
13-01-02 LEBL 020900Z 32009KT 9999 FEW025 08/04 Q1022 NOSIG
13-01-02 LEBL 020930Z 32010KT 9999 FEW025 08/04 Q1022 NOSIG
13-01-02 LEBL 021000Z 31007KT 9999 FEW020 09/05 Q1023 NOSIG
13-01-02 LEBL 021030Z 32007G18KT 290V360 9999 FEW020 10/05 Q1023 NOSIG
13-01-02 LEBL 021100Z 33008G19KT 280V020 9999 FEW020 11/05 Q1023 NOSIG
13-01-02 LEBL 021130Z 34008KT 9999 FEW020 12/05 Q1022 NOSIG
13-01-02 LEBL 021200Z 31005KT 9999 FEW025 13/05 Q1022 NOSIG
13-01-02 LEBL 021230Z VRB02KT 9999 FEW025 13/05 Q1022 NOSIG
13-01-02 LEBL 021300Z 27002KT 9999 FEW025 14/07 Q1022 NOSIG
13-01-02 LEBL 021330Z 21005KT 170V250 9999 FEW025 14/07 Q1022 NOSIG
13-01-02 LEBL 021400Z 21003KT 160V240 9999 FEW025 14/06 Q1022 NOSIG
13-01-02 LEBL 021430Z 20003KT 150V240 9999 FEW025 14/06 Q1022 NOSIG
13-01-02 LEBL 021500Z 21003KT 170V250 9999 FEW025 15/05 Q1022 NOSIG
13-01-02 LEBL 021530Z 16005KT 9999 FEW025 14/05 Q1022 NOSIG
13-01-02 LEBL 021600Z 19003KT 9999 FEW025 13/06 Q1022 NOSIG
13-01-02 LEBL 021630Z 24005KT 220V300 9999 FEW025 13/06 Q1023 NOSIG
13-01-02 LEBL 021700Z 31005KT 280V340 9999 FEW025 12/05 Q1023 NOSIG
13-01-02 LEBL 021730Z 33008KT 280V010 9999 FEW035 11/05 Q1023 NOSIG
13-01-02 LEBL 021800Z 33007KT 270V010 9999 FEW040 10/05 Q1024 NOSIG
13-01-02 LEBL 021830Z 34005KT 270V010 9999 FEW040 10/05 Q1024 NOSIG
13-01-02 LEBL 021900Z 33004KT 290V020 9999 FEW040 10/05 Q1025 NOSIG
13-01-02 LEBL 021930Z 32009KT 9999 FEW040 09/05 Q1025 NOSIG
13-01-02 LEBL 022000Z 33008KT 280V010 9999 FEW030 08/05 Q1026 NOSIG
13-01-02 LEBL 022030Z 33006KT 9999 FEW030 08/05 Q1026 NOSIG
13-01-02 LEBL 022100Z 32007KT 9999 FEW030 08/04 Q1026 NOSIG
13-01-02 LEBL 022130Z 33009KT 280V010 9999 FEW030 08/04 Q1027 NOSIG
13-01-02 LEBL 022200Z 33009KT 280V350 9999 FEW030 08/04 Q1027 NOSIG
13-01-02 LEBL 022230Z 33009KT 9999 FEW030 07/04 Q1027 NOSIG
13-01-02 LEBL 022300Z 33010KT 9999 FEW030 07/04 Q1028 NOSIG
13-01-02 LEBL 022330Z 33010KT 9999 FEW030 07/04 Q1028 NOSIG
13-01-03 LEBL 030000Z 32010KT 9999 FEW030 07/04 Q1028 NOSIG
13-01-03 LEBL 030030Z 33011KT 9999 FEW025 07/04 Q1029 NOSIG
13-01-03 LEBL 030100Z 33012KT 9999 FEW025 06/04 Q1029 NOSIG
13-01-03 LEBL 030130Z 33013KT 9999 FEW025 06/03 Q1029 NOSIG
13-01-03 LEBL 030200Z 32014KT 9999 FEW025 05/03 Q1030 NOSIG
13-01-03 LEBL 030230Z 33014KT 9999 FEW025 05/03 Q1030 NOSIG
13-01-03 LEBL 030300Z 33012KT 9999 FEW025 05/02 Q1030 NOSIG
13-01-03 LEBL 030330Z 33014KT 9999 FEW025 05/02 Q1030 NOSIG
13-01-03 LEBL 030400Z 34013KT 9999 FEW025 05/02 Q1031 NOSIG
13-01-03 LEBL 030430Z 33014KT 9999 FEW025 05/02 Q1031 NOSIG
13-01-03 LEBL 030500Z 32016KT 9999 FEW025 05/02 Q1031 NOSIG
13-01-03 LEBL 030530Z 33015KT 9999 FEW025 05/02 Q1032 NOSIG
13-01-03 LEBL 030600Z 33012KT 9999 FEW025 05/01 Q1032 NOSIG
13-01-03 LEBL 030630Z 33014KT 9999 FEW025 05/01 Q1033 NOSIG
13-01-03 LEBL 030700Z 32017KT 9999 FEW025 05/01 Q1033 NOSIG
13-01-03 LEBL 030730Z 33014KT 9999 FEW025 SCT055 05/01 Q1034 NOSIG
13-01-03 LEBL 030800Z 32017KT 9999 FEW025 SCT055 05/01 Q1034 NOSIG
13-01-03 LEBL 030830Z 33017KT 300V360 9999 FEW025 SCT055 05/01 Q1034 NOSIG
13-01-03 LEBL 030900Z 32016KT 9999 FEW025 SCT055 06/01 Q1035 NOSIG
13-01-03 LEBL 030930Z 33013KT 9999 FEW025 SCT055 06/01 Q1035 NOSIG
13-01-03 LEBL 031000Z 33012KT 300V010 9999 FEW025 SCT055 08/01 Q1036 NOSIG
13-01-03 LEBL 031030Z 33013KT 9999 FEW025 SCT055 09/01 Q1036 NOSIG
13-01-03 LEBL 031100Z 33012KT 9999 FEW025 SCT055 10/01 Q1036 NOSIG
13-01-03 LEBL 031130Z 32011KT 9999 FEW025 SCT055 12/01 Q1036 NOSIG
13-01-03 LEBL 031200Z 32011G26KT 9999 FEW025 13/00 Q1036 NOSIG
13-01-03 LEBL 031230Z 32009G19KT 9999 FEW025 13/M00 Q1035 NOSIG
13-01-03 LEBL 031300Z 31009KT CAVOK 14/M01 Q1035 NOSIG
13-01-03 LEBL 031330Z 32006KT CAVOK 15/M00 Q1035 NOSIG
13-01-03 LEBL 031400Z 03007KT 340V070 CAVOK 15/M00 Q1035 NOSIG
13-01-03 LEBL 031430Z 08006KT CAVOK 16/M01 Q1035 NOSIG
13-01-03 LEBL 031500Z 07006KT CAVOK 16/M02 Q1035 NOSIG
13-01-03 LEBL 031530Z 07005KT CAVOK 15/M02 Q1036 NOSIG
13-01-03 LEBL 031600Z 08004KT CAVOK 15/M01 Q1036 NOSIG
13-01-03 LEBL 031630Z VRB02KT CAVOK 14/M00 Q1036 NOSIG
13-01-03 LEBL 031700Z 10003KT CAVOK 13/07 Q1037 NOSIG
13-01-03 LEBL 031730Z 10003KT CAVOK 12/07 Q1037 NOSIG
13-01-03 LEBL 031800Z 29004KT CAVOK 10/03 Q1037 NOSIG
13-01-03 LEBL 031830Z 31005KT 290V350 CAVOK 10/03 Q1038 NOSIG
13-01-03 LEBL 031900Z 33007KT 290V350 CAVOK 09/02 Q1038 NOSIG
13-01-03 LEBL 031930Z 32005KT 230V360 CAVOK 09/02 Q1038 NOSIG
13-01-03 LEBL 032000Z 33006KT 250V040 CAVOK 09/01 Q1038 NOSIG
13-01-03 LEBL 032030Z 33006KT 300V010 CAVOK 09/01 Q1038 NOSIG
13-01-03 LEBL 032100Z 32007KT CAVOK 09/01 Q1038 NOSIG
13-01-03 LEBL 032130Z 32008KT 280V350 CAVOK 09/01 Q1038 NOSIG
13-01-03 LEBL 032200Z 33009G21KT CAVOK 08/01 Q1038 NOSIG
13-01-03 LEBL 032230Z 33011KT CAVOK 08/01 Q1038 NOSIG
13-01-03 LEBL 032300Z 33010KT CAVOK 08/01 Q1038 NOSIG
13-01-03 LEBL 032330Z 33012KT CAVOK 08/01 Q1038 NOSIG
13-01-04 LEBL 040000Z 33012KT CAVOK 07/01 Q1037 NOSIG
13-01-04 LEBL 040030Z 32011KT CAVOK 07/01 Q1037 NOSIG
13-01-04 LEBL 040100Z 33012KT CAVOK 07/01 Q1037 NOSIG
13-01-04 LEBL 040130Z 32013KT CAVOK 07/01 Q1037 NOSIG
13-01-04 LEBL 040200Z 33013KT CAVOK 07/01 Q1036 NOSIG
13-01-04 LEBL 040230Z 33014KT CAVOK 07/01 Q1036 NOSIG
13-01-04 LEBL 040300Z 33015KT CAVOK 07/01 Q1036 NOSIG
13-01-04 LEBL 040330Z 33014KT CAVOK 07/01 Q1036 NOSIG
13-01-04 LEBL 040400Z 33013KT CAVOK 07/01 Q1036 NOSIG
13-01-04 LEBL 040430Z 32013KT CAVOK 07/01 Q1035 NOSIG
13-01-04 LEBL 040500Z 32013KT CAVOK 07/01 Q1035 NOSIG
13-01-04 LEBL 040530Z 31014KT CAVOK 07/01 Q1035 NOSIG
13-01-04 LEBL 040600Z 32015KT CAVOK 07/01 Q1035 NOSIG
13-01-04 LEBL 040630Z 32017KT CAVOK 07/01 Q1035 NOSIG
13-01-04 LEBL 040700Z 31016KT CAVOK 08/01 Q1035 NOSIG
13-01-04 LEBL 040730Z 31015KT 9999 FEW025 08/01 Q1035 NOSIG
13-01-04 LEBL 040800Z 31016G27KT 9999 FEW025 08/01 Q1035 NOSIG
13-01-04 LEBL 040830Z 32017KT 9999 FEW025 08/01 Q1035 NOSIG
13-01-04 LEBL 040900Z 32020KT 280V340 CAVOK 09/01 Q1035 NOSIG
13-01-04 LEBL 040930Z 32017KT CAVOK 10/01 Q1035 NOSIG
13-01-04 LEBL 041000Z 32016KT CAVOK 11/02 Q1035 NOSIG
13-01-04 LEBL 041030Z 32017KT CAVOK 12/01 Q1035 NOSIG
13-01-04 LEBL 041100Z 31019KT CAVOK 11/01 Q1034 NOSIG
13-01-04 LEBL 041130Z 31020G30KT 9999 FEW030 13/02 Q1034 NOSIG
13-01-04 LEBL 041200Z 32013KT 9999 FEW030 14/02 Q1034 NOSIG
13-01-04 LEBL 041230Z 32015G27KT 9999 FEW030 14/02 Q1033 NOSIG
13-01-04 LEBL 041300Z 31014KT 9999 FEW030 15/02 Q1033 NOSIG
13-01-04 LEBL 041330Z 30011KT 260V330 9999 FEW030 15/02 Q1032 NOSIG
13-01-04 LEBL 041400Z 30010KT 280V340 9999 FEW030 16/03 Q1032 NOSIG
13-01-04 LEBL 041430Z 28009KT 9999 FEW030 16/04 Q1032 NOSIG
13-01-04 LEBL 041500Z 28007KT 250V310 CAVOK 16/03 Q1032 NOSIG
13-01-04 LEBL 041530Z 29007KT 260V330 CAVOK 16/03 Q1032 NOSIG
13-01-04 LEBL 041600Z 29006KT 260V330 CAVOK 16/03 Q1032 NOSIG
13-01-04 LEBL 041630Z 33010KT 280V360 9999 FEW030 14/03 Q1032 NOSIG
13-01-04 LEBL 041700Z 32009KT 9999 FEW030 14/03 Q1032 NOSIG
13-01-04 LEBL 041730Z 31009KT CAVOK 13/04 Q1032 NOSIG
13-01-04 LEBL 041800Z 30010KT 270V330 CAVOK 13/03 Q1032 NOSIG
13-01-04 LEBL 041830Z 31012KT 280V340 CAVOK 13/03 Q1032 NOSIG
13-01-04 LEBL 041900Z 31010KT 280V340 CAVOK 12/03 Q1032 NOSIG
13-01-04 LEBL 041930Z 31010KT 290V350 CAVOK 13/02 Q1032 NOSIG
13-01-04 LEBL 042000Z 31013KT CAVOK 12/02 Q1032 NOSIG
13-01-04 LEBL 042030Z 31013KT 270V330 CAVOK 12/02 Q1032 NOSIG
13-01-04 LEBL 042100Z 31014KT CAVOK 11/02 Q1032 NOSIG
13-01-04 LEBL 042130Z 32015KT CAVOK 11/02 Q1032 NOSIG
13-01-04 LEBL 042200Z 32015KT CAVOK 11/02 Q1032 NOSIG
13-01-04 LEBL 042230Z 32014KT 9999 FEW025 10/02 Q1032 NOSIG
13-01-04 LEBL 042300Z 32013KT 9999 FEW025 10/02 Q1031 NOSIG
13-01-04 LEBL 042330Z 32016KT 9999 FEW025 10/02 Q1031 NOSIG
13-01-05 LEBL 050000Z 32015KT 9999 FEW025 10/02 Q1031 NOSIG
13-01-05 LEBL 050030Z 32015KT 9999 FEW025 09/02 Q1031 NOSIG
13-01-05 LEBL 050100Z 32015KT 9999 FEW025 09/02 Q1031 NOSIG
13-01-05 LEBL 050130Z 32014KT 9999 FEW025 09/02 Q1031 NOSIG
13-01-05 LEBL 050200Z 32015KT 9999 FEW025 09/02 Q1030 NOSIG
13-01-05 LEBL 050230Z 32015KT 9999 FEW025 08/02 Q1030 NOSIG
13-01-05 LEBL 050300Z 32015KT 9999 FEW025 08/02 Q1030 NOSIG
13-01-05 LEBL 050330Z 32015KT 9999 FEW025 08/02 Q1030 NOSIG
13-01-05 LEBL 050400Z 32015KT 9999 FEW025 08/02 Q1029 NOSIG
13-01-05 LEBL 050430Z NIL
13-01-05 LEBL 050430Z 32016KT 9999 FEW025 08/02 Q1029 NOSIG
13-01-05 LEBL 050500Z 32018KT 9999 FEW025 08/02 Q1029 NOSIG
13-01-05 LEBL 050530Z 31015KT 9999 FEW025 08/02 Q1029 NOSIG
13-01-05 LEBL 050600Z NIL
13-01-05 LEBL 050600Z 33017KT 9999 FEW025 08/02 Q1028 NOSIG
13-01-05 LEBL 050630Z 33014G26KT 9999 FEW025 08/02 Q1028 NOSIG
13-01-05 LEBL 050700Z 32017KT 9999 FEW025 08/02 Q1028 NOSIG
13-01-05 LEBL 050730Z 32016G27KT 300V360 9999 FEW025 08/02 Q1028 NOSIG
13-01-05 LEBL 050800Z 32014G24KT 290V350 9999 FEW025 08/02 Q1028 NOSIG
13-01-05 LEBL 050830Z 32015KT 9999 FEW025 09/02 Q1028 NOSIG
13-01-05 LEBL 050900Z 32013KT CAVOK 10/03 Q1028 NOSIG
13-01-05 LEBL 050930Z 31015KT CAVOK 11/03 Q1028 NOSIG
13-01-05 LEBL 051000Z 32016KT CAVOK 12/03 Q1028 NOSIG
13-01-05 LEBL 051030Z 32013KT CAVOK 13/03 Q1028 NOSIG
13-01-05 LEBL 051100Z 32012KT 280V350 CAVOK 14/03 Q1027 NOSIG
13-01-05 LEBL 051130Z 33012KT 300V010 CAVOK 15/03 Q1027 NOSIG
13-01-05 LEBL 051200Z 33009KT CAVOK 16/03 Q1027 NOSIG
13-01-05 LEBL 051230Z 33013KT 300V010 CAVOK 16/02 Q1026 NOSIG
13-01-05 LEBL 051300Z 31013KT 250V340 CAVOK 17/04 Q1025 NOSIG
13-01-05 LEBL 051330Z 30009KT CAVOK 18/04 Q1025 NOSIG
13-01-05 LEBL 051400Z NIL
13-01-05 LEBL 051400Z 31008KT CAVOK 18/05 Q1025 NOSIG
13-01-05 LEBL 051430Z 32009KT CAVOK 18/04 Q1025 NOSIG
13-01-05 LEBL 051500Z 32009KT CAVOK 16/08 Q1025 NOSIG
13-01-05 LEBL 051530Z 32010KT 280V360 CAVOK 18/03 Q1025 NOSIG
13-01-05 LEBL 051600Z 32011KT CAVOK 17/03 Q1025 NOSIG
13-01-05 LEBL 051630Z 32012KT CAVOK 15/07 Q1025 NOSIG
13-01-05 LEBL 051700Z 32009KT CAVOK 15/05 Q1025 NOSIG
13-01-05 LEBL 051730Z 32013KT CAVOK 15/03 Q1024 NOSIG
13-01-05 LEBL 051800Z 32013KT 290V350 CAVOK 15/03 Q1025 NOSIG
13-01-05 LEBL 051830Z 32016KT CAVOK 14/03 Q1024 NOSIG
13-01-05 LEBL 051900Z 31014KT 260V340 CAVOK 14/03 Q1024 NOSIG
13-01-05 LEBL 051930Z 31016KT CAVOK 13/03 Q1025 NOSIG
13-01-05 LEBL 052000Z 31012KT CAVOK 13/03 Q1025 NOSIG
13-01-05 LEBL 052030Z 32014KT CAVOK 13/04 Q1025 NOSIG
13-01-05 LEBL 052100Z 31015KT CAVOK 12/04 Q1025 NOSIG
13-01-05 LEBL 052130Z 32013KT 290V350 CAVOK 12/04 Q1025 NOSIG
13-01-05 LEBL 052200Z 32012KT CAVOK 12/04 Q1025 NOSIG
13-01-05 LEBL 052230Z 32012KT CAVOK 12/04 Q1025 NOSIG
13-01-05 LEBL 052300Z 31014KT CAVOK 12/04 Q1025 NOSIG
13-01-05 LEBL 052330Z 32016KT CAVOK 12/04 Q1025 NOSIG
13-01-06 LEBL 060000Z 32017KT CAVOK 11/04 Q1025 NOSIG
13-01-06 LEBL 060030Z 32014KT CAVOK 11/04 Q1025 NOSIG
13-01-06 LEBL 060100Z 32014KT CAVOK 11/04 Q1024 NOSIG
13-01-06 LEBL 060130Z 32016KT CAVOK 11/04 Q1024 NOSIG
13-01-06 LEBL 060200Z 31014KT CAVOK 10/04 Q1024 NOSIG
13-01-06 LEBL 060230Z 32017KT CAVOK 10/04 Q1024 NOSIG
13-01-06 LEBL 060300Z 32015KT CAVOK 10/04 Q1024 NOSIG
13-01-06 LEBL 060330Z 31013KT CAVOK 10/04 Q1024 NOSIG
13-01-06 LEBL 060400Z 31015KT CAVOK 10/04 Q1024 NOSIG
13-01-06 LEBL 060430Z 32013KT CAVOK 11/03 Q1024 NOSIG
13-01-06 LEBL 060500Z 31012KT CAVOK 11/03 Q1024 NOSIG
13-01-06 LEBL 060530Z 32016KT CAVOK 10/03 Q1024 NOSIG
13-01-06 LEBL 060600Z 34009KT 300V010 CAVOK 10/03 Q1025 NOSIG
13-01-06 LEBL 060630Z 36007G18KT CAVOK 11/03 Q1025 NOSIG
13-01-06 LEBL 060700Z 01005KT 340V050 CAVOK 10/03 Q1026 NOSIG
13-01-06 LEBL 060730Z 34010KT 290V010 CAVOK 10/03 Q1026 NOSIG
13-01-06 LEBL 060800Z 32011KT CAVOK 09/03 Q1026 NOSIG
13-01-06 LEBL 060830Z 32010KT CAVOK 09/03 Q1027 NOSIG
13-01-06 LEBL 060900Z 32012KT 270V350 CAVOK 10/03 Q1027 NOSIG
13-01-06 LEBL 060930Z 32011KT 280V360 CAVOK 11/03 Q1027 NOSIG
13-01-06 LEBL 061000Z 32012KT CAVOK 12/04 Q1027 NOSIG
13-01-06 LEBL 061030Z 33011KT CAVOK 13/04 Q1027 NOSIG
13-01-06 LEBL 061100Z 32007KT 280V350 CAVOK 14/04 Q1027 NOSIG
13-01-06 LEBL 061130Z 30005KT 260V330 CAVOK 15/04 Q1026 NOSIG
13-01-06 LEBL 061200Z 29004KT 260V320 CAVOK 17/05 Q1026 NOSIG
13-01-06 LEBL 061230Z 23007KT CAVOK 17/06 Q1026 NOSIG
13-01-06 LEBL 061300Z 20007KT CAVOK 17/07 Q1025 NOSIG
13-01-06 LEBL 061330Z 22008KT CAVOK 17/06 Q1025 NOSIG
13-01-06 LEBL 061400Z 21007KT CAVOK 17/06 Q1025 NOSIG
13-01-06 LEBL 061430Z 20005KT CAVOK 17/07 Q1025 NOSIG
13-01-06 LEBL 061500Z 20004KT CAVOK 17/06 Q1025 NOSIG
13-01-06 LEBL 061530Z NIL
13-01-06 LEBL 061530Z 19004KT 160V220 CAVOK 17/06 Q1025 NOSIG
13-01-06 LEBL 061600Z 20003KT CAVOK 16/07 Q1025 NOSIG
13-01-06 LEBL 061630Z 23004KT CAVOK 15/07 Q1025 NOSIG
13-01-06 LEBL 061700Z 23004KT CAVOK 14/07 Q1025 NOSIG
13-01-06 LEBL 061730Z 20002KT CAVOK 14/08 Q1025 NOSIG
13-01-06 LEBL 061800Z VRB01KT CAVOK 13/08 Q1025 NOSIG
13-01-06 LEBL 061830Z VRB01KT CAVOK 12/08 Q1025 NOSIG
13-01-06 LEBL 061900Z 29004KT 260V340 CAVOK 11/06 Q1025 NOSIG
13-01-06 LEBL 061930Z 30006KT 270V330 CAVOK 10/06 Q1025 NOSIG
13-01-06 LEBL 062000Z 32007KT 280V350 CAVOK 10/06 Q1025 NOSIG
13-01-06 LEBL 062030Z 32007KT 280V010 CAVOK 11/05 Q1025 NOSIG
13-01-06 LEBL 062100Z 32006KT CAVOK 11/04 Q1025 NOSIG
13-01-06 LEBL 062130Z 32008KT 260V010 CAVOK 11/03 Q1025 NOSIG
13-01-06 LEBL 062200Z 32008KT 250V010 CAVOK 11/03 Q1025 NOSIG
13-01-06 LEBL 062230Z 32012KT CAVOK 11/03 Q1025 NOSIG
13-01-06 LEBL 062300Z 32013KT CAVOK 11/02 Q1025 NOSIG
13-01-06 LEBL 062330Z 32015KT CAVOK 10/02 Q1024 NOSIG