
12-06-16 METAR LFPG 160000Z 16008KT 130V210 9999 BKN005 BKN030 OVC110 15/14 Q1013 NOSIG
12-06-16 METAR LFPG 160030Z 18008KT 9999 SCT005 BKN014 OVC100 15/14 Q1013 NOSIG
12-06-16 METAR LFPG 160100Z 17008KT 9999 -RA FEW007 SCT017 OVC093 15/14 Q1013 NOSIG
12-06-16 METAR LFPG 160130Z 19007KT 9999 SCT007 BKN014 15/14 Q1013 NOSIG
12-06-16 METAR LFPG 160200Z 20009KT 9999 -RA BKN011 BKN032 15/14 Q1013 NOSIG
12-06-16 METAR LFPG 160230Z 21009KT 9999 BKN012 BKN024 OVC120 15/14 Q1013 NOSIG
12-06-16 METAR LFPG 160300Z 20011KT 9999 BKN013 BKN021 16/14 Q1014 NOSIG
12-06-16 METAR LFPG 160330Z 20008KT 9999 BKN012 BKN100 16/14 Q1013 NOSIG
12-06-16 METAR LFPG 160400Z 20012KT 9999 BKN014 BKN046 BKN110 16/14 Q1014 NOSIG
12-06-16 METAR LFPG 160430Z 20011KT 9999 BKN010 BKN050 BKN110 16/14 Q1014 NOSIG
12-06-16 METAR LFPG 160500Z 20010KT 9999 BKN013 BKN033 16/14 Q1014 NOSIG
12-06-16 METAR LFPG 160530Z 21010KT 9999 BKN009 BKN015 16/14 Q1014 NOSIG
12-06-16 METAR LFPG 160600Z 20011KT 9999 -RA BKN008 BKN015 15/14 Q1014 NOSIG
12-06-16 METAR LFPG 160630Z 20012KT 9999 BKN008 BKN014 15/14 Q1014 NOSIG
12-06-16 METAR LFPG 160700Z 21012KT 180V250 9999 -RA BKN007 BKN015 15/14 Q1015
12-06-16 METAR LFPG 160730Z 20011KT 9999 -RA SCT007 SCT015 BKN026 15/14 Q1015 NOSIG
12-06-16 METAR LFPG 160800Z 21012KT 9999 SCT010 SCT015 BKN026 15/14 Q1015 NOSIG
12-06-16 METAR LFPG 160830Z 21011KT 9999 -RA SCT010 SCT015 BKN046 16/13 Q1015 NOSIG
12-06-16 METAR LFPG 160900Z 18011G23KT 150V260 9999 -RA SCT010 BKN080 16/14 Q1015
12-06-16 METAR LFPG 160930Z 20014KT 180V280 9999 -RA BKN010 SCT015 16/13 Q1016
12-06-16 METAR LFPG 161000Z 22014KT 200V290 9999 -RA SCT010 BKN023 BKN040 16/13 Q1015 NOSIG
12-06-16 METAR LFPG 161030Z 20009G23KT 170V320 9999 -RA FEW010 SCT020 BKN040 16/13 Q1016 NOSIG
12-06-16 METAR LFPG 161100Z 19012KT 9999 -RA BKN009 SCT020 BKN040 16/14 Q1016 NOSIG
12-06-16 METAR LFPG 161130Z 21013KT 160V230 9999 -RA BKN010 BKN020 16/14 Q1016
12-06-16 METAR LFPG 161200Z 20012KT 150V230 9999 -RA FEW009TCU BKN010 BKN020 16/14
12-06-16 METAR LFPG 161230Z 21015KT 190V330 9999 -RA BKN012 BKN021 16/14 Q1016
12-06-16 METAR LFPG 161300Z 23013KT 190V250 9999 -RA BKN014 BKN040 16/13 Q1016
12-06-16 METAR LFPG 161330Z 22010KT 190V250 9999 -RA SCT017 BKN040 BKN086 16/13
12-06-16 METAR LFPG 161400Z 22012KT 9999 FEW017 BKN110 17/14 Q1016 NOSIG
12-06-16 METAR LFPG 161430Z 21012KT 170V250 9999 FEW020 BKN120 17/11 Q1016 NOSIG
12-06-16 METAR LFPG 161500Z 22013KT 9999 FEW025 BKN120 18/11 Q1016 NOSIG
12-06-16 METAR LFPG 161530Z 21012KT 9999 FEW026 BKN130 18/11 Q1016 NOSIG
12-06-16 METAR LFPG 161600Z 21014KT 9999 FEW026 BKN140 18/11 Q1016 NOSIG
12-06-16 METAR LFPG 161630Z 20014KT 9999 FEW030 SCT140 19/11 Q1016 NOSIG
12-06-16 METAR LFPG 161700Z 22015KT 190V310 9999 SCT030 SCT140 19/11 Q1016 NOSIG
12-06-16 METAR LFPG 161730Z 21015KT 9999 SCT030 SCT140 19/11 Q1016 NOSIG
12-06-16 METAR LFPG 161800Z 21015KT 9999 SCT029 19/12 Q1016 NOSIG
12-06-16 METAR LFPG 161830Z 21016KT 9999 SCT029 19/12 Q1017 NOSIG
12-06-16 METAR LFPG 161900Z 22013KT 9999 SCT029 18/12 Q1017 NOSIG
12-06-16 METAR LFPG 161930Z 21010KT 9999 FEW029 18/12 Q1017 NOSIG
12-06-16 METAR LFPG 162000Z 22011KT 9999 FEW023 17/11 Q1017 NOSIG
12-06-16 METAR LFPG 162030Z 23010KT 9999 FEW023 17/08 Q1018 NOSIG
12-06-16 METAR LFPG 162100Z 23011KT 9999 FEW026 16/08 Q1018 NOSIG
12-06-16 METAR LFPG 162130Z 23011KT CAVOK 16/08 Q1018 NOSIG
12-06-16 METAR LFPG 162200Z 24012KT CAVOK 16/07 Q1019 NOSIG
12-06-16 METAR LFPG 162230Z 25011KT 210V270 CAVOK 15/07 Q1019 NOSIG
12-06-16 METAR LFPG 162300Z 24011KT CAVOK 15/07 Q1019 NOSIG
12-06-16 METAR LFPG 162330Z 24011KT CAVOK 15/07 Q1019 NOSIG
12-06-17 METAR LFPG 170000Z 24012KT CAVOK 14/08 Q1020 NOSIG
12-06-17 METAR LFPG 170030Z 24012KT CAVOK 14/08 Q1020 NOSIG
12-06-17 METAR LFPG 170100Z 24012KT CAVOK 14/08 Q1020 NOSIG
12-06-17 METAR LFPG 170130Z 24010KT CAVOK 13/08 Q1020 NOSIG
12-06-17 METAR LFPG 170200Z 24008KT CAVOK 13/08 Q1020 NOSIG
12-06-17 METAR LFPG 170230Z 23008KT CAVOK 13/08 Q1020 NOSIG
12-06-17 METAR LFPG 170300Z 24010KT CAVOK 12/08 Q1020 NOSIG
12-06-17 METAR LFPG 170330Z 22007KT CAVOK 12/08 Q1020 NOSIG
12-06-17 METAR LFPG 170400Z 22009KT CAVOK 12/08 Q1021 NOSIG
12-06-17 METAR LFPG 170430Z 22010KT CAVOK 12/08 Q1021 NOSIG
12-06-17 METAR LFPG 170500Z 22008KT CAVOK 12/09 Q1021 NOSIG
12-06-17 METAR LFPG 170530Z 22007KT CAVOK 13/09 Q1022 NOSIG
12-06-17 METAR LFPG 170600Z 22008KT 9999 FEW013 13/09 Q1022 NOSIG
12-06-17 METAR LFPG 170630Z 22010KT 200V270 9999 FEW018 14/09 Q1022 NOSIG
12-06-17 METAR LFPG 170700Z 22009KT 190V260 9999 FEW019 14/09 Q1022 NOSIG
12-06-17 METAR LFPG 170730Z 23009KT 200V260 9999 FEW019 15/09 Q1022 NOSIG
12-06-17 METAR LFPG 170800Z 22005KT 180V260 9999 FEW019 15/09 Q1022 NOSIG
12-06-17 METAR LFPG 170830Z 25007KT 190V300 9999 FEW023 16/09 Q1022 NOSIG
12-06-17 METAR LFPG 170900Z 24006KT 190V290 9999 FEW026 17/10 Q1022 NOSIG
12-06-17 METAR LFPG 170930Z VRB08KT 9999 FEW033 17/09 Q1022 NOSIG
12-06-17 METAR LFPG 171000Z 23008KT 180V280 9999 SCT037 18/08 Q1022 NOSIG
12-06-17 METAR LFPG 171030Z VRB07KT 9999 SCT037 18/09 Q1022 NOSIG
12-06-17 METAR LFPG 171100Z VRB07KT 9999 SCT043 18/07 Q1022 NOSIG
12-06-17 METAR LFPG 171130Z 22008KT 180V260 9999 SCT046 19/07 Q1021 NOSIG
12-06-17 METAR LFPG 171200Z 22008KT 190V320 CAVOK 20/06 Q1021 NOSIG
12-06-17 METAR LFPG 171230Z 22008KT 190V310 CAVOK 20/06 Q1021 NOSIG
12-06-17 METAR LFPG 171300Z 16008KT 090V200 CAVOK 20/07 Q1021 NOSIG
12-06-17 METAR LFPG 171330Z 20009KT 150V270 CAVOK 20/07 Q1021 NOSIG
12-06-17 METAR LFPG 171400Z 21009KT 140V230 CAVOK 21/07 Q1020 NOSIG
12-06-17 METAR LFPG 171530Z 19004KT 120V270 CAVOK 21/07 Q1019 NOSIG
12-06-17 METAR LFPG 171600Z 13005KT 090V180 CAVOK 21/06 Q1019 NOSIG
12-06-17 METAR LFPG 171630Z 18006KT 100V220 CAVOK 21/07 Q1019 NOSIG
12-06-17 METAR LFPG 171800Z 14008KT 100V180 CAVOK 20/08 Q1018 NOSIG
12-06-17 METAR LFPG 171830Z 13009KT CAVOK 20/08 Q1018 NOSIG
12-06-17 METAR LFPG 171900Z 11009KT CAVOK 20/08 Q1017 NOSIG
12-06-17 METAR LFPG 171930Z 09008KT CAVOK 19/08 Q1017 NOSIG
12-06-17 METAR LFPG 172000Z 08006KT CAVOK 19/09 Q1017 NOSIG
12-06-17 METAR LFPG 172030Z 07006KT CAVOK 18/10 Q1017 NOSIG
12-06-17 METAR LFPG 172100Z 05006KT CAVOK 17/10 Q1016 NOSIG
12-06-17 METAR LFPG 172130Z 05005KT CAVOK 17/10 Q1016 NOSIG
12-06-17 METAR LFPG 172200Z 05007KT CAVOK 17/10 Q1016 NOSIG
12-06-17 METAR LFPG 172230Z 04008KT CAVOK 16/10 Q1015 NOSIG
12-06-17 METAR LFPG 172300Z 04008KT 9999 BKN045 16/10 Q1014 NOSIG
12-06-17 METAR LFPG 172330Z 05008KT 9999 BKN045 BKN052 15/10 Q1013 NOSIG
12-06-18 METAR LFPG 180000Z 06009KT 9999 BKN045 16/10 Q1013 NOSIG
12-06-18 METAR LFPG 180030Z 05008KT 9999 BKN044 16/10 Q1012 NOSIG
12-06-18 METAR LFPG 180100Z 04008KT 9999 BKN046 SCT220 16/10 Q1011 NOSIG
12-06-18 METAR LFPG 180130Z 05012KT 9999 BKN046 16/10 Q1010 TEMPO VRB10G30KT 3000 -TSRA BKN007 SCT050CB
12-06-18 METAR LFPG 180200Z 05009KT 9999 -TSRA BKN045 SCT050CB 15/11 Q1009 TEMPO VRB10G30KT 3000 -TSRA BKN007 SCT050CB
12-06-18 METAR LFPG 180230Z 28022G41KT 250V310 0500 R27L/0550VP2000D R09R/0550VP2000D R26R/0800VP2000D R08L/0500VP2000D R26L/1000VP2000D R08R/0750VP2000D R27R/0700D R09L/0600VP2000D +TSRA SCT012 BKN045 BKN050CB 14/12 Q1012 TEMPO VRB20G40KT 0500 TSRA BKN007 SC BKN050CB 14/12 Q1012 TEMPO VRB20G40KT 0
12-06-18 METAR LFPG 180300Z 31012KT 4000 TSRA SCT012 BKN045 SCT050CB 13/12 Q1012 TEMPO 28020G35KT 1500 TSRA BKN007 SCT050CB
12-06-18 METAR LFPG 180330Z 36009KT 330V040 4000 -TSRA FEW008 SCT045 SCT050CB BKN100 13/12 Q1012 TEMPO 28015G30KT 1500 -TSRA BKN007 SCT050CB
12-06-18 METAR LFPG 180400Z 03010KT 9999 FEW008 SCT045 SCT050CB BKN100 13/12 Q1011 RERA RETS TEMPO 28015G30KT 1500 -TSRA BKN007 SCT050CB
12-06-18 METAR LFPG 180430Z 03007KT CAVOK 13/12 Q1011 NOSIG
12-06-18 METAR LFPG 180500Z 01007KT 9999 FEW010 SCT100 13/12 Q1012 NOSIG
12-06-18 METAR LFPG 180530Z 28006KT 9999 BKN006 BKN046 14/13 Q1013 NOSIG
12-06-18 METAR LFPG 180600Z 29007KT 9999 BKN006 BKN046 14/13 Q1014 NOSIG
12-06-18 METAR LFPG 180630Z 29007KT 9999 BKN006 14/13 Q1014 NOSIG
12-06-18 METAR LFPG 180700Z 30008KT 9999 BKN006 BKN013 14/13 Q1015 NOSIG
12-06-18 METAR LFPG 180730Z 31010KT 9999 BKN007 BKN014 15/13 Q1015 NOSIG
12-06-18 METAR LFPG 180800Z 32008KT 9999 BKN008 BKN029 15/13 Q1016 NOSIG
12-06-18 METAR LFPG 180830Z 32008KT 9999 BKN010 SCT017 BKN028 16/13 Q1016 NOSIG
12-06-18 METAR LFPG 180900Z 31007KT 9999 BKN011 SCT020 BKN050 16/13 Q1017 NOSIG
12-06-18 METAR LFPG 180930Z 29007KT 9999 SCT013 BKN028 16/13 Q1017 NOSIG
12-06-18 METAR LFPG 181000Z 30010KT 9999 SCT013 BKN029 16/12 Q1018 NOSIG
12-06-18 METAR LFPG 181030Z 30010KT 9999 FEW010 BKN021 BKN046 16/13 Q1018 NOSIG
12-06-18 METAR LFPG 181100Z 29008KT 260V320 9999 BKN013 SCT023 BKN048 16/13 Q1019 NOSIG
12-06-18 METAR LFPG 181130Z 28011KT 260V320 9999 BKN014 SCT020 BKN051 17/12 Q1019
12-06-18 METAR LFPG 181200Z 31009KT 270V340 9999 SCT015 SCT055 17/12 Q1019 NOSIG
12-06-18 METAR LFPG 181230Z 29008KT 270V340 9999 FEW018 SCT021 18/12 Q1019 NOSIG
12-06-18 METAR LFPG 181300Z 28007KT 260V320 9999 SCT023 BKN055 18/11 Q1020 NOSIG
12-06-18 METAR LFPG 181330Z 29006KT 250V320 9999 FEW030 BKN056 18/11 Q1020 NOSIG
12-06-18 METAR LFPG 181400Z 31008KT 9999 FEW030 BKN060 19/11 Q1020 NOSIG
12-06-18 METAR LFPG 181430Z 31008KT 270V330 9999 FEW030 BKN063 19/11 Q1020 NOSIG
12-06-18 METAR LFPG 181500Z 30007KT 270V330 9999 FEW026 BKN063 18/10 Q1020 NOSIG
12-06-18 METAR LFPG 181530Z 33008KT 280V350 9999 FEW027 BKN063 18/11 Q1020 NOSIG
12-06-18 METAR LFPG 181600Z 30007KT 270V350 9999 FEW030 BKN060 19/11 Q1020 NOSIG
12-06-18 METAR LFPG 181630Z 32006KT 9999 FEW031 BKN060 18/10 Q1020 NOSIG
12-06-18 METAR LFPG 181700Z 34007KT 310V030 9999 FEW030 BKN060 18/11 Q1020 NOSIG
12-06-18 METAR LFPG 181730Z 32007KT 9999 SCT037 BKN063 18/10 Q1020 NOSIG
12-06-18 METAR LFPG 181800Z 33006KT 320V020 9999 FEW038 BKN060 18/11 Q1020 NOSIG
12-06-18 METAR LFPG 181830Z 33006KT 9999 FEW033 BKN062 17/10 Q1020 NOSIG
12-06-18 METAR LFPG 182000Z 33004KT 9999 FEW046 BKN060 16/10 Q1020 NOSIG
12-06-18 METAR LFPG 182030Z 31003KT 9999 FEW046 BKN063 BKN100 16/10 Q1021 NOSIG
12-06-18 METAR LFPG 182100Z VRB02KT CAVOK 16/10 Q1021 NOSIG
12-06-18 METAR LFPG 182130Z 02003KT CAVOK 15/10 Q1021 NOSIG
12-06-18 METAR LFPG 182200Z 05004KT CAVOK 15/10 Q1021 NOSIG
12-06-18 METAR LFPG 182230Z 02003KT CAVOK 14/10 Q1021 NOSIG
12-06-18 METAR LFPG 182300Z 04002KT CAVOK 14/10 Q1021 NOSIG
12-06-18 METAR LFPG 182330Z 04004KT CAVOK 14/10 Q1021 NOSIG
12-06-19 METAR LFPG 190000Z 02004KT CAVOK 13/10 Q1021 NOSIG
12-06-19 METAR LFPG 190030Z 01005KT CAVOK 13/10 Q1021 NOSIG
12-06-19 METAR LFPG 190100Z 01005KT CAVOK 13/10 Q1020 NOSIG
12-06-19 METAR LFPG 190130Z 01005KT CAVOK 13/10 Q1020 NOSIG
12-06-19 METAR LFPG 190200Z 01005KT CAVOK 12/10 Q1020 NOSIG
12-06-19 METAR LFPG 190230Z 02005KT 360V100 CAVOK 12/10 Q1020 NOSIG
12-06-19 METAR LFPG 190300Z 03004KT 360V070 CAVOK 12/10 Q1020 NOSIG
12-06-19 METAR LFPG 190330Z 01004KT CAVOK 12/10 Q1020 NOSIG
12-06-19 METAR LFPG 190400Z 01004KT CAVOK 12/10 Q1020 NOSIG
12-06-19 METAR LFPG 190430Z 01005KT CAVOK 12/10 Q1020 NOSIG
12-06-19 METAR LFPG 190500Z 02006KT 360V090 CAVOK 12/10 Q1020 NOSIG
12-06-19 METAR LFPG 190530Z 01008KT 330V100 CAVOK 12/10 Q1019 NOSIG
12-06-19 METAR LFPG 190600Z 02009KT 360V070 CAVOK 12/10 Q1020 NOSIG
12-06-19 METAR LFPG 190630Z 02007KT 350V100 CAVOK 12/10 Q1020 NOSIG
12-06-19 METAR LFPG 190700Z 03008KT 360V070 CAVOK 13/10 Q1020 NOSIG
12-06-19 METAR LFPG 190730Z 03009KT 350V060 CAVOK 13/10 Q1020 NOSIG
12-06-19 METAR LFPG 190800Z 02007KT 360V070 CAVOK 14/10 Q1019 NOSIG
12-06-19 METAR LFPG 190830Z 03007KT 360V070 9999 BKN046 SCT120 BKN280 14/10 Q1020 NOSIG
12-06-19 METAR LFPG 190900Z 01006KT 340V120 9999 BKN046 14/10 Q1020 NOSIG
12-06-19 METAR LFPG 190930Z 02006KT 330V110 9999 BKN046 15/10 Q1020 NOSIG
12-06-19 METAR LFPG 191000Z 03008KT 350V090 9999 BKN049 16/11 Q1019 NOSIG
12-06-19 METAR LFPG 191030Z 04009KT 010V080 9999 BKN047 17/11 Q1019 NOSIG
12-06-19 METAR LFPG 191100Z 02008KT 9999 BKN047 BKN140 17/11 Q1019 NOSIG
12-06-19 METAR LFPG 191130Z 04008KT 360V070 9999 FEW028 SCT048 BKN170 18/11 Q1019
12-06-19 METAR LFPG 191200Z 05008KT 030V090 9999 FEW027 BKN100 BKN280 19/11 Q1018
12-06-19 METAR LFPG 191230Z 06009KT 010V080 9999 FEW028 SCT090 BKN100 18/11 Q1018
12-06-19 METAR LFPG 191300Z 04008KT 010V070 9999 FEW028 SCT067 BKN100 18/11 Q1018
12-06-19 METAR LFPG 191330Z 05007KT 360V080 9999 FEW030 BKN070 19/11 Q1018 NOSIG
12-06-19 METAR LFPG 191400Z 02007KT 9999 FEW033 SCT060 BKN073 19/11 Q1018 NOSIG
12-06-19 METAR LFPG 191430Z 03008KT 9999 FEW033 SCT060 BKN073 18/11 Q1018 NOSIG
12-06-19 METAR LFPG 191500Z 03009KT 360V100 9999 FEW040 BKN054 BKN280 18/11 Q1017
12-06-19 METAR LFPG 191530Z 03009KT CAVOK 18/11 Q1017 NOSIG
12-06-19 METAR LFPG 191600Z 04009KT CAVOK 18/11 Q1017 NOSIG
12-06-19 METAR LFPG 191630Z 04009KT CAVOK 18/11 Q1017 NOSIG
12-06-19 METAR LFPG 191700Z 03008KT 010V070 9999 -RA SCT033 BKN100 BKN280 18/11 Q1017 NOSIG
12-06-19 METAR LFPG 191730Z 03006KT 010V080 CAVOK 18/11 Q1017 NOSIG
12-06-19 METAR LFPG 191800Z 03006KT CAVOK 17/12 Q1017 NOSIG
12-06-19 METAR LFPG 191830Z 03005KT 010V090 CAVOK 17/12 Q1017 NOSIG
12-06-19 METAR LFPG 191900Z 05004KT 010V080 9999 -RA NSC 17/12 Q1017 NOSIG
12-06-19 METAR LFPG 191930Z 05006KT 020V110 9999 -RA NSC 16/13 Q1017 NOSIG
12-06-19 METAR LFPG 192000Z 03007KT 010V100 9999 -RA NSC 16/13 Q1017 NOSIG
12-06-19 METAR LFPG 192030Z 01006KT 9999 -RA NSC 16/13 Q1017 NOSIG
12-06-19 METAR LFPG 192100Z 02006KT CAVOK 15/13 Q1017 NOSIG
12-06-19 METAR LFPG 192130Z 01006KT 9999 -RA NSC 15/12 Q1017 NOSIG
12-06-19 METAR LFPG 192200Z 01004KT 330V140 9999 -RA NSC 15/12 Q1017 NOSIG
12-06-19 METAR LFPG 192230Z 03005KT 350V100 9999 -RA NSC 15/12 Q1016 NOSIG
12-06-19 METAR LFPG 192300Z 01005KT 350V080 9999 -RA NSC 14/12 Q1016 NOSIG
12-06-19 METAR LFPG 192330Z 02006KT 010V090 9999 -RA NSC 14/12 Q1016 NOSIG
12-06-20 METAR LFPG 200000Z 01005KT 9999 -RA NSC 14/12 Q1016 NOSIG
12-06-20 METAR LFPG 200030Z 01005KT CAVOK 14/12 Q1016 NOSIG
12-06-20 METAR LFPG 200100Z 01006KT CAVOK 14/12 Q1015 NOSIG
12-06-20 METAR LFPG 200130Z 35006KT 330V030 CAVOK 14/12 Q1015 NOSIG
12-06-20 METAR LFPG 200200Z 34005KT CAVOK 13/11 Q1016 NOSIG
12-06-20 METAR LFPG 200230Z 33005KT 320V020 CAVOK 13/11 Q1015 NOSIG
12-06-20 METAR LFPG 200300Z 35005KT 320V050 7000 NSC 13/11 Q1015 NOSIG
12-06-20 METAR LFPG 200330Z 35005KT 330V120 4500 BR NSC 12/11 Q1015 NOSIG
12-06-20 METAR LFPG 200400Z 31006KT 190V350 4000 BR NSC 13/11 Q1015 NOSIG
12-06-20 METAR LFPG 200430Z 35005KT 270V080 3000 BR NSC 12/11 Q1015 NOSIG
12-06-20 METAR LFPG 200500Z 35005KT 330V050 3000 BR NSC 13/11 Q1016 NOSIG
12-06-20 METAR LFPG 200530Z 34006KT 320V060 2000 BR NSC 13/12 Q1016 NOSIG
12-06-20 METAR LFPG 200600Z 36007KT 310V040 3000 BR NSC 13/12 Q1016 NOSIG
12-06-20 METAR LFPG 200630Z 36008KT 320V080 4000 BR NSC 14/12 Q1016 NOSIG
12-06-20 METAR LFPG 200700Z 01007KT 330V110 5000 BR NSC 15/13 Q1016 NOSIG
12-06-20 METAR LFPG 200730Z VRB07KT 6000 2500E BR NSC 16/13 Q1016 NOSIG
12-06-20 METAR LFPG 200800Z 32006KT 280V350 6000 NSC 17/13 Q1016 NOSIG
12-06-20 METAR LFPG 200830Z 31006KT 250V060 8000 FEW016 17/13 Q1016 NOSIG
12-06-20 METAR LFPG 200900Z 33004KT 220V030 9000 FEW017 18/13 Q1016 NOSIG
12-06-20 METAR LFPG 200930Z 01006KT 340V070 9000 SCT020 19/13 Q1016 NOSIG
12-06-20 METAR LFPG 201000Z 02007KT 310V070 9000 SCT023 20/13 Q1016 NOSIG
12-06-20 METAR LFPG 201030Z 01008KT 340V060 9000 SCT026 21/13 Q1016 NOSIG
12-06-20 METAR LFPG 201100Z 02006KT 340V060 9999 FEW029 21/12 Q1016 NOSIG
12-06-20 METAR LFPG 201130Z 02006KT 350V060 9999 FEW031 21/13 Q1016 NOSIG
12-06-20 METAR LFPG 201200Z 03006KT 340V090 9999 FEW032 22/13 Q1015 NOSIG
12-06-20 METAR LFPG 201230Z 03004KT 340V070 9999 SCT036 21/12 Q1015 NOSIG
12-06-20 METAR LFPG 201300Z 03005KT 340V080 9999 FEW036 22/13 Q1015 NOSIG
12-06-20 METAR LFPG 201330Z 36005KT 330V050 9999 FEW038 22/11 Q1015 NOSIG
12-06-20 METAR LFPG 201400Z 06004KT 330V120 9999 FEW040 23/12 Q1015 NOSIG
12-06-20 METAR LFPG 201430Z 05005KT 340V130 9999 FEW041 23/12 Q1014 NOSIG
12-06-20 METAR LFPG 201500Z 05005KT 010V100 9999 FEW041 SCT260 23/11 Q1014 NOSIG
12-06-20 METAR LFPG 201530Z VRB05KT 9999 FEW041 BKN260 23/12 Q1014 NOSIG
12-06-20 METAR LFPG 201600Z 05006KT 010V120 9999 FEW041 SCT260 23/12 Q1014 NOSIG
12-06-20 METAR LFPG 201630Z 07006KT 010V100 9999 SCT041 SCT260 23/12 Q1014 NOSIG
12-06-20 METAR LFPG 201800Z 06008KT 9999 FEW041 BKN260 23/13 Q1013 NOSIG
12-06-20 METAR LFPG 201830Z 07006KT 9999 FEW041 BKN260 23/13 Q1013 NOSIG
12-06-20 METAR LFPG 201900Z 07005KT 9999 FEW041 BKN260 22/13 Q1013 NOSIG
12-06-20 METAR LFPG 201930Z 07005KT CAVOK 22/13 Q1013 NOSIG
12-06-20 METAR LFPG 202000Z 07004KT CAVOK 21/13 Q1013 NOSIG
12-06-20 METAR LFPG 202030Z 07005KT CAVOK 21/13 Q1013 NOSIG
12-06-20 METAR LFPG 202100Z 08004KT CAVOK 20/13 Q1013 NOSIG
12-06-20 METAR LFPG 202130Z 09007KT CAVOK 20/13 Q1012 NOSIG
12-06-20 METAR LFPG 202200Z 10007KT CAVOK 20/13 Q1012 NOSIG
12-06-20 METAR LFPG 202230Z 09006KT CAVOK 19/14 Q1012 NOSIG
12-06-20 METAR LFPG 202300Z 12005KT 090V150 CAVOK 19/15 Q1011 NOSIG
12-06-20 METAR LFPG 202330Z 10007KT CAVOK 19/15 Q1011 NOSIG
12-06-21 METAR LFPG 210000Z 11006KT CAVOK 18/15 Q1011 NOSIG
12-06-21 METAR LFPG 210030Z 12009KT CAVOK 18/15 Q1010 NOSIG
12-06-21 METAR LFPG 210100Z 12010KT CAVOK 18/14 Q1010 NOSIG
12-06-21 METAR LFPG 210130Z 13010KT CAVOK 17/14 Q1010 NOSIG
12-06-21 METAR LFPG 210200Z 13007KT CAVOK 17/14 Q1010 NOSIG
12-06-21 METAR LFPG 210230Z 12008KT CAVOK 17/14 Q1009 NOSIG
12-06-21 METAR LFPG 210300Z 14009KT CAVOK 17/14 Q1009 NOSIG
12-06-21 METAR LFPG 210330Z 13007KT CAVOK 17/14 Q1009 NOSIG
12-06-21 METAR LFPG 210400Z 25008KT 6000 -SHRA BKN035TCU BKN056 17/14 Q1010 TEMPO SHRA SCT030CB
12-06-21 METAR LFPG 210530Z 11009KT 9999 FEW033TCU BKN100 17/15 Q1008 RESHRA NOSIG
12-06-21 METAR LFPG 210600Z 12010KT CAVOK 17/15 Q1008 NOSIG
12-06-21 METAR LFPG 210630Z 13011KT CAVOK 17/15 Q1008 NOSIG
12-06-21 METAR LFPG 210700Z 14008KT CAVOK 17/16 Q1008 NOSIG
12-06-21 METAR LFPG 210730Z 15008KT 9999 -RA FEW040 BKN090 18/16 Q1008 NOSIG
12-06-21 METAR LFPG 210800Z 15008KT 110V190 9999 -RA FEW040 BKN090 18/16 Q1008
12-06-21 METAR LFPG 210830Z 14011KT 9999 FEW040 BKN090 19/17 Q1008 NOSIG
12-06-21 METAR LFPG 210900Z 15011KT 9999 FEW040 SCT100 BKN130 19/17 Q1008 NOSIG
12-06-21 METAR LFPG 210930Z 15010G22KT 110V190 9999 FEW013 SCT093 BKN130 21/18 Q1007
12-06-21 METAR LFPG 211000Z 15009KT 090V190 9999 FEW013 SCT096 BKN120 21/17 Q1007
12-06-21 METAR LFPG 211030Z 16008G19KT 060V210 9999 FEW013 SCT096 BKN140 22/17 Q1007
12-06-21 METAR LFPG 211100Z VRB09KT 9999 -SHRA FEW013 SCT053 BKN120 22/17 Q1007
12-06-21 METAR LFPG 211130Z 15011KT 9999 FEW020 SCT053 BKN100 23/18 Q1007 NOSIG
12-06-21 METAR LFPG 211200Z 15010KT 9999 FEW020 BKN056 23/17 Q1007 NOSIG
12-06-21 METAR LFPG 211230Z 14009G21KT 050V180 9999 FEW026TCU BKN056 25/17 Q1006 TEMPO 23015G30KT 3000 TSRA
12-06-21 METAR LFPG 211300Z 13008KT 080V180 9999 FEW028CB BKN056 25/18 Q1006 TEMPO
12-06-21 METAR LFPG 211330Z 18010KT 150V210 9999 -TSRA SCT030CB BKN050 24/17 Q1006
12-06-21 METAR LFPG 211400Z VRB05G17KT 8000 TSRA FEW020 BKN025CB BKN050 20/16 Q1005
12-06-21 METAR LFPG 211430Z 16009KT 120V180 9999 FEW020 FEW025CB BKN050 18/15 Q1007 RESHRA RETS NOSIG
12-06-21 METAR LFPG 211500Z 16006KT 9999 FEW020 FEW025CB SCT050 BKN100 18/15 Q1008
12-06-21 METAR LFPG 211530Z 26016KT 9999 FEW020 FEW025TCU SCT060 BKN100 20/16 Q1008
12-06-21 METAR LFPG 211600Z 25013KT 9999 SCT020 SCT060 BKN100 21/15 Q1009 NOSIG
12-06-21 METAR LFPG 211700Z 26017KT 9999 SCT030 21/11 Q1009 NOSIG
12-06-21 METAR LFPG 211730Z 23016KT 9999 SCT046 20/10 Q1010 NOSIG
12-06-21 METAR LFPG 211800Z 23017KT 9999 SCT049 20/09 Q1011 NOSIG
12-06-21 METAR LFPG 211830Z 25018KT 9999 SCT049 20/09 Q1011 NOSIG
12-06-21 METAR LFPG 211900Z 24016KT 9999 FEW047 19/08 Q1012 NOSIG
12-06-21 METAR LFPG 211930Z 23014KT 9999 FEW046 18/08 Q1012 NOSIG
12-06-21 METAR LFPG 212000Z 24013KT CAVOK 18/08 Q1013 NOSIG
12-06-21 METAR LFPG 212030Z 23013KT 9999 FEW046 17/08 Q1013 NOSIG
12-06-21 METAR LFPG 212100Z 23014KT 9999 FEW046 17/08 Q1014 NOSIG
12-06-21 METAR LFPG 212130Z 22014KT CAVOK 16/08 Q1014 NOSIG
12-06-21 METAR LFPG 212200Z 23016KT CAVOK 16/08 Q1014 NOSIG
12-06-21 METAR LFPG 212230Z 22013KT 190V250 9999 FEW044 15/08 Q1015 NOSIG
12-06-21 METAR LFPG 212300Z 21013KT 9999 FEW046 15/08 Q1015 NOSIG
12-06-21 METAR LFPG 212330Z 22017KT CAVOK 15/08 Q1015 NOSIG
12-06-22 METAR LFPG 220000Z 22015KT CAVOK 14/08 Q1015 NOSIG
12-06-22 METAR LFPG 220030Z 22016KT CAVOK 14/08 Q1015 NOSIG
12-06-22 METAR LFPG 220100Z 22015KT 9999 FEW026 14/08 Q1015 NOSIG
12-06-22 METAR LFPG 220130Z 22017G27KT 9999 BKN026 14/08 Q1016 NOSIG
12-06-22 METAR LFPG 220200Z 22014KT 9999 BKN029 13/09 Q1016 NOSIG
12-06-22 METAR LFPG 220230Z 21011KT 9999 FEW022 13/09 Q1016 NOSIG
12-06-22 METAR LFPG 220300Z 21013KT 9999 FEW022 13/09 Q1016 NOSIG
12-06-22 METAR LFPG 220330Z 21015KT 9999 FEW020 SCT075 13/09 Q1016 NOSIG
12-06-22 METAR LFPG 220400Z 21014KT 9999 FEW018 SCT072 13/09 Q1016 NOSIG
12-06-22 METAR LFPG 220430Z 21016KT 9999 VCSH SCT018 FEW033TCU BKN068 13/09 Q1016 NOSIG
12-06-22 METAR LFPG 220500Z 21017KT 9999 SCT017 SCT068 14/10 Q1016 NOSIG
12-06-22 METAR LFPG 220530Z 21017KT 9999 BKN017 SCT100 14/09 Q1017 NOSIG
12-06-22 METAR LFPG 220600Z 21016KT 9999 -SHRA BKN017 FEW033TCU BKN100 14/09 Q1017
12-06-22 METAR LFPG 220630Z 21017KT 9999 BKN017 BKN036 14/10 Q1017 NOSIG
12-06-22 METAR LFPG 220700Z 22015KT 9999 BKN021 14/10 Q1017 NOSIG
12-06-22 METAR LFPG 220730Z 22017KT 9999 BKN023 15/09 Q1018 NOSIG
12-06-22 METAR LFPG 220800Z 22018KT 9999 BKN026 16/09 Q1018 NOSIG
12-06-22 METAR LFPG 220830Z 22015KT 9999 BKN026 16/09 Q1018 NOSIG
12-06-22 METAR LFPG 220900Z 23017KT 9999 BKN031 17/09 Q1018 NOSIG
12-06-22 METAR LFPG 220930Z 23016KT 9999 SCT033 SCT046 17/08 Q1018 NOSIG
12-06-22 METAR LFPG 221000Z 23017KT 200V260 9999 SCT033 SCT046 18/08 Q1018 NOSIG
12-06-22 METAR LFPG 221030Z 23017KT 200V260 9999 FEW040 SCT060 18/09 Q1019 NOSIG
12-06-22 METAR LFPG 221100Z 24016G26KT 9999 FEW040 SCT060 19/08 Q1019 NOSIG
12-06-22 METAR LFPG 221130Z 23014KT 200V260 9999 SCT044 SCT060 19/08 Q1019 NOSIG
12-06-22 METAR LFPG 221200Z 23016KT 9999 SCT045 BKN260 20/08 Q1019 NOSIG
12-06-22 METAR LFPG 221230Z 25016KT 210V270 9999 FEW045 SCT066 BKN240 20/08 Q1019
12-06-22 METAR LFPG 221300Z 24016KT CAVOK 20/07 Q1019 NOSIG
12-06-22 METAR LFPG 221330Z 25016KT 220V280 CAVOK 21/07 Q1019 NOSIG
12-06-22 METAR LFPG 221400Z 24014KT CAVOK 21/07 Q1019 NOSIG
12-06-22 METAR LFPG 221430Z 24015KT CAVOK 21/07 Q1019 NOSIG
12-06-22 METAR LFPG 221500Z 23016KT CAVOK 21/07 Q1020 NOSIG
12-06-22 METAR LFPG 221530Z 25015KT CAVOK 21/07 Q1020 NOSIG
12-06-22 METAR LFPG 221600Z 27015KT CAVOK 21/06 Q1020 NOSIG
12-06-22 METAR LFPG 221630Z 25013KT CAVOK 21/06 Q1020 NOSIG
12-06-22 METAR LFPG 221700Z 26015KT CAVOK 21/05 Q1020 NOSIG
12-06-22 METAR LFPG 221730Z 24011KT 210V270 CAVOK 21/07 Q1020 NOSIG
12-06-22 METAR LFPG 221800Z 24013G24KT 200V270 CAVOK 20/07 Q1020 NOSIG
12-06-22 METAR LFPG 221830Z 24013KT 9999 FEW043 BKN054 20/07 Q1020 NOSIG
12-06-22 METAR LFPG 221900Z 24011KT 9999 FEW043 SCT054 19/08 Q1020 NOSIG
12-06-22 METAR LFPG 221930Z 23010KT 210V290 CAVOK 19/08 Q1021 NOSIG
12-06-22 METAR LFPG 222000Z 24010KT CAVOK 18/08 Q1021 NOSIG
12-06-22 METAR LFPG 222030Z 24011KT CAVOK 18/08 Q1021 NOSIG
12-06-22 METAR LFPG 222100Z 24009KT CAVOK 17/08 Q1022 NOSIG
12-06-22 METAR LFPG 222130Z 24008KT CAVOK 17/09 Q1022 NOSIG
12-06-22 METAR LFPG 222200Z 24009KT 190V290 9999 FEW048 17/09 Q1022 NOSIG
12-06-22 METAR LFPG 222230Z 24008KT CAVOK 16/09 Q1022 NOSIG
12-06-22 METAR LFPG 222300Z 27007KT CAVOK 16/09 Q1022 NOSIG
12-06-22 METAR LFPG 222330Z 26007KT CAVOK 16/09 Q1022 NOSIG
12-06-23 METAR LFPG 230000Z 27006KT CAVOK 15/09 Q1022 NOSIG
12-06-23 METAR LFPG 230030Z 25004KT CAVOK 14/09 Q1022 NOSIG
12-06-23 METAR LFPG 230100Z 23003KT CAVOK 14/09 Q1022 NOSIG
12-06-23 METAR LFPG 230130Z 23002KT CAVOK 14/09 Q1022 NOSIG
12-06-23 METAR LFPG 230200Z 25003KT 9999 FEW035 13/09 Q1023 NOSIG
12-06-23 METAR LFPG 230230Z 21005KT 9999 BKN035 14/10 Q1023 NOSIG
12-06-23 METAR LFPG 230300Z 21005KT 9999 BKN035 14/10 Q1023 NOSIG
12-06-23 METAR LFPG 230330Z 23005KT 9999 BKN035 14/10 Q1023 NOSIG
12-06-23 METAR LFPG 230400Z 24005KT 9999 BKN035 13/10 Q1023 NOSIG
12-06-23 METAR LFPG 230430Z 24005KT 9999 BKN039 13/10 Q1023 NOSIG
12-06-23 METAR LFPG 230500Z 25004KT 9999 BKN039 13/10 Q1024 NOSIG
12-06-23 METAR LFPG 230530Z 26005KT 9999 BKN041 13/10 Q1024 NOSIG
12-06-23 METAR LFPG 230600Z 26006KT 9999 BKN046 14/10 Q1024 NOSIG
12-06-23 METAR LFPG 230630Z 26005KT 9999 BKN046 14/09 Q1024 NOSIG
12-06-23 METAR LFPG 230700Z 27007KT CAVOK 15/10 Q1025 NOSIG
12-06-23 METAR LFPG 230730Z 27006KT 230V310 9999 FEW020 BKN053 15/10 Q1025 NOSIG
12-06-23 METAR LFPG 230800Z 29005KT 240V320 9999 FEW021 BKN053 15/10 Q1025 NOSIG
12-06-23 METAR LFPG 230830Z 31006KT 270V340 9999 FEW026 BKN053 16/09 Q1025 NOSIG
12-06-23 METAR LFPG 230900Z 29004KT 230V020 9999 FEW026 BKN053 17/08 Q1025 NOSIG
12-06-23 METAR LFPG 230930Z 24006KT 190V310 9999 SCT032 BKN053 18/08 Q1025 NOSIG
12-06-23 METAR LFPG 231000Z 27006KT 220V320 9999 SCT034 BKN053 18/08 Q1025 NOSIG
12-06-23 METAR LFPG 231030Z 27007KT 230V300 9999 SCT034 BKN053 18/09 Q1025 NOSIG
12-06-23 METAR LFPG 231100Z 25006KT 220V330 9999 SCT034 BKN053 19/08 Q1025 NOSIG
12-06-23 METAR LFPG 231130Z 28005KT 220V330 9999 SCT034 BKN053 19/09 Q1024 NOSIG
12-06-23 METAR LFPG 231200Z 27006KT 230V320 9999 SCT040 BKN056 19/09 Q1024 NOSIG
12-06-23 METAR LFPG 231230Z 23007G17KT 170V270 9999 SCT043 BKN056 20/07 Q1024 NOSIG
12-06-23 METAR LFPG 231300Z 28005KT 210V010 9999 SCT043 BKN056 20/08 Q1024 NOSIG
12-06-23 METAR LFPG 231330Z 27005KT 210V330 9999 SCT046 BKN060 21/08 Q1024 NOSIG
12-06-23 METAR LFPG 231400Z 25006KT 210V310 9999 SCT046 BKN060 21/09 Q1024 NOSIG
12-06-23 METAR LFPG 231430Z 26007KT 220V290 9999 SCT046 BKN060 21/08 Q1024 NOSIG
12-06-23 METAR LFPG 231500Z 24006KT 200V310 9999 FEW046 BKN060 21/08 Q1023 NOSIG
12-06-23 METAR LFPG 231530Z 26009KT 9999 FEW046 BKN060 21/07 Q1023 NOSIG
12-06-23 METAR LFPG 231600Z 26008KT 220V300 9999 FEW046 BKN060 20/08 Q1023 NOSIG
12-06-23 METAR LFPG 231630Z 24008KT 210V290 9999 FEW046 SCT060 21/07 Q1023 NOSIG
12-06-23 METAR LFPG 231700Z 26008KT 220V280 CAVOK 20/07 Q1023 NOSIG
12-06-23 METAR LFPG 231730Z 21008KT CAVOK 20/07 Q1023 NOSIG
12-06-23 METAR LFPG 231800Z 23008KT CAVOK 20/06 Q1022 NOSIG
12-06-23 METAR LFPG 231830Z 25008KT CAVOK 20/06 Q1022 NOSIG
12-06-23 METAR LFPG 231900Z 23007KT CAVOK 19/07 Q1022 NOSIG
12-06-23 METAR LFPG 231930Z 23006KT CAVOK 19/07 Q1023 NOSIG
12-06-23 METAR LFPG 232000Z 24005KT CAVOK 18/07 Q1023 NOSIG
12-06-23 METAR LFPG 232030Z 23006KT 190V310 CAVOK 17/07 Q1022 NOSIG
12-06-23 METAR LFPG 232100Z 22006G18KT 180V310 CAVOK 17/07 Q1022 NOSIG
12-06-23 METAR LFPG 232130Z 22006KT CAVOK 17/07 Q1022 NOSIG
12-06-23 METAR LFPG 232200Z 22005KT 200V290 CAVOK 16/07 Q1022 NOSIG
12-06-23 METAR LFPG 232230Z 21005KT 190V250 CAVOK 16/08 Q1022 NOSIG
12-06-23 METAR LFPG 232300Z VRB04KT CAVOK 16/08 Q1022 NOSIG
12-06-23 METAR LFPG 232330Z 17005KT 140V200 CAVOK 15/08 Q1021 NOSIG
12-06-24 METAR LFPG 240000Z 18005KT CAVOK 15/08 Q1021 NOSIG
12-06-24 METAR LFPG 240030Z 17006KT CAVOK 15/08 Q1021 NOSIG
12-06-24 METAR LFPG 240100Z 18007KT CAVOK 14/09 Q1021 NOSIG
12-06-24 METAR LFPG 240130Z 17007KT CAVOK 14/09 Q1020 NOSIG
12-06-24 METAR LFPG 240200Z 17007KT CAVOK 14/09 Q1020 NOSIG
12-06-24 METAR LFPG 240230Z 17006KT CAVOK 14/09 Q1020 NOSIG
12-06-24 METAR LFPG 240300Z 18009KT CAVOK 14/09 Q1019 NOSIG
12-06-24 METAR LFPG 240330Z 18007KT CAVOK 14/09 Q1019 NOSIG
12-06-24 METAR LFPG 240400Z 19007KT 160V240 CAVOK 14/09 Q1019 NOSIG
12-06-24 METAR LFPG 240430Z 20008KT 180V240 CAVOK 14/09 Q1019 NOSIG
12-06-24 METAR LFPG 240500Z 21009KT CAVOK 14/09 Q1018 NOSIG
12-06-24 METAR LFPG 240530Z 22010KT CAVOK 15/09 Q1018 NOSIG
12-06-24 METAR LFPG 240600Z 21010KT CAVOK 15/07 Q1018 NOSIG
12-06-24 METAR LFPG 240630Z 21013KT CAVOK 16/06 Q1018 NOSIG
12-06-24 METAR LFPG 240700Z 20013KT CAVOK 16/06 Q1017 NOSIG
12-06-24 METAR LFPG 240730Z 20013KT 9999 BKN036 BKN060 16/06 Q1017 NOSIG
12-06-24 METAR LFPG 240800Z 20013KT 9999 BKN030 BKN040 16/06 Q1017 NOSIG
12-06-24 METAR LFPG 240830Z 21015G27KT 9999 SCT026 BKN043 16/07 Q1017 NOSIG
12-06-24 METAR LFPG 240900Z 22017KT 9999 -RA SCT026 BKN042 16/10 Q1017 NOSIG
12-06-24 METAR LFPG 240930Z 22016KT 190V260 9999 -RA SCT025 BKN046 15/11 Q1017 NOSIG
12-06-24 METAR LFPG 241000Z 21013KT 180V280 9999 -RA BKN021 BKN034 15/12 Q1017
12-06-24 METAR LFPG 241030Z NIL
12-06-24 METAR LFPG 241042Z 22013KT 080V240 9999 -RA BKN018 15/12 Q1017 NOSIG
12-06-24 METAR LFPG 241100Z 22015KT 9999 -RA BKN018 15/12 Q1016 NOSIG
12-06-24 METAR LFPG 241130Z 22015KT 9999 -RA BKN018 16/12 Q1016 NOSIG
12-06-24 METAR LFPG 241200Z 22014KT 9999 -RA BKN018 16/13 Q1016 NOSIG
12-06-24 METAR LFPG 241230Z 22013KT 8000 -RA BKN018 16/13 Q1016 NOSIG
12-06-24 METAR LFPG 241300Z 23012KT 200V300 5000 RA BKN015 16/14 Q1016 NOSIG
12-06-24 METAR LFPG 241330Z 23010KT 200V260 2000 RA BKN005 BKN012 16/15 Q1016 NOSIG
12-06-24 METAR LFPG 241400Z 23009KT 2000 RA BKN004 BKN010 16/15 Q1016 NOSIG
12-06-24 METAR LFPG 241430Z 31012KT 240V360 2000 +RA BKN004 BKN007 15/13 Q1016
12-06-24 METAR LFPG 241500Z 33009KT 4500 -RA SCT006 BKN010 BKN023 14/13 Q1016 NOSIG
12-06-24 METAR LFPG 241530Z 31006KT 280V340 4500 -RA BKN006 BKN024 14/13 Q1016
12-06-24 METAR LFPG 241600Z 30007KT 270V330 3000 -RA BKN005 BKN024 14/13 Q1016
12-06-24 METAR LFPG 241630Z 30007KT 3000 -RA BKN005 BKN028 14/13 Q1016 NOSIG
12-06-24 METAR LFPG 241700Z 30006KT 4500 -RA BKN005 BKN028 14/13 Q1017 NOSIG
12-06-24 METAR LFPG 241730Z 30006KT 4500 -RA BKN005 BKN028 14/13 Q1016 NOSIG
12-06-24 METAR LFPG 241800Z 29006KT 4500 -RA BKN005 BKN037 14/13 Q1017 NOSIG
12-06-24 METAR LFPG 241830Z 28005KT 3500 -RA BKN006 BKN038 14/13 Q1017 NOSIG
12-06-24 METAR LFPG 241900Z 26005KT 6000 -RA BKN006 BKN045 14/13 Q1017 NOSIG
12-06-24 METAR LFPG 241930Z 25006KT 6000 -RA SCT004 SCT005 BKN040 14/13 Q1017 NOSIG
12-06-24 METAR LFPG 242000Z 27006KT 9999 SCT006 BKN026 14/13 Q1017 NOSIG
12-06-24 METAR LFPG 242030Z 26004KT 9999 SCT006 BKN018 BKN080 14/13 Q1017 NOSIG
12-06-24 METAR LFPG 242100Z 25004KT 9999 BKN009 BKN080 14/13 Q1018 NOSIG
12-06-24 METAR LFPG 242130Z VRB03KT 9999 SCT006 BKN080 BKN120 14/13 Q1018 NOSIG
12-06-24 METAR LFPG 242200Z 27003KT 9999 BKN007 BKN080 14/13 Q1018 NOSIG
12-06-24 METAR LFPG 242230Z 28004KT 9999 FEW008 BKN220 13/12 Q1018 NOSIG
12-06-24 METAR LFPG 242300Z 30003KT 9999 FEW006 13/12 Q1018 NOSIG
12-06-24 METAR LFPG 242330Z 27005KT CAVOK 13/12 Q1018 NOSIG
12-06-25 METAR LFPG 250000Z 25005KT CAVOK 13/12 Q1018 NOSIG
12-06-25 METAR LFPG 250030Z 24003KT 9999 FEW013 12/11 Q1018 NOSIG
12-06-25 METAR LFPG 250100Z 26004KT 9999 BKN013 12/12 Q1018 NOSIG
12-06-25 METAR LFPG 250130Z 27005KT 9999 BKN013 12/11 Q1018 NOSIG
12-06-25 METAR LFPG 250200Z 26005KT 9999 SCT013 SCT260 12/11 Q1018 NOSIG
12-06-25 METAR LFPG 250230Z 25006KT 9999 FEW013 SCT260 12/11 Q1018 NOSIG
12-06-25 METAR LFPG 250300Z 24005KT 9999 SCT008 SCT260 12/11 Q1018 NOSIG
12-06-25 METAR LFPG 250330Z 27005KT 9000 BKN008 SCT260 12/11 Q1018 NOSIG
12-06-25 METAR LFPG 250400Z 28006KT 9000 BKN007 12/11 Q1018 NOSIG
12-06-25 METAR LFPG 250430Z 28008KT 9999 BKN007 12/11 Q1018 NOSIG
12-06-25 METAR LFPG 250500Z 26010KT 9000 BKN007 12/11 Q1019 NOSIG
12-06-25 METAR LFPG 250530Z 26009KT 9000 FEW005 BKN006 12/11 Q1019 NOSIG
12-06-25 METAR LFPG 250600Z 27009KT 9999 BKN006 12/10 Q1019 NOSIG
12-06-25 METAR LFPG 250630Z 27008KT 9999 BKN006 12/10 Q1019 NOSIG
12-06-25 METAR LFPG 250700Z 30010KT 9999 SCT006 BKN008 12/10 Q1020 NOSIG
12-06-25 METAR LFPG 250730Z NIL
12-06-25 METAR LFPG 250800Z 29007KT 250V310 9999 SCT007 BKN008 13/11 Q1020 NOSIG
12-06-25 METAR LFPG 250830Z 28006KT 260V330 9999 SCT009 BKN010 13/11 Q1020 NOSIG
12-06-25 METAR LFPG 250900Z 28005KT 250V310 9999 BKN011 14/11 Q1020 NOSIG
12-06-25 METAR LFPG 250930Z 30004KT 240V340 9999 BKN012 14/11 Q1020 NOSIG
12-06-25 METAR LFPG 251000Z 29006KT 250V330 9999 BKN015 15/11 Q1020 NOSIG
12-06-25 METAR LFPG 251030Z 31006KT 260V350 9999 BKN016 15/10 Q1020 NOSIG
12-06-25 METAR LFPG 251100Z 29006KT 220V350 9999 SCT019 SCT200 16/11 Q1020 NOSIG
12-06-25 METAR LFPG 251130Z 28008KT 250V320 9999 SCT024 SCT200 17/10 Q1020 NOSIG
12-06-25 METAR LFPG 251200Z 29007KT 260V330 9999 FEW024 SCT190 18/09 Q1020 NOSIG
12-06-25 METAR LFPG 251230Z 26005KT 200V320 9999 FEW033 BKN210 18/10 Q1020 NOSIG
12-06-25 METAR LFPG 251300Z 28006KT 250V310 9999 FEW038 BKN200 19/09 Q1020 NOSIG
12-06-25 METAR LFPG 251330Z 30004KT 200V010 9999 FEW038 BKN140 19/09 Q1020 NOSIG
12-06-25 METAR LFPG 251400Z 29005KT 250V350 9999 FEW040 BKN140 19/09 Q1020 NOSIG
12-06-25 METAR LFPG 251430Z 27004KT 220V310 9999 FEW040 BKN130 20/09 Q1020 NOSIG
12-06-25 METAR LFPG 251500Z NIL
12-06-25 METAR LFPG 251507Z 27004KT 220V310 9999 FEW042 BKN130 19/09 Q1020 NOSIG
12-06-25 METAR LFPG 251530Z 27005KT 240V310 9999 FEW042 BKN150 20/09 Q1020 NOSIG
12-06-25 METAR LFPG 251600Z 27006KT 230V310 9999 FEW042 BKN150 20/08 Q1020 NOSIG
12-06-25 METAR LFPG 251630Z 33004KT 270V080 9999 FEW046 SCT150 BKN210 19/08 Q1020 NOSIG
12-06-25 METAR LFPG 251700Z 32004KT 270V010 9999 FEW046 BKN150 20/09 Q1020 NOSIG
12-06-25 METAR LFPG 251730Z 32005KT 9999 FEW046 BKN150 19/09 Q1020 NOSIG
12-06-25 METAR LFPG 251800Z 32005KT CAVOK 19/09 Q1020 NOSIG
12-06-25 METAR LFPG 251830Z 33003KT CAVOK 19/09 Q1020 NOSIG
12-06-25 METAR LFPG 251900Z 33003KT CAVOK 18/09 Q1020 NOSIG
12-06-25 METAR LFPG 251930Z 33003KT CAVOK 18/09 Q1020 NOSIG
12-06-25 METAR LFPG 252000Z 32002KT CAVOK 18/10 Q1020 NOSIG
12-06-25 METAR LFPG 252030Z 31002KT CAVOK 18/09 Q1021 NOSIG
12-06-25 METAR LFPG 252100Z 30001KT CAVOK 18/09 Q1021 NOSIG
12-06-25 METAR LFPG 252130Z 32001KT CAVOK 17/10 Q1021 NOSIG
12-06-25 METAR LFPG 252200Z VRB03KT CAVOK 17/10 Q1021 NOSIG
12-06-25 METAR LFPG 252230Z VRB02KT CAVOK 17/09 Q1021 NOSIG
12-06-25 METAR LFPG 252300Z 14001KT 9999 SCT035 BKN120 BKN240 17/10 Q1021 NOSIG
12-06-25 METAR LFPG 252330Z 13003KT 090V150 9999 FEW035 BKN120 BKN190 16/10 Q1020
12-06-26 METAR LFPG 260000Z 15004KT 9999 SCT035 SCT100 BKN220 16/10 Q1020 NOSIG
12-06-26 METAR LFPG 260030Z VRB02KT 9999 SCT033 SCT096 BKN220 16/10 Q1020 NOSIG
12-06-26 METAR LFPG 260100Z 08003KT 9999 FEW033 BKN093 16/11 Q1020 NOSIG
12-06-26 METAR LFPG 260130Z 09003KT 9999 FEW033 BKN053 BKN093 16/11 Q1020 NOSIG
12-06-26 METAR LFPG 260200Z 12003KT 9999 -RA BKN048 BKN080 16/11 Q1020 NOSIG
12-06-26 METAR LFPG 260230Z 13003KT 9999 -RA SCT046 BKN080 16/12 Q1020 NOSIG
12-06-26 METAR LFPG 260300Z 14003KT 100V170 9999 -RA SCT040 BKN080 16/12 Q1020 NOSIG
12-06-26 METAR LFPG 260330Z 15004KT 9999 -RA BKN040 BKN073 15/12 Q1020 NOSIG
12-06-26 METAR LFPG 260400Z 14004KT 9999 -RA SCT040 BKN060 15/12 Q1020 NOSIG
12-06-26 METAR LFPG 260430Z 14004KT 9999 -RA SCT038 BKN070 15/11 Q1021 NOSIG
12-06-26 METAR LFPG 260500Z 13005KT 9999 -RA FEW026 SCT033 BKN045 15/12 Q1021 NOSIG
12-06-26 METAR LFPG 260530Z 14005KT 100V160 9999 SCT029 BKN033 15/12 Q1021 NOSIG
12-06-26 METAR LFPG 260600Z 15004KT 9999 BKN027 15/13 Q1021 NOSIG
12-06-26 METAR LFPG 260630Z 13003KT 100V170 9999 SCT023 BKN026 15/13 Q1021 NOSIG
12-06-26 METAR LFPG 260700Z 15005KT 100V170 9999 FEW010 BKN022 16/14 Q1021 NOSIG
12-06-26 METAR LFPG 260800Z 12008KT 090V160 9999 SCT010 BKN020 16/13 Q1021 NOSIG
12-06-26 METAR LFPG 260900Z 15007KT 110V180 2000 SCT004 BKN008 16/15 Q1022 NOSIG
12-06-26 METAR LFPG 261100Z 18004KT 150V210 9999 BKN006 17/16 Q1022 NOSIG
12-06-26 METAR LFPG 261130Z 16004KT 120V220 9999 BKN009 18/16 Q1022 NOSIG
12-06-26 METAR LFPG 261200Z VRB02KT 9999 BKN010 19/16 Q1022 NOSIG
12-06-26 METAR LFPG 261230Z 23005KT 150V290 9999 BKN013 BKN020 19/16 Q1022 NOSIG
12-06-26 METAR LFPG 261330Z VRB02KT 9999 BKN016 BKN031 20/15 Q1022 NOSIG
12-06-26 METAR LFPG 261400Z 29004KT 240V330 9999 BKN018 BKN032 21/16 Q1022 NOSIG
12-06-26 METAR LFPG 261430Z VRB01KT 9999 BKN018 BKN030 20/16 Q1022 NOSIG
12-06-26 METAR LFPG 261500Z 33003KT 290V030 9999 BKN020 BKN026 21/16 Q1022 NOSIG
12-06-26 METAR LFPG 261530Z 33003KT 290V020 9999 FEW020 BKN026 20/16 Q1022 NOSIG
12-06-26 METAR LFPG 261600Z 31004KT 280V350 9999 FEW020 BKN026 BKN035 21/15 Q1022
12-06-26 METAR LFPG 261630Z 29004KT 9999 FEW020 BKN024 BKN040 21/16 Q1022 NOSIG
12-06-26 METAR LFPG 261700Z 30005KT 9999 FEW020 SCT030 BKN040 21/16 Q1022 NOSIG
12-06-26 METAR LFPG 261730Z 32004KT 9999 FEW020 BKN026 21/16 Q1022 NOSIG
12-06-26 METAR LFPG 261800Z 31004KT 9999 FEW018 BKN033 20/16 Q1022 NOSIG
12-06-26 METAR LFPG 261830Z 32004KT 9999 FEW018 BKN033 20/16 Q1022 NOSIG
12-06-26 METAR LFPG 261900Z 31004KT 9999 FEW016 BKN031 20/16 Q1022 NOSIG
12-06-26 METAR LFPG 261930Z 30004KT 9999 FEW015 BKN031 20/16 Q1022 NOSIG
12-06-26 METAR LFPG 262000Z 29005KT 9999 FEW013 BKN031 20/16 Q1022 NOSIG
12-06-26 METAR LFPG 262130Z 29004KT 9999 BKN023 BKN086 19/15 Q1023 NOSIG
12-06-26 METAR LFPG 262200Z 31003KT 9999 BKN023 BKN086 19/15 Q1023 NOSIG
12-06-26 METAR LFPG 262230Z 28003KT 9999 BKN020 BKN073 19/15 Q1023 NOSIG
12-06-26 METAR LFPG 262300Z 29003KT 9999 BKN020 BKN073 19/15 Q1022 NOSIG
12-06-26 METAR LFPG 262330Z 30004KT 9999 FEW020 BKN073 18/15 Q1022 NOSIG
12-06-27 METAR LFPG 270000Z 30003KT 9999 FEW026 17/15 Q1022 NOSIG
12-06-27 METAR LFPG 270030Z VRB02KT 9999 FEW026 17/15 Q1022 NOSIG
12-06-27 METAR LFPG 270100Z 28002KT CAVOK 17/15 Q1022 NOSIG
12-06-27 METAR LFPG 270130Z 21001KT CAVOK 17/15 Q1022 NOSIG
12-06-27 METAR LFPG 270200Z 00000KT CAVOK 17/15 Q1022 NOSIG
12-06-27 METAR LFPG 270230Z VRB02KT CAVOK 16/15 Q1022 NOSIG
12-06-27 METAR LFPG 270300Z 00000KT 9000 FEW026 16/15 Q1022 NOSIG
12-06-27 METAR LFPG 270330Z VRB02KT 9000 BKN025 16/15 Q1022 NOSIG
12-06-27 METAR LFPG 270400Z 19003KT 9000 BKN026 17/15 Q1022 NOSIG
12-06-27 METAR LFPG 270430Z VRB02KT 9000 SCT020 BKN026 17/15 Q1022 NOSIG
12-06-27 METAR LFPG 270500Z VRB02KT 9999 SCT018 BKN023 18/16 Q1022 NOSIG
12-06-27 METAR LFPG 270530Z 19003KT 9999 FEW025 BKN033 18/16 Q1022 NOSIG
12-06-27 METAR LFPG 270600Z 18004KT 8000 BKN035 18/16 Q1021 NOSIG
12-06-27 METAR LFPG 270630Z VRB03KT 9999 BKN020 BKN038 19/17 Q1021 NOSIG
12-06-27 METAR LFPG 270700Z 20003KT 180V240 9999 BKN021 BKN040 20/17 Q1021 NOSIG
12-06-27 METAR LFPG 270730Z 21004KT 150V240 9999 FEW016 BKN022 BKN040 20/17 Q1021 NOSIG
12-06-27 METAR LFPG 270800Z 22004KT 160V270 9999 FEW015 SCT022 BKN039 21/16 Q1021
12-06-27 METAR LFPG 270830Z 24003KT 190V300 9999 SCT017 BKN039 22/17 Q1021 NOSIG
12-06-27 METAR LFPG 270900Z 20003KT 140V260 9999 SCT018 BKN040 22/17 Q1021 NOSIG
12-06-27 METAR LFPG 270930Z VRB04KT 9999 SCT020 BKN041 23/16 Q1021 NOSIG
12-06-27 METAR LFPG 271000Z VRB04KT 9999 SCT020 BKN041 24/17 Q1020 NOSIG
12-06-27 METAR LFPG 271030Z 20004G15KT 110V240 9999 SCT026 BKN038 24/16 Q1020 NOSIG
12-06-27 METAR LFPG 271100Z 12005KT 080V190 9999 SCT031 BKN038 24/16 Q1020 NOSIG
12-06-27 METAR LFPG 271130Z VRB01KT 9999 SCT029 BKN041 25/16 Q1020 NOSIG
12-06-27 METAR LFPG 271200Z 12003KT 040V180 9999 SCT029 BKN043 24/16 Q1020 NOSIG
12-06-27 METAR LFPG 271230Z VRB04KT 9999 SCT033 BKN040 25/16 Q1019 NOSIG
12-06-27 METAR LFPG 271300Z VRB04KT 9999 SCT032 BKN044 25/16 Q1019 NOSIG
12-06-27 METAR LFPG 271330Z VRB02KT 9999 SCT033 SCT045 BKN240 25/16 Q1019 NOSIG
12-06-27 METAR LFPG 271400Z 06005KT 020V090 9999 FEW033 BKN045 25/17 Q1019 NOSIG
12-06-27 METAR LFPG 271430Z 09007KT 050V120 9999 FEW033 BKN170 25/17 Q1018 NOSIG
12-06-27 METAR LFPG 271500Z 15005KT 100V190 9999 FEW033 SCT170 25/17 Q1018 NOSIG
12-06-27 METAR LFPG 271530Z 10004KT 050V150 9999 FEW035 BKN250 26/17 Q1018 NOSIG
12-06-27 METAR LFPG 271600Z 14005KT 070V210 9999 FEW034 BKN250 25/17 Q1017 NOSIG
12-06-27 METAR LFPG 271630Z 11006KT 060V150 9999 FEW035 BKN260 25/16 Q1017 NOSIG
12-06-27 METAR LFPG 271700Z 11005KT 070V140 9999 FEW035 SCT160 25/16 Q1017 NOSIG
12-06-27 METAR LFPG 271730Z 09009KT 9999 FEW035 BKN170 25/16 Q1016 NOSIG
12-06-27 METAR LFPG 271800Z 11011KT CAVOK 25/17 Q1015 NOSIG
12-06-27 METAR LFPG 271830Z 12010KT CAVOK 24/17 Q1015 NOSIG
12-06-27 METAR LFPG 271900Z 14005KT CAVOK 24/17 Q1015 NOSIG
12-06-27 METAR LFPG 271930Z 11007KT 080V140 CAVOK 24/17 Q1015 NOSIG
12-06-27 METAR LFPG 272000Z 07005KT CAVOK 22/17 Q1015 NOSIG
12-06-27 METAR LFPG 272030Z 08006KT CAVOK 22/17 Q1015 NOSIG
12-06-27 METAR LFPG 272100Z 02004KT 330V080 CAVOK 22/17 Q1015 NOSIG
12-06-27 METAR LFPG 272130Z 03006KT CAVOK 21/17 Q1015 NOSIG
12-06-27 METAR LFPG 272200Z 06007KT CAVOK 21/18 Q1014 NOSIG
12-06-27 METAR LFPG 272230Z 08011KT CAVOK 21/17 Q1013 NOSIG
12-06-27 METAR LFPG 272300Z 11008KT CAVOK 21/17 Q1013 NOSIG
12-06-27 METAR LFPG 272330Z 10009KT CAVOK 21/17 Q1013 NOSIG
12-06-28 METAR LFPG 280000Z 10008KT CAVOK 21/17 Q1013 NOSIG
12-06-28 METAR LFPG 280030Z 11006KT CAVOK 21/16 Q1013 NOSIG
12-06-28 METAR LFPG 280100Z 08006KT CAVOK 20/16 Q1012 NOSIG
12-06-28 METAR LFPG 280130Z 10007KT CAVOK 20/16 Q1012 NOSIG
12-06-28 METAR LFPG 280200Z 10008KT CAVOK 20/16 Q1011 NOSIG
12-06-28 METAR LFPG 280230Z 10008KT CAVOK 19/16 Q1011 NOSIG
12-06-28 METAR LFPG 280300Z 10007KT CAVOK 19/16 Q1010 NOSIG
12-06-28 METAR LFPG 280330Z 11008KT CAVOK 19/16 Q1010 NOSIG
12-06-28 METAR LFPG 280400Z 11007KT CAVOK 19/16 Q1010 NOSIG
12-06-28 METAR LFPG 280430Z 12010KT CAVOK 19/16 Q1009 NOSIG
12-06-28 METAR LFPG 280500Z 11009KT CAVOK 19/16 Q1009 NOSIG
12-06-28 METAR LFPG 280530Z 12011KT CAVOK 20/16 Q1008 NOSIG
12-06-28 METAR LFPG 280600Z 13010KT CAVOK 21/17 Q1008 NOSIG
12-06-28 METAR LFPG 280630Z 13011KT CAVOK 21/17 Q1008 NOSIG
12-06-28 METAR LFPG 280700Z 13009KT 100V160 CAVOK 22/17 Q1007 NOSIG
12-06-28 METAR LFPG 280730Z 12010KT CAVOK 23/17 Q1007 NOSIG
12-06-28 METAR LFPG 280800Z 15009KT CAVOK 23/18 Q1008 NOSIG
12-06-28 METAR LFPG 280830Z 16011KT CAVOK 24/17 Q1007 NOSIG
12-06-28 METAR LFPG 280900Z 15010KT 9999 -RA FEW039 BKN130 23/18 Q1007 NOSIG
12-06-28 METAR LFPG 280930Z 15010KT 110V180 9999 FEW026 BKN120 23/18 Q1007 NOSIG
12-06-28 METAR LFPG 281000Z 13010KT 100V180 CAVOK 24/18 Q1006 NOSIG
12-06-28 METAR LFPG 281030Z 15011KT 110V180 9999 FEW040 SCT120 26/19 Q1006 NOSIG
12-06-28 METAR LFPG 281100Z 17011G26KT 120V260 CAVOK 26/19 Q1006 NOSIG
12-06-28 METAR LFPG 281130Z 17010KT 140V200 CAVOK 27/19 Q1006 NOSIG
12-06-28 METAR LFPG 281200Z VRB10G20KT CAVOK 29/18 Q1006 NOSIG
12-06-28 METAR LFPG 281230Z 16011KT 040V190 CAVOK 29/19 Q1005 NOSIG
12-06-28 METAR LFPG 281300Z 17010KT 140V200 CAVOK 30/18 Q1005 NOSIG
12-06-28 METAR LFPG 281330Z 18013KT 160V220 CAVOK 31/18 Q1005 NOSIG
12-06-28 METAR LFPG 281400Z 19014KT CAVOK 31/18 Q1005 NOSIG
12-06-28 METAR LFPG 281430Z 20013KT 180V250 CAVOK 31/17 Q1005 NOSIG
12-06-28 METAR LFPG 281500Z 20015KT 170V260 CAVOK 32/17 Q1005 NOSIG
12-06-28 METAR LFPG 281530Z 21014KT CAVOK 31/17 Q1005 NOSIG
12-06-28 METAR LFPG 281600Z 22013KT 9999 BKN053 FEW056TCU SCT100 31/16 Q1005 NOSIG
12-06-28 METAR LFPG 281630Z 22014KT 9999 BKN053 FEW056CB BKN100 31/17 Q1005 NOSIG
12-06-28 METAR LFPG 281700Z 23011KT 9999 VCTS BKN053 FEW056CB BKN100 30/17 Q1005 NOSIG
12-06-28 METAR LFPG 281730Z 34008KT 330V030 9999 VCTS BKN056 FEW063CB BKN100 27/19 Q1006 NOSIG
12-06-28 METAR LFPG 281800Z 36003KT 9999 SCT056 SCT063CB BKN100 27/18 Q1006 RETS
12-06-28 METAR LFPG 281830Z 02004KT 9999 SCT052 FEW063CB BKN097 26/19 Q1006 RETS
12-06-28 METAR LFPG 281900Z 36003KT 330V040 9999 SCT046 FEW063TCU BKN097 BKN260 26/18 Q1006 NOSIG
12-06-28 METAR LFPG 281930Z 03003KT 9999 FEW046 SCT093 25/18 Q1006 NOSIG
12-06-28 METAR LFPG 282000Z 30001KT CAVOK 25/18 Q1007 NOSIG
12-06-28 METAR LFPG 282030Z 00000KT CAVOK 24/18 Q1007 NOSIG
12-06-28 METAR LFPG 282100Z VRB02KT CAVOK 24/18 Q1007 NOSIG
12-06-28 METAR LFPG 282130Z 24002KT CAVOK 24/19 Q1007 NOSIG
12-06-28 METAR LFPG 282200Z VRB03KT CAVOK 24/19 Q1007 NOSIG
12-06-28 METAR LFPG 282230Z 23007KT 200V300 CAVOK 24/19 Q1008 NOSIG
12-06-28 METAR LFPG 282300Z 25009KT CAVOK 23/17 Q1008 NOSIG
12-06-28 METAR LFPG 282330Z 24010KT CAVOK 23/14 Q1008 NOSIG
12-06-29 METAR LFPG 290000Z 25010KT CAVOK 22/14 Q1008 NOSIG
12-06-29 METAR LFPG 290030Z 25009KT CAVOK 21/14 Q1008 NOSIG
12-06-29 METAR LFPG 290100Z 27006KT CAVOK 21/15 Q1008 NOSIG
12-06-29 METAR LFPG 290130Z 28007KT CAVOK 20/15 Q1008 NOSIG
12-06-29 METAR LFPG 290200Z 25011KT CAVOK 20/15 Q1008 NOSIG
12-06-29 METAR LFPG 290230Z 25007KT CAVOK 19/15 Q1008 NOSIG
12-06-29 METAR LFPG 290300Z 25008KT CAVOK 18/14 Q1008 NOSIG
12-06-29 METAR LFPG 290330Z 25009KT 9999 FEW026 BKN100 18/13 Q1009 NOSIG
12-06-29 METAR LFPG 290400Z 24005KT 9999 FEW026 SCT100 BKN150 18/13 Q1008 NOSIG
12-06-29 METAR LFPG 290430Z 23008KT 9999 FEW026 SCT073 BKN150 17/13 Q1009 NOSIG
12-06-29 METAR LFPG 290500Z 24009KT 9999 -SHRA FEW028 SCT077 BKN140 17/14 Q1010 NOSIG
12-06-29 METAR LFPG 290530Z 25007KT 9999 -TSRA FEW018 FEW060CB BKN086 16/13 Q1010
12-06-29 METAR LFPG 290600Z VRB03KT 9999 VCTS FEW020 FEW060CB BKN080 16/13 Q1009
12-06-29 METAR LFPG 290630Z 24007KT 9999 FEW020 BKN073 16/12 Q1009 RETS NOSIG
12-06-29 METAR LFPG 290700Z 24007KT 220V280 9999 FEW020 FEW060CB BKN073 16/13 Q1010
12-06-29 METAR LFPG 290730Z 22006KT 150V270 9999 FEW033 FEW060CB BKN100 16/14 Q1010
12-06-29 METAR LFPG 290800Z 22007KT 200V260 9999 FEW011 BKN080 17/13 Q1010 NOSIG
12-06-29 METAR LFPG 290830Z 22009KT 200V270 9999 FEW015 BKN073 17/11 Q1010 NOSIG
12-06-29 METAR LFPG 290900Z 22009KT 9999 FEW015 BKN066 18/10 Q1010 NOSIG
12-06-29 METAR LFPG 290930Z 24010KT 9999 FEW015 BKN066 19/11 Q1010 NOSIG
12-06-29 METAR LFPG 291000Z 24008KT 9999 FEW015 BKN062 19/10 Q1011 NOSIG
12-06-29 METAR LFPG 291030Z 24009KT 200V290 9999 FEW015 BKN063 19/10 Q1011 NOSIG
12-06-29 METAR LFPG 291100Z 22009KT 180V300 9999 FEW015 OVC063 19/11 Q1011 NOSIG
12-06-29 METAR LFPG 291130Z 22008KT 190V270 9999 FEW033 OVC063 20/11 Q1011 NOSIG
12-06-29 METAR LFPG 291200Z 23013KT 9999 FEW033 BKN080 20/11 Q1011 NOSIG
12-06-29 METAR LFPG 291230Z 25011KT 9999 FEW040 BKN060 20/11 Q1011 NOSIG
12-06-29 METAR LFPG 291300Z 23009G21KT 200V360 9999 BKN041 21/11 Q1011 NOSIG
12-06-29 METAR LFPG 291330Z 23012KT 200V260 9999 BKN041 21/11 Q1011 NOSIG
12-06-29 METAR LFPG 291400Z 24012KT 9999 FEW041 BKN060 21/10 Q1011 NOSIG
12-06-29 METAR LFPG 291430Z 24010KT 9999 FEW041 BKN060 21/10 Q1011 NOSIG
12-06-29 METAR LFPG 291500Z 22013KT 200V280 9999 FEW041 BKN060 22/11 Q1011 NOSIG
12-06-29 METAR LFPG 291530Z 21011KT CAVOK 21/10 Q1011 NOSIG
12-06-29 METAR LFPG 291600Z 21011KT CAVOK 22/10 Q1011 NOSIG
12-06-29 METAR LFPG 291630Z 22011KT 190V250 9999 FEW046 BKN066 22/11 Q1011 NOSIG
12-06-29 METAR LFPG 291700Z 22012KT 9999 FEW046 BKN070 22/11 Q1011 NOSIG
12-06-29 METAR LFPG 291730Z 21011KT 9999 FEW046 BKN070 22/11 Q1011 NOSIG
12-06-29 METAR LFPG 291800Z 21012KT 9999 FEW046 SCT064 BKN083 22/11 Q1011 NOSIG
12-06-29 METAR LFPG 291830Z 21010KT 9999 FEW043 BKN083 22/11 Q1011 NOSIG
12-06-29 METAR LFPG 291900Z 20011KT 180V290 9999 FEW043 BKN083 21/11 Q1011 NOSIG
12-06-29 METAR LFPG 291930Z 20010KT 9999 FEW043 BKN083 21/11 Q1011 NOSIG
12-06-29 METAR LFPG 292000Z 20011KT 9999 FEW041 SCT083 21/11 Q1011 NOSIG
12-06-29 METAR LFPG 292030Z 20010KT CAVOK 20/11 Q1012 NOSIG
12-06-29 METAR LFPG 292100Z 20008G19KT 180V340 CAVOK 20/12 Q1012 NOSIG
12-06-29 METAR LFPG 292130Z 19010KT CAVOK 19/12 Q1012 NOSIG
12-06-29 METAR LFPG 292200Z 20008KT CAVOK 19/12 Q1012 NOSIG
12-06-29 METAR LFPG 292230Z 21009KT CAVOK 19/12 Q1012 NOSIG
12-06-29 METAR LFPG 292300Z 20009KT CAVOK 19/11 Q1012 NOSIG
12-06-29 METAR LFPG 292330Z 21009KT CAVOK 19/11 Q1012 NOSIG
12-06-30 METAR LFPG 300000Z 22010KT 9999 FEW042 SCT260 18/11 Q1012 NOSIG
12-06-30 METAR LFPG 300030Z 21007KT CAVOK 18/12 Q1012 NOSIG
12-06-30 METAR LFPG 300100Z 21005KT CAVOK 17/11 Q1012 NOSIG
12-06-30 METAR LFPG 300130Z 22003KT CAVOK 17/11 Q1012 NOSIG
12-06-30 METAR LFPG 300200Z 22005KT CAVOK 16/11 Q1012 NOSIG
12-06-30 METAR LFPG 300230Z 21005KT CAVOK 16/11 Q1012 NOSIG
12-06-30 METAR LFPG 300300Z 22005KT CAVOK 15/11 Q1012 NOSIG
12-06-30 METAR LFPG 300330Z 22005KT 190V260 CAVOK 15/11 Q1012 NOSIG
12-06-30 METAR LFPG 300400Z 20005KT CAVOK 15/11 Q1012 NOSIG
12-06-30 METAR LFPG 300430Z 18005KT 130V220 CAVOK 15/11 Q1012 NOSIG
12-06-30 METAR LFPG 300500Z 15006KT 090V170 CAVOK 15/11 Q1012 NOSIG
12-06-30 METAR LFPG 300530Z 18005KT 150V210 CAVOK 15/11 Q1012 NOSIG
12-06-30 METAR LFPG 300600Z 19008KT CAVOK 16/11 Q1013 NOSIG
12-06-30 METAR LFPG 300630Z 18010KT 140V230 CAVOK 16/10 Q1013 NOSIG
12-06-30 METAR LFPG 300700Z 17010KT CAVOK 16/11 Q1013 NOSIG
12-06-30 METAR LFPG 300730Z 19009KT 160V220 CAVOK 17/11 Q1013 NOSIG
12-06-30 METAR LFPG 300800Z 21009KT 180V240 9999 FEW028 18/11 Q1013 NOSIG
12-06-30 METAR LFPG 300830Z 22009KT 190V250 9999 FEW025 19/11 Q1013 NOSIG
12-06-30 METAR LFPG 300900Z 24006KT 200V280 9999 FEW028 SCT093 19/11 Q1013 NOSIG
12-06-30 METAR LFPG 300930Z 22007KT 130V280 9999 FEW031 SCT100 20/11 Q1013 NOSIG
12-06-30 METAR LFPG 301000Z 23010KT 180V270 9999 FEW036 21/10 Q1013 NOSIG
12-06-30 METAR LFPG 301030Z 23010G21KT 200V310 9999 SCT036 21/11 Q1013 NOSIG
12-06-30 METAR LFPG 301100Z 24009KT 180V270 9999 SCT040 22/10 Q1013 NOSIG
12-06-30 METAR LFPG 301130Z 22010KT 190V250 9999 SCT041 22/11 Q1013 NOSIG
12-06-30 METAR LFPG 301200Z 22011KT 190V300 9999 SCT046 23/10 Q1012 NOSIG
12-06-30 METAR LFPG 301230Z 20012KT 170V230 9999 BKN046 23/10 Q1012 NOSIG
12-06-30 METAR LFPG 301300Z VRB09G22KT 9999 BKN046 23/11 Q1012 NOSIG
12-06-30 METAR LFPG 301330Z 20012KT 170V230 CAVOK 23/10 Q1012 NOSIG
12-06-30 METAR LFPG 301400Z 21012KT 170V240 CAVOK 23/10 Q1012 NOSIG
12-06-30 METAR LFPG 301430Z 20014KT 170V230 CAVOK 23/10 Q1012 NOSIG
12-06-30 METAR LFPG 301500Z 27017G29KT 220V300 9999 SCT043 SCT053 22/12 Q1012 NOSIG
12-06-30 METAR LFPG 301530Z 25015KT 9999 FEW046 SCT075 23/12 Q1013 NOSIG
12-06-30 METAR LFPG 301600Z 26013KT 9999 FEW046TCU SCT260 23/12 Q1012 NOSIG
12-06-30 METAR LFPG 301630Z 26012KT 240V300 9999 FEW041 SCT260 23/12 Q1012 NOSIG
12-06-30 METAR LFPG 301700Z 27014KT 9999 FEW041 23/12 Q1012 NOSIG
12-06-30 METAR LFPG 301730Z 27012KT 9999 FEW041 22/12 Q1012 NOSIG
12-06-30 METAR LFPG 301800Z 27011KT 9999 FEW041 22/12 Q1012 NOSIG
12-06-30 METAR LFPG 301830Z 26011KT 9999 FEW041 22/12 Q1013 NOSIG
12-06-30 METAR LFPG 301900Z 26008KT 220V280 9999 FEW041 21/11 Q1013 NOSIG
12-06-30 METAR LFPG 301930Z 26005KT 9999 FEW046 20/12 Q1013 NOSIG
12-06-30 METAR LFPG 302000Z 32004KT 9999 FEW046 19/12 Q1013 NOSIG
12-06-30 METAR LFPG 302030Z 32005KT 9999 FEW046 18/12 Q1014 NOSIG
12-06-30 METAR LFPG 302100Z 31006KT 9999 BKN033 17/12 Q1014 NOSIG
12-06-30 METAR LFPG 302130Z 30003KT 9999 SCT033 17/12 Q1014 NOSIG
12-06-30 METAR LFPG 302200Z 27003KT 9999 SCT033 17/12 Q1014 NOSIG
12-06-30 METAR LFPG 302230Z 28003KT 9999 SCT033 17/12 Q1015 NOSIG
12-06-30 METAR LFPG 302300Z 27004KT 9999 FEW033 17/11 Q1015 NOSIG
12-06-30 METAR LFPG 302330Z 25007KT 9999 FEW033 16/11 Q1015 NOSIG
12-07-01 METAR LFPG 010000Z 26006KT 9999 SCT026 16/11 Q1015 NOSIG
12-07-01 METAR LFPG 010030Z 28005KT 9999 FEW026 16/11 Q1015 NOSIG
12-07-01 METAR LFPG 010100Z 25004KT 9999 SCT029 BKN200 15/12 Q1015 NOSIG
12-07-01 METAR LFPG 010130Z 24003KT 9999 SCT029 BKN200 16/12 Q1016 NOSIG
12-07-01 METAR LFPG 010200Z 27005KT 9999 FEW029 SCT068 BKN200 15/11 Q1016 NOSIG
12-07-01 METAR LFPG 010230Z 28005KT CAVOK 15/11 Q1016 NOSIG
12-07-01 METAR LFPG 010300Z 29005KT 9999 FEW049 BKN180 15/11 Q1016 NOSIG
12-07-01 METAR LFPG 010330Z 31004KT CAVOK 14/11 Q1016 NOSIG
12-07-01 METAR LFPG 010400Z 29004KT 9999 SCT021 BKN051 14/11 Q1017 NOSIG
12-07-01 METAR LFPG 010430Z 27004KT 9999 BKN028 BKN055 14/10 Q1016 NOSIG
12-07-01 METAR LFPG 010500Z 26004KT 9999 BKN026 14/11 Q1017 NOSIG
12-07-01 METAR LFPG 010530Z 25005KT 9999 FEW020 BKN026 BKN160 14/11 Q1017 NOSIG
12-07-01 METAR LFPG 010600Z 28007KT 9999 FEW020 SCT026 BKN260 15/10 Q1017 NOSIG
12-07-01 METAR LFPG 010630Z 29010KT 9999 FEW021 SCT028 15/09 Q1017 NOSIG
12-07-01 METAR LFPG 010700Z 30008KT 9999 SCT031 SCT041 15/10 Q1018 NOSIG
12-07-01 METAR LFPG 010730Z 26009KT 9999 SCT021 SCT230 16/10 Q1018 NOSIG
12-07-01 METAR LFPG 010800Z 24010KT 200V270 9999 SCT025 SCT230 16/10 Q1018 NOSIG
12-07-01 METAR LFPG 010830Z 24012KT 210V270 9999 BKN025 SCT230 17/10 Q1018 NOSIG
12-07-01 METAR LFPG 010900Z 24009KT 9999 BKN025 SCT230 18/10 Q1018 NOSIG
12-07-01 METAR LFPG 010930Z 25012KT 220V290 9999 BKN025 SCT230 18/09 Q1018 NOSIG
12-07-01 METAR LFPG 011000Z 24014KT 210V310 9999 SCT038 SCT230 19/07 Q1018 NOSIG
12-07-01 METAR LFPG 011030Z 26012KT 230V290 9999 BKN043 SCT230 19/08 Q1018 NOSIG
12-07-01 METAR LFPG 011100Z 27015KT 9999 BKN046 SCT230 18/08 Q1018 NOSIG
12-07-01 METAR LFPG 011130Z 25015KT 9999 SCT046 19/05 Q1018 NOSIG
12-07-01 METAR LFPG 011200Z 26013KT 230V290 9999 SCT046 20/05 Q1019 NOSIG
12-07-01 METAR LFPG 011230Z 25013KT CAVOK 20/05 Q1019 NOSIG
12-07-01 METAR LFPG 011300Z 25014KT 220V290 CAVOK 20/04 Q1019 NOSIG
12-07-01 METAR LFPG 011330Z 27012KT CAVOK 20/05 Q1019 NOSIG
12-07-01 METAR LFPG 011400Z 26012KT 220V300 CAVOK 21/06 Q1019 NOSIG
12-07-01 METAR LFPG 011430Z 29010KT 260V320 CAVOK 20/06 Q1019 NOSIG
12-07-01 METAR LFPG 011500Z 29010KT 250V320 CAVOK 21/06 Q1020 NOSIG
12-07-01 METAR LFPG 011530Z 29012KT 260V320 CAVOK 20/05 Q1020 NOSIG
12-07-01 METAR LFPG 011600Z 29012KT CAVOK 20/06 Q1020 NOSIG
12-07-01 METAR LFPG 011630Z 31008KT 280V350 CAVOK 20/06 Q1020 NOSIG
12-07-01 METAR LFPG 011700Z 30005KT 250V340 CAVOK 20/07 Q1020 NOSIG
12-07-01 METAR LFPG 011730Z 28006KT 240V310 9999 FEW048 20/06 Q1020 NOSIG
12-07-01 METAR LFPG 011800Z 29007KT CAVOK 19/07 Q1020 NOSIG
12-07-01 METAR LFPG 011830Z 32006KT CAVOK 19/08 Q1020 NOSIG
12-07-01 METAR LFPG 011900Z 33005KT CAVOK 18/08 Q1020 NOSIG
12-07-01 METAR LFPG 011930Z 33004KT CAVOK 18/08 Q1020 NOSIG
12-07-01 METAR LFPG 012000Z 33005KT CAVOK 17/09 Q1021 NOSIG
12-07-01 METAR LFPG 012030Z 32003KT CAVOK 17/08 Q1021 NOSIG
12-07-01 METAR LFPG 012100Z 34005KT CAVOK 16/09 Q1021 NOSIG
12-07-01 METAR LFPG 012130Z 08005KT CAVOK 17/08 Q1021 NOSIG
12-07-01 METAR LFPG 012200Z 04003KT CAVOK 16/09 Q1021 NOSIG
12-07-01 METAR LFPG 012230Z 04003KT CAVOK 16/08 Q1021 NOSIG
12-07-01 METAR LFPG 012300Z 02004KT CAVOK 15/09 Q1020 NOSIG
12-07-01 METAR LFPG 012330Z 10004KT CAVOK 16/09 Q1020 NOSIG
12-07-02 METAR LFPG 020000Z 09005KT CAVOK 15/09 Q1020 NOSIG
12-07-02 METAR LFPG 020030Z 07004KT CAVOK 14/09 Q1020 NOSIG
12-07-02 METAR LFPG 020100Z 08004KT CAVOK 15/09 Q1019 NOSIG
12-07-02 METAR LFPG 020130Z 10005KT CAVOK 14/09 Q1019 NOSIG
12-07-02 METAR LFPG 020200Z 10004KT CAVOK 14/08 Q1019 NOSIG
12-07-02 METAR LFPG 020230Z 10005KT CAVOK 15/08 Q1019 NOSIG
12-07-02 METAR LFPG 020300Z 11005KT CAVOK 14/08 Q1019 NOSIG
12-07-02 METAR LFPG 020330Z 11005KT CAVOK 14/08 Q1019 NOSIG
12-07-02 METAR LFPG 020400Z 13007KT CAVOK 14/09 Q1020 NOSIG
12-07-02 METAR LFPG 020430Z 13008KT CAVOK 14/08 Q1020 NOSIG
12-07-02 METAR LFPG 020500Z 13008KT CAVOK 14/09 Q1020 NOSIG
12-07-02 METAR LFPG 020530Z 13006KT CAVOK 15/09 Q1019 NOSIG
12-07-02 METAR LFPG 020600Z 13008KT CAVOK 15/09 Q1019 NOSIG
12-07-02 METAR LFPG 020630Z 14008KT CAVOK 16/09 Q1019 NOSIG
12-07-02 METAR LFPG 020700Z 15006KT 120V180 CAVOK 17/10 Q1019 NOSIG
12-07-02 METAR LFPG 020730Z 15007KT 110V190 CAVOK 18/10 Q1019 NOSIG
12-07-02 METAR LFPG 020800Z 16008KT 130V190 CAVOK 19/08 Q1019 NOSIG
12-07-02 METAR LFPG 020830Z 15008KT 120V200 CAVOK 20/09 Q1019 NOSIG
12-07-02 METAR LFPG 020900Z 16006KT 130V230 9999 FEW043 SCT260 20/09 Q1019 NOSIG
12-07-02 METAR LFPG 020930Z 15010KT 100V180 CAVOK 20/07 Q1019 NOSIG
12-07-02 METAR LFPG 021000Z 16007KT 090V230 CAVOK 21/07 Q1019 NOSIG
12-07-02 METAR LFPG 021030Z 17007G21KT 090V220 CAVOK 20/06 Q1019 NOSIG
12-07-02 METAR LFPG 021100Z VRB07KT CAVOK 21/06 Q1018 NOSIG
12-07-02 METAR LFPG 021130Z 19008KT 120V260 CAVOK 21/06 Q1018 NOSIG
12-07-02 METAR LFPG 021200Z 19007KT 150V250 CAVOK 22/05 Q1018 NOSIG
12-07-02 METAR LFPG 021230Z 18007KT 130V230 CAVOK 23/05 Q1018 NOSIG
12-07-02 METAR LFPG 021300Z 18010KT 140V220 CAVOK 23/06 Q1017 NOSIG
12-07-02 METAR LFPG 021330Z 19009KT 150V240 CAVOK 24/07 Q1017 NOSIG
12-07-02 METAR LFPG 021400Z 19008KT CAVOK 23/06 Q1017 NOSIG
12-07-02 METAR LFPG 021430Z 20010KT 150V240 CAVOK 23/06 Q1017 NOSIG
12-07-02 METAR LFPG 021500Z 21008G19KT 180V280 CAVOK 24/07 Q1017 NOSIG
12-07-02 METAR LFPG 021530Z 22008KT 200V270 CAVOK 24/06 Q1017 NOSIG
12-07-02 METAR LFPG 021600Z 24008KT 200V270 CAVOK 23/06 Q1017 NOSIG
12-07-02 METAR LFPG 021630Z 23008KT 170V270 CAVOK 23/07 Q1017 NOSIG
12-07-02 METAR LFPG 021700Z 23008KT 210V270 CAVOK 23/08 Q1017 NOSIG
12-07-02 METAR LFPG 021730Z 24009KT CAVOK 23/07 Q1017 NOSIG
12-07-02 METAR LFPG 021800Z 23010KT CAVOK 22/07 Q1017 NOSIG
12-07-02 METAR LFPG 021830Z 22008KT 200V270 CAVOK 22/07 Q1017 NOSIG
12-07-02 METAR LFPG 021900Z 23008KT CAVOK 21/08 Q1017 NOSIG
12-07-02 METAR LFPG 021930Z 27006KT 210V290 CAVOK 21/08 Q1018 NOSIG
12-07-02 METAR LFPG 022000Z 26006KT CAVOK 20/07 Q1018 NOSIG
12-07-02 METAR LFPG 022030Z 26006KT CAVOK 20/07 Q1018 NOSIG
12-07-02 METAR LFPG 022100Z 27006KT CAVOK 20/09 Q1018 NOSIG
12-07-02 METAR LFPG 022130Z 27008KT CAVOK 18/10 Q1018 NOSIG
12-07-02 METAR LFPG 022200Z 27007KT CAVOK 18/10 Q1018 NOSIG
12-07-02 METAR LFPG 022230Z 26005KT CAVOK 18/10 Q1018 NOSIG
12-07-02 METAR LFPG 022300Z NIL
12-07-02 METAR LFPG 022330Z 21003KT CAVOK 18/10 Q1018 NOSIG
12-07-03 METAR LFPG 030000Z 23004KT 200V260 CAVOK 17/10 Q1018 NOSIG
12-07-03 METAR LFPG 030030Z 23003KT CAVOK 17/10 Q1018 NOSIG
12-07-03 METAR LFPG 030100Z 23005KT CAVOK 17/10 Q1018 NOSIG
12-07-03 METAR LFPG 030130Z 19004KT CAVOK 17/10 Q1018 NOSIG
12-07-03 METAR LFPG 030200Z 22004KT CAVOK 17/11 Q1018 NOSIG
12-07-03 METAR LFPG 030230Z VRB02KT CAVOK 17/11 Q1018 NOSIG
12-07-03 METAR LFPG 030300Z 19004KT 170V230 9999 BKN040 17/11 Q1018 NOSIG
12-07-03 METAR LFPG 030330Z 21005KT 9999 BKN040 BKN170 BKN260 17/11 Q1018 NOSIG
12-07-03 METAR LFPG 030400Z 18003KT 150V220 9999 SCT040 SCT170 16/11 Q1018 NOSIG
12-07-03 METAR LFPG 030430Z 19004KT 170V260 CAVOK 16/11 Q1018 NOSIG
12-07-03 METAR LFPG 030500Z 19003KT CAVOK 16/11 Q1018 NOSIG
12-07-03 METAR LFPG 030530Z 18004KT 100V210 CAVOK 17/11 Q1018 NOSIG
12-07-03 METAR LFPG 030600Z 21005KT CAVOK 17/12 Q1018 NOSIG
12-07-03 METAR LFPG 030630Z 18005KT 150V260 CAVOK 18/12 Q1018 NOSIG
12-07-03 METAR LFPG 030700Z 17007KT 9999 SCT038 BKN073 18/12 Q1018 NOSIG
12-07-03 METAR LFPG 030730Z 19006KT 150V220 9999 FEW026 SCT039 BKN076 19/12 Q1018 NOSIG
12-07-03 METAR LFPG 030800Z VRB06KT 9999 FEW026 SCT039 BKN078 19/12 Q1018 NOSIG
12-07-03 METAR LFPG 030830Z 20004KT 140V280 9999 FEW026 SCT039 BKN078 20/13 Q1018
12-07-03 METAR LFPG 030900Z 21008KT 170V240 9999 SCT031 BKN078 20/11 Q1018 NOSIG
12-07-03 METAR LFPG 030930Z 21006KT 180V350 9999 SCT034 BKN078 21/11 Q1018 NOSIG
12-07-03 METAR LFPG 031000Z 21007KT 170V250 9999 BKN034 BKN078 21/11 Q1018 NOSIG
12-07-03 METAR LFPG 031030Z 25008KT 170V290 9999 FEW020 BKN037 20/12 Q1018 NOSIG
12-07-03 METAR LFPG 031100Z 21007KT 150V270 9999 SCT034 21/12 Q1018 NOSIG
12-07-03 METAR LFPG 031130Z 18005KT 110V240 9999 BKN035 22/12 Q1017 NOSIG
12-07-03 METAR LFPG 031200Z 21004KT 160V260 9999 BKN037 22/12 Q1017 NOSIG
12-07-03 METAR LFPG 031230Z 21006KT 170V330 9999 BKN038 22/12 Q1017 NOSIG
12-07-03 METAR LFPG 031300Z 20008KT 160V230 9999 BKN039 22/12 Q1017 NOSIG
12-07-03 METAR LFPG 031330Z 20008KT 160V270 9999 BKN039 22/12 Q1017 NOSIG
12-07-03 METAR LFPG 031400Z 17007KT 9999 SCT040 BKN069 23/12 Q1016 NOSIG
12-07-03 METAR LFPG 031430Z VRB08G21KT 9999 SCT042 BKN070 24/13 Q1016 NOSIG
12-07-03 METAR LFPG 031500Z 19009G23KT 110V230 9999 FEW043 BKN070 23/12 Q1016 NOSIG
12-07-03 METAR LFPG 031530Z 20007KT 9999 FEW043 BKN083 23/12 Q1016 NOSIG
12-07-03 METAR LFPG 031600Z 19005KT 140V210 9999 FEW045 BKN062 23/12 Q1016 NOSIG
12-07-03 METAR LFPG 031630Z 19006KT 160V230 9999 SCT043 BKN072 23/13 Q1015 NOSIG
12-07-03 METAR LFPG 031700Z 20007KT 170V260 9999 SCT043 BKN078 23/12 Q1015 NOSIG
12-07-03 METAR LFPG 031730Z 21007KT 180V240 9999 SCT046 BKN076 23/12 Q1015 NOSIG
12-07-03 METAR LFPG 031800Z 20007KT CAVOK 23/12 Q1015 NOSIG
12-07-03 METAR LFPG 031830Z VRB06KT CAVOK 23/12 Q1015 NOSIG
12-07-03 METAR LFPG 031900Z 19004KT CAVOK 23/12 Q1015 NOSIG
12-07-03 METAR LFPG 031930Z 23004KT 170V300 9999 FEW045 BKN073 23/12 Q1015 NOSIG
12-07-03 METAR LFPG 032000Z 01003KT 9999 FEW046 SCT073 22/14 Q1015 NOSIG
12-07-03 METAR LFPG 032030Z 07003KT CAVOK 21/13 Q1015 NOSIG
12-07-03 METAR LFPG 032100Z 08003KT CAVOK 21/13 Q1015 NOSIG
12-07-03 METAR LFPG 032130Z 15003KT CAVOK 21/13 Q1015 NOSIG
12-07-03 METAR LFPG 032200Z VRB03KT CAVOK 21/13 Q1015 NOSIG
12-07-03 METAR LFPG 032230Z 14003KT CAVOK 21/13 Q1015 NOSIG
12-07-03 METAR LFPG 032300Z 11004KT CAVOK 20/13 Q1015 NOSIG
12-07-03 METAR LFPG 032330Z 10004KT CAVOK 20/14 Q1014 NOSIG
12-07-04 METAR LFPG 040000Z 11005KT CAVOK 20/14 Q1014 NOSIG
12-07-04 METAR LFPG 040030Z 13004KT CAVOK 20/13 Q1014 NOSIG
12-07-04 METAR LFPG 040100Z 11005KT CAVOK 20/13 Q1013 NOSIG
12-07-04 METAR LFPG 040130Z 11005KT CAVOK 20/13 Q1013 NOSIG
12-07-04 METAR LFPG 040200Z 11005KT CAVOK 20/13 Q1013 NOSIG
12-07-04 METAR LFPG 040230Z 12006KT CAVOK 19/13 Q1013 NOSIG
12-07-04 METAR LFPG 040300Z 13006KT CAVOK 19/13 Q1013 NOSIG
12-07-04 METAR LFPG 040330Z 12006KT CAVOK 19/13 Q1012 NOSIG
12-07-04 METAR LFPG 040400Z 11004KT CAVOK 19/13 Q1012 NOSIG
12-07-04 METAR LFPG 040430Z 14006KT CAVOK 19/13 Q1012 NOSIG
12-07-04 METAR LFPG 040500Z 14007KT CAVOK 19/13 Q1012 NOSIG
12-07-04 METAR LFPG 040530Z 13006KT CAVOK 18/13 Q1012 NOSIG
12-07-04 METAR LFPG 040600Z 15007KT 110V170 CAVOK 19/14 Q1012 NOSIG
12-07-04 METAR LFPG 040630Z 14007KT CAVOK 19/14 Q1012 NOSIG
12-07-04 METAR LFPG 040700Z 16007KT CAVOK 20/14 Q1012 NOSIG
12-07-04 METAR LFPG 040730Z 17008KT 110V190 CAVOK 22/14 Q1012 NOSIG
12-07-04 METAR LFPG 040800Z 18008KT 160V260 CAVOK 23/13 Q1012 NOSIG
12-07-04 METAR LFPG 040830Z 17007KT 130V230 CAVOK 23/14 Q1012 NOSIG
12-07-04 METAR LFPG 040900Z 15008KT 9999 FEW040 SCT060 24/13 Q1012 NOSIG
12-07-04 METAR LFPG 040930Z VRB08KT CAVOK 25/14 Q1011 NOSIG
12-07-04 METAR LFPG 041000Z 14009G23KT 100V170 CAVOK 26/13 Q1011 NOSIG
12-07-04 METAR LFPG 041030Z VRB09G22KT 9999 FEW050TCU SCT060 26/14 Q1011 NOSIG
12-07-04 METAR LFPG 041100Z 16010G22KT 110V200 9999 FEW046TCU SCT056 26/13 Q1011 NOSIG
12-07-04 METAR LFPG 041130Z 16011KT 120V200 9999 VCTS FEW046CB BKN056 27/14 Q1010
12-07-04 METAR LFPG 041200Z 18013KT 9999 -TSRA SCT033CB BKN046 26/14 Q1010 NOSIG
12-07-04 METAR LFPG 041230Z 17011KT 140V230 9999 FEW033CB SCT046 25/15 Q1010 RETS
12-07-04 METAR LFPG 041300Z 14010G22KT 030V170 9999 FEW033CB SCT046 25/14 Q1010 RETS
12-07-04 METAR LFPG 041330Z 12007KT 090V180 9999 FEW033TCU SCT046 27/15 Q1010 NOSIG
12-07-04 METAR LFPG 041400Z 17009KT 130V200 9999 FEW040CB SCT046 26/14 Q1009 NOSIG
12-07-04 METAR LFPG 041430Z 15009KT 110V200 9999 VCTS FEW033CB SCT046 26/15 Q1009
12-07-04 METAR LFPG 041500Z 13011KT 100V160 9999 VCTS SCT033CB BKN046 24/16 Q1009
12-07-04 METAR LFPG 041530Z 14016KT 9999 SCT036CB BKN040 23/15 Q1009 NOSIG
12-07-04 METAR LFPG 041600Z 13016KT 9999 SCT036CB SCT046 22/16 Q1009 NOSIG
12-07-04 METAR LFPG 041630Z 13013KT 100V160 9999 SCT036CB SCT046 23/16 Q1009 NOSIG
12-07-04 METAR LFPG 041700Z 14011KT 110V170 9999 SCT036CB SCT046 23/17 Q1009 NOSIG
12-07-04 METAR LFPG 041730Z 13011KT 9999 FEW046CB SCT053 24/16 Q1009 NOSIG
12-07-04 METAR LFPG 041900Z 13007KT 9999 FEW043CB SCT052 22/18 Q1010 NOSIG
12-07-04 METAR LFPG 041930Z VRB03KT 9999 FEW043CB SCT052 22/17 Q1010 NOSIG
12-07-04 METAR LFPG 042000Z 08005KT 050V120 9999 FEW043CB SCT048 22/17 Q1010 NOSIG
12-07-04 METAR LFPG 042030Z 13003KT 090V160 9999 FEW043CB SCT048 22/16 Q1010 TEMPO VRB10G25KT 3000 TSRA SCT015CB
12-07-04 METAR LFPG 042100Z 13007KT 9999 FEW043CB SCT048 BKN100 21/17 Q1010 TEMPO
12-07-04 METAR LFPG 042130Z 15009KT 9999 FEW043CB SCT048 BKN100 21/17 Q1010 TEMPO
12-07-04 METAR LFPG 042200Z 17008KT 150V210 9999 FEW043CB SCT048 BKN100 21/17 Q1010 TEMPO VRB10G25KT 3000 TSRA SCT015CB
12-07-04 METAR LFPG 042230Z VRB02KT 9999 -SHRA FEW020 SCT038CB BKN100 19/15 Q1011
12-07-04 METAR LFPG 042300Z 26004KT 9999 -SHRA FEW020 SCT038CB BKN100 19/16 Q1011
12-07-04 METAR LFPG 042330Z 21007KT 9999 -RA FEW020 FEW038CB BKN100 19/16 Q1010
12-07-05 METAR LFPG 050000Z 22006KT 9999 FEW020 FEW038CB BKN100 19/16 Q1010 NOSIG
12-07-05 METAR LFPG 050030Z 20004KT 9999 FEW020 FEW038CB BKN086 18/16 Q1010 NOSIG
12-07-05 METAR LFPG 050100Z 24004KT 210V300 CAVOK 18/16 Q1010 NOSIG
12-07-05 METAR LFPG 050130Z 26004KT 240V310 CAVOK 18/16 Q1010 NOSIG
12-07-05 METAR LFPG 050200Z 25003KT CAVOK 18/16 Q1010 NOSIG
12-07-05 METAR LFPG 050230Z 14005KT CAVOK 18/16 Q1010 NOSIG
12-07-05 METAR LFPG 050300Z 14005KT CAVOK 17/16 Q1010 NOSIG
12-07-05 METAR LFPG 050330Z VRB03KT CAVOK 17/16 Q1010 NOSIG
12-07-05 METAR LFPG 050400Z 15003KT 9999 SCT017 BKN110 17/16 Q1010 NOSIG
12-07-05 METAR LFPG 050430Z 16003KT 130V220 9999 SCT018 BKN024 BKN110 17/16 Q1010 NOSIG
12-07-05 METAR LFPG 050500Z 16001KT 9999 SCT020 BKN024 BKN100 17/16 Q1010 NOSIG
12-07-05 METAR LFPG 050530Z 27003KT 9999 FEW013 BKN024 18/16 Q1010 NOSIG
12-07-05 METAR LFPG 050600Z 27004KT 240V300 9999 FEW010 SCT024 BKN043 18/16 Q1010
12-07-05 METAR LFPG 050630Z 31005KT 9999 SCT010 SCT040 18/16 Q1010 NOSIG
12-07-05 METAR LFPG 050700Z 30006KT 270V330 9999 SCT010 SCT040 19/16 Q1011 NOSIG
12-07-05 METAR LFPG 050730Z 34006KT 310V030 9999 SCT010 SCT040 19/16 Q1011 NOSIG
12-07-05 METAR LFPG 050800Z 31006KT 270V330 9999 BKN014 BKN040 19/15 Q1011 NOSIG
12-07-05 METAR LFPG 050830Z 33004KT 280V010 9999 SCT015 BKN130 19/15 Q1011 NOSIG
12-07-05 METAR LFPG 050900Z VRB03KT 9999 BKN018 BKN130 20/15 Q1010 NOSIG
12-07-05 METAR LFPG 050930Z 04003KT 9999 SCT019 BKN130 20/14 Q1011 NOSIG
12-07-05 METAR LFPG 051000Z VRB01KT 9999 FEW013 SCT019 BKN130 20/15 Q1011 NOSIG
12-07-05 METAR LFPG 051030Z VRB02KT 9999 FEW013 SCT023 BKN130 20/15 Q1011 NOSIG
12-07-05 METAR LFPG 051100Z 03003KT 310V080 9999 FEW013 SCT026 BKN130 21/15 Q1010
12-07-05 METAR LFPG 051130Z 06004KT 010V170 9999 SCT018 SCT066 21/16 Q1010 NOSIG
12-07-05 METAR LFPG 051200Z VRB02KT 9999 SCT020 FEW021TCU 22/15 Q1010 NOSIG
12-07-05 METAR LFPG 051230Z VRB02KT 9999 SCT021 FEW021TCU 23/15 Q1009 NOSIG
12-07-05 METAR LFPG 051300Z 09005KT 040V160 9999 SCT024 FEW025CB SCT100 23/16 Q1009
12-07-05 METAR LFPG 051330Z 10004KT 030V160 9999 VCSH SCT025 FEW026CB SCT100 23/14 Q1009 NOSIG
12-07-05 METAR LFPG 051400Z 27012KT 8000 SHRA FEW020 BKN025 FEW028CB BKN093 20/15
12-07-05 METAR LFPG 051430Z 33007KT 8000 -RA FEW020 FEW030CB BKN040 BKN073 19/17
12-07-05 METAR LFPG 051500Z 36005KT 330V050 9999 FEW027TCU BKN040 BKN066 19/16 Q1009 RESHRA NOSIG
12-07-05 METAR LFPG 051530Z 04007KT 7000 2000NE RA FEW020TCU SCT033 BKN040 18/16
12-07-05 METAR LFPG 051600Z 04004KT 5000 RA BKN040 BKN053 18/16 Q1009 NOSIG
12-07-05 METAR LFPG 051630Z 22004KT 170V280 4000 RA FEW006 FEW017TCU BKN033 18/17
12-07-05 METAR LFPG 051700Z VRB02KT 5000 -RA FEW006 FEW017TCU SCT040 BKN053 18/17
12-07-05 METAR LFPG 051730Z 00000KT 9000 -RA FEW006 FEW026TCU BKN051 18/17 Q1009
12-07-05 METAR LFPG 051800Z 27003KT 230V290 6000 -RA SCT007 BKN078 18/17 Q1009
12-07-05 METAR LFPG 051830Z 25006KT 9000 -RA FEW007 SCT015 BKN083 17/16 Q1009 NOSIG
12-07-05 METAR LFPG 051930Z 25004KT 9999 FEW016 BKN044 17/16 Q1009 NOSIG
12-07-05 METAR LFPG 052000Z 25006KT 220V310 CAVOK 17/16 Q1010 NOSIG
12-07-05 METAR LFPG 052030Z 25003KT 9999 SCT024 BKN056 17/15 Q1010 NOSIG
12-07-05 METAR LFPG 052100Z 26005KT 210V280 9999 SCT033 BKN066 17/15 Q1010 NOSIG
12-07-05 METAR LFPG 052130Z 25004KT 9999 FEW006 BKN026 BKN040 17/15 Q1010 NOSIG
12-07-05 METAR LFPG 052200Z 24004KT 9999 FEW006 BKN026 BKN043 17/15 Q1010 NOSIG
12-07-05 METAR LFPG 052230Z 22007KT 9999 SCT026 BKN045 17/15 Q1010 NOSIG
12-07-05 METAR LFPG 052300Z 21005KT 9999 FEW017 BKN046 17/15 Q1010 NOSIG
12-07-05 METAR LFPG 052330Z 19005KT 9999 FEW026 BKN048 BKN100 16/15 Q1010 NOSIG
12-07-06 METAR LFPG 060000Z 18005KT 160V280 9999 FEW040 16/14 Q1010 NOSIG
12-07-06 METAR LFPG 060030Z 19005KT CAVOK 16/14 Q1010 NOSIG
12-07-06 METAR LFPG 060100Z 20006KT CAVOK 15/14 Q1009 NOSIG
12-07-06 METAR LFPG 060130Z 18006KT CAVOK 15/14 Q1009 NOSIG
12-07-06 METAR LFPG 060200Z 19006KT CAVOK 15/14 Q1009 NOSIG
12-07-06 METAR LFPG 060230Z 17006KT CAVOK 15/14 Q1009 NOSIG
12-07-06 METAR LFPG 060300Z 17005KT CAVOK 15/14 Q1009 NOSIG
12-07-06 METAR LFPG 060330Z 17004KT CAVOK 15/14 Q1009 NOSIG
12-07-06 METAR LFPG 060400Z 18006KT CAVOK 15/13 Q1009 NOSIG
12-07-06 METAR LFPG 060430Z 18006KT CAVOK 15/13 Q1009 NOSIG
12-07-06 METAR LFPG 060500Z 19007KT CAVOK 15/13 Q1009 NOSIG
12-07-06 METAR LFPG 060530Z 19005KT 9999 FEW019 SCT060 15/13 Q1010 NOSIG
12-07-06 METAR LFPG 060600Z 20006KT 9999 FEW009 BKN012 16/13 Q1010 NOSIG
12-07-06 METAR LFPG 060630Z 21007KT 180V240 9999 SCT009 SCT016 16/13 Q1010 NOSIG
12-07-06 METAR LFPG 060700Z 22008KT 190V250 9999 BKN016 SCT090 16/12 Q1010 NOSIG
12-07-06 METAR LFPG 060730Z 22008KT 190V250 9999 BKN016 SCT090 17/12 Q1010 NOSIG
12-07-06 METAR LFPG 060800Z 21011KT 9999 BKN018 17/11 Q1010 NOSIG
12-07-06 METAR LFPG 060830Z 21010KT 180V240 9999 BKN020 17/11 Q1010 NOSIG
12-07-06 METAR LFPG 060900Z 20013KT 180V240 9999 BKN023 18/11 Q1010 NOSIG
12-07-06 METAR LFPG 060930Z 21009KT 190V270 9999 SCT026 19/11 Q1010 NOSIG
12-07-06 METAR LFPG 061000Z 21011KT 180V240 9999 BKN029 FEW033TCU 19/10 Q1010 NOSIG
12-07-06 METAR LFPG 061030Z 20011KT 160V280 9999 BKN029 FEW033TCU 20/11 Q1010 NOSIG
12-07-06 METAR LFPG 061100Z 21011KT 170V230 9999 BKN033 FEW043TCU 20/10 Q1010 NOSIG
12-07-06 METAR LFPG 061130Z 20015KT 170V230 9999 SCT032 FEW046TCU 20/11 Q1010 NOSIG
12-07-06 METAR LFPG 061200Z 17013KT 9999 BKN035 FEW043TCU 20/11 Q1010 NOSIG
12-07-06 METAR LFPG 061230Z 18012KT 9999 VCSH BKN035 FEW043TCU 21/11 Q1010 NOSIG
12-07-06 METAR LFPG 061400Z 18014KT 150V210 9999 SCT032 SCT040TCU 20/11 Q1010 RESHRA
12-07-06 METAR LFPG 061430Z 21010G21KT 180V330 9999 -SHRA SCT032 SCT040TCU 18/14 Q1010 NOSIG
12-07-06 METAR LFPG 061500Z 21014KT 180V240 9999 -TSRA FEW025 SCT028 SCT046CB BKN066 18/13 Q1010 NOSIG
12-07-06 METAR LFPG 061530Z 19008KT 170V260 9999 FEW025 FEW046CB SCT066 18/13 Q1010 RERA RETS NOSIG
12-07-06 METAR LFPG 061600Z 16010KT 9999 FEW025 FEW046TCU SCT083 18/13 Q1010 RERA
12-07-06 METAR LFPG 061630Z 21015G32KT 160V250 9999 2000N0 R09R/0700VP2000D R09L/0800U +TSRA FEW013 SCT046CB BKN083 16/10 Q1011 NOSIG
12-07-06 METAR LFPG 061700Z 17004KT 130V200 9999 TS FEW013 FEW046CB SCT066 BKN100 15/13 Q1010 RERA NOSIG
12-07-06 METAR LFPG 061730Z 16005KT 9999 FEW013 FEW043CB SCT066 BKN100 16/13 Q1010
12-07-06 METAR LFPG 061800Z 18004KT 9999 FEW043CB BKN110 18/13 Q1010 RETS NOSIG
12-07-06 METAR LFPG 061830Z VRB04G15KT 9999 FEW043CB SCT100 18/14 Q1010 NOSIG
12-07-06 METAR LFPG 061900Z 15005KT 020V190 9999 FEW043CB SCT100 18/13 Q1010 NOSIG
12-07-06 METAR LFPG 061930Z 15005KT 020V180 9999 FEW043CB SCT053 18/14 Q1011 NOSIG
12-07-06 METAR LFPG 062100Z 16008KT 080V200 9999 FEW016 BKN100 16/13 Q1011 NOSIG
12-07-06 METAR LFPG 062130Z 17009KT 9999 FEW016 BKN100 15/13 Q1011 NOSIG
12-07-06 METAR LFPG 062200Z 18007KT CAVOK 15/13 Q1011 NOSIG
12-07-06 METAR LFPG 062230Z 18007KT CAVOK 15/13 Q1011 NOSIG
12-07-06 METAR LFPG 062300Z 16008KT CAVOK 15/13 Q1011 NOSIG
12-07-06 METAR LFPG 062330Z 17008KT CAVOK 15/13 Q1011 NOSIG
12-07-07 METAR LFPG 070000Z 17008KT 110V210 CAVOK 15/13 Q1012 NOSIG
12-07-07 METAR LFPG 070030Z 17008KT CAVOK 15/13 Q1012 NOSIG
12-07-07 METAR LFPG 070100Z 18008KT CAVOK 15/13 Q1012 NOSIG
12-07-07 METAR LFPG 070130Z 18008KT 9999 SCT038 BKN050 BKN096 15/13 Q1012 NOSIG
12-07-07 METAR LFPG 070200Z 17007KT 9999 FEW038 15/13 Q1012 NOSIG
12-07-07 METAR LFPG 070230Z 18007KT CAVOK 14/12 Q1012 NOSIG
12-07-07 METAR LFPG 070300Z 18007KT CAVOK 14/12 Q1012 NOSIG
12-07-07 METAR LFPG 070330Z 18007KT CAVOK 14/12 Q1012 NOSIG
12-07-07 METAR LFPG 070400Z 18008KT 170V230 9999 FEW030 SCT070 14/12 Q1012 NOSIG
12-07-07 METAR LFPG 070430Z 18008KT 170V230 CAVOK 14/12 Q1011 NOSIG
12-07-07 METAR LFPG 070500Z 19009KT CAVOK 14/12 Q1011 NOSIG
12-07-07 METAR LFPG 070530Z 18009KT CAVOK 14/12 Q1011 NOSIG
12-07-07 METAR LFPG 070600Z 18009KT CAVOK 14/12 Q1011 NOSIG
12-07-07 METAR LFPG 070630Z 18008KT 9999 FEW013 BKN200 14/12 Q1012 NOSIG
12-07-07 METAR LFPG 070700Z 18009KT 9999 FEW013 BKN055 BKN200 15/12 Q1012 NOSIG
12-07-07 METAR LFPG 070730Z 18010KT 150V210 9000 -SHRA FEW013 SCT039TCU BKN048 15/12 Q1012 NOSIG
12-07-07 METAR LFPG 070800Z 18008KT 160V280 9999 SCT011 SCT021 BKN027 16/13 Q1012
12-07-07 METAR LFPG 070830Z 17011KT 9999 SCT008 BKN011 16/13 Q1012 NOSIG
12-07-07 METAR LFPG 070900Z 18012KT 9999 SCT009 BKN012 16/13 Q1011 NOSIG
12-07-07 METAR LFPG 070930Z 19010G24KT 160V330 9999 -RA SCT011 BKN015 16/14 Q1011
12-07-07 METAR LFPG 071000Z 18008KT 150V210 9999 -RA SCT013 BKN022 17/14 Q1011
12-07-07 METAR LFPG 071030Z 17010KT 140V200 9999 -RA SCT016 SCT027 BKN076 18/14 Q1011 NOSIG
12-07-07 METAR LFPG 071100Z 18009KT 140V210 9999 FEW016TCU SCT019 BKN055 18/14 Q1011
12-07-07 METAR LFPG 071130Z 18011KT 9999 FEW011 FEW018TCU SCT038 BKN096 19/15 Q1011
12-07-07 METAR LFPG 071200Z 17010KT 040V200 9999 FEW014 BKN018 20/15 Q1010 NOSIG
12-07-07 METAR LFPG 071230Z 17010G22KT 030V200 9999 SCT024 SCT029 20/14 Q1010 NOSIG
12-07-07 METAR LFPG 071300Z 18013KT 150V220 9999 SCT029 FEW033TCU SCT042 22/13 Q1010
12-07-07 METAR LFPG 071330Z NIL
12-07-07 METAR LFPG 071334Z 17011KT 9999 FEW030CB FEW030TCU BKN084 22/14 Q1009
12-07-07 METAR LFPG 071400Z 18008KT 9999 -SHRA FEW025 FEW028CB SCT033TCU 20/15 Q1009
12-07-07 METAR LFPG 071430Z 23004KT 190V260 9999 -SHRA FEW021 FEW029CB FEW033TCU BKN046 17/16 Q1010 RETS NOSIG
12-07-07 METAR LFPG 071500Z VRB04KT 9999 FEW026 FEW029CB SCT047 BKN087 18/17 Q1009 RETS NOSIG
12-07-07 METAR LFPG 071530Z 19005KT 160V220 9999 FEW015 SCT046 FEW051TCU BKN084 20/17 Q1009 RETS NOSIG
12-07-07 METAR LFPG 071600Z 19010KT 150V220 6000 -SHRA FEW022 SCT026TCU 19/16 Q1009
12-07-07 METAR LFPG 071630Z 20007KT 9999 -SHRA FEW019 SCT047TCU BKN051 18/15 Q1009
12-07-07 METAR LFPG 071700Z 17005KT 130V190 9999 -SHRA FEW027 FEW039TCU BKN093 18/16 Q1009 NOSIG
12-07-07 METAR LFPG 071730Z 16008KT 9999 FEW027 FEW039TCU BKN093 19/16 Q1008 NOSIG
12-07-07 METAR LFPG 071800Z VRB07KT 9999 -SHRA FEW027 FEW039TCU BKN093 19/16 Q1008
12-07-07 METAR LFPG 071830Z VRB06G16KT 9999 FEW027 BKN093 19/16 Q1008 NOSIG
12-07-07 METAR LFPG 072000Z 13005KT 9999 FEW058 FEW063CB SCT073 BKN100 19/16 Q1008
12-07-07 METAR LFPG 072030Z 13004KT 9999 FEW058 FEW063CB SCT073 BKN100 19/17 Q1008
12-07-07 METAR LFPG 072100Z VRB04KT 9999 FEW053 FEW055CB SCT073 BKN100 18/17 Q1008
12-07-07 METAR LFPG 072130Z 15005KT 9999 FEW059 FEW060CB SCT061 BKN084 18/16 Q1008
12-07-07 METAR LFPG 072300Z 13003KT 9999 VCTS FEW052 FEW060TCU BKN066 BKN093 18/16
12-07-07 METAR LFPG 072330Z 15007KT 9000 FEW013 FEW026CB BKN060 BKN093 17/16 Q1007 RESHRA NOSIG
12-07-08 METAR LFPG 080000Z VRB02KT 9000 -TSRA FEW016 FEW033CB BKN050 BKN083 17/16 Q1007 NOSIG
12-07-08 METAR LFPG 080030Z 14004KT 9999 VCTS FEW016 FEW033CB BKN070 17/16 Q1006 RESHRA NOSIG
12-07-08 METAR LFPG 080300Z 16007KT 9999 -RA FEW004 BKN023 BKN086 16/15 Q1005 NOSIG
12-07-08 METAR LFPG 080330Z 16006KT 9999 -RA FEW023 SCT039 BKN076 16/15 Q1005 NOSIG
12-07-08 METAR LFPG 080400Z 18008KT 8000 -RA FEW008 SCT016 BKN076 16/15 Q1005 NOSIG
12-07-08 METAR LFPG 080530Z 21012KT 9999 SCT008 SCT013 BKN018 16/15 Q1006 NOSIG
12-07-08 METAR LFPG 080600Z 21011KT 4000 -RA SCT008 BKN011 BKN018 16/15 Q1006 NOSIG
12-07-08 METAR LFPG 080630Z 21011KT 9999 FEW007 BKN060 15/14 Q1006 NOSIG
12-07-08 METAR LFPG 080700Z 22014G24KT 9999 FEW015 BKN046 16/14 Q1006 NOSIG
12-07-08 METAR LFPG 080730Z 22015KT 9999 BKN015 SCT046 17/14 Q1007 NOSIG
12-07-08 METAR LFPG 080800Z 22014KT 9999 SCT016 BKN046 17/14 Q1007 NOSIG
12-07-08 METAR LFPG 080830Z 22016KT 9999 SCT020 SCT049 17/12 Q1007 NOSIG
12-07-08 METAR LFPG 080900Z 22018KT 9999 BKN025 SCT048 18/12 Q1007 NOSIG
12-07-08 METAR LFPG 080930Z 24014KT 9999 BKN027 BKN048 18/11 Q1007 NOSIG
12-07-08 METAR LFPG 081000Z 25016KT 9999 SCT027 SCT031 BKN051 18/12 Q1008 NOSIG
12-07-08 METAR LFPG 081030Z 23019KT 9999 SCT027 BKN053 17/11 Q1008 NOSIG
12-07-08 METAR LFPG 081100Z 23017KT 9999 SCT026 BKN050 18/12 Q1008 NOSIG
12-07-08 METAR LFPG 081130Z 24014KT 9999 FEW023 SCT027 BKN051 17/12 Q1009 NOSIG
12-07-08 METAR LFPG 081200Z 23017KT 9999 SCT027 SCT043 BKN053 18/12 Q1009 NOSIG
12-07-08 METAR LFPG 081230Z 23013KT 9999 SCT025 BKN045 17/12 Q1009 NOSIG
12-07-08 METAR LFPG 081300Z 24017KT 9999 SCT025 BKN046 18/12 Q1010 NOSIG
12-07-08 METAR LFPG 081330Z 24015KT 9999 SCT027 SCT040 BKN053 18/12 Q1010 NOSIG
12-07-08 METAR LFPG 081400Z 23014KT 9999 SCT027 SCT039 BKN052 18/12 Q1010 NOSIG
12-07-08 METAR LFPG 081430Z 24013KT 9999 BKN026 SCT040 BKN052 17/12 Q1011 NOSIG
12-07-08 METAR LFPG 081500Z 23015KT 9999 SCT026 SCT040 BKN060 18/12 Q1011 NOSIG
12-07-08 METAR LFPG 081530Z 24014KT 9999 SCT026 BKN046 18/12 Q1011 NOSIG
12-07-08 METAR LFPG 081600Z 24014KT 9999 FEW026 BKN063 18/12 Q1011 NOSIG
12-07-08 METAR LFPG 081630Z 25013KT 9999 FEW026 BKN063 18/12 Q1011 NOSIG
12-07-08 METAR LFPG 081700Z 25012KT 9999 FEW031 BKN066 19/11 Q1011 NOSIG
12-07-08 METAR LFPG 081730Z 26012KT 9999 FEW032 BKN073 20/11 Q1012 NOSIG
12-07-08 METAR LFPG 081800Z 25011KT 9999 FEW032 SCT073 20/11 Q1012 NOSIG
12-07-08 METAR LFPG 081830Z 26009KT 9999 FEW033 20/11 Q1012 NOSIG
12-07-08 METAR LFPG 081900Z 26006KT 9999 FEW033 19/11 Q1012 NOSIG
12-07-08 METAR LFPG 081930Z 25006KT 140V270 9999 FEW033 SCT180 18/11 Q1012 NOSIG
12-07-08 METAR LFPG 082000Z VRB03KT 9999 FEW033 SCT190 18/11 Q1012 NOSIG
12-07-08 METAR LFPG 082030Z 23005KT 200V280 9999 FEW033 17/11 Q1013 NOSIG
12-07-08 METAR LFPG 082100Z 20004KT 9999 FEW033 17/12 Q1013 NOSIG
12-07-08 METAR LFPG 082130Z 20006KT 180V290 CAVOK 17/12 Q1013 NOSIG
12-07-08 METAR LFPG 082200Z 20005KT CAVOK 16/12 Q1013 NOSIG
12-07-08 METAR LFPG 082230Z 21006KT CAVOK 16/12 Q1013 NOSIG
12-07-08 METAR LFPG 082300Z 22007KT CAVOK 16/12 Q1013 NOSIG
12-07-08 METAR LFPG 082330Z 22004KT CAVOK 16/12 Q1013 NOSIG
12-07-09 METAR LFPG 090000Z 24004KT CAVOK 15/12 Q1013 NOSIG
12-07-09 METAR LFPG 090030Z 24006KT CAVOK 15/13 Q1013 NOSIG
12-07-09 METAR LFPG 090100Z 23005KT CAVOK 15/13 Q1013 NOSIG
12-07-09 METAR LFPG 090130Z 22005KT CAVOK 16/13 Q1013 NOSIG
12-07-09 METAR LFPG 090200Z 23004KT CAVOK 16/13 Q1013 NOSIG
12-07-09 METAR LFPG 090230Z 22005KT CAVOK 16/13 Q1013 NOSIG
12-07-09 METAR LFPG 090300Z 23006KT CAVOK 15/13 Q1013 NOSIG
12-07-09 METAR LFPG 090330Z 26004KT CAVOK 15/12 Q1013 NOSIG
12-07-09 METAR LFPG 090400Z 25002KT 9999 FEW016 BKN050 BKN100 15/13 Q1013 NOSIG
12-07-09 METAR LFPG 090430Z 25003KT 9999 FEW020 BKN056 BKN100 15/13 Q1013 NOSIG
12-07-09 METAR LFPG 090500Z 28002KT 9999 FEW011 BKN046 BKN100 15/13 Q1014 NOSIG
12-07-09 METAR LFPG 090530Z 00000KT 9999 SCT011 BKN040 BKN100 16/14 Q1014 NOSIG
12-07-09 METAR LFPG 090600Z VRB02KT 9999 SCT011 BKN096 16/14 Q1014 NOSIG
12-07-09 METAR LFPG 090630Z 30006KT 9999 SCT011 BKN096 16/12 Q1014 NOSIG
12-07-09 METAR LFPG 090700Z 31005KT 280V340 9999 SCT016 BKN046 BKN093 16/12 Q1014 NOSIG
12-07-09 METAR LFPG 090730Z 29004KT 260V320 9999 SCT013 BKN046 BKN086 16/13 Q1014
12-07-09 METAR LFPG 090800Z VRB02KT 9999 BKN014 BKN044 BKN089 17/13 Q1014 NOSIG
12-07-09 METAR LFPG 090830Z 23004KT 180V270 9999 SCT018 BKN040 BKN072 18/13 Q1014
12-07-09 METAR LFPG 090900Z 24004KT 190V300 9999 SCT021 BKN048 18/13 Q1014 NOSIG
12-07-09 METAR LFPG 090930Z 25005KT 210V300 9999 SCT023 BKN076 19/12 Q1014 NOSIG
12-07-09 METAR LFPG 091000Z 24006KT 170V300 9999 SCT024 BKN073 20/13 Q1014 NOSIG
12-07-09 METAR LFPG 091030Z 25007KT 210V270 9999 SCT026 BKN073 19/12 Q1014 NOSIG
12-07-09 METAR LFPG 091100Z 27004KT 240V300 9999 FEW040TCU SCT041 BKN073 19/12 Q1014
12-07-09 METAR LFPG 091130Z 26005KT 190V300 9999 FEW029TCU SCT030 BKN073 21/13 Q1014
12-07-09 METAR LFPG 091200Z VRB04KT 9999 FEW032TCU SCT033 BKN073 21/12 Q1014 NOSIG
12-07-09 METAR LFPG 091230Z VRB05KT 9999 SCT036TCU SCT076 22/12 Q1014 NOSIG
12-07-09 METAR LFPG 091430Z 24008KT 210V300 9999 FEW047TCU SCT047 SCT080 22/11 Q1013
12-07-09 METAR LFPG 091500Z 27007KT 9999 FEW052TCU SCT052 SCT073 22/11 Q1013 NOSIG
12-07-09 METAR LFPG 091530Z 29008KT CAVOK 22/12 Q1014 NOSIG
12-07-09 METAR LFPG 091600Z 27010KT 9999 FEW046 BKN090 22/11 Q1013 NOSIG
12-07-09 METAR LFPG 091630Z 30010KT 9999 FEW046 BKN093 22/12 Q1013 NOSIG
12-07-09 METAR LFPG 091700Z 30007KT 9999 FEW046 BKN090 22/12 Q1013 NOSIG
12-07-09 METAR LFPG 091730Z 32006KT 9999 FEW046 BKN090 21/12 Q1013 NOSIG
12-07-09 METAR LFPG 091800Z 32005KT 9999 FEW046 BKN090 21/12 Q1013 NOSIG
12-07-09 METAR LFPG 091830Z 32004KT 9999 FEW040 BKN090 20/13 Q1013 NOSIG
12-07-09 METAR LFPG 091900Z 32003KT 9999 FEW040 BKN088 20/13 Q1013 NOSIG
12-07-09 METAR LFPG 091930Z 32003KT 9999 FEW046 BKN088 20/13 Q1014 NOSIG
12-07-09 METAR LFPG 092000Z 34004KT 9999 FEW046 20/13 Q1014 NOSIG
12-07-09 METAR LFPG 092030Z 34002KT CAVOK 19/12 Q1014 NOSIG
12-07-09 METAR LFPG 092100Z 00000KT CAVOK 19/12 Q1014 NOSIG
12-07-09 METAR LFPG 092130Z 30002KT CAVOK 18/12 Q1014 NOSIG
12-07-09 METAR LFPG 092200Z 30002KT CAVOK 18/12 Q1014 NOSIG
12-07-09 METAR LFPG 092230Z 01002KT CAVOK 17/12 Q1014 NOSIG
12-07-09 METAR LFPG 092300Z 11003KT CAVOK 18/13 Q1014 NOSIG
12-07-09 METAR LFPG 092330Z VRB03KT CAVOK 18/13 Q1014 NOSIG
12-07-10 METAR LFPG 100000Z 09002KT 9999 BKN046 17/14 Q1014 NOSIG
12-07-10 METAR LFPG 100030Z 12003KT 9999 BKN045 17/14 Q1014 NOSIG
12-07-10 METAR LFPG 100100Z 15004KT 9999 BKN043 18/14 Q1014 NOSIG
12-07-10 METAR LFPG 100130Z 15004KT 9999 BKN043 BKN064 17/14 Q1013 NOSIG
12-07-10 METAR LFPG 100200Z 15005KT 9999 BKN041 BKN084 17/14 Q1013 NOSIG
12-07-10 METAR LFPG 100230Z 17005KT 9999 SCT041 BKN084 17/14 Q1013 NOSIG
12-07-10 METAR LFPG 100300Z 21004KT CAVOK 17/14 Q1013 NOSIG
12-07-10 METAR LFPG 100330Z 20006KT CAVOK 17/13 Q1013 NOSIG
12-07-10 METAR LFPG 100400Z 22005KT CAVOK 17/13 Q1013 NOSIG
12-07-10 METAR LFPG 100430Z 23006KT 200V280 CAVOK 16/13 Q1013 NOSIG
12-07-10 METAR LFPG 100500Z 25005KT 220V280 CAVOK 16/13 Q1013 NOSIG
12-07-10 METAR LFPG 100530Z 26005KT 220V290 9999 FEW050TCU SCT083 16/13 Q1013 NOSIG
12-07-10 METAR LFPG 100600Z 25005KT 220V280 9999 FEW008 BKN046 17/13 Q1013 NOSIG
12-07-10 METAR LFPG 100730Z 23009KT 9999 FEW012 BKN040 17/13 Q1014 NOSIG
12-07-10 METAR LFPG 100800Z 25009KT 9999 FEW012 BKN040 18/12 Q1014 NOSIG
12-07-10 METAR LFPG 100830Z 24008KT 210V270 9999 FEW015 BKN028 BKN040 18/11 Q1014 NOSIG
12-07-10 METAR LFPG 100900Z 23011KT 200V260 9999 SCT032 BKN035 18/10 Q1014 NOSIG
12-07-10 METAR LFPG 100930Z 23012KT 200V260 9999 SCT030 BKN035 17/10 Q1014 NOSIG
12-07-10 METAR LFPG 101000Z 22013KT 9999 BKN030 BKN040 17/10 Q1014 NOSIG
12-07-10 METAR LFPG 101030Z 24012KT 210V300 9999 SCT030 BKN050 18/11 Q1014 NOSIG
12-07-10 METAR LFPG 101100Z 29011KT 250V320 9999 FEW015 SCT026 BKN036 17/11 Q1014
12-07-10 METAR LFPG 101130Z 28008KT 9999 FEW015 BKN026 BKN050 16/12 Q1014 NOSIG
12-07-10 METAR LFPG 101200Z 24006KT 190V290 9999 FEW017 SCT026 BKN050 18/12 Q1014
12-07-10 METAR LFPG 101230Z 24008G20KT 200V290 9999 FEW023 SCT032 BKN046 18/12 Q1014
12-07-10 METAR LFPG 101300Z 26009KT 9999 FEW023 SCT030 BKN053 19/11 Q1014 NOSIG
12-07-10 METAR LFPG 101330Z 24011KT 9999 SCT031 BKN048 19/11 Q1014 NOSIG
12-07-10 METAR LFPG 101400Z 25010KT 9999 SCT033 BKN053 19/10 Q1014 NOSIG
12-07-10 METAR LFPG 101430Z 25009KT 220V280 9999 BKN040 SCT053 20/10 Q1014 NOSIG
12-07-10 METAR LFPG 101500Z 25013KT 230V290 9999 BKN043 SCT053 20/09 Q1014 NOSIG
12-07-10 METAR LFPG 101530Z 24013KT 9999 SCT043 BKN053 19/08 Q1014 NOSIG
12-07-10 METAR LFPG 101600Z 24010KT 210V270 9999 SCT046 BKN056 19/07 Q1014 NOSIG
12-07-10 METAR LFPG 101630Z 25012KT 9999 SCT049 BKN058 19/07 Q1014 NOSIG
12-07-10 METAR LFPG 101700Z 25011KT 210V270 9999 SCT049 BKN058 19/08 Q1014 NOSIG
12-07-10 METAR LFPG 101730Z 25012KT 9999 FEW047 BKN062 19/08 Q1014 NOSIG
12-07-10 METAR LFPG 101800Z 25010KT 9999 FEW046 BKN065 19/08 Q1014 NOSIG
12-07-10 METAR LFPG 101830Z 24012KT 9999 FEW046 BKN066 19/08 Q1014 NOSIG
12-07-10 METAR LFPG 101900Z 23011KT 9999 FEW046 BKN066 18/08 Q1014 NOSIG
12-07-10 METAR LFPG 101930Z 24008KT 9999 FEW046 BKN066 18/09 Q1014 NOSIG
12-07-10 METAR LFPG 102000Z 25008KT 9999 FEW046 BKN066 18/09 Q1014 NOSIG
12-07-10 METAR LFPG 102030Z 25008KT 9999 FEW040 SCT046 BKN060 17/09 Q1015 NOSIG
12-07-10 METAR LFPG 102100Z 24009KT 9999 FEW040 BKN046 BKN066 17/09 Q1015 NOSIG
12-07-10 METAR LFPG 102130Z 24007KT 9999 FEW040 BKN073 17/10 Q1015 NOSIG
12-07-10 METAR LFPG 102200Z 24006KT 9999 FEW040 BKN066 17/10 Q1015 NOSIG
12-07-10 METAR LFPG 102230Z 24006KT 9999 FEW040 BKN066 17/10 Q1015 NOSIG
12-07-10 METAR LFPG 102300Z 24005KT 9999 SCT033 BKN070 17/10 Q1014 NOSIG
12-07-10 METAR LFPG 102330Z 22008KT 9999 FEW040 BKN080 16/10 Q1014 NOSIG
12-07-11 METAR LFPG 110000Z 21006KT CAVOK 16/11 Q1014 NOSIG
12-07-11 METAR LFPG 110030Z 22006KT 9999 FEW044 BKN080 16/11 Q1014 NOSIG
12-07-11 METAR LFPG 110100Z 23011KT 9999 FEW041 BKN078 16/10 Q1014 NOSIG
12-07-11 METAR LFPG 110130Z 24010KT 9999 FEW042 BKN078 BKN210 16/10 Q1014 NOSIG
12-07-11 METAR LFPG 110200Z 23011KT CAVOK 16/10 Q1014 NOSIG
12-07-11 METAR LFPG 110230Z 23011KT CAVOK 16/10 Q1014 NOSIG
12-07-11 METAR LFPG 110300Z 24011KT 9999 FEW046 BKN083 15/10 Q1014 NOSIG
12-07-11 METAR LFPG 110330Z 25009KT 9999 FEW022 BKN080 15/10 Q1014 NOSIG
12-07-11 METAR LFPG 110400Z 25009KT 9999 VCSH BKN018 BKN070 15/10 Q1014 NOSIG
12-07-11 METAR LFPG 110430Z 29011KT 3000 -RA SCT012 BKN017 14/11 Q1014 NOSIG
12-07-11 METAR LFPG 110500Z 26007KT 2500 -RA SCT003 BKN007 13/12 Q1015 NOSIG
12-07-11 METAR LFPG 110530Z 24007KT 9999 BKN003 BKN012 13/12 Q1015 NOSIG
12-07-11 METAR LFPG 110700Z 27008KT 250V310 9999 SCT007 BKN015 13/12 Q1015 NOSIG
12-07-11 METAR LFPG 110730Z 25008KT 9999 SCT006 BKN013 BKN022 14/12 Q1015 NOSIG
12-07-11 METAR LFPG 110800Z 26009KT 9999 BKN013 BKN200 15/11 Q1015 NOSIG
12-07-11 METAR LFPG 110830Z 26009KT 9999 BKN017 BKN200 15/10 Q1016 NOSIG
12-07-11 METAR LFPG 110900Z 26010KT 230V290 9999 BKN020 BKN200 16/10 Q1016 NOSIG
12-07-11 METAR LFPG 110930Z 25011KT 210V270 9999 BKN022 BKN200 16/10 Q1016 NOSIG
12-07-11 METAR LFPG 111000Z 25012KT 220V280 9999 BKN026 BKN190 16/09 Q1016 NOSIG
12-07-11 METAR LFPG 111030Z 27011KT 9999 BKN030 BKN190 17/09 Q1016 NOSIG
12-07-11 METAR LFPG 111100Z 26011KT 9999 BKN031 BKN230 17/09 Q1016 NOSIG
12-07-11 METAR LFPG 111130Z 24012KT 9999 SCT033 BKN046 BKN230 18/09 Q1016 NOSIG
12-07-11 METAR LFPG 111200Z 24012KT 210V280 CAVOK 18/08 Q1016 NOSIG
12-07-11 METAR LFPG 111230Z 24012KT 200V270 CAVOK 18/09 Q1016 NOSIG
12-07-11 METAR LFPG 111300Z 22013KT 9999 VCSH FEW040 BKN053 BKN160 18/09 Q1016
12-07-11 METAR LFPG 111330Z 24012KT 9999 4000N R27L/1100VP2000U R27R/1300VP2000U FEW026TCU BKN036 BKN160 16/12 Q1016 RESHRA NOSIG
12-07-11 METAR LFPG 111400Z 23011KT 190V260 9999 FEW026 FEW033TCU BKN050 18/11 Q1016 RESHRA NOSIG
12-07-11 METAR LFPG 111430Z 22012KT 180V260 9999 FEW030 FEW033TCU BKN050 18/10 Q1016
12-07-11 METAR LFPG 111500Z 27016KT 230V320 9999 VCSH FEW016CB BKN033 BKN066 18/10 Q1016 NOSIG
12-07-11 METAR LFPG 111530Z 28007KT 9999 R26L/0750V1900U FEW016CB BKN033 BKN066 15/13 Q1016 RESHRA NOSIG
12-07-11 METAR LFPG 111600Z 25009KT 230V300 9999 FEW019TCU BKN033 BKN100 17/12 Q1016
12-07-11 METAR LFPG 111630Z 26009KT 230V300 9999 FEW033TCU SCT035 BKN093 17/11 Q1016
12-07-11 METAR LFPG 111700Z 25007KT 9999 FEW033TCU SCT035 BKN093 15/12 Q1016 NOSIG
12-07-11 METAR LFPG 111730Z 26006KT 9999 SCT033TCU SCT053 15/12 Q1016 NOSIG
12-07-11 METAR LFPG 111800Z 25006KT 220V280 9999 SCT042TCU SCT063 16/12 Q1015 NOSIG
12-07-11 METAR LFPG 111830Z 25007KT 200V280 9999 VCSH SCT040CB SCT066 16/11 Q1016
12-07-11 METAR LFPG 111900Z 32008KT 9999 SCT035CB BKN073 16/12 Q1016 NOSIG
12-07-11 METAR LFPG 111930Z 28002KT 9999 FEW035CB BKN100 15/12 Q1016 NOSIG
12-07-11 METAR LFPG 112000Z 27003KT 9999 FEW040 SCT110 15/12 Q1016 NOSIG
12-07-11 METAR LFPG 112030Z 23007G20KT 190V300 9999 FEW040 SCT080 BKN093 15/12 Q1016
12-07-11 METAR LFPG 112100Z 23008KT 9999 FEW040 SCT070 BKN096 15/12 Q1016 NOSIG
12-07-11 METAR LFPG 112130Z 24010KT CAVOK 15/10 Q1017 NOSIG
12-07-11 METAR LFPG 112200Z 25010KT 9999 FEW040 SCT083 BKN100 15/10 Q1017 NOSIG
12-07-11 METAR LFPG 112230Z 25010KT 9999 FEW040 SCT075 BKN100 15/10 Q1017 NOSIG
12-07-11 METAR LFPG 112300Z 25009KT CAVOK 15/10 Q1017 NOSIG
12-07-11 METAR LFPG 112330Z 25010KT CAVOK 14/10 Q1017 NOSIG
12-07-12 METAR LFPG 120000Z 25009KT CAVOK 14/10 Q1017 NOSIG
12-07-12 METAR LFPG 120030Z 24009KT CAVOK 14/10 Q1017 NOSIG
12-07-12 METAR LFPG 120100Z 25009KT 9999 SCT024 SCT086 BKN190 13/10 Q1017 NOSIG
12-07-12 METAR LFPG 120130Z 25010KT 9999 FEW024 BKN180 13/10 Q1017 NOSIG
12-07-12 METAR LFPG 120200Z 25009KT CAVOK 13/09 Q1017 NOSIG
12-07-12 METAR LFPG 120230Z 24010KT CAVOK 13/09 Q1017 NOSIG
12-07-12 METAR LFPG 120300Z 24011KT CAVOK 13/10 Q1017 NOSIG
12-07-12 METAR LFPG 120330Z 24011KT CAVOK 13/10 Q1017 NOSIG
12-07-12 METAR LFPG 120400Z 23009KT 9999 FEW020 BKN066 BKN140 13/10 Q1017 NOSIG
12-07-12 METAR LFPG 120430Z 23011KT 9999 FEW020 BKN076 13/10 Q1017 NOSIG
12-07-12 METAR LFPG 120500Z 24010KT 9999 FEW020 SCT083 BKN140 14/10 Q1017 NOSIG
12-07-12 METAR LFPG 120530Z 23012KT 9999 SCT017 BKN140 14/11 Q1017 NOSIG
12-07-12 METAR LFPG 120700Z 23015KT 9999 SCT016 SCT086 BKN140 15/10 Q1017 NOSIG
12-07-12 METAR LFPG 120730Z 23014KT 9999 FEW019 BKN079 BKN110 15/09 Q1017 NOSIG
12-07-12 METAR LFPG 120800Z 23015KT 9999 FEW023 BKN052 BKN081 16/09 Q1017 NOSIG
12-07-12 METAR LFPG 120830Z 23014KT 9999 VCSH SCT025 BKN043 16/09 Q1017 NOSIG
12-07-12 METAR LFPG 121100Z 27009KT 9000 FEW006 SCT015 BKN025 15/13 Q1018 NOSIG
12-07-12 METAR LFPG 121130Z 26009KT 9999 FEW012 BKN031 16/13 Q1017 NOSIG
12-07-12 METAR LFPG 121200Z 26009KT 230V290 9999 FEW019 SCT029 BKN035 16/12 Q1017 NOSIG
12-07-12 METAR LFPG 121230Z 29010KT 9999 -RA FEW019 SCT029 BKN038 16/12 Q1017 NOSIG
12-07-12 METAR LFPG 121300Z 29008KT 9999 FEW010 BKN036 BKN042 15/13 Q1017 NOSIG
12-07-12 METAR LFPG 121330Z 27010KT 9999 FEW010 SCT036 BKN053 17/12 Q1017 NOSIG
12-07-12 METAR LFPG 121400Z 25010KT 9999 FEW020 SCT035 BKN052 18/12 Q1017 NOSIG
12-07-12 METAR LFPG 121430Z 23007KT 200V270 9999 FEW026 SCT041 BKN061 18/12 Q1016
12-07-12 METAR LFPG 121500Z VRB06KT 9999 -RA FEW023 SCT031 BKN063 18/12 Q1016 NOSIG
12-07-12 METAR LFPG 121530Z 23009KT 9999 -SHRA FEW023 BKN024 BKN033 17/12 Q1016
12-07-12 METAR LFPG 121700Z 23007KT 2400 -RA FEW006 SCT013 BKN025 16/14 Q1015 NOSIG
12-07-12 METAR LFPG 121730Z 21007KT 2400 RA SCT004 SCT019 BKN033 15/14 Q1015 NOSIG
12-07-12 METAR LFPG 121800Z 21005KT 180V290 2200 RA BKN004 BKN020 15/14 Q1015 NOSIG
12-07-12 METAR LFPG 121830Z 22008KT 2500 RA BKN008 BKN014 15/14 Q1014 NOSIG
12-07-12 METAR LFPG 121900Z 23012KT 9999 -RA BKN008 BKN038 15/14 Q1014 NOSIG
12-07-12 METAR LFPG 121930Z 25012KT 9999 -RA BKN007 BKN026 15/14 Q1015 NOSIG
12-07-12 METAR LFPG 122000Z 24011KT 8000 -RA SCT007 BKN050 14/13 Q1015 NOSIG
12-07-12 METAR LFPG 122030Z 24009KT 9999 -RA SCT009 BKN036 14/13 Q1015 NOSIG
12-07-12 METAR LFPG 122100Z 22012G24KT 9999 -RA BKN011 BKN044 14/13 Q1015 NOSIG
12-07-12 METAR LFPG 122130Z 24010KT 9000 -RA BKN008 BKN045 14/13 Q1014 NOSIG
12-07-12 METAR LFPG 122200Z 22008KT 9000 -RA SCT006 BKN012 BKN035 14/13 Q1014 NOSIG
12-07-12 METAR LFPG 122230Z 22010KT 9999 -RA FEW007 BKN013 BKN025 14/13 Q1013 NOSIG
12-07-12 METAR LFPG 122300Z 23008KT 7000 -RA BKN008 14/13 Q1013 NOSIG
12-07-12 METAR LFPG 122330Z 21006KT 9000 -RA BKN008 14/13 Q1013 NOSIG
12-07-13 METAR LFPG 130000Z 21007KT 9000 -RA BKN008 BKN020 14/13 Q1012 NOSIG
12-07-13 METAR LFPG 130030Z 20006KT 9000 -RA BKN004 BKN011 14/13 Q1012 NOSIG
12-07-13 METAR LFPG 130100Z 20007KT 6000 -RA BKN005 BKN011 14/13 Q1012 NOSIG
12-07-13 METAR LFPG 130130Z 21012KT 6000 -RA SCT003 BKN006 14/13 Q1011 NOSIG
12-07-13 METAR LFPG 130200Z 19008KT 6000 BKN004 BKN012 14/13 Q1010 NOSIG
12-07-13 METAR LFPG 130230Z 20012KT 9999 RA BKN009 14/13 Q1010 NOSIG
12-07-13 METAR LFPG 130300Z 20012KT 8000 -RA BKN009 14/13 Q1010 NOSIG
12-07-13 METAR LFPG 130330Z 20012KT 8000 -RA SCT009 BKN043 14/12 Q1009 NOSIG
12-07-13 METAR LFPG 130400Z 19012KT 5000 -RA BKN009 13/12 Q1009 NOSIG
12-07-13 METAR LFPG 130430Z 19011KT 9999 BKN009 13/12 Q1009 NOSIG
12-07-13 METAR LFPG 130500Z 20010KT 9999 BKN009 14/12 Q1009 NOSIG
12-07-13 METAR LFPG 130530Z 21011KT 9999 BKN009 14/12 Q1009 NOSIG
12-07-13 METAR LFPG 130600Z 21012KT 9999 BKN006 14/13 Q1009 NOSIG
12-07-13 METAR LFPG 130700Z 20012KT 9999 BKN007 15/13 Q1008 NOSIG
12-07-13 METAR LFPG 130730Z 20012KT 5000 -DZRA BKN007 15/13 Q1008 NOSIG
12-07-13 METAR LFPG 130900Z 20013KT 9000 -DZRA BKN008 16/14 Q1007 NOSIG
12-07-13 METAR LFPG 130930Z 20012KT 180V270 9999 -DZRA BKN007 SCT011 16/14 Q1007 NOSIG
12-07-13 METAR LFPG 131000Z 21016KT 180V250 4000 RADZ BKN007 16/14 Q1007 BECMG BKN012
12-07-13 METAR LFPG 131100Z 21011KT 9999 FEW016 BKN036 17/15 Q1006 NOSIG
12-07-13 METAR LFPG 131200Z 21011KT 9999 FEW033 SCT130 BKN210 18/14 Q1006 NOSIG
12-07-13 METAR LFPG 131230Z 25008KT 210V280 9999 FEW033 SCT130 BKN210 18/13 Q1006
12-07-13 METAR LFPG 131300Z 25009KT 9999 SCT026 SCT053 BKN190 18/13 Q1006 NOSIG
12-07-13 METAR LFPG 131330Z 25007KT 230V290 9999 FEW026 SCT046 BKN260 19/13 Q1005
12-07-13 METAR LFPG 131400Z 24007KT 200V320 9999 FEW026 SCT040 BKN260 19/13 Q1005
12-07-13 METAR LFPG 131430Z 23009KT 200V270 9999 FEW026 BKN030 BKN110 18/12 Q1005
12-07-13 METAR LFPG 131500Z 22011KT 9999 BKN030 BKN120 18/12 Q1005 NOSIG
12-07-13 METAR LFPG 131530Z 23012KT 9999 FEW020 SCT033 BKN260 18/12 Q1005 NOSIG
12-07-13 METAR LFPG 131600Z 20012KT 9999 -RA SCT018 SCT040 BKN093 17/13 Q1004 NOSIG
12-07-13 METAR LFPG 131630Z 21013KT 9999 -RA FEW013 SCT034 BKN100 16/13 Q1004 NOSIG
12-07-13 METAR LFPG 131700Z 21010KT 9999 FEW013 SCT035 BKN086 16/13 Q1004 NOSIG
12-07-13 METAR LFPG 131730Z 20010KT 9999 -RA FEW013 BKN072 16/13 Q1004 NOSIG
12-07-13 METAR LFPG 131800Z 19008KT 9999 -RA FEW013 BKN065 15/13 Q1004 NOSIG
12-07-13 METAR LFPG 131830Z 19009G20KT 160V230 9999 -RA FEW011 BKN054 15/13 Q1004
12-07-13 METAR LFPG 131900Z 19006KT 170V310 8000 -RA FEW005 SCT007 BKN050 15/13 Q1004 NOSIG
12-07-13 METAR LFPG 131930Z 18006KT 150V210 9999 -RA FEW005 SCT007 BKN078 14/13 Q1003 NOSIG
12-07-13 METAR LFPG 132000Z 18008KT 9999 -RA FEW006 SCT019 BKN042 14/13 Q1003 NOSIG
12-07-13 METAR LFPG 132030Z 16006KT 9999 -RA FEW006 SCT053 BKN068 13/12 Q1003 NOSIG
12-07-13 METAR LFPG 132100Z 17005KT 030V200 9999 -RA FEW003 BKN061 13/12 Q1003
12-07-13 METAR LFPG 132130Z 17006KT 7000 -RA SCT004 SCT014 BKN053 13/12 Q1003 NOSIG
12-07-13 METAR LFPG 132200Z 18006KT 4000 1000SE R27L/P2000 R09R/P2000 R26R/P2000 R08L/P2000 R26L/P2000 R08R/P2000 R27R/P2000 R09L/P2000 -RA SCT004 SCT011 BKN053 13/12 Q1003 NOSIG
12-07-13 METAR LFPG 132230Z 20006KT 8000 -RA BKN003 SCT013 13/12 Q1003 NOSIG
12-07-13 METAR LFPG 132300Z 23007KT 5000 -RA BKN003 SCT013 13/12 Q1003 NOSIG
12-07-13 METAR LFPG 132330Z 24006KT 3000 RA BKN003 SCT013 13/12 Q1003 NOSIG
12-07-14 METAR LFPG 140000Z 23006KT 5000 BKN003 SCT012 13/12 Q1003 RERA NOSIG
12-07-14 METAR LFPG 140030Z 24007KT 9999 SCT004 SCT007 BKN010 13/12 Q1003 RERA NOSIG
12-07-14 METAR LFPG 140100Z 26007KT 9999 SCT004 SCT006 BKN044 13/12 Q1003 NOSIG
12-07-14 METAR LFPG 140130Z 25008KT 9999 SCT005 SCT007 BKN043 13/12 Q1004 NOSIG
12-07-14 METAR LFPG 140200Z 24006KT 9999 SCT006 BKN023 13/12 Q1004 NOSIG
12-07-14 METAR LFPG 140230Z 25010KT 7000 -RA BKN007 BKN023 13/12 Q1004 NOSIG
12-07-14 METAR LFPG 140300Z 26009KT 9999 FEW005 SCT009 BKN026 13/12 Q1005 NOSIG
12-07-14 METAR LFPG 140330Z 25010KT 9999 FEW007 SCT013 BKN032 13/12 Q1005 NOSIG
12-07-14 METAR LFPG 140400Z 25013KT 9999 BKN009 SCT015 BKN052 13/12 Q1006 NOSIG
12-07-14 METAR LFPG 140430Z 25012KT 9999 SCT009 SCT019 BKN110 13/11 Q1006 NOSIG
12-07-14 METAR LFPG 140500Z 25014KT 9999 FEW011 SCT024 BKN110 13/11 Q1007 NOSIG
12-07-14 METAR LFPG 140530Z 24013KT 9999 FEW013 SCT026 BKN110 13/11 Q1007 NOSIG
12-07-14 METAR LFPG 140600Z 24015KT 9999 FEW013 BKN080 13/11 Q1007 NOSIG
12-07-14 METAR LFPG 140630Z 23015KT 9999 FEW015 SCT028 BKN080 13/11 Q1007 NOSIG
12-07-14 METAR LFPG 140700Z 23016KT 9999 SCT014 SCT020 BKN066 14/11 Q1008 NOSIG
12-07-14 METAR LFPG 140730Z 23016KT 9999 SCT016 BKN071 14/11 Q1008 NOSIG
12-07-14 METAR LFPG 140800Z 23017KT 9999 SCT016 BKN082 15/12 Q1008 NOSIG
12-07-14 METAR LFPG 140830Z 24014KT 210V270 9999 BKN021 BKN030 16/11 Q1008 NOSIG
12-07-14 METAR LFPG 140900Z 23016KT 9999 BKN021 BKN034 16/11 Q1009 NOSIG
12-07-14 METAR LFPG 140930Z 23016KT 200V290 9999 BKN023 17/11 Q1009 BECMG SCT030TCU
12-07-14 METAR LFPG 141000Z 23017KT 9999 VCSH SCT028 FEW029TCU SCT056 18/11 Q1009 BECMG SCT030TCU
12-07-14 METAR LFPG 141030Z 23015KT 200V260 9999 FEW025TCU BKN032 BKN061 17/11 Q1009
12-07-14 METAR LFPG 141100Z 24014KT 9999 FEW025TCU SCT027 BKN058 19/12 Q1009 NOSIG
12-07-14 METAR LFPG 141130Z 23015KT 9999 FEW026TCU SCT030 BKN052 19/11 Q1009 NOSIG
12-07-14 METAR LFPG 141200Z 23014KT 9999 FEW026CB SCT029 19/11 Q1009 NOSIG
12-07-14 METAR LFPG 141230Z 25018KT 210V270 9999 FEW028TCU SCT039 20/10 Q1009 NOSIG
12-07-14 METAR LFPG 141300Z 26017KT 9999 FEW033TCU SCT042 20/09 Q1009 TEMPO 4000 -SHRA SCT030CB
12-07-14 METAR LFPG 141330Z 25016KT 9999 FEW033TCU SCT043 21/10 Q1009 TEMPO 4000
12-07-14 METAR LFPG 141400Z 24014KT 9999 VCSH FEW033TCU BKN042 20/10 Q1009 TEMPO 4000 -SHRA SCT030CB
12-07-14 METAR LFPG 141430Z 25010KT 9999 FEW034CB BKN071 17/13 Q1009 RESHRA TEMPO 25020G30KT 2500 -TSRA SCT030CB
12-07-14 METAR LFPG 141500Z 25011KT 220V300 9999 FEW034CB SCT086 19/14 Q1009 RESHRA TEMPO 25020G30KT 2500 -TSRA SCT030CB
12-07-14 METAR LFPG 141530Z 25009KT 9999 FEW034CB BKN230 19/12 Q1009 RESHRA TEMPO 25020G35KT 2000 -TSRA SCT030CB
12-07-14 METAR LFPG 141600Z 25015KT 9999 FEW034CB SCT230 20/11 Q1009 TEMPO
12-07-14 METAR LFPG 141630Z 25015KT 9999 FEW033CB SCT086 20/10 Q1009 TEMPO
12-07-14 METAR LFPG 141700Z 29014KT 9999 VCSH FEW033CB SCT035 19/10 Q1010 TEMPO
12-07-14 METAR LFPG 141730Z 28010KT 250V310 9999 FEW033CB SCT053 19/11 Q1010 TEMPO
12-07-14 METAR LFPG 141800Z 27008KT 250V310 9999 FEW033CB SCT090 20/11 Q1010 TEMPO
12-07-14 METAR LFPG 141830Z 28007KT 250V320 9999 VCSH FEW033CB SCT045 19/11 Q1010 TEMPO 25020G35KT 2000 -TSRA SCT030CB
12-07-14 METAR LFPG 141900Z 22011KT 9999 R26R/1200VP2000D FEW033CB SCT040 16/12 Q1010 RESHRA NOSIG
12-07-14 METAR LFPG 141930Z 25006KT 9999 FEW026CB SCT029 16/13 Q1011 RESHRA NOSIG
12-07-14 METAR LFPG 142000Z 26006KT 9999 FEW026TCU SCT036 16/13 Q1011 RESHRA NOSIG
12-07-14 METAR LFPG 142030Z 26008KT 9999 FEW026TCU 16/13 Q1011 RESHRA NOSIG
12-07-14 METAR LFPG 142100Z 26006KT 9999 FEW040 16/13 Q1011 NOSIG
12-07-14 METAR LFPG 142130Z 25006KT CAVOK 15/12 Q1012 NOSIG
12-07-14 METAR LFPG 142200Z 26007KT CAVOK 15/12 Q1012 NOSIG
12-07-14 METAR LFPG 142230Z 27007KT CAVOK 15/11 Q1012 NOSIG
12-07-14 METAR LFPG 142300Z 26008KT 9999 FEW026 SCT050 14/11 Q1012 NOSIG
12-07-14 METAR LFPG 142330Z 26006KT 9999 FEW033 SCT040 14/11 Q1013 NOSIG
12-07-15 METAR LFPG 150000Z 26007KT 9999 FEW040 14/10 Q1013 NOSIG
12-07-15 METAR LFPG 150030Z 26008KT 9999 FEW040 14/10 Q1013 NOSIG
12-07-15 METAR LFPG 150100Z 25007KT CAVOK 13/10 Q1013 NOSIG
12-07-15 METAR LFPG 150130Z 24006KT 9999 SCT041 13/11 Q1013 NOSIG
12-07-15 METAR LFPG 150200Z 25007KT 9999 FEW012 SCT140 13/11 Q1013 NOSIG
12-07-15 METAR LFPG 150230Z 24007KT 9999 SCT043 13/11 Q1013 NOSIG
12-07-15 METAR LFPG 150300Z 24008KT 9999 FEW043 12/10 Q1013 NOSIG
12-07-15 METAR LFPG 150330Z 25009KT CAVOK 12/10 Q1014 NOSIG
12-07-15 METAR LFPG 150400Z 25008KT 9999 FEW012 SCT064 12/10 Q1014 NOSIG
12-07-15 METAR LFPG 150430Z 25006KT 9999 FEW011 BKN078 12/10 Q1014 NOSIG
12-07-15 METAR LFPG 150500Z 24007KT 9999 FEW011 BKN073 12/11 Q1014 NOSIG
12-07-15 METAR LFPG 150530Z 24009KT 9999 FEW011 BKN072 13/11 Q1014 NOSIG
12-07-15 METAR LFPG 150600Z 24010KT 9999 FEW011 BKN076 13/11 Q1014 NOSIG
12-07-15 METAR LFPG 150630Z 24008KT 9999 FEW009 BKN073 13/11 Q1015 NOSIG
12-07-15 METAR LFPG 150700Z 25009KT 9999 FEW010 BKN079 14/11 Q1015 NOSIG
12-07-15 METAR LFPG 150730Z 25012KT 210V280 9999 SCT011 BKN078 14/10 Q1015 NOSIG
12-07-15 METAR LFPG 150800Z 24010KT 220V280 9999 SCT016 SCT076 15/10 Q1016 NOSIG
12-07-15 METAR LFPG 150830Z 24011KT 210V310 9999 BKN020 SCT060 BKN200 16/10 Q1016 NOSIG
12-07-15 METAR LFPG 150900Z 25008KT 200V290 9999 BKN024 SCT053 BKN170 16/10 Q1016
12-07-15 METAR LFPG 151030Z 27009KT 230V290 9999 FEW022TCU BKN029 BKN075 16/11 Q1017
12-07-15 METAR LFPG 151100Z 30010KT 270V330 9999 FEW022TCU BKN025 BKN073 16/10 Q1017
12-07-15 METAR LFPG 151130Z 28012KT 250V310 9999 FEW022TCU BKN083 17/10 Q1017 NOSIG
12-07-15 METAR LFPG 151200Z 29009KT 230V330 9999 FEW023TCU SCT031 BKN083 18/10 Q1017
12-07-15 METAR LFPG 151230Z 26016KT 9999 FEW034TCU BKN036 BKN080 18/08 Q1017 NOSIG
12-07-15 METAR LFPG 151300Z 27016KT 9999 FEW034TCU BKN036 BKN072 17/08 Q1018 NOSIG
12-07-15 METAR LFPG 151330Z 28011KT 9999 FEW034TCU BKN092 18/09 Q1018 NOSIG
12-07-15 METAR LFPG 151400Z 30012KT 9999 SCT036 BKN094 18/09 Q1018 NOSIG
12-07-15 METAR LFPG 151430Z 28012KT 9999 SCT036 BKN085 18/09 Q1019 NOSIG
12-07-15 METAR LFPG 151500Z 29017KT 9999 SCT038 BKN073 19/07 Q1019 NOSIG
12-07-15 METAR LFPG 151530Z 29013G24KT 260V320 9999 SCT038 BKN073 18/08 Q1019 NOSIG
12-07-15 METAR LFPG 151600Z 29014KT 9999 FEW038 BKN066 17/06 Q1020 NOSIG
12-07-15 METAR LFPG 151730Z 30011KT 9999 SCT049 BKN081 17/07 Q1021 NOSIG
12-07-15 METAR LFPG 151800Z 30009KT 260V320 9999 FEW046 BKN078 17/08 Q1021 NOSIG
12-07-15 METAR LFPG 151830Z 29013KT 9999 FEW046 BKN063 BKN079 17/06 Q1021 NOSIG
12-07-15 METAR LFPG 151900Z 28009KT 9999 FEW046 SCT077 17/06 Q1022 NOSIG
12-07-15 METAR LFPG 151930Z 27007KT 9999 FEW046 16/06 Q1022 NOSIG
12-07-15 METAR LFPG 152000Z 27005KT CAVOK 15/06 Q1022 NOSIG
12-07-15 METAR LFPG 152030Z 27005KT CAVOK 15/06 Q1023 NOSIG
12-07-15 METAR LFPG 152100Z 28005KT CAVOK 14/07 Q1023 NOSIG
12-07-15 METAR LFPG 152130Z 29006KT 9999 BKN046 14/07 Q1024 NOSIG
12-07-15 METAR LFPG 152200Z 28004KT 9999 FEW046 BKN058 13/07 Q1024 NOSIG
12-07-15 METAR LFPG 152230Z 27004KT CAVOK 13/07 Q1024 NOSIG
12-07-15 METAR LFPG 152300Z 28004KT 9999 FEW044 12/07 Q1025 NOSIG
12-07-15 METAR LFPG 152330Z 25006KT CAVOK 12/07 Q1025 NOSIG
12-07-16 METAR LFPG 160000Z 24005KT CAVOK 12/07 Q1025 NOSIG
12-07-16 METAR LFPG 160030Z 24006KT CAVOK 12/07 Q1025 NOSIG
12-07-16 METAR LFPG 160100Z 25006KT CAVOK 12/07 Q1025 NOSIG
12-07-16 METAR LFPG 160130Z 25007KT CAVOK 12/07 Q1025 NOSIG
12-07-16 METAR LFPG 160200Z 24007KT CAVOK 12/08 Q1025 NOSIG
12-07-16 METAR LFPG 160230Z 25006KT CAVOK 11/08 Q1025 NOSIG
12-07-16 METAR LFPG 160300Z 24006KT CAVOK 11/07 Q1025 NOSIG
12-07-16 METAR LFPG 160330Z 24007KT CAVOK 11/07 Q1026 NOSIG
12-07-16 METAR LFPG 160400Z 22006KT CAVOK 11/08 Q1026 NOSIG
12-07-16 METAR LFPG 160430Z 23007KT CAVOK 10/08 Q1026 NOSIG
12-07-16 METAR LFPG 160500Z 21005KT CAVOK 11/08 Q1026 NOSIG
12-07-16 METAR LFPG 160530Z 23007KT CAVOK 11/08 Q1026 NOSIG
12-07-16 METAR LFPG 160600Z 23007KT CAVOK 12/09 Q1026 NOSIG
12-07-16 METAR LFPG 160630Z 23005KT 210V270 CAVOK 13/09 Q1027 NOSIG
12-07-16 METAR LFPG 160700Z 23009KT 210V270 9999 FEW016 SCT250 14/10 Q1027 NOSIG
12-07-16 METAR LFPG 160730Z 25009KT 9999 FEW020 SCT250 15/10 Q1027 NOSIG
12-07-16 METAR LFPG 160800Z 24009KT 9999 FEW023 16/10 Q1027 NOSIG
12-07-16 METAR LFPG 160830Z 24010KT 9999 SCT026 16/11 Q1027 NOSIG
12-07-16 METAR LFPG 160900Z 24012KT 9999 SCT026 17/10 Q1027 NOSIG
12-07-16 METAR LFPG 160930Z 24012KT 210V270 9999 SCT033 BKN140 17/10 Q1027 NOSIG
12-07-16 METAR LFPG 161000Z 23014G25KT 200V290 9999 SCT031 SCT063 BKN130 18/09 Q1027 NOSIG
12-07-16 METAR LFPG 161030Z 25014KT 210V270 9999 SCT033 SCT065 BKN110 18/08 Q1027
12-07-16 METAR LFPG 161100Z 25013G23KT 9999 SCT034 SCT065 BKN100 19/09 Q1027 NOSIG
12-07-16 METAR LFPG 161130Z 24014KT 200V270 9999 SCT043 BKN100 19/09 Q1026 NOSIG
12-07-16 METAR LFPG 161200Z 22011KT 190V250 9999 BKN046 BKN100 20/09 Q1026 NOSIG
12-07-16 METAR LFPG 161230Z 23012KT 200V270 9999 SCT046 BKN080 21/09 Q1026 NOSIG
12-07-16 METAR LFPG 161300Z 24013KT 9999 FEW046 BKN066 21/07 Q1026 NOSIG
12-07-16 METAR LFPG 161330Z 24014KT CAVOK 21/08 Q1026 NOSIG
12-07-16 METAR LFPG 161400Z 26015KT 220V280 CAVOK 21/08 Q1026 NOSIG
12-07-16 METAR LFPG 161430Z 23014KT CAVOK 21/08 Q1025 NOSIG
12-07-16 METAR LFPG 161500Z 23015KT 9999 SCT046 SCT250 21/09 Q1025 NOSIG
12-07-16 METAR LFPG 161530Z 25016KT 9999 SCT049 BKN073 21/09 Q1025 NOSIG
12-07-16 METAR LFPG 161600Z 24014KT 9999 SCT049 BKN060 21/10 Q1025 NOSIG
12-07-16 METAR LFPG 161630Z 23013KT 9999 FEW048 BKN060 21/09 Q1025 NOSIG
12-07-16 METAR LFPG 161700Z 23015KT 9999 FEW046 BKN056 21/10 Q1024 NOSIG
12-07-16 METAR LFPG 161730Z 24014KT 9999 FEW046 BKN056 BKN250 21/10 Q1024 NOSIG
12-07-16 METAR LFPG 161800Z 23014KT 9999 FEW046 BKN250 22/10 Q1024 NOSIG
12-07-16 METAR LFPG 161830Z 25015KT 9999 FEW046 BKN180 21/10 Q1024 NOSIG
12-07-16 METAR LFPG 161900Z 24015KT 9999 FEW046 SCT180 21/10 Q1024 NOSIG
12-07-16 METAR LFPG 161930Z 24014KT 9999 FEW046 SCT066 20/10 Q1024 NOSIG
12-07-16 METAR LFPG 162000Z 24012KT CAVOK 20/10 Q1024 NOSIG
12-07-16 METAR LFPG 162030Z 24010KT 9999 FEW046 SCT240 19/10 Q1024 NOSIG
12-07-16 METAR LFPG 162100Z 24012KT 9999 FEW046 BKN056 19/11 Q1024 NOSIG
12-07-16 METAR LFPG 162200Z 24014KT 9999 BKN042 19/11 Q1024 NOSIG
12-07-16 METAR LFPG 162230Z 24014KT 9999 BKN038 19/11 Q1025 NOSIG
12-07-16 METAR LFPG 162300Z 24012KT 9999 BKN038 18/11 Q1025 NOSIG
12-07-16 METAR LFPG 162330Z 24012KT 9999 BKN038 18/11 Q1025 NOSIG
12-07-17 METAR LFPG 170000Z 24012KT 9999 BKN036 BKN045 18/12 Q1025 NOSIG
12-07-17 METAR LFPG 170030Z 24011KT 9999 BKN033 BKN040 17/12 Q1025 NOSIG
12-07-17 METAR LFPG 170100Z 24013KT 9999 BKN028 17/12 Q1025 NOSIG
12-07-17 METAR LFPG 170130Z 24013KT 9999 BKN036 17/12 Q1025 NOSIG
12-07-17 METAR LFPG 170200Z 25011KT 9999 BKN025 17/12 Q1025 NOSIG
12-07-17 METAR LFPG 170230Z 25011KT 9999 BKN025 17/12 Q1025 NOSIG
12-07-17 METAR LFPG 170300Z 26010KT 9999 BKN025 17/12 Q1025 NOSIG
12-07-17 METAR LFPG 170330Z 26010KT 230V300 9999 SCT023 BKN033 17/12 Q1025 NOSIG
12-07-17 METAR LFPG 170400Z 25008KT 220V280 9999 FEW023 BKN033 16/12 Q1025 NOSIG
12-07-17 METAR LFPG 170430Z 29009KT 9999 FEW019 BKN030 16/12 Q1025 NOSIG
12-07-17 METAR LFPG 170500Z 27005KT 9999 FEW016 BKN018 16/12 Q1025 NOSIG
12-07-17 METAR LFPG 170530Z 28011KT 9999 FEW025 BKN033 17/12 Q1026 NOSIG
12-07-17 METAR LFPG 170600Z 27012KT 9999 FEW025 BKN033 17/11 Q1026 NOSIG
12-07-17 METAR LFPG 170630Z 27011KT 240V300 9999 SCT023 BKN031 17/11 Q1026 NOSIG
12-07-17 METAR LFPG 170700Z 27012KT 9999 SCT020 BKN028 17/12 Q1026 NOSIG
12-07-17 METAR LFPG 170730Z 28011KT 9999 SCT019 BKN030 17/11 Q1026 NOSIG
12-07-17 METAR LFPG 170800Z 29010KT 9999 SCT019 BKN030 17/12 Q1027 NOSIG
12-07-17 METAR LFPG 170830Z 29011KT 9999 SCT021 BKN033 18/12 Q1027 NOSIG
12-07-17 METAR LFPG 170900Z 29009KT 260V320 9999 SCT023 BKN031 18/11 Q1027 NOSIG
12-07-17 METAR LFPG 170930Z 28010KT 250V320 9999 SCT026 BKN035 18/11 Q1027 NOSIG
12-07-17 METAR LFPG 171000Z 28009KT 250V310 9999 BKN027 19/12 Q1027 NOSIG
12-07-17 METAR LFPG 171030Z 27010KT 240V310 9999 BKN028 20/12 Q1027 NOSIG
12-07-17 METAR LFPG 171100Z 28008KT 240V310 9999 BKN028 20/12 Q1027 NOSIG
12-07-17 METAR LFPG 171130Z 26009KT 230V310 9999 SCT031 21/12 Q1027 NOSIG
12-07-17 METAR LFPG 171200Z 27009KT 230V300 9999 SCT035 21/12 Q1027 NOSIG
12-07-17 METAR LFPG 171230Z 29008KT 260V320 9999 FEW037 22/12 Q1027 NOSIG
12-07-17 METAR LFPG 171300Z 27010KT 230V310 9999 FEW041 23/12 Q1027 NOSIG
12-07-17 METAR LFPG 171330Z 29010KT 260V360 9999 FEW046 23/11 Q1026 NOSIG
12-07-17 METAR LFPG 171400Z 27010KT 250V310 CAVOK 24/11 Q1026 NOSIG
12-07-17 METAR LFPG 171430Z 29011KT CAVOK 24/11 Q1026 NOSIG
12-07-17 METAR LFPG 171500Z 29010KT 250V320 CAVOK 24/11 Q1026 NOSIG
12-07-17 METAR LFPG 171530Z 29011KT 250V320 CAVOK 25/11 Q1026 NOSIG
12-07-17 METAR LFPG 171600Z 29010KT CAVOK 25/10 Q1026 NOSIG
12-07-17 METAR LFPG 171630Z 27008KT 230V320 CAVOK 25/11 Q1025 NOSIG
12-07-17 METAR LFPG 171700Z 27010KT CAVOK 25/10 Q1025 NOSIG
12-07-17 METAR LFPG 171730Z 29008KT CAVOK 25/10 Q1025 NOSIG
12-07-17 METAR LFPG 171800Z 30007KT CAVOK 24/11 Q1025 NOSIG
12-07-17 METAR LFPG 171830Z 31007KT CAVOK 23/12 Q1025 NOSIG
12-07-17 METAR LFPG 171900Z 31007KT CAVOK 22/13 Q1025 NOSIG
12-07-17 METAR LFPG 171930Z 31006KT CAVOK 22/14 Q1025 NOSIG
12-07-17 METAR LFPG 172000Z 33004KT CAVOK 21/14 Q1025 NOSIG
12-07-17 METAR LFPG 172030Z 32004KT CAVOK 21/14 Q1025 NOSIG
12-07-17 METAR LFPG 172100Z 31004KT CAVOK 20/14 Q1025 NOSIG
12-07-17 METAR LFPG 172130Z 31004KT 9999 BKN047 20/15 Q1025 NOSIG
12-07-17 METAR LFPG 172200Z 30003KT 9999 BKN048 20/15 Q1025 NOSIG
12-07-17 METAR LFPG 172230Z 30003KT 9999 BKN048 20/15 Q1025 NOSIG
12-07-17 METAR LFPG 172300Z 30003KT 9999 BKN047 20/15 Q1024 NOSIG
12-07-17 METAR LFPG 172330Z 31002KT 9999 BKN048 20/14 Q1024 NOSIG
12-07-18 METAR LFPG 180000Z 31004KT CAVOK 19/14 Q1024 NOSIG
12-07-18 METAR LFPG 180030Z 29004KT CAVOK 19/14 Q1023 NOSIG
12-07-18 METAR LFPG 180100Z 30004KT CAVOK 18/14 Q1023 NOSIG
12-07-18 METAR LFPG 180130Z 32002KT CAVOK 18/14 Q1023 NOSIG
12-07-18 METAR LFPG 180200Z VRB02KT CAVOK 18/14 Q1022 NOSIG
12-07-18 METAR LFPG 180230Z 18002KT CAVOK 18/14 Q1022 NOSIG
12-07-18 METAR LFPG 180300Z VRB03KT CAVOK 17/14 Q1022 NOSIG
12-07-18 METAR LFPG 180330Z 16004KT 9999 SCT032 BKN049 18/15 Q1021 NOSIG
12-07-18 METAR LFPG 180400Z 17004KT 9999 BKN032 BKN043 18/15 Q1021 NOSIG
12-07-18 METAR LFPG 180430Z 19003KT 9999 BKN043 18/15 Q1021 NOSIG
12-07-18 METAR LFPG 180500Z 19004KT 9999 FEW036 BKN043 18/15 Q1020 NOSIG
12-07-18 METAR LFPG 180530Z 19005KT 9999 FEW036 SCT042 18/15 Q1020 NOSIG
12-07-18 METAR LFPG 180600Z 20006KT 9999 FEW031 SCT038 19/15 Q1020 NOSIG
12-07-18 METAR LFPG 180630Z 23008KT 9999 SCT029 BKN036 20/15 Q1020 NOSIG
12-07-18 METAR LFPG 180700Z 23008KT 9999 SCT021 SCT032 BKN170 19/15 Q1019 NOSIG
12-07-18 METAR LFPG 180730Z 25009KT 9999 SCT018 BKN028 BKN170 20/15 Q1019 NOSIG
12-07-18 METAR LFPG 180800Z 24011KT 9999 BKN021 SCT028 BKN170 21/15 Q1019 NOSIG
12-07-18 METAR LFPG 180830Z 24011KT 9999 BKN022 SCT030 BKN210 21/15 Q1019 NOSIG
12-07-18 METAR LFPG 180900Z 24010KT 9999 SCT024 BKN230 21/14 Q1019 NOSIG
12-07-18 METAR LFPG 180930Z 25011KT 220V280 9999 FEW027 BKN220 22/14 Q1018 NOSIG
12-07-18 METAR LFPG 181000Z 26009KT 220V280 9999 FEW032 BKN220 23/13 Q1018 NOSIG
12-07-18 METAR LFPG 181030Z 23010G25KT 190V290 9999 FEW038 SCT220 23/11 Q1018 NOSIG
12-07-18 METAR LFPG 181100Z 24012KT 200V260 9999 FEW038 SCT170 24/11 Q1017 NOSIG
12-07-18 METAR LFPG 181130Z 23014KT CAVOK 24/08 Q1017 NOSIG
12-07-18 METAR LFPG 181200Z 24016KT CAVOK 25/07 Q1017 NOSIG
12-07-18 METAR LFPG 181230Z 25016KT CAVOK 25/06 Q1016 NOSIG
12-07-18 METAR LFPG 181300Z 24014KT CAVOK 26/05 Q1016 NOSIG
12-07-18 METAR LFPG 181330Z 25015KT CAVOK 26/05 Q1015 NOSIG
12-07-18 METAR LFPG 181400Z 23016KT CAVOK 26/06 Q1015 NOSIG
12-07-18 METAR LFPG 181430Z 27016KT CAVOK 26/06 Q1015 NOSIG
12-07-18 METAR LFPG 181500Z 26014KT 230V290 CAVOK 26/07 Q1015 NOSIG
12-07-18 METAR LFPG 181530Z 25013KT 220V280 CAVOK 25/07 Q1014 NOSIG
12-07-18 METAR LFPG 181600Z 25015KT 210V270 CAVOK 25/08 Q1014 NOSIG
12-07-18 METAR LFPG 181630Z 25012KT 220V280 CAVOK 26/08 Q1014 NOSIG
12-07-18 METAR LFPG 181700Z 27011KT CAVOK 25/08 Q1014 NOSIG
12-07-18 METAR LFPG 181730Z 30012KT CAVOK 24/10 Q1013 NOSIG
12-07-18 METAR LFPG 181800Z 29013KT CAVOK 23/10 Q1014 NOSIG
12-07-18 METAR LFPG 181830Z 29014KT CAVOK 22/11 Q1014 NOSIG
12-07-18 METAR LFPG 181900Z 28009KT CAVOK 22/12 Q1013 NOSIG
12-07-18 METAR LFPG 181930Z 29008KT CAVOK 21/12 Q1013 NOSIG
12-07-18 METAR LFPG 182000Z 28003KT CAVOK 20/12 Q1013 NOSIG
12-07-18 METAR LFPG 182030Z 22006KT 190V270 CAVOK 20/12 Q1013 NOSIG
12-07-18 METAR LFPG 182100Z 21008KT CAVOK 20/12 Q1013 NOSIG
12-07-18 METAR LFPG 182130Z 22007KT CAVOK 21/12 Q1012 NOSIG
12-07-18 METAR LFPG 182200Z 24009KT 9999 FEW047 SCT066 BKN110 21/12 Q1012 NOSIG
12-07-18 METAR LFPG 182230Z 26009KT 9999 SCT041 SCT066 BKN110 21/12 Q1012 NOSIG
12-07-18 METAR LFPG 182300Z 30011KT 9999 BKN038 SCT066 20/13 Q1013 NOSIG
12-07-18 METAR LFPG 182330Z 28009KT 9999 FEW032 BKN037 19/13 Q1013 NOSIG
12-07-19 METAR LFPG 190000Z 29009KT 9999 FEW025 BKN033 19/13 Q1012 NOSIG
12-07-19 METAR LFPG 190030Z 29007KT 9999 SCT025 SCT036 18/13 Q1012 NOSIG
12-07-19 METAR LFPG 190100Z 27011KT 9999 SCT022 BKN056 18/13 Q1012 NOSIG
12-07-19 METAR LFPG 190130Z 28013KT 9999 BKN021 BKN056 18/13 Q1012 NOSIG
12-07-19 METAR LFPG 190200Z 28011KT 9999 FEW023 SCT031 17/13 Q1012 NOSIG
12-07-19 METAR LFPG 190230Z 28012KT 9999 SCT021 BKN031 17/12 Q1012 NOSIG
12-07-19 METAR LFPG 190300Z 27015KT 9999 FEW026 BKN034 17/11 Q1012 NOSIG
12-07-19 METAR LFPG 190330Z 28011KT 9999 SCT024 BKN150 17/11 Q1012 NOSIG
12-07-19 METAR LFPG 190400Z 28013KT 9999 SCT026 BKN170 16/11 Q1012 NOSIG
12-07-19 METAR LFPG 190430Z 29014KT 9999 BKN025 BKN140 16/10 Q1013 NOSIG
12-07-19 METAR LFPG 190500Z 28010KT 9999 SCT024 BKN140 15/10 Q1013 NOSIG
12-07-19 METAR LFPG 190530Z 26010KT 9999 FEW024 BKN130 15/10 Q1013 NOSIG
12-07-19 METAR LFPG 190600Z 26009KT 9999 FEW026 BKN130 BKN200 15/10 Q1013 NOSIG
12-07-19 METAR LFPG 190630Z 26012KT 9999 FEW026 BKN130 BKN200 16/10 Q1013 NOSIG
12-07-19 METAR LFPG 190700Z 25013KT 9999 FEW026 BKN130 BKN190 16/10 Q1014 NOSIG
12-07-19 METAR LFPG 190730Z 26013KT 9999 FEW022 BKN140 BKN190 16/10 Q1014 NOSIG
12-07-19 METAR LFPG 190800Z 26013KT 9999 BKN025 BKN140 BKN190 16/10 Q1014 NOSIG
12-07-19 METAR LFPG 190830Z 25012KT 9999 BKN024 BKN140 BKN190 16/10 Q1014 NOSIG
12-07-19 METAR LFPG 190900Z 25012KT 9999 BKN024 BKN046 16/10 Q1015 NOSIG
12-07-19 METAR LFPG 190930Z 25011KT 210V280 9999 BKN025 BKN042 16/10 Q1015 NOSIG
12-07-19 METAR LFPG 191000Z 26014KT 220V280 9999 BKN025 BKN042 17/10 Q1015 NOSIG
12-07-19 METAR LFPG 191030Z 26015KT 9999 BKN030 BKN058 18/10 Q1015 NOSIG
12-07-19 METAR LFPG 191100Z 24013KT 220V280 9999 BKN030 SCT056 19/10 Q1015 NOSIG
12-07-19 METAR LFPG 191130Z 26014KT 9999 BKN033 BKN056 19/10 Q1015 NOSIG
12-07-19 METAR LFPG 191200Z 24013KT 220V280 9999 SCT036 SCT056 BKN160 20/09 Q1015 NOSIG
12-07-19 METAR LFPG 191230Z 24015KT 9999 SCT038 SCT073 BKN160 20/09 Q1015 NOSIG
12-07-19 METAR LFPG 191300Z 25010KT 210V280 9999 SCT038 BKN073 BKN160 20/09 Q1015
12-07-19 METAR LFPG 191330Z 27011KT 220V290 9999 SCT043 BKN070 BKN160 20/09 Q1015
12-07-19 METAR LFPG 191400Z 25010KT 9999 SCT042 BKN079 BKN160 20/10 Q1015 NOSIG
12-07-19 METAR LFPG 191430Z 26009KT 9999 SCT040 FEW042TCU BKN066 20/09 Q1015 NOSIG
12-07-19 METAR LFPG 191500Z 26011KT 9999 SCT029 FEW042TCU BKN056 20/09 Q1015 NOSIG
12-07-19 METAR LFPG 191530Z 26011KT 230V290 9999 SCT029 FEW042TCU SCT056 BKN086 20/10 Q1015 NOSIG
12-07-19 METAR LFPG 191600Z 27009KT 9999 SCT029 FEW042TCU SCT056 BKN086 20/10 Q1015
12-07-19 METAR LFPG 191630Z 26010KT 9999 SCT039 SCT060 BKN086 20/09 Q1014 NOSIG
12-07-19 METAR LFPG 191700Z 26010KT 9999 SCT039 SCT060 BKN086 21/10 Q1014 NOSIG
12-07-19 METAR LFPG 191730Z 28011KT 250V310 9999 FEW040 SCT053 BKN086 20/10 Q1014
12-07-19 METAR LFPG 191800Z 26011KT 9999 FEW040 SCT053 BKN080 20/10 Q1014 NOSIG
12-07-19 METAR LFPG 191830Z 29007KT 9999 FEW040 SCT080 BKN240 19/10 Q1014 NOSIG
12-07-19 METAR LFPG 191900Z 28008KT 9999 FEW040 BKN240 19/10 Q1015 NOSIG
12-07-19 METAR LFPG 191930Z 27006KT 9999 FEW040 SCT056 BKN200 18/10 Q1015 NOSIG
12-07-19 METAR LFPG 192000Z 27004KT 9999 FEW043 BKN180 18/10 Q1015 NOSIG
12-07-19 METAR LFPG 192030Z 28004KT 9999 SCT041 BKN180 17/10 Q1015 NOSIG
12-07-19 METAR LFPG 192100Z 31003KT CAVOK 17/11 Q1015 NOSIG
12-07-19 METAR LFPG 192200Z 30005KT 9999 BKN040 SCT046 17/11 Q1015 NOSIG
12-07-19 METAR LFPG 192230Z 30004KT 9999 FEW040 SCT080 BKN180 16/11 Q1015 NOSIG
12-07-19 METAR LFPG 192300Z 29004KT 9999 FEW036 SCT080 BKN190 16/11 Q1015 NOSIG
12-07-19 METAR LFPG 192330Z VRB02KT 9999 FEW038 SCT083 BKN190 16/11 Q1015 NOSIG
12-07-20 METAR LFPG 200000Z 33003KT 9999 FEW033 BKN170 15/11 Q1015 NOSIG
12-07-20 METAR LFPG 200030Z 30003KT 9999 BKN033 BKN170 15/11 Q1015 NOSIG
12-07-20 METAR LFPG 200100Z 30004KT 9999 BKN033 BKN170 15/11 Q1015 NOSIG
12-07-20 METAR LFPG 200130Z 29003KT 9999 FEW033 SCT073 BKN160 15/11 Q1015 NOSIG
12-07-20 METAR LFPG 200200Z 29003KT 9999 FEW033 BKN080 BKN210 15/11 Q1015 NOSIG
12-07-20 METAR LFPG 200230Z 29003KT CAVOK 15/11 Q1015 NOSIG
12-07-20 METAR LFPG 200300Z 27004KT CAVOK 15/11 Q1015 NOSIG
12-07-20 METAR LFPG 200330Z 28004KT CAVOK 14/11 Q1015 NOSIG
12-07-20 METAR LFPG 200400Z 34002KT 9999 FEW020 BKN026 BKN073 14/11 Q1015 NOSIG
12-07-20 METAR LFPG 200430Z 30004KT 9999 FEW020 BKN026 BKN073 14/11 Q1015 NOSIG
12-07-20 METAR LFPG 200500Z 27004KT 9999 BKN026 14/11 Q1016 NOSIG
12-07-20 METAR LFPG 200530Z 27003KT 9999 FEW025 BKN032 BKN090 14/11 Q1016 NOSIG
12-07-20 METAR LFPG 200600Z 29004KT 260V320 9999 FEW026 BKN032 BKN090 14/11 Q1016 NOSIG
12-07-20 METAR LFPG 200630Z VRB03KT 9999 FEW015 BKN028 BKN090 15/12 Q1016 NOSIG
12-07-20 METAR LFPG 200700Z 31003KT 280V340 9999 FEW015 BKN028 BKN090 15/11 Q1016
12-07-20 METAR LFPG 200730Z VRB03KT 9999 SCT012 BKN027 BKN090 15/12 Q1016 NOSIG
12-07-20 METAR LFPG 200900Z 27005KT 250V320 9999 BKN019 BKN230 17/11 Q1017 NOSIG
12-07-20 METAR LFPG 200930Z 27005KT 160V330 9999 BKN021 BKN230 17/11 Q1017 NOSIG
12-07-20 METAR LFPG 201000Z 29004KT 200V010 9999 BKN026 SCT033 BKN230 18/11 Q1017
12-07-20 METAR LFPG 201030Z 29004KT 260V330 9999 SCT030 BKN220 18/10 Q1017 NOSIG
12-07-20 METAR LFPG 201100Z 29004KT 250V350 9999 BKN030 BKN230 18/10 Q1017 NOSIG
12-07-20 METAR LFPG 201130Z VRB02KT 9999 BKN032 BKN230 18/10 Q1017 NOSIG
12-07-20 METAR LFPG 201200Z 24005KT 180V320 9999 BKN033 BKN230 19/10 Q1017 NOSIG
12-07-20 METAR LFPG 201230Z 26005KT 200V310 9999 BKN033 BKN230 19/10 Q1016 NOSIG
12-07-20 METAR LFPG 201300Z 23006KT 190V280 9999 BKN033 SCT070 BKN200 19/10 Q1017
12-07-20 METAR LFPG 201330Z 27007KT 240V300 9999 BKN033 BKN046 19/09 Q1017 NOSIG
12-07-20 METAR LFPG 201400Z 31011KT 9999 SCT040 BKN052 BKN070 18/10 Q1017 NOSIG
12-07-20 METAR LFPG 201430Z 30008KT 9999 FEW040 BKN060 BKN080 19/10 Q1017 NOSIG
12-07-20 METAR LFPG 201500Z 30009KT 9999 FEW040 SCT060 BKN080 19/09 Q1017 NOSIG
12-07-20 METAR LFPG 201530Z 31007KT 280V350 9999 FEW040 SCT060 BKN230 19/09 Q1017
12-07-20 METAR LFPG 201600Z 31007KT 9999 FEW040 SCT060 BKN230 19/09 Q1017 NOSIG
12-07-20 METAR LFPG 201630Z 32007KT 250V340 9999 FEW040 SCT060 BKN086 20/09 Q1017
12-07-20 METAR LFPG 201700Z 32009KT 9999 FEW046 SCT060 BKN086 20/09 Q1017 NOSIG
12-07-20 METAR LFPG 201730Z 30010KT 9999 FEW045 SCT056 BKN080 19/08 Q1017 NOSIG
12-07-20 METAR LFPG 201800Z 31010KT 9999 FEW045 SCT056 19/08 Q1018 NOSIG
12-07-20 METAR LFPG 201830Z 32010KT 9999 FEW045 19/08 Q1018 NOSIG
12-07-20 METAR LFPG 201900Z 31009KT 9999 FEW045 18/08 Q1018 NOSIG
12-07-20 METAR LFPG 201930Z 31007KT 9999 FEW045 17/08 Q1018 NOSIG
12-07-20 METAR LFPG 202000Z 31006KT CAVOK 15/08 Q1019 NOSIG
12-07-20 METAR LFPG 202030Z 32006KT CAVOK 15/08 Q1019 NOSIG
12-07-20 METAR LFPG 202100Z 32005KT CAVOK 14/08 Q1019 NOSIG
12-07-20 METAR LFPG 202130Z 31005KT CAVOK 14/08 Q1020 NOSIG
12-07-20 METAR LFPG 202200Z 31004KT CAVOK 14/08 Q1020 NOSIG
12-07-20 METAR LFPG 202230Z 31004KT CAVOK 13/08 Q1020 NOSIG
12-07-20 METAR LFPG 202300Z 33003KT 310V010 CAVOK 13/09 Q1020 NOSIG
12-07-20 METAR LFPG 202330Z 00000KT 9999 FEW038 BKN056 13/09 Q1020 NOSIG
12-07-21 METAR LFPG 210000Z 33002KT 9999 FEW038 BKN056 14/09 Q1020 NOSIG
12-07-21 METAR LFPG 210030Z 32003KT 9999 FEW038 BKN056 13/09 Q1020 NOSIG
12-07-21 METAR LFPG 210100Z 32004KT CAVOK 13/09 Q1020 NOSIG
12-07-21 METAR LFPG 210130Z 30005KT CAVOK 13/09 Q1020 NOSIG
12-07-21 METAR LFPG 210200Z 26004KT CAVOK 13/09 Q1020 NOSIG
12-07-21 METAR LFPG 210230Z 28006KT CAVOK 12/09 Q1020 NOSIG
12-07-21 METAR LFPG 210300Z 29005KT CAVOK 12/09 Q1020 NOSIG
12-07-21 METAR LFPG 210330Z 30004KT CAVOK 11/08 Q1020 NOSIG
12-07-21 METAR LFPG 210400Z 30005KT CAVOK 11/08 Q1021 NOSIG
12-07-21 METAR LFPG 210430Z 29005KT CAVOK 11/09 Q1021 NOSIG
12-07-21 METAR LFPG 210500Z 28003KT CAVOK 11/09 Q1021 NOSIG
12-07-21 METAR LFPG 210530Z 00000KT CAVOK 12/09 Q1021 NOSIG
12-07-21 METAR LFPG 210600Z 28004KT 250V320 CAVOK 12/10 Q1021 NOSIG
12-07-21 METAR LFPG 210630Z 30006KT CAVOK 13/10 Q1021 NOSIG
12-07-21 METAR LFPG 210700Z 29005KT 260V320 9999 FEW008 14/11 Q1022 NOSIG
12-07-21 METAR LFPG 210730Z 27004KT 220V320 9999 FEW011 15/11 Q1022 NOSIG
12-07-21 METAR LFPG 210800Z 27004KT 220V320 9999 FEW011 16/12 Q1022 NOSIG
12-07-21 METAR LFPG 210830Z 30006KT 260V330 9999 FEW016 17/11 Q1022 NOSIG
12-07-21 METAR LFPG 210900Z 34006KT 310V030 9999 FEW016 17/10 Q1022 NOSIG
12-07-21 METAR LFPG 210930Z 34009KT 310V050 9999 FEW019 17/10 Q1022 NOSIG
12-07-21 METAR LFPG 211000Z 35008KT 310V040 9999 SCT022 18/10 Q1022 NOSIG
12-07-21 METAR LFPG 211030Z 03006KT 320V070 9999 SCT028 18/10 Q1023 NOSIG
12-07-21 METAR LFPG 211100Z 33004KT 240V020 9999 SCT031 FEW033TCU 19/10 Q1022 NOSIG
12-07-21 METAR LFPG 211130Z 31006KT 9999 FEW033TCU BKN040 19/09 Q1023 NOSIG
12-07-21 METAR LFPG 211200Z 31006KT 270V340 9999 FEW033TCU SCT040 19/10 Q1023 NOSIG
12-07-21 METAR LFPG 211230Z VRB06KT 9999 FEW033TCU SCT040 20/09 Q1022 NOSIG
12-07-21 METAR LFPG 211300Z 35005KT 250V060 9999 SCT042 SCT093 20/10 Q1022 NOSIG
12-07-21 METAR LFPG 211330Z 01009KT 9999 FEW039TCU BKN066 BKN093 19/09 Q1023 NOSIG
12-07-21 METAR LFPG 211400Z 36008KT 330V030 9999 FEW039TCU SCT066 BKN080 19/10 Q1023 NOSIG
12-07-21 METAR LFPG 211430Z 01004KT 320V110 9999 FEW039TCU SCT066 20/10 Q1023 NOSIG
12-07-21 METAR LFPG 211500Z 36012KT 310V070 9999 SCT042 SCT100 20/09 Q1023 NOSIG
12-07-21 METAR LFPG 211530Z 02008KT 360V110 9999 FEW042 SCT100 19/08 Q1023 NOSIG
12-07-21 METAR LFPG 211600Z 01008KT 330V060 9999 FEW042 SCT100 20/09 Q1023 NOSIG
12-07-21 METAR LFPG 211630Z VRB06KT 9999 FEW045 SCT100 20/07 Q1023 NOSIG
12-07-21 METAR LFPG 211700Z 02008KT 340V070 CAVOK 20/08 Q1024 NOSIG
12-07-21 METAR LFPG 211730Z 01007KT 330V040 CAVOK 19/08 Q1024 NOSIG
12-07-21 METAR LFPG 211800Z 02007KT 360V090 CAVOK 19/07 Q1024 NOSIG
12-07-21 METAR LFPG 211830Z 04005KT CAVOK 18/09 Q1024 NOSIG
12-07-21 METAR LFPG 211900Z 03004KT CAVOK 18/09 Q1024 NOSIG
12-07-21 METAR LFPG 211930Z 02004KT CAVOK 17/09 Q1024 NOSIG
12-07-21 METAR LFPG 212000Z 03005KT 360V080 CAVOK 16/09 Q1025 NOSIG
12-07-21 METAR LFPG 212030Z 04006KT CAVOK 15/09 Q1025 NOSIG
12-07-21 METAR LFPG 212100Z 04006KT CAVOK 15/09 Q1025 NOSIG
12-07-21 METAR LFPG 212130Z 03004KT CAVOK 15/09 Q1026 NOSIG
12-07-21 METAR LFPG 212200Z 03005KT CAVOK 14/09 Q1026 NOSIG
12-07-21 METAR LFPG 212230Z 02005KT CAVOK 14/09 Q1026 NOSIG
12-07-21 METAR LFPG 212300Z 02004KT CAVOK 13/09 Q1026 NOSIG
12-07-21 METAR LFPG 212330Z 01005KT CAVOK 13/09 Q1026 NOSIG
12-07-22 METAR LFPG 220000Z 36005KT CAVOK 13/09 Q1026 NOSIG
12-07-22 METAR LFPG 220030Z 36006KT CAVOK 13/09 Q1026 NOSIG
12-07-22 METAR LFPG 220100Z 01006KT 350V090 CAVOK 13/09 Q1026 NOSIG
12-07-22 METAR LFPG 220130Z 02007KT CAVOK 12/09 Q1026 NOSIG
12-07-22 METAR LFPG 220200Z 01006KT CAVOK 12/09 Q1026 NOSIG
12-07-22 METAR LFPG 220230Z 02005G16KT CAVOK 12/09 Q1026 NOSIG
12-07-22 METAR LFPG 220300Z 01006KT CAVOK 11/09 Q1026 NOSIG
12-07-22 METAR LFPG 220330Z 01006KT CAVOK 11/09 Q1026 NOSIG
12-07-22 METAR LFPG 220400Z 01005KT CAVOK 11/09 Q1026 NOSIG
12-07-22 METAR LFPG 220430Z 36007KT CAVOK 11/09 Q1026 NOSIG
12-07-22 METAR LFPG 220500Z 36005KT CAVOK 11/09 Q1027 NOSIG
12-07-22 METAR LFPG 220530Z 36004KT 350V050 CAVOK 11/09 Q1027 NOSIG
12-07-22 METAR LFPG 220600Z 36005KT 340V120 CAVOK 13/10 Q1027 NOSIG
12-07-22 METAR LFPG 220630Z 03004KT 340V100 CAVOK 14/10 Q1027 NOSIG
12-07-22 METAR LFPG 220700Z 04005KT 360V080 CAVOK 14/10 Q1027 NOSIG
12-07-22 METAR LFPG 220730Z 06005KT CAVOK 16/10 Q1027 NOSIG
12-07-22 METAR LFPG 220800Z 03003KT 320V100 CAVOK 17/10 Q1028 NOSIG
12-07-22 METAR LFPG 220830Z 05007KT 010V080 CAVOK 17/10 Q1028 NOSIG
12-07-22 METAR LFPG 220900Z 06006KT 020V090 9999 FEW033 BKN260 18/10 Q1028 NOSIG
12-07-22 METAR LFPG 220930Z 04005KT 320V080 9999 FEW035 BKN260 19/09 Q1028 NOSIG
12-07-22 METAR LFPG 221000Z 36005KT 300V070 9999 FEW040 BKN260 19/08 Q1028 NOSIG
12-07-22 METAR LFPG 221030Z 36006KT 310V070 9999 FEW040 BKN260 20/08 Q1028 NOSIG
12-07-22 METAR LFPG 221100Z VRB03KT 9999 FEW040 BKN260 21/09 Q1027 NOSIG
12-07-22 METAR LFPG 221130Z VRB04KT 9999 FEW044 BKN260 21/09 Q1027 NOSIG
12-07-22 METAR LFPG 221200Z 08003KT 350V160 9999 FEW046 BKN260 21/08 Q1027 NOSIG
12-07-22 METAR LFPG 221230Z VRB04KT 9999 FEW046 BKN260 21/08 Q1027 NOSIG
12-07-22 METAR LFPG 221300Z 05005KT 360V090 9999 FEW046 BKN260 22/08 Q1027 NOSIG
12-07-22 METAR LFPG 221430Z VRB04KT CAVOK 22/07 Q1027 NOSIG
12-07-22 METAR LFPG 221500Z VRB04KT CAVOK 23/07 Q1026 NOSIG
12-07-22 METAR LFPG 221530Z 01005KT 300V070 CAVOK 23/06 Q1026 NOSIG
12-07-22 METAR LFPG 221600Z 01005KT 320V060 CAVOK 23/07 Q1026 NOSIG
12-07-22 METAR LFPG 221630Z 01005KT 320V090 CAVOK 22/07 Q1026 NOSIG
12-07-22 METAR LFPG 221700Z 02005KT 340V070 CAVOK 22/07 Q1026 NOSIG
12-07-22 METAR LFPG 221730Z 02005KT 340V080 CAVOK 22/07 Q1026 NOSIG
12-07-22 METAR LFPG 221800Z 05006KT 360V080 CAVOK 22/07 Q1026 NOSIG
12-07-22 METAR LFPG 221830Z 05006KT CAVOK 22/07 Q1026 NOSIG
12-07-22 METAR LFPG 221900Z 06007KT CAVOK 21/08 Q1026 NOSIG
12-07-22 METAR LFPG 221930Z 04005KT 020V090 CAVOK 20/08 Q1026 NOSIG
12-07-22 METAR LFPG 222000Z 04006KT 020V100 CAVOK 19/09 Q1026 NOSIG
12-07-22 METAR LFPG 222030Z 04005KT 020V080 CAVOK 19/09 Q1026 NOSIG
12-07-22 METAR LFPG 222100Z 04005KT CAVOK 18/09 Q1026 NOSIG
12-07-22 METAR LFPG 222130Z 04005KT CAVOK 17/09 Q1027 NOSIG
12-07-22 METAR LFPG 222200Z 06006KT CAVOK 18/09 Q1027 NOSIG
12-07-22 METAR LFPG 222230Z 06006KT CAVOK 17/09 Q1027 NOSIG
12-07-22 METAR LFPG 222300Z 07004KT CAVOK 17/09 Q1026 NOSIG
12-07-22 METAR LFPG 222330Z 05004KT CAVOK 16/09 Q1026 NOSIG
12-07-23 METAR LFPG 230000Z 05005KT CAVOK 16/09 Q1026 NOSIG
12-07-23 METAR LFPG 230030Z 08004KT CAVOK 16/09 Q1026 NOSIG
12-07-23 METAR LFPG 230100Z 07004KT CAVOK 16/08 Q1026 NOSIG
12-07-23 METAR LFPG 230130Z 08004KT CAVOK 15/09 Q1026 NOSIG
12-07-23 METAR LFPG 230200Z 07004KT CAVOK 15/09 Q1026 NOSIG
12-07-23 METAR LFPG 230230Z 10005KT CAVOK 16/08 Q1026 NOSIG
12-07-23 METAR LFPG 230300Z 08004KT CAVOK 15/08 Q1026 NOSIG
12-07-23 METAR LFPG 230330Z 09005KT CAVOK 15/08 Q1026 NOSIG
12-07-23 METAR LFPG 230400Z 09005KT CAVOK 15/08 Q1026 NOSIG
12-07-23 METAR LFPG 230430Z 09006KT CAVOK 15/08 Q1026 NOSIG
12-07-23 METAR LFPG 230500Z 07005KT CAVOK 15/08 Q1026 NOSIG
12-07-23 METAR LFPG 230530Z 09005KT CAVOK 16/09 Q1026 NOSIG
12-07-23 METAR LFPG 230600Z 09004KT CAVOK 17/09 Q1026 NOSIG
12-07-23 METAR LFPG 230630Z 08004KT CAVOK 18/09 Q1026 NOSIG
12-07-23 METAR LFPG 230700Z 10007KT CAVOK 19/08 Q1026 NOSIG
12-07-23 METAR LFPG 230730Z 10008KT CAVOK 19/08 Q1026 NOSIG
12-07-23 METAR LFPG 230800Z 11009KT 080V140 CAVOK 20/08 Q1026 NOSIG
12-07-23 METAR LFPG 230830Z 12011KT CAVOK 21/06 Q1025 NOSIG
12-07-23 METAR LFPG 230900Z 10011KT CAVOK 21/07 Q1025 NOSIG
12-07-23 METAR LFPG 231030Z 09008KT 040V130 CAVOK 23/06 Q1025 NOSIG
12-07-23 METAR LFPG 231100Z 09006KT 020V140 CAVOK 23/06 Q1024 NOSIG
12-07-23 METAR LFPG 231130Z 08007KT 030V140 CAVOK 24/06 Q1024 NOSIG
12-07-23 METAR LFPG 231200Z 06008KT 030V100 CAVOK 24/06 Q1024 NOSIG
12-07-23 METAR LFPG 231230Z 05009KT 010V090 CAVOK 25/05 Q1023 NOSIG
12-07-23 METAR LFPG 231300Z 05008KT 020V100 CAVOK 25/06 Q1023 NOSIG
12-07-23 METAR LFPG 231330Z 06006KT 010V110 CAVOK 25/06 Q1023 NOSIG
12-07-23 METAR LFPG 231400Z 05010KT CAVOK 25/06 Q1022 NOSIG
12-07-23 METAR LFPG 231430Z 04008KT 360V070 CAVOK 25/07 Q1022 NOSIG
12-07-23 METAR LFPG 231500Z 06008KT 010V100 CAVOK 26/06 Q1022 NOSIG
12-07-23 METAR LFPG 231530Z 06010KT 030V100 CAVOK 26/06 Q1022 NOSIG
12-07-23 METAR LFPG 231600Z 06010KT CAVOK 26/07 Q1021 NOSIG
12-07-23 METAR LFPG 231630Z 06011KT CAVOK 26/06 Q1021 NOSIG
12-07-23 METAR LFPG 231700Z 05012KT CAVOK 25/06 Q1020 NOSIG
12-07-23 METAR LFPG 231730Z 06011KT CAVOK 25/06 Q1020 NOSIG
12-07-23 METAR LFPG 231800Z 07011KT CAVOK 25/06 Q1020 NOSIG
12-07-23 METAR LFPG 231830Z 06008KT CAVOK 25/06 Q1020 NOSIG
12-07-23 METAR LFPG 231900Z 05006KT CAVOK 23/07 Q1020 NOSIG
12-07-23 METAR LFPG 231930Z 04005KT CAVOK 22/08 Q1020 NOSIG
12-07-23 METAR LFPG 232000Z 04005KT CAVOK 21/09 Q1021 NOSIG
12-07-23 METAR LFPG 232030Z 05005KT CAVOK 20/09 Q1021 NOSIG
12-07-23 METAR LFPG 232100Z 04006KT CAVOK 20/09 Q1021 NOSIG
12-07-23 METAR LFPG 232130Z 05006KT CAVOK 18/09 Q1021 NOSIG
12-07-23 METAR LFPG 232200Z 05006KT CAVOK 19/09 Q1021 NOSIG
12-07-23 METAR LFPG 232230Z 04006KT CAVOK 18/09 Q1020 NOSIG
12-07-23 METAR LFPG 232300Z 04006KT CAVOK 17/09 Q1020 NOSIG
12-07-23 METAR LFPG 232330Z 04006KT CAVOK 17/09 Q1020 NOSIG
12-07-24 METAR LFPG 240000Z 04007KT CAVOK 17/09 Q1020 NOSIG
12-07-24 METAR LFPG 240030Z 03006KT CAVOK 16/09 Q1020 NOSIG
12-07-24 METAR LFPG 240100Z 05007KT CAVOK 16/09 Q1019 NOSIG
12-07-24 METAR LFPG 240130Z 03006KT CAVOK 16/09 Q1019 NOSIG
12-07-24 METAR LFPG 240200Z 02006KT CAVOK 15/09 Q1019 NOSIG
12-07-24 METAR LFPG 240230Z 03006KT CAVOK 15/09 Q1019 NOSIG
12-07-24 METAR LFPG 240300Z 04005KT CAVOK 15/09 Q1019 NOSIG
12-07-24 METAR LFPG 240330Z 05005KT CAVOK 14/09 Q1018 NOSIG
12-07-24 METAR LFPG 240400Z 03007KT 010V080 CAVOK 14/09 Q1018 NOSIG
12-07-24 METAR LFPG 240430Z 01007KT 360V060 CAVOK 14/09 Q1018 NOSIG
12-07-24 METAR LFPG 240500Z 03007KT 010V080 CAVOK 15/09 Q1018 NOSIG
12-07-24 METAR LFPG 240530Z 01006KT 350V070 CAVOK 15/10 Q1018 NOSIG
12-07-24 METAR LFPG 240600Z 03007KT 010V080 CAVOK 16/10 Q1018 NOSIG
12-07-24 METAR LFPG 240630Z 05007KT CAVOK 18/10 Q1018 NOSIG
12-07-24 METAR LFPG 240700Z 05006KT CAVOK 18/10 Q1018 NOSIG
12-07-24 METAR LFPG 240730Z 08005KT 040V110 CAVOK 20/10 Q1018 NOSIG
12-07-24 METAR LFPG 240800Z 08004KT 030V130 CAVOK 21/11 Q1018 NOSIG
12-07-24 METAR LFPG 240830Z VRB02KT CAVOK 22/11 Q1018 NOSIG
12-07-24 METAR LFPG 240900Z VRB03KT CAVOK 23/12 Q1018 NOSIG
12-07-24 METAR LFPG 240930Z 04005KT 360V090 CAVOK 24/11 Q1018 NOSIG
12-07-24 METAR LFPG 241000Z 05006KT 010V110 CAVOK 25/11 Q1017 NOSIG
12-07-24 METAR LFPG 241030Z 06008KT 030V120 CAVOK 25/10 Q1017 NOSIG
12-07-24 METAR LFPG 241100Z 07010KT 040V100 CAVOK 26/10 Q1017 NOSIG
12-07-24 METAR LFPG 241130Z 08008KT 050V130 CAVOK 26/11 Q1017 NOSIG
12-07-24 METAR LFPG 241200Z 08010KT 040V100 CAVOK 27/09 Q1017 NOSIG
12-07-24 METAR LFPG 241230Z 09010KT CAVOK 27/10 Q1016 NOSIG
12-07-24 METAR LFPG 241300Z 12009KT 070V170 CAVOK 27/10 Q1016 NOSIG
12-07-24 METAR LFPG 241330Z 10007KT 020V140 CAVOK 28/10 Q1016 NOSIG
12-07-24 METAR LFPG 241400Z 12006KT 050V180 CAVOK 28/10 Q1016 NOSIG
12-07-24 METAR LFPG 241430Z 07007KT 040V120 CAVOK 28/10 Q1016 NOSIG
12-07-24 METAR LFPG 241500Z 08006KT 030V110 CAVOK 28/10 Q1015 NOSIG
12-07-24 METAR LFPG 241530Z 12005KT 070V180 CAVOK 28/09 Q1015 NOSIG
12-07-24 METAR LFPG 241600Z 06006KT 030V090 CAVOK 28/10 Q1015 NOSIG
12-07-24 METAR LFPG 241630Z 10005KT 040V130 CAVOK 28/10 Q1015 NOSIG
12-07-24 METAR LFPG 241700Z 09006KT 060V140 CAVOK 28/10 Q1015 NOSIG
12-07-24 METAR LFPG 241730Z 06004KT 010V100 CAVOK 28/10 Q1015 NOSIG
12-07-24 METAR LFPG 241800Z 08006KT CAVOK 28/11 Q1015 NOSIG
12-07-24 METAR LFPG 241830Z 06005KT CAVOK 28/10 Q1015 NOSIG
12-07-24 METAR LFPG 241900Z 06004KT CAVOK 27/10 Q1015 NOSIG
12-07-24 METAR LFPG 241930Z 06004KT CAVOK 27/11 Q1015 NOSIG
12-07-24 METAR LFPG 242000Z 04004KT CAVOK 25/12 Q1015 NOSIG
12-07-24 METAR LFPG 242030Z 05006KT CAVOK 23/13 Q1015 NOSIG
12-07-24 METAR LFPG 242100Z 01005KT CAVOK 23/13 Q1015 NOSIG
12-07-24 METAR LFPG 242130Z 03004KT CAVOK 22/13 Q1015 NOSIG
12-07-24 METAR LFPG 242200Z 04006KT CAVOK 22/13 Q1015 NOSIG
12-07-24 METAR LFPG 242230Z 04006KT CAVOK 21/13 Q1015 NOSIG
12-07-24 METAR LFPG 242300Z 04007KT 020V090 CAVOK 22/13 Q1015 NOSIG
12-07-24 METAR LFPG 242330Z 09005KT CAVOK 21/12 Q1015 NOSIG
12-07-25 METAR LFPG 250000Z 07003KT CAVOK 21/12 Q1015 NOSIG
12-07-25 METAR LFPG 250030Z 03004KT CAVOK 20/12 Q1015 NOSIG
12-07-25 METAR LFPG 250100Z 03003KT CAVOK 19/12 Q1015 NOSIG
12-07-25 METAR LFPG 250130Z 04002KT CAVOK 19/13 Q1015 NOSIG
12-07-25 METAR LFPG 250200Z VRB02KT CAVOK 19/12 Q1015 NOSIG
12-07-25 METAR LFPG 250230Z 01005KT 350V060 CAVOK 19/13 Q1015 NOSIG
12-07-25 METAR LFPG 250300Z 02004KT CAVOK 18/13 Q1015 NOSIG
12-07-25 METAR LFPG 250330Z 01004KT CAVOK 18/13 Q1015 NOSIG
12-07-25 METAR LFPG 250400Z 36004KT CAVOK 18/13 Q1015 NOSIG
12-07-25 METAR LFPG 250430Z 01005KT 310V050 CAVOK 17/13 Q1015 NOSIG
12-07-25 METAR LFPG 250500Z 02005KT CAVOK 17/13 Q1015 NOSIG
12-07-25 METAR LFPG 250530Z VRB04KT CAVOK 18/13 Q1015 NOSIG
12-07-25 METAR LFPG 250600Z 01004KT 350V050 CAVOK 19/14 Q1016 NOSIG
12-07-25 METAR LFPG 250630Z 02005KT 350V080 CAVOK 20/14 Q1016 NOSIG
12-07-25 METAR LFPG 250700Z 02003KT 330V070 CAVOK 21/15 Q1016 NOSIG
12-07-25 METAR LFPG 250730Z 02003KT 340V070 CAVOK 23/15 Q1016 NOSIG
12-07-25 METAR LFPG 250800Z 02003KT 340V060 CAVOK 24/15 Q1016 NOSIG
12-07-25 METAR LFPG 250830Z 01006KT 310V080 CAVOK 25/15 Q1016 NOSIG
12-07-25 METAR LFPG 250900Z 05004KT 350V090 CAVOK 26/13 Q1016 NOSIG
12-07-25 METAR LFPG 250930Z 05005KT 020V090 CAVOK 27/13 Q1016 NOSIG
12-07-25 METAR LFPG 251000Z 07004KT 020V120 CAVOK 27/13 Q1016 NOSIG
12-07-25 METAR LFPG 251030Z 04006KT 350V080 CAVOK 27/12 Q1016 NOSIG
12-07-25 METAR LFPG 251100Z 36004KT 310V080 CAVOK 28/12 Q1016 NOSIG
12-07-25 METAR LFPG 251130Z VRB05KT CAVOK 28/11 Q1016 NOSIG
12-07-25 METAR LFPG 251200Z VRB03KT CAVOK 29/12 Q1016 NOSIG
12-07-25 METAR LFPG 251230Z VRB04KT CAVOK 29/11 Q1016 NOSIG
12-07-25 METAR LFPG 251300Z VRB03KT CAVOK 29/11 Q1016 NOSIG
12-07-25 METAR LFPG 251330Z 10004KT 020V180 CAVOK 30/12 Q1015 NOSIG
12-07-25 METAR LFPG 251400Z 36005KT 320V040 CAVOK 30/11 Q1015 NOSIG
12-07-25 METAR LFPG 251430Z VRB06KT CAVOK 30/11 Q1015 NOSIG
12-07-25 METAR LFPG 251500Z 34004KT 270V060 CAVOK 30/11 Q1015 NOSIG
12-07-25 METAR LFPG 251530Z 34008KT 250V040 CAVOK 30/11 Q1015 NOSIG
12-07-25 METAR LFPG 251600Z 02006KT 300V100 CAVOK 30/11 Q1015 NOSIG
12-07-25 METAR LFPG 251630Z VRB06KT CAVOK 30/11 Q1015 NOSIG
12-07-25 METAR LFPG 251700Z 01007KT 360V110 CAVOK 30/11 Q1015 NOSIG
12-07-25 METAR LFPG 251730Z 02006KT 350V100 CAVOK 29/11 Q1015 NOSIG
12-07-25 METAR LFPG 251800Z 02006KT CAVOK 29/11 Q1015 NOSIG
12-07-25 METAR LFPG 251830Z 03005KT CAVOK 28/12 Q1015 NOSIG
12-07-25 METAR LFPG 251900Z 04007KT CAVOK 27/11 Q1016 NOSIG
12-07-25 METAR LFPG 251930Z 04006KT 020V090 CAVOK 26/11 Q1016 NOSIG
12-07-25 METAR LFPG 252000Z 04006KT CAVOK 24/12 Q1016 NOSIG
12-07-25 METAR LFPG 252030Z 05007KT CAVOK 23/12 Q1016 NOSIG
12-07-25 METAR LFPG 252100Z 04007KT CAVOK 23/11 Q1016 NOSIG
12-07-25 METAR LFPG 252130Z 05007KT CAVOK 22/11 Q1016 NOSIG
12-07-25 METAR LFPG 252200Z 04008KT CAVOK 22/11 Q1017 NOSIG
12-07-25 METAR LFPG 252230Z 04008KT 020V090 CAVOK 21/12 Q1017 NOSIG
12-07-25 METAR LFPG 252300Z 03009KT 360V090 CAVOK 20/12 Q1017 NOSIG
12-07-25 METAR LFPG 252330Z 03008KT CAVOK 20/12 Q1017 NOSIG
12-07-26 METAR LFPG 260000Z 03008KT 010V090 CAVOK 19/12 Q1017 NOSIG
12-07-26 METAR LFPG 260030Z 03006KT CAVOK 18/12 Q1017 NOSIG
12-07-26 METAR LFPG 260100Z 03005KT CAVOK 19/12 Q1017 NOSIG
12-07-26 METAR LFPG 260130Z 03004KT 010V070 CAVOK 19/12 Q1017 NOSIG
12-07-26 METAR LFPG 260200Z 02003KT 360V090 CAVOK 18/12 Q1017 NOSIG
12-07-26 METAR LFPG 260230Z 01005KT CAVOK 18/12 Q1017 NOSIG
12-07-26 METAR LFPG 260300Z 02005KT 010V070 CAVOK 18/12 Q1016 NOSIG
12-07-26 METAR LFPG 260330Z 02005KT CAVOK 18/12 Q1016 NOSIG
12-07-26 METAR LFPG 260400Z 02007KT CAVOK 17/12 Q1016 NOSIG
12-07-26 METAR LFPG 260430Z 01006KT CAVOK 17/12 Q1017 NOSIG
12-07-26 METAR LFPG 260500Z 01006KT CAVOK 17/12 Q1017 NOSIG
12-07-26 METAR LFPG 260530Z 01006KT CAVOK 17/12 Q1017 NOSIG
12-07-26 METAR LFPG 260600Z VRB05KT CAVOK 18/13 Q1017 NOSIG
12-07-26 METAR LFPG 260630Z 01003KT 300V060 CAVOK 20/14 Q1017 NOSIG
12-07-26 METAR LFPG 260700Z 01004KT 320V050 CAVOK 21/14 Q1017 NOSIG
12-07-26 METAR LFPG 260730Z 05004KT 010V090 CAVOK 22/14 Q1017 NOSIG
12-07-26 METAR LFPG 260800Z 06004KT 010V090 CAVOK 23/15 Q1017 NOSIG
12-07-26 METAR LFPG 260830Z 06005KT 030V090 CAVOK 24/15 Q1017 NOSIG
12-07-26 METAR LFPG 260900Z 06007KT CAVOK 25/15 Q1017 NOSIG
12-07-26 METAR LFPG 260930Z 06007KT CAVOK 27/14 Q1017 NOSIG
12-07-26 METAR LFPG 261000Z 06007KT 010V090 CAVOK 28/13 Q1017 NOSIG
12-07-26 METAR LFPG 261030Z 05008KT 010V090 CAVOK 28/11 Q1017 NOSIG
12-07-26 METAR LFPG 261100Z 07007KT 360V110 CAVOK 29/10 Q1017 NOSIG
12-07-26 METAR LFPG 261130Z 05007KT 350V090 CAVOK 29/10 Q1017 NOSIG
12-07-26 METAR LFPG 261200Z 04006KT 330V110 CAVOK 29/10 Q1017 NOSIG
12-07-26 METAR LFPG 261230Z 04003KT 330V070 CAVOK 30/10 Q1016 NOSIG
12-07-26 METAR LFPG 261300Z 01006KT 330V060 CAVOK 30/10 Q1016 NOSIG
12-07-26 METAR LFPG 261330Z 06006KT 010V130 CAVOK 30/10 Q1016 NOSIG
12-07-26 METAR LFPG 261400Z 05005KT 360V120 CAVOK 31/11 Q1016 NOSIG
12-07-26 METAR LFPG 261430Z 05004KT 330V100 CAVOK 31/09 Q1016 NOSIG
12-07-26 METAR LFPG 261500Z 06005KT 010V110 CAVOK 31/10 Q1015 NOSIG
12-07-26 METAR LFPG 261530Z 05008KT 010V080 CAVOK 30/10 Q1015 NOSIG
12-07-26 METAR LFPG 261600Z 04004KT 010V090 CAVOK 30/10 Q1015 NOSIG
12-07-26 METAR LFPG 261630Z 03005KT 360V070 CAVOK 30/10 Q1015 NOSIG
12-07-26 METAR LFPG 261700Z 03006KT CAVOK 30/12 Q1015 NOSIG
12-07-26 METAR LFPG 261730Z 04008KT 010V070 CAVOK 30/12 Q1015 NOSIG
12-07-26 METAR LFPG 261800Z 04007KT CAVOK 29/12 Q1015 NOSIG
12-07-26 METAR LFPG 261830Z 04007KT CAVOK 28/12 Q1014 NOSIG
12-07-26 METAR LFPG 261900Z 05007KT CAVOK 27/13 Q1014 NOSIG
12-07-26 METAR LFPG 261930Z 03008KT CAVOK 26/12 Q1014 NOSIG
12-07-26 METAR LFPG 262000Z 05008KT 020V090 CAVOK 25/12 Q1014 NOSIG
12-07-26 METAR LFPG 262030Z 05008KT CAVOK 24/12 Q1014 NOSIG
12-07-26 METAR LFPG 262100Z 05007KT CAVOK 23/12 Q1014 NOSIG
12-07-26 METAR LFPG 262130Z 07005KT CAVOK 24/12 Q1014 NOSIG
12-07-26 METAR LFPG 262200Z 05008KT CAVOK 23/12 Q1014 NOSIG
12-07-26 METAR LFPG 262230Z 05007KT CAVOK 23/11 Q1014 NOSIG
12-07-26 METAR LFPG 262300Z 06005KT CAVOK 23/12 Q1014 NOSIG
12-07-26 METAR LFPG 262330Z 06006KT CAVOK 24/13 Q1014 NOSIG
12-07-27 METAR LFPG 270000Z 06006KT CAVOK 23/13 Q1014 NOSIG
12-07-27 METAR LFPG 270030Z 07007KT CAVOK 23/14 Q1014 NOSIG
12-07-27 METAR LFPG 270100Z 02003KT 360V100 CAVOK 23/15 Q1014 NOSIG
12-07-27 METAR LFPG 270130Z 04005KT 010V070 CAVOK 22/14 Q1013 NOSIG
12-07-27 METAR LFPG 270200Z 07006KT CAVOK 21/15 Q1013 NOSIG
12-07-27 METAR LFPG 270230Z 07007KT CAVOK 22/15 Q1013 NOSIG
12-07-27 METAR LFPG 270300Z 08007KT CAVOK 22/15 Q1013 NOSIG
12-07-27 METAR LFPG 270330Z 10007KT CAVOK 22/14 Q1012 NOSIG
12-07-27 METAR LFPG 270400Z 09008KT CAVOK 22/14 Q1012 NOSIG
12-07-27 METAR LFPG 270430Z 10007KT CAVOK 23/13 Q1012 NOSIG
12-07-27 METAR LFPG 270500Z 08005KT CAVOK 23/13 Q1012 NOSIG
12-07-27 METAR LFPG 270530Z 16005KT 110V190 CAVOK 22/14 Q1012 NOSIG
12-07-27 METAR LFPG 270600Z VRB02KT 9999 FEW080TCU SCT190 BKN240 22/14 Q1012 NOSIG
12-07-27 METAR LFPG 270630Z 04003KT 010V080 CAVOK 23/15 Q1011 NOSIG
12-07-27 METAR LFPG 270700Z VRB02KT CAVOK 24/15 Q1012 NOSIG
12-07-27 METAR LFPG 270730Z 17004KT 120V200 CAVOK 24/14 Q1012 NOSIG
12-07-27 METAR LFPG 270800Z 19004KT 140V230 CAVOK 24/15 Q1012 NOSIG
12-07-27 METAR LFPG 270830Z 00000KT CAVOK 25/15 Q1011 NOSIG
12-07-27 METAR LFPG 270900Z VRB03KT CAVOK 26/15 Q1011 NOSIG
12-07-27 METAR LFPG 270930Z 10004KT 010V150 CAVOK 28/15 Q1011 NOSIG
12-07-27 METAR LFPG 271000Z 02006KT 330V070 CAVOK 28/15 Q1010 NOSIG
12-07-27 METAR LFPG 271030Z 05006KT 010V090 CAVOK 29/16 Q1011 NOSIG
12-07-27 METAR LFPG 271100Z 06004KT 340V120 CAVOK 29/15 Q1011 NOSIG
12-07-27 METAR LFPG 271130Z 06004KT 340V090 CAVOK 29/15 Q1010 NOSIG
12-07-27 METAR LFPG 271200Z VRB01KT 9999 FEW031 SCT100 BKN130 29/15 Q1010 NOSIG
12-07-27 METAR LFPG 271230Z 28005KT CAVOK 29/15 Q1011 NOSIG
12-07-27 METAR LFPG 271300Z 27012KT 9999 FEW045 BKN052 BKN100 28/17 Q1011 NOSIG
12-07-27 METAR LFPG 271330Z 28010KT 9999 -RA FEW033 FEW043CB BKN050 BKN080 24/17 Q1011 NOSIG
12-07-27 METAR LFPG 271400Z 28009KT 250V310 7000 -SHRA FEW031 FEW043TCU BKN050 BKN086 23/18 Q1011 NOSIG
12-07-27 METAR LFPG 271430Z VRB02KT 9999 -RA FEW028 BKN053 BKN110 23/19 Q1011 NOSIG
12-07-27 METAR LFPG 271500Z 19004KT 160V260 9999 -RA FEW040 SCT073 BKN110 23/18 Q1010 NOSIG
12-07-27 METAR LFPG 271530Z VRB03KT CAVOK 24/19 Q1010 NOSIG
12-07-27 METAR LFPG 271600Z VRB02KT 9999 FEW046 BKN093 BKN150 24/19 Q1009 NOSIG
12-07-27 METAR LFPG 271630Z 31007KT CAVOK 23/19 Q1010 NOSIG
12-07-27 METAR LFPG 271700Z 33004KT 310V030 9999 -SHRA FEW046TCU SCT066 OVC120 23/19
12-07-27 METAR LFPG 271830Z 26004KT 9999 VCSH SCT032TCU BKN076 BKN130 23/19 Q1010
12-07-27 METAR LFPG 271900Z 24005KT 190V290 9999 VCSH FEW032 BKN130 23/18 Q1010
12-07-27 METAR LFPG 271930Z 21004KT 180V240 9999 VCSH NSC 23/18 Q1009 NOSIG
12-07-27 METAR LFPG 272000Z 26002KT CAVOK 22/18 Q1009 NOSIG
12-07-27 METAR LFPG 272030Z 23005KT 210V280 CAVOK 22/18 Q1009 NOSIG
12-07-27 METAR LFPG 272100Z 22006KT 180V330 9999 FEW050CB BKN091 22/19 Q1010 NOSIG
12-07-27 METAR LFPG 272130Z 20006KT 9999 FEW022 SCT038 BKN080 22/17 Q1010 TEMPO 4000 -SHRA SCT030TCU
12-07-27 METAR LFPG 272200Z 20007KT 9999 BKN018 22/18 Q1009 TEMPO 4000 -SHRA
12-07-27 METAR LFPG 272230Z 21009KT 9999 BKN015 BKN050 22/18 Q1009 TEMPO 3000 -TSRA SCT015CB
12-07-27 METAR LFPG 272300Z 23008KT 9999 VCTS FEW011CB BKN016 22/18 Q1009 TEMPO VRB15G25KT 2000 -TSRA SCT008CB
12-07-27 METAR LFPG 272330Z 27012KT 9999 -TSRA FEW011CB SCT016 BKN070 21/17 Q1009 TEMPO VRB15G25KT 2000 -TSRA SCT008CB
12-07-28 METAR LFPG 280000Z 30008KT 6000 -TSRA FEW006CB SCT010 BKN066 19/17 Q1009 NOSIG
12-07-28 METAR LFPG 280030Z 29004KT 4000 TSRA FEW008CB SCT013 BKN066 19/18 Q1009
12-07-28 METAR LFPG 280100Z 23005KT 4000 RA BKN006 FEW006CB BKN015 19/18 Q1009 RETS
12-07-28 METAR LFPG 280130Z 23006KT 4000 RA SCT005 FEW006CB BKN020 BKN110 19/18 Q1009 RETS NOSIG
12-07-28 METAR LFPG 280200Z 24004KT 4000 -RA FEW005 FEW006CB BKN040 BKN100 19/18
12-07-28 METAR LFPG 280230Z 23005KT 6000 -RA BKN005 BKN040 BKN100 19/18 Q1009 NOSIG
12-07-28 METAR LFPG 280300Z 28004KT 240V310 6000 SCT005 BKN110 19/18 Q1008 NOSIG
12-07-28 METAR LFPG 280330Z 27004KT 8000 SCT006 BKN110 18/17 Q1008 NOSIG
12-07-28 METAR LFPG 280400Z 22006KT 8000 BKN006 18/17 Q1009 NOSIG
12-07-28 METAR LFPG 280430Z 23007KT 5000 BR SCT004 BKN006 19/18 Q1009 BECMG 4000 BR BKN004
12-07-28 METAR LFPG 280500Z 26006KT 4000 BR BKN005 19/18 Q1009 BECMG 4000 BR BKN004
12-07-28 METAR LFPG 280530Z 28006KT 4500 BR BKN007 SCT021 19/18 Q1009 BECMG BKN012
12-07-28 METAR LFPG 280600Z 28006KT 4500 BR SCT007 SCT023 BKN085 19/17 Q1009 BECMG BKN012
12-07-28 METAR LFPG 280630Z 28003KT 240V310 4500 BR SCT006 SCT023 BKN085 19/17 Q1010 BECMG BKN012
12-07-28 METAR LFPG 280700Z 24005KT 220V280 4500 BR SCT006 BKN008 19/17 Q1010 BECMG
12-07-28 METAR LFPG 280730Z 24007KT 190V270 4000 BR BKN009 SCT052 19/17 Q1010 BECMG
12-07-28 METAR LFPG 280800Z 23007KT 3000 BR SCT009 BKN010 19/17 Q1010 BECMG BKN012
12-07-28 METAR LFPG 280830Z 25009KT 3000 BR SCT009 BKN011 19/17 Q1010 BECMG 5000
12-07-28 METAR LFPG 280900Z 25006KT 220V280 4000 BR BKN011 SCT053 20/17 Q1010 BECMG 5000
12-07-28 METAR LFPG 280930Z 26008KT 210V290 7000 BKN011 SCT053 21/17 Q1010 NOSIG
12-07-28 METAR LFPG 281000Z 26008KT 230V290 8000 SCT014 SCT023 22/17 Q1010 NOSIG
12-07-28 METAR LFPG 281030Z 27008KT 220V300 9999 BKN015 22/16 Q1010 NOSIG
12-07-28 METAR LFPG 281100Z 25009KT 210V280 9999 BKN017 SCT049 22/16 Q1011 NOSIG
12-07-28 METAR LFPG 281130Z 27008KT 230V300 9999 SCT017 BKN050 22/15 Q1011 NOSIG
12-07-28 METAR LFPG 281200Z 25012KT 220V280 9999 FEW022 BKN037 22/15 Q1011 NOSIG
12-07-28 METAR LFPG 281230Z 25009KT 210V310 9999 FEW025 BKN037 23/15 Q1011 NOSIG
12-07-28 METAR LFPG 281300Z 28010KT 240V300 9999 FEW030 SCT037 23/14 Q1010 NOSIG
12-07-28 METAR LFPG 281330Z 25010KT 220V280 9999 FEW033 SCT037 23/13 Q1011 NOSIG
12-07-28 METAR LFPG 281400Z 25010KT 230V290 9999 SCT036 SCT230 23/13 Q1010 NOSIG
12-07-28 METAR LFPG 281430Z 26010KT 9999 SCT043 SCT053 23/12 Q1010 NOSIG
12-07-28 METAR LFPG 281500Z 27008KT 230V300 9999 BKN043 SCT053 23/12 Q1010 NOSIG
12-07-28 METAR LFPG 281530Z 30010KT 9999 BKN044 SCT053 23/12 Q1010 NOSIG
12-07-28 METAR LFPG 281600Z 29010KT 250V320 9999 BKN045 SCT066 23/13 Q1010 NOSIG
12-07-28 METAR LFPG 281630Z 31010KT 280V340 9999 SCT046 SCT066 23/12 Q1010 NOSIG
12-07-28 METAR LFPG 281700Z 31013KT 9999 SCT048 SCT066 22/11 Q1010 NOSIG
12-07-28 METAR LFPG 281730Z 31011KT 9999 FEW048 SCT073 22/11 Q1010 NOSIG
12-07-28 METAR LFPG 281800Z 31011KT 9999 SCT048 SCT260 21/11 Q1011 NOSIG
12-07-28 METAR LFPG 281830Z 31010KT 9999 FEW048 SCT073 20/10 Q1011 NOSIG
12-07-28 METAR LFPG 281900Z 32009KT 9999 FEW048 SCT060 20/10 Q1011 NOSIG
12-07-28 METAR LFPG 281930Z 30010KT 9999 FEW048 BKN060 19/09 Q1011 NOSIG
12-07-28 METAR LFPG 282000Z 30008KT CAVOK 19/09 Q1012 NOSIG
12-07-28 METAR LFPG 282030Z 31008KT CAVOK 18/09 Q1012 NOSIG
12-07-28 METAR LFPG 282200Z 32005KT CAVOK 16/08 Q1013 NOSIG
12-07-28 METAR LFPG 282230Z 33004KT CAVOK 16/08 Q1013 NOSIG
12-07-28 METAR LFPG 282300Z 32004KT CAVOK 15/08 Q1013 NOSIG
12-07-28 METAR LFPG 282330Z NIL
12-07-29 METAR LFPG 290000Z 29005KT CAVOK 15/08 Q1013 NOSIG
12-07-29 METAR LFPG 290030Z 29004KT 9999 SCT038 SCT240 14/09 Q1014 NOSIG
12-07-29 METAR LFPG 290100Z 29002KT 9999 FEW038 SCT250 14/09 Q1014 NOSIG
12-07-29 METAR LFPG 290130Z 27003KT CAVOK 13/08 Q1014 NOSIG
12-07-29 METAR LFPG 290200Z 26005KT 9999 FEW027 13/08 Q1014 NOSIG
12-07-29 METAR LFPG 290230Z 24007KT 9999 FEW026 13/09 Q1014 NOSIG
12-07-29 METAR LFPG 290300Z 25007KT 9999 FEW026 13/09 Q1014 NOSIG
12-07-29 METAR LFPG 290330Z 25006KT 9999 FEW026 13/09 Q1014 NOSIG
12-07-29 METAR LFPG 290400Z 25007KT 9999 FEW026 12/09 Q1015 NOSIG
12-07-29 METAR LFPG 290430Z 25005KT 9999 FEW026 12/09 Q1015 NOSIG
12-07-29 METAR LFPG 290500Z 24006KT CAVOK 12/09 Q1015 NOSIG
12-07-29 METAR LFPG 290530Z 25005KT CAVOK 12/09 Q1015 NOSIG
12-07-29 METAR LFPG 290600Z 26008KT 9999 FEW013 13/09 Q1015 NOSIG
12-07-29 METAR LFPG 290630Z 26009KT 9999 FEW016 14/09 Q1015 NOSIG
12-07-29 METAR LFPG 290700Z 26008KT 220V280 9999 FEW018 14/09 Q1015 NOSIG
12-07-29 METAR LFPG 290730Z 26008KT 9999 FEW020 15/08 Q1016 NOSIG
12-07-29 METAR LFPG 290800Z 26006KT 220V310 9999 FEW021 16/09 Q1016 NOSIG
12-07-29 METAR LFPG 290830Z 27010KT 9999 FEW028 16/08 Q1016 NOSIG
12-07-29 METAR LFPG 290900Z 27008KT 250V310 9999 SCT033 SCT240 17/07 Q1016 NOSIG
12-07-29 METAR LFPG 290930Z 26009KT 220V300 9999 SCT038 17/07 Q1016 NOSIG
12-07-29 METAR LFPG 291000Z 24009KT 210V280 9999 SCT041 18/06 Q1016 NOSIG
12-07-29 METAR LFPG 291030Z 26010KT 210V290 9999 SCT046 SCT250 18/06 Q1016 NOSIG
12-07-29 METAR LFPG 291100Z 23010KT 200V270 CAVOK 20/06 Q1016 NOSIG
12-07-29 METAR LFPG 291130Z 22011KT 180V270 CAVOK 19/06 Q1016 NOSIG
12-07-29 METAR LFPG 291200Z 24011KT CAVOK 20/07 Q1016 NOSIG
12-07-29 METAR LFPG 291230Z 23012KT 200V260 CAVOK 19/06 Q1016 NOSIG
12-07-29 METAR LFPG 291300Z 23012KT CAVOK 19/07 Q1016 NOSIG
12-07-29 METAR LFPG 291330Z 23015KT 9999 VCSH FEW040TCU SCT053 BKN066 19/08 Q1016 NOSIG
12-07-29 METAR LFPG 291400Z 24014KT 210V270 9999 FEW040TCU SCT049 BKN056 21/08 Q1016 TEMPO 4000 SHRA BKN030TCU
12-07-29 METAR LFPG 291430Z 23013G24KT 200V310 9999 SCT049 20/07 Q1015 TEMPO 4000 SHRA BKN030TCU
12-07-29 METAR LFPG 291500Z 22013KT 190V260 CAVOK 21/07 Q1015 TEMPO 4000 SHRA
12-07-29 METAR LFPG 291530Z 23013KT CAVOK 21/06 Q1015 TEMPO 4000 SHRA BKN030TCU
12-07-29 METAR LFPG 291600Z 24012KT 210V270 CAVOK 21/07 Q1015 TEMPO 4000 SHRA
12-07-29 METAR LFPG 291630Z 23016KT 9999 -RA NSC 20/07 Q1015 TEMPO 4000 SHRA
12-07-29 METAR LFPG 291700Z 27016G27KT 240V300 9999 -RA SCT049 BKN066 17/11 Q1016
12-07-29 METAR LFPG 291730Z 27007KT 9999 -RA NSC 15/12 Q1016 NOSIG
12-07-29 METAR LFPG 291800Z 28007KT 9999 -RA FEW030 BKN060 15/12 Q1016 NOSIG
12-07-29 METAR LFPG 291830Z 26005KT 9999 -RA FEW030 BKN073 15/12 Q1016 NOSIG
12-07-29 METAR LFPG 291900Z 26002KT 9999 -RA FEW030 BKN066 15/13 Q1016 NOSIG
12-07-29 METAR LFPG 292030Z 30009KT 170V330 2000 +RA FEW008 SCT013 BKN027 15/13 Q1016 NOSIG
12-07-29 METAR LFPG 292100Z 26004KT 220V300 9999 -RA FEW013 BKN046 15/13 Q1016
12-07-29 METAR LFPG 292130Z 25007KT 9999 SCT010 BKN050 14/13 Q1017 RERA NOSIG
12-07-29 METAR LFPG 292200Z 25006KT 9999 FEW008 14/13 Q1017 NOSIG
12-07-29 METAR LFPG 292230Z 24006KT 9999 FEW005 14/12 Q1017 NOSIG
12-07-29 METAR LFPG 292300Z 25006KT 9999 FEW004 13/12 Q1017 NOSIG
12-07-29 METAR LFPG 292330Z 25004KT 9999 FEW004 13/12 Q1017 NOSIG
12-07-30 METAR LFPG 300000Z 24006KT 9999 FEW004 SCT260 13/12 Q1017 NOSIG
12-07-30 METAR LFPG 300030Z 23006KT 9999 FEW004 SCT260 13/12 Q1018 NOSIG
12-07-30 METAR LFPG 300100Z 23005KT 190V280 9999 SCT031 SCT260 13/11 Q1017 NOSIG
12-07-30 METAR LFPG 300130Z 23006KT 9999 FEW031 SCT260 12/11 Q1017 NOSIG
12-07-30 METAR LFPG 300200Z 23006KT 9999 FEW031 12/11 Q1018 NOSIG
12-07-30 METAR LFPG 300230Z 25006KT 9999 FEW033 12/11 Q1017 NOSIG
12-07-30 METAR LFPG 300300Z 25005KT 9999 FEW043 12/10 Q1018 NOSIG
12-07-30 METAR LFPG 300330Z 23006KT CAVOK 12/10 Q1018 NOSIG
12-07-30 METAR LFPG 300400Z 23007KT 200V260 CAVOK 11/10 Q1018 NOSIG
12-07-30 METAR LFPG 300430Z 22006KT 190V250 CAVOK 11/10 Q1018 NOSIG
12-07-30 METAR LFPG 300500Z 22006KT CAVOK 12/10 Q1018 NOSIG
12-07-30 METAR LFPG 300530Z 22006KT CAVOK 12/11 Q1018 NOSIG
12-07-30 METAR LFPG 300600Z 22006KT CAVOK 12/11 Q1018 NOSIG
12-07-30 METAR LFPG 300630Z 22006KT CAVOK 13/11 Q1019 NOSIG
12-07-30 METAR LFPG 300700Z 22005KT 9999 FEW010 BKN170 14/11 Q1019 NOSIG
12-07-30 METAR LFPG 300730Z 24004KT 210V270 9999 FEW010 BKN160 14/11 Q1019 NOSIG
12-07-30 METAR LFPG 300800Z 24005KT 9999 FEW010 SCT170 14/11 Q1019 NOSIG
12-07-30 METAR LFPG 300830Z 24006KT 9999 FEW013 SCT051 15/10 Q1019 NOSIG
12-07-30 METAR LFPG 300900Z 22008KT 190V260 9999 SCT018 SCT046 15/10 Q1019 NOSIG
12-07-30 METAR LFPG 300930Z 22007KT 180V280 9999 SCT023 SCT050 16/09 Q1019 NOSIG
12-07-30 METAR LFPG 301000Z 24008KT 190V270 9999 SCT023 SCT050 17/09 Q1019 NOSIG
12-07-30 METAR LFPG 301030Z 23009G19KT 190V340 9999 BKN032 SCT048 17/08 Q1019 NOSIG
12-07-30 METAR LFPG 301100Z 23009KT 210V270 9999 SCT032 SCT045 17/08 Q1019 NOSIG
12-07-30 METAR LFPG 301130Z 22009KT 9999 SCT032 SCT045 18/08 Q1019 NOSIG
12-07-30 METAR LFPG 301200Z 22008KT 190V320 9999 SCT032 SCT045 BKN170 18/08 Q1019 NOSIG
12-07-30 METAR LFPG 301230Z 21010KT 180V250 9999 SCT032 SCT150 19/09 Q1019 NOSIG
12-07-30 METAR LFPG 301300Z 23009KT 180V290 9999 SCT040 SCT150 20/09 Q1019 NOSIG
12-07-30 METAR LFPG 301330Z 24008KT 210V300 9999 SCT040 SCT150 19/08 Q1019 NOSIG
12-07-30 METAR LFPG 301400Z 24010KT 180V290 9999 SCT040 SCT120 19/08 Q1018 NOSIG
12-07-30 METAR LFPG 301430Z 20008G26KT 160V300 9999 SCT040 SCT120 19/09 Q1018 NOSIG
12-07-30 METAR LFPG 301500Z 23008KT 200V270 9999 SCT040 BKN120 19/09 Q1018 NOSIG
12-07-30 METAR LFPG 301530Z 20009KT 170V240 9999 SCT040 BKN066 BKN120 19/08 Q1018
12-07-30 METAR LFPG 301600Z 21010KT 9999 SCT040 BKN066 BKN170 19/08 Q1018 NOSIG
12-07-30 METAR LFPG 301630Z 22010KT 180V240 9999 SCT040 SCT066 BKN170 19/08 Q1018
12-07-30 METAR LFPG 301700Z 23007KT 180V260 9999 SCT037 BKN170 19/08 Q1018 NOSIG
12-07-30 METAR LFPG 301730Z 22007KT 9999 FEW038 BKN160 19/09 Q1018 NOSIG
12-07-30 METAR LFPG 301800Z 22007KT 9999 FEW036 SCT160 19/09 Q1018 NOSIG
12-07-30 METAR LFPG 301830Z 25006KT 9999 FEW036 BKN260 19/09 Q1018 NOSIG
12-07-30 METAR LFPG 301900Z 24006KT 9999 FEW036 BKN260 18/10 Q1018 NOSIG
12-07-30 METAR LFPG 301930Z 22005KT 190V250 9999 FEW040 BKN260 18/10 Q1018 NOSIG
12-07-30 METAR LFPG 302000Z 22005KT 9999 FEW036 BKN260 17/10 Q1018 NOSIG
12-07-30 METAR LFPG 302030Z 21005KT 170V330 CAVOK 17/10 Q1018 NOSIG
12-07-30 METAR LFPG 302100Z 22005KT CAVOK 17/10 Q1018 NOSIG
12-07-30 METAR LFPG 302130Z 23004KT CAVOK 16/10 Q1019 NOSIG
12-07-30 METAR LFPG 302200Z 25008KT CAVOK 16/11 Q1019 NOSIG
12-07-30 METAR LFPG 302230Z 25006KT CAVOK 16/11 Q1019 NOSIG
12-07-30 METAR LFPG 302300Z 25006KT CAVOK 16/11 Q1019 NOSIG
12-07-30 METAR LFPG 302330Z 24004KT CAVOK 16/11 Q1018 NOSIG
12-07-31 METAR LFPG 310000Z 27003KT CAVOK 15/11 Q1019 NOSIG
12-07-31 METAR LFPG 310030Z 32003KT CAVOK 15/11 Q1018 NOSIG
12-07-31 METAR LFPG 310100Z VRB03KT CAVOK 14/11 Q1018 NOSIG
12-07-31 METAR LFPG 310130Z 36003KT CAVOK 14/11 Q1019 NOSIG
12-07-31 METAR LFPG 310200Z 01002KT CAVOK 14/11 Q1019 NOSIG
12-07-31 METAR LFPG 310230Z 07003KT CAVOK 14/10 Q1018 NOSIG
12-07-31 METAR LFPG 310300Z 10004KT CAVOK 14/10 Q1018 NOSIG
12-07-31 METAR LFPG 310330Z 09005KT CAVOK 14/10 Q1018 NOSIG
12-07-31 METAR LFPG 310400Z 11006KT CAVOK 14/10 Q1018 NOSIG
12-07-31 METAR LFPG 310430Z 15001KT CAVOK 14/10 Q1018 NOSIG
12-07-31 METAR LFPG 310500Z 17004KT 090V190 CAVOK 14/11 Q1018 NOSIG
12-07-31 METAR LFPG 310530Z 19003KT 100V210 CAVOK 14/12 Q1018 NOSIG
12-07-31 METAR LFPG 310600Z 18006KT 9999 FEW003 BKN070 BKN110 15/12 Q1018 NOSIG
12-07-31 METAR LFPG 310630Z 19005KT CAVOK 15/12 Q1019 NOSIG
12-07-31 METAR LFPG 310700Z 19008KT CAVOK 16/12 Q1019 NOSIG
12-07-31 METAR LFPG 310730Z VRB08KT CAVOK 17/11 Q1019 NOSIG
12-07-31 METAR LFPG 310800Z 21008KT CAVOK 18/11 Q1019 NOSIG
12-07-31 METAR LFPG 310830Z 21007KT 180V240 CAVOK 19/10 Q1019 NOSIG
12-07-31 METAR LFPG 310900Z 22008KT 9999 FEW036 SCT056 BKN160 19/10 Q1019 NOSIG
12-07-31 METAR LFPG 310930Z 19010KT 9999 FEW036 SCT056 BKN160 20/10 Q1019 NOSIG
12-07-31 METAR LFPG 311000Z VRB10KT 9999 FEW034 SCT054 20/11 Q1019 NOSIG
12-07-31 METAR LFPG 311030Z 21012G26KT 170V310 9999 FEW039 BKN050 20/10 Q1019 NOSIG
12-07-31 METAR LFPG 311100Z 21010KT 180V260 9999 FEW041 BKN048 21/09 Q1019 NOSIG
12-07-31 METAR LFPG 311130Z 20009KT 180V240 9999 FEW043 BKN048 22/10 Q1018 NOSIG
12-07-31 METAR LFPG 311200Z 23011KT 190V250 9999 FEW043 BKN046 23/11 Q1018 NOSIG
12-07-31 METAR LFPG 311230Z 24010KT 220V280 9999 FEW043 BKN048 23/10 Q1018 NOSIG
12-07-31 METAR LFPG 311300Z 23011KT 200V260 9999 FEW046 SCT050 23/10 Q1018 NOSIG
12-07-31 METAR LFPG 311330Z 23010KT 190V260 9999 FEW046 SCT240 24/11 Q1017 NOSIG
12-07-31 METAR LFPG 311400Z 24011KT 200V270 CAVOK 24/10 Q1017 NOSIG
12-07-31 METAR LFPG 311430Z 24008KT 180V290 CAVOK 25/10 Q1017 NOSIG
12-07-31 METAR LFPG 311500Z 24008KT 190V280 CAVOK 25/09 Q1017 NOSIG
12-07-31 METAR LFPG 311530Z 25006KT 200V310 CAVOK 25/09 Q1017 NOSIG
12-07-31 METAR LFPG 311600Z 22007KT 180V260 CAVOK 25/09 Q1017 NOSIG
12-07-31 METAR LFPG 311630Z 27004KT 230V310 CAVOK 25/08 Q1016 NOSIG
12-07-31 METAR LFPG 311700Z 23005KT 200V300 CAVOK 25/07 Q1016 NOSIG
12-07-31 METAR LFPG 311730Z VRB02KT CAVOK 25/08 Q1016 NOSIG
12-07-31 METAR LFPG 311800Z VRB03KT CAVOK 25/07 Q1016 NOSIG
12-07-31 METAR LFPG 311830Z 00000KT CAVOK 24/07 Q1016 NOSIG
12-07-31 METAR LFPG 311900Z 03001KT CAVOK 24/08 Q1016 NOSIG
12-07-31 METAR LFPG 311930Z VRB03KT CAVOK 22/11 Q1016 NOSIG
12-07-31 METAR LFPG 312000Z 02003KT CAVOK 21/11 Q1016 NOSIG
12-07-31 METAR LFPG 312030Z VRB02KT CAVOK 21/10 Q1016 NOSIG
12-07-31 METAR LFPG 312100Z 16005KT CAVOK 21/09 Q1016 NOSIG
12-07-31 METAR LFPG 312130Z 15005KT CAVOK 20/10 Q1016 NOSIG
12-07-31 METAR LFPG 312200Z 14005KT 110V170 CAVOK 20/11 Q1016 NOSIG
12-07-31 METAR LFPG 312230Z 15005KT CAVOK 19/11 Q1016 NOSIG
12-07-31 METAR LFPG 312300Z 16005KT CAVOK 19/11 Q1015 NOSIG
12-07-31 METAR LFPG 312330Z 16003KT CAVOK 18/11 Q1015 NOSIG
12-08-01 METAR LFPG 010000Z VRB02KT CAVOK 17/11 Q1015 NOSIG
12-08-01 METAR LFPG 010030Z 06004KT CAVOK 16/11 Q1015 NOSIG
12-08-01 METAR LFPG 010100Z 10005KT CAVOK 16/11 Q1015 NOSIG
12-08-01 METAR LFPG 010130Z 10005KT CAVOK 16/11 Q1014 NOSIG
12-08-01 METAR LFPG 010200Z 10004KT CAVOK 16/11 Q1015 NOSIG
12-08-01 METAR LFPG 010230Z 11006KT CAVOK 16/11 Q1014 NOSIG
12-08-01 METAR LFPG 010300Z 12007KT CAVOK 16/11 Q1014 NOSIG
12-08-01 METAR LFPG 010330Z 12006KT CAVOK 16/11 Q1014 NOSIG
12-08-01 METAR LFPG 010400Z 11004KT CAVOK 16/11 Q1013 NOSIG
12-08-01 METAR LFPG 010430Z 05003KT CAVOK 15/11 Q1013 NOSIG
12-08-01 METAR LFPG 010500Z 09005KT CAVOK 15/11 Q1013 NOSIG
12-08-01 METAR LFPG 010530Z 11004KT CAVOK 17/11 Q1013 NOSIG
12-08-01 METAR LFPG 010600Z 09006KT CAVOK 18/11 Q1013 NOSIG
12-08-01 METAR LFPG 010630Z 11006KT 080V140 CAVOK 19/12 Q1012 NOSIG
12-08-01 METAR LFPG 010700Z 12008KT CAVOK 19/12 Q1012 NOSIG
12-08-01 METAR LFPG 010730Z 11009KT CAVOK 20/13 Q1012 NOSIG
12-08-01 METAR LFPG 010800Z 11010KT CAVOK 22/13 Q1011 NOSIG
12-08-01 METAR LFPG 010830Z 12009KT 090V150 CAVOK 23/13 Q1011 NOSIG
12-08-01 METAR LFPG 010900Z 14010KT CAVOK 24/13 Q1011 NOSIG
12-08-01 METAR LFPG 010930Z 13010KT 090V160 CAVOK 25/13 Q1010 NOSIG
12-08-01 METAR LFPG 011000Z 11012KT CAVOK 26/13 Q1010 NOSIG
12-08-01 METAR LFPG 011030Z 13013G24KT 100V160 CAVOK 27/13 Q1010 NOSIG
12-08-01 METAR LFPG 011100Z 13013KT 100V170 CAVOK 28/12 Q1009 NOSIG
12-08-01 METAR LFPG 011130Z 15011KT 110V180 CAVOK 28/12 Q1009 NOSIG
12-08-01 METAR LFPG 011200Z 16012KT CAVOK 29/12 Q1009 NOSIG
12-08-01 METAR LFPG 011230Z 16009G20KT 080V190 CAVOK 28/13 Q1008 NOSIG
12-08-01 METAR LFPG 011300Z 15012G23KT 110V190 CAVOK 29/13 Q1008 NOSIG
12-08-01 METAR LFPG 011330Z 20012KT CAVOK 28/14 Q1009 NOSIG
12-08-01 METAR LFPG 011400Z 20009KT 170V230 CAVOK 28/14 Q1009 NOSIG
12-08-01 METAR LFPG 011430Z 18012KT 150V210 9999 FEW026 SCT130 BKN260 29/14 Q1008 NOSIG
12-08-01 METAR LFPG 011500Z 18009G21KT 110V210 CAVOK 29/13 Q1008 NOSIG
12-08-01 METAR LFPG 011530Z 21011KT 170V320 CAVOK 28/12 Q1008 NOSIG
12-08-01 METAR LFPG 011600Z 19011KT CAVOK 28/13 Q1008 NOSIG
12-08-01 METAR LFPG 011630Z 25014KT 210V270 CAVOK 28/14 Q1008 NOSIG
12-08-01 METAR LFPG 011700Z 27014KT CAVOK 26/16 Q1009 NOSIG
12-08-01 METAR LFPG 011730Z 27008KT CAVOK 25/16 Q1009 NOSIG
12-08-01 METAR LFPG 011800Z 27008KT CAVOK 25/16 Q1009 NOSIG
12-08-01 METAR LFPG 011830Z 27006KT CAVOK 24/16 Q1009 NOSIG
12-08-01 METAR LFPG 011900Z 28004KT 9999 FEW039 BKN140 BKN260 23/16 Q1009 NOSIG
12-08-01 METAR LFPG 011930Z 26005KT 9999 FEW040 SCT140 23/15 Q1010 NOSIG
12-08-01 METAR LFPG 012000Z 26009KT 200V300 9999 FEW040 SCT150 23/15 Q1010 NOSIG
12-08-01 METAR LFPG 012030Z 25009KT CAVOK 23/13 Q1010 NOSIG
12-08-01 METAR LFPG 012100Z 24010KT CAVOK 22/12 Q1011 NOSIG
12-08-01 METAR LFPG 012130Z 24010KT CAVOK 21/13 Q1011 NOSIG
12-08-01 METAR LFPG 012200Z 23010KT CAVOK 21/13 Q1011 NOSIG
12-08-01 METAR LFPG 012230Z 24009KT CAVOK 20/14 Q1011 NOSIG
12-08-01 METAR LFPG 012300Z 24011KT CAVOK 20/14 Q1011 NOSIG
12-08-01 METAR LFPG 012330Z 22010KT CAVOK 21/14 Q1011 NOSIG
12-08-02 METAR LFPG 020000Z 23013KT CAVOK 21/14 Q1012 NOSIG
12-08-02 METAR LFPG 020030Z 23012KT 9999 FEW026 SCT066 BKN100 20/14 Q1012 NOSIG
12-08-02 METAR LFPG 020100Z 24014KT 9999 FEW023 SCT039 19/14 Q1012 NOSIG
12-08-02 METAR LFPG 020130Z 23013KT 9999 FEW022 BKN049 19/14 Q1012 NOSIG
12-08-02 METAR LFPG 020200Z 23012KT 9999 FEW022 SCT049 19/14 Q1012 NOSIG
12-08-02 METAR LFPG 020230Z 23009KT 9999 SCT022 BKN029 19/14 Q1012 NOSIG
12-08-02 METAR LFPG 020300Z 24009KT 9999 BKN019 BKN025 19/14 Q1012 NOSIG
12-08-02 METAR LFPG 020330Z 23011KT 9999 BKN017 BKN023 18/14 Q1012 NOSIG
12-08-02 METAR LFPG 020400Z 25008KT 9999 BKN016 BKN023 18/14 Q1013 NOSIG
12-08-02 METAR LFPG 020430Z 25007KT 9999 BKN016 BKN023 18/14 Q1013 NOSIG
12-08-02 METAR LFPG 020500Z 24006KT 190V260 9999 BKN016 BKN023 18/14 Q1013 NOSIG
12-08-02 METAR LFPG 020530Z 23005KT 9999 FEW020 BKN030 18/14 Q1013 NOSIG
12-08-02 METAR LFPG 020600Z 24008KT 9999 FEW020 BKN030 18/14 Q1014 NOSIG
12-08-02 METAR LFPG 020630Z 25005KT 9999 FEW020 SCT030 18/13 Q1014 NOSIG
12-08-02 METAR LFPG 020700Z 23010KT 9999 FEW020 SCT066 18/13 Q1014 NOSIG
12-08-02 METAR LFPG 020730Z 23012KT 9999 FEW020 BKN053 18/13 Q1015 NOSIG
12-08-02 METAR LFPG 020800Z 24011KT 200V280 9999 SCT020 BKN053 19/12 Q1015 NOSIG
12-08-02 METAR LFPG 020830Z 23011KT 9999 SCT023 SCT053 19/12 Q1015 NOSIG
12-08-02 METAR LFPG 020900Z 25011KT 9999 SCT023 SCT053 19/12 Q1015 NOSIG
12-08-02 METAR LFPG 020930Z 24010KT 210V270 9999 SCT030 SCT053 19/12 Q1015 NOSIG
12-08-02 METAR LFPG 021000Z 24010KT 210V270 9999 FEW030 BKN067 20/12 Q1015 NOSIG
12-08-02 METAR LFPG 021030Z 25012KT 220V290 9999 FEW040 BKN069 21/12 Q1015 NOSIG
12-08-02 METAR LFPG 021100Z 26011KT 9999 FEW040 BKN069 21/12 Q1015 NOSIG
12-08-02 METAR LFPG 021130Z 25011KT 220V280 9999 FEW040 SCT069 22/12 Q1015 NOSIG
12-08-02 METAR LFPG 021200Z 23012KT 9999 FEW040 SCT069 23/11 Q1015 NOSIG
12-08-02 METAR LFPG 021230Z 24012KT 210V300 9999 FEW043 SCT069 23/10 Q1015 NOSIG
12-08-02 METAR LFPG 021300Z 26010KT 9999 FEW046 SCT069 23/10 Q1015 NOSIG
12-08-02 METAR LFPG 021330Z 26010KT 230V290 9999 FEW046 SCT069 23/09 Q1015 NOSIG
12-08-02 METAR LFPG 021400Z 26012KT 9999 FEW046 SCT069 24/09 Q1015 NOSIG
12-08-02 METAR LFPG 021430Z 26010KT 210V280 CAVOK 24/09 Q1015 NOSIG
12-08-02 METAR LFPG 021500Z 22010KT 190V260 CAVOK 24/09 Q1015 NOSIG
12-08-02 METAR LFPG 021530Z 24008KT 220V290 CAVOK 23/07 Q1015 NOSIG
12-08-02 METAR LFPG 021600Z 25011KT CAVOK 24/07 Q1015 NOSIG
12-08-02 METAR LFPG 021630Z 25010KT 210V280 CAVOK 24/07 Q1015 NOSIG
12-08-02 METAR LFPG 021700Z 26008KT CAVOK 24/07 Q1015 NOSIG
12-08-02 METAR LFPG 021730Z 27009KT CAVOK 24/08 Q1015 NOSIG
12-08-02 METAR LFPG 021800Z 26007KT 240V300 CAVOK 24/08 Q1015 NOSIG
12-08-02 METAR LFPG 021830Z 26007KT CAVOK 23/08 Q1015 NOSIG
12-08-02 METAR LFPG 021930Z 27006KT CAVOK 22/09 Q1015 NOSIG
12-08-02 METAR LFPG 022000Z 26007KT CAVOK 21/09 Q1015 NOSIG
12-08-02 METAR LFPG 022030Z 26007KT CAVOK 21/10 Q1016 NOSIG
12-08-02 METAR LFPG 022100Z 26006KT CAVOK 21/10 Q1016 NOSIG
12-08-02 METAR LFPG 022130Z 25006KT CAVOK 21/11 Q1016 NOSIG
12-08-02 METAR LFPG 022200Z 25008KT CAVOK 21/11 Q1016 NOSIG
12-08-02 METAR LFPG 022230Z 25005KT CAVOK 20/11 Q1016 NOSIG
12-08-02 METAR LFPG 022300Z 24006KT 9999 FEW046 SCT090 19/11 Q1016 NOSIG
12-08-02 METAR LFPG 022330Z 24007KT 9999 FEW046 19/11 Q1016 NOSIG
12-08-03 METAR LFPG 030000Z 24007KT CAVOK 19/11 Q1016 NOSIG
12-08-03 METAR LFPG 030030Z 24007KT CAVOK 18/11 Q1016 NOSIG
12-08-03 METAR LFPG 030100Z 24007KT CAVOK 18/11 Q1016 NOSIG
12-08-03 METAR LFPG 030130Z 24007KT CAVOK 17/11 Q1016 NOSIG
12-08-03 METAR LFPG 030200Z 25006KT CAVOK 17/11 Q1017 NOSIG
12-08-03 METAR LFPG 030230Z 25006KT CAVOK 16/11 Q1016 NOSIG
12-08-03 METAR LFPG 030300Z 24006KT CAVOK 16/12 Q1017 NOSIG
12-08-03 METAR LFPG 030330Z 24006KT 200V290 CAVOK 16/12 Q1017 NOSIG
12-08-03 METAR LFPG 030500Z 24008KT 9999 FEW018 15/12 Q1017 NOSIG
12-08-03 METAR LFPG 030530Z 24007KT 9999 FEW023 16/12 Q1017 NOSIG
12-08-03 METAR LFPG 030600Z 22010KT 9999 FEW023 16/12 Q1017 NOSIG
12-08-03 METAR LFPG 030630Z 22010KT 9999 FEW016 17/12 Q1017 NOSIG
12-08-03 METAR LFPG 030700Z 23009KT 200V260 9999 SCT017 17/12 Q1017 NOSIG
12-08-03 METAR LFPG 030730Z 22011KT 180V240 9999 FEW017 17/12 Q1018 NOSIG
12-08-03 METAR LFPG 030800Z 21009KT 9999 FEW018 18/12 Q1018 NOSIG
12-08-03 METAR LFPG 030830Z 21008KT 190V270 9999 FEW025 SCT260 19/11 Q1017 NOSIG
12-08-03 METAR LFPG 030900Z 22010KT 9999 FEW025 SCT260 19/11 Q1017 NOSIG
12-08-03 METAR LFPG 030930Z VRB09KT 9999 FEW030 BKN260 20/11 Q1017 NOSIG
12-08-03 METAR LFPG 031000Z 21008KT 170V300 9999 FEW032 SCT093 BKN260 21/12 Q1017 NOSIG
12-08-03 METAR LFPG 031030Z VRB09KT 9999 SCT033 SCT093 BKN260 21/11 Q1017 NOSIG
12-08-03 METAR LFPG 031100Z 18009KT 9999 FEW026TCU SCT035 BKN260 21/12 Q1017 NOSIG
12-08-03 METAR LFPG 031130Z 19011KT 160V220 9999 VCSH FEW030TCU SCT036 BKN260 21/11 Q1017 NOSIG
12-08-03 METAR LFPG 031200Z 20010KT 160V250 9999 FEW030TCU SCT036 BKN260 22/12 Q1016
12-08-03 METAR LFPG 031230Z 20012G24KT 180V320 9999 FEW033TCU SCT040 BKN260 23/11 Q1016 NOSIG
12-08-03 METAR LFPG 031300Z 20010G21KT 9999 FEW023 FEW036TCU SCT076 20/14 Q1016 RESHRA NOSIG
12-08-03 METAR LFPG 031330Z 20011KT 180V270 9999 VCSH SCT036TCU BKN230 22/13 Q1016
12-08-03 METAR LFPG 031400Z 21010KT 9000 -SHRA FEW028 SCT041TCU 19/15 Q1016 NOSIG
12-08-03 METAR LFPG 031430Z 21013KT 9999 FEW041 SCT260 22/14 Q1016 NOSIG
12-08-03 METAR LFPG 031500Z 19014KT 160V220 9999 FEW040 SCT260 23/13 Q1015 NOSIG
12-08-03 METAR LFPG 031530Z 19012KT 160V220 9999 FEW046 SCT096 23/12 Q1015 NOSIG
12-08-03 METAR LFPG 031600Z 18011KT 9999 FEW046TCU BKN050 BKN100 23/12 Q1015 NOSIG
12-08-03 METAR LFPG 031630Z 19011KT 9999 -SHRA SCT045TCU BKN050 BKN100 23/12 Q1015
12-08-03 METAR LFPG 031700Z 26018G30KT 220V320 9999 VCSH FEW023 FEW048TCU BKN086 22/12 Q1015 NOSIG
12-08-03 METAR LFPG 031730Z 31009KT 9999 VCSH FEW023 FEW048TCU BKN086 19/14 Q1015
12-08-03 METAR LFPG 031800Z 31006KT 280V340 9999 VCSH FEW023 FEW048TCU BKN100 19/13
12-08-03 METAR LFPG 031830Z 29010KT 9999 VCSH SCT046TCU SCT080 19/13 Q1015 NOSIG
12-08-03 METAR LFPG 031900Z 27004KT 9999 VCSH SCT046TCU SCT096 19/14 Q1016 NOSIG
12-08-03 METAR LFPG 031930Z 19005KT 130V280 9999 VCSH FEW046TCU SCT093 BKN130 18/13
12-08-03 METAR LFPG 032000Z 25003KT 9999 VCSH SCT050TCU SCT080 BKN120 19/14 Q1016
12-08-03 METAR LFPG 032030Z 23004KT 170V280 9999 VCSH SCT050TCU SCT080 BKN120 19/14
12-08-03 METAR LFPG 032100Z VRB04G16KT 9999 SCT043 SCT080 BKN120 18/14 Q1016 NOSIG
12-08-03 METAR LFPG 032130Z 15003KT 9999 FEW043 18/14 Q1016 NOSIG
12-08-03 METAR LFPG 032200Z 16005KT 9999 FEW043 18/14 Q1016 NOSIG
12-08-03 METAR LFPG 032230Z 15005KT 9999 FEW043 17/14 Q1016 NOSIG
12-08-03 METAR LFPG 032300Z 16005KT CAVOK 17/14 Q1016 NOSIG
12-08-03 METAR LFPG 032330Z 16003KT CAVOK 17/14 Q1016 NOSIG
12-08-04 METAR LFPG 040000Z 21004KT CAVOK 17/13 Q1016 NOSIG
12-08-04 METAR LFPG 040030Z 22004KT CAVOK 16/13 Q1015 NOSIG
12-08-04 METAR LFPG 040100Z 17003KT CAVOK 16/13 Q1015 NOSIG
12-08-04 METAR LFPG 040130Z 17003KT CAVOK 16/13 Q1015 NOSIG
12-08-04 METAR LFPG 040200Z 20005KT CAVOK 15/13 Q1015 NOSIG
12-08-04 METAR LFPG 040230Z 22004KT CAVOK 16/13 Q1015 NOSIG
12-08-04 METAR LFPG 040300Z 21006KT CAVOK 16/12 Q1015 NOSIG
12-08-04 METAR LFPG 040330Z 17005KT 130V230 CAVOK 16/12 Q1015 NOSIG
12-08-04 METAR LFPG 040400Z VRB02KT CAVOK 15/12 Q1015 NOSIG
12-08-04 METAR LFPG 040430Z VRB02KT CAVOK 15/12 Q1015 NOSIG
12-08-04 METAR LFPG 040500Z 20003KT CAVOK 15/12 Q1015 NOSIG
12-08-04 METAR LFPG 040530Z 17003KT CAVOK 15/13 Q1015 NOSIG
12-08-04 METAR LFPG 040600Z 18004KT CAVOK 16/13 Q1015 NOSIG
12-08-04 METAR LFPG 040630Z 19004KT CAVOK 17/13 Q1015 NOSIG
12-08-04 METAR LFPG 040700Z 19004KT 170V250 CAVOK 17/13 Q1015 NOSIG
12-08-04 METAR LFPG 040730Z 20006KT 160V240 9999 FEW023 19/13 Q1015 NOSIG
12-08-04 METAR LFPG 040800Z 21008KT 170V250 9999 FEW026 19/12 Q1015 NOSIG
12-08-04 METAR LFPG 040830Z 22010KT 9999 SCT026 20/12 Q1015 NOSIG
12-08-04 METAR LFPG 040900Z 23010KT 200V260 9999 SCT026 20/11 Q1015 NOSIG
12-08-04 METAR LFPG 040930Z VRB10KT 9999 BKN033 21/12 Q1014 NOSIG
12-08-04 METAR LFPG 041000Z 23010KT 190V320 9999 BKN033 BKN220 21/11 Q1014 NOSIG
12-08-04 METAR LFPG 041030Z 20010KT 9999 BKN033 BKN220 22/11 Q1014 NOSIG
12-08-04 METAR LFPG 041100Z 21009KT 180V280 9999 BKN033 BKN220 22/11 Q1014 NOSIG
12-08-04 METAR LFPG 041130Z 25007KT 200V270 9999 BKN040 BKN220 22/12 Q1014 NOSIG
12-08-04 METAR LFPG 041200Z 23011KT 9999 BKN040 BKN220 23/10 Q1013 NOSIG
12-08-04 METAR LFPG 041230Z 22013KT 190V260 9999 BKN040 BKN220 23/08 Q1013 NOSIG
12-08-04 METAR LFPG 041300Z 22010KT 170V240 CAVOK 23/09 Q1013 NOSIG
12-08-04 METAR LFPG 041330Z 22009KT CAVOK 24/09 Q1013 NOSIG
12-08-04 METAR LFPG 041400Z 23008KT 190V270 CAVOK 24/09 Q1012 NOSIG
12-08-04 METAR LFPG 041430Z 24009G21KT 190V320 CAVOK 24/09 Q1012 NOSIG
12-08-04 METAR LFPG 041500Z 24010KT 200V260 CAVOK 24/08 Q1012 NOSIG
12-08-04 METAR LFPG 041530Z 25009KT CAVOK 25/08 Q1012 NOSIG
12-08-04 METAR LFPG 041600Z 25005KT 200V280 CAVOK 24/08 Q1011 NOSIG
12-08-04 METAR LFPG 041630Z 29004KT 250V340 CAVOK 24/09 Q1011 NOSIG
12-08-04 METAR LFPG 041700Z 28003KT 220V330 CAVOK 24/10 Q1011 NOSIG
12-08-04 METAR LFPG 041730Z 32005KT CAVOK 23/10 Q1011 NOSIG
12-08-04 METAR LFPG 041800Z 35006KT 320V040 CAVOK 22/12 Q1011 NOSIG
12-08-04 METAR LFPG 041830Z 02005KT CAVOK 22/12 Q1011 NOSIG
12-08-04 METAR LFPG 041900Z 36006KT 350V050 9999 FEW061TCU SCT068 BKN230 21/12 Q1011 NOSIG
12-08-04 METAR LFPG 041930Z 36005KT 340V060 8000 -SHRA BKN060TCU SCT068 20/14 Q1011
12-08-04 METAR LFPG 042000Z 34005KT 290V030 9999 FEW013 FEW052TCU SCT056 BKN076 18/14 Q1011 RESHRA NOSIG
12-08-04 METAR LFPG 042030Z 04005KT 9999 VCSH FEW050TCU SCT060 BKN180 18/15 Q1011
12-08-04 METAR LFPG 042100Z VRB03KT 9000 -SHRA SCT050TCU SCT060 BKN170 17/15 Q1011
12-08-04 METAR LFPG 042130Z 03004KT 350V060 CAVOK 17/15 Q1011 NOSIG
12-08-04 METAR LFPG 042200Z 32002KT CAVOK 17/14 Q1011 NOSIG
12-08-04 METAR LFPG 042230Z 06004KT CAVOK 17/14 Q1011 NOSIG
12-08-04 METAR LFPG 042300Z 09004KT CAVOK 17/14 Q1011 NOSIG
12-08-04 METAR LFPG 042330Z 00000KT CAVOK 17/14 Q1011 NOSIG
12-08-05 METAR LFPG 050000Z 29004KT CAVOK 16/14 Q1011 NOSIG
12-08-05 METAR LFPG 050030Z 00000KT CAVOK 16/14 Q1010 NOSIG
12-08-05 METAR LFPG 050100Z 07001KT CAVOK 16/14 Q1010 NOSIG
12-08-05 METAR LFPG 050130Z 00000KT CAVOK 16/14 Q1010 NOSIG
12-08-05 METAR LFPG 050200Z 00000KT CAVOK 16/14 Q1010 NOSIG
12-08-05 METAR LFPG 050230Z 00000KT CAVOK 16/14 Q1010 NOSIG
12-08-05 METAR LFPG 050300Z 00000KT CAVOK 15/14 Q1010 NOSIG
12-08-05 METAR LFPG 050330Z 24004KT CAVOK 15/14 Q1010 NOSIG
12-08-05 METAR LFPG 050400Z 21003KT 130V270 CAVOK 15/14 Q1010 NOSIG
12-08-05 METAR LFPG 050430Z 22004KT 190V260 9999 VCFG NSC 15/14 Q1010 NOSIG
12-08-05 METAR LFPG 050500Z 24003KT 9999 R08R/1100VP2000U VCFG NSC 15/14 Q1010 NOSIG
12-08-05 METAR LFPG 050530Z 25004KT 9999 VCFG NSC 15/14 Q1010 NOSIG
12-08-05 METAR LFPG 050600Z 22003KT 9999 VCFG NSC 15/14 Q1010 NOSIG
12-08-05 METAR LFPG 050630Z 23004KT CAVOK 16/14 Q1010 NOSIG
12-08-05 METAR LFPG 050700Z 22004KT 200V260 9999 FEW034 17/14 Q1010 NOSIG
12-08-05 METAR LFPG 050730Z 24005KT 220V290 9999 FEW017 17/14 Q1010 NOSIG
12-08-05 METAR LFPG 050800Z 24005KT 9999 FEW020 19/13 Q1010 NOSIG
12-08-05 METAR LFPG 050830Z 22007KT 190V280 9999 FEW026 SCT180 19/11 Q1010 NOSIG
12-08-05 METAR LFPG 050900Z 23009KT 200V280 9999 SCT032 20/12 Q1010 NOSIG
12-08-05 METAR LFPG 050930Z VRB09KT 9999 FEW033 SCT140 20/11 Q1010 NOSIG
12-08-05 METAR LFPG 051000Z 26005KT 220V300 9999 SCT034 21/12 Q1010 NOSIG
12-08-05 METAR LFPG 051030Z 24007KT 180V270 9999 -RA FEW035 BKN042 20/12 Q1010
12-08-05 METAR LFPG 051100Z 21007KT 180V260 9999 FEW035 SCT040 21/12 Q1010 NOSIG
12-08-05 METAR LFPG 051130Z 21009KT 170V250 9999 VCSH FEW035TCU SCT038 21/12 Q1010
12-08-05 METAR LFPG 051200Z 21013KT 9999 FEW039 BKN061 21/11 Q1010 NOSIG
12-08-05 METAR LFPG 051230Z 19010KT 9999 FEW039 BKN057 21/11 Q1010 NOSIG
12-08-05 METAR LFPG 051300Z 19011KT 9999 -RA FEW033TCU BKN100 20/13 Q1010 NOSIG
12-08-05 METAR LFPG 051330Z 21009KT 9999 -RA FEW027 SCT083 BKN093 19/14 Q1010 NOSIG
12-08-05 METAR LFPG 051400Z 21012KT 9999 -RA FEW021 BKN081 BKN093 18/15 Q1010 NOSIG
12-08-05 METAR LFPG 051430Z 21010KT 9999 -RA FEW021 SCT078 BKN093 18/14 Q1010 NOSIG
12-08-05 METAR LFPG 051500Z 17008KT 9999 -RA FEW029 BKN086 BKN100 17/14 Q1009 NOSIG
12-08-05 METAR LFPG 051530Z 16007KT 9999 -RA FEW027 BKN100 17/14 Q1009 NOSIG
12-08-05 METAR LFPG 051600Z 17009KT 9999 FEW037 BKN100 17/14 Q1009 NOSIG
12-08-05 METAR LFPG 051630Z 18012KT 9999 -RA FEW020 BKN087 17/14 Q1009 NOSIG
12-08-05 METAR LFPG 051700Z 19010KT 9999 FEW018 BKN130 17/14 Q1008 NOSIG
12-08-05 METAR LFPG 051730Z 19009KT 9999 FEW013 BKN120 17/14 Q1008 NOSIG
12-08-05 METAR LFPG 051800Z 20008KT 9999 FEW019 BKN150 17/13 Q1008 NOSIG
12-08-05 METAR LFPG 051830Z 21009KT 9999 FEW015 BKN140 17/13 Q1008 NOSIG
12-08-05 METAR LFPG 051900Z 21010KT 9999 BKN015 17/13 Q1008 NOSIG
12-08-05 METAR LFPG 051930Z 21008KT 9999 BKN015 BKN240 16/13 Q1009 NOSIG
12-08-05 METAR LFPG 052000Z 21008KT 9999 BKN015 BKN230 17/13 Q1009 NOSIG
12-08-05 METAR LFPG 052030Z 19010KT 9999 SCT015 BKN220 16/13 Q1009 NOSIG
12-08-05 METAR LFPG 052100Z 20010KT 180V240 9999 BKN014 SCT090 BKN230 16/13 Q1009
12-08-05 METAR LFPG 052130Z 21011KT 9999 BKN014 SCT230 16/13 Q1009 NOSIG
12-08-05 METAR LFPG 052200Z 20011KT 9999 FEW014 16/13 Q1009 NOSIG
12-08-05 METAR LFPG 052230Z 19007KT 9999 FEW013 SCT083 16/13 Q1010 NOSIG
12-08-05 METAR LFPG 052300Z 20012KT 9999 SCT013 SCT040 16/13 Q1010 NOSIG
12-08-05 METAR LFPG 052330Z 20010KT 9999 BKN010 BKN080 16/14 Q1010 NOSIG
12-08-06 METAR LFPG 060000Z 20010KT 9999 SCT010 BKN080 16/14 Q1010 NOSIG
12-08-06 METAR LFPG 060030Z 20010KT 9999 SCT010 SCT080 16/14 Q1010 NOSIG
12-08-06 METAR LFPG 060100Z 19010KT 9999 FEW010 15/13 Q1010 NOSIG
12-08-06 METAR LFPG 060130Z 20009KT 9999 FEW010 15/13 Q1010 NOSIG
12-08-06 METAR LFPG 060200Z 19008KT 9999 FEW013 15/13 Q1010 NOSIG
12-08-06 METAR LFPG 060230Z 19009KT 9999 FEW016 15/13 Q1010 NOSIG
12-08-06 METAR LFPG 060300Z 19009KT 9999 FEW011 14/13 Q1010 NOSIG
12-08-06 METAR LFPG 060330Z 20010KT 180V250 9999 FEW010 15/13 Q1010 NOSIG
12-08-06 METAR LFPG 060400Z 21010KT 9999 FEW013 SCT017 14/12 Q1010 NOSIG
12-08-06 METAR LFPG 060430Z 22011KT 9999 BKN013 SCT020 15/12 Q1011 NOSIG
12-08-06 METAR LFPG 060500Z 21011KT 9999 BKN013 15/12 Q1011 NOSIG
12-08-06 METAR LFPG 060530Z 22012KT 9999 BKN014 15/12 Q1011 NOSIG
12-08-06 METAR LFPG 060600Z 22012KT 9999 BKN014 15/12 Q1011 NOSIG
12-08-06 METAR LFPG 060630Z 21012KT 9999 BKN015 15/12 Q1011 NOSIG
12-08-06 METAR LFPG 060700Z 23012KT 200V260 9999 BKN016 16/12 Q1012 NOSIG
12-08-06 METAR LFPG 060730Z 23011KT 200V260 9999 BKN018 16/11 Q1012 NOSIG
12-08-06 METAR LFPG 060800Z 24011KT 9999 BKN020 17/11 Q1012 NOSIG
12-08-06 METAR LFPG 060830Z 23013KT 9999 BKN023 17/11 Q1012 NOSIG
12-08-06 METAR LFPG 060900Z 23010KT 9999 BKN024 18/12 Q1013 NOSIG
12-08-06 METAR LFPG 060930Z 23014KT 210V270 9999 SCT024 SCT060 17/11 Q1013 NOSIG
12-08-06 METAR LFPG 061000Z 24014KT 9999 SCT033 SCT066 18/10 Q1013 NOSIG
12-08-06 METAR LFPG 061030Z 24013KT 210V280 9999 SCT036 SCT060 19/10 Q1013 NOSIG
12-08-06 METAR LFPG 061100Z 24013KT 9999 SCT036 BKN060 20/10 Q1013 NOSIG
12-08-06 METAR LFPG 061130Z 23016KT 210V270 9999 SCT036 BKN072 20/09 Q1014 NOSIG
12-08-06 METAR LFPG 061200Z 24012KT 9999 FEW036 BKN064 20/10 Q1014 NOSIG
12-08-06 METAR LFPG 061230Z 26013KT 9999 FEW041 SCT064 20/09 Q1014 NOSIG
12-08-06 METAR LFPG 061300Z 23013KT 210V330 9999 FEW041 SCT064 BKN210 21/09 Q1014 NOSIG
12-08-06 METAR LFPG 061330Z 24014KT 9999 FEW043 SCT066 BKN210 22/10 Q1014 NOSIG
12-08-06 METAR LFPG 061400Z 24012KT 210V280 9999 FEW047 SCT080 22/09 Q1014 NOSIG
12-08-06 METAR LFPG 061430Z 25013KT 220V290 CAVOK 22/09 Q1014 NOSIG
12-08-06 METAR LFPG 061500Z 26013KT 230V290 9999 SCT052TCU SCT080 22/09 Q1014 NOSIG
12-08-06 METAR LFPG 061530Z 31013KT 9999 SCT052TCU SCT080 19/12 Q1015 NOSIG
12-08-06 METAR LFPG 061600Z 30010KT 9999 FEW021 SCT052TCU 20/11 Q1015 NOSIG
12-08-06 METAR LFPG 061630Z 29008KT 9999 FEW021 FEW052TCU BKN073 20/11 Q1015 NOSIG
12-08-06 METAR LFPG 061700Z 26009KT 220V280 9999 FEW052TCU SCT086 21/11 Q1015 NOSIG
12-08-06 METAR LFPG 061730Z 25011KT 9999 SCT048TCU SCT086 21/09 Q1015 NOSIG
12-08-06 METAR LFPG 061800Z 31010KT 270V330 9999 VCSH FEW033 SCT048TCU 20/11 Q1016
12-08-06 METAR LFPG 061830Z 31007KT 9999 VCSH FEW040CB SCT045 BKN086 19/12 Q1016
12-08-06 METAR LFPG 061900Z 30006KT 9999 FEW043TCU SCT048 BKN260 17/11 Q1016 NOSIG
12-08-06 METAR LFPG 061930Z 26005KT 9999 VCSH FEW043TCU SCT091 BKN260 18/11 Q1017
12-08-06 METAR LFPG 062000Z 23006KT 9999 -SHRA SCT046TCU SCT083 BKN260 18/11 Q1017
12-08-06 METAR LFPG 062030Z 22009KT 200V260 9999 VCSH FEW050TCU BKN080 BKN260 17/11 Q1017 NOSIG
12-08-06 METAR LFPG 062100Z 23007KT 9999 FEW046 BKN093 BKN260 16/11 Q1018 NOSIG
12-08-06 METAR LFPG 062130Z 21007KT CAVOK 16/12 Q1018 NOSIG
12-08-06 METAR LFPG 062200Z 20005KT 9999 -SHRA SCT046TCU BKN093 16/12 Q1018 NOSIG
12-08-06 METAR LFPG 062230Z 29008KT 9999 FEW019 SCT040TCU BKN093 15/13 Q1019 NOSIG
12-08-06 METAR LFPG 062300Z 23006KT CAVOK 15/13 Q1019 NOSIG
12-08-06 METAR LFPG 062330Z 25004KT CAVOK 15/13 Q1019 NOSIG
12-08-07 METAR LFPG 070000Z 22005KT CAVOK 15/13 Q1019 NOSIG
12-08-07 METAR LFPG 070030Z 24006KT CAVOK 15/13 Q1019 NOSIG
12-08-07 METAR LFPG 070100Z 21006KT CAVOK 15/13 Q1019 NOSIG
12-08-07 METAR LFPG 070130Z 22006KT 9999 FEW038 BKN051 BKN090 15/13 Q1020 NOSIG
12-08-07 METAR LFPG 070200Z 23006KT 9999 SCT038 BKN058 BKN078 15/13 Q1020 NOSIG
12-08-07 METAR LFPG 070230Z 23006KT 9999 FEW038 SCT056 15/13 Q1020 NOSIG
12-08-07 METAR LFPG 070300Z 24007KT 9999 SCT026 BKN039 15/13 Q1020 NOSIG
12-08-07 METAR LFPG 070330Z 26008KT 9999 SCT010 BKN040 14/12 Q1020 NOSIG
12-08-07 METAR LFPG 070400Z 28007KT 9999 FEW030 BKN040 14/12 Q1020 NOSIG
12-08-07 METAR LFPG 070430Z 25003KT 9999 FEW008 SCT031 BKN260 14/12 Q1021 NOSIG
12-08-07 METAR LFPG 070500Z 22004KT 190V250 9999 FEW008 SCT031 BKN260 14/12 Q1021 NOSIG
12-08-07 METAR LFPG 070530Z 22007KT 9999 FEW008 SCT260 14/12 Q1021 NOSIG
12-08-07 METAR LFPG 070600Z 24007KT 200V260 9999 FEW010 SCT260 14/12 Q1022 NOSIG
12-08-07 METAR LFPG 070630Z 25007KT 9999 FEW010 SCT260 15/12 Q1022 NOSIG
12-08-07 METAR LFPG 070700Z 26008KT 9999 FEW012 SCT260 15/12 Q1022 NOSIG
12-08-07 METAR LFPG 070730Z 26008KT 9999 FEW015 BKN066 16/11 Q1022 NOSIG
12-08-07 METAR LFPG 070800Z 26008KT 9999 SCT016 BKN063 16/11 Q1023 NOSIG
12-08-07 METAR LFPG 070830Z 26009KT 9999 SCT018 BKN065 16/11 Q1023 NOSIG
12-08-07 METAR LFPG 070900Z 27010KT 9999 SCT023 SCT065 17/11 Q1023 NOSIG
12-08-07 METAR LFPG 070930Z 24009KT 200V270 9999 SCT023 SCT065 18/11 Q1023 NOSIG
12-08-07 METAR LFPG 071000Z 28008KT 230V330 9999 BKN026 SCT260 19/11 Q1023 NOSIG
12-08-07 METAR LFPG 071030Z 25008KT 210V280 9999 SCT030 BKN057 18/10 Q1023 NOSIG
12-08-07 METAR LFPG 071100Z 24008KT 9999 SCT033 BKN057 18/10 Q1023 NOSIG
12-08-07 METAR LFPG 071130Z 27007KT 250V310 9999 SCT033 BKN057 19/10 Q1023 NOSIG
12-08-07 METAR LFPG 071200Z 26007KT 230V290 9999 FEW036 BKN061 19/10 Q1023 NOSIG
12-08-07 METAR LFPG 071230Z 30005KT 250V360 9999 FEW036 BKN061 20/09 Q1023 NOSIG
12-08-07 METAR LFPG 071300Z 28006KT 240V330 9999 FEW036 BKN061 19/09 Q1023 NOSIG
12-08-07 METAR LFPG 071330Z 26005KT 220V300 9999 FEW036 BKN061 20/09 Q1023 NOSIG
12-08-07 METAR LFPG 071400Z 30005KT 240V350 9999 FEW036 BKN061 20/10 Q1024 NOSIG
12-08-07 METAR LFPG 071430Z 27005KT 200V320 9999 FEW040 BKN056 20/10 Q1024 NOSIG
12-08-07 METAR LFPG 071500Z VRB03KT 9999 FEW040 BKN056 21/09 Q1023 NOSIG
12-08-07 METAR LFPG 071530Z VRB03KT 9999 FEW043 SCT063 21/09 Q1023 NOSIG
12-08-07 METAR LFPG 071600Z 27006KT 230V290 9999 FEW043 SCT063 21/09 Q1023 NOSIG
12-08-07 METAR LFPG 071630Z 26006KT 230V290 9999 FEW046 BKN066 21/08 Q1023 NOSIG
12-08-07 METAR LFPG 071700Z 27005KT 9999 FEW046 BKN066 21/09 Q1023 NOSIG
12-08-07 METAR LFPG 071730Z 28006KT CAVOK 21/09 Q1023 NOSIG
12-08-07 METAR LFPG 071800Z 28006KT CAVOK 20/09 Q1023 NOSIG
12-08-07 METAR LFPG 071830Z 28005KT CAVOK 20/09 Q1023 NOSIG
12-08-07 METAR LFPG 071900Z 27003KT CAVOK 19/09 Q1024 NOSIG
12-08-07 METAR LFPG 071930Z 28002KT CAVOK 19/09 Q1024 NOSIG
12-08-07 METAR LFPG 072000Z 29002KT CAVOK 18/10 Q1024 NOSIG
12-08-07 METAR LFPG 072030Z 02002KT CAVOK 18/10 Q1024 NOSIG
12-08-07 METAR LFPG 072100Z VRB02KT CAVOK 18/10 Q1024 NOSIG
12-08-07 METAR LFPG 072130Z 30002KT CAVOK 18/10 Q1024 NOSIG
12-08-07 METAR LFPG 072200Z VRB01KT CAVOK 18/10 Q1024 NOSIG
12-08-07 METAR LFPG 072230Z 00000KT CAVOK 17/10 Q1024 NOSIG
12-08-07 METAR LFPG 072300Z 00000KT CAVOK 16/10 Q1024 NOSIG
12-08-07 METAR LFPG 072330Z VRB02KT CAVOK 16/10 Q1024 NOSIG
12-08-08 METAR LFPG 080000Z VRB01KT CAVOK 16/11 Q1024 NOSIG
12-08-08 METAR LFPG 080030Z 12001KT CAVOK 15/10 Q1024 NOSIG
12-08-08 METAR LFPG 080100Z 12002KT CAVOK 15/10 Q1024 NOSIG
12-08-08 METAR LFPG 080130Z 00000KT CAVOK 15/10 Q1024 NOSIG
12-08-08 METAR LFPG 080200Z 14004KT 100V160 CAVOK 15/11 Q1024 NOSIG
12-08-08 METAR LFPG 080230Z 14004KT CAVOK 14/10 Q1024 NOSIG
12-08-08 METAR LFPG 080300Z 13003KT CAVOK 14/10 Q1024 NOSIG
12-08-08 METAR LFPG 080330Z 00000KT CAVOK 13/10 Q1024 NOSIG
12-08-08 METAR LFPG 080400Z 14003KT CAVOK 13/10 Q1024 NOSIG
12-08-08 METAR LFPG 080430Z VRB03KT CAVOK 14/10 Q1024 NOSIG
12-08-08 METAR LFPG 080500Z 15002KT CAVOK 14/10 Q1024 NOSIG
12-08-08 METAR LFPG 080530Z 14002KT CAVOK 14/10 Q1024 NOSIG
12-08-08 METAR LFPG 080600Z 14002KT CAVOK 15/10 Q1024 NOSIG
12-08-08 METAR LFPG 080630Z VRB02KT 9999 FEW046 SCT260 16/10 Q1025 NOSIG
12-08-08 METAR LFPG 080700Z VRB03KT 9999 FEW046 SCT260 17/10 Q1025 NOSIG
12-08-08 METAR LFPG 080730Z VRB02KT CAVOK 18/11 Q1025 NOSIG
12-08-08 METAR LFPG 080800Z VRB03KT CAVOK 19/11 Q1025 NOSIG
12-08-08 METAR LFPG 080830Z 21003KT 140V290 CAVOK 20/11 Q1025 NOSIG
12-08-08 METAR LFPG 080900Z 20004KT 170V240 CAVOK 21/10 Q1025 NOSIG
12-08-08 METAR LFPG 080930Z VRB04G14KT 9999 FEW043 SCT260 22/10 Q1025 NOSIG
12-08-08 METAR LFPG 081000Z VRB03KT 9999 FEW043 SCT260 23/10 Q1025 NOSIG
12-08-08 METAR LFPG 081030Z VRB02KT CAVOK 23/10 Q1025 NOSIG
12-08-08 METAR LFPG 081100Z 19005KT 150V260 CAVOK 23/09 Q1025 NOSIG
12-08-08 METAR LFPG 081130Z VRB03KT CAVOK 24/10 Q1025 NOSIG
12-08-08 METAR LFPG 081200Z VRB02KT CAVOK 24/10 Q1024 NOSIG
12-08-08 METAR LFPG 081230Z 02003KT 340V090 CAVOK 24/10 Q1024 NOSIG
12-08-08 METAR LFPG 081300Z 08004KT 360V150 CAVOK 24/10 Q1024 NOSIG
12-08-08 METAR LFPG 081330Z 30005KT 240V360 CAVOK 25/11 Q1024 NOSIG
12-08-08 METAR LFPG 081400Z VRB03KT CAVOK 25/11 Q1024 NOSIG
12-08-08 METAR LFPG 081430Z 30005KT 260V360 CAVOK 25/10 Q1023 NOSIG
12-08-08 METAR LFPG 081500Z VRB02KT CAVOK 26/10 Q1023 NOSIG
12-08-08 METAR LFPG 081530Z 25003KT 190V300 CAVOK 26/11 Q1023 NOSIG
12-08-08 METAR LFPG 081600Z VRB02KT CAVOK 26/11 Q1023 NOSIG
12-08-08 METAR LFPG 081630Z 36004KT 270V040 CAVOK 26/11 Q1023 NOSIG
12-08-08 METAR LFPG 081700Z 36005KT 320V040 CAVOK 25/11 Q1023 NOSIG
12-08-08 METAR LFPG 081730Z 32004KT 280V350 CAVOK 25/11 Q1023 NOSIG
12-08-08 METAR LFPG 081800Z 33004KT 300V360 CAVOK 25/11 Q1023 NOSIG
12-08-08 METAR LFPG 081830Z 34003KT CAVOK 24/12 Q1023 NOSIG
12-08-08 METAR LFPG 081900Z VRB02KT CAVOK 23/11 Q1023 NOSIG
12-08-08 METAR LFPG 081930Z 04003KT CAVOK 22/12 Q1023 NOSIG
12-08-08 METAR LFPG 082000Z 04003KT 020V090 CAVOK 22/12 Q1023 NOSIG
12-08-08 METAR LFPG 082030Z 02007KT 010V070 CAVOK 21/13 Q1024 NOSIG
12-08-08 METAR LFPG 082100Z 03006KT CAVOK 19/13 Q1024 NOSIG
12-08-08 METAR LFPG 082130Z 03008KT 010V100 CAVOK 18/14 Q1024 NOSIG
12-08-08 METAR LFPG 082200Z 02006KT 360V080 CAVOK 18/14 Q1024 NOSIG
12-08-08 METAR LFPG 082230Z 03006KT 360V100 CAVOK 18/14 Q1024 NOSIG
12-08-08 METAR LFPG 082300Z 02007KT 360V080 CAVOK 18/14 Q1024 NOSIG
12-08-08 METAR LFPG 082330Z 02005KT 360V080 CAVOK 17/14 Q1024 NOSIG
12-08-09 METAR LFPG 090000Z 02005KT CAVOK 17/13 Q1024 NOSIG
12-08-09 METAR LFPG 090030Z 04004KT CAVOK 16/13 Q1024 NOSIG
12-08-09 METAR LFPG 090100Z 02003KT CAVOK 16/13 Q1024 NOSIG
12-08-09 METAR LFPG 090130Z 36006KT CAVOK 16/13 Q1024 NOSIG
12-08-09 METAR LFPG 090200Z 01006KT 360V090 CAVOK 16/13 Q1024 NOSIG
12-08-09 METAR LFPG 090230Z 02005KT 010V100 CAVOK 16/13 Q1024 NOSIG
12-08-09 METAR LFPG 090300Z 01004KT CAVOK 16/13 Q1024 NOSIG
12-08-09 METAR LFPG 090330Z 01004KT CAVOK 16/13 Q1024 NOSIG
12-08-09 METAR LFPG 090400Z 01005KT CAVOK 15/13 Q1024 NOSIG
12-08-09 METAR LFPG 090430Z 01006KT CAVOK 15/13 Q1024 NOSIG
12-08-09 METAR LFPG 090500Z 36006KT 9999 VCFG NSC 15/13 Q1024 NOSIG
12-08-09 METAR LFPG 090530Z 01006KT 340V150 9000 NSC 15/14 Q1024 NOSIG
12-08-09 METAR LFPG 090600Z 01006KT 350V120 CAVOK 17/14 Q1024 NOSIG
12-08-09 METAR LFPG 090630Z 01005KT CAVOK 17/15 Q1025 NOSIG
12-08-09 METAR LFPG 090700Z 03004KT 350V050 CAVOK 18/15 Q1025 NOSIG
12-08-09 METAR LFPG 090730Z 05006KT 010V080 CAVOK 19/15 Q1025 NOSIG
12-08-09 METAR LFPG 090800Z 05006KT 010V090 9999 FEW020 SCT050 BKN260 20/15 Q1025 NOSIG
12-08-09 METAR LFPG 090830Z 03006KT 360V080 9999 FEW021 BKN260 21/16 Q1025 NOSIG
12-08-09 METAR LFPG 090900Z 04005KT 330V080 9999 FEW021 BKN260 21/15 Q1025 NOSIG
12-08-09 METAR LFPG 090930Z 03003KT 330V090 9999 FEW023 SCT260 22/16 Q1025 NOSIG
12-08-09 METAR LFPG 091000Z 02005KT 310V080 9999 FEW025 SCT260 23/15 Q1025 NOSIG
12-08-09 METAR LFPG 091030Z 35006KT 310V040 9999 SCT025 SCT260 23/15 Q1025 NOSIG
12-08-09 METAR LFPG 091100Z 36005KT 310V050 9999 SCT030 24/15 Q1025 NOSIG
12-08-09 METAR LFPG 091130Z VRB06KT 9999 SCT031 24/15 Q1025 NOSIG
12-08-09 METAR LFPG 091200Z 34004KT 250V030 9999 SCT034 24/14 Q1025 NOSIG
12-08-09 METAR LFPG 091230Z 35006KT 9999 SCT036 24/14 Q1025 NOSIG
12-08-09 METAR LFPG 091300Z 02006KT 320V090 9999 SCT039 25/15 Q1025 NOSIG
12-08-09 METAR LFPG 091330Z 02005KT 340V050 9999 SCT036 25/14 Q1025 NOSIG
12-08-09 METAR LFPG 091400Z 36006KT 320V060 9999 SCT036 25/15 Q1025 NOSIG
12-08-09 METAR LFPG 091430Z 04007KT 360V080 9999 SCT040 25/14 Q1025 NOSIG
12-08-09 METAR LFPG 091500Z 02009KT 350V140 9999 SCT040 25/14 Q1025 NOSIG
12-08-09 METAR LFPG 091530Z 03008KT 9999 SCT040 24/14 Q1024 NOSIG
12-08-09 METAR LFPG 091600Z 03009KT 9999 FEW041 SCT051 24/14 Q1024 NOSIG
12-08-09 METAR LFPG 091630Z 02009KT 300V080 9999 FEW042 SCT051 24/14 Q1024 NOSIG
12-08-09 METAR LFPG 091700Z 04010KT 360V090 9999 FEW042 SCT053 24/13 Q1024 NOSIG
12-08-09 METAR LFPG 091730Z 03009KT 350V120 9999 FEW043 SCT056 24/14 Q1024 NOSIG
12-08-09 METAR LFPG 091800Z 03007KT 360V090 9999 FEW043 24/13 Q1024 NOSIG
12-08-09 METAR LFPG 091830Z 02007KT CAVOK 23/14 Q1024 NOSIG
12-08-09 METAR LFPG 091900Z 05005KT 020V100 CAVOK 22/13 Q1024 NOSIG
12-08-09 METAR LFPG 091930Z 04005KT 010V080 CAVOK 21/13 Q1025 NOSIG
12-08-09 METAR LFPG 092000Z 04007KT CAVOK 20/12 Q1025 NOSIG
12-08-09 METAR LFPG 092030Z 04007KT CAVOK 19/11 Q1025 NOSIG
12-08-09 METAR LFPG 092100Z 04008KT CAVOK 18/11 Q1025 NOSIG
12-08-09 METAR LFPG 092130Z 05008KT 020V090 CAVOK 18/11 Q1026 NOSIG
12-08-09 METAR LFPG 092200Z 05009KT 020V100 CAVOK 18/11 Q1026 NOSIG
12-08-09 METAR LFPG 092230Z 05008KT 030V090 CAVOK 17/11 Q1026 NOSIG
12-08-09 METAR LFPG 092300Z 04007KT CAVOK 17/11 Q1026 NOSIG
12-08-09 METAR LFPG 092330Z 05007KT CAVOK 17/10 Q1026 NOSIG
12-08-10 METAR LFPG 100000Z 05007KT CAVOK 16/10 Q1026 NOSIG
12-08-10 METAR LFPG 100030Z 05007KT CAVOK 15/10 Q1026 NOSIG
12-08-10 METAR LFPG 100100Z 04007KT CAVOK 15/10 Q1026 NOSIG
12-08-10 METAR LFPG 100130Z 04009KT CAVOK 15/10 Q1026 NOSIG
12-08-10 METAR LFPG 100200Z 04008KT CAVOK 15/10 Q1025 NOSIG
12-08-10 METAR LFPG 100230Z 03006KT CAVOK 15/10 Q1025 NOSIG
12-08-10 METAR LFPG 100300Z 01006KT CAVOK 14/10 Q1025 NOSIG
12-08-10 METAR LFPG 100330Z 01006KT CAVOK 14/10 Q1025 NOSIG
12-08-10 METAR LFPG 100400Z 01005KT CAVOK 14/10 Q1025 NOSIG
12-08-10 METAR LFPG 100430Z 01006KT CAVOK 14/10 Q1025 NOSIG
12-08-10 METAR LFPG 100500Z 02006KT 360V080 CAVOK 14/10 Q1026 NOSIG
12-08-10 METAR LFPG 100530Z 01006KT 360V070 CAVOK 14/10 Q1026 NOSIG
12-08-10 METAR LFPG 100600Z 02005KT 350V080 CAVOK 15/11 Q1026 NOSIG
12-08-10 METAR LFPG 100630Z 06005KT CAVOK 16/11 Q1026 NOSIG
12-08-10 METAR LFPG 100700Z 05005KT CAVOK 18/12 Q1026 NOSIG
12-08-10 METAR LFPG 100730Z 05007KT CAVOK 19/11 Q1026 NOSIG
12-08-10 METAR LFPG 100800Z 06007KT 030V090 CAVOK 19/12 Q1026 NOSIG
12-08-10 METAR LFPG 100830Z 06007KT 030V090 CAVOK 20/12 Q1026 NOSIG
12-08-10 METAR LFPG 100900Z 05008KT 020V080 9999 FEW033 21/11 Q1026 NOSIG
12-08-10 METAR LFPG 100930Z 06010KT 030V090 9999 FEW033 22/09 Q1026 NOSIG
12-08-10 METAR LFPG 101000Z 07010KT 9999 FEW040 22/09 Q1026 NOSIG
12-08-10 METAR LFPG 101030Z 06010KT CAVOK 23/08 Q1026 NOSIG
12-08-10 METAR LFPG 101100Z 04010KT 010V080 CAVOK 23/09 Q1025 NOSIG
12-08-10 METAR LFPG 101130Z 06011KT 030V090 CAVOK 23/08 Q1025 NOSIG
12-08-10 METAR LFPG 101200Z 04010KT 350V070 CAVOK 24/08 Q1025 NOSIG
12-08-10 METAR LFPG 101230Z 06009KT 020V090 CAVOK 24/08 Q1025 NOSIG
12-08-10 METAR LFPG 101300Z 05009KT 360V090 CAVOK 24/09 Q1025 NOSIG
12-08-10 METAR LFPG 101330Z 05010KT 010V090 CAVOK 24/09 Q1025 NOSIG
12-08-10 METAR LFPG 101400Z 05009KT 360V080 CAVOK 25/09 Q1024 NOSIG
12-08-10 METAR LFPG 101430Z 05010KT 010V080 CAVOK 25/08 Q1024 NOSIG
12-08-10 METAR LFPG 101500Z 04010KT 360V070 CAVOK 25/08 Q1024 NOSIG
12-08-10 METAR LFPG 101530Z 05009KT CAVOK 25/08 Q1024 NOSIG
12-08-10 METAR LFPG 101600Z 04010KT 020V080 CAVOK 25/07 Q1024 NOSIG
12-08-10 METAR LFPG 101630Z 05009KT 360V080 CAVOK 24/08 Q1023 NOSIG
12-08-10 METAR LFPG 101700Z 06008KT CAVOK 24/08 Q1023 NOSIG
12-08-10 METAR LFPG 101730Z 04008KT 010V100 CAVOK 24/08 Q1023 NOSIG
12-08-10 METAR LFPG 101800Z 05008KT 020V080 CAVOK 24/08 Q1023 NOSIG
12-08-10 METAR LFPG 101830Z 04008KT CAVOK 22/08 Q1023 NOSIG
12-08-10 METAR LFPG 101900Z 04007KT 020V080 CAVOK 21/07 Q1023 NOSIG
12-08-10 METAR LFPG 101930Z 04008KT 020V090 CAVOK 19/08 Q1023 NOSIG
12-08-10 METAR LFPG 102000Z 04008KT 010V090 CAVOK 19/08 Q1023 NOSIG
12-08-10 METAR LFPG 102030Z 04007KT CAVOK 18/08 Q1023 NOSIG
12-08-10 METAR LFPG 102100Z 04009KT CAVOK 17/09 Q1023 NOSIG
12-08-10 METAR LFPG 102130Z 04007KT CAVOK 17/09 Q1023 NOSIG
12-08-10 METAR LFPG 102200Z 04006KT CAVOK 17/09 Q1023 NOSIG
12-08-10 METAR LFPG 102230Z 04007KT CAVOK 16/09 Q1023 NOSIG
12-08-10 METAR LFPG 102300Z 04007KT CAVOK 16/09 Q1023 NOSIG
12-08-10 METAR LFPG 102330Z 05007KT CAVOK 16/10 Q1023 NOSIG
12-08-11 METAR LFPG 110000Z 05006KT CAVOK 15/09 Q1023 NOSIG
12-08-11 METAR LFPG 110030Z 03005KT CAVOK 15/09 Q1023 NOSIG
12-08-11 METAR LFPG 110100Z 03006KT CAVOK 14/09 Q1023 NOSIG
12-08-11 METAR LFPG 110130Z 04007KT CAVOK 14/09 Q1022 NOSIG
12-08-11 METAR LFPG 110200Z 06007KT CAVOK 15/09 Q1022 NOSIG
12-08-11 METAR LFPG 110230Z 06006KT CAVOK 15/09 Q1022 NOSIG
12-08-11 METAR LFPG 110300Z 04005KT CAVOK 14/09 Q1022 NOSIG
12-08-11 METAR LFPG 110330Z 04006KT CAVOK 14/09 Q1021 NOSIG
12-08-11 METAR LFPG 110400Z 05007KT 020V080 CAVOK 13/09 Q1021 NOSIG
12-08-11 METAR LFPG 110430Z 04006KT CAVOK 12/09 Q1021 NOSIG
12-08-11 METAR LFPG 110500Z 05006KT CAVOK 12/09 Q1021 NOSIG
12-08-11 METAR LFPG 110530Z 04006KT CAVOK 13/09 Q1021 NOSIG
12-08-11 METAR LFPG 110600Z 05007KT CAVOK 14/10 Q1021 NOSIG
12-08-11 METAR LFPG 110630Z 06005KT 030V090 CAVOK 15/10 Q1021 NOSIG
12-08-11 METAR LFPG 110700Z 07008KT 040V100 CAVOK 17/10 Q1021 NOSIG
12-08-11 METAR LFPG 110730Z 10008KT 060V120 CAVOK 18/10 Q1021 NOSIG
12-08-11 METAR LFPG 110800Z 09008KT CAVOK 19/10 Q1021 NOSIG
12-08-11 METAR LFPG 110830Z 10008KT CAVOK 20/11 Q1021 NOSIG
12-08-11 METAR LFPG 110900Z 10007KT 050V130 CAVOK 21/11 Q1021 NOSIG
12-08-11 METAR LFPG 110930Z 08007KT CAVOK 22/11 Q1020 NOSIG
12-08-11 METAR LFPG 111000Z 10010KT CAVOK 23/10 Q1020 NOSIG
12-08-11 METAR LFPG 111030Z 10012KT 070V140 CAVOK 24/09 Q1020 NOSIG
12-08-11 METAR LFPG 111100Z 08011KT 040V110 CAVOK 24/09 Q1019 NOSIG
12-08-11 METAR LFPG 111130Z 09010KT 060V130 CAVOK 25/08 Q1019 NOSIG
12-08-11 METAR LFPG 111200Z 08010KT 040V120 CAVOK 25/08 Q1019 NOSIG
12-08-11 METAR LFPG 111230Z 08012KT 040V120 CAVOK 25/08 Q1018 NOSIG
12-08-11 METAR LFPG 111300Z 07010KT 040V100 CAVOK 26/08 Q1018 NOSIG
12-08-11 METAR LFPG 111330Z 06012KT 030V090 CAVOK 26/08 Q1017 NOSIG
12-08-11 METAR LFPG 111400Z 06011KT 030V100 CAVOK 26/07 Q1017 NOSIG
12-08-11 METAR LFPG 111430Z 07011KT 040V130 CAVOK 26/07 Q1017 NOSIG
12-08-11 METAR LFPG 111500Z 10011KT 070V130 CAVOK 26/08 Q1017 NOSIG
12-08-11 METAR LFPG 111530Z 09010G20KT 050V120 CAVOK 27/07 Q1016 NOSIG
12-08-11 METAR LFPG 111600Z 07010KT 040V100 CAVOK 27/08 Q1016 NOSIG
12-08-11 METAR LFPG 111630Z 08010KT CAVOK 26/07 Q1016 NOSIG
12-08-11 METAR LFPG 111700Z 08010KT CAVOK 26/07 Q1015 NOSIG
12-08-11 METAR LFPG 111730Z 09010KT CAVOK 26/06 Q1015 NOSIG
12-08-11 METAR LFPG 111800Z 08008KT CAVOK 25/07 Q1015 NOSIG
12-08-11 METAR LFPG 111830Z 06007KT CAVOK 24/09 Q1015 NOSIG
12-08-11 METAR LFPG 111900Z 05008KT CAVOK 23/09 Q1015 NOSIG
12-08-11 METAR LFPG 111930Z 05009KT CAVOK 20/09 Q1015 NOSIG
12-08-11 METAR LFPG 112000Z 05009KT CAVOK 20/10 Q1015 NOSIG
12-08-11 METAR LFPG 112030Z 05009KT CAVOK 20/10 Q1015 NOSIG
12-08-11 METAR LFPG 112100Z 05008KT CAVOK 19/10 Q1015 NOSIG
12-08-11 METAR LFPG 112130Z 05007KT CAVOK 19/10 Q1015 NOSIG
12-08-11 METAR LFPG 112200Z 06008KT CAVOK 19/10 Q1014 NOSIG
12-08-11 METAR LFPG 112230Z 06008KT CAVOK 19/10 Q1014 NOSIG
12-08-11 METAR LFPG 112300Z 06008KT CAVOK 18/10 Q1014 NOSIG
12-08-11 METAR LFPG 112330Z 07006KT CAVOK 18/10 Q1013 NOSIG
12-08-12 METAR LFPG 120000Z 07005KT CAVOK 18/10 Q1013 NOSIG
12-08-12 METAR LFPG 120030Z 08005KT CAVOK 17/10 Q1013 NOSIG
12-08-12 METAR LFPG 120100Z 06006KT CAVOK 17/10 Q1013 NOSIG
12-08-12 METAR LFPG 120130Z 06005KT CAVOK 16/10 Q1013 NOSIG
12-08-12 METAR LFPG 120200Z 06004KT CAVOK 15/10 Q1013 NOSIG
12-08-12 METAR LFPG 120230Z 04005KT CAVOK 14/10 Q1012 NOSIG
12-08-12 METAR LFPG 120300Z 06005KT CAVOK 14/10 Q1012 NOSIG
12-08-12 METAR LFPG 120330Z 06006KT CAVOK 14/09 Q1012 NOSIG
12-08-12 METAR LFPG 120400Z 07005KT CAVOK 14/10 Q1012 NOSIG
12-08-12 METAR LFPG 120430Z 06006KT CAVOK 13/09 Q1012 NOSIG
12-08-12 METAR LFPG 120500Z 09005KT CAVOK 15/10 Q1012 NOSIG
12-08-12 METAR LFPG 120530Z 04003KT CAVOK 15/10 Q1012 NOSIG
12-08-12 METAR LFPG 120600Z 10006KT 080V140 CAVOK 16/10 Q1012 NOSIG
12-08-12 METAR LFPG 120630Z 13006KT CAVOK 17/11 Q1012 NOSIG
12-08-12 METAR LFPG 120700Z 13007KT 100V160 CAVOK 17/11 Q1012 NOSIG
12-08-12 METAR LFPG 120730Z 13007KT CAVOK 18/12 Q1012 NOSIG
12-08-12 METAR LFPG 120800Z 16005KT 130V190 CAVOK 18/12 Q1012 NOSIG
12-08-12 METAR LFPG 120830Z 20005KT 130V240 CAVOK 20/13 Q1012 NOSIG
12-08-12 METAR LFPG 120900Z 19004KT 140V230 CAVOK 21/13 Q1012 NOSIG
12-08-12 METAR LFPG 120930Z VRB04KT CAVOK 22/13 Q1012 NOSIG
12-08-12 METAR LFPG 121000Z 22006KT 160V280 CAVOK 23/14 Q1012 NOSIG
12-08-12 METAR LFPG 121030Z VRB04KT CAVOK 23/14 Q1012 NOSIG
12-08-12 METAR LFPG 121100Z 18005KT 130V240 CAVOK 24/14 Q1012 NOSIG
12-08-12 METAR LFPG 121130Z 21004KT 130V300 CAVOK 25/14 Q1012 NOSIG
12-08-12 METAR LFPG 121200Z 25006KT 140V290 CAVOK 26/14 Q1012 NOSIG
12-08-12 METAR LFPG 121230Z 24008KT 180V280 9999 FEW040 SCT100 BKN260 26/13 Q1012 NOSIG
12-08-12 METAR LFPG 121300Z 26009KT 210V300 9999 FEW046 SCT090 BKN260 27/12 Q1012
12-08-12 METAR LFPG 121330Z 27007KT 220V320 CAVOK 27/12 Q1012 NOSIG
12-08-12 METAR LFPG 121400Z 28007KT 230V330 CAVOK 27/12 Q1012 NOSIG
12-08-12 METAR LFPG 121430Z 27009KT 240V310 CAVOK 27/12 Q1012 NOSIG
12-08-12 METAR LFPG 121500Z 27012KT 230V290 9999 FEW040 SCT053 BKN260 26/14 Q1012
12-08-12 METAR LFPG 121530Z 27014KT 9999 FEW034 SCT046 BKN090 25/15 Q1013 NOSIG
12-08-12 METAR LFPG 121600Z 27012KT 9999 FEW034 SCT060 BKN090 25/15 Q1013 NOSIG
12-08-12 METAR LFPG 121630Z 26009KT 9999 FEW034 BKN060 24/15 Q1013 NOSIG
12-08-12 METAR LFPG 121700Z 27010KT 9999 FEW033 OVC060 24/14 Q1013 NOSIG
12-08-12 METAR LFPG 121730Z 29009KT 9999 FEW033 BKN053 23/14 Q1013 NOSIG
12-08-12 METAR LFPG 121800Z 27007KT 9999 FEW033 SCT050 BKN060 23/14 Q1013 NOSIG
12-08-12 METAR LFPG 121830Z 30008KT CAVOK 23/14 Q1013 NOSIG
12-08-12 METAR LFPG 121900Z 32004KT CAVOK 22/14 Q1013 NOSIG
12-08-12 METAR LFPG 121930Z 34003KT CAVOK 22/14 Q1013 NOSIG
12-08-12 METAR LFPG 122000Z 31003KT CAVOK 21/14 Q1013 NOSIG
12-08-12 METAR LFPG 122030Z VRB03KT CAVOK 21/14 Q1013 NOSIG
12-08-12 METAR LFPG 122100Z VRB02KT CAVOK 21/14 Q1013 NOSIG
12-08-12 METAR LFPG 122130Z 02003KT CAVOK 20/14 Q1013 NOSIG
12-08-12 METAR LFPG 122200Z 04003KT CAVOK 19/14 Q1014 NOSIG
12-08-12 METAR LFPG 122230Z 04004KT CAVOK 19/14 Q1014 NOSIG
12-08-12 METAR LFPG 122300Z 06004KT CAVOK 18/14 Q1014 NOSIG
12-08-12 METAR LFPG 122330Z 06006KT CAVOK 18/14 Q1014 NOSIG
12-08-13 METAR LFPG 130000Z 07004KT CAVOK 18/14 Q1014 NOSIG
12-08-13 METAR LFPG 130030Z 08003KT CAVOK 18/14 Q1014 NOSIG
12-08-13 METAR LFPG 130100Z 11005KT CAVOK 18/14 Q1014 NOSIG
12-08-13 METAR LFPG 130130Z 10005KT CAVOK 19/14 Q1013 NOSIG
12-08-13 METAR LFPG 130200Z 10006KT CAVOK 18/13 Q1013 NOSIG
12-08-13 METAR LFPG 130230Z 11004KT CAVOK 18/14 Q1013 NOSIG
12-08-13 METAR LFPG 130300Z 12003KT CAVOK 18/14 Q1013 NOSIG
12-08-13 METAR LFPG 130330Z 12005KT CAVOK 18/14 Q1013 NOSIG
12-08-13 METAR LFPG 130400Z 13006KT CAVOK 18/14 Q1013 NOSIG
12-08-13 METAR LFPG 130430Z 15004KT 110V180 CAVOK 18/14 Q1013 NOSIG
12-08-13 METAR LFPG 130500Z 14004KT CAVOK 18/14 Q1013 NOSIG
12-08-13 METAR LFPG 130530Z 15004KT CAVOK 18/14 Q1013 NOSIG
12-08-13 METAR LFPG 130600Z 15004KT CAVOK 18/14 Q1013 NOSIG
12-08-13 METAR LFPG 130630Z 13005KT 100V170 CAVOK 19/14 Q1013 NOSIG
12-08-13 METAR LFPG 130700Z 14006KT CAVOK 19/14 Q1013 NOSIG
12-08-13 METAR LFPG 130730Z 16004KT 100V190 CAVOK 19/15 Q1013 NOSIG
12-08-13 METAR LFPG 130800Z 18005KT 130V210 CAVOK 21/14 Q1013 NOSIG
12-08-13 METAR LFPG 130830Z 20005KT 170V280 CAVOK 21/15 Q1013 NOSIG
12-08-13 METAR LFPG 130900Z 21005KT 180V260 CAVOK 22/14 Q1013 NOSIG
12-08-13 METAR LFPG 130930Z 22007G18KT 150V300 CAVOK 23/14 Q1013 NOSIG
12-08-13 METAR LFPG 131000Z 23007G18KT 180V300 9999 FEW032 BKN240 23/14 Q1013 NOSIG
12-08-13 METAR LFPG 131030Z 25006KT 190V300 9999 SCT032 BKN240 24/13 Q1013 NOSIG
12-08-13 METAR LFPG 131100Z 23008KT 190V270 9999 SCT039 BKN240 24/13 Q1013 NOSIG
12-08-13 METAR LFPG 131130Z 19008KT 160V270 9999 FEW039 BKN240 24/13 Q1013 NOSIG
12-08-13 METAR LFPG 131200Z 21008KT 170V280 9999 FEW043 BKN260 24/13 Q1013 NOSIG
12-08-13 METAR LFPG 131230Z 20008KT 170V330 9999 FEW043 BKN260 25/12 Q1013 NOSIG
12-08-13 METAR LFPG 131300Z 24008KT 200V280 9999 FEW048 BKN260 25/12 Q1013 NOSIG
12-08-13 METAR LFPG 131330Z 24010KT 210V270 9999 SCT048 BKN260 25/12 Q1013 NOSIG
12-08-13 METAR LFPG 131400Z 23010KT 190V270 CAVOK 25/12 Q1013 NOSIG
12-08-13 METAR LFPG 131430Z 26009KT 220V290 9999 SCT047 SCT060 BKN260 25/12 Q1013 NOSIG
12-08-13 METAR LFPG 131500Z 24007KT 200V270 9999 SCT047 BKN260 25/12 Q1013 NOSIG
12-08-13 METAR LFPG 131530Z 25009KT 220V280 9999 FEW047 BKN260 25/11 Q1013 NOSIG
12-08-13 METAR LFPG 131600Z 26006KT CAVOK 24/11 Q1013 NOSIG
12-08-13 METAR LFPG 131630Z 26006KT CAVOK 24/12 Q1013 NOSIG
12-08-13 METAR LFPG 131700Z 28006KT CAVOK 24/12 Q1013 NOSIG
12-08-13 METAR LFPG 131730Z 28005KT 9999 FEW040 SCT060 BKN260 24/12 Q1012 NOSIG
12-08-13 METAR LFPG 131800Z 27004KT 9999 FEW040 SCT130 BKN260 24/12 Q1012 NOSIG
12-08-13 METAR LFPG 131830Z 27004KT CAVOK 23/12 Q1013 NOSIG
12-08-13 METAR LFPG 131900Z 28003KT CAVOK 23/12 Q1012 NOSIG
12-08-13 METAR LFPG 131930Z 28003KT CAVOK 22/13 Q1013 NOSIG
12-08-13 METAR LFPG 132000Z 00000KT CAVOK 22/12 Q1012 NOSIG
12-08-13 METAR LFPG 132030Z VRB01KT 9999 FEW047 21/12 Q1013 NOSIG
12-08-13 METAR LFPG 132100Z 14001KT CAVOK 21/13 Q1013 NOSIG
12-08-13 METAR LFPG 132130Z 00000KT CAVOK 21/13 Q1013 NOSIG
12-08-13 METAR LFPG 132200Z VRB01KT CAVOK 20/13 Q1013 NOSIG
12-08-13 METAR LFPG 132230Z VRB02KT CAVOK 20/13 Q1013 NOSIG
12-08-13 METAR LFPG 132300Z 10005KT CAVOK 20/13 Q1013 NOSIG
12-08-13 METAR LFPG 132330Z 13004KT CAVOK 19/13 Q1013 NOSIG
12-08-14 METAR LFPG 140000Z 10005KT CAVOK 19/13 Q1013 NOSIG
12-08-14 METAR LFPG 140030Z 13003KT CAVOK 19/13 Q1013 NOSIG
12-08-14 METAR LFPG 140100Z 14003KT CAVOK 18/13 Q1013 NOSIG
12-08-14 METAR LFPG 140130Z 15005KT CAVOK 18/13 Q1013 NOSIG
12-08-14 METAR LFPG 140200Z 14005KT CAVOK 18/13 Q1012 NOSIG
12-08-14 METAR LFPG 140230Z VRB02KT CAVOK 18/13 Q1012 NOSIG
12-08-14 METAR LFPG 140300Z 15003KT CAVOK 18/13 Q1012 NOSIG
12-08-14 METAR LFPG 140330Z 14003KT CAVOK 17/13 Q1012 NOSIG
12-08-14 METAR LFPG 140400Z 11004KT CAVOK 17/13 Q1012 NOSIG
12-08-14 METAR LFPG 140430Z VRB02KT CAVOK 18/13 Q1012 NOSIG
12-08-14 METAR LFPG 140500Z 14003KT CAVOK 17/14 Q1012 NOSIG
12-08-14 METAR LFPG 140530Z 14004KT CAVOK 17/14 Q1012 NOSIG
12-08-14 METAR LFPG 140600Z 14003KT CAVOK 18/14 Q1012 NOSIG
12-08-14 METAR LFPG 140630Z 13003KT 090V170 CAVOK 18/14 Q1012 NOSIG
12-08-14 METAR LFPG 140700Z 15004KT CAVOK 19/14 Q1013 NOSIG
12-08-14 METAR LFPG 140730Z 16003KT CAVOK 19/14 Q1013 NOSIG
12-08-14 METAR LFPG 140800Z 15003KT CAVOK 19/14 Q1013 NOSIG
12-08-14 METAR LFPG 140830Z 16004KT 090V190 CAVOK 20/14 Q1013 NOSIG
12-08-14 METAR LFPG 140900Z 15004KT 100V190 9999 -RA FEW030 SCT080 BKN100 20/15 Q1013 NOSIG
12-08-14 METAR LFPG 140930Z VRB05KT 9999 -RA FEW030 SCT080 BKN100 21/15 Q1013 NOSIG
12-08-14 METAR LFPG 141000Z 14004KT 110V170 9999 -RA FEW030 SCT040 BKN086 21/15
12-08-14 METAR LFPG 141030Z 14005KT 060V220 9999 -RA FEW030 SCT046 BKN093 21/15
12-08-14 METAR LFPG 141100Z 16005KT 9999 -RA FEW032 BKN046 BKN080 21/16 Q1013 NOSIG
12-08-14 METAR LFPG 141130Z 15004KT 100V210 9999 FEW026 SCT046 OVC110 22/16 Q1013
12-08-14 METAR LFPG 141200Z 11003KT 080V150 9999 FEW030 SCT040 OVC110 22/14 Q1013
12-08-14 METAR LFPG 141230Z 11005KT 070V150 9999 FEW033 SCT060 OVC100 23/14 Q1013
12-08-14 METAR LFPG 141300Z 10006KT 060V130 9999 FEW033 SCT060 OVC100 23/14 Q1013
12-08-14 METAR LFPG 141330Z 09005KT 060V140 9999 FEW033 OVC089 23/14 Q1013 NOSIG
12-08-14 METAR LFPG 141400Z 09007KT 9999 FEW033 BKN080 BKN260 24/14 Q1012 NOSIG
12-08-14 METAR LFPG 141430Z 11007KT 9999 FEW040 BKN090 BKN260 25/13 Q1012 NOSIG
12-08-14 METAR LFPG 141500Z 09009KT 050V110 9999 FEW040 BKN090 BKN260 24/13 Q1012
12-08-14 METAR LFPG 141630Z 09009KT 9999 FEW040 BKN260 25/13 Q1011 NOSIG
12-08-14 METAR LFPG 141700Z 10007KT 070V140 9999 FEW043 SCT150 BKN260 25/13 Q1011
12-08-14 METAR LFPG 141730Z 08008KT 9999 FEW043 SCT150 BKN260 25/14 Q1011 NOSIG
12-08-14 METAR LFPG 141800Z 09008KT CAVOK 24/13 Q1011 NOSIG
12-08-14 METAR LFPG 141830Z 09009KT CAVOK 24/14 Q1011 NOSIG
12-08-14 METAR LFPG 141900Z 08007KT CAVOK 23/14 Q1011 NOSIG
12-08-14 METAR LFPG 141930Z 06006KT CAVOK 22/14 Q1012 NOSIG
12-08-14 METAR LFPG 142000Z 07006KT CAVOK 22/14 Q1012 NOSIG
12-08-14 METAR LFPG 142030Z 06007KT CAVOK 21/14 Q1012 NOSIG
12-08-14 METAR LFPG 142100Z 06007KT CAVOK 21/14 Q1012 NOSIG
12-08-14 METAR LFPG 142130Z 07007KT CAVOK 21/14 Q1011 NOSIG
12-08-14 METAR LFPG 142200Z 08008KT CAVOK 21/14 Q1011 NOSIG
12-08-14 METAR LFPG 142230Z 08008KT CAVOK 21/14 Q1011 NOSIG
12-08-14 METAR LFPG 142300Z 07008KT CAVOK 20/14 Q1010 NOSIG
12-08-14 METAR LFPG 142330Z 07008KT CAVOK 20/14 Q1010 NOSIG
12-08-15 METAR LFPG 150000Z 09008KT CAVOK 20/14 Q1010 NOSIG
12-08-15 METAR LFPG 150030Z 07007KT CAVOK 19/14 Q1010 NOSIG
12-08-15 METAR LFPG 150100Z 08009KT CAVOK 19/15 Q1009 NOSIG
12-08-15 METAR LFPG 150130Z 09007KT CAVOK 20/15 Q1009 NOSIG
12-08-15 METAR LFPG 150200Z 09008KT CAVOK 20/15 Q1008 NOSIG
12-08-15 METAR LFPG 150230Z 09008KT CAVOK 20/15 Q1008 NOSIG
12-08-15 METAR LFPG 150300Z 09007KT CAVOK 20/15 Q1008 NOSIG
12-08-15 METAR LFPG 150330Z 09007KT CAVOK 19/15 Q1008 NOSIG
12-08-15 METAR LFPG 150400Z 10006KT CAVOK 20/15 Q1007 NOSIG
12-08-15 METAR LFPG 150430Z 09008KT CAVOK 19/15 Q1007 NOSIG
12-08-15 METAR LFPG 150500Z 10006KT CAVOK 19/15 Q1007 NOSIG
12-08-15 METAR LFPG 150530Z 10008KT CAVOK 20/15 Q1007 NOSIG
12-08-15 METAR LFPG 150600Z 10009KT CAVOK 21/14 Q1006 NOSIG
12-08-15 METAR LFPG 150630Z 10009KT CAVOK 21/15 Q1006 NOSIG
12-08-15 METAR LFPG 150700Z 12011KT CAVOK 22/15 Q1006 NOSIG
12-08-15 METAR LFPG 150730Z 12009KT CAVOK 23/15 Q1006 NOSIG
12-08-15 METAR LFPG 150800Z 12008KT CAVOK 24/15 Q1006 NOSIG
12-08-15 METAR LFPG 150830Z 13009KT CAVOK 25/15 Q1006 NOSIG
12-08-15 METAR LFPG 150900Z 13010KT CAVOK 26/15 Q1005 NOSIG
12-08-15 METAR LFPG 150930Z 14011KT 100V210 9999 VCSH NSC 26/15 Q1006 NOSIG
12-08-15 METAR LFPG 151000Z 14010KT 110V180 9999 VCSH FEW040 SCT080 BKN110 26/15 Q1006 NOSIG
12-08-15 METAR LFPG 151030Z 16010KT 110V180 CAVOK 26/15 Q1005 NOSIG
12-08-15 METAR LFPG 151100Z 17010KT 140V200 CAVOK 28/15 Q1005 NOSIG
12-08-15 METAR LFPG 151130Z 19010KT 160V220 CAVOK 28/14 Q1005 NOSIG
12-08-15 METAR LFPG 151200Z 21014KT CAVOK 29/15 Q1006 NOSIG
12-08-15 METAR LFPG 151230Z 21016KT CAVOK 29/14 Q1006 NOSIG
12-08-15 METAR LFPG 151300Z 23017KT CAVOK 29/15 Q1007 NOSIG
12-08-15 METAR LFPG 151330Z 23017KT 210V270 9999 SCT046 BKN140 BKN200 29/15 Q1007
12-08-15 METAR LFPG 151400Z 24018KT 9999 SCT046 SCT140 BKN220 28/12 Q1008 NOSIG
12-08-15 METAR LFPG 151430Z 24017KT 9999 FEW048 BKN140 BKN210 27/13 Q1009 NOSIG
12-08-15 METAR LFPG 151500Z 25015KT 9999 FEW043 BKN120 26/12 Q1009 NOSIG
12-08-15 METAR LFPG 151530Z 23017KT 9999 FEW036 BKN140 26/12 Q1010 NOSIG
12-08-15 METAR LFPG 151600Z 22013KT 190V270 9999 FEW036 BKN140 25/13 Q1010 NOSIG
12-08-15 METAR LFPG 151630Z 26008KT CAVOK 24/14 Q1010 NOSIG
12-08-15 METAR LFPG 151700Z 23014KT CAVOK 24/11 Q1010 NOSIG
12-08-15 METAR LFPG 151730Z 24012KT CAVOK 23/10 Q1011 NOSIG
12-08-15 METAR LFPG 151800Z 26010KT CAVOK 22/10 Q1011 NOSIG
12-08-15 METAR LFPG 151830Z 25011KT CAVOK 22/10 Q1012 NOSIG
12-08-15 METAR LFPG 151900Z 25006KT CAVOK 21/09 Q1012 NOSIG
12-08-15 METAR LFPG 151930Z 22007KT CAVOK 20/09 Q1013 NOSIG
12-08-15 METAR LFPG 152000Z 22007KT 200V270 CAVOK 20/10 Q1013 NOSIG
12-08-15 METAR LFPG 152030Z 21007KT 190V340 CAVOK 20/10 Q1013 NOSIG
12-08-15 METAR LFPG 152100Z 18006KT CAVOK 19/10 Q1014 NOSIG
12-08-15 METAR LFPG 152130Z 18007KT CAVOK 19/10 Q1014 NOSIG
12-08-15 METAR LFPG 152200Z 18007KT CAVOK 19/10 Q1015 NOSIG
12-08-15 METAR LFPG 152230Z 18009KT CAVOK 18/10 Q1015 NOSIG
12-08-16 METAR LFPG 160000Z 18007KT CAVOK 17/10 Q1016 NOSIG
12-08-16 METAR LFPG 160030Z 19007KT CAVOK 17/10 Q1016 NOSIG
12-08-16 METAR LFPG 160100Z 21006KT CAVOK 17/10 Q1016 NOSIG
12-08-16 METAR LFPG 160130Z 21007KT CAVOK 16/10 Q1016 NOSIG
12-08-16 METAR LFPG 160200Z 21006KT CAVOK 16/10 Q1016 NOSIG
12-08-16 METAR LFPG 160230Z 22006KT CAVOK 16/10 Q1016 NOSIG
12-08-16 METAR LFPG 160300Z 22009G19KT 190V330 CAVOK 15/10 Q1017 NOSIG
12-08-16 METAR LFPG 160330Z 21009KT CAVOK 16/11 Q1017 NOSIG
12-08-16 METAR LFPG 160400Z 23009KT CAVOK 16/10 Q1017 NOSIG
12-08-16 METAR LFPG 160430Z 22007KT CAVOK 15/10 Q1017 NOSIG
12-08-16 METAR LFPG 160500Z 22005KT CAVOK 15/11 Q1017 NOSIG
12-08-16 METAR LFPG 160530Z 22006KT CAVOK 15/10 Q1018 NOSIG
12-08-16 METAR LFPG 160600Z 21005KT 180V240 CAVOK 15/11 Q1018 NOSIG
12-08-16 METAR LFPG 160630Z VRB03KT CAVOK 16/11 Q1018 NOSIG
12-08-16 METAR LFPG 160700Z 21007KT CAVOK 17/12 Q1018 NOSIG
12-08-16 METAR LFPG 160730Z 22006KT 190V270 CAVOK 18/12 Q1019 NOSIG
12-08-16 METAR LFPG 160800Z 22006KT 190V250 9999 FEW026 BKN260 19/12 Q1019 NOSIG
12-08-16 METAR LFPG 160830Z 25007KT 190V280 9999 FEW033 BKN260 21/12 Q1019 NOSIG
12-08-16 METAR LFPG 160900Z 25010KT 9999 FEW033 BKN260 21/11 Q1019 NOSIG
12-08-16 METAR LFPG 160930Z 24010KT 200V270 9999 FEW035 BKN260 22/11 Q1019 NOSIG
12-08-16 METAR LFPG 161000Z 21008KT 150V240 9999 FEW036 BKN260 23/12 Q1019 NOSIG
12-08-16 METAR LFPG 161030Z 24010KT 200V300 9999 FEW040 BKN260 23/11 Q1019 NOSIG
12-08-16 METAR LFPG 161100Z 21009KT 180V260 9999 SCT042 BKN260 23/11 Q1019 NOSIG
12-08-16 METAR LFPG 161130Z 22009KT 170V270 9999 FEW044 BKN260 23/11 Q1019 NOSIG
12-08-16 METAR LFPG 161200Z 23008KT 180V290 9999 FEW048 BKN260 24/11 Q1018 NOSIG
12-08-16 METAR LFPG 161230Z 24009KT 210V300 CAVOK 25/10 Q1018 NOSIG
12-08-16 METAR LFPG 161300Z 22009KT 170V280 CAVOK 25/09 Q1018 NOSIG
12-08-16 METAR LFPG 161330Z 23008KT 170V320 CAVOK 25/09 Q1018 NOSIG
12-08-16 METAR LFPG 161400Z 25007KT 190V290 CAVOK 25/08 Q1018 NOSIG
12-08-16 METAR LFPG 161430Z 18007G17KT 130V270 CAVOK 25/08 Q1018 NOSIG
12-08-16 METAR LFPG 161500Z 24009KT 200V280 CAVOK 26/08 Q1018 NOSIG
12-08-16 METAR LFPG 161530Z VRB03KT CAVOK 26/08 Q1018 NOSIG
12-08-16 METAR LFPG 161600Z 23005KT 190V280 CAVOK 26/07 Q1018 NOSIG
12-08-16 METAR LFPG 161630Z 18008KT CAVOK 26/07 Q1017 NOSIG
12-08-16 METAR LFPG 161700Z 18006KT CAVOK 26/08 Q1017 NOSIG
12-08-16 METAR LFPG 161730Z 17004KT 120V200 CAVOK 25/08 Q1017 NOSIG
12-08-16 METAR LFPG 161800Z 14010KT CAVOK 25/08 Q1017 NOSIG
12-08-16 METAR LFPG 161830Z 15003KT 110V200 CAVOK 25/07 Q1017 NOSIG
12-08-16 METAR LFPG 161900Z 16005KT 100V180 CAVOK 24/09 Q1017 NOSIG
12-08-16 METAR LFPG 161930Z 15007KT CAVOK 23/10 Q1017 NOSIG
12-08-16 METAR LFPG 162000Z 15007KT CAVOK 23/10 Q1018 NOSIG
12-08-16 METAR LFPG 162030Z 16006KT CAVOK 23/10 Q1018 NOSIG
12-08-16 METAR LFPG 162100Z 15006KT CAVOK 22/11 Q1018 NOSIG
12-08-16 METAR LFPG 162130Z 15005KT CAVOK 22/11 Q1018 NOSIG
12-08-16 METAR LFPG 162200Z 13007KT CAVOK 22/10 Q1018 NOSIG
12-08-16 METAR LFPG 162230Z 15007KT CAVOK 21/10 Q1018 NOSIG
12-08-16 METAR LFPG 162300Z 13006KT CAVOK 21/10 Q1018 NOSIG
12-08-16 METAR LFPG 162330Z 13007KT CAVOK 21/10 Q1017 NOSIG
12-08-17 METAR LFPG 170000Z 13009KT CAVOK 20/10 Q1018 NOSIG
12-08-17 METAR LFPG 170030Z 13008KT CAVOK 20/10 Q1018 NOSIG
12-08-17 METAR LFPG 170100Z 14007KT CAVOK 19/10 Q1018 NOSIG
12-08-17 METAR LFPG 170130Z 13008KT CAVOK 19/10 Q1018 NOSIG
12-08-17 METAR LFPG 170200Z 14008KT CAVOK 19/10 Q1018 NOSIG
12-08-17 METAR LFPG 170230Z 13008KT CAVOK 18/10 Q1018 NOSIG
12-08-17 METAR LFPG 170300Z 13008KT CAVOK 18/11 Q1017 NOSIG
12-08-17 METAR LFPG 170330Z 13006KT CAVOK 18/10 Q1017 NOSIG
12-08-17 METAR LFPG 170400Z 14007KT CAVOK 18/10 Q1017 NOSIG
12-08-17 METAR LFPG 170430Z 13007KT CAVOK 17/10 Q1017 NOSIG
12-08-17 METAR LFPG 170500Z 13007KT CAVOK 17/11 Q1017 NOSIG
12-08-17 METAR LFPG 170530Z 14005KT CAVOK 17/11 Q1017 NOSIG
12-08-17 METAR LFPG 170600Z 14007KT 110V170 CAVOK 18/11 Q1017 NOSIG
12-08-17 METAR LFPG 170630Z 14008KT CAVOK 19/11 Q1018 NOSIG
12-08-17 METAR LFPG 170700Z 14008KT 100V160 CAVOK 20/12 Q1018 NOSIG
12-08-17 METAR LFPG 170730Z 16008KT 120V190 CAVOK 21/12 Q1018 NOSIG
12-08-17 METAR LFPG 170800Z 16009KT 130V190 CAVOK 22/11 Q1018 NOSIG
12-08-17 METAR LFPG 170830Z 16008KT 120V210 CAVOK 23/12 Q1018 NOSIG
12-08-17 METAR LFPG 170900Z 17009KT 140V200 CAVOK 24/12 Q1018 NOSIG
12-08-17 METAR LFPG 170930Z 16008KT 110V200 CAVOK 26/12 Q1018 NOSIG
12-08-17 METAR LFPG 171000Z 16008KT 100V210 CAVOK 26/12 Q1018 NOSIG
12-08-17 METAR LFPG 171030Z VRB06KT CAVOK 27/12 Q1018 NOSIG
12-08-17 METAR LFPG 171100Z 16007KT 110V230 CAVOK 28/11 Q1018 NOSIG
12-08-17 METAR LFPG 171130Z 18010KT 120V220 CAVOK 29/11 Q1018 NOSIG
12-08-17 METAR LFPG 171200Z 17008KT 100V210 CAVOK 29/10 Q1018 NOSIG
12-08-17 METAR LFPG 171230Z 16010KT 100V190 CAVOK 30/10 Q1017 NOSIG
12-08-17 METAR LFPG 171300Z 17009KT 110V210 CAVOK 31/10 Q1017 NOSIG
12-08-17 METAR LFPG 171330Z 17008KT 100V210 CAVOK 31/10 Q1017 NOSIG
12-08-17 METAR LFPG 171400Z 15007KT 110V180 CAVOK 31/09 Q1017 NOSIG
12-08-17 METAR LFPG 171430Z 15008KT 090V220 CAVOK 32/10 Q1016 NOSIG
12-08-17 METAR LFPG 171500Z 13008KT 100V170 CAVOK 32/10 Q1016 NOSIG
12-08-17 METAR LFPG 171530Z 15008KT 110V180 CAVOK 31/10 Q1016 NOSIG
12-08-17 METAR LFPG 171600Z 16007KT 110V190 CAVOK 31/10 Q1016 NOSIG
12-08-17 METAR LFPG 171630Z 14007KT 110V170 CAVOK 31/10 Q1016 NOSIG
12-08-17 METAR LFPG 171700Z 12010KT CAVOK 31/09 Q1016 NOSIG
12-08-17 METAR LFPG 171730Z 13010KT CAVOK 31/10 Q1016 NOSIG
12-08-17 METAR LFPG 171800Z 13011KT CAVOK 30/09 Q1016 NOSIG
12-08-17 METAR LFPG 171830Z 12010KT CAVOK 30/09 Q1016 NOSIG
12-08-17 METAR LFPG 171900Z 10009KT CAVOK 29/09 Q1016 NOSIG
12-08-17 METAR LFPG 171930Z 09009KT CAVOK 28/09 Q1016 NOSIG
12-08-17 METAR LFPG 172000Z 10009KT CAVOK 28/08 Q1016 NOSIG
12-08-17 METAR LFPG 172030Z 10009KT CAVOK 27/08 Q1016 NOSIG
12-08-17 METAR LFPG 172100Z 10008KT CAVOK 27/08 Q1016 NOSIG
12-08-17 METAR LFPG 172130Z 10009KT CAVOK 26/08 Q1016 NOSIG
12-08-17 METAR LFPG 172200Z 11010KT CAVOK 26/08 Q1016 NOSIG
12-08-17 METAR LFPG 172230Z 10009KT CAVOK 25/09 Q1016 NOSIG
12-08-17 METAR LFPG 172300Z 11010KT CAVOK 24/09 Q1016 NOSIG
12-08-17 METAR LFPG 172330Z 12009KT CAVOK 24/09 Q1016 NOSIG
12-08-18 METAR LFPG 180000Z 12011KT CAVOK 23/10 Q1016 NOSIG
12-08-18 METAR LFPG 180030Z 13010KT CAVOK 23/11 Q1015 NOSIG
12-08-18 METAR LFPG 180100Z 13009KT CAVOK 22/11 Q1015 NOSIG
12-08-18 METAR LFPG 180130Z 13009KT CAVOK 22/12 Q1015 NOSIG
12-08-18 METAR LFPG 180200Z 12009KT CAVOK 22/11 Q1015 NOSIG
12-08-18 METAR LFPG 180230Z 13009KT CAVOK 22/12 Q1015 NOSIG
12-08-18 METAR LFPG 180300Z 13010KT CAVOK 21/12 Q1015 NOSIG
12-08-18 METAR LFPG 180330Z 12010KT CAVOK 21/12 Q1015 NOSIG
12-08-18 METAR LFPG 180400Z 13010KT CAVOK 21/12 Q1015 NOSIG
12-08-18 METAR LFPG 180430Z 13009KT CAVOK 20/12 Q1015 NOSIG
12-08-18 METAR LFPG 180500Z 12009KT CAVOK 20/12 Q1015 NOSIG
12-08-18 METAR LFPG 180530Z 12008KT CAVOK 20/12 Q1015 NOSIG
12-08-18 METAR LFPG 180600Z 14008KT 100V160 CAVOK 21/12 Q1015 NOSIG
12-08-18 METAR LFPG 180630Z 14006KT 100V170 CAVOK 21/13 Q1015 NOSIG
12-08-18 METAR LFPG 180700Z 14007KT CAVOK 22/13 Q1015 NOSIG
12-08-18 METAR LFPG 180730Z 14006KT CAVOK 23/13 Q1015 NOSIG
12-08-18 METAR LFPG 180800Z 15007KT 110V170 CAVOK 24/14 Q1015 NOSIG
12-08-18 METAR LFPG 180830Z 14008KT 100V190 CAVOK 25/14 Q1015 NOSIG
12-08-18 METAR LFPG 180900Z 18006KT 150V220 CAVOK 27/14 Q1016 NOSIG
12-08-18 METAR LFPG 180930Z VRB06KT CAVOK 28/14 Q1016 NOSIG
12-08-18 METAR LFPG 181000Z VRB05KT CAVOK 29/13 Q1016 NOSIG
12-08-18 METAR LFPG 181030Z 13004KT 060V200 CAVOK 30/14 Q1015 NOSIG
12-08-18 METAR LFPG 181100Z VRB04KT CAVOK 31/13 Q1015 NOSIG
12-08-18 METAR LFPG 181130Z 21004KT 170V270 CAVOK 32/13 Q1015 NOSIG
12-08-18 METAR LFPG 181200Z 18003KT 110V240 CAVOK 33/14 Q1015 NOSIG
12-08-18 METAR LFPG 181230Z VRB04KT CAVOK 34/13 Q1015 NOSIG
12-08-18 METAR LFPG 181300Z 15005KT 120V210 CAVOK 35/12 Q1015 NOSIG
12-08-18 METAR LFPG 181330Z 15005KT 070V190 CAVOK 36/11 Q1015 NOSIG
12-08-18 METAR LFPG 181400Z 16006KT 100V200 CAVOK 36/12 Q1015 NOSIG
12-08-18 METAR LFPG 181430Z 14008KT 100V200 CAVOK 37/13 Q1014 NOSIG
12-08-18 METAR LFPG 181500Z 13009KT 100V170 CAVOK 37/13 Q1014 NOSIG
12-08-18 METAR LFPG 181530Z 14007KT 090V180 CAVOK 37/13 Q1014 NOSIG
12-08-18 METAR LFPG 181600Z 14010KT 120V190 CAVOK 37/12 Q1014 NOSIG
12-08-18 METAR LFPG 181630Z 14009KT 100V170 CAVOK 37/12 Q1014 NOSIG
12-08-18 METAR LFPG 181700Z 14011KT CAVOK 37/11 Q1014 NOSIG
12-08-18 METAR LFPG 181730Z 14009KT CAVOK 36/12 Q1014 NOSIG
12-08-18 METAR LFPG 181800Z 14008KT CAVOK 36/11 Q1014 NOSIG
12-08-18 METAR LFPG 181830Z 13007KT CAVOK 35/12 Q1014 NOSIG
12-08-18 METAR LFPG 181900Z 12007KT CAVOK 34/11 Q1014 NOSIG
12-08-18 METAR LFPG 181930Z 11006KT CAVOK 33/11 Q1014 NOSIG
12-08-18 METAR LFPG 182000Z 11008KT CAVOK 32/12 Q1014 NOSIG
12-08-18 METAR LFPG 182030Z 11006KT CAVOK 32/12 Q1014 NOSIG
12-08-18 METAR LFPG 182100Z 11008KT CAVOK 31/12 Q1014 NOSIG
12-08-18 METAR LFPG 182130Z 11008KT CAVOK 31/12 Q1014 NOSIG
12-08-18 METAR LFPG 182200Z 12009KT CAVOK 29/12 Q1015 NOSIG
12-08-18 METAR LFPG 182230Z 13007KT CAVOK 29/12 Q1015 NOSIG
12-08-18 METAR LFPG 182300Z 16004KT CAVOK 28/12 Q1015 NOSIG
12-08-18 METAR LFPG 182330Z 12004KT CAVOK 27/12 Q1015 NOSIG
12-08-19 METAR LFPG 190000Z 12006KT CAVOK 27/12 Q1015 NOSIG
12-08-19 METAR LFPG 190030Z 14006KT CAVOK 27/13 Q1014 NOSIG
12-08-19 METAR LFPG 190100Z 14007KT CAVOK 26/13 Q1015 NOSIG
12-08-19 METAR LFPG 190130Z 15005KT CAVOK 25/13 Q1015 NOSIG
12-08-19 METAR LFPG 190200Z 16007KT CAVOK 25/14 Q1015 NOSIG
12-08-19 METAR LFPG 190230Z 17005KT CAVOK 25/14 Q1015 NOSIG
12-08-19 METAR LFPG 190300Z 24006KT CAVOK 23/15 Q1015 NOSIG
12-08-19 METAR LFPG 190330Z 28004KT CAVOK 22/15 Q1015 NOSIG
12-08-19 METAR LFPG 190400Z 32001KT CAVOK 21/15 Q1015 NOSIG
12-08-19 METAR LFPG 190430Z 28004KT CAVOK 20/15 Q1015 NOSIG
12-08-19 METAR LFPG 190500Z 27003KT CAVOK 20/15 Q1015 NOSIG
12-08-19 METAR LFPG 190530Z 35003KT CAVOK 19/15 Q1015 NOSIG
12-08-19 METAR LFPG 190600Z 29002KT CAVOK 19/14 Q1016 NOSIG
12-08-19 METAR LFPG 190630Z 22004KT CAVOK 20/14 Q1016 NOSIG
12-08-19 METAR LFPG 190700Z 22004KT CAVOK 21/14 Q1016 NOSIG
12-08-19 METAR LFPG 190730Z 27004KT 250V310 CAVOK 22/15 Q1016 NOSIG
12-08-19 METAR LFPG 190800Z 00000KT CAVOK 24/15 Q1016 NOSIG
12-08-19 METAR LFPG 190830Z 13005KT 080V180 CAVOK 25/16 Q1016 NOSIG
12-08-19 METAR LFPG 190900Z VRB06KT CAVOK 27/17 Q1016 NOSIG
12-08-19 METAR LFPG 190930Z 19004KT 140V310 CAVOK 28/17 Q1016 NOSIG
12-08-19 METAR LFPG 191000Z VRB06KT CAVOK 29/16 Q1016 NOSIG
12-08-19 METAR LFPG 191030Z 20007KT 160V230 CAVOK 31/16 Q1016 NOSIG
12-08-19 METAR LFPG 191100Z 21007KT 170V260 CAVOK 32/15 Q1016 NOSIG
12-08-19 METAR LFPG 191130Z 22005KT 160V260 CAVOK 33/15 Q1016 NOSIG
12-08-19 METAR LFPG 191230Z 15006KT 100V230 CAVOK 35/16 Q1015 NOSIG
12-08-19 METAR LFPG 191300Z VRB07G18KT CAVOK 35/15 Q1015 NOSIG
12-08-19 METAR LFPG 191330Z 17009KT CAVOK 35/16 Q1015 NOSIG
12-08-19 METAR LFPG 191400Z 17008KT 100V220 CAVOK 35/16 Q1015 NOSIG
12-08-19 METAR LFPG 191430Z 16010KT 130V190 CAVOK 36/16 Q1015 NOSIG
12-08-19 METAR LFPG 191500Z 15009KT 070V190 CAVOK 36/15 Q1014 NOSIG
12-08-19 METAR LFPG 191530Z 18007KT 130V210 CAVOK 37/13 Q1015 NOSIG
12-08-19 METAR LFPG 191600Z 23012KT CAVOK 36/12 Q1015 NOSIG
12-08-19 METAR LFPG 191630Z 25010KT CAVOK 36/13 Q1015 NOSIG
12-08-19 METAR LFPG 191700Z 25009KT CAVOK 36/13 Q1015 NOSIG
12-08-19 METAR LFPG 191730Z 27007KT CAVOK 35/14 Q1015 NOSIG
12-08-19 METAR LFPG 191800Z 30007KT 270V340 CAVOK 33/17 Q1015 NOSIG
12-08-19 METAR LFPG 191830Z 26007KT CAVOK 32/17 Q1015 NOSIG
12-08-19 METAR LFPG 191900Z 29005KT 260V330 CAVOK 31/18 Q1015 NOSIG
12-08-19 METAR LFPG 191930Z 30006KT CAVOK 30/19 Q1016 NOSIG
12-08-19 METAR LFPG 192000Z 33005KT CAVOK 29/19 Q1016 NOSIG
12-08-19 METAR LFPG 192030Z 30006KT CAVOK 27/19 Q1017 NOSIG
12-08-19 METAR LFPG 192100Z 29007KT CAVOK 27/20 Q1017 NOSIG
12-08-19 METAR LFPG 192130Z 29008KT CAVOK 26/20 Q1017 NOSIG
12-08-19 METAR LFPG 192200Z 30010KT CAVOK 25/19 Q1018 NOSIG
12-08-19 METAR LFPG 192230Z 30006KT CAVOK 24/19 Q1018 NOSIG
12-08-19 METAR LFPG 192300Z 30007KT CAVOK 24/19 Q1018 NOSIG
12-08-19 METAR LFPG 192330Z 30007KT CAVOK 23/18 Q1019 NOSIG
12-08-20 METAR LFPG 200000Z 27006KT CAVOK 22/16 Q1019 NOSIG
12-08-20 METAR LFPG 200030Z 30005KT CAVOK 22/16 Q1019 NOSIG
12-08-20 METAR LFPG 200100Z 30007KT CAVOK 21/16 Q1019 NOSIG
12-08-20 METAR LFPG 200130Z 30003KT CAVOK 20/16 Q1019 NOSIG
12-08-20 METAR LFPG 200200Z 27004KT CAVOK 20/16 Q1019 NOSIG
12-08-20 METAR LFPG 200230Z VRB02KT CAVOK 20/16 Q1019 NOSIG
12-08-20 METAR LFPG 200300Z VRB01KT CAVOK 19/16 Q1019 NOSIG
12-08-20 METAR LFPG 200330Z 00000KT CAVOK 19/16 Q1019 NOSIG
12-08-20 METAR LFPG 200400Z 29003KT CAVOK 19/16 Q1020 NOSIG
12-08-20 METAR LFPG 200430Z 32003KT CAVOK 19/16 Q1020 NOSIG
12-08-20 METAR LFPG 200500Z 00000KT CAVOK 18/15 Q1020 NOSIG
12-08-20 METAR LFPG 200630Z VRB02KT CAVOK 20/17 Q1020 NOSIG
12-08-20 METAR LFPG 200700Z 36003KT CAVOK 20/17 Q1020 NOSIG
12-08-20 METAR LFPG 200730Z 00000KT CAVOK 22/16 Q1021 NOSIG
12-08-20 METAR LFPG 200800Z VRB02KT CAVOK 23/16 Q1022 NOSIG
12-08-20 METAR LFPG 200830Z 15004KT 090V190 9999 FEW100TCU SCT140 BKN220 23/16 Q1022 NOSIG
12-08-20 METAR LFPG 200900Z 12004KT 050V170 9999 FEW100TCU SCT140 BKN220 24/15 Q1022
12-08-20 METAR LFPG 200930Z VRB03KT 9999 FEW100TCU SCT130 BKN220 25/15 Q1021 NOSIG
12-08-20 METAR LFPG 201000Z VRB03KT 9999 FEW040 FEW100TCU BKN120 BKN220 26/14 Q1021
12-08-20 METAR LFPG 201030Z VRB03KT 9999 FEW086TCU SCT093 BKN220 27/14 Q1021 NOSIG
12-08-20 METAR LFPG 201100Z VRB03KT 9999 FEW086TCU BKN093 BKN220 27/12 Q1021 NOSIG
12-08-20 METAR LFPG 201130Z VRB02KT 9999 FEW086TCU BKN093 BKN220 28/13 Q1021 NOSIG
12-08-20 METAR LFPG 201200Z 31009KT 280V340 9999 FEW086TCU SCT093 BKN140 27/14 Q1021
12-08-20 METAR LFPG 201230Z 33006KT 300V020 9999 VCTS FEW086TCU SCT093 BKN120 26/17 Q1021 NOSIG
12-08-20 METAR LFPG 201300Z 34004KT 310V030 9999 3000SO R09R/1300VP2000D TSRA FEW040CB SCT093 24/18 Q1021 NOSIG
12-08-20 METAR LFPG 201330Z 03004KT 9999 FEW040CB SCT096 24/19 Q1021 RETS NOSIG
12-08-20 METAR LFPG 201500Z 01005KT 350V050 CAVOK 27/16 Q1020 NOSIG
12-08-20 METAR LFPG 201530Z 34004KT 310V030 CAVOK 27/15 Q1020 NOSIG
12-08-20 METAR LFPG 201600Z 34005KT 300V040 CAVOK 27/15 Q1020 NOSIG
12-08-20 METAR LFPG 201630Z 32005KT 290V020 CAVOK 27/15 Q1020 NOSIG
12-08-20 METAR LFPG 201700Z 01003KT CAVOK 27/15 Q1020 NOSIG
12-08-20 METAR LFPG 201730Z 01004KT CAVOK 27/15 Q1020 NOSIG
12-08-20 METAR LFPG 201800Z 01004KT CAVOK 26/15 Q1020 NOSIG
12-08-20 METAR LFPG 201830Z 06005KT CAVOK 25/16 Q1020 NOSIG
12-08-20 METAR LFPG 201900Z 06005KT CAVOK 25/16 Q1020 NOSIG
12-08-20 METAR LFPG 201930Z 06005KT CAVOK 24/16 Q1020 NOSIG
12-08-20 METAR LFPG 202000Z 01005KT 340V090 CAVOK 23/16 Q1020 NOSIG
12-08-20 METAR LFPG 202030Z 02006KT 010V100 CAVOK 23/17 Q1020 NOSIG
12-08-20 METAR LFPG 202100Z 02006KT 360V110 CAVOK 22/16 Q1020 NOSIG
12-08-20 METAR LFPG 202130Z 01006KT 340V090 CAVOK 22/17 Q1020 NOSIG
12-08-20 METAR LFPG 202200Z 01008KT 320V120 CAVOK 21/17 Q1021 NOSIG
12-08-20 METAR LFPG 202230Z 01008KT 350V150 CAVOK 21/16 Q1021 NOSIG
12-08-20 METAR LFPG 202300Z 01007KT CAVOK 20/16 Q1021 NOSIG
12-08-20 METAR LFPG 202330Z 01007KT CAVOK 20/16 Q1020 NOSIG
12-08-21 METAR LFPG 210000Z 01006KT CAVOK 19/16 Q1020 NOSIG
12-08-21 METAR LFPG 210030Z 01007KT CAVOK 19/16 Q1020 NOSIG
12-08-21 METAR LFPG 210100Z 01007KT CAVOK 19/15 Q1020 NOSIG
12-08-21 METAR LFPG 210130Z 01007KT CAVOK 18/15 Q1020 NOSIG
12-08-21 METAR LFPG 210200Z 01008KT CAVOK 18/15 Q1019 NOSIG
12-08-21 METAR LFPG 210230Z 01006KT CAVOK 18/15 Q1019 NOSIG
12-08-21 METAR LFPG 210300Z 01006KT CAVOK 18/15 Q1019 NOSIG
12-08-21 METAR LFPG 210330Z 01007KT CAVOK 18/15 Q1019 NOSIG
12-08-21 METAR LFPG 210400Z 01006KT CAVOK 18/15 Q1019 NOSIG
12-08-21 METAR LFPG 210430Z 36005KT CAVOK 18/15 Q1019 NOSIG
12-08-21 METAR LFPG 210500Z 01006KT 360V110 CAVOK 18/15 Q1019 NOSIG
12-08-21 METAR LFPG 210530Z 01007KT 350V070 CAVOK 18/15 Q1019 NOSIG
12-08-21 METAR LFPG 210600Z 01006KT 330V050 CAVOK 18/16 Q1019 NOSIG
12-08-21 METAR LFPG 210630Z 01008KT 320V070 CAVOK 19/16 Q1019 NOSIG
12-08-21 METAR LFPG 210800Z 01008KT CAVOK 22/16 Q1018 NOSIG
12-08-21 METAR LFPG 210830Z 01008KT CAVOK 22/16 Q1018 NOSIG
12-08-21 METAR LFPG 210900Z 01006KT 320V040 9999 FEW049 SCT180 23/17 Q1018 NOSIG
12-08-21 METAR LFPG 210930Z 02007KT 340V050 9999 FEW045 SCT260 24/17 Q1018 NOSIG
12-08-21 METAR LFPG 211000Z 02007KT 330V060 CAVOK 25/17 Q1018 NOSIG
12-08-21 METAR LFPG 211030Z 01005KT 320V100 CAVOK 25/17 Q1017 NOSIG
12-08-21 METAR LFPG 211100Z 05004KT 340V090 CAVOK 26/16 Q1017 NOSIG
12-08-21 METAR LFPG 211130Z 35003KT 240V050 CAVOK 27/16 Q1017 NOSIG
12-08-21 METAR LFPG 211200Z 01005KT 310V070 9999 FEW046 27/16 Q1017 NOSIG
12-08-21 METAR LFPG 211230Z VRB02KT 9999 FEW042 29/15 Q1017 NOSIG
12-08-21 METAR LFPG 211300Z VRB05KT 9999 SCT043 29/16 Q1016 NOSIG
12-08-21 METAR LFPG 211330Z 21003KT 200V310 9999 SCT047 29/16 Q1016 NOSIG
12-08-21 METAR LFPG 211400Z 33005KT 280V020 CAVOK 28/16 Q1016 NOSIG
12-08-21 METAR LFPG 211430Z 31006KT 270V350 CAVOK 29/16 Q1016 NOSIG
12-08-21 METAR LFPG 211500Z 31006KT 270V010 CAVOK 29/16 Q1015 NOSIG
12-08-21 METAR LFPG 211530Z 32006KT 300V010 CAVOK 28/15 Q1015 NOSIG
12-08-21 METAR LFPG 211600Z 31005KT 270V010 CAVOK 29/15 Q1015 NOSIG
12-08-21 METAR LFPG 211630Z 34007KT 320V050 CAVOK 28/15 Q1015 NOSIG
12-08-21 METAR LFPG 211700Z 34006KT 320V060 CAVOK 28/16 Q1015 NOSIG
12-08-21 METAR LFPG 211730Z 36005KT 340V050 CAVOK 27/16 Q1014 NOSIG
12-08-21 METAR LFPG 211800Z 36005KT CAVOK 27/16 Q1015 NOSIG
12-08-21 METAR LFPG 211830Z 33004KT CAVOK 26/16 Q1015 NOSIG
12-08-21 METAR LFPG 211900Z 33008KT 290V350 CAVOK 25/15 Q1015 NOSIG
12-08-21 METAR LFPG 211930Z 35011KT CAVOK 23/14 Q1016 NOSIG
12-08-21 METAR LFPG 212000Z 33011KT CAVOK 22/13 Q1017 NOSIG
12-08-21 METAR LFPG 212030Z 33010KT 9999 BKN046 BKN070 BKN080 21/12 Q1017 NOSIG
12-08-21 METAR LFPG 212100Z 32011KT 9999 BKN046 BKN070 21/12 Q1018 NOSIG
12-08-21 METAR LFPG 212130Z 32008KT 9999 SCT044 BKN060 BKN140 20/12 Q1018 NOSIG
12-08-21 METAR LFPG 212200Z 31010KT 9999 SCT040 BKN060 BKN130 20/11 Q1018 NOSIG
12-08-21 METAR LFPG 212230Z 31011KT 9999 BKN040 BKN056 BKN130 19/10 Q1018 NOSIG
12-08-21 METAR LFPG 212300Z 31009KT 9999 BKN040 BKN056 BKN130 19/10 Q1018 NOSIG
12-08-21 METAR LFPG 212330Z 31009KT 9999 SCT040 SCT060 18/09 Q1018 NOSIG
12-08-22 METAR LFPG 220000Z 31008KT 9999 SCT046 SCT060 17/10 Q1019 NOSIG
12-08-22 METAR LFPG 220030Z 31007KT 9999 SCT046 SCT060 16/10 Q1019 NOSIG
12-08-22 METAR LFPG 220100Z 31006KT 9999 FEW046 16/11 Q1019 NOSIG
12-08-22 METAR LFPG 220130Z 30004KT 9999 FEW046 16/11 Q1019 NOSIG
12-08-22 METAR LFPG 220200Z 30004KT 9999 FEW046 15/11 Q1019 NOSIG
12-08-22 METAR LFPG 220230Z 28004KT CAVOK 15/11 Q1019 NOSIG
12-08-22 METAR LFPG 220300Z 29006KT 260V320 9999 BKN013 15/12 Q1019 NOSIG
12-08-22 METAR LFPG 220330Z 27005KT 9999 BKN013 15/12 Q1019 NOSIG
12-08-22 METAR LFPG 220400Z 27006KT 9999 SCT013 15/12 Q1019 NOSIG
12-08-22 METAR LFPG 220430Z 28004KT 250V310 9999 BKN012 15/12 Q1020 NOSIG
12-08-22 METAR LFPG 220500Z 29007KT 9999 BKN011 15/13 Q1020 NOSIG
12-08-22 METAR LFPG 220530Z 27006KT 240V300 9999 SCT011 15/12 Q1020 NOSIG
12-08-22 METAR LFPG 220600Z 28006KT 9999 BKN011 15/12 Q1020 NOSIG
12-08-22 METAR LFPG 220630Z 29007KT 260V320 9999 BKN011 15/12 Q1021 NOSIG
12-08-22 METAR LFPG 220700Z 27006KT 250V310 9999 BKN013 16/12 Q1021 NOSIG
12-08-22 METAR LFPG 220730Z 29006KT 250V330 9999 BKN013 16/12 Q1021 NOSIG
12-08-22 METAR LFPG 220800Z 30007KT 270V330 9999 BKN016 17/12 Q1021 NOSIG
12-08-22 METAR LFPG 220830Z 32008KT 280V360 9999 BKN019 BKN260 18/12 Q1021 NOSIG
12-08-22 METAR LFPG 220900Z 29006KT 240V340 9999 BKN020 BKN260 18/12 Q1021 NOSIG
12-08-22 METAR LFPG 220930Z 29006KT 260V320 9999 SCT025 BKN260 19/11 Q1021 NOSIG
12-08-22 METAR LFPG 221000Z 27008KT 230V310 9999 SCT027 BKN260 20/11 Q1021 NOSIG
12-08-22 METAR LFPG 221030Z 27006KT 220V350 9999 SCT027 BKN260 20/11 Q1021 NOSIG
12-08-22 METAR LFPG 221100Z 30007KT 260V350 9999 FEW027 BKN260 21/10 Q1021 NOSIG
12-08-22 METAR LFPG 221130Z 29007KT 240V320 9999 FEW036 BKN260 21/09 Q1020 NOSIG
12-08-22 METAR LFPG 221200Z 28008KT 230V320 9999 FEW040 BKN260 22/09 Q1020 NOSIG
12-08-22 METAR LFPG 221230Z 30008KT 260V330 9999 FEW040 BKN250 22/09 Q1020 NOSIG
12-08-22 METAR LFPG 221300Z 29006G17KT 200V360 9999 FEW040 BKN250 23/08 Q1020 NOSIG
12-08-22 METAR LFPG 221330Z 34004KT 280V060 9999 FEW040 BKN250 22/09 Q1020 NOSIG
12-08-22 METAR LFPG 221400Z 34006KT 300V040 CAVOK 23/09 Q1020 NOSIG
12-08-22 METAR LFPG 221430Z VRB02KT CAVOK 23/09 Q1019 NOSIG
12-08-22 METAR LFPG 221500Z 27005KT 200V300 CAVOK 23/06 Q1019 NOSIG
12-08-22 METAR LFPG 221530Z 26005KT 150V310 CAVOK 23/07 Q1019 NOSIG
12-08-22 METAR LFPG 221600Z 27004KT 160V330 CAVOK 23/07 Q1019 NOSIG
12-08-22 METAR LFPG 221630Z 32006KT 300V010 CAVOK 23/08 Q1019 NOSIG
12-08-22 METAR LFPG 221700Z 28006KT 240V310 CAVOK 23/08 Q1018 NOSIG
12-08-22 METAR LFPG 221730Z 31004KT 280V340 CAVOK 23/08 Q1018 NOSIG
12-08-22 METAR LFPG 221800Z 32004KT 280V350 CAVOK 23/08 Q1018 NOSIG
12-08-22 METAR LFPG 221830Z 31005KT CAVOK 22/08 Q1018 NOSIG
12-08-22 METAR LFPG 221900Z 32006KT CAVOK 21/09 Q1019 NOSIG
12-08-22 METAR LFPG 221930Z 34007KT CAVOK 20/10 Q1019 NOSIG
12-08-22 METAR LFPG 222000Z 34007KT CAVOK 19/10 Q1019 NOSIG
12-08-22 METAR LFPG 222030Z 36007KT 340V040 CAVOK 18/10 Q1019 NOSIG
12-08-22 METAR LFPG 222100Z 02007KT CAVOK 17/10 Q1019 NOSIG
12-08-22 METAR LFPG 222130Z 01005KT CAVOK 17/10 Q1020 NOSIG
12-08-22 METAR LFPG 222200Z 01006KT CAVOK 16/10 Q1020 NOSIG
12-08-22 METAR LFPG 222230Z 01005KT CAVOK 16/10 Q1020 NOSIG
12-08-22 METAR LFPG 222300Z 01004KT CAVOK 15/10 Q1020 NOSIG
12-08-22 METAR LFPG 222330Z 33002KT CAVOK 15/10 Q1019 NOSIG
12-08-23 METAR LFPG 230000Z 00000KT CAVOK 15/10 Q1019 NOSIG
12-08-23 METAR LFPG 230030Z 00000KT CAVOK 15/10 Q1019 NOSIG
12-08-23 METAR LFPG 230100Z 33003KT CAVOK 15/10 Q1019 NOSIG
12-08-23 METAR LFPG 230130Z 32001KT CAVOK 14/09 Q1019 NOSIG
12-08-23 METAR LFPG 230200Z 34003KT CAVOK 14/10 Q1019 NOSIG
12-08-23 METAR LFPG 230230Z 00000KT CAVOK 14/09 Q1018 NOSIG
12-08-23 METAR LFPG 230300Z 36003KT CAVOK 14/09 Q1018 NOSIG
12-08-23 METAR LFPG 230330Z VRB02KT CAVOK 13/09 Q1018 NOSIG
12-08-23 METAR LFPG 230400Z 02003KT 360V070 CAVOK 13/09 Q1018 NOSIG
12-08-23 METAR LFPG 230430Z 01003KT 350V080 CAVOK 13/09 Q1018 NOSIG
12-08-23 METAR LFPG 230500Z 01004KT 350V080 CAVOK 13/09 Q1018 NOSIG
12-08-23 METAR LFPG 230530Z 01003KT 340V120 CAVOK 13/10 Q1018 NOSIG
12-08-23 METAR LFPG 230600Z VRB02KT CAVOK 13/10 Q1018 NOSIG
12-08-23 METAR LFPG 230630Z VRB03KT CAVOK 14/10 Q1018 NOSIG
12-08-23 METAR LFPG 230700Z 03003KT 350V140 CAVOK 15/10 Q1018 NOSIG
12-08-23 METAR LFPG 230730Z 04003KT 360V090 CAVOK 16/11 Q1018 NOSIG
12-08-23 METAR LFPG 230800Z 03004KT 350V130 CAVOK 17/10 Q1018 NOSIG
12-08-23 METAR LFPG 230830Z 05005KT 010V090 CAVOK 18/10 Q1018 NOSIG
12-08-23 METAR LFPG 230900Z 06005KT 030V110 CAVOK 19/09 Q1017 NOSIG
12-08-23 METAR LFPG 230930Z 06005KT 350V090 CAVOK 19/09 Q1017 NOSIG
12-08-23 METAR LFPG 231000Z 03005KT 340V080 CAVOK 20/09 Q1017 NOSIG
12-08-23 METAR LFPG 231030Z 05005KT 360V100 CAVOK 20/09 Q1016 NOSIG
12-08-23 METAR LFPG 231100Z 06004KT 330V140 CAVOK 22/09 Q1016 NOSIG
12-08-23 METAR LFPG 231130Z VRB04KT 9999 FEW040 SCT260 23/09 Q1016 NOSIG
12-08-23 METAR LFPG 231200Z VRB05KT 9999 FEW046 23/09 Q1015 NOSIG
12-08-23 METAR LFPG 231230Z 10006KT 040V160 9999 FEW046 24/08 Q1015 NOSIG
12-08-23 METAR LFPG 231300Z VRB04KT CAVOK 23/08 Q1014 NOSIG
12-08-23 METAR LFPG 231330Z 05007KT 350V090 CAVOK 24/08 Q1013 NOSIG
12-08-23 METAR LFPG 231500Z 05005KT 020V100 CAVOK 23/08 Q1012 NOSIG
12-08-23 METAR LFPG 231530Z 03005KT 360V060 CAVOK 24/07 Q1012 NOSIG
12-08-23 METAR LFPG 231600Z 03007KT 360V170 9999 FEW060TCU BKN100 BKN140 24/08 Q1011 NOSIG
12-08-23 METAR LFPG 231630Z 03008KT 350V090 9999 FEW060TCU BKN100 BKN140 23/07 Q1011
12-08-23 METAR LFPG 231700Z 02008KT 360V070 9999 FEW060TCU BKN100 BKN220 23/08 Q1010
12-08-23 METAR LFPG 231730Z 02008KT 350V100 CAVOK 23/08 Q1010 NOSIG
12-08-23 METAR LFPG 231800Z 01008G19KT 9999 SCT066TCU BKN095 22/10 Q1010 NOSIG
12-08-23 METAR LFPG 231830Z 02007KT 010V120 9999 FEW059TCU BKN059 BKN095 21/10 Q1010
12-08-23 METAR LFPG 231900Z 01007KT 350V150 CAVOK 21/09 Q1010 NOSIG
12-08-23 METAR LFPG 231930Z 02006KT CAVOK 21/10 Q1010 NOSIG
12-08-23 METAR LFPG 232000Z 02008KT 360V170 CAVOK 21/10 Q1009 NOSIG
12-08-23 METAR LFPG 232030Z 02007KT 350V100 CAVOK 20/10 Q1010 NOSIG
12-08-23 METAR LFPG 232100Z 02008KT CAVOK 20/10 Q1009 NOSIG
12-08-23 METAR LFPG 232130Z 36005KT 9999 VCSH NSC 20/10 Q1009 NOSIG
12-08-23 METAR LFPG 232200Z 01005KT 340V060 9999 -SHRA FEW053TCU BKN061 20/10 Q1010
12-08-23 METAR LFPG 232230Z 06008KT 020V090 CAVOK 18/12 Q1009 NOSIG
12-08-23 METAR LFPG 232300Z 04007KT 010V100 CAVOK 18/12 Q1009 NOSIG
12-08-23 METAR LFPG 232330Z 03005KT CAVOK 17/12 Q1009 NOSIG
12-08-24 METAR LFPG 240000Z 02005KT CAVOK 17/12 Q1009 NOSIG
12-08-24 METAR LFPG 240030Z 01005KT CAVOK 17/12 Q1008 NOSIG
12-08-24 METAR LFPG 240100Z 36005KT 340V040 CAVOK 17/13 Q1008 NOSIG
12-08-24 METAR LFPG 240130Z VRB03KT CAVOK 17/13 Q1008 NOSIG
12-08-24 METAR LFPG 240200Z VRB02KT CAVOK 16/13 Q1008 NOSIG
12-08-24 METAR LFPG 240230Z 31003KT CAVOK 16/13 Q1008 NOSIG
12-08-24 METAR LFPG 240300Z 31003KT 270V340 CAVOK 16/12 Q1008 NOSIG
12-08-24 METAR LFPG 240330Z 00000KT CAVOK 15/12 Q1008 NOSIG
12-08-24 METAR LFPG 240400Z VRB02KT CAVOK 15/13 Q1008 NOSIG
12-08-24 METAR LFPG 240430Z 28002KT CAVOK 16/13 Q1008 NOSIG
12-08-24 METAR LFPG 240500Z 29002KT CAVOK 16/13 Q1008 NOSIG
12-08-24 METAR LFPG 240530Z VRB01KT CAVOK 16/12 Q1008 NOSIG
12-08-24 METAR LFPG 240600Z 01002KT CAVOK 16/13 Q1008 NOSIG
12-08-24 METAR LFPG 240630Z VRB02KT CAVOK 16/13 Q1008 NOSIG
12-08-24 METAR LFPG 240700Z 00000KT CAVOK 17/13 Q1008 NOSIG
12-08-24 METAR LFPG 240730Z 00000KT CAVOK 17/13 Q1008 NOSIG
12-08-24 METAR LFPG 240800Z 14004KT 050V180 CAVOK 18/13 Q1008 NOSIG
12-08-24 METAR LFPG 240830Z 16003KT 100V190 CAVOK 19/13 Q1008 NOSIG
12-08-24 METAR LFPG 240900Z 19005KT 140V230 CAVOK 20/12 Q1008 NOSIG
12-08-24 METAR LFPG 240930Z 18007KT 150V210 CAVOK 21/12 Q1008 NOSIG
12-08-24 METAR LFPG 241000Z 19007KT 150V220 CAVOK 21/11 Q1008 NOSIG
12-08-24 METAR LFPG 241030Z 21008KT 110V270 CAVOK 22/11 Q1008 NOSIG
12-08-24 METAR LFPG 241100Z 23007KT 190V270 CAVOK 22/11 Q1008 NOSIG
12-08-24 METAR LFPG 241130Z 22009KT 9999 FEW023 SCT066 BKN100 21/12 Q1008 NOSIG
12-08-24 METAR LFPG 241200Z 21009G20KT 190V340 9999 FEW023 SCT073 BKN100 23/10 Q1008 NOSIG
12-08-24 METAR LFPG 241230Z 22011KT 180V260 9999 FEW043 SCT060 BKN110 24/11 Q1007
12-08-24 METAR LFPG 241300Z 22012KT 190V280 9999 FEW043 SCT060 BKN110 23/10 Q1007
12-08-24 METAR LFPG 241330Z 24008KT 200V280 9999 FEW047 SCT060 BKN110 23/10 Q1007
12-08-24 METAR LFPG 241500Z 26012KT 9999 FEW033 BKN096 21/11 Q1007 NOSIG
12-08-24 METAR LFPG 241530Z 28009KT 250V310 9999 FEW033 BKN100 21/11 Q1007 NOSIG
12-08-24 METAR LFPG 241600Z 26007KT 9000 -RA NSC 19/13 Q1007 NOSIG
12-08-24 METAR LFPG 241630Z 25007KT 9000 -RA NSC 18/13 Q1007 NOSIG
12-08-24 METAR LFPG 241700Z VRB03KT 9999 FEW046 SCT066 BKN093 18/14 Q1007 NOSIG
12-08-24 METAR LFPG 241730Z VRB02KT CAVOK 18/14 Q1006 NOSIG
12-08-24 METAR LFPG 241800Z 18003KT 140V200 CAVOK 18/14 Q1006 NOSIG
12-08-24 METAR LFPG 241830Z 20008KT 160V240 9999 FEW030 BKN100 18/14 Q1006 NOSIG
12-08-24 METAR LFPG 241900Z 22011KT 9999 FEW036 BKN100 18/12 Q1007 NOSIG
12-08-24 METAR LFPG 241930Z 21011KT 9999 FEW036 BKN049 BKN086 18/12 Q1007 NOSIG
12-08-24 METAR LFPG 242000Z 21010KT 190V260 CAVOK 18/12 Q1007 NOSIG
12-08-24 METAR LFPG 242030Z 21008KT CAVOK 18/12 Q1007 NOSIG
12-08-24 METAR LFPG 242100Z 20009KT 9999 BKN026 18/13 Q1007 NOSIG
12-08-24 METAR LFPG 242130Z 20010KT 9999 BKN027 18/13 Q1007 NOSIG
12-08-24 METAR LFPG 242200Z 19010KT 9999 BKN027 18/13 Q1007 NOSIG
12-08-24 METAR LFPG 242230Z 18010KT 9999 BKN025 18/13 Q1007 NOSIG
12-08-24 METAR LFPG 242300Z 18009KT 9999 BKN025 18/13 Q1007 NOSIG
12-08-24 METAR LFPG 242330Z 19010KT 9999 BKN020 17/14 Q1007 NOSIG
12-08-25 METAR LFPG 250000Z 19011KT 9999 FEW016 SCT021 17/14 Q1006 NOSIG
12-08-25 METAR LFPG 250030Z 19009KT 9999 FEW016 SCT040 17/14 Q1006 NOSIG
12-08-25 METAR LFPG 250100Z 19009KT 3500 -RA BKN013 17/14 Q1006 NOSIG
12-08-25 METAR LFPG 250130Z 19011KT 9999 FEW007 BKN033 17/15 Q1006 NOSIG
12-08-25 METAR LFPG 250200Z 20010KT 9999 FEW018 BKN033 17/15 Q1006 NOSIG
12-08-25 METAR LFPG 250230Z 21010KT 9999 FEW017 17/15 Q1006 NOSIG
12-08-25 METAR LFPG 250300Z 21010KT 9999 FEW015 17/14 Q1006 NOSIG
12-08-25 METAR LFPG 250330Z 20009KT 9999 FEW016 17/14 Q1006 NOSIG
12-08-25 METAR LFPG 250400Z 21013KT 9999 FEW013 17/14 Q1006 NOSIG
12-08-25 METAR LFPG 250430Z 21013KT 9999 BKN013 17/14 Q1007 NOSIG
12-08-25 METAR LFPG 250500Z 21016KT 9999 BKN013 SCT053 17/14 Q1007 NOSIG
12-08-25 METAR LFPG 250530Z 21012KT 9999 BKN013 SCT046 17/14 Q1007 NOSIG
12-08-25 METAR LFPG 250600Z 21015KT 9999 BKN013 17/14 Q1007 NOSIG
12-08-25 METAR LFPG 250630Z 21016KT 9999 BKN013 17/14 Q1007 NOSIG
12-08-25 METAR LFPG 250700Z 22014KT 9999 BKN016 18/14 Q1007 NOSIG
12-08-25 METAR LFPG 250730Z 22016KT 9999 BKN019 18/13 Q1008 NOSIG
12-08-25 METAR LFPG 250800Z 22016KT 190V260 9999 SCT022 SCT038 19/12 Q1008 NOSIG
12-08-25 METAR LFPG 250830Z 23018KT 9999 BKN028 19/12 Q1008 NOSIG
12-08-25 METAR LFPG 250900Z 24017KT 9999 BKN030 19/11 Q1008 NOSIG
12-08-25 METAR LFPG 250930Z 23014KT 9999 BKN030 20/12 Q1008 NOSIG
12-08-25 METAR LFPG 251000Z 23020KT 9999 BKN031 20/11 Q1008 NOSIG
12-08-25 METAR LFPG 251030Z 24017KT 210V270 9999 SCT037 SCT210 21/11 Q1008 NOSIG
12-08-25 METAR LFPG 251100Z 23022KT 9999 SCT040 22/10 Q1008 NOSIG
12-08-25 METAR LFPG 251130Z 22020KT 9999 SCT042 22/10 Q1008 NOSIG
12-08-25 METAR LFPG 251200Z 23018G29KT 190V260 9999 BKN046 23/10 Q1008 NOSIG
12-08-25 METAR LFPG 251230Z 23017KT 9999 SCT048 22/10 Q1008 NOSIG
12-08-25 METAR LFPG 251300Z 22023KT 200V260 9999 SCT049 23/09 Q1008 NOSIG
12-08-25 METAR LFPG 251330Z 25017G29KT 210V280 CAVOK 24/07 Q1008 NOSIG
12-08-25 METAR LFPG 251500Z 23020KT 190V260 CAVOK 24/07 Q1008 NOSIG
12-08-25 METAR LFPG 251530Z 24020KT CAVOK 24/06 Q1008 NOSIG
12-08-25 METAR LFPG 251600Z 23019KT CAVOK 23/06 Q1008 NOSIG
12-08-25 METAR LFPG 251630Z 25018G31KT CAVOK 24/07 Q1008 NOSIG
12-08-25 METAR LFPG 251700Z 24017KT CAVOK 23/06 Q1008 NOSIG
12-08-25 METAR LFPG 251730Z 24021KT CAVOK 22/07 Q1008 NOSIG
12-08-25 METAR LFPG 251800Z 23020KT CAVOK 22/08 Q1008 NOSIG
12-08-25 METAR LFPG 251830Z 24020KT 9999 FEW050TCU SCT055 BKN093 21/08 Q1009 NOSIG
12-08-25 METAR LFPG 251900Z 25013KT 9999 FEW050TCU SCT055 BKN093 20/09 Q1009 NOSIG
12-08-25 METAR LFPG 251930Z 24014KT 220V280 9999 FEW050TCU SCT055 BKN093 20/09 Q1010 NOSIG
12-08-25 METAR LFPG 252000Z 24018KT 9999 FEW050TCU SCT055 20/09 Q1010 NOSIG
12-08-25 METAR LFPG 252030Z 24021KT 9999 FEW050TCU SCT055 BKN080 19/09 Q1010 NOSIG
12-08-25 METAR LFPG 252100Z 25019KT 9999 FEW040CB SCT055TCU BKN080 18/11 Q1011
12-08-25 METAR LFPG 252130Z 25016KT 9999 FEW040CB SCT055TCU BKN080 18/11 Q1011
12-08-25 METAR LFPG 252200Z 24017KT 9999 FEW040CB SCT055TCU BKN080 17/11 Q1011
12-08-25 METAR LFPG 252230Z 25018KT 9999 BKN026 17/11 Q1012 NOSIG
12-08-25 METAR LFPG 252300Z 25018KT 9999 BKN026 16/11 Q1012 NOSIG
12-08-25 METAR LFPG 252330Z 24018KT 9999 BKN026 16/11 Q1012 NOSIG
12-08-26 METAR LFPG 260000Z 24019KT 9999 BKN023 16/11 Q1012 NOSIG
12-08-26 METAR LFPG 260030Z 25016KT 9999 BKN020 16/11 Q1012 NOSIG
12-08-26 METAR LFPG 260100Z 25016KT 9999 BKN018 16/11 Q1013 NOSIG
12-08-26 METAR LFPG 260130Z 25014KT 9999 BKN020 BKN029 16/11 Q1013 NOSIG
12-08-26 METAR LFPG 260200Z 25014KT 9999 BKN019 BKN021 16/11 Q1013 NOSIG
12-08-26 METAR LFPG 260230Z 25014KT 9999 BKN019 BKN026 16/11 Q1014 NOSIG
12-08-26 METAR LFPG 260300Z 25014KT 9999 BKN019 BKN026 16/11 Q1014 NOSIG
12-08-26 METAR LFPG 260330Z 25014KT 9999 BKN019 16/11 Q1014 NOSIG
12-08-26 METAR LFPG 260400Z 25013KT 9999 BKN019 16/11 Q1014 NOSIG
12-08-26 METAR LFPG 260430Z 25013KT 9999 BKN019 16/11 Q1014 NOSIG
12-08-26 METAR LFPG 260500Z 24013KT 9999 BKN023 15/11 Q1015 NOSIG
12-08-26 METAR LFPG 260530Z 25012KT 9999 BKN017 BKN086 15/11 Q1015 NOSIG
12-08-26 METAR LFPG 260600Z 24012KT 9999 BKN017 BKN086 15/11 Q1016 NOSIG
12-08-26 METAR LFPG 260630Z 24013KT 9999 BKN017 BKN086 16/11 Q1016 NOSIG
12-08-26 METAR LFPG 260700Z 25011KT 9999 BKN017 SCT040 16/11 Q1016 NOSIG
12-08-26 METAR LFPG 260730Z 25013KT 220V280 9999 BKN017 SCT040 17/12 Q1017 NOSIG
12-08-26 METAR LFPG 260800Z 26014KT 9999 BKN017 17/11 Q1017 NOSIG
12-08-26 METAR LFPG 260830Z 26013KT 9999 BKN020 17/11 Q1018 NOSIG
12-08-26 METAR LFPG 260900Z 26014KT 9999 BKN023 18/11 Q1018 NOSIG
12-08-26 METAR LFPG 260930Z 27014KT 9999 BKN023 19/11 Q1018 NOSIG
12-08-26 METAR LFPG 261000Z 28013KT 9999 BKN028 20/10 Q1018 NOSIG
12-08-26 METAR LFPG 261030Z 29012KT 260V320 9999 BKN033 20/10 Q1019 NOSIG
12-08-26 METAR LFPG 261100Z 27012KT 240V300 9999 BKN035 20/09 Q1019 NOSIG
12-08-26 METAR LFPG 261130Z 27013KT 240V300 9999 BKN035 BKN066 20/09 Q1019 NOSIG
12-08-26 METAR LFPG 261200Z 26012KT 220V280 9999 BKN040 BKN066 22/09 Q1018 NOSIG
12-08-26 METAR LFPG 261230Z 27013KT 230V300 9999 BKN046 BKN066 21/08 Q1019 NOSIG
12-08-26 METAR LFPG 261300Z 28011KT 250V310 9999 BKN046 BKN073 22/10 Q1019 NOSIG
12-08-26 METAR LFPG 261330Z 27010KT 230V310 9999 BKN046 BKN080 23/09 Q1019 NOSIG
12-08-26 METAR LFPG 261400Z 26013KT 230V290 9999 BKN046 SCT080 23/08 Q1019 NOSIG
12-08-26 METAR LFPG 261430Z 28012KT 260V320 9999 SCT046 SCT080 23/08 Q1019 NOSIG
12-08-26 METAR LFPG 261500Z 28010KT 250V310 CAVOK 22/08 Q1019 NOSIG
12-08-26 METAR LFPG 261530Z 29010G20KT 250V310 CAVOK 23/08 Q1019 NOSIG
12-08-26 METAR LFPG 261600Z 26011KT 240V310 CAVOK 23/08 Q1019 NOSIG
12-08-26 METAR LFPG 261630Z 31010KT CAVOK 23/09 Q1019 NOSIG
12-08-26 METAR LFPG 261700Z 32008KT CAVOK 22/09 Q1019 NOSIG
12-08-26 METAR LFPG 261730Z 32006KT CAVOK 21/10 Q1020 NOSIG
12-08-26 METAR LFPG 261800Z 32008KT CAVOK 20/10 Q1020 NOSIG
12-08-26 METAR LFPG 261830Z 32005KT CAVOK 20/10 Q1020 NOSIG
12-08-26 METAR LFPG 261900Z 34005KT CAVOK 19/10 Q1020 NOSIG
12-08-26 METAR LFPG 261930Z 34004KT CAVOK 18/10 Q1021 NOSIG
12-08-26 METAR LFPG 262000Z 02004KT CAVOK 18/10 Q1021 NOSIG
12-08-26 METAR LFPG 262030Z VRB03KT CAVOK 18/10 Q1021 NOSIG
12-08-26 METAR LFPG 262100Z 02004KT CAVOK 17/09 Q1021 NOSIG
12-08-26 METAR LFPG 262130Z 02003KT CAVOK 17/10 Q1021 NOSIG
12-08-26 METAR LFPG 262200Z 04002KT CAVOK 17/10 Q1021 NOSIG
12-08-26 METAR LFPG 262230Z 08003KT CAVOK 17/09 Q1021 NOSIG
12-08-26 METAR LFPG 262300Z 10004KT CAVOK 17/10 Q1021 NOSIG
12-08-26 METAR LFPG 262330Z 10005KT CAVOK 17/10 Q1021 NOSIG
12-08-27 METAR LFPG 270000Z 11006KT CAVOK 17/10 Q1021 NOSIG
12-08-27 METAR LFPG 270030Z 11005KT CAVOK 17/10 Q1021 NOSIG
12-08-27 METAR LFPG 270100Z 11005KT CAVOK 17/10 Q1021 NOSIG
12-08-27 METAR LFPG 270130Z 12006KT CAVOK 17/10 Q1020 NOSIG
12-08-27 METAR LFPG 270200Z 09005KT CAVOK 17/10 Q1020 NOSIG
12-08-27 METAR LFPG 270230Z 12006KT CAVOK 17/10 Q1020 NOSIG
12-08-27 METAR LFPG 270300Z 13006KT CAVOK 16/10 Q1020 NOSIG
12-08-27 METAR LFPG 270330Z 12008KT CAVOK 16/10 Q1020 NOSIG
12-08-27 METAR LFPG 270400Z 14006KT CAVOK 16/10 Q1020 NOSIG
12-08-27 METAR LFPG 270430Z 13006KT CAVOK 16/10 Q1020 NOSIG
12-08-27 METAR LFPG 270500Z 14007KT CAVOK 16/10 Q1020 NOSIG
12-08-27 METAR LFPG 270530Z 14007KT CAVOK 16/10 Q1020 NOSIG
12-08-27 METAR LFPG 270600Z 15008KT CAVOK 16/10 Q1020 NOSIG
12-08-27 METAR LFPG 270630Z 14008KT CAVOK 16/10 Q1020 NOSIG
12-08-27 METAR LFPG 270700Z 14008KT CAVOK 17/10 Q1020 NOSIG
12-08-27 METAR LFPG 270730Z 15009KT CAVOK 18/10 Q1020 NOSIG
12-08-27 METAR LFPG 270800Z 16008KT 110V180 CAVOK 19/10 Q1019 NOSIG
12-08-27 METAR LFPG 270830Z 15009KT CAVOK 20/10 Q1019 NOSIG
12-08-27 METAR LFPG 270900Z 16011KT 110V180 CAVOK 22/08 Q1019 NOSIG
12-08-27 METAR LFPG 270930Z 17010KT 110V210 CAVOK 22/08 Q1019 NOSIG
12-08-27 METAR LFPG 271000Z 17010G21KT 110V270 CAVOK 23/08 Q1019 NOSIG
12-08-27 METAR LFPG 271030Z 18012KT 090V220 CAVOK 23/07 Q1018 NOSIG
12-08-27 METAR LFPG 271100Z 19011KT 160V220 CAVOK 24/07 Q1018 NOSIG
12-08-27 METAR LFPG 271130Z 17011KT CAVOK 24/07 Q1018 NOSIG
12-08-27 METAR LFPG 271200Z 18011KT 100V250 CAVOK 25/07 Q1017 NOSIG
12-08-27 METAR LFPG 271230Z 17011KT 100V210 CAVOK 26/07 Q1017 NOSIG
12-08-27 METAR LFPG 271300Z 17011KT 100V200 CAVOK 25/06 Q1016 NOSIG
12-08-27 METAR LFPG 271330Z 17010KT 140V210 CAVOK 26/07 Q1016 NOSIG
12-08-27 METAR LFPG 271400Z 18011KT 110V220 CAVOK 26/07 Q1016 NOSIG
12-08-27 METAR LFPG 271430Z 15011KT 110V180 CAVOK 26/07 Q1015 NOSIG
12-08-27 METAR LFPG 271500Z 17010KT 120V220 CAVOK 27/07 Q1015 NOSIG
12-08-27 METAR LFPG 271530Z 17011KT 140V200 CAVOK 27/06 Q1015 NOSIG
12-08-27 METAR LFPG 271600Z 15012KT CAVOK 27/07 Q1014 NOSIG
12-08-27 METAR LFPG 271630Z 14011KT CAVOK 27/07 Q1014 NOSIG
12-08-27 METAR LFPG 271700Z 16013KT 130V190 CAVOK 26/07 Q1014 NOSIG
12-08-27 METAR LFPG 271730Z 15011KT 120V180 CAVOK 26/07 Q1014 NOSIG
12-08-27 METAR LFPG 271800Z 15008KT 110V180 CAVOK 26/07 Q1013 NOSIG
12-08-27 METAR LFPG 271830Z 14009KT 110V170 CAVOK 25/07 Q1013 NOSIG
12-08-27 METAR LFPG 271900Z 15007KT CAVOK 24/07 Q1013 NOSIG
12-08-27 METAR LFPG 271930Z 15006KT CAVOK 23/07 Q1013 NOSIG
12-08-27 METAR LFPG 272000Z 15007KT CAVOK 23/08 Q1013 NOSIG
12-08-27 METAR LFPG 272030Z 16006KT CAVOK 23/07 Q1013 NOSIG
12-08-27 METAR LFPG 272100Z 17006KT CAVOK 23/07 Q1013 NOSIG
12-08-27 METAR LFPG 272130Z 16005KT CAVOK 22/07 Q1013 NOSIG
12-08-27 METAR LFPG 272200Z 14006KT 100V180 CAVOK 22/08 Q1013 NOSIG
12-08-27 METAR LFPG 272230Z 14005KT CAVOK 22/07 Q1013 NOSIG
12-08-27 METAR LFPG 272300Z 14005KT CAVOK 21/08 Q1013 NOSIG
12-08-27 METAR LFPG 272330Z 15006KT CAVOK 21/08 Q1013 NOSIG
12-08-28 METAR LFPG 280000Z 15004KT CAVOK 21/08 Q1012 NOSIG
12-08-28 METAR LFPG 280030Z 12003KT CAVOK 20/08 Q1012 NOSIG
12-08-28 METAR LFPG 280100Z 11005KT CAVOK 20/09 Q1012 NOSIG
12-08-28 METAR LFPG 280130Z 14005KT CAVOK 20/09 Q1012 NOSIG
12-08-28 METAR LFPG 280200Z 15006KT CAVOK 19/09 Q1012 NOSIG
12-08-28 METAR LFPG 280230Z 17007KT CAVOK 19/09 Q1012 NOSIG
12-08-28 METAR LFPG 280300Z 18007KT 9999 -RA NSC 19/11 Q1012 NOSIG
12-08-28 METAR LFPG 280330Z 18007KT 9999 -RA NSC 19/11 Q1012 NOSIG
12-08-28 METAR LFPG 280400Z 18007KT 9999 -RA NSC 19/12 Q1013 NOSIG
12-08-28 METAR LFPG 280430Z 20008KT 9999 -RA NSC 19/12 Q1013 NOSIG
12-08-28 METAR LFPG 280500Z 22007KT CAVOK 19/12 Q1013 NOSIG
12-08-28 METAR LFPG 280530Z 23005KT CAVOK 19/11 Q1014 NOSIG
12-08-28 METAR LFPG 280600Z 25004KT CAVOK 19/11 Q1014 NOSIG
12-08-28 METAR LFPG 280630Z 23008KT CAVOK 19/11 Q1015 NOSIG
12-08-28 METAR LFPG 280700Z 24008KT 9999 BKN023 20/12 Q1015 NOSIG
12-08-28 METAR LFPG 280730Z 24012KT 9999 BKN022 19/13 Q1016 NOSIG
12-08-28 METAR LFPG 280800Z 22008KT 9999 SCT023 BKN040 19/14 Q1016 NOSIG
12-08-28 METAR LFPG 280830Z 23008KT 9999 BKN024 20/14 Q1016 NOSIG
12-08-28 METAR LFPG 280900Z 25010KT 9999 BKN024 20/14 Q1017 NOSIG
12-08-28 METAR LFPG 280930Z 25010KT 9999 BKN025 21/14 Q1017 NOSIG
12-08-28 METAR LFPG 281000Z 25010KT 200V290 9999 SCT026 SCT230 22/14 Q1017 NOSIG
12-08-28 METAR LFPG 281030Z 27010KT 9999 SCT033 SCT230 23/13 Q1017 NOSIG
12-08-28 METAR LFPG 281100Z 28009KT 240V310 9999 SCT033 SCT230 24/13 Q1017 NOSIG
12-08-28 METAR LFPG 281130Z 25010KT 230V300 9999 SCT038 24/12 Q1017 NOSIG
12-08-28 METAR LFPG 281200Z 24011KT 210V280 9999 SCT046 24/10 Q1018 NOSIG
12-08-28 METAR LFPG 281230Z 28009KT 220V320 9999 SCT048 25/11 Q1018 NOSIG
12-08-28 METAR LFPG 281300Z 31008KT 240V350 9999 SCT049 25/11 Q1017 NOSIG
12-08-28 METAR LFPG 281330Z 27008KT 230V310 CAVOK 26/10 Q1017 NOSIG
12-08-28 METAR LFPG 281400Z 28005KT 220V020 CAVOK 26/10 Q1017 NOSIG
12-08-28 METAR LFPG 281430Z 27006KT 240V300 CAVOK 26/10 Q1017 NOSIG
12-08-28 METAR LFPG 281500Z 25007KT 190V310 CAVOK 26/09 Q1017 NOSIG
12-08-28 METAR LFPG 281530Z 25010KT 220V280 CAVOK 26/06 Q1016 NOSIG
12-08-28 METAR LFPG 281600Z 26009KT 220V290 CAVOK 26/07 Q1016 NOSIG
12-08-28 METAR LFPG 281630Z 25010KT 220V280 CAVOK 26/06 Q1016 NOSIG
12-08-28 METAR LFPG 281700Z 26006KT 220V300 CAVOK 26/06 Q1016 NOSIG
12-08-28 METAR LFPG 281730Z 27007KT CAVOK 25/06 Q1016 NOSIG
12-08-28 METAR LFPG 281800Z 27006KT CAVOK 24/07 Q1017 NOSIG
12-08-28 METAR LFPG 281830Z 27007KT CAVOK 23/08 Q1017 NOSIG
12-08-28 METAR LFPG 281900Z 27006KT CAVOK 22/07 Q1017 NOSIG
12-08-28 METAR LFPG 281930Z 27005KT 9999 FEW007 BKN220 22/07 Q1018 NOSIG
12-08-28 METAR LFPG 282030Z 28003KT CAVOK 20/08 Q1018 NOSIG
12-08-28 METAR LFPG 282100Z 29003KT CAVOK 20/08 Q1018 NOSIG
12-08-28 METAR LFPG 282130Z 32003KT CAVOK 19/08 Q1018 NOSIG
12-08-28 METAR LFPG 282200Z VRB02KT CAVOK 19/08 Q1018 NOSIG
12-08-28 METAR LFPG 282230Z 03004KT CAVOK 17/08 Q1018 NOSIG
12-08-28 METAR LFPG 282300Z 06003KT CAVOK 17/08 Q1018 NOSIG
12-08-28 METAR LFPG 282330Z 10003KT CAVOK 17/09 Q1018 NOSIG
12-08-29 METAR LFPG 290000Z 12003KT CAVOK 17/09 Q1018 NOSIG
12-08-29 METAR LFPG 290030Z 13003KT CAVOK 17/09 Q1017 NOSIG
12-08-29 METAR LFPG 290100Z 13002KT CAVOK 17/08 Q1017 NOSIG
12-08-29 METAR LFPG 290130Z 15004KT 120V220 CAVOK 17/09 Q1017 NOSIG
12-08-29 METAR LFPG 290200Z VRB03KT CAVOK 17/09 Q1017 NOSIG
12-08-29 METAR LFPG 290230Z 20006KT CAVOK 17/09 Q1017 NOSIG
12-08-29 METAR LFPG 290300Z 24003KT CAVOK 17/09 Q1018 NOSIG
12-08-29 METAR LFPG 290330Z 25006KT CAVOK 17/09 Q1018 NOSIG
12-08-29 METAR LFPG 290400Z 24003KT CAVOK 16/10 Q1017 NOSIG
12-08-29 METAR LFPG 290430Z VRB02KT CAVOK 16/10 Q1018 NOSIG
12-08-29 METAR LFPG 290500Z 21003KT CAVOK 16/10 Q1018 NOSIG
12-08-29 METAR LFPG 290530Z VRB03KT CAVOK 16/11 Q1018 NOSIG
12-08-29 METAR LFPG 290600Z 22003KT CAVOK 17/11 Q1018 NOSIG
12-08-29 METAR LFPG 290630Z 25003KT CAVOK 17/11 Q1017 NOSIG
12-08-29 METAR LFPG 290700Z 24005KT CAVOK 18/11 Q1017 NOSIG
12-08-29 METAR LFPG 290730Z 22006KT 200V260 CAVOK 19/11 Q1018 NOSIG
12-08-29 METAR LFPG 290800Z 23006KT 210V270 CAVOK 20/10 Q1017 NOSIG
12-08-29 METAR LFPG 290830Z 21008KT 180V240 CAVOK 21/09 Q1017 NOSIG
12-08-29 METAR LFPG 290900Z 21009KT CAVOK 22/08 Q1017 NOSIG
12-08-29 METAR LFPG 290930Z 22011G21KT 190V300 CAVOK 22/08 Q1017 NOSIG
12-08-29 METAR LFPG 291000Z 23011G24KT 200V300 CAVOK 23/08 Q1017 NOSIG
12-08-29 METAR LFPG 291030Z 22010KT 190V270 CAVOK 24/08 Q1016 NOSIG
12-08-29 METAR LFPG 291100Z 23014KT 180V340 CAVOK 24/08 Q1016 NOSIG
12-08-29 METAR LFPG 291130Z 22012KT 190V260 CAVOK 25/09 Q1016 NOSIG
12-08-29 METAR LFPG 291200Z 23015KT 200V260 CAVOK 26/08 Q1016 NOSIG
12-08-29 METAR LFPG 291230Z 21015G25KT 170V250 CAVOK 26/08 Q1016 NOSIG
12-08-29 METAR LFPG 291300Z 21017KT CAVOK 26/08 Q1015 NOSIG
12-08-29 METAR LFPG 291330Z 23013KT 190V280 CAVOK 26/08 Q1015 NOSIG
12-08-29 METAR LFPG 291400Z 24016KT CAVOK 26/08 Q1015 NOSIG
12-08-29 METAR LFPG 291430Z 23013KT CAVOK 26/09 Q1015 NOSIG
12-08-29 METAR LFPG 291500Z 23015KT 190V250 CAVOK 25/09 Q1015 NOSIG
12-08-29 METAR LFPG 291530Z 23014KT CAVOK 25/10 Q1015 NOSIG
12-08-29 METAR LFPG 291600Z 25014KT CAVOK 25/10 Q1015 NOSIG
12-08-29 METAR LFPG 291630Z 23014KT CAVOK 25/10 Q1015 NOSIG
12-08-29 METAR LFPG 291700Z 23012KT CAVOK 24/10 Q1015 NOSIG
12-08-29 METAR LFPG 291730Z 22014KT CAVOK 24/10 Q1014 NOSIG
12-08-29 METAR LFPG 291800Z 24010KT CAVOK 24/11 Q1014 NOSIG
12-08-29 METAR LFPG 291830Z 24010G23KT 210V280 CAVOK 23/10 Q1015 NOSIG
12-08-29 METAR LFPG 291900Z 23010KT CAVOK 22/10 Q1015 NOSIG
12-08-29 METAR LFPG 291930Z 26012KT CAVOK 22/09 Q1016 NOSIG
12-08-29 METAR LFPG 292000Z 33012KT CAVOK 20/11 Q1016 NOSIG
12-08-29 METAR LFPG 292030Z 34009KT 320V020 CAVOK 17/12 Q1017 NOSIG
12-08-29 METAR LFPG 292100Z 35009KT 330V040 CAVOK 16/12 Q1017 NOSIG
12-08-29 METAR LFPG 292130Z 34009KT 330V030 CAVOK 15/11 Q1017 NOSIG
12-08-29 METAR LFPG 292200Z 35004KT 340V060 CAVOK 15/11 Q1017 NOSIG
12-08-29 METAR LFPG 292230Z VRB02KT CAVOK 15/11 Q1017 NOSIG
12-08-29 METAR LFPG 292300Z VRB02KT CAVOK 15/11 Q1017 NOSIG
12-08-29 METAR LFPG 292330Z 00000KT CAVOK 15/11 Q1017 NOSIG
12-08-30 METAR LFPG 300000Z 14003KT 100V180 CAVOK 15/11 Q1017 NOSIG
12-08-30 METAR LFPG 300030Z 16004KT 9999 FEW035 BKN046 15/11 Q1017 NOSIG
12-08-30 METAR LFPG 300100Z 19004KT 9999 SCT033 BKN046 15/12 Q1017 NOSIG
12-08-30 METAR LFPG 300130Z 19004KT 9999 BKN033 SCT046 15/11 Q1017 NOSIG
12-08-30 METAR LFPG 300200Z 19005KT 9999 FEW033 SCT043 16/12 Q1017 NOSIG
12-08-30 METAR LFPG 300230Z 22008KT 9999 FEW023 BKN120 16/12 Q1017 NOSIG
12-08-30 METAR LFPG 300300Z 25008KT 9999 FEW023 BKN120 16/11 Q1017 NOSIG
12-08-30 METAR LFPG 300330Z 24008KT CAVOK 16/11 Q1017 NOSIG
12-08-30 METAR LFPG 300400Z 25009KT 220V280 CAVOK 16/11 Q1017 NOSIG
12-08-30 METAR LFPG 300430Z 24008KT CAVOK 16/11 Q1017 NOSIG
12-08-30 METAR LFPG 300500Z 25009KT CAVOK 16/11 Q1017 NOSIG
12-08-30 METAR LFPG 300530Z 26007KT 9999 FEW030 SCT150 BKN230 16/11 Q1017 NOSIG
12-08-30 METAR LFPG 300600Z 25007KT 9999 FEW020 SCT150 BKN230 16/11 Q1018 NOSIG
12-08-30 METAR LFPG 300630Z 24008KT 9999 FEW020 SCT230 15/11 Q1018 NOSIG
12-08-30 METAR LFPG 300700Z 24010KT 9999 FEW020 16/11 Q1018 NOSIG
12-08-30 METAR LFPG 300730Z 24010KT 9999 SCT021 17/11 Q1018 NOSIG
12-08-30 METAR LFPG 300800Z 24014KT 9999 BKN023 17/11 Q1018 NOSIG
12-08-30 METAR LFPG 300830Z 24014KT 9999 BKN025 18/11 Q1018 NOSIG
12-08-30 METAR LFPG 300900Z 26012KT 9999 BKN027 18/10 Q1018 NOSIG
12-08-30 METAR LFPG 300930Z 25012KT 9999 BKN028 SCT046 19/10 Q1018 NOSIG
12-08-30 METAR LFPG 301000Z 24010KT 9999 BKN028 SCT053 18/11 Q1018 NOSIG
12-08-30 METAR LFPG 301030Z 25012KT 210V270 9999 BKN031 SCT051 20/10 Q1018 NOSIG
12-08-30 METAR LFPG 301100Z 25014KT 9999 BKN031 SCT053 20/09 Q1018 NOSIG
12-08-30 METAR LFPG 301130Z 26014KT 9999 SCT035 BKN056 20/09 Q1018 NOSIG
12-08-30 METAR LFPG 301200Z 27012KT 230V290 9999 BKN041 SCT058 21/09 Q1018 NOSIG
12-08-30 METAR LFPG 301230Z 27012KT 9999 BKN041 SCT058 21/09 Q1018 NOSIG
12-08-30 METAR LFPG 301400Z 28014KT 250V310 9999 VCSH FEW046CB SCT053 21/09 Q1018
12-08-30 METAR LFPG 301430Z 27014KT 230V290 9999 VCSH FEW040CB FEW046TCU SCT073 21/10 Q1018 TEMPO 27020G30KT -TSRA SCT030CB
12-08-30 METAR LFPG 301500Z 29015G29KT 9999 R27R/1000VP2000D R09L/1300VP2000U -SHRA FEW033CB SCT043TCU BKN070 17/11 Q1019 TEMPO 27020G30KT -TSRA SCT030CB
12-08-30 METAR LFPG 301530Z 26009KT 9999 FEW046TCU BKN073 18/12 Q1019 TEMPO 27020G30KT -TSRA SCT030CB
12-08-30 METAR LFPG 301600Z 26010KT 9999 FEW040TCU BKN073 18/11 Q1019
12-08-30 METAR LFPG 301630Z 26011KT 9999 FEW040TCU SCT100 19/12 Q1019
12-08-30 METAR LFPG 301700Z 27011KT 9999 FEW030CB FEW040TCU SCT083 19/11 Q1019
12-08-30 METAR LFPG 301730Z 27011KT 9999 FEW030CB FEW046TCU SCT083 19/11 Q1019
12-08-30 METAR LFPG 301800Z 30011KT 9999 FEW028CB SCT066 18/12 Q1020
12-08-30 METAR LFPG 301830Z 30009KT 260V320 9999 FEW028CB FEW035TCU BKN076 17/10 Q1020
12-08-30 METAR LFPG 301900Z 28007KT 9999 FEW028TCU BKN072 17/10 Q1020
12-08-30 METAR LFPG 301930Z 28008KT 9999 FEW035TCU SCT070 16/10 Q1021
12-08-30 METAR LFPG 302000Z 30009KT 9999 FEW036TCU SCT070 16/09 Q1021
12-08-30 METAR LFPG 302030Z 31006KT 9999 FEW036TCU BKN080 BKN260 16/09 Q1021
12-08-30 METAR LFPG 302100Z 32007KT 9999 FEW033TCU BKN080 BKN260 15/10 Q1022
12-08-30 METAR LFPG 302130Z 33009KT 9999 FEW028 FEW036TCU BKN080 15/09 Q1022
12-08-30 METAR LFPG 302200Z 34012KT 9999 FEW023 FEW036TCU BKN090 15/09 Q1022
12-08-30 METAR LFPG 302230Z 32009KT 9999 SCT023 FEW036TCU BKN090 14/09 Q1023
12-08-30 METAR LFPG 302300Z 31004KT 9999 SCT023 SCT053 14/09 Q1023
12-08-30 METAR LFPG 302330Z 30006KT 9999 SCT021 SCT053 13/09 Q1023
12-08-31 METAR LFPG 310000Z 29006KT 9999 BKN019 BKN070 13/09 Q1023
12-08-31 METAR LFPG 310030Z 30007KT 9999 SCT019 SCT070 BKN210 13/09 Q1023
12-08-31 METAR LFPG 310100Z 30006KT 9999 FEW019 BKN060 BKN210 12/09 Q1023
12-08-31 METAR LFPG 310130Z 31006KT 9999 FEW019 SCT060 BKN180 12/09 Q1024
12-08-31 METAR LFPG 310200Z 32008KT 9999 FEW033 SCT180 12/08 Q1024
12-08-31 METAR LFPG 310230Z 31008KT 9999 FEW021 12/08 Q1024
12-08-31 METAR LFPG 310300Z 29008KT 9999 FEW021 11/08 Q1024
12-08-31 METAR LFPG 310330Z 30008KT 9999 FEW021 11/08 Q1024
12-08-31 METAR LFPG 310400Z 30007KT 9999 FEW039 11/08 Q1024
12-08-31 METAR LFPG 310430Z 30008KT 9999 FEW039 10/07 Q1024
12-08-31 METAR LFPG 310500Z 29007KT 9999 FEW042 10/07 Q1025
12-08-31 METAR LFPG 310530Z 31007KT 9999 SCT042 10/07 Q1025 NOSIG
12-08-31 METAR LFPG 310600Z 30007KT 9999 SCT033 10/07 Q1025 NOSIG
12-08-31 METAR LFPG 310630Z 29009KT 9999 BKN021 11/07 Q1025 NOSIG
12-08-31 METAR LFPG 310700Z 31008KT 9999 SCT021 SCT066 12/08 Q1025 NOSIG
12-08-31 METAR LFPG 310730Z 32014KT 9999 SCT021 SCT066 13/08 Q1026 NOSIG
12-08-31 METAR LFPG 310800Z 33014KT 9999 SCT021 SCT047 14/08 Q1026 NOSIG
12-08-31 METAR LFPG 310830Z 34014KT 320V030 9999 SCT023 SCT049 14/08 Q1026 NOSIG
12-08-31 METAR LFPG 310900Z 33011KT 280V020 9999 SCT025 SCT051 15/08 Q1026 NOSIG
12-08-31 METAR LFPG 310930Z 34014KT 9999 SCT028 SCT053 15/07 Q1026 NOSIG
12-08-31 METAR LFPG 311000Z 33014KT 9999 BKN032 SCT053 15/07 Q1026 NOSIG
12-08-31 METAR LFPG 311030Z 33015KT 9999 SCT035 SCT053 17/06 Q1026 NOSIG
12-08-31 METAR LFPG 311100Z 32016KT 290V350 9999 SCT036 SCT060 17/04 Q1026 NOSIG
12-08-31 METAR LFPG 311130Z 32016KT 9999 SCT041 17/05 Q1026 NOSIG
12-08-31 METAR LFPG 311200Z 32014KT 9999 SCT043 18/04 Q1027 NOSIG
12-08-31 METAR LFPG 311230Z 32014KT 9999 SCT043 18/03 Q1026 NOSIG
12-08-31 METAR LFPG 311300Z 32015KT 280V010 CAVOK 18/04 Q1026 NOSIG
12-08-31 METAR LFPG 311330Z 33013KT 290V030 CAVOK 19/04 Q1026 NOSIG
12-08-31 METAR LFPG 311400Z 32014KT 300V030 CAVOK 19/04 Q1027 NOSIG
12-08-31 METAR LFPG 311430Z 33014KT 310V030 CAVOK 19/04 Q1027 NOSIG
12-08-31 METAR LFPG 311500Z 33012KT 310V020 CAVOK 18/04 Q1027 NOSIG
12-08-31 METAR LFPG 311530Z 34014KT 310V020 CAVOK 18/04 Q1027 NOSIG
12-08-31 METAR LFPG 311600Z 32012KT CAVOK 18/04 Q1027 NOSIG
12-08-31 METAR LFPG 311630Z 34013KT 320V030 CAVOK 17/04 Q1027 NOSIG
12-08-31 METAR LFPG 311700Z 33017KT CAVOK 18/05 Q1027 NOSIG
12-08-31 METAR LFPG 311730Z 33013KT 9999 FEW047 17/05 Q1027 NOSIG
12-08-31 METAR LFPG 311800Z 34014KT 9999 FEW048 16/05 Q1027 NOSIG
12-08-31 METAR LFPG 311830Z 33011KT CAVOK 15/05 Q1027 NOSIG
12-08-31 METAR LFPG 311900Z 33010KT CAVOK 14/05 Q1027 NOSIG
12-08-31 METAR LFPG 311930Z 33010KT CAVOK 14/04 Q1028 NOSIG
12-08-31 METAR LFPG 312000Z 33009KT CAVOK 13/04 Q1028 NOSIG
12-08-31 METAR LFPG 312030Z 33008KT CAVOK 13/04 Q1028 NOSIG
12-08-31 METAR LFPG 312100Z 33008KT CAVOK 12/04 Q1028 NOSIG
12-08-31 METAR LFPG 312130Z 34008KT CAVOK 11/04 Q1028 NOSIG
12-08-31 METAR LFPG 312200Z 35007KT CAVOK 11/04 Q1028 NOSIG
12-08-31 METAR LFPG 312230Z 34007KT CAVOK 10/04 Q1028 NOSIG
12-08-31 METAR LFPG 312300Z 34006KT CAVOK 10/04 Q1028 NOSIG
12-08-31 METAR LFPG 312330Z 34005KT CAVOK 10/05 Q1028 NOSIG
12-09-01 METAR LFPG 010000Z 33006KT CAVOK 10/04 Q1028 NOSIG
12-09-01 METAR LFPG 010030Z 33007KT CAVOK 10/04 Q1028 NOSIG
12-09-01 METAR LFPG 010100Z 33005KT CAVOK 09/04 Q1028 NOSIG
12-09-01 METAR LFPG 010130Z 36003KT 340V080 CAVOK 09/04 Q1028 NOSIG
12-09-01 METAR LFPG 010200Z 33005KT CAVOK 09/04 Q1028 NOSIG
12-09-01 METAR LFPG 010230Z 34003KT CAVOK 09/04 Q1028 NOSIG
12-09-01 METAR LFPG 010300Z VRB02KT CAVOK 09/04 Q1028 NOSIG
12-09-01 METAR LFPG 010330Z 03003KT CAVOK 08/04 Q1028 NOSIG
12-09-01 METAR LFPG 010400Z 34003KT CAVOK 09/04 Q1028 NOSIG
12-09-01 METAR LFPG 010430Z 31005KT CAVOK 08/04 Q1028 NOSIG
12-09-01 METAR LFPG 010500Z 33005KT CAVOK 08/04 Q1028 NOSIG
12-09-01 METAR LFPG 010530Z 31004KT CAVOK 08/04 Q1028 NOSIG
12-09-01 METAR LFPG 010600Z 31004KT CAVOK 09/05 Q1028 NOSIG
12-09-01 METAR LFPG 010630Z 32005KT CAVOK 10/05 Q1028 NOSIG
12-09-01 METAR LFPG 010700Z 01002KT CAVOK 11/05 Q1028 NOSIG
12-09-01 METAR LFPG 010730Z 01004KT 350V050 CAVOK 12/06 Q1028 NOSIG
12-09-01 METAR LFPG 010800Z 36005KT CAVOK 13/06 Q1028 NOSIG
12-09-01 METAR LFPG 010830Z 36005KT 310V030 9999 FEW040 BKN260 14/05 Q1028 NOSIG
12-09-01 METAR LFPG 010900Z 35005KT 310V050 9999 FEW046 BKN260 15/04 Q1028 NOSIG
12-09-01 METAR LFPG 010930Z 36007KT 320V030 CAVOK 16/04 Q1028 NOSIG
12-09-01 METAR LFPG 011000Z 01009KT CAVOK 16/03 Q1028 NOSIG
12-09-01 METAR LFPG 011030Z 36007KT 310V050 CAVOK 17/02 Q1028 NOSIG
12-09-01 METAR LFPG 011100Z 36006KT 290V040 CAVOK 18/01 Q1028 NOSIG
12-09-01 METAR LFPG 011130Z 35007KT 300V050 CAVOK 18/M00 Q1027 NOSIG
12-09-01 METAR LFPG 011200Z 03008KT 350V070 CAVOK 18/M00 Q1027 NOSIG
12-09-01 METAR LFPG 011230Z 03009KT 340V060 CAVOK 19/01 Q1027 NOSIG
12-09-01 METAR LFPG 011300Z 04005KT 320V130 CAVOK 19/01 Q1027 NOSIG
12-09-01 METAR LFPG 011330Z 36008KT 290V050 CAVOK 19/01 Q1026 NOSIG
12-09-01 METAR LFPG 011400Z 36007KT 320V030 CAVOK 20/01 Q1026 NOSIG
12-09-01 METAR LFPG 011430Z 01007KT 330V050 CAVOK 20/01 Q1026 NOSIG
12-09-01 METAR LFPG 011500Z 36005KT 310V040 CAVOK 21/02 Q1026 NOSIG
12-09-01 METAR LFPG 011530Z 01007KT 310V050 CAVOK 20/02 Q1026 NOSIG
12-09-01 METAR LFPG 011600Z 33003KT 270V020 CAVOK 20/02 Q1025 NOSIG
12-09-01 METAR LFPG 011630Z 03006KT 330V060 CAVOK 20/02 Q1025 NOSIG
12-09-01 METAR LFPG 011700Z 03004KT 350V070 CAVOK 20/02 Q1025 NOSIG
12-09-01 METAR LFPG 011730Z 06005KT CAVOK 19/02 Q1026 NOSIG
12-09-01 METAR LFPG 011800Z 06004KT CAVOK 19/02 Q1026 NOSIG
12-09-01 METAR LFPG 011830Z 04003KT CAVOK 18/02 Q1026 NOSIG
12-09-01 METAR LFPG 011900Z 05003KT CAVOK 17/03 Q1026 NOSIG
12-09-01 METAR LFPG 011930Z 32006KT 260V350 CAVOK 16/04 Q1026 NOSIG
12-09-01 METAR LFPG 012000Z 35004KT 320V040 CAVOK 16/07 Q1027 NOSIG
12-09-01 METAR LFPG 012030Z 32004KT 200V350 CAVOK 15/08 Q1027 NOSIG
12-09-01 METAR LFPG 012100Z 29004KT CAVOK 15/09 Q1027 NOSIG
12-09-01 METAR LFPG 012130Z 32004KT CAVOK 14/09 Q1027 NOSIG
12-09-01 METAR LFPG 012200Z VRB03KT CAVOK 15/09 Q1026 NOSIG
12-09-01 METAR LFPG 012230Z 01004KT CAVOK 14/09 Q1026 NOSIG
12-09-01 METAR LFPG 012300Z VRB03KT CAVOK 14/09 Q1026 NOSIG
12-09-01 METAR LFPG 012330Z 30003KT CAVOK 13/09 Q1026 NOSIG
12-09-02 METAR LFPG 020000Z 33002KT CAVOK 13/09 Q1026 NOSIG
12-09-02 METAR LFPG 020030Z 00000KT CAVOK 13/09 Q1026 NOSIG
12-09-02 METAR LFPG 020100Z 00000KT CAVOK 13/09 Q1026 NOSIG
12-09-02 METAR LFPG 020130Z 32004KT CAVOK 13/09 Q1026 NOSIG
12-09-02 METAR LFPG 020200Z 32002KT CAVOK 12/09 Q1026 NOSIG
12-09-02 METAR LFPG 020230Z 34003KT CAVOK 12/10 Q1026 NOSIG
12-09-02 METAR LFPG 020300Z VRB02KT CAVOK 12/10 Q1026 NOSIG
12-09-02 METAR LFPG 020330Z 34002KT CAVOK 12/10 Q1026 NOSIG
12-09-02 METAR LFPG 020400Z 33004KT 8000 NSC 12/10 Q1026 NOSIG
12-09-02 METAR LFPG 020430Z 32003KT 8000 SCT031 BKN260 13/11 Q1026 NOSIG
12-09-02 METAR LFPG 020500Z 33001KT 6000 BKN031 BKN260 13/11 Q1026 NOSIG
12-09-02 METAR LFPG 020530Z 29003KT 6000 SCT021 BKN026 13/11 Q1026 NOSIG
12-09-02 METAR LFPG 020600Z VRB01KT 5000 SCT021 BKN026 14/12 Q1026 NOSIG
12-09-02 METAR LFPG 020630Z VRB02KT 6000 SCT008 BKN022 14/12 Q1026 NOSIG
12-09-02 METAR LFPG 020700Z VRB02KT 4500 BR BKN008 BKN021 15/12 Q1026 NOSIG
12-09-02 METAR LFPG 020730Z 20003KT 170V260 4500 BR BKN006 BKN023 14/11 Q1026 NOSIG
12-09-02 METAR LFPG 020800Z VRB02KT 4000 BR BKN006 BKN020 14/11 Q1026 NOSIG
12-09-02 METAR LFPG 020930Z 29004KT 5000 BKN006 BKN016 16/14 Q1027 NOSIG
12-09-02 METAR LFPG 021000Z 30006KT 270V330 9999 BKN010 17/14 Q1026 NOSIG
12-09-02 METAR LFPG 021030Z VRB01KT 9999 SCT015 BKN250 18/13 Q1026 NOSIG
12-09-02 METAR LFPG 021100Z 26003KT 220V290 9999 SCT017 BKN250 19/13 Q1026 NOSIG
12-09-02 METAR LFPG 021130Z 30006KT 240V340 9999 SCT026 BKN250 19/12 Q1026 NOSIG
12-09-02 METAR LFPG 021200Z 35004KT 310V040 9999 SCT026 SCT250 20/11 Q1026 NOSIG
12-09-02 METAR LFPG 021230Z 03003KT 320V130 9999 SCT033 BKN260 21/11 Q1025 NOSIG
12-09-02 METAR LFPG 021300Z VRB03KT 9999 FEW040 BKN260 22/10 Q1025 NOSIG
12-09-02 METAR LFPG 021330Z 30004KT 230V360 9999 FEW045 BKN260 22/09 Q1025 NOSIG
12-09-02 METAR LFPG 021400Z 33006KT 300V030 9999 FEW048 BKN260 23/09 Q1025 NOSIG
12-09-02 METAR LFPG 021430Z 31007KT 280V340 CAVOK 22/09 Q1025 NOSIG
12-09-02 METAR LFPG 021500Z 30008KT 270V330 CAVOK 22/08 Q1025 NOSIG
12-09-02 METAR LFPG 021530Z 29008KT 260V340 CAVOK 22/08 Q1025 NOSIG
12-09-02 METAR LFPG 021600Z 33008KT CAVOK 22/08 Q1024 NOSIG
12-09-02 METAR LFPG 021630Z 35006KT 320V020 CAVOK 21/07 Q1024 NOSIG
12-09-02 METAR LFPG 021700Z 35006KT 330V050 CAVOK 21/07 Q1024 NOSIG
12-09-02 METAR LFPG 021730Z 35004KT 330V030 CAVOK 21/08 Q1024 NOSIG
12-09-02 METAR LFPG 021800Z 33004KT CAVOK 20/09 Q1025 NOSIG
12-09-02 METAR LFPG 021830Z VRB02KT CAVOK 20/09 Q1025 NOSIG
12-09-02 METAR LFPG 021900Z 33004KT CAVOK 19/09 Q1025 NOSIG
12-09-02 METAR LFPG 021930Z 34005KT CAVOK 19/09 Q1026 NOSIG
12-09-02 METAR LFPG 022000Z 01004KT 350V060 CAVOK 18/09 Q1026 NOSIG
12-09-02 METAR LFPG 022030Z 36004KT 340V070 CAVOK 17/10 Q1026 NOSIG
12-09-02 METAR LFPG 022100Z 35004KT 9999 SCT036 17/10 Q1027 NOSIG
12-09-02 METAR LFPG 022130Z 36003KT 350V060 9999 SCT033 16/11 Q1027 NOSIG
12-09-02 METAR LFPG 022200Z 36004KT 350V060 9999 BKN033 16/11 Q1027 NOSIG
12-09-02 METAR LFPG 022230Z 36004KT 330V040 9999 BKN033 16/11 Q1027 NOSIG
12-09-02 METAR LFPG 022300Z 34006KT 9999 SCT033 SCT046 16/11 Q1026 NOSIG
12-09-02 METAR LFPG 022330Z 33005KT 9999 SCT033 SCT046 16/11 Q1026 NOSIG
12-09-03 METAR LFPG 030000Z 32004KT 9999 BKN036 BKN043 16/11 Q1026 NOSIG
12-09-03 METAR LFPG 030030Z 32005KT 9999 BKN032 16/12 Q1026 NOSIG
12-09-03 METAR LFPG 030100Z 33008KT 9999 BKN030 BKN250 16/12 Q1026 NOSIG
12-09-03 METAR LFPG 030130Z 36007KT 330V030 9999 FEW013 SCT023 BKN027 16/13 Q1026 NOSIG
12-09-03 METAR LFPG 030200Z 35007KT 9999 FEW008 SCT013 BKN020 16/13 Q1026 NOSIG
12-09-03 METAR LFPG 030230Z 33006KT 9999 BKN005 BKN013 15/13 Q1025 NOSIG
12-09-03 METAR LFPG 030330Z 34003KT 9999 FEW002 BKN004 OVC006 15/13 Q1025 NOSIG
12-09-03 METAR LFPG 030400Z VRB02KT 5000 SCT003 BKN005 15/14 Q1025 NOSIG
12-09-03 METAR LFPG 030430Z NIL
12-09-03 METAR LFPG 030434Z 33003KT 3000 FEW001 BKN002 OVC003 15/14 Q1025 NOSIG
12-09-03 METAR LFPG 030500Z 32003KT 3000 BKN002 OVC003 15/14 Q1025 NOSIG
12-09-03 METAR LFPG 030630Z 33005KT 4500 BR SCT002 BKN010 BKN033 15/14 Q1026 NOSIG
12-09-03 METAR LFPG 030700Z 33005KT 6000 SCT003 BKN006 BKN033 16/15 Q1026 NOSIG
12-09-03 METAR LFPG 030730Z 34006KT 6000 BKN003 BKN005 16/15 Q1025 NOSIG
12-09-03 METAR LFPG 030800Z 36007KT 330V040 7000 BKN004 SCT005 16/15 Q1025 NOSIG
12-09-03 METAR LFPG 030830Z 01007KT 9000 BKN005 17/15 Q1025 NOSIG
12-09-03 METAR LFPG 030900Z 02006KT 9999 BKN010 SCT016 18/15 Q1025 NOSIG
12-09-03 METAR LFPG 030930Z 02006KT 9999 BKN011 SCT014 18/15 Q1025 NOSIG
12-09-03 METAR LFPG 031000Z 02008KT 9999 SCT013 BKN016 18/15 Q1025 NOSIG
12-09-03 METAR LFPG 031030Z 03008KT 9999 SCT014 BKN019 18/14 Q1025 NOSIG
12-09-03 METAR LFPG 031100Z 01009KT 9999 BKN015 19/14 Q1025 NOSIG
12-09-03 METAR LFPG 031130Z 02009KT 350V060 9999 SCT014 BKN016 19/14 Q1025 NOSIG
12-09-03 METAR LFPG 031200Z 05008KT 020V100 9999 BKN017 SCT035 20/14 Q1025 NOSIG
12-09-03 METAR LFPG 031230Z 01010G20KT 350V120 9999 BKN021 BKN035 21/14 Q1024 NOSIG
12-09-03 METAR LFPG 031300Z 03008KT 360V080 9999 BKN021 BKN040 20/15 Q1024 NOSIG
12-09-03 METAR LFPG 031330Z 04008KT 010V080 9999 FEW021 BKN040 20/14 Q1024 NOSIG
12-09-03 METAR LFPG 031400Z 03007KT 340V070 9999 FEW026 BKN044 21/14 Q1024 NOSIG
12-09-03 METAR LFPG 031430Z 01010KT 350V110 9999 FEW026 BKN046 21/14 Q1024 NOSIG
12-09-03 METAR LFPG 031500Z 02009KT 350V070 9999 FEW026 BKN046 21/14 Q1024 NOSIG
12-09-03 METAR LFPG 031530Z 01010KT 340V050 9999 FEW027 BKN049 21/14 Q1024 NOSIG
12-09-03 METAR LFPG 031600Z NIL
12-09-03 METAR LFPG 031605Z 9999 FEW027 BKN049 NOSIG
12-09-03 METAR LFPG 031630Z VRB10G21KT 9999 SCT028 SCT049 22/14 Q1023 NOSIG
12-09-03 METAR LFPG 031700Z 02009KT 350V090 9999 SCT026 SCT049 21/14 Q1023 NOSIG
12-09-03 METAR LFPG 031730Z 02008G22KT 330V100 9999 FEW026 SCT049 20/14 Q1023 NOSIG
12-09-03 METAR LFPG 031800Z 03006KT 360V110 9999 FEW026 SCT046 BKN260 20/14 Q1023
12-09-03 METAR LFPG 031830Z 01004KT 360V080 9999 FEW046 BKN260 19/14 Q1023 NOSIG
12-09-03 METAR LFPG 031900Z 02004KT 9999 FEW046 BKN260 19/14 Q1024 NOSIG
12-09-03 METAR LFPG 031930Z 01005KT CAVOK 18/14 Q1024 NOSIG
12-09-03 METAR LFPG 032000Z 02005KT 340V120 CAVOK 18/13 Q1024 NOSIG
12-09-03 METAR LFPG 032030Z 01005KT CAVOK 17/13 Q1024 NOSIG
12-09-03 METAR LFPG 032100Z 02004KT 350V100 CAVOK 17/13 Q1024 NOSIG
12-09-03 METAR LFPG 032130Z 02005KT 360V090 CAVOK 17/13 Q1024 NOSIG
12-09-03 METAR LFPG 032200Z 01005KT 360V060 CAVOK 17/13 Q1024 NOSIG
12-09-03 METAR LFPG 032230Z 01005KT CAVOK 16/13 Q1024 NOSIG
12-09-03 METAR LFPG 032300Z 36006KT CAVOK 16/13 Q1024 NOSIG
12-09-03 METAR LFPG 032330Z 36005KT CAVOK 15/12 Q1024 NOSIG
12-09-04 METAR LFPG 040000Z 36005KT CAVOK 15/13 Q1023 NOSIG
12-09-04 METAR LFPG 040030Z 36005KT 350V050 9000 NSC 15/13 Q1023 NOSIG
12-09-04 METAR LFPG 040100Z 36005KT 340V050 7000 NSC 14/12 Q1023 NOSIG
12-09-04 METAR LFPG 040130Z 36004KT 6000 NSC 14/13 Q1023 NOSIG
12-09-04 METAR LFPG 040200Z 32004KT 6000 NSC 14/12 Q1023 NOSIG
12-09-04 METAR LFPG 040230Z 36003KT 350V060 4500 BR NSC 14/12 Q1023 NOSIG
12-09-04 METAR LFPG 040300Z 36006KT 350V060 4000 BR NSC 14/12 Q1023 NOSIG
12-09-04 METAR LFPG 040330Z 36006KT 4000 BR NSC 13/12 Q1023 NOSIG
12-09-04 METAR LFPG 040400Z VRB06KT 3000 BR NSC 13/12 Q1023 NOSIG
12-09-04 METAR LFPG 040430Z 01006KT 350V150 3000 BR NSC 13/12 Q1023 NOSIG
12-09-04 METAR LFPG 040500Z VRB06KT 2200 BR NSC 13/12 Q1023 NOSIG
12-09-04 METAR LFPG 040530Z 35006KT 340V050 1500 BR BKN001 BKN260 13/12 Q1023 TEMPO 0800 FG OVC002
12-09-04 METAR LFPG 040600Z 35007KT 320V070 0600 R27L/P2000 R09R/1500VP2000D R26R/P2000 R08L/P2000 R26L/P2000 R08R/P2000 R27R/1800U R09L/0600U FG BKN001 BKN260 13/12 Q1023 TEMPO 0800 FG OVC002
12-09-04 METAR LFPG 040630Z VRB06KT 1200 R27L/P2000 R09R/P2000 R26R/P2000 R08L/P2000 R26L/P2000 R08R/P2000 R27R/P2000 R09L/1900N VCFG BKN001 SCT003 BKN250 14/13 Q1023 TEMPO 0800 FG OVC002
12-09-04 METAR LFPG 040700Z 36009KT 320V100 1400 R27L/P2000 R09R/P2000 R26R/P2000 R08L/P2000 R26L/P2000 R08R/P2000 R27R/P2000 R09L/1400N BR SCT002 BKN003 BKN250 14/13 Q1023 BECMG 5000 NSW NSC
12-09-04 METAR LFPG 040730Z VRB10KT 1200 R27L/P2000 R09R/P2000 R26R/P2000 R08L/P2000 R26L/P2000 R08R/P2000 R27R/2000N R09L/1500D BR FEW001 BKN003 BKN250 14/13 Q1023 BECMG 5000 NSW NSC
12-09-04 METAR LFPG 040800Z 36010KT 320V070 1600 BR FEW002 BKN003 BKN250 14/13 Q1023 BECMG 5000 NSW NSC
12-09-04 METAR LFPG 040830Z 01011KT 310V060 3000 BR BKN005 SCT250 15/14 Q1023 BECMG
12-09-04 METAR LFPG 040900Z 36012KT 330V070 4500 BR SCT007 BKN250 16/14 Q1023 BECMG
12-09-04 METAR LFPG 040930Z 36010KT 300V080 6000 FEW010 SCT250 18/14 Q1023 NOSIG
12-09-04 METAR LFPG 041000Z 01010KT 280V050 7000 FEW023 19/13 Q1023 NOSIG
12-09-04 METAR LFPG 041030Z 36011KT 340V040 8000 FEW023 20/13 Q1023 NOSIG
12-09-04 METAR LFPG 041100Z 01011KT 340V050 8000 FEW023 SCT250 21/13 Q1023 NOSIG
12-09-04 METAR LFPG 041130Z 01011KT 8000 FEW030 SCT250 22/13 Q1023 NOSIG
12-09-04 METAR LFPG 041200Z 01010KT 340V040 9999 SCT033 22/13 Q1023 NOSIG
12-09-04 METAR LFPG 041230Z 01009KT 300V080 9999 FEW033 23/12 Q1023 NOSIG
12-09-04 METAR LFPG 041300Z 03009KT 330V090 9999 FEW040 23/12 Q1022 NOSIG
12-09-04 METAR LFPG 041330Z 02008KT 350V050 9999 FEW046 24/12 Q1022 NOSIG
12-09-04 METAR LFPG 041400Z 01008KT 320V050 CAVOK 24/12 Q1022 NOSIG
12-09-04 METAR LFPG 041430Z 01009G20KT 310V060 CAVOK 24/12 Q1022 NOSIG
12-09-04 METAR LFPG 041500Z 02009KT 340V080 CAVOK 24/12 Q1021 NOSIG
12-09-04 METAR LFPG 041530Z 36010G23KT 280V060 CAVOK 25/12 Q1021 NOSIG
12-09-04 METAR LFPG 041600Z 02011KT 340V100 CAVOK 25/10 Q1021 NOSIG
12-09-04 METAR LFPG 041630Z 02009KT 350V080 CAVOK 24/11 Q1021 NOSIG
12-09-04 METAR LFPG 041700Z 01009KT 350V090 CAVOK 24/11 Q1020 NOSIG
12-09-04 METAR LFPG 041730Z 02008KT 350V080 CAVOK 24/10 Q1020 NOSIG
12-09-04 METAR LFPG 041800Z 02005KT 360V160 CAVOK 23/11 Q1020 NOSIG
12-09-04 METAR LFPG 041830Z 36003KT 340V080 CAVOK 22/11 Q1021 NOSIG
12-09-04 METAR LFPG 041900Z VRB02KT CAVOK 21/11 Q1021 NOSIG
12-09-04 METAR LFPG 041930Z 34004KT CAVOK 21/11 Q1021 NOSIG
12-09-04 METAR LFPG 042000Z VRB06KT CAVOK 20/12 Q1021 NOSIG
12-09-04 METAR LFPG 042030Z 36007KT 360V110 CAVOK 19/13 Q1021 NOSIG
12-09-04 METAR LFPG 042100Z 01009KT CAVOK 18/13 Q1021 NOSIG
12-09-04 METAR LFPG 042130Z 01009KT CAVOK 18/14 Q1021 NOSIG
12-09-04 METAR LFPG 042200Z 35006KT 330V080 CAVOK 17/14 Q1022 NOSIG
12-09-04 METAR LFPG 042230Z 35005KT 320V030 CAVOK 17/13 Q1022 NOSIG
12-09-04 METAR LFPG 042300Z 01007KT 350V110 CAVOK 16/13 Q1022 NOSIG
12-09-04 METAR LFPG 042330Z 36008KT CAVOK 16/13 Q1022 NOSIG
12-09-05 METAR LFPG 050000Z 36006KT 340V040 CAVOK 16/12 Q1022 NOSIG
12-09-05 METAR LFPG 050030Z 36008KT CAVOK 15/13 Q1022 NOSIG
12-09-05 METAR LFPG 050100Z 36009KT 350V050 CAVOK 15/13 Q1021 NOSIG
12-09-05 METAR LFPG 050130Z 01009KT 340V100 CAVOK 15/13 Q1021 NOSIG
12-09-05 METAR LFPG 050200Z 36009KT CAVOK 15/13 Q1021 NOSIG
12-09-05 METAR LFPG 050230Z 01008KT 360V110 6000 NSC 15/13 Q1021 NOSIG
12-09-05 METAR LFPG 050300Z 36009KT 6000 NSC 15/13 Q1021 NOSIG
12-09-05 METAR LFPG 050330Z 01009KT 5000 NSC 15/13 Q1021 NOSIG
12-09-05 METAR LFPG 050400Z VRB08KT 5000 NSC 15/13 Q1021 NOSIG
12-09-05 METAR LFPG 050430Z 36009KT 350V050 4500 BR NSC 15/13 Q1021 NOSIG
12-09-05 METAR LFPG 050500Z 01009KT 3000 BR NSC 15/13 Q1021 NOSIG
12-09-05 METAR LFPG 050530Z 36009KT 310V090 2700 BR SCT004 SCT180 BKN240 15/13 Q1021 NOSIG
12-09-05 METAR LFPG 050600Z 36010KT 350V100 2200 BR BKN004 SCT180 BKN210 15/13 Q1022 TEMPO 1500 BR BKN003
12-09-05 METAR LFPG 050630Z 36013KT 340V080 2200 BR BKN004 SCT180 15/14 Q1022 TEMPO
12-09-05 METAR LFPG 050700Z 36012KT 290V070 2400 BR BKN006 SCT180 15/14 Q1022 BECMG 3000 BR BKN030
12-09-05 METAR LFPG 050730Z 01012G23KT 350V090 3200 BR BKN006 SCT110 16/13 Q1022 BECMG 6000 BKN020
12-09-05 METAR LFPG 050800Z 02009KT 360V100 5000 SCT006 SCT220 16/14 Q1022 NOSIG
12-09-05 METAR LFPG 050830Z 01010KT 360V090 6000 FEW006 SCT220 18/13 Q1022 NOSIG
12-09-05 METAR LFPG 050900Z 01012KT 340V080 6000 FEW006 SCT220 19/14 Q1023 NOSIG
12-09-05 METAR LFPG 050930Z 01011KT 290V080 7000 FEW006 SCT220 20/14 Q1023 NOSIG
12-09-05 METAR LFPG 051000Z 36011G21KT 340V090 7000 FEW017 BKN100 21/14 Q1023 NOSIG
12-09-05 METAR LFPG 051030Z 02010KT 330V090 8000 FEW019 SCT052 21/15 Q1023 NOSIG
12-09-05 METAR LFPG 051100Z 01011KT 340V040 8000 FEW021 BKN054 22/15 Q1023 NOSIG
12-09-05 METAR LFPG 051130Z 02012KT 9000 SCT023 SCT033 21/14 Q1023 NOSIG
12-09-05 METAR LFPG 051200Z 02011KT 350V060 9999 FEW023 SCT036 BKN050 22/14 Q1023
12-09-05 METAR LFPG 051230Z 03011KT 330V090 9999 FEW024 BKN050 21/14 Q1023 NOSIG
12-09-05 METAR LFPG 051300Z 01011KT 340V110 9999 FEW024 OVC043 21/14 Q1023 NOSIG
12-09-05 METAR LFPG 051330Z 02011KT 9999 FEW024 OVC040 21/14 Q1023 NOSIG
12-09-05 METAR LFPG 051400Z 03010KT 9999 FEW026 BKN043 21/13 Q1023 NOSIG
12-09-05 METAR LFPG 051430Z 02008KT 350V100 9999 FEW031 BKN050 21/14 Q1023 NOSIG
12-09-05 METAR LFPG 051500Z 01010KT 9999 FEW030 SCT043 BKN055 22/13 Q1023 NOSIG
12-09-05 METAR LFPG 051530Z 01010KT 300V080 9999 FEW031 BKN050 21/13 Q1023 NOSIG
12-09-05 METAR LFPG 051600Z 01010KT 340V100 9999 SCT031 BKN056 22/13 Q1023 NOSIG
12-09-05 METAR LFPG 051630Z 01011KT 320V080 9999 FEW031 SCT058 BKN210 22/13 Q1023
12-09-05 METAR LFPG 051700Z 01011KT 350V050 9999 FEW033 SCT060 21/12 Q1023 NOSIG
12-09-05 METAR LFPG 051730Z 01012KT 310V040 9999 FEW033 SCT210 21/13 Q1023 NOSIG
12-09-05 METAR LFPG 051800Z 02010KT CAVOK 20/12 Q1023 NOSIG
12-09-05 METAR LFPG 051830Z 02007KT 010V090 9999 FEW033 SCT210 19/12 Q1024 NOSIG
12-09-05 METAR LFPG 051900Z 02009KT 360V080 9999 SCT040 19/12 Q1024 NOSIG
12-09-05 METAR LFPG 051930Z 01008KT 9999 SCT040 18/11 Q1025 NOSIG
12-09-05 METAR LFPG 052000Z 01012G24KT 350V070 9999 FEW040 17/11 Q1025 NOSIG
12-09-05 METAR LFPG 052030Z 01010KT CAVOK 17/10 Q1025 NOSIG
12-09-05 METAR LFPG 052100Z 01008KT CAVOK 16/10 Q1026 NOSIG
12-09-05 METAR LFPG 052130Z 02009KT 340V120 CAVOK 15/10 Q1026 NOSIG
12-09-05 METAR LFPG 052200Z 01006KT 350V120 CAVOK 15/10 Q1026 NOSIG
12-09-05 METAR LFPG 052230Z 01008KT 350V130 CAVOK 14/09 Q1026 NOSIG
12-09-05 METAR LFPG 052300Z 01008KT CAVOK 13/09 Q1026 NOSIG
12-09-05 METAR LFPG 052330Z 01008KT CAVOK 13/09 Q1027 NOSIG
12-09-06 METAR LFPG 060000Z 01007KT 360V070 CAVOK 13/09 Q1027 NOSIG
12-09-06 METAR LFPG 060030Z 01008KT CAVOK 12/08 Q1027 NOSIG
12-09-06 METAR LFPG 060100Z 36007KT 9999 FEW040 11/08 Q1027 NOSIG
12-09-06 METAR LFPG 060130Z 36005KT 350V050 9999 FEW040 11/08 Q1027 NOSIG
12-09-06 METAR LFPG 060200Z 01006KT 340V090 9999 FEW040 11/08 Q1027 NOSIG
12-09-06 METAR LFPG 060230Z 01004KT 350V070 9999 FEW040 10/07 Q1027 NOSIG
12-09-06 METAR LFPG 060300Z 36006KT 9999 FEW040 10/07 Q1027 NOSIG
12-09-06 METAR LFPG 060330Z 01006KT CAVOK 10/07 Q1027 NOSIG
12-09-06 METAR LFPG 060400Z 02007KT 360V100 CAVOK 10/07 Q1027 NOSIG
12-09-06 METAR LFPG 060430Z 01008KT 360V090 CAVOK 09/08 Q1027 NOSIG
12-09-06 METAR LFPG 060500Z 01008KT 360V090 CAVOK 10/08 Q1027 NOSIG
12-09-06 METAR LFPG 060530Z 01007KT 350V050 CAVOK 10/08 Q1027 NOSIG
12-09-06 METAR LFPG 060600Z 01008KT 360V120 CAVOK 10/08 Q1027 NOSIG
12-09-06 METAR LFPG 060630Z 01009KT 300V060 CAVOK 11/09 Q1027 NOSIG
12-09-06 METAR LFPG 060700Z 02009KT 310V120 CAVOK 12/09 Q1028 NOSIG
12-09-06 METAR LFPG 060730Z 03009KT 360V070 CAVOK 13/09 Q1028 NOSIG
12-09-06 METAR LFPG 060800Z 04009KT CAVOK 14/09 Q1028 NOSIG
12-09-06 METAR LFPG 060830Z 04008KT 010V070 CAVOK 15/09 Q1028 NOSIG
12-09-06 METAR LFPG 060900Z 05011KT 020V080 9999 FEW033 16/09 Q1028 NOSIG
12-09-06 METAR LFPG 060930Z 04010KT 010V110 9999 FEW033 17/08 Q1028 NOSIG
12-09-06 METAR LFPG 061000Z 05008KT 360V090 9999 FEW036 18/08 Q1028 NOSIG
12-09-06 METAR LFPG 061030Z 06008KT 010V100 9999 FEW040 SCT260 19/07 Q1028 NOSIG
12-09-06 METAR LFPG 061100Z 06007KT 020V100 CAVOK 19/07 Q1028 NOSIG
12-09-06 METAR LFPG 061130Z 06007KT 010V100 CAVOK 20/07 Q1027 NOSIG
12-09-06 METAR LFPG 061200Z 02005KT 310V070 CAVOK 21/07 Q1027 NOSIG
12-09-06 METAR LFPG 061230Z 04007KT 010V090 CAVOK 20/07 Q1027 NOSIG
12-09-06 METAR LFPG 061300Z VRB04KT CAVOK 21/06 Q1027 NOSIG
12-09-06 METAR LFPG 061330Z 04006KT 010V110 CAVOK 21/07 Q1027 NOSIG
12-09-06 METAR LFPG 061400Z 05006KT 350V140 CAVOK 21/06 Q1026 NOSIG
12-09-06 METAR LFPG 061430Z 05005KT 340V100 CAVOK 22/05 Q1026 NOSIG
12-09-06 METAR LFPG 061500Z 01006KT 330V080 CAVOK 22/06 Q1026 NOSIG
12-09-06 METAR LFPG 061530Z 01008KT 320V060 CAVOK 22/06 Q1026 NOSIG
12-09-06 METAR LFPG 061600Z 03006KT 350V090 CAVOK 22/07 Q1026 NOSIG
12-09-06 METAR LFPG 061630Z VRB07KT CAVOK 22/07 Q1026 NOSIG
12-09-06 METAR LFPG 061700Z 02006KT 350V070 CAVOK 21/07 Q1026 NOSIG
12-09-06 METAR LFPG 061730Z 03005KT 360V110 CAVOK 20/07 Q1026 NOSIG
12-09-06 METAR LFPG 061800Z 02004KT 360V120 CAVOK 19/07 Q1026 NOSIG
12-09-06 METAR LFPG 061830Z 01004KT 360V110 CAVOK 19/07 Q1026 NOSIG
12-09-06 METAR LFPG 061900Z 02004KT 010V090 CAVOK 18/07 Q1026 NOSIG
12-09-06 METAR LFPG 061930Z 04005KT 360V090 CAVOK 17/07 Q1026 NOSIG
12-09-06 METAR LFPG 062000Z 05007KT 020V100 CAVOK 15/07 Q1026 NOSIG
12-09-06 METAR LFPG 062030Z 04006KT CAVOK 15/07 Q1026 NOSIG
12-09-06 METAR LFPG 062100Z 04004KT CAVOK 15/07 Q1026 NOSIG
12-09-06 METAR LFPG 062130Z 04005KT CAVOK 14/07 Q1026 NOSIG
12-09-06 METAR LFPG 062200Z 05006KT 020V090 CAVOK 14/07 Q1026 NOSIG
12-09-06 METAR LFPG 062230Z 05004KT CAVOK 14/07 Q1026 NOSIG
12-09-06 METAR LFPG 062300Z 05003KT CAVOK 14/07 Q1026 NOSIG
12-09-06 METAR LFPG 062330Z 01003KT CAVOK 13/07 Q1026 NOSIG
12-09-07 METAR LFPG 070000Z 36005KT CAVOK 13/07 Q1026 NOSIG
12-09-07 METAR LFPG 070030Z 01007KT CAVOK 12/07 Q1026 NOSIG
12-09-07 METAR LFPG 070100Z 01006KT CAVOK 11/07 Q1026 NOSIG
12-09-07 METAR LFPG 070130Z 01004KT CAVOK 11/07 Q1026 NOSIG
12-09-07 METAR LFPG 070200Z 36004KT CAVOK 11/07 Q1026 NOSIG
12-09-07 METAR LFPG 070230Z 36004KT CAVOK 11/07 Q1026 NOSIG
12-09-07 METAR LFPG 070300Z 01005KT CAVOK 10/06 Q1026 NOSIG
12-09-07 METAR LFPG 070330Z 02003KT CAVOK 10/07 Q1026 NOSIG
12-09-07 METAR LFPG 070400Z 03004KT 360V090 CAVOK 10/07 Q1026 NOSIG
12-09-07 METAR LFPG 070430Z 01004KT CAVOK 10/07 Q1025 NOSIG
12-09-07 METAR LFPG 070500Z 01005KT CAVOK 09/06 Q1025 NOSIG
12-09-07 METAR LFPG 070530Z 36004KT 350V050 CAVOK 09/07 Q1026 NOSIG
12-09-07 METAR LFPG 070600Z 01004KT 350V060 CAVOK 09/07 Q1026 NOSIG
12-09-07 METAR LFPG 070630Z 01003KT CAVOK 10/08 Q1026 NOSIG
12-09-07 METAR LFPG 070700Z VRB02KT CAVOK 12/09 Q1026 NOSIG
12-09-07 METAR LFPG 070730Z VRB02KT CAVOK 14/09 Q1027 NOSIG
12-09-07 METAR LFPG 070800Z 00000KT CAVOK 16/09 Q1027 NOSIG
12-09-07 METAR LFPG 070830Z VRB02KT CAVOK 17/08 Q1027 NOSIG
12-09-07 METAR LFPG 070900Z 12003KT 050V180 CAVOK 19/08 Q1027 NOSIG
12-09-07 METAR LFPG 070930Z VRB03KT CAVOK 20/07 Q1027 NOSIG
12-09-07 METAR LFPG 071000Z VRB02KT CAVOK 20/07 Q1027 NOSIG
12-09-07 METAR LFPG 071030Z 04006KT 350V090 CAVOK 21/07 Q1027 NOSIG
12-09-07 METAR LFPG 071100Z 04005KT 340V110 CAVOK 22/07 Q1026 NOSIG
12-09-07 METAR LFPG 071130Z VRB02KT CAVOK 23/06 Q1026 NOSIG
12-09-07 METAR LFPG 071200Z VRB04KT CAVOK 23/07 Q1026 NOSIG
12-09-07 METAR LFPG 071230Z 02004KT 310V100 CAVOK 24/05 Q1026 NOSIG
12-09-07 METAR LFPG 071300Z VRB03KT CAVOK 24/05 Q1025 NOSIG
12-09-07 METAR LFPG 071330Z 33004KT 280V030 CAVOK 25/04 Q1025 NOSIG
12-09-07 METAR LFPG 071400Z VRB03KT CAVOK 25/04 Q1025 NOSIG
12-09-07 METAR LFPG 071430Z VRB03KT CAVOK 25/03 Q1025 NOSIG
12-09-07 METAR LFPG 071500Z 31003KT 240V040 CAVOK 26/05 Q1025 NOSIG
12-09-07 METAR LFPG 071530Z 36005KT 290V060 CAVOK 25/06 Q1024 NOSIG
12-09-07 METAR LFPG 071600Z 35005KT 310V060 CAVOK 25/05 Q1024 NOSIG
12-09-07 METAR LFPG 071630Z VRB06KT CAVOK 25/05 Q1024 NOSIG
12-09-07 METAR LFPG 071700Z 02005KT 360V140 CAVOK 24/05 Q1024 NOSIG
12-09-07 METAR LFPG 071730Z 03005KT 350V100 CAVOK 23/07 Q1024 NOSIG
12-09-07 METAR LFPG 071800Z 05004KT 020V090 CAVOK 23/07 Q1024 NOSIG
12-09-07 METAR LFPG 071830Z 05005KT CAVOK 22/06 Q1024 NOSIG
12-09-07 METAR LFPG 071900Z 06005KT CAVOK 22/05 Q1024 NOSIG
12-09-07 METAR LFPG 071930Z 06005KT CAVOK 21/04 Q1024 NOSIG
12-09-07 METAR LFPG 072000Z 07005KT CAVOK 20/05 Q1024 NOSIG
12-09-07 METAR LFPG 072030Z 04004KT CAVOK 19/05 Q1024 NOSIG
12-09-07 METAR LFPG 072100Z 04004KT CAVOK 18/05 Q1024 NOSIG
12-09-07 METAR LFPG 072130Z 04003KT CAVOK 17/06 Q1024 NOSIG
12-09-07 METAR LFPG 072200Z 05003KT CAVOK 17/05 Q1024 NOSIG
12-09-07 METAR LFPG 072230Z 04003KT CAVOK 17/05 Q1024 NOSIG
12-09-07 METAR LFPG 072300Z 36006KT CAVOK 16/06 Q1024 NOSIG
12-09-07 METAR LFPG 072330Z 36005KT CAVOK 16/06 Q1024 NOSIG
12-09-08 METAR LFPG 080000Z 01006KT CAVOK 16/07 Q1024 NOSIG
12-09-08 METAR LFPG 080030Z 02005KT CAVOK 15/07 Q1023 NOSIG
12-09-08 METAR LFPG 080100Z 02005KT CAVOK 14/07 Q1023 NOSIG
12-09-08 METAR LFPG 080130Z 03004KT CAVOK 14/06 Q1023 NOSIG
12-09-08 METAR LFPG 080200Z 01004KT CAVOK 13/07 Q1023 NOSIG
12-09-08 METAR LFPG 080230Z 01005KT 360V070 CAVOK 13/07 Q1023 NOSIG
12-09-08 METAR LFPG 080300Z 01003KT CAVOK 13/08 Q1023 NOSIG
12-09-08 METAR LFPG 080330Z 05003KT CAVOK 13/08 Q1023 NOSIG
12-09-08 METAR LFPG 080400Z 06004KT CAVOK 13/07 Q1022 NOSIG
12-09-08 METAR LFPG 080430Z 02005KT CAVOK 12/07 Q1022 NOSIG
12-09-08 METAR LFPG 080500Z 01006KT 350V050 CAVOK 12/08 Q1022 NOSIG
12-09-08 METAR LFPG 080530Z 01007KT 360V060 CAVOK 11/08 Q1022 NOSIG
12-09-08 METAR LFPG 080600Z 02005KT CAVOK 12/08 Q1022 NOSIG
12-09-08 METAR LFPG 080630Z 01004KT CAVOK 14/08 Q1022 NOSIG
12-09-08 METAR LFPG 080700Z 02006KT 360V090 CAVOK 14/09 Q1022 NOSIG
12-09-08 METAR LFPG 080730Z 03004KT 340V070 CAVOK 16/09 Q1022 NOSIG
12-09-08 METAR LFPG 080800Z 03003KT 360V070 CAVOK 18/09 Q1022 NOSIG
12-09-08 METAR LFPG 080830Z 05003KT 010V110 CAVOK 20/08 Q1022 NOSIG
12-09-08 METAR LFPG 080900Z 05005KT 010V080 CAVOK 22/08 Q1022 NOSIG
12-09-08 METAR LFPG 080930Z 05005KT 010V090 CAVOK 23/07 Q1022 NOSIG
12-09-08 METAR LFPG 081000Z 05005KT 360V100 CAVOK 24/06 Q1022 NOSIG
12-09-08 METAR LFPG 081030Z 08005KT 020V130 CAVOK 25/05 Q1022 NOSIG
12-09-08 METAR LFPG 081100Z 07004KT 350V160 CAVOK 25/05 Q1021 NOSIG
12-09-08 METAR LFPG 081130Z 07005KT 010V110 CAVOK 26/04 Q1021 NOSIG
12-09-08 METAR LFPG 081200Z 08006KT 030V200 CAVOK 27/05 Q1021 NOSIG
12-09-08 METAR LFPG 081230Z 08006KT 020V120 CAVOK 27/02 Q1021 NOSIG
12-09-08 METAR LFPG 081300Z 06006KT 010V100 CAVOK 27/02 Q1020 NOSIG
12-09-08 METAR LFPG 081330Z 08006KT 030V200 CAVOK 28/03 Q1020 NOSIG
12-09-08 METAR LFPG 081400Z 08006KT 360V130 CAVOK 28/M01 Q1019 NOSIG
12-09-08 METAR LFPG 081430Z 06007KT 030V100 CAVOK 28/00 Q1019 NOSIG
12-09-08 METAR LFPG 081500Z 07006KT 020V110 CAVOK 28/01 Q1019 NOSIG
12-09-08 METAR LFPG 081530Z 07007KT 030V100 CAVOK 28/M01 Q1018 NOSIG
12-09-08 METAR LFPG 081600Z 07008KT 030V100 CAVOK 28/02 Q1018 NOSIG
12-09-08 METAR LFPG 081630Z 06006KT CAVOK 28/02 Q1018 NOSIG
12-09-08 METAR LFPG 081700Z 05008KT CAVOK 27/03 Q1018 NOSIG
12-09-08 METAR LFPG 081730Z 06006KT CAVOK 27/03 Q1018 NOSIG
12-09-08 METAR LFPG 081800Z 05006KT 030V090 CAVOK 24/05 Q1017 NOSIG
12-09-08 METAR LFPG 081830Z 05006KT CAVOK 23/04 Q1017 NOSIG
12-09-08 METAR LFPG 081900Z 06007KT CAVOK 22/04 Q1017 NOSIG
12-09-08 METAR LFPG 081930Z 05008KT CAVOK 21/04 Q1018 NOSIG
12-09-08 METAR LFPG 082000Z 06008KT CAVOK 22/02 Q1017 NOSIG
12-09-08 METAR LFPG 082030Z 07007KT CAVOK 22/03 Q1017 NOSIG
12-09-08 METAR LFPG 082100Z 07006KT CAVOK 21/03 Q1017 NOSIG
12-09-08 METAR LFPG 082130Z 05004KT CAVOK 20/04 Q1017 NOSIG
12-09-08 METAR LFPG 082200Z 09005KT CAVOK 20/04 Q1017 NOSIG
12-09-08 METAR LFPG 082230Z 08005KT CAVOK 20/04 Q1017 NOSIG
12-09-08 METAR LFPG 082300Z 08006KT CAVOK 19/04 Q1017 NOSIG
12-09-08 METAR LFPG 082330Z 07005KT CAVOK 19/04 Q1016 NOSIG
12-09-09 METAR LFPG 090000Z 06003KT CAVOK 18/05 Q1016 NOSIG
12-09-09 METAR LFPG 090030Z 03003KT CAVOK 17/05 Q1016 NOSIG
12-09-09 METAR LFPG 090100Z 02004KT CAVOK 16/05 Q1016 NOSIG
12-09-09 METAR LFPG 090130Z 03004KT CAVOK 16/05 Q1016 NOSIG
12-09-09 METAR LFPG 090200Z 05004KT CAVOK 15/05 Q1015 NOSIG
12-09-09 METAR LFPG 090230Z 04003KT CAVOK 15/05 Q1015 NOSIG
12-09-09 METAR LFPG 090300Z 06004KT CAVOK 15/05 Q1015 NOSIG
12-09-09 METAR LFPG 090330Z 08004KT CAVOK 15/05 Q1015 NOSIG
12-09-09 METAR LFPG 090400Z 10003KT CAVOK 14/06 Q1015 NOSIG
12-09-09 METAR LFPG 090430Z 09005KT CAVOK 14/06 Q1014 NOSIG
12-09-09 METAR LFPG 090500Z 10005KT CAVOK 14/06 Q1014 NOSIG
12-09-09 METAR LFPG 090530Z 10004KT CAVOK 14/06 Q1014 NOSIG
12-09-09 METAR LFPG 090600Z 14003KT CAVOK 15/07 Q1014 NOSIG
12-09-09 METAR LFPG 090630Z 13005KT CAVOK 16/08 Q1014 NOSIG
12-09-09 METAR LFPG 090700Z 15005KT CAVOK 16/08 Q1014 NOSIG
12-09-09 METAR LFPG 090730Z 15005KT CAVOK 17/08 Q1015 NOSIG
12-09-09 METAR LFPG 090800Z 14003KT 100V160 CAVOK 18/08 Q1015 NOSIG
12-09-09 METAR LFPG 090830Z 15004KT 070V180 CAVOK 19/09 Q1015 NOSIG
12-09-09 METAR LFPG 090900Z 14004KT 070V190 CAVOK 21/09 Q1015 NOSIG
12-09-09 METAR LFPG 091030Z 16005KT 090V190 CAVOK 25/09 Q1014 NOSIG
12-09-09 METAR LFPG 091100Z 19006KT 090V230 CAVOK 27/08 Q1014 NOSIG
12-09-09 METAR LFPG 091130Z VRB08KT CAVOK 28/07 Q1014 NOSIG
12-09-09 METAR LFPG 091200Z 18006G17KT 130V270 CAVOK 29/07 Q1013 NOSIG
12-09-09 METAR LFPG 091230Z VRB09KT CAVOK 29/08 Q1013 NOSIG
12-09-09 METAR LFPG 091300Z 20010G26KT 140V290 CAVOK 29/06 Q1013 NOSIG
12-09-09 METAR LFPG 091330Z 21010KT CAVOK 30/04 Q1013 NOSIG
12-09-09 METAR LFPG 091400Z 21010KT 170V240 CAVOK 31/00 Q1012 NOSIG
12-09-09 METAR LFPG 091430Z 22011KT 180V240 CAVOK 31/00 Q1012 NOSIG
12-09-09 METAR LFPG 091500Z 21011KT 180V250 CAVOK 31/M01 Q1012 NOSIG
12-09-09 METAR LFPG 091530Z 25011KT CAVOK 31/M01 Q1012 NOSIG
12-09-09 METAR LFPG 091600Z 23011KT 210V300 CAVOK 31/02 Q1012 NOSIG
12-09-09 METAR LFPG 091630Z 22010KT CAVOK 30/02 Q1012 NOSIG
12-09-09 METAR LFPG 091700Z 23011KT CAVOK 30/01 Q1012 NOSIG
12-09-09 METAR LFPG 091730Z 23010KT CAVOK 28/00 Q1012 NOSIG
12-09-09 METAR LFPG 091800Z 25007KT CAVOK 27/00 Q1012 NOSIG
12-09-09 METAR LFPG 091830Z 24007KT CAVOK 27/01 Q1012 NOSIG
12-09-09 METAR LFPG 091900Z 23004KT CAVOK 26/02 Q1012 NOSIG
12-09-09 METAR LFPG 091930Z 23005KT CAVOK 25/03 Q1013 NOSIG
12-09-09 METAR LFPG 092000Z 20004KT CAVOK 24/03 Q1013 NOSIG
12-09-09 METAR LFPG 092030Z 22005KT CAVOK 24/04 Q1013 NOSIG
12-09-09 METAR LFPG 092100Z 23003KT CAVOK 23/05 Q1013 NOSIG
12-09-09 METAR LFPG 092130Z 26003KT CAVOK 23/05 Q1013 NOSIG
12-09-09 METAR LFPG 092200Z 25003KT CAVOK 22/06 Q1013 NOSIG
12-09-09 METAR LFPG 092230Z 22005KT CAVOK 21/07 Q1013 NOSIG
12-09-09 METAR LFPG 092300Z 22004KT CAVOK 21/07 Q1013 NOSIG
12-09-09 METAR LFPG 092330Z 26005KT CAVOK 22/08 Q1013 NOSIG
12-09-10 METAR LFPG 100000Z 24004KT CAVOK 21/09 Q1013 NOSIG
12-09-10 METAR LFPG 100030Z VRB02KT CAVOK 21/10 Q1013 NOSIG
12-09-10 METAR LFPG 100100Z 24002KT CAVOK 20/09 Q1013 NOSIG
12-09-10 METAR LFPG 100130Z 23003KT CAVOK 19/09 Q1014 NOSIG
12-09-10 METAR LFPG 100200Z 26007KT CAVOK 20/10 Q1014 NOSIG
12-09-10 METAR LFPG 100230Z 25006KT CAVOK 20/11 Q1014 NOSIG
12-09-10 METAR LFPG 100300Z 26009KT CAVOK 20/13 Q1014 NOSIG
12-09-10 METAR LFPG 100330Z 26008KT CAVOK 19/14 Q1014 NOSIG
12-09-10 METAR LFPG 100400Z 26005KT CAVOK 19/14 Q1014 NOSIG
12-09-10 METAR LFPG 100430Z 28004KT CAVOK 18/14 Q1014 NOSIG
12-09-10 METAR LFPG 100500Z 24007KT 9999 FEW070 FEW090TCU SCT100 BKN140 18/14 Q1014 NOSIG
12-09-10 METAR LFPG 100530Z 25003KT 200V280 9000 FEW060 FEW066TCU SCT100 BKN140 18/15 Q1015 NOSIG
12-09-10 METAR LFPG 100600Z 26002KT 9000 VCSH NSC 18/15 Q1015 NOSIG
12-09-10 METAR LFPG 100630Z 22003KT 180V260 9000 NSC 18/15 Q1015 NOSIG
12-09-10 METAR LFPG 100700Z 23005KT CAVOK 18/15 Q1015 NOSIG
12-09-10 METAR LFPG 100730Z 24006KT 9999 FEW020 18/15 Q1015 NOSIG
12-09-10 METAR LFPG 100800Z 21007KT 9999 SCT014 BKN050 19/15 Q1015 NOSIG
12-09-10 METAR LFPG 100830Z 23005KT 200V270 9999 SCT015 BKN050 19/15 Q1016 NOSIG
12-09-10 METAR LFPG 100900Z 22008KT 180V250 9999 BKN016 BKN050 20/14 Q1016 NOSIG
12-09-10 METAR LFPG 100930Z 22008G20KT 180V340 9999 FEW018 21/15 Q1016 NOSIG
12-09-10 METAR LFPG 101000Z 23008KT 180V310 9999 FEW020 21/14 Q1016 NOSIG
12-09-10 METAR LFPG 101030Z VRB08G20KT 9999 FEW023 BKN100 22/14 Q1016 NOSIG
12-09-10 METAR LFPG 101300Z 21010KT 180V340 CAVOK 25/14 Q1015 NOSIG
12-09-10 METAR LFPG 101330Z 22013KT 190V250 CAVOK 25/13 Q1015 NOSIG
12-09-10 METAR LFPG 101400Z 21012KT 180V240 CAVOK 25/12 Q1014 NOSIG
12-09-10 METAR LFPG 101430Z 22012KT 190V250 CAVOK 26/12 Q1014 NOSIG
12-09-10 METAR LFPG 101500Z 21011KT 180V250 CAVOK 26/12 Q1014 NOSIG
12-09-10 METAR LFPG 101530Z 22010KT CAVOK 26/12 Q1014 NOSIG
12-09-10 METAR LFPG 101600Z 23012KT CAVOK 26/12 Q1014 NOSIG
12-09-10 METAR LFPG 101630Z 23010KT 200V260 CAVOK 26/12 Q1014 NOSIG
12-09-10 METAR LFPG 101700Z 23011KT CAVOK 25/12 Q1014 NOSIG
12-09-10 METAR LFPG 101730Z 23009KT CAVOK 25/13 Q1014 NOSIG
12-09-10 METAR LFPG 101800Z 21007KT 190V300 CAVOK 24/13 Q1014 NOSIG
12-09-10 METAR LFPG 101830Z 18007KT CAVOK 24/13 Q1014 NOSIG
12-09-10 METAR LFPG 101900Z 18008KT CAVOK 23/14 Q1014 NOSIG
12-09-10 METAR LFPG 101930Z 17008KT CAVOK 23/14 Q1014 NOSIG
12-09-10 METAR LFPG 102000Z 18008KT CAVOK 23/15 Q1014 NOSIG
12-09-10 METAR LFPG 102030Z 19008KT 9999 -SHRA NSC 22/15 Q1014 NOSIG
12-09-10 METAR LFPG 102100Z 18007KT CAVOK 21/16 Q1014 NOSIG
12-09-10 METAR LFPG 102130Z 17005KT 9999 -SHRA FEW050CB SCT086 BKN100 20/16 Q1014
12-09-10 METAR LFPG 102200Z 17006KT 150V240 9999 FEW050CB BKN090 BKN130 20/16 Q1014
12-09-10 METAR LFPG 102230Z 20005KT CAVOK 20/16 Q1014 NOSIG
12-09-10 METAR LFPG 102300Z 18004KT CAVOK 20/17 Q1014 NOSIG
12-09-10 METAR LFPG 102330Z 18004KT CAVOK 20/17 Q1014 NOSIG
12-09-11 METAR LFPG 110000Z 18005KT 9999 FEW040 BKN100 BKN120 20/16 Q1014 NOSIG
12-09-11 METAR LFPG 110030Z 19005KT 9999 SCT040 BKN100 BKN120 19/17 Q1014 NOSIG
12-09-11 METAR LFPG 110100Z 18005KT 9999 BKN040 19/16 Q1014 NOSIG
12-09-11 METAR LFPG 110130Z 22006KT 4000 -SHRA SCT040 SCT046 BKN093 19/17 Q1014 NOSIG
12-09-11 METAR LFPG 110200Z 20004KT 170V230 5000 -SHRA SCT026 SCT040 BKN093 19/17 Q1013 NOSIG
12-09-11 METAR LFPG 110230Z 20005KT 7000 FEW026 BKN093 19/17 Q1013 NOSIG
12-09-11 METAR LFPG 110300Z 24006KT 8000 SCT040 BKN099 19/17 Q1013 NOSIG
12-09-11 METAR LFPG 110330Z 21005KT 9000 SCT040 SCT066 BKN099 19/17 Q1013 NOSIG
12-09-11 METAR LFPG 110400Z 22006KT 9999 FEW040 BKN066 19/17 Q1013 NOSIG
12-09-11 METAR LFPG 110430Z 23006KT 9999 FEW040 BKN066 BKN087 19/16 Q1013 NOSIG
12-09-11 METAR LFPG 110600Z 24006KT CAVOK 18/15 Q1014 NOSIG
12-09-11 METAR LFPG 110730Z 22009KT 9999 VCSH NSC 18/15 Q1014 NOSIG
12-09-11 METAR LFPG 110800Z 24011KT 9999 FEW015 SCT100 18/15 Q1014 NOSIG
12-09-11 METAR LFPG 110830Z 23010KT 9999 -RA SCT013 SCT093 18/15 Q1014 NOSIG
12-09-11 METAR LFPG 110900Z 23009KT 9999 -RA SCT015 SCT083 18/15 Q1014 NOSIG
12-09-11 METAR LFPG 110930Z VRB09G20KT 9999 FEW018 BKN073 18/16 Q1014 NOSIG
12-09-11 METAR LFPG 111000Z 22010KT 200V320 8000 -RA BKN013 BKN034 BKN060 18/15 Q1014 NOSIG
12-09-11 METAR LFPG 111030Z 24010G24KT 200V310 2500 -RA FEW007 BKN009 BKN023 18/16
12-09-11 METAR LFPG 111100Z 30009KT 7000 -RA SCT005 BKN012 BKN015 16/14 Q1015 NOSIG
12-09-11 METAR LFPG 111130Z 31006KT 4500 RA SCT006 BKN010 BKN016 15/14 Q1015 NOSIG
12-09-11 METAR LFPG 111200Z 27006KT 7000 -RA SCT006 BKN010 BKN023 15/14 Q1015 NOSIG
12-09-11 METAR LFPG 111230Z 25007KT 210V270 9999 -RA SCT008 BKN013 BKN030 16/14 Q1015 NOSIG
12-09-11 METAR LFPG 111300Z 28006KT 250V310 9999 -RA SCT010 BKN016 BKN033 16/14
12-09-11 METAR LFPG 111430Z 28004KT 9999 BKN033 15/13 Q1015 NOSIG
12-09-11 METAR LFPG 111500Z 28004KT 250V310 9999 FEW010 BKN038 15/13 Q1015 NOSIG
12-09-11 METAR LFPG 111630Z 30006KT 9999 SCT026 BKN050 16/13 Q1016 NOSIG
12-09-11 METAR LFPG 111700Z 30009KT 9999 FEW026 BKN056 BKN260 16/12 Q1016 NOSIG
12-09-11 METAR LFPG 111730Z 30008KT 9999 FEW033 SCT056 BKN260 16/10 Q1016 NOSIG
12-09-11 METAR LFPG 111800Z 30008KT 9999 FEW033 SCT056 BKN260 15/10 Q1016 NOSIG
12-09-11 METAR LFPG 111830Z 30007KT 9999 FEW033 SCT210 BKN260 14/09 Q1016 NOSIG
12-09-11 METAR LFPG 111900Z 29006KT CAVOK 14/09 Q1017 NOSIG
12-09-11 METAR LFPG 111930Z 29005KT CAVOK 13/09 Q1017 NOSIG
12-09-11 METAR LFPG 112000Z 29006KT CAVOK 13/09 Q1017 NOSIG
12-09-11 METAR LFPG 112100Z 29007KT CAVOK 13/08 Q1018 NOSIG
12-09-11 METAR LFPG 112130Z 28006KT CAVOK 13/08 Q1018 NOSIG
12-09-11 METAR LFPG 112200Z 28006KT CAVOK 12/08 Q1018 NOSIG
12-09-11 METAR LFPG 112230Z 27004KT CAVOK 12/08 Q1018 NOSIG
12-09-11 METAR LFPG 112300Z 26005KT CAVOK 12/08 Q1018 NOSIG
12-09-11 METAR LFPG 112330Z 24005KT CAVOK 12/08 Q1018 NOSIG
12-09-12 METAR LFPG 120000Z 25006KT CAVOK 13/08 Q1018 NOSIG
12-09-12 METAR LFPG 120030Z 26006KT CAVOK 13/08 Q1017 NOSIG
12-09-12 METAR LFPG 120100Z 26006KT CAVOK 13/08 Q1017 NOSIG
12-09-12 METAR LFPG 120130Z 27006KT CAVOK 12/08 Q1017 NOSIG
12-09-12 METAR LFPG 120200Z 28006KT CAVOK 12/08 Q1017 NOSIG
12-09-12 METAR LFPG 120230Z 27007KT CAVOK 12/08 Q1017 NOSIG
12-09-12 METAR LFPG 120300Z 27005KT CAVOK 12/08 Q1017 NOSIG
12-09-12 METAR LFPG 120330Z 25005KT CAVOK 12/08 Q1017 NOSIG
12-09-12 METAR LFPG 120400Z 24005KT CAVOK 12/08 Q1017 NOSIG
12-09-12 METAR LFPG 120430Z 26004KT CAVOK 12/08 Q1017 NOSIG
12-09-12 METAR LFPG 120500Z 26007KT 9999 SCT048 BKN120 12/08 Q1017 NOSIG
12-09-12 METAR LFPG 120530Z 27005KT CAVOK 12/08 Q1017 NOSIG
12-09-12 METAR LFPG 120600Z 28004KT CAVOK 12/08 Q1017 NOSIG
12-09-12 METAR LFPG 120630Z 28008KT 9999 -SHRA BKN042 12/08 Q1018 NOSIG
12-09-12 METAR LFPG 120700Z 28005KT 9999 -SHRA BKN041 12/08 Q1017 NOSIG
12-09-12 METAR LFPG 120730Z 28006KT 9999 BKN048 12/08 Q1018 NOSIG
12-09-12 METAR LFPG 120800Z 28009KT 9999 FEW015 BKN056 12/08 Q1018 NOSIG
12-09-12 METAR LFPG 120830Z 27011KT 9999 FEW020 BKN066 13/08 Q1018 NOSIG
12-09-12 METAR LFPG 120900Z 28012KT 9999 SCT020 BKN160 14/08 Q1018 NOSIG
12-09-12 METAR LFPG 120930Z 28010KT 260V320 9999 BKN022 BKN110 14/08 Q1018 NOSIG
12-09-12 METAR LFPG 121000Z 28010KT 250V330 9999 SCT022 SCT048 BKN110 14/08 Q1018 NOSIG
12-09-12 METAR LFPG 121030Z 28011KT 250V310 9999 BKN022 SCT048 BKN085 15/07 Q1018
12-09-12 METAR LFPG 121100Z 28008KT 250V330 9999 SCT032 SCT052 16/07 Q1017 NOSIG
12-09-12 METAR LFPG 121130Z 29009KT 250V320 9999 SCT040 SCT060 BKN096 16/05 Q1017
12-09-12 METAR LFPG 121200Z 30008KT 270V340 9999 SCT036 SCT063 15/06 Q1017 NOSIG
12-09-12 METAR LFPG 121230Z 31005KT 250V350 9999 SCT036 SCT060 16/06 Q1017 NOSIG
12-09-12 METAR LFPG 121300Z 30006KT 270V340 9999 SCT039 16/06 Q1017 NOSIG
12-09-12 METAR LFPG 121330Z 30004KT 250V340 9999 SCT040 16/07 Q1017 NOSIG
12-09-12 METAR LFPG 121400Z 31003KT 240V010 CAVOK 16/07 Q1016 NOSIG
12-09-12 METAR LFPG 121430Z 28003KT 250V310 9999 SCT042 SCT056 16/06 Q1016 NOSIG
12-09-12 METAR LFPG 121500Z 26011KT 9999 SCT040 17/07 Q1016 NOSIG
12-09-12 METAR LFPG 121530Z 27011KT 250V310 9999 SCT038 17/07 Q1016 NOSIG
12-09-12 METAR LFPG 121600Z 27010KT 9999 SCT040 17/05 Q1016 NOSIG
12-09-12 METAR LFPG 121630Z 28010KT 240V300 9999 SCT043 SCT078 17/06 Q1016 NOSIG
12-09-12 METAR LFPG 121700Z 26010KT 9999 FEW043 BKN076 16/07 Q1016 NOSIG
12-09-12 METAR LFPG 121730Z 26008KT 9999 FEW043 BKN076 16/06 Q1016 NOSIG
12-09-12 METAR LFPG 121800Z 27007KT 9999 FEW046 BKN073 15/07 Q1016 NOSIG
12-09-12 METAR LFPG 121830Z 26007KT CAVOK 15/07 Q1016 NOSIG
12-09-12 METAR LFPG 121900Z 26007KT 9999 SCT046 BKN058 15/08 Q1016 NOSIG
12-09-12 METAR LFPG 121930Z 27004KT 9999 -RA SCT031 BKN040 14/09 Q1016 NOSIG
12-09-12 METAR LFPG 122000Z 25006KT 220V300 9999 FEW038 BKN043 14/09 Q1016 NOSIG
12-09-12 METAR LFPG 122030Z 24004KT 220V280 9999 -RA FEW033 BKN063 14/09 Q1016
12-09-12 METAR LFPG 122100Z 25008KT 9999 SCT031 BKN061 15/09 Q1016 NOSIG
12-09-12 METAR LFPG 122130Z 24007KT 9999 FEW031 BKN053 BKN096 14/09 Q1016 NOSIG
12-09-12 METAR LFPG 122200Z 24009G19KT 9999 FEW033 BKN045 BKN083 14/09 Q1015 NOSIG
12-09-12 METAR LFPG 122230Z 24008KT 9999 SCT023 BKN036 14/10 Q1015 NOSIG
12-09-12 METAR LFPG 122300Z 24010KT 9999 -RA SCT023 BKN043 13/10 Q1015 NOSIG
12-09-12 METAR LFPG 122330Z 24008KT 9999 -RA FEW026 BKN033 13/11 Q1015 NOSIG
12-09-13 METAR LFPG 130000Z 23008KT 2500 -RA FEW009 SCT020TCU BKN026 13/11 Q1014 NOSIG
12-09-13 METAR LFPG 130030Z 22009KT 6000 -RA FEW008 BKN018 BKN040 13/11 Q1014 NOSIG
12-09-13 METAR LFPG 130100Z 22008KT 9999 FEW010 BKN018 13/11 Q1014 NOSIG
12-09-13 METAR LFPG 130130Z 23007KT 5000 -RA FEW011 BKN015 13/11 Q1014 NOSIG
12-09-13 METAR LFPG 130200Z 24007KT 5000 RA FEW009 BKN011 BKN016 13/12 Q1014 NOSIG
12-09-13 METAR LFPG 130230Z 29006KT 270V330 6000 -RA SCT006 SCT043 BKN066 13/12 Q1014 NOSIG
12-09-13 METAR LFPG 130300Z 31006KT 9999 FEW010 BKN048 13/12 Q1014 NOSIG
12-09-13 METAR LFPG 130330Z 31007KT 9999 FEW023 BKN053 13/11 Q1014 NOSIG
12-09-13 METAR LFPG 130400Z 31007KT 9999 FEW010 BKN060 13/11 Q1014 NOSIG
12-09-13 METAR LFPG 130430Z 33008KT 9999 BKN011 SCT053 12/11 Q1015 NOSIG
12-09-13 METAR LFPG 130500Z 33008KT 9999 BKN015 SCT036 12/11 Q1015 NOSIG
12-09-13 METAR LFPG 130530Z 32007KT 9999 FEW009 BKN050 12/11 Q1016 NOSIG
12-09-13 METAR LFPG 130600Z 32007KT 9999 FEW016 11/10 Q1016 NOSIG
12-09-13 METAR LFPG 130630Z 32008KT 9999 SCT030 11/10 Q1016 NOSIG
12-09-13 METAR LFPG 130700Z 32009KT 9999 SCT030 12/10 Q1016 NOSIG
12-09-13 METAR LFPG 130730Z 32011KT CAVOK 12/10 Q1017 NOSIG
12-09-13 METAR LFPG 130800Z 33012KT 9999 FEW014 BKN056 13/10 Q1017 NOSIG
12-09-13 METAR LFPG 130830Z 35013KT 320V050 9999 FEW014 BKN050 14/10 Q1017 NOSIG
12-09-13 METAR LFPG 130900Z 34012KT 9999 FEW014 BKN043 14/11 Q1018 NOSIG
12-09-13 METAR LFPG 130930Z 34010KT 320V020 9999 FEW020 BKN033 14/10 Q1018 NOSIG
12-09-13 METAR LFPG 131000Z 33010KT 9999 BKN021 BKN033 15/10 Q1018 NOSIG
12-09-13 METAR LFPG 131030Z 34011KT 320V030 9999 SCT024 BKN033 BKN053 16/10 Q1018
12-09-13 METAR LFPG 131100Z 35015KT 330V040 9999 SCT025 BKN056 17/10 Q1019 NOSIG
12-09-13 METAR LFPG 131130Z 36012KT 330V030 9999 SCT028 BKN053 17/09 Q1018 NOSIG
12-09-13 METAR LFPG 131200Z 35011KT 310V050 9999 SCT031 BKN053 17/08 Q1019 NOSIG
12-09-13 METAR LFPG 131230Z 34010KT 320V030 9999 FEW031 BKN056 18/08 Q1019 NOSIG
12-09-13 METAR LFPG 131300Z 33009KT 300V020 9999 FEW033 BKN056 17/07 Q1019 NOSIG
12-09-13 METAR LFPG 131330Z 34008KT 310V030 9999 FEW036 BKN056 18/07 Q1019 NOSIG
12-09-13 METAR LFPG 131400Z 35009KT 320V060 9999 FEW040 BKN060 18/06 Q1019 NOSIG
12-09-13 METAR LFPG 131430Z 36008KT 330V040 9999 FEW040 BKN060 18/07 Q1019 NOSIG
12-09-13 METAR LFPG 131500Z 36009KT 340V040 9999 FEW043 BKN060 18/07 Q1019 NOSIG
12-09-13 METAR LFPG 131530Z 36008KT 330V060 CAVOK 18/07 Q1019 NOSIG
12-09-13 METAR LFPG 131600Z 34008KT 320V020 CAVOK 19/07 Q1019 NOSIG
12-09-13 METAR LFPG 131630Z 36006KT CAVOK 18/07 Q1019 NOSIG
12-09-13 METAR LFPG 131700Z 34009KT CAVOK 18/07 Q1020 NOSIG
12-09-13 METAR LFPG 131730Z 31006KT 9999 SCT043 17/08 Q1020 NOSIG
12-09-13 METAR LFPG 131800Z 33006KT 9999 SCT043 16/08 Q1020 NOSIG
12-09-13 METAR LFPG 131830Z 33005KT 9999 SCT043 15/08 Q1020 NOSIG
12-09-13 METAR LFPG 131900Z 31004KT 9999 FEW043 15/08 Q1020 NOSIG
12-09-13 METAR LFPG 131930Z 33004KT CAVOK 14/08 Q1020 NOSIG
12-09-13 METAR LFPG 132000Z 33005KT CAVOK 14/08 Q1020 NOSIG
12-09-13 METAR LFPG 132030Z 32006KT CAVOK 13/08 Q1021 NOSIG
12-09-13 METAR LFPG 132200Z 29003KT CAVOK 12/07 Q1020 NOSIG
12-09-13 METAR LFPG 132230Z 24003KT CAVOK 12/07 Q1020 NOSIG
12-09-13 METAR LFPG 132300Z 28005KT CAVOK 11/07 Q1020 NOSIG
12-09-13 METAR LFPG 132330Z 28005KT CAVOK 11/07 Q1020 NOSIG
12-09-14 METAR LFPG 140000Z 28005KT CAVOK 11/07 Q1020 NOSIG
12-09-14 METAR LFPG 140030Z 24003KT CAVOK 10/07 Q1020 NOSIG
12-09-14 METAR LFPG 140100Z 24003KT CAVOK 10/07 Q1020 NOSIG
12-09-14 METAR LFPG 140130Z 25003KT CAVOK 10/07 Q1020 NOSIG
12-09-14 METAR LFPG 140200Z 22004KT 200V260 CAVOK 10/07 Q1019 NOSIG
12-09-14 METAR LFPG 140230Z 22005KT CAVOK 10/08 Q1019 NOSIG
12-09-14 METAR LFPG 140300Z 21004KT CAVOK 10/07 Q1019 NOSIG
12-09-14 METAR LFPG 140330Z 22005KT CAVOK 10/07 Q1019 NOSIG
12-09-14 METAR LFPG 140400Z 23005KT CAVOK 10/06 Q1019 NOSIG
12-09-14 METAR LFPG 140430Z 21008KT CAVOK 10/05 Q1018 NOSIG
12-09-14 METAR LFPG 140500Z 21007KT 9999 SCT017 10/05 Q1018 NOSIG
12-09-14 METAR LFPG 140530Z 22006KT 9999 BKN019 11/06 Q1018 NOSIG
12-09-14 METAR LFPG 140600Z 21008KT 9999 BKN019 11/06 Q1018 NOSIG
12-09-14 METAR LFPG 140630Z 21009KT 9999 BKN019 11/07 Q1018 NOSIG
12-09-14 METAR LFPG 140700Z 22007KT 9999 BKN022 12/08 Q1018 NOSIG
12-09-14 METAR LFPG 140730Z 21007KT 9999 BKN022 12/08 Q1018 NOSIG
12-09-14 METAR LFPG 140800Z 23011KT 9999 BKN025 13/09 Q1018 NOSIG
12-09-14 METAR LFPG 140830Z 22009KT 9999 BKN024 13/09 Q1018 NOSIG
12-09-14 METAR LFPG 140900Z 22009KT 9999 BKN027 14/09 Q1018 NOSIG
12-09-14 METAR LFPG 140930Z 22011G21KT 190V360 9999 BKN029 15/10 Q1018 NOSIG
12-09-14 METAR LFPG 141000Z 22012KT 200V280 9999 FEW020 OVC030 15/10 Q1018 NOSIG
12-09-14 METAR LFPG 141030Z 24010KT 200V290 9999 FEW020 BKN032 16/10 Q1018 NOSIG
12-09-14 METAR LFPG 141100Z 24014KT 210V270 9999 FEW020 BKN032 16/10 Q1017 NOSIG
12-09-14 METAR LFPG 141130Z 25011KT 9999 BKN022 16/10 Q1017 NOSIG
12-09-14 METAR LFPG 141200Z 25011KT 9999 BKN021 16/10 Q1017 NOSIG
12-09-14 METAR LFPG 141230Z 25011G22KT 210V300 9999 BKN021 16/11 Q1017 NOSIG
12-09-14 METAR LFPG 141300Z 24010KT 9999 BKN022 16/11 Q1017 NOSIG
12-09-14 METAR LFPG 141330Z 24010KT 9999 BKN022 17/11 Q1016 NOSIG
12-09-14 METAR LFPG 141400Z 24009KT 9999 SCT023 BKN032 17/11 Q1016 NOSIG
12-09-14 METAR LFPG 141430Z 24012KT 9999 SCT023 BKN032 17/11 Q1016 NOSIG
12-09-14 METAR LFPG 141500Z 24010KT 9999 FEW023 BKN025 17/11 Q1016 NOSIG
12-09-14 METAR LFPG 141530Z 25010KT 9999 FEW023 BKN025 17/12 Q1016 NOSIG
12-09-14 METAR LFPG 141600Z 24012KT 9999 FEW023 BKN043 17/12 Q1015 NOSIG
12-09-14 METAR LFPG 141630Z 24011KT 9999 SCT023 BKN046 17/12 Q1015 NOSIG
12-09-14 METAR LFPG 141700Z 24012KT 9999 SCT020 BKN046 17/12 Q1015 NOSIG
12-09-14 METAR LFPG 141730Z 24009KT 9999 SCT016 BKN041 16/12 Q1015 NOSIG
12-09-14 METAR LFPG 141800Z 24009KT 9999 FEW016 BKN048 16/12 Q1015 NOSIG
12-09-14 METAR LFPG 141830Z 23006KT 9999 FEW016 BKN050 16/13 Q1016 NOSIG
12-09-14 METAR LFPG 141900Z 23008KT 9999 -RA FEW019 BKN036 16/13 Q1016 NOSIG
12-09-14 METAR LFPG 141930Z 25009G19KT 9999 FEW019 BKN048 16/13 Q1016 NOSIG
12-09-14 METAR LFPG 142000Z 25006KT 9999 FEW026 BKN045 16/13 Q1017 NOSIG
12-09-14 METAR LFPG 142030Z 26006KT 9999 SCT024 BKN034 16/12 Q1017 NOSIG
12-09-14 METAR LFPG 142100Z 31006KT 9999 SCT025 BKN034 BKN046 16/12 Q1017 NOSIG
12-09-14 METAR LFPG 142130Z 30006KT 9999 SCT034 BKN047 15/11 Q1017 NOSIG
12-09-14 METAR LFPG 142200Z 29007KT 9999 SCT043 14/11 Q1017 NOSIG
12-09-14 METAR LFPG 142230Z 28008KT 9999 SCT046 14/10 Q1017 NOSIG
12-09-14 METAR LFPG 142300Z 25005KT 9999 SCT046 13/10 Q1017 NOSIG
12-09-14 METAR LFPG 142330Z 25005KT 9999 SCT049 13/11 Q1017 NOSIG
12-09-15 METAR LFPG 150000Z 26005KT 9999 FEW045 BKN054 13/11 Q1017 NOSIG
12-09-15 METAR LFPG 150030Z 26005KT CAVOK 13/11 Q1017 NOSIG
12-09-15 METAR LFPG 150100Z 27006KT 9999 FEW046 BKN053 13/11 Q1017 NOSIG
12-09-15 METAR LFPG 150130Z 27006KT CAVOK 13/11 Q1017 NOSIG
12-09-15 METAR LFPG 150200Z 29007KT CAVOK 13/11 Q1018 NOSIG
12-09-15 METAR LFPG 150230Z 28005KT CAVOK 13/11 Q1018 NOSIG
12-09-15 METAR LFPG 150300Z 29005KT CAVOK 13/11 Q1018 NOSIG
12-09-15 METAR LFPG 150330Z 29006KT CAVOK 12/11 Q1018 NOSIG
12-09-15 METAR LFPG 150400Z 28004KT CAVOK 12/10 Q1018 NOSIG
12-09-15 METAR LFPG 150430Z 28004KT CAVOK 12/10 Q1018 NOSIG
12-09-15 METAR LFPG 150500Z 27005KT CAVOK 12/10 Q1018 NOSIG
12-09-15 METAR LFPG 150530Z 29005KT CAVOK 11/10 Q1018 NOSIG
12-09-15 METAR LFPG 150600Z 26003KT 9999 BKN047 12/10 Q1019 NOSIG
12-09-15 METAR LFPG 150630Z 28004KT 9999 BKN046 12/11 Q1019 NOSIG
12-09-15 METAR LFPG 150700Z VRB02KT 9999 BKN045 12/11 Q1019 NOSIG
12-09-15 METAR LFPG 150730Z 32003KT 9999 SCT045 13/12 Q1019 NOSIG
12-09-15 METAR LFPG 150800Z VRB02KT CAVOK 14/11 Q1019 NOSIG
12-09-15 METAR LFPG 150830Z 01003KT 320V040 9999 FEW016 16/11 Q1019 NOSIG
12-09-15 METAR LFPG 150900Z VRB02KT 9999 FEW016 17/09 Q1020 NOSIG
12-09-15 METAR LFPG 150930Z VRB03KT 9999 SCT035 18/08 Q1020 NOSIG
12-09-15 METAR LFPG 151000Z VRB03KT 9999 SCT036 17/08 Q1020 NOSIG
12-09-15 METAR LFPG 151030Z VRB02KT 9999 SCT035 18/09 Q1019 NOSIG
12-09-15 METAR LFPG 151100Z 30004KT 250V010 9999 SCT038 18/09 Q1019 NOSIG
12-09-15 METAR LFPG 151130Z 34005KT 290V030 9999 SCT038 20/08 Q1019 NOSIG
12-09-15 METAR LFPG 151200Z VRB01KT 9999 SCT040 19/09 Q1019 NOSIG
12-09-15 METAR LFPG 151230Z 33003KT 240V050 9999 SCT041 20/09 Q1019 NOSIG
12-09-15 METAR LFPG 151300Z VRB03KT 9999 SCT045 20/08 Q1019 NOSIG
12-09-15 METAR LFPG 151330Z 25004KT 200V310 CAVOK 20/08 Q1019 NOSIG
12-09-15 METAR LFPG 151400Z 14004KT 090V210 CAVOK 21/09 Q1018 NOSIG
12-09-15 METAR LFPG 151430Z 09003KT 020V170 CAVOK 21/08 Q1018 NOSIG
12-09-15 METAR LFPG 151500Z VRB02KT CAVOK 21/08 Q1018 NOSIG
12-09-15 METAR LFPG 151530Z 27004KT 210V020 CAVOK 21/08 Q1018 NOSIG
12-09-15 METAR LFPG 151600Z VRB02KT CAVOK 21/08 Q1017 NOSIG
12-09-15 METAR LFPG 151630Z VRB02KT CAVOK 21/07 Q1017 NOSIG
12-09-15 METAR LFPG 151700Z 01003KT CAVOK 20/08 Q1018 NOSIG
12-09-15 METAR LFPG 151730Z VRB02KT CAVOK 20/08 Q1017 NOSIG
12-09-15 METAR LFPG 151800Z 05003KT CAVOK 19/09 Q1018 NOSIG
12-09-15 METAR LFPG 151830Z 08003KT CAVOK 19/09 Q1018 NOSIG
12-09-15 METAR LFPG 151900Z 10003KT CAVOK 18/09 Q1018 NOSIG
12-09-15 METAR LFPG 151930Z 11002KT CAVOK 18/09 Q1018 NOSIG
12-09-15 METAR LFPG 152000Z VRB02KT CAVOK 16/09 Q1018 NOSIG
12-09-15 METAR LFPG 152030Z 10002KT CAVOK 16/09 Q1018 NOSIG
12-09-15 METAR LFPG 152100Z 13002KT CAVOK 15/09 Q1018 NOSIG
12-09-15 METAR LFPG 152130Z VRB02KT CAVOK 15/09 Q1018 NOSIG
12-09-15 METAR LFPG 152200Z 13004KT CAVOK 14/09 Q1018 NOSIG
12-09-15 METAR LFPG 152230Z 13005KT CAVOK 15/09 Q1017 NOSIG
12-09-15 METAR LFPG 152300Z 15004KT CAVOK 15/09 Q1018 NOSIG
12-09-15 METAR LFPG 152330Z VRB02KT CAVOK 14/09 Q1018 NOSIG
12-09-16 METAR LFPG 160000Z 09002KT CAVOK 14/09 Q1017 NOSIG
12-09-16 METAR LFPG 160030Z 09002KT CAVOK 13/09 Q1017 NOSIG
12-09-16 METAR LFPG 160100Z 08003KT CAVOK 12/09 Q1017 NOSIG
12-09-16 METAR LFPG 160130Z 09004KT CAVOK 12/09 Q1017 NOSIG
12-09-16 METAR LFPG 160200Z 10003KT CAVOK 12/09 Q1017 NOSIG
12-09-16 METAR LFPG 160230Z 11003KT CAVOK 12/09 Q1017 NOSIG
12-09-16 METAR LFPG 160300Z 11003KT CAVOK 12/09 Q1017 NOSIG
12-09-16 METAR LFPG 160330Z 14002KT CAVOK 12/09 Q1017 NOSIG
12-09-16 METAR LFPG 160400Z 14004KT 120V180 CAVOK 12/09 Q1016 NOSIG
12-09-16 METAR LFPG 160430Z VRB02KT CAVOK 12/09 Q1016 NOSIG
12-09-16 METAR LFPG 160500Z 14002KT CAVOK 12/09 Q1016 NOSIG
12-09-16 METAR LFPG 160530Z 13002KT CAVOK 12/09 Q1016 NOSIG
12-09-16 METAR LFPG 160600Z VRB03KT CAVOK 12/09 Q1016 NOSIG
12-09-16 METAR LFPG 160630Z 15003KT 110V180 CAVOK 13/09 Q1016 NOSIG
12-09-16 METAR LFPG 160700Z 16004KT CAVOK 13/09 Q1016 NOSIG
12-09-16 METAR LFPG 160730Z VRB03KT CAVOK 14/10 Q1016 NOSIG
12-09-16 METAR LFPG 160800Z 18004KT 150V210 CAVOK 15/10 Q1016 NOSIG
12-09-16 METAR LFPG 160830Z 18004KT 150V210 CAVOK 16/10 Q1016 NOSIG
12-09-16 METAR LFPG 160900Z 18007KT 100V200 CAVOK 17/10 Q1016 NOSIG
12-09-16 METAR LFPG 160930Z 20007KT 170V230 CAVOK 19/10 Q1016 NOSIG
12-09-16 METAR LFPG 161000Z 20006KT 130V250 CAVOK 20/10 Q1016 NOSIG
12-09-16 METAR LFPG 161030Z 20006KT 170V230 CAVOK 20/10 Q1016 NOSIG
12-09-16 METAR LFPG 161100Z 21005KT 160V260 CAVOK 21/09 Q1015 NOSIG
12-09-16 METAR LFPG 161130Z 24004KT 180V300 CAVOK 22/09 Q1015 NOSIG
12-09-16 METAR LFPG 161200Z 19006KT 140V220 CAVOK 22/08 Q1015 NOSIG
12-09-16 METAR LFPG 161230Z VRB03KT CAVOK 23/08 Q1015 NOSIG
12-09-16 METAR LFPG 161300Z VRB03KT CAVOK 23/09 Q1014 NOSIG
12-09-16 METAR LFPG 161330Z 19003KT 130V280 CAVOK 23/08 Q1014 NOSIG
12-09-16 METAR LFPG 161400Z 19004KT 120V260 CAVOK 23/09 Q1013 NOSIG
12-09-16 METAR LFPG 161430Z 29003KT 230V010 CAVOK 23/08 Q1013 NOSIG
12-09-16 METAR LFPG 161500Z 20004KT 160V260 CAVOK 24/08 Q1013 NOSIG
12-09-16 METAR LFPG 161530Z VRB01KT CAVOK 23/08 Q1013 NOSIG
12-09-16 METAR LFPG 161600Z 29004KT 240V320 CAVOK 23/08 Q1013 NOSIG
12-09-16 METAR LFPG 161630Z 28003KT CAVOK 23/08 Q1013 NOSIG
12-09-16 METAR LFPG 161700Z VRB02KT CAVOK 22/08 Q1013 NOSIG
12-09-16 METAR LFPG 161730Z 25002KT CAVOK 22/08 Q1013 NOSIG
12-09-16 METAR LFPG 161800Z VRB01KT CAVOK 21/08 Q1013 NOSIG
12-09-16 METAR LFPG 161830Z VRB02KT CAVOK 20/09 Q1013 NOSIG
12-09-16 METAR LFPG 161900Z 06002KT CAVOK 19/10 Q1013 NOSIG
12-09-16 METAR LFPG 161930Z 00000KT CAVOK 19/10 Q1013 NOSIG
12-09-16 METAR LFPG 162000Z VRB03KT CAVOK 19/10 Q1013 NOSIG
12-09-16 METAR LFPG 162030Z 16004KT 140V230 CAVOK 18/10 Q1013 NOSIG
12-09-16 METAR LFPG 162100Z 16003KT CAVOK 18/10 Q1013 NOSIG
12-09-16 METAR LFPG 162130Z 29002KT CAVOK 18/10 Q1013 NOSIG
12-09-16 METAR LFPG 162200Z 34004KT 280V070 CAVOK 16/11 Q1013 NOSIG
12-09-16 METAR LFPG 162230Z 35005KT CAVOK 15/11 Q1014 NOSIG
12-09-16 METAR LFPG 162300Z 02004KT CAVOK 14/10 Q1013 NOSIG
12-09-16 METAR LFPG 162330Z 35007KT 330V050 CAVOK 14/11 Q1014 NOSIG
12-09-17 METAR LFPG 170000Z 33005KT CAVOK 14/11 Q1014 NOSIG
12-09-17 METAR LFPG 170030Z 34006KT CAVOK 13/12 Q1014 NOSIG
12-09-17 METAR LFPG 170100Z 34004KT CAVOK 13/11 Q1014 NOSIG
12-09-17 METAR LFPG 170130Z 36003KT 350V070 CAVOK 13/12 Q1014 NOSIG
12-09-17 METAR LFPG 170200Z 01002KT CAVOK 13/11 Q1014 NOSIG
12-09-17 METAR LFPG 170230Z VRB01KT CAVOK 13/12 Q1014 NOSIG
12-09-17 METAR LFPG 170300Z 34002KT 8000 NSC 13/11 Q1014 NOSIG
12-09-17 METAR LFPG 170330Z 00000KT 5000 BR NSC 13/11 Q1014 NOSIG
12-09-17 METAR LFPG 170400Z 25001KT 6000 NSC 13/11 Q1014 NOSIG
12-09-17 METAR LFPG 170430Z 25003KT 4500 R09L/0600VP2000U MIFG BR NSC 12/11 Q1015 NOSIG
12-09-17 METAR LFPG 170500Z 26004KT 4000 MIFG BR FEW023 12/11 Q1015 NOSIG
12-09-17 METAR LFPG 170530Z 00000KT 4500 MIFG BR SCT017 12/11 Q1015 NOSIG
12-09-17 METAR LFPG 170600Z 32002KT 7000 BKN016 13/12 Q1015 NOSIG
12-09-17 METAR LFPG 170630Z 00000KT 7000 BKN016 13/12 Q1015 NOSIG
12-09-17 METAR LFPG 170700Z VRB02KT 9999 BKN018 14/12 Q1015 NOSIG
12-09-17 METAR LFPG 170730Z VRB03KT 9999 BKN020 15/12 Q1016 NOSIG
12-09-17 METAR LFPG 170800Z 29004KT 9999 BKN020 15/12 Q1016 NOSIG
12-09-17 METAR LFPG 170830Z 30004KT 250V360 9999 BKN020 16/11 Q1016 NOSIG
12-09-17 METAR LFPG 170900Z 31003KT 250V020 9999 BKN020 16/11 Q1016 NOSIG
12-09-17 METAR LFPG 170930Z 23004KT 180V280 9999 BKN020 16/11 Q1016 NOSIG
12-09-17 METAR LFPG 171000Z 27004KT 200V320 9999 BKN020 17/11 Q1016 NOSIG
12-09-17 METAR LFPG 171030Z 22005KT 180V270 9999 BKN022 17/11 Q1016 NOSIG
12-09-17 METAR LFPG 171100Z 21004KT 160V280 9999 BKN023 18/11 Q1016 NOSIG
12-09-17 METAR LFPG 171130Z 23006KT 190V270 9999 BKN023 18/11 Q1016 NOSIG
12-09-17 METAR LFPG 171200Z 23007KT 150V280 9999 BKN025 18/11 Q1016 NOSIG
12-09-17 METAR LFPG 171230Z 28006KT 250V330 9999 BKN025 19/12 Q1016 NOSIG
12-09-17 METAR LFPG 171300Z 28006KT 220V330 9999 BKN026 20/12 Q1015 NOSIG
12-09-17 METAR LFPG 171330Z 29006KT 260V330 9999 BKN027 20/12 Q1015 NOSIG
12-09-17 METAR LFPG 171400Z 25006KT 200V290 9999 SCT028 20/12 Q1015 NOSIG
12-09-17 METAR LFPG 171430Z 26007KT 220V290 9999 SCT029 21/12 Q1015 NOSIG
12-09-17 METAR LFPG 171500Z 27006KT 230V310 9999 FEW031 21/12 Q1015 NOSIG
12-09-17 METAR LFPG 171530Z 28005KT 220V330 9999 FEW032 21/11 Q1014 NOSIG
12-09-17 METAR LFPG 171600Z 29003KT 250V350 9999 FEW033 21/11 Q1014 NOSIG
12-09-17 METAR LFPG 171630Z 34004KT 300V020 9999 FEW035 21/11 Q1014 NOSIG
12-09-17 METAR LFPG 171700Z 01005KT CAVOK 20/11 Q1014 NOSIG
12-09-17 METAR LFPG 171730Z 01005KT CAVOK 19/11 Q1014 NOSIG
12-09-17 METAR LFPG 171800Z 02006KT CAVOK 18/12 Q1014 NOSIG
12-09-17 METAR LFPG 171830Z 01006KT CAVOK 17/12 Q1014 NOSIG
12-09-17 METAR LFPG 171900Z 02004KT CAVOK 16/11 Q1014 NOSIG
12-09-17 METAR LFPG 171930Z 04004KT CAVOK 16/11 Q1015 NOSIG
12-09-17 METAR LFPG 172000Z 03003KT CAVOK 15/11 Q1015 NOSIG
12-09-17 METAR LFPG 172030Z 05004KT CAVOK 15/11 Q1015 NOSIG
12-09-17 METAR LFPG 172100Z 04004KT CAVOK 15/11 Q1015 NOSIG
12-09-17 METAR LFPG 172130Z 04004KT CAVOK 15/11 Q1015 NOSIG
12-09-17 METAR LFPG 172200Z 03003KT CAVOK 14/11 Q1015 NOSIG
12-09-17 METAR LFPG 172230Z 02002KT CAVOK 14/11 Q1014 NOSIG
12-09-17 METAR LFPG 172300Z VRB02KT CAVOK 14/11 Q1014 NOSIG
12-09-17 METAR LFPG 172330Z 03002KT CAVOK 14/11 Q1014 NOSIG
12-09-18 METAR LFPG 180000Z 02002KT CAVOK 14/11 Q1014 NOSIG
12-09-18 METAR LFPG 180030Z 01003KT CAVOK 13/11 Q1014 NOSIG
12-09-18 METAR LFPG 180100Z 00000KT CAVOK 13/10 Q1014 NOSIG
12-09-18 METAR LFPG 180130Z 33003KT CAVOK 13/10 Q1014 NOSIG
12-09-18 METAR LFPG 180200Z 32003KT 9999 SCT033 12/10 Q1013 NOSIG
12-09-18 METAR LFPG 180230Z 35002KT 9999 BKN032 SCT053 13/11 Q1013 NOSIG
12-09-18 METAR LFPG 180300Z 00000KT 9999 BKN032 13/12 Q1013 NOSIG
12-09-18 METAR LFPG 180330Z 19001KT 9999 BKN033 14/12 Q1013 NOSIG
12-09-18 METAR LFPG 180400Z 26001KT 9999 SCT033 BKN040 14/12 Q1013 NOSIG
12-09-18 METAR LFPG 180430Z 00000KT 9999 FEW035 BKN040 14/12 Q1013 NOSIG
12-09-18 METAR LFPG 180500Z 24003KT 9999 FEW035 BKN040 14/11 Q1013 NOSIG
12-09-18 METAR LFPG 180530Z 24003KT 9000 FEW033 BKN042 14/12 Q1013 NOSIG
12-09-18 METAR LFPG 180600Z 27005KT 8000 FEW023 BKN042 14/11 Q1013 NOSIG
12-09-18 METAR LFPG 180630Z 27005KT 8000 SCT020 BKN042 14/12 Q1013 NOSIG
12-09-18 METAR LFPG 180700Z 30007KT 9999 FEW007 BKN043 15/13 Q1014 NOSIG
12-09-18 METAR LFPG 180730Z 31011KT 9999 BKN008 BKN044 15/12 Q1014 NOSIG
12-09-18 METAR LFPG 180800Z 32005KT 9999 FEW010 BKN022 15/11 Q1014 NOSIG
12-09-18 METAR LFPG 180830Z 31007KT 9999 FEW016 BKN030 16/10 Q1014 NOSIG
12-09-18 METAR LFPG 180900Z 30009KT 260V320 9999 FEW023 BKN035 17/10 Q1014 NOSIG
12-09-18 METAR LFPG 180930Z 30010KT 9999 FEW030 BKN046 17/10 Q1014 NOSIG
12-09-18 METAR LFPG 181000Z 29008KT 260V320 9999 FEW024 BKN046 17/10 Q1014 NOSIG
12-09-18 METAR LFPG 181030Z 29010KT 9999 SCT025 BKN048 18/11 Q1014 NOSIG
12-09-18 METAR LFPG 181100Z 29007KT 250V340 9999 SCT028 SCT047 BKN260 18/10 Q1014 NOSIG
12-09-18 METAR LFPG 181130Z 29007KT 270V330 9999 BKN030 SCT043 BKN260 18/10 Q1014
12-09-18 METAR LFPG 181200Z 29010KT 9999 SCT027 SCT260 18/09 Q1014 NOSIG
12-09-18 METAR LFPG 181230Z 31011KT 9999 SCT034 BKN280 19/09 Q1014 NOSIG
12-09-18 METAR LFPG 181300Z 31011KT 280V340 9999 FEW039 BKN061 BKN260 19/08 Q1014
12-09-18 METAR LFPG 181330Z 31010KT 9999 FEW040 BKN060 18/08 Q1014 NOSIG
12-09-18 METAR LFPG 181400Z 30009KT 9999 FEW044 BKN053 18/08 Q1015 NOSIG
12-09-18 METAR LFPG 181430Z 28009KT 9999 FEW044 BKN056 18/08 Q1014 NOSIG
12-09-18 METAR LFPG 181500Z 28012KT 9999 FEW040 BKN069 18/07 Q1015 NOSIG
12-09-18 METAR LFPG 181530Z 29009KT 250V320 9999 FEW039 BKN072 BKN260 18/08 Q1015
12-09-18 METAR LFPG 181600Z 31013KT 9999 SCT034 SCT051 18/07 Q1015 NOSIG
12-09-18 METAR LFPG 181630Z 30011KT 9999 FEW039 SCT050 BKN078 17/06 Q1015 NOSIG
12-09-18 METAR LFPG 181700Z 31009KT 9999 FEW040 BKN068 17/06 Q1015 NOSIG
12-09-18 METAR LFPG 181730Z 33009KT 9999 FEW043 BKN080 17/07 Q1016 NOSIG
12-09-18 METAR LFPG 181800Z 32008KT 9999 FEW043 BKN080 16/07 Q1016 NOSIG
12-09-18 METAR LFPG 181830Z 32007KT 9999 FEW043 BKN080 15/07 Q1016 NOSIG
12-09-18 METAR LFPG 181900Z 31007KT CAVOK 14/06 Q1017 NOSIG
12-09-18 METAR LFPG 181930Z 32007KT CAVOK 13/06 Q1017 NOSIG
12-09-18 METAR LFPG 182000Z 31006KT CAVOK 12/06 Q1017 NOSIG
12-09-18 METAR LFPG 182030Z 31005KT CAVOK 12/06 Q1018 NOSIG
12-09-18 METAR LFPG 182100Z 29005KT CAVOK 12/06 Q1018 NOSIG
12-09-18 METAR LFPG 182130Z 30004KT CAVOK 11/06 Q1018 NOSIG
12-09-18 METAR LFPG 182200Z 27004KT CAVOK 11/07 Q1018 NOSIG
12-09-18 METAR LFPG 182230Z 29004KT CAVOK 11/07 Q1018 NOSIG
12-09-18 METAR LFPG 182300Z 29004KT CAVOK 11/06 Q1018 NOSIG
12-09-18 METAR LFPG 182330Z 28004KT CAVOK 10/06 Q1018 NOSIG
12-09-19 METAR LFPG 190000Z 30004KT CAVOK 10/06 Q1019 NOSIG
12-09-19 METAR LFPG 190030Z 29008KT CAVOK 09/06 Q1019 NOSIG
12-09-19 METAR LFPG 190100Z 29008KT CAVOK 09/06 Q1019 NOSIG
12-09-19 METAR LFPG 190130Z 30006KT CAVOK 09/06 Q1019 NOSIG
12-09-19 METAR LFPG 190200Z 29005KT CAVOK 08/06 Q1019 NOSIG
12-09-19 METAR LFPG 190230Z 29006KT CAVOK 08/06 Q1019 NOSIG
12-09-19 METAR LFPG 190300Z 29007KT CAVOK 08/06 Q1019 NOSIG
12-09-19 METAR LFPG 190330Z 31002KT CAVOK 08/06 Q1020 NOSIG
12-09-19 METAR LFPG 190400Z 00000KT CAVOK 08/06 Q1020 NOSIG
12-09-19 METAR LFPG 190430Z 31003KT CAVOK 08/06 Q1020 NOSIG
12-09-19 METAR LFPG 190500Z 31006KT CAVOK 08/05 Q1021 NOSIG
12-09-19 METAR LFPG 190530Z 31004KT CAVOK 08/05 Q1021 NOSIG
12-09-19 METAR LFPG 190600Z 26005KT CAVOK 08/05 Q1021 NOSIG
12-09-19 METAR LFPG 190630Z 27004KT CAVOK 08/05 Q1022 NOSIG
12-09-19 METAR LFPG 190700Z 28002KT CAVOK 09/06 Q1022 NOSIG
12-09-19 METAR LFPG 190730Z 31003KT CAVOK 10/06 Q1022 NOSIG
12-09-19 METAR LFPG 190800Z 32005KT 290V350 CAVOK 11/06 Q1022 NOSIG
12-09-19 METAR LFPG 190830Z 34007KT 9999 FEW025 12/06 Q1023 NOSIG
12-09-19 METAR LFPG 190900Z 33007KT 290V010 9999 FEW026 13/05 Q1023 NOSIG
12-09-19 METAR LFPG 190930Z 32008KT 270V350 9999 SCT033 14/05 Q1023 NOSIG
12-09-19 METAR LFPG 191000Z 32010KT 290V350 9999 SCT035 15/05 Q1024 NOSIG
12-09-19 METAR LFPG 191030Z 30010KT 9999 SCT036 15/05 Q1024 NOSIG
12-09-19 METAR LFPG 191100Z 32009KT 260V360 9999 SCT040 15/04 Q1024 NOSIG
12-09-19 METAR LFPG 191130Z 33010KT 290V030 9999 BKN047 15/03 Q1024 NOSIG
12-09-19 METAR LFPG 191200Z 31009KT 260V340 CAVOK 16/03 Q1024 NOSIG
12-09-19 METAR LFPG 191230Z 34009KT 310V040 CAVOK 16/02 Q1023 NOSIG
12-09-19 METAR LFPG 191300Z 30007KT 250V020 CAVOK 17/02 Q1023 NOSIG
12-09-19 METAR LFPG 191330Z 32010KT 290V360 CAVOK 16/02 Q1023 NOSIG
12-09-19 METAR LFPG 191400Z 29009KT 260V330 CAVOK 18/01 Q1023 NOSIG
12-09-19 METAR LFPG 191430Z 33009KT CAVOK 16/01 Q1023 NOSIG
12-09-19 METAR LFPG 191500Z 30010KT 270V330 CAVOK 18/02 Q1023 NOSIG
12-09-19 METAR LFPG 191530Z 31011KT 280V340 CAVOK 17/02 Q1023 NOSIG
12-09-19 METAR LFPG 191600Z 30009KT 270V330 CAVOK 17/01 Q1023 NOSIG
12-09-19 METAR LFPG 191630Z 33010KT CAVOK 17/01 Q1023 NOSIG
12-09-19 METAR LFPG 191700Z 32010KT CAVOK 16/01 Q1023 NOSIG
12-09-19 METAR LFPG 191730Z 32008KT CAVOK 15/02 Q1023 NOSIG
12-09-19 METAR LFPG 191800Z 32006KT CAVOK 14/02 Q1024 NOSIG
12-09-19 METAR LFPG 191830Z 33005KT CAVOK 13/02 Q1024 NOSIG
12-09-19 METAR LFPG 191900Z 33005KT CAVOK 13/03 Q1024 NOSIG
12-09-19 METAR LFPG 191930Z 34004KT CAVOK 12/02 Q1024 NOSIG
12-09-19 METAR LFPG 192000Z 02002KT CAVOK 12/02 Q1024 NOSIG
12-09-19 METAR LFPG 192030Z 00000KT CAVOK 11/02 Q1025 NOSIG
12-09-19 METAR LFPG 192100Z 30004KT CAVOK 10/03 Q1025 NOSIG
12-09-19 METAR LFPG 192130Z 31003KT CAVOK 10/03 Q1025 NOSIG
12-09-19 METAR LFPG 192200Z 31003KT CAVOK 09/03 Q1025 NOSIG
12-09-19 METAR LFPG 192230Z 34003KT CAVOK 09/03 Q1025 NOSIG
12-09-19 METAR LFPG 192300Z 29002KT CAVOK 09/03 Q1025 NOSIG
12-09-19 METAR LFPG 192330Z 28002KT CAVOK 09/03 Q1025 NOSIG
12-09-20 METAR LFPG 200000Z 24003KT CAVOK 08/03 Q1025 NOSIG
12-09-20 METAR LFPG 200030Z 25002KT CAVOK 08/03 Q1025 NOSIG
12-09-20 METAR LFPG 200100Z 07002KT CAVOK 07/03 Q1024 NOSIG
12-09-20 METAR LFPG 200130Z 00000KT CAVOK 08/03 Q1024 NOSIG
12-09-20 METAR LFPG 200200Z 09003KT CAVOK 07/03 Q1024 NOSIG
12-09-20 METAR LFPG 200230Z VRB03KT CAVOK 08/03 Q1024 NOSIG
12-09-20 METAR LFPG 200300Z 13003KT CAVOK 09/04 Q1024 NOSIG
12-09-20 METAR LFPG 200330Z VRB01KT CAVOK 08/04 Q1024 NOSIG
12-09-20 METAR LFPG 200400Z 00000KT CAVOK 08/04 Q1023 NOSIG
12-09-20 METAR LFPG 200430Z 16002KT CAVOK 08/04 Q1023 NOSIG
12-09-20 METAR LFPG 200500Z 16001KT CAVOK 08/04 Q1024 NOSIG
12-09-20 METAR LFPG 200530Z 00000KT CAVOK 07/03 Q1024 NOSIG
12-09-20 METAR LFPG 200600Z 00000KT CAVOK 07/04 Q1024 NOSIG
12-09-20 METAR LFPG 200630Z 00000KT CAVOK 08/04 Q1024 NOSIG
12-09-20 METAR LFPG 200700Z 00000KT CAVOK 10/04 Q1024 NOSIG
12-09-20 METAR LFPG 200730Z 20002KT CAVOK 11/05 Q1024 NOSIG
12-09-20 METAR LFPG 200800Z VRB01KT CAVOK 12/05 Q1024 NOSIG
12-09-20 METAR LFPG 200830Z VRB02KT CAVOK 13/05 Q1024 NOSIG
12-09-20 METAR LFPG 200900Z VRB03KT CAVOK 14/04 Q1024 NOSIG
12-09-20 METAR LFPG 200930Z VRB03KT CAVOK 15/03 Q1024 NOSIG
12-09-20 METAR LFPG 201000Z VRB04KT CAVOK 15/03 Q1024 NOSIG
12-09-20 METAR LFPG 201030Z 27003KT 220V010 CAVOK 16/03 Q1024 NOSIG
12-09-20 METAR LFPG 201100Z VRB03KT CAVOK 16/03 Q1023 NOSIG
12-09-20 METAR LFPG 201130Z VRB03KT CAVOK 17/03 Q1023 NOSIG
12-09-20 METAR LFPG 201200Z 17004KT 120V230 CAVOK 17/03 Q1023 NOSIG
12-09-20 METAR LFPG 201230Z VRB02KT CAVOK 17/02 Q1023 NOSIG
12-09-20 METAR LFPG 201300Z 31004KT 260V010 CAVOK 18/02 Q1022 NOSIG
12-09-20 METAR LFPG 201330Z 26003KT 200V330 CAVOK 17/02 Q1022 NOSIG
12-09-20 METAR LFPG 201400Z VRB02KT CAVOK 17/02 Q1022 NOSIG
12-09-20 METAR LFPG 201430Z VRB02KT CAVOK 17/01 Q1021 NOSIG
12-09-20 METAR LFPG 201500Z VRB03KT CAVOK 17/02 Q1021 NOSIG
12-09-20 METAR LFPG 201530Z 11004KT 060V170 CAVOK 17/02 Q1021 NOSIG
12-09-20 METAR LFPG 201600Z 10005KT 070V130 CAVOK 17/02 Q1021 NOSIG
12-09-20 METAR LFPG 201630Z 11005KT 090V150 CAVOK 16/02 Q1021 NOSIG
12-09-20 METAR LFPG 201700Z 13005KT 070V180 CAVOK 16/02 Q1021 NOSIG
12-09-20 METAR LFPG 201730Z 12005KT CAVOK 16/01 Q1021 NOSIG
12-09-20 METAR LFPG 201800Z 08006KT CAVOK 15/02 Q1021 NOSIG
12-09-20 METAR LFPG 201830Z 08006KT CAVOK 15/03 Q1020 NOSIG
12-09-20 METAR LFPG 201900Z 07007KT CAVOK 14/03 Q1020 NOSIG
12-09-20 METAR LFPG 201930Z 08006KT CAVOK 13/03 Q1020 NOSIG
12-09-20 METAR LFPG 202000Z 08007KT CAVOK 13/03 Q1020 NOSIG
12-09-20 METAR LFPG 202030Z 08007KT CAVOK 13/03 Q1020 NOSIG
12-09-20 METAR LFPG 202100Z 08007KT CAVOK 12/03 Q1020 NOSIG
12-09-20 METAR LFPG 202130Z 08006KT CAVOK 12/03 Q1020 NOSIG
12-09-20 METAR LFPG 202200Z 07006KT CAVOK 12/03 Q1020 NOSIG
12-09-20 METAR LFPG 202230Z 07006KT CAVOK 12/03 Q1020 NOSIG
12-09-20 METAR LFPG 202300Z 10005KT CAVOK 12/03 Q1019 NOSIG
12-09-20 METAR LFPG 202330Z 10006KT CAVOK 12/03 Q1019 NOSIG
12-09-21 METAR LFPG 210000Z 10006KT CAVOK 11/03 Q1019 NOSIG
12-09-21 METAR LFPG 210030Z 10007KT CAVOK 11/03 Q1019 NOSIG
12-09-21 METAR LFPG 210100Z 10006KT CAVOK 11/04 Q1018 NOSIG
12-09-21 METAR LFPG 210130Z 10006KT CAVOK 11/04 Q1018 NOSIG
12-09-21 METAR LFPG 210200Z 09008KT CAVOK 10/04 Q1018 NOSIG
12-09-21 METAR LFPG 210230Z 09008KT CAVOK 10/03 Q1017 NOSIG
12-09-21 METAR LFPG 210300Z 09007KT CAVOK 10/03 Q1017 NOSIG
12-09-21 METAR LFPG 210330Z 09007KT CAVOK 10/03 Q1017 NOSIG
12-09-21 METAR LFPG 210400Z 08005KT 050V110 CAVOK 10/03 Q1017 NOSIG
12-09-21 METAR LFPG 210430Z 04003KT CAVOK 09/03 Q1016 NOSIG
12-09-21 METAR LFPG 210500Z 04004KT CAVOK 08/03 Q1016 NOSIG
12-09-21 METAR LFPG 210530Z 07006KT CAVOK 08/03 Q1016 NOSIG
12-09-21 METAR LFPG 210600Z 08005KT 040V100 CAVOK 10/03 Q1016 NOSIG
12-09-21 METAR LFPG 210630Z 07004KT CAVOK 09/03 Q1016 NOSIG
12-09-21 METAR LFPG 210700Z 08005KT CAVOK 10/04 Q1015 NOSIG
12-09-21 METAR LFPG 210730Z 09006KT CAVOK 11/03 Q1015 NOSIG
12-09-21 METAR LFPG 210800Z 10005KT 070V140 CAVOK 12/04 Q1015 NOSIG
12-09-21 METAR LFPG 210830Z 12006KT CAVOK 13/04 Q1015 NOSIG
12-09-21 METAR LFPG 210900Z 12004KT 060V160 CAVOK 14/04 Q1015 NOSIG
12-09-21 METAR LFPG 210930Z VRB04KT CAVOK 16/05 Q1015 NOSIG
12-09-21 METAR LFPG 211000Z 09004KT 040V150 CAVOK 17/04 Q1014 NOSIG
12-09-21 METAR LFPG 211030Z 11003KT 040V200 CAVOK 18/04 Q1014 NOSIG
12-09-21 METAR LFPG 211100Z 14003KT 090V200 CAVOK 18/03 Q1014 NOSIG
12-09-21 METAR LFPG 211130Z VRB02KT CAVOK 18/04 Q1013 NOSIG
12-09-21 METAR LFPG 211200Z 19005KT 140V230 CAVOK 18/04 Q1013 NOSIG
12-09-21 METAR LFPG 211230Z VRB05G16KT 9999 -RA NSC 17/06 Q1013 NOSIG
12-09-21 METAR LFPG 211300Z VRB05KT 9999 -RA NSC 16/08 Q1013 NOSIG
12-09-21 METAR LFPG 211330Z 22006KT 9999 -RA NSC 15/09 Q1014 NOSIG
12-09-21 METAR LFPG 211400Z 24004KT 9999 -RA NSC 14/09 Q1014 NOSIG
12-09-21 METAR LFPG 211430Z 25007KT 220V290 9999 -RA NSC 14/09 Q1014 NOSIG
12-09-21 METAR LFPG 211500Z 25007KT 9999 -RA NSC 13/09 Q1013 NOSIG
12-09-21 METAR LFPG 211530Z 25008KT 9999 -RA NSC 13/09 Q1013 NOSIG
12-09-21 METAR LFPG 211600Z 25005KT 9999 -RA NSC 12/09 Q1013 NOSIG
12-09-21 METAR LFPG 211630Z 24006KT 9999 -RA NSC 12/09 Q1013 NOSIG
12-09-21 METAR LFPG 211700Z 23009KT 9999 -RA NSC 12/10 Q1013 NOSIG
12-09-21 METAR LFPG 211730Z 24005KT 210V270 9999 -RA NSC 12/09 Q1013 NOSIG
12-09-21 METAR LFPG 211800Z 25007KT 9999 -RA NSC 12/09 Q1013 NOSIG
12-09-21 METAR LFPG 211830Z 24005KT CAVOK 11/08 Q1013 NOSIG
12-09-21 METAR LFPG 211900Z 25006KT CAVOK 11/08 Q1014 NOSIG
12-09-21 METAR LFPG 211930Z 24005KT CAVOK 11/08 Q1013 NOSIG
12-09-21 METAR LFPG 212000Z 24005KT CAVOK 11/08 Q1013 NOSIG
12-09-21 METAR LFPG 212030Z 25005KT CAVOK 11/08 Q1013 NOSIG
12-09-21 METAR LFPG 212100Z 25005KT CAVOK 11/08 Q1014 NOSIG
12-09-21 METAR LFPG 212130Z 24007KT CAVOK 11/08 Q1014 NOSIG
12-09-21 METAR LFPG 212200Z 28006KT CAVOK 11/08 Q1014 NOSIG
12-09-21 METAR LFPG 212230Z 25003KT CAVOK 10/08 Q1014 NOSIG
12-09-21 METAR LFPG 212300Z 21004KT 190V250 CAVOK 10/08 Q1013 NOSIG
12-09-21 METAR LFPG 212330Z 29005KT CAVOK 10/08 Q1014 NOSIG
12-09-22 METAR LFPG 220000Z 27005KT CAVOK 10/08 Q1014 NOSIG
12-09-22 METAR LFPG 220030Z 28006KT CAVOK 10/08 Q1014 NOSIG
12-09-22 METAR LFPG 220100Z 28004KT CAVOK 10/08 Q1014 NOSIG
12-09-22 METAR LFPG 220130Z 29006KT CAVOK 09/08 Q1014 NOSIG
12-09-22 METAR LFPG 220200Z 27005KT 9000 NSC 09/08 Q1014 NOSIG
12-09-22 METAR LFPG 220230Z 27004KT 8000 NSC 09/07 Q1015 NOSIG
12-09-22 METAR LFPG 220300Z 25003KT 7000 NSC 09/07 Q1015 NOSIG
12-09-22 METAR LFPG 220430Z 29005KT 5000 BR NSC 08/07 Q1015 BECMG 4000 BR
12-09-22 METAR LFPG 220500Z 31003KT 4000 R09R/1200VP2000U VCFG BR NSC 08/06 Q1015 NOSIG
12-09-22 METAR LFPG 220530Z 32004KT 4000 0700NE R27L/1800U R09R/1900D R26R/P2000 R08L/P2000 R26L/P2000 R08R/P2000 R27R/0750VP2000U R09L/1100VP2000U BCFG BR NSC 08/07 Q1016 NOSIG
12-09-22 METAR LFPG 220600Z 33003KT 4000 0700NE R27L/P2000 R09R/1800D R26R/P2000 R08L/P2000 R26L/P2000 R08R/P2000 R27R/0700VP2000U R09L/P2000 BCFG BR FEW016 BKN250 08/07 Q1016 NOSIG
12-09-22 METAR LFPG 220630Z VRB03KT 6000 SCT023 BKN250 09/08 Q1016 NOSIG
12-09-22 METAR LFPG 220700Z 35006KT 320V050 7000 FEW014 SCT250 09/08 Q1017 NOSIG
12-09-22 METAR LFPG 220730Z 36005KT 340V040 7000 FEW023 SCT250 10/09 Q1017 NOSIG
12-09-22 METAR LFPG 220800Z 02008KT 360V140 9000 FEW009 SCT250 12/10 Q1017 NOSIG
12-09-22 METAR LFPG 220830Z 02007KT 350V060 9999 FEW010 SCT250 13/10 Q1018 NOSIG
12-09-22 METAR LFPG 220900Z 02008KT 350V080 9999 FEW010 BKN250 13/10 Q1018 NOSIG
12-09-22 METAR LFPG 220930Z 03007KT 360V080 9999 SCT013 BKN250 14/10 Q1018 NOSIG
12-09-22 METAR LFPG 221000Z 05008KT 010V080 9999 SCT018 BKN250 14/08 Q1018 NOSIG
12-09-22 METAR LFPG 221030Z 03010KT 9999 SCT023 BKN250 15/08 Q1018 NOSIG
12-09-22 METAR LFPG 221100Z 03009KT 9999 SCT026 BKN220 15/07 Q1018 NOSIG
12-09-22 METAR LFPG 221130Z 05007KT 020V080 9999 SCT030 SCT220 16/07 Q1018 NOSIG
12-09-22 METAR LFPG 221200Z 05008KT 360V140 9999 SCT033 16/07 Q1018 NOSIG
12-09-22 METAR LFPG 221230Z 06006KT 010V090 9999 SCT036 17/05 Q1018 NOSIG
12-09-22 METAR LFPG 221300Z 09007KT 040V130 9999 SCT038 17/06 Q1018 NOSIG
12-09-22 METAR LFPG 221330Z 09007KT 030V130 9999 SCT041 BKN180 17/05 Q1018 NOSIG
12-09-22 METAR LFPG 221400Z 04008KT 9999 SCT041 BKN250 17/05 Q1018 NOSIG
12-09-22 METAR LFPG 221430Z 05008KT 9999 SCT043 BKN180 17/06 Q1018 NOSIG
12-09-22 METAR LFPG 221500Z 07007KT 040V100 9999 FEW043 BKN170 BKN250 17/05 Q1018
12-09-22 METAR LFPG 221530Z 07008KT 040V110 9999 FEW043 BKN160 BKN250 17/05 Q1018
12-09-22 METAR LFPG 221600Z 08008KT 050V110 9999 FEW043 BKN160 BKN220 17/06 Q1018
12-09-22 METAR LFPG 221630Z 08006KT 050V110 9999 FEW040 BKN160 16/06 Q1018 NOSIG
12-09-22 METAR LFPG 221700Z 09009KT 9999 SCT046 BKN160 16/06 Q1018 NOSIG
12-09-22 METAR LFPG 221730Z 07007KT CAVOK 16/06 Q1018 NOSIG
12-09-22 METAR LFPG 221800Z 07006KT CAVOK 15/05 Q1018 NOSIG
12-09-22 METAR LFPG 221830Z 05006KT 9999 FEW016 BKN140 15/06 Q1018 NOSIG
12-09-22 METAR LFPG 221900Z 06008KT CAVOK 15/06 Q1018 NOSIG
12-09-22 METAR LFPG 221930Z 06006KT CAVOK 14/06 Q1018 NOSIG
12-09-22 METAR LFPG 222000Z 06008KT CAVOK 14/05 Q1018 NOSIG
12-09-22 METAR LFPG 222030Z 07005KT CAVOK 14/06 Q1018 NOSIG
12-09-22 METAR LFPG 222100Z 06008KT CAVOK 13/06 Q1018 NOSIG
12-09-22 METAR LFPG 222130Z 06007KT CAVOK 13/06 Q1017 NOSIG
12-09-22 METAR LFPG 222200Z 05006KT CAVOK 13/07 Q1017 NOSIG
12-09-22 METAR LFPG 222230Z 06006KT CAVOK 13/06 Q1017 NOSIG
12-09-22 METAR LFPG 222300Z 05004KT 010V070 CAVOK 13/06 Q1017 NOSIG
12-09-22 METAR LFPG 222330Z 05006KT CAVOK 12/06 Q1017 NOSIG
12-09-23 METAR LFPG 230000Z 05007KT CAVOK 12/06 Q1016 NOSIG
12-09-23 METAR LFPG 230030Z 05008KT CAVOK 12/06 Q1016 NOSIG
12-09-23 METAR LFPG 230100Z 05009KT CAVOK 12/06 Q1016 NOSIG
12-09-23 METAR LFPG 230130Z 06010KT CAVOK 12/06 Q1015 NOSIG
12-09-23 METAR LFPG 230200Z 04007KT CAVOK 12/06 Q1015 NOSIG
12-09-23 METAR LFPG 230230Z 05008KT CAVOK 12/06 Q1015 NOSIG
12-09-23 METAR LFPG 230300Z 06008KT CAVOK 12/07 Q1014 NOSIG
12-09-23 METAR LFPG 230330Z 06009KT CAVOK 12/07 Q1013 NOSIG
12-09-23 METAR LFPG 230400Z 07007KT CAVOK 11/07 Q1013 NOSIG
12-09-23 METAR LFPG 230430Z 06007KT CAVOK 11/07 Q1013 NOSIG
12-09-23 METAR LFPG 230500Z 07010KT CAVOK 11/07 Q1013 NOSIG
12-09-23 METAR LFPG 230530Z 06010KT CAVOK 11/07 Q1013 NOSIG
12-09-23 METAR LFPG 230600Z 06010KT CAVOK 11/07 Q1012 NOSIG
12-09-23 METAR LFPG 230630Z 07011KT CAVOK 11/07 Q1012 NOSIG
12-09-23 METAR LFPG 230700Z 08011KT CAVOK 12/07 Q1012 NOSIG
12-09-23 METAR LFPG 230730Z 08010KT CAVOK 12/07 Q1011 NOSIG
12-09-23 METAR LFPG 230800Z 09012KT CAVOK 13/07 Q1011 NOSIG
12-09-23 METAR LFPG 230830Z 07010KT CAVOK 13/08 Q1011 NOSIG
12-09-23 METAR LFPG 230900Z 09014KT CAVOK 14/08 Q1010 NOSIG
12-09-23 METAR LFPG 230930Z 10013KT CAVOK 14/08 Q1010 NOSIG
12-09-23 METAR LFPG 231000Z 10014KT CAVOK 15/09 Q1009 NOSIG
12-09-23 METAR LFPG 231030Z 09012KT CAVOK 15/09 Q1008 NOSIG
12-09-23 METAR LFPG 231100Z 09013KT CAVOK 16/09 Q1008 NOSIG
12-09-23 METAR LFPG 231130Z 08013KT CAVOK 17/10 Q1007 NOSIG
12-09-23 METAR LFPG 231200Z 10013KT CAVOK 17/10 Q1007 NOSIG
12-09-23 METAR LFPG 231230Z 09014KT CAVOK 18/11 Q1006 NOSIG
12-09-23 METAR LFPG 231300Z 10014KT CAVOK 19/11 Q1005 NOSIG
12-09-23 METAR LFPG 231330Z 10012KT 9999 FEW016 SCT080 BKN110 20/12 Q1004 NOSIG
12-09-23 METAR LFPG 231400Z 12011KT CAVOK 21/13 Q1004 NOSIG
12-09-23 METAR LFPG 231430Z 13011KT CAVOK 22/13 Q1003 NOSIG
12-09-23 METAR LFPG 231500Z 14010KT CAVOK 22/14 Q1003 NOSIG
12-09-23 METAR LFPG 231530Z 13009KT CAVOK 22/14 Q1002 NOSIG
12-09-23 METAR LFPG 231600Z 13008KT CAVOK 22/14 Q1002 NOSIG
12-09-23 METAR LFPG 231630Z 12008KT CAVOK 22/15 Q1001 NOSIG
12-09-23 METAR LFPG 231700Z 14008KT CAVOK 22/15 Q1001 NOSIG
12-09-23 METAR LFPG 231730Z 13007KT CAVOK 22/15 Q1000 NOSIG
12-09-23 METAR LFPG 231800Z 13009G21KT 090V150 CAVOK 22/15 Q1000 NOSIG
12-09-23 METAR LFPG 231830Z 13009KT CAVOK 21/15 Q0999 NOSIG
12-09-23 METAR LFPG 231900Z 13009KT CAVOK 21/15 Q0999 NOSIG
12-09-23 METAR LFPG 231930Z 14007KT CAVOK 21/15 Q0999 NOSIG
12-09-23 METAR LFPG 232000Z 13006KT CAVOK 21/15 Q0999 NOSIG
12-09-23 METAR LFPG 232030Z 16008KT 9999 -SHRA SCT066CB BKN100 21/16 Q0999 TEMPO 18020G35KT 2000 -TSRA
12-09-23 METAR LFPG 232100Z 19009KT 170V250 9999 -SHRA SCT066CB BKN100 19/15 Q0998 TEMPO 18020G35KT 2000 -TSRA
12-09-23 METAR LFPG 232130Z 18007KT 9999 FEW066CB BKN090 20/16 Q0998 RESHRA NOSIG
12-09-23 METAR LFPG 232200Z 15009KT CAVOK 19/16 Q0997 RESHRA TEMPO 18020G35KT 2000 -TSRA
12-09-23 METAR LFPG 232230Z 15008KT CAVOK 19/16 Q0997 TEMPO 18020G35KT 2000 -TSRA
12-09-23 METAR LFPG 232300Z 18009KT 9999 -SHRA FEW060CB OVC100 19/16 Q0998 TEMPO
12-09-23 METAR LFPG 232330Z 19016KT 9999 -SHRA FEW060CB OVC100 19/16 Q0997 TEMPO
12-09-24 METAR LFPG 240000Z 19013KT 9999 -RA NSC 18/16 Q0997 NOSIG
12-09-24 METAR LFPG 240030Z 22012KT 9999 -RA NSC 18/15 Q0996 NOSIG
12-09-24 METAR LFPG 240100Z 21010KT 9999 -RA NSC 18/15 Q0996 NOSIG
12-09-24 METAR LFPG 240130Z 20009KT 9999 -RA FEW040 SCT053 BKN080 17/15 Q0996 NOSIG
12-09-24 METAR LFPG 240200Z 18005KT 9999 FEW040 BKN100 17/15 Q0995 NOSIG
12-09-24 METAR LFPG 240230Z 15005KT 9999 FEW033 BKN050 17/15 Q0995 NOSIG
12-09-24 METAR LFPG 240300Z 14007KT 9999 FEW033 BKN050 17/15 Q0994 NOSIG
12-09-24 METAR LFPG 240330Z 15008KT 9999 SCT033 SCT053 BKN100 17/15 Q0993 NOSIG
12-09-24 METAR LFPG 240400Z 15011KT 9999 FEW040 SCT066 BKN093 17/15 Q0993 NOSIG
12-09-24 METAR LFPG 240430Z 16014KT 9999 SCT030 SCT046 BKN093 17/15 Q0992 NOSIG
12-09-24 METAR LFPG 240500Z 17012KT 9999 FEW030 BKN046 17/15 Q0991 NOSIG
12-09-24 METAR LFPG 240530Z 18014KT 9999 FEW030 SCT046 18/15 Q0991 NOSIG
12-09-24 METAR LFPG 240600Z 17014KT 9999 -SHRA FEW035 BKN050 18/15 Q0991 NOSIG
12-09-24 METAR LFPG 240630Z 18016KT 9999 -SHRA SCT022 BKN050 18/15 Q0991 NOSIG
12-09-24 METAR LFPG 240700Z 18016KT 9999 SCT012TCU SCT046 17/15 Q0990 NOSIG
12-09-24 METAR LFPG 240730Z 19018KT 160V220 9999 SCT012 BKN026 17/15 Q0991 NOSIG
12-09-24 METAR LFPG 240800Z 20021KT 9999 SCT014 BKN022 17/15 Q0991 NOSIG
12-09-24 METAR LFPG 240830Z 20021G32KT 8000 -SHRA FEW008 SCT014 BKN026 16/15 Q0991 NOSIG
12-09-24 METAR LFPG 240900Z 21021KT 8000 BKN012 BKN027 17/15 Q0992 NOSIG
12-09-24 METAR LFPG 240930Z 24030G44KT 200V260 9999 BKN020 SCT046 16/13 Q0993 NOSIG
12-09-24 METAR LFPG 241000Z 24024KT 9999 BKN022 SCT040 16/11 Q0993 NOSIG
12-09-24 METAR LFPG 241030Z 24027KT 9999 -RA SCT018 BKN021 15/11 Q0995 NOSIG
12-09-24 METAR LFPG 241100Z 25023G35KT 9999 SCT021 BKN040 15/10 Q0996 NOSIG
12-09-24 METAR LFPG 241130Z 24021KT 210V270 9999 FEW023 BKN033 16/10 Q0997 NOSIG
12-09-24 METAR LFPG 241200Z 24023KT 9999 BKN032 16/10 Q0998 NOSIG
12-09-24 METAR LFPG 241230Z 24022G38KT 9999 BKN033 16/10 Q0998 NOSIG
12-09-24 METAR LFPG 241300Z 24021KT 9999 FEW011 BKN036 16/09 Q0999 NOSIG
12-09-24 METAR LFPG 241330Z 24023KT 9999 FEW011 BKN036 18/09 Q0999 NOSIG
12-09-24 METAR LFPG 241400Z 23020G31KT 9999 FEW041 BKN066 18/08 Q0999 NOSIG
12-09-24 METAR LFPG 241430Z 23023KT 9999 SCT046 SCT073 19/08 Q1000 NOSIG
12-09-24 METAR LFPG 241500Z 23021KT 200V260 9999 SCT046 SCT073 19/08 Q0999 NOSIG
12-09-24 METAR LFPG 241530Z 23023KT 200V260 CAVOK 18/08 Q0999 NOSIG
12-09-24 METAR LFPG 241600Z 21017KT 9999 FEW046 18/08 Q0999 NOSIG
12-09-24 METAR LFPG 241630Z 21021KT 9999 FEW046 18/09 Q0999 NOSIG
12-09-24 METAR LFPG 241700Z 21022KT 9999 FEW045 SCT250 18/08 Q0999 NOSIG
12-09-24 METAR LFPG 241730Z 21021KT 9999 FEW043 SCT250 17/08 Q0999 NOSIG
12-09-24 METAR LFPG 241800Z 21019KT 9999 VCSH FEW043TCU SCT080 17/09 Q0999 NOSIG
12-09-24 METAR LFPG 241830Z 21021KT 9999 FEW040TCU BKN056 17/09 Q0999 NOSIG
12-09-24 METAR LFPG 241900Z 21022KT 9999 -SHRA FEW036TCU BKN056 17/09 Q0999 NOSIG
12-09-24 METAR LFPG 241930Z 21022G35KT 8000 -RA SCT030TCU BKN040 15/10 Q0999 NOSIG
12-09-24 METAR LFPG 242000Z 21016KT 6000 RA BKN017 SCT026TCU 14/11 Q0999 NOSIG
12-09-24 METAR LFPG 242030Z 21013KT 3000 RA FEW007 SCT015TCU BKN026 14/12 Q0999
12-09-24 METAR LFPG 242100Z 23014KT 6000 -RA SCT010 BKN016 BKN040 14/12 Q0998 NOSIG
12-09-24 METAR LFPG 242130Z 20014KT 8000 -RA FEW010 BKN015 BKN021 14/12 Q0998 NOSIG
12-09-24 METAR LFPG 242200Z 21013KT 4000 RA FEW007 SCT011 FEW014TCU BKN020 14/12 Q0997 NOSIG
12-09-24 METAR LFPG 242230Z 20015KT 9000 -RA BKN010 BKN016 14/12 Q0997 NOSIG
12-09-24 METAR LFPG 242300Z 20015KT 9999 BKN012 BKN020 14/12 Q0997 RERA NOSIG
12-09-24 METAR LFPG 242330Z 21017KT 9999 SCT012 BKN018 14/12 Q0997 NOSIG
12-09-25 METAR LFPG 250000Z 22017KT 9999 SCT017 BKN025 BKN043 14/11 Q0997 NOSIG
12-09-25 METAR LFPG 250030Z 21014KT 9999 SCT016 BKN028 BKN140 14/11 Q0997 NOSIG
12-09-25 METAR LFPG 250100Z 22016KT 9999 SCT020 BKN027 14/10 Q0997 NOSIG
12-09-25 METAR LFPG 250130Z 22014KT 9999 SCT017 BKN028 13/10 Q0997 NOSIG
12-09-25 METAR LFPG 250200Z 21014KT 9999 SCT017 BKN026 BKN170 13/10 Q0997 NOSIG
12-09-25 METAR LFPG 250230Z 21013KT 9999 SCT016 SCT026 OVC160 13/09 Q0997 NOSIG
12-09-25 METAR LFPG 250300Z 21010KT 9999 SCT015 BKN022 13/10 Q0997 NOSIG
12-09-25 METAR LFPG 250330Z 20012KT 9999 SCT016 SCT023 OVC140 13/10 Q0997 NOSIG
12-09-25 METAR LFPG 250400Z 20011KT 9999 SCT015 SCT083 OVC130 13/09 Q0996 NOSIG
12-09-25 METAR LFPG 250430Z 19012KT 9999 SCT015 BKN073 12/10 Q0996 NOSIG
12-09-25 METAR LFPG 250500Z 19013KT 9999 BKN013 BKN046 13/10 Q0996 NOSIG
12-09-25 METAR LFPG 250530Z 19011KT 3000 -SHRA BKN013 BKN046 12/10 Q0996 NOSIG
12-09-25 METAR LFPG 250600Z 19011KT 9999 SCT013 BKN026 12/11 Q0996 NOSIG
12-09-25 METAR LFPG 250630Z 20014KT 9999 BKN015 BKN023 12/11 Q0996 NOSIG
12-09-25 METAR LFPG 250700Z 20015KT 9999 BKN016 BKN023 13/10 Q0996 NOSIG
12-09-25 METAR LFPG 250730Z 20017KT 9999 BKN017 BKN023 13/10 Q0997 NOSIG
12-09-25 METAR LFPG 250800Z 20017KT 9999 BKN017 13/09 Q0997 NOSIG
12-09-25 METAR LFPG 250830Z 21015KT 9999 BKN018 13/09 Q0997 NOSIG
12-09-25 METAR LFPG 250900Z 20017KT 9999 BKN018 13/09 Q0997 NOSIG
12-09-25 METAR LFPG 250930Z 20017KT 160V220 9999 BKN020 BKN040 14/09 Q0997 NOSIG
12-09-25 METAR LFPG 251000Z 19017KT 9999 BKN017 BKN046 14/09 Q0998 NOSIG
12-09-25 METAR LFPG 251030Z 20016KT 170V270 9999 BKN016 BKN040 14/10 Q0997 NOSIG
12-09-25 METAR LFPG 251100Z 20019KT 9999 BKN016 BKN040 15/09 Q0998 NOSIG
12-09-25 METAR LFPG 251130Z 19017KT 9999 BKN021 SCT040 15/09 Q0997 NOSIG
12-09-25 METAR LFPG 251200Z 20017KT 9999 SCT023 SCT046 BKN190 15/10 Q0997 NOSIG
12-09-25 METAR LFPG 251230Z 20016KT 170V230 9999 SCT026 BKN190 15/09 Q0997 NOSIG
12-09-25 METAR LFPG 251300Z 20015KT 9999 SCT026 BKN180 16/09 Q0997 NOSIG
12-09-25 METAR LFPG 251330Z 19015KT 9999 BKN028 BKN190 16/09 Q0997 NOSIG
12-09-25 METAR LFPG 251500Z 19016KT 9999 FEW026TCU SCT030 BKN053 16/10 Q0996 NOSIG
12-09-25 METAR LFPG 251530Z 19013KT 9999 FEW026TCU SCT030 BKN073 16/10 Q0996 NOSIG
12-09-25 METAR LFPG 251600Z 19011KT 9999 FEW026TCU SCT030 BKN073 16/10 Q0996 NOSIG
12-09-25 METAR LFPG 251630Z 18013KT 9999 FEW026TCU SCT030 BKN130 16/09 Q0996 NOSIG
12-09-25 METAR LFPG 251700Z 20018KT 9999 FEW026TCU SCT030 BKN120 15/09 Q0996 NOSIG
12-09-25 METAR LFPG 251730Z 19013KT 9999 FEW026TCU SCT030 BKN080 15/09 Q0996 NOSIG
12-09-25 METAR LFPG 251800Z 19015KT 9999 -SHRA FEW026 BKN100 15/09 Q0996 NOSIG
12-09-25 METAR LFPG 251900Z 19013KT 9999 FEW026 BKN063 14/09 Q0996 NOSIG
12-09-25 METAR LFPG 251930Z 18014G24KT 120V240 9999 FEW026 BKN063 14/09 Q0996 NOSIG
12-09-25 METAR LFPG 252000Z 18013G28KT 160V240 9999 -RA FEW026 BKN063 14/09 Q0995 NOSIG
12-09-25 METAR LFPG 252030Z 18012KT 140V200 9999 SCT015 BKN026 BKN063 13/10 Q0996
12-09-25 METAR LFPG 252100Z 19015KT 9999 FEW015 SCT063 BKN096 13/10 Q0995 NOSIG
12-09-25 METAR LFPG 252130Z 20016KT 9999 SCT016 BKN023 BKN063 13/10 Q0996 NOSIG
12-09-25 METAR LFPG 252200Z 20014KT 9999 FEW016 BKN060 13/09 Q0996 NOSIG
12-09-25 METAR LFPG 252230Z 19012KT 9999 FEW016 BKN060 13/09 Q0995 NOSIG
12-09-25 METAR LFPG 252300Z 20014KT 9999 BKN016 BKN060 13/09 Q0996 NOSIG
12-09-25 METAR LFPG 252330Z 19016KT 9999 SCT016 BKN066 13/09 Q0996 NOSIG
12-09-26 METAR LFPG 260000Z 19014KT 9999 FEW016 BKN063 13/09 Q0996 NOSIG
12-09-26 METAR LFPG 260030Z 19013KT 9999 SCT016 SCT063 BKN140 13/09 Q0995 NOSIG
12-09-26 METAR LFPG 260100Z 19013KT 9999 BKN016 13/09 Q0996 NOSIG
12-09-26 METAR LFPG 260130Z 19015KT 9999 BKN016 13/09 Q0996 NOSIG
12-09-26 METAR LFPG 260200Z 19017KT 9999 BKN016 13/09 Q0996 NOSIG
12-09-26 METAR LFPG 260230Z 19014KT 9999 BKN016 13/09 Q0996 NOSIG
12-09-26 METAR LFPG 260300Z 19014KT 9999 BKN016 13/09 Q0995 NOSIG
12-09-26 METAR LFPG 260330Z 20014KT 9999 BKN015 13/09 Q0995 NOSIG
12-09-26 METAR LFPG 260400Z 19013KT 9999 BKN015 13/09 Q0995 NOSIG
12-09-26 METAR LFPG 260430Z 19013KT 9999 BKN016 13/09 Q0995 NOSIG
12-09-26 METAR LFPG 260500Z 20014KT 9999 BKN017 13/09 Q0995 NOSIG
12-09-26 METAR LFPG 260530Z 20012KT 9999 BKN017 13/09 Q0996 NOSIG
12-09-26 METAR LFPG 260600Z 20013KT 9000 BKN014 12/09 Q0996 NOSIG
12-09-26 METAR LFPG 260630Z 20010KT 6000 -SHRA BKN013 12/10 Q0996 NOSIG
12-09-26 METAR LFPG 260700Z 19010KT 9999 -RA BKN017 12/10 Q0997 NOSIG
12-09-26 METAR LFPG 260730Z 19010KT 9999 BKN017 12/09 Q0997 NOSIG
12-09-26 METAR LFPG 260800Z 19011KT 9999 BKN015 12/10 Q0997 NOSIG
12-09-26 METAR LFPG 260830Z 19010KT 160V220 9999 -RA BKN013 12/10 Q0998 NOSIG
12-09-26 METAR LFPG 260900Z 19011KT 9999 BKN015 13/09 Q0998 NOSIG
12-09-26 METAR LFPG 260930Z 20014KT 9999 BKN020 13/09 Q0998 NOSIG
12-09-26 METAR LFPG 261000Z 19011KT 9999 BKN017 BKN023 13/09 Q0998 NOSIG
12-09-26 METAR LFPG 261030Z 19012KT 9999 BKN018 BKN026 13/09 Q0998 NOSIG
12-09-26 METAR LFPG 261100Z 19010KT 9999 BKN020 BKN031 14/09 Q0998 NOSIG
12-09-26 METAR LFPG 261130Z 19011KT 9999 BKN025 BKN053 14/09 Q0998 NOSIG
12-09-26 METAR LFPG 261200Z 18013KT 140V220 9999 BKN026 BKN066 15/10 Q0998 NOSIG
12-09-26 METAR LFPG 261230Z 18015KT 9999 BKN026 BKN066 16/10 Q0998 NOSIG
12-09-26 METAR LFPG 261300Z 18014KT 9999 FEW025 FEW026TCU BKN066 16/09 Q0998 NOSIG
12-09-26 METAR LFPG 261330Z 17015KT 9999 -SHRA FEW025 SCT026TCU BKN046 15/09 Q0998 NOSIG
12-09-26 METAR LFPG 261400Z 18017KT 9999 FEW025 SCT026TCU BKN046 16/08 Q0998 NOSIG
12-09-26 METAR LFPG 261430Z 18013KT 9999 -SHRA FEW028 SCT029TCU BKN046 16/09 Q0998
12-09-26 METAR LFPG 261500Z VRB11KT 9999 FEW032 SCT033TCU BKN066 16/09 Q0998 NOSIG
12-09-26 METAR LFPG 261530Z 19014KT 9999 -SHRA FEW030 SCT031TCU BKN060 15/10 Q0998
12-09-26 METAR LFPG 261600Z 18008KT 160V230 4000 SHRA FEW022 BKN026TCU 14/11 Q0999
12-09-26 METAR LFPG 261630Z 18006KT 9999 -SHRA FEW026TCU FEW028CB SCT030 13/11 Q0999
12-09-26 METAR LFPG 261700Z 18008KT 4500 SHRA FEW020TCU BKN021 13/11 Q0999 NOSIG
12-09-26 METAR LFPG 261730Z 23006KT 190V270 6000 -RA FEW008 FEW013TCU BKN023 13/11 Q0999 NOSIG
12-09-26 METAR LFPG 261800Z 18013KT 9000 -RA SCT009 FEW016TCU BKN023 13/12 Q0999
12-09-26 METAR LFPG 261830Z 18013G24KT 160V240 6000 -RA FEW013 FEW016TCU BKN065 13/11 Q0999 NOSIG
12-09-26 METAR LFPG 261900Z 18009KT 9999 FEW040 12/11 Q0999 NOSIG
12-09-26 METAR LFPG 261930Z 15006KT 9999 FEW017 BKN024 12/11 Q1000 NOSIG
12-09-26 METAR LFPG 262000Z 18010G22KT 160V250 9999 FEW018 BKN022 12/11 Q1000 NOSIG
12-09-26 METAR LFPG 262030Z 17009KT 9999 BKN011 BKN017 13/11 Q1001 NOSIG
12-09-26 METAR LFPG 262100Z 17010KT 9999 BKN007 13/11 Q1001 NOSIG
12-09-26 METAR LFPG 262130Z 18010KT 9999 BKN007 13/12 Q1001 NOSIG
12-09-26 METAR LFPG 262200Z 19011KT 9999 BKN007 13/12 Q1001 NOSIG
12-09-26 METAR LFPG 262230Z 19010KT 6000 -SHRA BKN007 BKN014 13/12 Q1002 NOSIG
12-09-26 METAR LFPG 262300Z 19010KT 9999 BKN009 BKN014 13/12 Q1002 NOSIG
12-09-26 METAR LFPG 262330Z 20011KT 9999 BKN007 BKN017 13/12 Q1002 NOSIG
12-09-27 METAR LFPG 270000Z 21014KT 9999 BKN008 BKN019 13/12 Q1002 NOSIG
12-09-27 METAR LFPG 270030Z 21013KT 9999 BKN012 BKN018 13/11 Q1002 NOSIG
12-09-27 METAR LFPG 270100Z 21013KT 9999 BKN012 SCT019 BKN071 13/11 Q1003 NOSIG
12-09-27 METAR LFPG 270130Z 21010KT 9999 BKN011 BKN018 13/11 Q1003 NOSIG
12-09-27 METAR LFPG 270200Z 19009KT 9999 BKN011 BKN019 13/11 Q1003 NOSIG
12-09-27 METAR LFPG 270230Z 21011KT 9999 BKN010 BKN018 13/11 Q1003 NOSIG
12-09-27 METAR LFPG 270300Z 19010KT 9999 BKN013 BKN030 13/11 Q1003 NOSIG
12-09-27 METAR LFPG 270330Z 19010KT 9999 -SHRA BKN011 FEW013TCU BKN019 13/11 Q1002 NOSIG
12-09-27 METAR LFPG 270400Z 21012KT 7000 -SHRA BKN011 FEW013TCU SCT018 12/11 Q1003
12-09-27 METAR LFPG 270430Z 20013KT 9999 BKN013 BKN020 12/11 Q1003 NOSIG
12-09-27 METAR LFPG 270500Z 20013KT 9999 BKN015 BKN020 12/11 Q1003 NOSIG
12-09-27 METAR LFPG 270530Z 20013KT 9999 BKN015 BKN020 12/11 Q1003 NOSIG
12-09-27 METAR LFPG 270600Z 21012KT 9999 -SHRA FEW014 BKN020 12/10 Q1003 NOSIG
12-09-27 METAR LFPG 270630Z 21013KT 9999 FEW015 BKN020 12/11 Q1004 NOSIG
12-09-27 METAR LFPG 270700Z 20012KT 9999 -SHRA FEW015 BKN020 13/10 Q1004 NOSIG
12-09-27 METAR LFPG 270730Z 21013KT 9999 FEW016 BKN020 13/10 Q1004 NOSIG
12-09-27 METAR LFPG 270800Z 21013KT 9999 FEW016 BKN020 13/10 Q1004 NOSIG
12-09-27 METAR LFPG 270830Z 21014G24KT 190V270 9999 FEW016 BKN027 13/10 Q1004 NOSIG
12-09-27 METAR LFPG 270900Z 21012KT 9999 SCT016 SCT030 13/10 Q1005 NOSIG
12-09-27 METAR LFPG 270930Z 22012KT 9999 SCT018 SCT026 14/10 Q1005 NOSIG
12-09-27 METAR LFPG 271000Z 22014KT 6000 -SHRA FEW011 BKN019 14/10 Q1005 NOSIG
12-09-27 METAR LFPG 271030Z 24014KT 210V270 4000 -SHRA SCT007 BKN010 BKN017 13/11 Q1005 NOSIG
12-09-27 METAR LFPG 271100Z 25014KT 9999 SCT010 BKN015 BKN025 13/12 Q1006 NOSIG
12-09-27 METAR LFPG 271130Z 25012KT 9999 -SHRA SCT010 BKN015 BKN025 14/11 Q1006
12-09-27 METAR LFPG 271200Z 25013KT 9999 SCT010TCU SCT025 15/12 Q1007 NOSIG
12-09-27 METAR LFPG 271230Z 27014KT 9999 FEW010TCU SCT025 17/12 Q1007 NOSIG
12-09-27 METAR LFPG 271300Z 29011KT 9999 FEW023TCU SCT063 16/11 Q1008 NOSIG
12-09-27 METAR LFPG 271330Z 28014KT 9999 SCT025TCU SCT063 16/09 Q1009 NOSIG
12-09-27 METAR LFPG 271400Z 27015KT 250V310 9999 SCT025TCU SCT063 15/10 Q1009 NOSIG
12-09-27 METAR LFPG 271430Z 28016KT 9999 -SHRA FEW026TCU SCT062 16/11 Q1010 NOSIG
12-09-27 METAR LFPG 271500Z 30013KT 9999 SCT026 SCT063 16/09 Q1011 NOSIG
12-09-27 METAR LFPG 271530Z 28013KT 9999 FEW028TCU BKN078 15/10 Q1011 NOSIG
12-09-27 METAR LFPG 271600Z 28011KT 240V300 9999 FEW028 BKN071 15/10 Q1012 NOSIG
12-09-27 METAR LFPG 271630Z 28011KT 9999 SCT030 BKN065 15/10 Q1012 NOSIG
12-09-27 METAR LFPG 271700Z 28010KT 9999 FEW033 BKN080 15/09 Q1013 NOSIG
12-09-27 METAR LFPG 271730Z 28010KT 9999 FEW033 BKN073 15/09 Q1013 NOSIG
12-09-27 METAR LFPG 271800Z 30006KT 9999 FEW033 SCT073 14/09 Q1014 NOSIG
12-09-27 METAR LFPG 271830Z 25003KT CAVOK 13/09 Q1014 NOSIG
12-09-27 METAR LFPG 271900Z 25005KT CAVOK 13/09 Q1015 NOSIG
12-09-27 METAR LFPG 271930Z 24006KT 9999 FEW030 12/09 Q1015 NOSIG
12-09-27 METAR LFPG 272000Z 21004KT CAVOK 12/09 Q1016 NOSIG
12-09-27 METAR LFPG 272030Z 22005KT CAVOK 12/09 Q1016 NOSIG
12-09-27 METAR LFPG 272100Z 25004KT 220V290 CAVOK 12/08 Q1016 NOSIG
12-09-27 METAR LFPG 272130Z 22004KT CAVOK 12/09 Q1016 NOSIG
12-09-27 METAR LFPG 272200Z 21004KT CAVOK 11/09 Q1016 NOSIG
12-09-27 METAR LFPG 272230Z 21005KT CAVOK 11/08 Q1017 NOSIG
12-09-27 METAR LFPG 272300Z 19004KT 170V290 CAVOK 11/09 Q1017 NOSIG
12-09-27 METAR LFPG 272330Z NIL
12-09-28 METAR LFPG 280000Z 18006KT 9000 NSC 10/09 Q1017 NOSIG
12-09-28 METAR LFPG 280030Z 19006KT 9000 NSC 10/09 Q1017 NOSIG
12-09-28 METAR LFPG 280100Z 20004KT 9000 NSC 10/09 Q1017 NOSIG
12-09-28 METAR LFPG 280130Z 23005KT 9000 NSC 10/09 Q1017 NOSIG
12-09-28 METAR LFPG 280200Z 23006KT 9000 NSC 11/09 Q1017 NOSIG
12-09-28 METAR LFPG 280230Z 22005KT 190V250 9000 NSC 10/09 Q1017 NOSIG
12-09-28 METAR LFPG 280300Z VRB03KT 9000 NSC 10/08 Q1017 NOSIG
12-09-28 METAR LFPG 280330Z 16002KT 9000 NSC 10/08 Q1017 NOSIG
12-09-28 METAR LFPG 280400Z 20002KT 8000 NSC 10/08 Q1017 NOSIG
12-09-28 METAR LFPG 280430Z VRB02KT 7000 NSC 09/08 Q1017 NOSIG
12-09-28 METAR LFPG 280500Z 19003KT 7000 NSC 09/08 Q1017 NOSIG
12-09-28 METAR LFPG 280530Z 00000KT 7000 R26L/0550V1300D R08R/1200VP2000U VCFG SCT040 09/08 Q1017 TEMPO 0800 BCFG
12-09-28 METAR LFPG 280600Z 18002KT 5000 0900E R27L/P2000 R09R/P2000 R26R/P2000 R08L/1200U R26L/0500V1800D R08R/0300D R27R/P2000 R09L/P2000 BCFG FEW002 09/08 Q1017 TEMPO 0500 BCFG
12-09-28 METAR LFPG 280630Z 15003KT 5000 0900S R27L/P2000 R09R/P2000 R26R/P2000 R08L/0750D R26L/2000U R08R/P2000 R27R/P2000 R09L/P2000 FEW045 10/09 Q1017 NOSIG
12-09-28 METAR LFPG 280700Z 16004KT 140V220 5000 1500S R08L/1000V1900U BR SCT001 10/09 Q1017 NOSIG
12-09-28 METAR LFPG 280730Z 15005KT 4000 R08L/0650VP2000U R08R/0800VP2000U BR FEW002 BKN039 10/09 Q1018 NOSIG
12-09-28 METAR LFPG 280800Z 16004G17KT 100V200 5000 BR FEW001 SCT036 11/10 Q1018 NOSIG
12-09-28 METAR LFPG 280830Z 16004KT 7000 FEW003 13/11 Q1018 NOSIG
12-09-28 METAR LFPG 280900Z 16004KT 130V210 8000 SCT039 13/10 Q1018 NOSIG
12-09-28 METAR LFPG 280930Z VRB03G15KT 9999 FEW012 14/11 Q1018 NOSIG
12-09-28 METAR LFPG 281000Z 14005KT 100V190 9999 FEW020 15/10 Q1018 NOSIG
12-09-28 METAR LFPG 281030Z 17005KT 090V200 9999 FEW027 16/09 Q1018 NOSIG
12-09-28 METAR LFPG 281100Z 19007KT 140V250 9999 SCT024 17/09 Q1018 NOSIG
12-09-28 METAR LFPG 281130Z 20005KT 110V260 9999 BKN027 17/09 Q1018 NOSIG
12-09-28 METAR LFPG 281200Z 24007KT 190V290 9999 BKN030 17/08 Q1017 NOSIG
12-09-28 METAR LFPG 281230Z 21009KT 140V300 9999 SCT033 17/08 Q1017 NOSIG
12-09-28 METAR LFPG 281300Z 22008KT 170V320 9999 SCT034 18/09 Q1017 NOSIG
12-09-28 METAR LFPG 281330Z 24007KT 9999 SCT041 18/08 Q1017 NOSIG
12-09-28 METAR LFPG 281400Z 23009KT 9999 SCT041 18/08 Q1017 NOSIG
12-09-28 METAR LFPG 281430Z 24008KT 9999 SCT042 18/07 Q1016 NOSIG
12-09-28 METAR LFPG 281500Z 24009KT 190V290 9999 SCT042 18/07 Q1016 NOSIG
12-09-28 METAR LFPG 281530Z 24008KT 9999 SCT038 17/07 Q1016 NOSIG
12-09-28 METAR LFPG 281600Z 22008KT 9999 FEW033 17/09 Q1016 NOSIG
12-09-28 METAR LFPG 281630Z 23008KT 9999 FEW033 17/09 Q1016 NOSIG
12-09-28 METAR LFPG 281700Z 22008KT 9999 FEW033 16/08 Q1016 NOSIG
12-09-28 METAR LFPG 281730Z 23006KT 9999 FEW032 15/09 Q1016 NOSIG
12-09-28 METAR LFPG 281800Z 24006KT 200V270 9999 FEW032 14/08 Q1017 NOSIG
12-09-28 METAR LFPG 281830Z 22005KT 190V280 9999 FEW032 14/08 Q1017 NOSIG
12-09-28 METAR LFPG 281900Z 22007KT 9999 FEW032 13/07 Q1017 NOSIG
12-09-28 METAR LFPG 281930Z 22006KT CAVOK 13/07 Q1017 NOSIG
12-09-28 METAR LFPG 282000Z 22006KT 200V270 CAVOK 13/07 Q1017 NOSIG
12-09-28 METAR LFPG 282030Z 20007KT CAVOK 13/07 Q1017 NOSIG
12-09-28 METAR LFPG 282100Z 21005KT CAVOK 12/08 Q1017 NOSIG
12-09-28 METAR LFPG 282130Z 21005KT CAVOK 12/07 Q1017 NOSIG
12-09-28 METAR LFPG 282200Z 21005KT CAVOK 12/07 Q1017 NOSIG
12-09-28 METAR LFPG 282230Z 20004KT CAVOK 11/07 Q1017 NOSIG
12-09-28 METAR LFPG 282300Z 20004KT 190V250 CAVOK 11/07 Q1017 NOSIG
12-09-28 METAR LFPG 282330Z 22005KT 200V270 CAVOK 11/07 Q1017 NOSIG
12-09-29 METAR LFPG 290000Z 22006KT 9999 FEW046 11/07 Q1017 NOSIG
12-09-29 METAR LFPG 290030Z 24007KT 9999 FEW046 11/07 Q1017 NOSIG
12-09-29 METAR LFPG 290100Z 24006KT CAVOK 11/07 Q1017 NOSIG
12-09-29 METAR LFPG 290130Z 22004KT CAVOK 11/07 Q1017 NOSIG
12-09-29 METAR LFPG 290200Z 24006KT CAVOK 10/07 Q1017 NOSIG
12-09-29 METAR LFPG 290230Z 24006KT CAVOK 10/08 Q1017 NOSIG
12-09-29 METAR LFPG 290300Z 21003KT CAVOK 10/07 Q1017 NOSIG
12-09-29 METAR LFPG 290330Z VRB03KT CAVOK 10/07 Q1017 NOSIG
12-09-29 METAR LFPG 290400Z 17003KT CAVOK 09/07 Q1017 NOSIG
12-09-29 METAR LFPG 290430Z 19003KT 160V230 CAVOK 09/07 Q1017 NOSIG
12-09-29 METAR LFPG 290500Z 19004KT CAVOK 09/07 Q1017 NOSIG
12-09-29 METAR LFPG 290530Z 19004KT CAVOK 09/08 Q1017 NOSIG
12-09-29 METAR LFPG 290600Z 22003KT 9999 FEW010 BKN065 10/09 Q1017 NOSIG
12-09-29 METAR LFPG 290630Z 23004KT 9999 FEW015 BKN065 10/09 Q1018 NOSIG
12-09-29 METAR LFPG 290700Z 23004KT CAVOK 11/09 Q1018 NOSIG
12-09-29 METAR LFPG 290730Z 22005KT CAVOK 11/09 Q1018 NOSIG
12-09-29 METAR LFPG 290800Z 23007KT CAVOK 13/10 Q1018 NOSIG
12-09-29 METAR LFPG 290830Z 24006KT 220V280 9999 FEW015 SCT066 13/10 Q1019 NOSIG
12-09-29 METAR LFPG 290900Z 29007KT 260V320 9999 FEW015 SCT066 15/10 Q1019 NOSIG
12-09-29 METAR LFPG 290930Z 30007KT 270V330 9999 FEW020 15/10 Q1019 NOSIG
12-09-29 METAR LFPG 291000Z 29005KT 240V030 9999 SCT020 15/10 Q1019 NOSIG
12-09-29 METAR LFPG 291030Z 30005KT 260V010 9999 SCT026 16/10 Q1019 NOSIG
12-09-29 METAR LFPG 291100Z 32008KT 260V350 9999 SCT026 SCT073 16/08 Q1019 NOSIG
12-09-29 METAR LFPG 291130Z 33007KT 310V020 9999 SCT026 BKN073 16/09 Q1019 NOSIG
12-09-29 METAR LFPG 291200Z 31009KT 280V340 9999 FEW026 BKN073 16/08 Q1019 NOSIG
12-09-29 METAR LFPG 291230Z 31008KT 280V340 9999 FEW033 BKN073 17/08 Q1019 NOSIG
12-09-29 METAR LFPG 291300Z 30008KT 260V350 9999 FEW036 BKN073 18/08 Q1019 NOSIG
12-09-29 METAR LFPG 291330Z 33009KT 9999 FEW036 BKN053 16/07 Q1019 NOSIG
12-09-29 METAR LFPG 291400Z 32005KT 9999 FEW036 BKN063 16/08 Q1019 NOSIG
12-09-29 METAR LFPG 291430Z 32005KT 280V350 9999 FEW040 BKN073 16/07 Q1019 NOSIG
12-09-29 METAR LFPG 291500Z 31006KT 270V340 9999 SCT040 SCT073 16/08 Q1019 NOSIG
12-09-29 METAR LFPG 291530Z 36006KT 330V060 9999 SCT040 SCT073 17/06 Q1019 NOSIG
12-09-29 METAR LFPG 291600Z 32004KT 280V340 9999 FEW040 16/07 Q1019 NOSIG
12-09-29 METAR LFPG 291630Z 32004KT 9999 FEW046 17/06 Q1019 NOSIG
12-09-29 METAR LFPG 291700Z 32007KT 9999 FEW046 16/07 Q1019 NOSIG
12-09-29 METAR LFPG 291730Z 33007KT 9999 FEW046 14/07 Q1019 NOSIG
12-09-29 METAR LFPG 291800Z 34006KT CAVOK 14/06 Q1020 NOSIG
12-09-29 METAR LFPG 291830Z 33007KT CAVOK 13/06 Q1020 NOSIG
12-09-29 METAR LFPG 291900Z 33007KT CAVOK 12/06 Q1021 NOSIG
12-09-29 METAR LFPG 291930Z 34008KT CAVOK 12/06 Q1021 NOSIG
12-09-29 METAR LFPG 292000Z 34005KT CAVOK 11/06 Q1022 NOSIG
12-09-29 METAR LFPG 292030Z 36004KT 350V050 CAVOK 11/06 Q1022 NOSIG
12-09-29 METAR LFPG 292100Z 35005KT CAVOK 10/06 Q1022 NOSIG
12-09-29 METAR LFPG 292130Z 34004KT CAVOK 10/06 Q1022 NOSIG
12-09-29 METAR LFPG 292200Z 34003KT CAVOK 10/06 Q1022 NOSIG
12-09-29 METAR LFPG 292230Z 33002KT CAVOK 09/05 Q1023 NOSIG
12-09-29 METAR LFPG 292300Z 32004KT CAVOK 09/05 Q1023 NOSIG
12-09-29 METAR LFPG 292330Z 34004KT CAVOK 08/05 Q1023 NOSIG
12-09-30 METAR LFPG 300000Z 01002KT CAVOK 08/05 Q1022 NOSIG
12-09-30 METAR LFPG 300030Z 00000KT CAVOK 08/05 Q1023 NOSIG
12-09-30 METAR LFPG 300100Z 30003KT CAVOK 07/05 Q1023 NOSIG
12-09-30 METAR LFPG 300130Z 29002KT CAVOK 07/05 Q1022 NOSIG
12-09-30 METAR LFPG 300200Z 31002KT CAVOK 07/05 Q1022 NOSIG
12-09-30 METAR LFPG 300230Z 30001KT CAVOK 06/05 Q1022 NOSIG
12-09-30 METAR LFPG 300300Z VRB02KT CAVOK 06/05 Q1022 NOSIG
12-09-30 METAR LFPG 300330Z 00000KT CAVOK 06/04 Q1022 NOSIG
12-09-30 METAR LFPG 300400Z 00000KT CAVOK 06/05 Q1022 NOSIG
12-09-30 METAR LFPG 300430Z 17001KT CAVOK 06/04 Q1022 NOSIG
12-09-30 METAR LFPG 300500Z 00000KT CAVOK 06/04 Q1023 NOSIG
12-09-30 METAR LFPG 300530Z 00000KT CAVOK 06/04 Q1023 NOSIG
12-09-30 METAR LFPG 300600Z 26003KT 9000 MIFG NSC 06/04 Q1023 NOSIG
12-09-30 METAR LFPG 300630Z 29002KT 9000 MIFG NSC 06/05 Q1023 NOSIG
12-09-30 METAR LFPG 300700Z 00000KT CAVOK 07/06 Q1023 NOSIG
12-09-30 METAR LFPG 300730Z 31002KT CAVOK 08/06 Q1023 NOSIG
12-09-30 METAR LFPG 300800Z VRB02KT CAVOK 09/07 Q1023 NOSIG
12-09-30 METAR LFPG 300830Z VRB02KT CAVOK 11/07 Q1023 NOSIG
12-09-30 METAR LFPG 300900Z VRB02KT 9999 FEW021 12/07 Q1023 NOSIG
12-09-30 METAR LFPG 300930Z VRB02KT 9999 FEW021 13/05 Q1023 NOSIG
12-09-30 METAR LFPG 301000Z 31004KT 240V020 9999 FEW023 SCT250 14/06 Q1023 NOSIG
12-09-30 METAR LFPG 301030Z 36004KT 330V050 9999 FEW026 SCT250 14/05 Q1023 NOSIG
12-09-30 METAR LFPG 301100Z VRB02KT 9999 FEW030 SCT250 14/05 Q1023 NOSIG
12-09-30 METAR LFPG 301130Z VRB02KT 9999 FEW033 SCT250 15/05 Q1023 NOSIG
12-09-30 METAR LFPG 301200Z VRB03KT 9999 FEW036 SCT250 17/05 Q1023 NOSIG
12-09-30 METAR LFPG 301230Z 35004KT 320V050 CAVOK 17/05 Q1022 NOSIG
12-09-30 METAR LFPG 301300Z VRB03KT CAVOK 17/05 Q1022 NOSIG
12-09-30 METAR LFPG 301330Z 32004KT 250V030 CAVOK 18/05 Q1022 NOSIG
12-09-30 METAR LFPG 301400Z VRB03KT CAVOK 17/04 Q1021 NOSIG
12-09-30 METAR LFPG 301430Z VRB02KT CAVOK 17/05 Q1021 NOSIG
12-09-30 METAR LFPG 301500Z VRB03KT CAVOK 18/05 Q1021 NOSIG
12-09-30 METAR LFPG 301530Z VRB02KT CAVOK 17/04 Q1021 NOSIG
12-09-30 METAR LFPG 301600Z VRB01KT CAVOK 18/04 Q1020 NOSIG
12-09-30 METAR LFPG 301630Z VRB03KT CAVOK 17/03 Q1020 NOSIG
12-09-30 METAR LFPG 301700Z VRB02KT CAVOK 17/03 Q1020 NOSIG
12-09-30 METAR LFPG 301730Z 28002KT CAVOK 16/03 Q1020 NOSIG
12-09-30 METAR LFPG 301800Z VRB01KT CAVOK 15/05 Q1020 NOSIG
12-09-30 METAR LFPG 301830Z 00000KT CAVOK 14/05 Q1020 NOSIG
12-09-30 METAR LFPG 301900Z 00000KT CAVOK 13/05 Q1020 NOSIG
12-09-30 METAR LFPG 301930Z VRB01KT CAVOK 12/06 Q1020 NOSIG
12-09-30 METAR LFPG 302000Z 13003KT CAVOK 12/05 Q1020 NOSIG
12-09-30 METAR LFPG 302030Z 14005KT CAVOK 12/05 Q1020 NOSIG
12-09-30 METAR LFPG 302100Z 14004KT CAVOK 12/06 Q1020 NOSIG
12-09-30 METAR LFPG 302130Z 13003KT CAVOK 11/05 Q1020 NOSIG
12-09-30 METAR LFPG 302200Z 00000KT CAVOK 11/05 Q1020 NOSIG
12-09-30 METAR LFPG 302230Z 00000KT CAVOK 10/05 Q1020 NOSIG
12-09-30 METAR LFPG 302300Z 14003KT CAVOK 09/05 Q1020 NOSIG
12-09-30 METAR LFPG 302330Z 13002KT CAVOK 09/05 Q1020 NOSIG
12-10-01 METAR LFPG 010000Z 14003KT CAVOK 09/05 Q1020 NOSIG
12-10-01 METAR LFPG 010030Z 15004KT CAVOK 09/05 Q1020 NOSIG
12-10-01 METAR LFPG 010100Z 17004KT CAVOK 09/05 Q1019 NOSIG
12-10-01 METAR LFPG 010130Z 17003KT CAVOK 09/05 Q1019 NOSIG
12-10-01 METAR LFPG 010200Z 23003KT CAVOK 08/05 Q1018 NOSIG
12-10-01 METAR LFPG 010230Z 00000KT CAVOK 08/05 Q1018 NOSIG
12-10-01 METAR LFPG 010300Z 00000KT CAVOK 08/05 Q1018 NOSIG
12-10-01 METAR LFPG 010330Z 22001KT CAVOK 08/05 Q1018 NOSIG
12-10-01 METAR LFPG 010400Z VRB02KT CAVOK 07/05 Q1018 NOSIG
12-10-01 METAR LFPG 010430Z 14005KT CAVOK 08/06 Q1018 NOSIG
12-10-01 METAR LFPG 010500Z 15006KT CAVOK 08/05 Q1018 NOSIG
12-10-01 METAR LFPG 010530Z 15005KT CAVOK 07/05 Q1018 NOSIG
12-10-01 METAR LFPG 010600Z 15005KT CAVOK 07/05 Q1018 NOSIG
12-10-01 METAR LFPG 010630Z 15003KT CAVOK 07/05 Q1018 NOSIG
12-10-01 METAR LFPG 010700Z 16004KT 140V200 CAVOK 08/06 Q1018 NOSIG
12-10-01 METAR LFPG 010730Z 16005KT CAVOK 09/06 Q1018 NOSIG
12-10-01 METAR LFPG 010800Z 17004KT CAVOK 10/07 Q1019 NOSIG
12-10-01 METAR LFPG 010830Z 19005KT CAVOK 12/07 Q1019 NOSIG
12-10-01 METAR LFPG 010900Z 19007KT CAVOK 13/07 Q1018 NOSIG
12-10-01 METAR LFPG 010930Z 20009KT 160V330 CAVOK 14/07 Q1018 NOSIG
12-10-01 METAR LFPG 011000Z 20010G22KT 170V300 CAVOK 16/08 Q1018 NOSIG
12-10-01 METAR LFPG 011030Z 21011G21KT 180V300 CAVOK 16/08 Q1018 NOSIG
12-10-01 METAR LFPG 011100Z 22011KT CAVOK 17/08 Q1017 NOSIG
12-10-01 METAR LFPG 011130Z 21011KT 190V300 CAVOK 18/07 Q1017 NOSIG
12-10-01 METAR LFPG 011200Z 22011KT 190V250 CAVOK 18/08 Q1017 NOSIG
12-10-01 METAR LFPG 011230Z 21009KT 180V260 CAVOK 19/08 Q1017 NOSIG
12-10-01 METAR LFPG 011300Z 22010KT 190V320 CAVOK 19/08 Q1017 NOSIG
12-10-01 METAR LFPG 011330Z 22010KT 190V270 CAVOK 20/07 Q1017 NOSIG
12-10-01 METAR LFPG 011400Z 20009KT CAVOK 19/07 Q1017 NOSIG
12-10-01 METAR LFPG 011430Z 22011KT 190V280 CAVOK 19/07 Q1017 NOSIG
12-10-01 METAR LFPG 011500Z 22009KT 200V330 CAVOK 19/07 Q1016 NOSIG
12-10-01 METAR LFPG 011530Z 20009KT CAVOK 19/07 Q1016 NOSIG
12-10-01 METAR LFPG 011600Z 20010KT CAVOK 18/07 Q1016 NOSIG
12-10-01 METAR LFPG 011630Z 20010KT CAVOK 18/08 Q1016 NOSIG
12-10-01 METAR LFPG 011700Z 22011KT CAVOK 18/08 Q1016 NOSIG
12-10-01 METAR LFPG 011730Z 22009KT CAVOK 17/08 Q1016 NOSIG
12-10-01 METAR LFPG 011800Z 22009KT 200V270 CAVOK 17/08 Q1017 NOSIG
12-10-01 METAR LFPG 011830Z 26008KT CAVOK 16/09 Q1017 NOSIG
12-10-01 METAR LFPG 011900Z 24007KT CAVOK 16/09 Q1017 NOSIG
12-10-01 METAR LFPG 011930Z 22007KT CAVOK 16/09 Q1017 NOSIG
12-10-01 METAR LFPG 012000Z 21007KT CAVOK 16/09 Q1017 NOSIG
12-10-01 METAR LFPG 012030Z VRB07KT CAVOK 16/09 Q1017 NOSIG
12-10-01 METAR LFPG 012100Z 21010KT CAVOK 16/09 Q1017 NOSIG
12-10-01 METAR LFPG 012130Z 20009KT 9999 FEW043 BKN120 15/09 Q1017 NOSIG
12-10-01 METAR LFPG 012200Z 20007KT CAVOK 15/09 Q1017 NOSIG
12-10-01 METAR LFPG 012230Z 21009KT 9999 FEW033 BKN086 BKN150 15/09 Q1017 NOSIG
12-10-01 METAR LFPG 012300Z 20010KT 9999 FEW043 BKN080 BKN150 15/10 Q1017 NOSIG
12-10-01 METAR LFPG 012330Z 21010KT 9999 FEW040 SCT053 BKN090 15/10 Q1017 NOSIG
12-10-02 METAR LFPG 020000Z 21010KT 9999 FEW030 BKN090 15/10 Q1017 NOSIG
12-10-02 METAR LFPG 020030Z 21008KT 9999 FEW048 BKN083 14/10 Q1017 NOSIG
12-10-02 METAR LFPG 020100Z 21007KT 9999 SCT038 SCT083 14/10 Q1017 NOSIG
12-10-02 METAR LFPG 020130Z 21008KT 9999 FEW029 BKN056 14/11 Q1017 NOSIG
12-10-02 METAR LFPG 020200Z 19007KT 9999 -RA FEW020 BKN050 14/11 Q1016 NOSIG
12-10-02 METAR LFPG 020230Z 20009KT 9999 FEW016 BKN043 14/11 Q1016 NOSIG
12-10-02 METAR LFPG 020330Z 18007KT 9999 SCT014 BKN031 13/12 Q1016 NOSIG
12-10-02 METAR LFPG 020400Z 18008KT 9999 BKN013 13/12 Q1016 NOSIG
12-10-02 METAR LFPG 020430Z 17008KT 9999 SCT013 SCT033 BKN050 13/12 Q1016 NOSIG
12-10-02 METAR LFPG 020500Z 18008KT 9999 FEW009 BKN013 BKN033 13/12 Q1016 NOSIG
12-10-02 METAR LFPG 020530Z 18008KT 3500 -RA FEW006 BKN008 13/12 Q1016 NOSIG
12-10-02 METAR LFPG 020600Z 18008KT 9000 FEW004 BKN006 13/12 Q1016 NOSIG
12-10-02 METAR LFPG 020700Z 20011KT 9999 BKN007 14/13 Q1016 NOSIG
12-10-02 METAR LFPG 020730Z 20011KT 9999 FEW007 BKN010 14/13 Q1016 NOSIG
12-10-02 METAR LFPG 020800Z 21010KT 9999 BKN010 BKN026 14/13 Q1016 NOSIG
12-10-02 METAR LFPG 020830Z 21012KT 9999 BKN011 BKN041 15/13 Q1016 NOSIG
12-10-02 METAR LFPG 020900Z 22014KT 9999 BKN014 BKN066 16/13 Q1016 NOSIG
12-10-02 METAR LFPG 020930Z 24009KT 9999 SCT015 BKN042 15/12 Q1016 NOSIG
12-10-02 METAR LFPG 021000Z 25010G25KT 220V300 9999 SCT015 BKN051 16/12 Q1017 NOSIG
12-10-02 METAR LFPG 021030Z 25011G21KT 210V290 9999 FEW018 SCT056 BKN260 17/11 Q1017 NOSIG
12-10-02 METAR LFPG 021100Z 26010KT 9999 FEW025 BKN260 17/10 Q1017 NOSIG
12-10-02 METAR LFPG 021130Z 24012KT 9999 FEW033 BKN220 18/09 Q1016 NOSIG
12-10-02 METAR LFPG 021200Z 24013KT 9999 SCT036 BKN220 17/08 Q1016 NOSIG
12-10-02 METAR LFPG 021230Z 24012KT 200V280 9999 SCT038 SCT260 19/09 Q1016 NOSIG
12-10-02 METAR LFPG 021300Z 22013KT 190V260 9999 SCT043 SCT260 19/08 Q1016 NOSIG
12-10-02 METAR LFPG 021330Z 25010KT 9999 SCT043 SCT260 19/08 Q1016 NOSIG
12-10-02 METAR LFPG 021400Z 22013KT 9999 SCT043 SCT260 18/07 Q1016 NOSIG
12-10-02 METAR LFPG 021430Z 23010KT 220V290 9999 FEW043 SCT063 19/09 Q1016 NOSIG
12-10-02 METAR LFPG 021500Z 22011KT 9999 FEW044 SCT066 BKN260 18/07 Q1016 NOSIG
12-10-02 METAR LFPG 021530Z 24014KT 9999 FEW045 SCT074 BKN260 19/07 Q1015 NOSIG
12-10-02 METAR LFPG 021600Z 22012KT 9999 FEW046 SCT073 BKN260 18/07 Q1015 NOSIG
12-10-02 METAR LFPG 021630Z 22012KT 9999 FEW048 BKN070 BKN260 18/08 Q1015 NOSIG
12-10-02 METAR LFPG 021700Z 21013KT 9999 FEW041 BKN073 BKN260 17/08 Q1015 NOSIG
12-10-02 METAR LFPG 021730Z 22015KT 9999 FEW041 SCT073 BKN260 17/08 Q1015 NOSIG
12-10-02 METAR LFPG 021800Z 22012KT 9999 FEW041 SCT073 BKN260 17/08 Q1015 NOSIG
12-10-02 METAR LFPG 021830Z 21013KT 190V310 CAVOK 16/08 Q1015 NOSIG
12-10-02 METAR LFPG 021900Z 20010KT CAVOK 16/09 Q1015 NOSIG
12-10-02 METAR LFPG 021930Z 21013KT CAVOK 16/09 Q1015 NOSIG
12-10-02 METAR LFPG 022000Z 21013KT CAVOK 16/09 Q1015 NOSIG
12-10-02 METAR LFPG 022030Z 19010KT CAVOK 15/09 Q1015 NOSIG
12-10-02 METAR LFPG 022100Z 18010KT CAVOK 15/09 Q1015 NOSIG
12-10-02 METAR LFPG 022130Z 19009KT CAVOK 15/09 Q1015 NOSIG
12-10-02 METAR LFPG 022200Z 19010KT CAVOK 15/09 Q1015 NOSIG
12-10-02 METAR LFPG 022230Z 19012KT CAVOK 15/10 Q1014 NOSIG
12-10-02 METAR LFPG 022300Z 21014KT CAVOK 15/10 Q1014 NOSIG
12-10-02 METAR LFPG 022330Z 20013KT 9999 FEW030 BKN066 15/10 Q1014 NOSIG
12-10-03 METAR LFPG 030000Z 21012KT 9999 FEW030 SCT066 BKN120 15/09 Q1014 NOSIG
12-10-03 METAR LFPG 030030Z 22012KT CAVOK 15/09 Q1014 NOSIG
12-10-03 METAR LFPG 030100Z 22012KT CAVOK 15/10 Q1014 NOSIG
12-10-03 METAR LFPG 030130Z 22012KT CAVOK 15/10 Q1014 NOSIG
12-10-03 METAR LFPG 030200Z 22012KT 9999 SCT021 BKN052 BKN130 15/10 Q1013 NOSIG
12-10-03 METAR LFPG 030230Z 21015KT 9999 SCT021 BKN052 BKN071 15/10 Q1013 NOSIG
12-10-03 METAR LFPG 030300Z 21014KT 9999 SCT021 SCT048 BKN080 14/10 Q1013 NOSIG
12-10-03 METAR LFPG 030330Z 21013KT 9999 SCT018 BKN073 14/10 Q1013 NOSIG
12-10-03 METAR LFPG 030400Z 21015KT 9999 SCT018 BKN066 14/10 Q1013 NOSIG
12-10-03 METAR LFPG 030430Z 21016KT 9999 BKN020 BKN066 14/10 Q1013 NOSIG
12-10-03 METAR LFPG 030500Z 21013KT 9999 BKN017 BKN066 14/10 Q1013 NOSIG
12-10-03 METAR LFPG 030530Z 20012KT 9999 SCT015 SCT056 BKN130 14/10 Q1013 NOSIG
12-10-03 METAR LFPG 030600Z 20012KT 9999 BKN015 SCT022 BKN130 14/10 Q1013 NOSIG
12-10-03 METAR LFPG 030630Z 20013KT 9999 BKN014 SCT021 14/10 Q1013 NOSIG
12-10-03 METAR LFPG 030700Z 21015KT 9999 BKN013 BKN020 14/11 Q1013 NOSIG
12-10-03 METAR LFPG 030730Z 20015KT 9999 BKN015 BKN035 15/10 Q1013 NOSIG
12-10-03 METAR LFPG 030800Z 21017KT 9999 BKN018 BKN026 15/10 Q1013 NOSIG
12-10-03 METAR LFPG 030830Z 21014KT 9999 BKN018 BKN043 15/10 Q1013 NOSIG
12-10-03 METAR LFPG 030900Z 21015G25KT 9999 BKN019 BKN026 15/11 Q1013 NOSIG
12-10-03 METAR LFPG 030930Z 22015KT 9999 BKN021 BKN026 16/11 Q1013 NOSIG
12-10-03 METAR LFPG 031000Z 22016KT 9999 BKN021 BKN028 16/11 Q1013 NOSIG
12-10-03 METAR LFPG 031030Z 23017G27KT 9999 -RA BKN021 16/11 Q1013 NOSIG
12-10-03 METAR LFPG 031100Z 21012KT 190V250 9999 BKN016 BKN024 15/12 Q1013 NOSIG
12-10-03 METAR LFPG 031130Z 21015KT 9999 FEW013 BKN019 BKN066 16/11 Q1013 NOSIG
12-10-03 METAR LFPG 031200Z 22017KT 9999 BKN024 SCT032 BKN070 17/11 Q1013 NOSIG
12-10-03 METAR LFPG 031230Z 22015KT 9999 FEW012 SCT020 BKN050 16/12 Q1012 NOSIG
12-10-03 METAR LFPG 031300Z 23010KT 210V270 9999 BKN025 SCT036 BKN056 16/12 Q1012 NOSIG
12-10-03 METAR LFPG 031330Z 21012KT 9999 -RA BKN028 BKN036 BKN066 16/12 Q1012 NOSIG
12-10-03 METAR LFPG 031400Z 22010KT 6000 -RA SCT026 BKN033 BKN053 15/12 Q1011 NOSIG
12-10-03 METAR LFPG 031430Z 23008KT 6000 -RA BKN026 BKN036 15/13 Q1011 NOSIG
12-10-03 METAR LFPG 031500Z 23016KT 8000 -RA FEW016 SCT024 BKN038 15/12 Q1012 NOSIG
12-10-03 METAR LFPG 031530Z 21012KT 190V250 9999 -RA FEW015 SCT033 BKN046 15/13 Q1011 NOSIG
12-10-03 METAR LFPG 031600Z 22012KT 200V280 9000 -RA FEW020 BKN030 BKN036 15/13
12-10-03 METAR LFPG 031630Z 21010KT 9000 -RA SCT016 BKN020 BKN030 15/13 Q1011 NOSIG
12-10-03 METAR LFPG 031700Z 19010KT 9999 -RA FEW013 BKN046 BKN060 15/13 Q1011 NOSIG
12-10-03 METAR LFPG 031730Z 20015KT 9999 -RA SCT020 BKN036 BKN060 15/13 Q1011 NOSIG
12-10-03 METAR LFPG 031800Z 21016KT 9999 3500S -RA SCT008 BKN018 BKN033 14/13 Q1011
12-10-03 METAR LFPG 031830Z 21011KT 9999 -RA SCT009 BKN016 BKN066 14/13 Q1011 NOSIG
12-10-03 METAR LFPG 031900Z 21012KT 9999 -RA SCT018 SCT050 BKN100 15/13 Q1011 NOSIG
12-10-03 METAR LFPG 031930Z 21012KT 9999 -RA FEW019 OVC076 15/12 Q1011 NOSIG
12-10-03 METAR LFPG 032000Z 22014KT 9999 -RA FEW016 OVC075 14/12 Q1011 NOSIG
12-10-03 METAR LFPG 032030Z 21012KT 9999 -RA SCT015 BKN043 BKN067 14/12 Q1011 NOSIG
12-10-03 METAR LFPG 032100Z 21012KT 9999 -RA SCT012 BKN027 14/12 Q1011 NOSIG
12-10-03 METAR LFPG 032130Z 20010KT 9999 -RA FEW011 BKN013 BKN020 14/12 Q1011 NOSIG
12-10-03 METAR LFPG 032200Z 20013KT 9999 BKN013 BKN020 BKN066 14/12 Q1010 NOSIG
12-10-03 METAR LFPG 032230Z 21011KT 9999 -RA FEW013 BKN015 BKN021 14/12 Q1010 NOSIG
12-10-03 METAR LFPG 032300Z 21014KT 9999 -RA SCT013 BKN015 BKN026 14/12 Q1010 NOSIG
12-10-03 METAR LFPG 032330Z 21013KT 9999 -RA BKN015 14/12 Q1010 NOSIG
12-10-04 METAR LFPG 040000Z 20012KT 9999 -RA SCT013 BKN015 14/12 Q1010 NOSIG
12-10-04 METAR LFPG 040030Z 21016KT 9999 -RA FEW010 BKN012 14/12 Q1009 NOSIG
12-10-04 METAR LFPG 040100Z 20014KT 9999 -RA FEW011 BKN013 14/12 Q1009 NOSIG
12-10-04 METAR LFPG 040130Z 20013KT 9999 -RA FEW010 BKN013 14/12 Q1009 NOSIG
12-10-04 METAR LFPG 040200Z 20013KT 9999 -RA FEW008 BKN010 14/12 Q1008 NOSIG
12-10-04 METAR LFPG 040230Z 20013KT 9999 -RA FEW008 BKN011 14/12 Q1008 NOSIG
12-10-04 METAR LFPG 040300Z 20013KT 9000 -RA SCT008 BKN011 14/12 Q1008 NOSIG
12-10-04 METAR LFPG 040330Z 20014KT 6000 -RA BKN007 BKN010 BKN015 13/12 Q1007 TEMPO 3000 RA
12-10-04 METAR LFPG 040400Z 20015G25KT 6000 -RA SCT008 BKN010 13/12 Q1006 TEMPO 3000
12-10-04 METAR LFPG 040430Z 21017KT 6000 -RA FEW012 BKN015 13/11 Q1006 TEMPO 21020G32KT 2000 +RA BKN012TCU
12-10-04 METAR LFPG 040500Z 21014KT 6000 RA FEW008 BKN012 13/12 Q1006 TEMPO
12-10-04 METAR LFPG 040530Z 22015KT 6000 RA FEW008 BKN013 13/12 Q1006 TEMPO
12-10-04 METAR LFPG 040600Z 23014KT 6000 -RA FEW009 BKN012 13/12 Q1006 TEMPO
12-10-04 METAR LFPG 040630Z 25014KT 6000 -RA SCT009 BKN011 13/12 Q1007 TEMPO
12-10-04 METAR LFPG 040700Z 30011KT 7000 -RA FEW007 BKN011 BKN066 13/11 Q1008 TEMPO
12-10-04 METAR LFPG 040830Z 24010KT 9999 FEW010 SCT073 BKN100 13/11 Q1009 NOSIG
12-10-04 METAR LFPG 040900Z 25011KT 9999 FEW010 SCT040 BKN100 13/11 Q1010 NOSIG
12-10-04 METAR LFPG 040930Z 26012KT 220V280 9999 BKN013 BKN100 13/11 Q1011 NOSIG
12-10-04 METAR LFPG 041000Z 27017KT 9999 BKN014 BKN110 14/10 Q1011 NOSIG
12-10-04 METAR LFPG 041030Z 27016KT 9999 VCSH BKN019 SCT033 BKN110 15/09 Q1012 NOSIG
12-10-04 METAR LFPG 041100Z 29013KT 9999 SCT020 SCT033 15/08 Q1013 NOSIG
12-10-04 METAR LFPG 041130Z 28013KT 9999 FEW026 SCT050 15/08 Q1013 NOSIG
12-10-04 METAR LFPG 041300Z 29013KT 9999 SCT035 16/07 Q1014 NOSIG
12-10-04 METAR LFPG 041330Z 29010KT 250V320 9999 SCT036 17/08 Q1014 NOSIG
12-10-04 METAR LFPG 041400Z 27010KT 240V310 9999 SCT040 17/06 Q1015 NOSIG
12-10-04 METAR LFPG 041430Z 29004KT 250V320 9999 SCT040 17/06 Q1015 NOSIG
12-10-04 METAR LFPG 041500Z 26011KT 9999 SCT046 17/05 Q1015 NOSIG
12-10-04 METAR LFPG 041530Z 26010KT 9999 FEW048 SCT260 17/04 Q1015 NOSIG
12-10-04 METAR LFPG 041600Z 27007KT CAVOK 17/04 Q1015 NOSIG
12-10-04 METAR LFPG 041630Z 24005KT CAVOK 16/04 Q1015 NOSIG
12-10-04 METAR LFPG 041700Z 25005KT CAVOK 16/05 Q1015 NOSIG
12-10-04 METAR LFPG 041730Z 22003KT 9999 FEW048 BKN260 15/06 Q1015 NOSIG
12-10-04 METAR LFPG 041800Z 17003KT 160V270 9999 FEW044 BKN260 14/06 Q1015 NOSIG
12-10-04 METAR LFPG 041830Z VRB04KT 9999 FEW044 BKN260 14/07 Q1015 NOSIG
12-10-04 METAR LFPG 041900Z 16006KT 9999 BKN046 BKN260 14/07 Q1015 NOSIG
12-10-04 METAR LFPG 041930Z 15006KT CAVOK 13/07 Q1015 NOSIG
12-10-04 METAR LFPG 042000Z 16007KT CAVOK 13/08 Q1015 NOSIG
12-10-04 METAR LFPG 042030Z VRB06G17KT CAVOK 13/08 Q1015 NOSIG
12-10-04 METAR LFPG 042100Z 18006KT 9999 FEW043 SCT051 BKN061 13/08 Q1015 NOSIG
12-10-04 METAR LFPG 042130Z 15006KT 9999 SCT036 BKN065 13/09 Q1014 NOSIG
12-10-04 METAR LFPG 042200Z 16006KT CAVOK 13/09 Q1014 NOSIG
12-10-04 METAR LFPG 042230Z 19009KT CAVOK 13/10 Q1014 NOSIG
12-10-04 METAR LFPG 042300Z 19009KT 9999 FEW012 BKN260 13/10 Q1014 NOSIG
12-10-04 METAR LFPG 042330Z 19009KT 9999 BKN010 14/11 Q1014 NOSIG
12-10-05 METAR LFPG 050000Z 21014KT 9999 BKN010 14/12 Q1014 NOSIG
12-10-05 METAR LFPG 050030Z 20011KT 9999 BKN010 14/12 Q1014 NOSIG
12-10-05 METAR LFPG 050100Z 20010KT 9999 BKN011 15/12 Q1013 NOSIG
12-10-05 METAR LFPG 050130Z 20010KT 9999 SCT009 BKN017 15/13 Q1013 NOSIG
12-10-05 METAR LFPG 050200Z 20011KT 9999 SCT013 BKN019 15/13 Q1012 NOSIG
12-10-05 METAR LFPG 050230Z 21014KT 190V270 9999 SCT015 BKN020 15/12 Q1012 NOSIG
12-10-05 METAR LFPG 050300Z 21014KT 9999 BKN019 15/12 Q1012 NOSIG
12-10-05 METAR LFPG 050330Z 21014KT 9999 BKN015 15/12 Q1012 NOSIG
12-10-05 METAR LFPG 050400Z 21016KT 9999 BKN013 BKN020 16/13 Q1012 NOSIG
12-10-05 METAR LFPG 050430Z 21016KT 9999 FEW007 SCT012 BKN029 15/13 Q1012 NOSIG
12-10-05 METAR LFPG 050500Z 21014KT 9999 FEW007 BKN012 16/14 Q1012 NOSIG
12-10-05 METAR LFPG 050530Z 21017KT 9999 BKN013 BKN033 16/14 Q1012 NOSIG
12-10-05 METAR LFPG 050600Z 21017KT 9999 SCT013 BKN033 16/13 Q1012 NOSIG
12-10-05 METAR LFPG 050630Z 22018KT 9999 FEW015 BKN030 BKN260 16/13 Q1012 NOSIG
12-10-05 METAR LFPG 050700Z 21019KT 9999 SCT015 BKN110 BKN260 17/13 Q1012 NOSIG
12-10-05 METAR LFPG 050730Z 22018KT 9999 SCT016 SCT043 BKN110 17/13 Q1012 NOSIG
12-10-05 METAR LFPG 050800Z 21020KT 9999 SCT016 SCT043 17/13 Q1012 NOSIG
12-10-05 METAR LFPG 050830Z 22019KT 9999 SCT017 SCT120 18/13 Q1013 NOSIG
12-10-05 METAR LFPG 050900Z 21020KT 9999 SCT018 SCT260 18/13 Q1013 NOSIG
12-10-05 METAR LFPG 050930Z 21018KT 9999 FEW020 SCT260 18/13 Q1013 NOSIG
12-10-05 METAR LFPG 051000Z 21018KT 9999 SCT020 SCT260 19/13 Q1013 NOSIG
12-10-05 METAR LFPG 051030Z 23017KT 190V250 9999 SCT020 SCT260 19/13 Q1013 NOSIG
12-10-05 METAR LFPG 051100Z 22019KT 9999 SCT025 BKN260 20/13 Q1013 NOSIG
12-10-05 METAR LFPG 051130Z 23019KT 9999 SCT026 BKN260 20/13 Q1013 NOSIG
12-10-05 METAR LFPG 051200Z 22018KT 9999 SCT028 BKN260 21/13 Q1013 NOSIG
12-10-05 METAR LFPG 051230Z 24016KT 9999 BKN031 BKN260 21/13 Q1013 NOSIG
12-10-05 METAR LFPG 051300Z 24016KT 9999 BKN033 20/12 Q1013 NOSIG
12-10-05 METAR LFPG 051330Z 22016KT 9999 SCT032 BKN040 21/12 Q1013 NOSIG
12-10-05 METAR LFPG 051400Z 23017KT 190V250 9999 BKN033 BKN040 21/12 Q1013 NOSIG
12-10-05 METAR LFPG 051430Z 22017KT 9999 BKN033 BKN040 20/13 Q1013 NOSIG
12-10-05 METAR LFPG 051500Z 22014KT 9999 SCT033 BKN043 20/13 Q1013 NOSIG
12-10-05 METAR LFPG 051530Z 22013KT 9999 SCT033 BKN043 20/13 Q1013 NOSIG
12-10-05 METAR LFPG 051600Z 22015KT 9999 SCT035 BKN046 20/12 Q1014 NOSIG
12-10-05 METAR LFPG 051630Z 22012KT 9999 SCT035 BKN046 20/12 Q1014 NOSIG
12-10-05 METAR LFPG 051700Z 21010KT 9999 SCT035 BKN050 20/13 Q1013 NOSIG
12-10-05 METAR LFPG 051730Z 21012KT 9999 FEW032 BKN050 19/14 Q1014 NOSIG
12-10-05 METAR LFPG 051800Z 20009KT 9999 FEW032 BKN046 19/14 Q1014 NOSIG
12-10-05 METAR LFPG 051830Z 20012KT 9999 FEW043 BKN046 19/14 Q1014 NOSIG
12-10-05 METAR LFPG 051900Z 20010KT 9999 FEW035 BKN047 19/14 Q1014 NOSIG
12-10-05 METAR LFPG 051930Z 20010KT 180V250 9999 FEW026 BKN044 18/14 Q1014 NOSIG
12-10-05 METAR LFPG 052000Z 20010KT 9999 FEW026 BKN044 18/14 Q1014 NOSIG
12-10-05 METAR LFPG 052030Z 20010KT 9999 BKN033 17/14 Q1014 NOSIG
12-10-05 METAR LFPG 052100Z 21010KT 9999 BKN033 17/14 Q1014 NOSIG
12-10-05 METAR LFPG 052130Z 20011KT 9999 SCT033 17/13 Q1014 NOSIG
12-10-05 METAR LFPG 052200Z 20009KT 170V230 CAVOK 16/13 Q1014 NOSIG
12-10-05 METAR LFPG 052230Z 20012KT CAVOK 16/13 Q1014 NOSIG
12-10-05 METAR LFPG 052300Z 20012KT CAVOK 16/13 Q1013 NOSIG
12-10-05 METAR LFPG 052330Z 19012KT CAVOK 16/13 Q1013 NOSIG
12-10-06 METAR LFPG 060000Z 20011KT CAVOK 16/13 Q1013 NOSIG
12-10-06 METAR LFPG 060030Z 19011KT CAVOK 16/13 Q1012 NOSIG
12-10-06 METAR LFPG 060100Z 19011KT CAVOK 15/13 Q1012 NOSIG
12-10-06 METAR LFPG 060130Z 18012KT CAVOK 15/13 Q1012 NOSIG
12-10-06 METAR LFPG 060200Z 19010KT CAVOK 15/13 Q1011 NOSIG
12-10-06 METAR LFPG 060230Z 19010KT CAVOK 15/12 Q1011 NOSIG
12-10-06 METAR LFPG 060300Z 19009KT CAVOK 14/12 Q1011 NOSIG
12-10-06 METAR LFPG 060330Z 19010KT CAVOK 14/12 Q1011 NOSIG
12-10-06 METAR LFPG 060400Z 19010KT CAVOK 14/12 Q1010 NOSIG
12-10-06 METAR LFPG 060430Z 18010KT CAVOK 14/11 Q1010 NOSIG
12-10-06 METAR LFPG 060500Z 19009KT CAVOK 14/11 Q1010 NOSIG
12-10-06 METAR LFPG 060530Z 21010KT CAVOK 14/11 Q1011 NOSIG
12-10-06 METAR LFPG 060600Z 21010KT CAVOK 15/11 Q1011 NOSIG
12-10-06 METAR LFPG 060630Z 22011KT CAVOK 15/11 Q1011 NOSIG
12-10-06 METAR LFPG 060700Z 24009KT CAVOK 15/11 Q1012 NOSIG
12-10-06 METAR LFPG 060730Z 22008KT 190V250 CAVOK 15/11 Q1012 NOSIG
12-10-06 METAR LFPG 060800Z 21009KT CAVOK 15/11 Q1012 NOSIG
12-10-06 METAR LFPG 060830Z 21011KT CAVOK 16/10 Q1012 NOSIG
12-10-06 METAR LFPG 060900Z 22012KT CAVOK 16/10 Q1013 NOSIG
12-10-06 METAR LFPG 060930Z 23012KT CAVOK 16/10 Q1013 NOSIG
12-10-06 METAR LFPG 061000Z 22011KT CAVOK 16/10 Q1014 NOSIG
12-10-06 METAR LFPG 061030Z 23011KT 210V280 CAVOK 17/11 Q1014 NOSIG
12-10-06 METAR LFPG 061100Z 22010KT 9999 FEW026 BKN053 BKN140 17/12 Q1014 NOSIG
12-10-06 METAR LFPG 061130Z 24012KT 9999 -RA FEW026 SCT060 BKN100 18/12 Q1014 NOSIG
12-10-06 METAR LFPG 061200Z 23012KT 210V270 9999 -RA FEW023 SCT033 BKN053 18/13 Q1014 NOSIG
12-10-06 METAR LFPG 061230Z 23011KT 9999 -RA FEW020 BKN090 17/13 Q1014 NOSIG
12-10-06 METAR LFPG 061300Z 22008KT 190V250 9999 -RA FEW018 BKN086 17/14 Q1014
12-10-06 METAR LFPG 061330Z 20008KT 9000 -RA FEW020 BKN086 17/14 Q1014 NOSIG
12-10-06 METAR LFPG 061400Z 19008KT 160V290 8000 -RA FEW010 BKN086 17/15 Q1014
12-10-06 METAR LFPG 061430Z 19010KT 7000 -RA FEW010 BKN073 16/14 Q1014 NOSIG
12-10-06 METAR LFPG 061500Z 19009KT 7000 -RA FEW011 BKN060 16/14 Q1014 NOSIG
12-10-06 METAR LFPG 061530Z VRB11G22KT 5000 -RA FEW007 SCT033 BKN050 16/14 Q1013
12-10-06 METAR LFPG 061600Z 19010KT 2500 -RA FEW007 BKN026 BKN040 16/14 Q1013 NOSIG
12-10-06 METAR LFPG 061630Z 18010KT 3500 -RA SCT006 OVC033 15/14 Q1013 NOSIG
12-10-06 METAR LFPG 061700Z 19011KT 4500 -RA SCT006 BKN013 BKN031 15/14 Q1013 NOSIG
12-10-06 METAR LFPG 061730Z 21011KT 2500 -RA SCT007 BKN012 BKN027 15/14 Q1013 NOSIG
12-10-06 METAR LFPG 061800Z 21010KT 2500 RA BKN006 BKN012 BKN027 15/14 Q1014 NOSIG
12-10-06 METAR LFPG 061830Z 21014KT 2500 RA BKN006 SCT022 BKN027 15/14 Q1014 NOSIG
12-10-06 METAR LFPG 061900Z 21012KT 2500 RA BKN006 BKN012 BKN027 15/14 Q1014 NOSIG
12-10-06 METAR LFPG 061930Z 21011KT 2500 -RA FEW003 BKN006 15/14 Q1014 NOSIG
12-10-06 METAR LFPG 062000Z 21010KT 3500 -RA BKN005 15/14 Q1014 NOSIG
12-10-06 METAR LFPG 062030Z 21013KT 3500 -RA SCT004 BKN005 15/14 Q1014 NOSIG
12-10-06 METAR LFPG 062100Z 22011KT 7000 -RADZ BKN005 15/14 Q1014 NOSIG
12-10-06 METAR LFPG 062130Z 22012KT 5000 -RA BKN005 15/14 Q1014 NOSIG
12-10-06 METAR LFPG 062200Z 22011KT 3000 -RADZ BKN004 14/13 Q1014 NOSIG
12-10-06 METAR LFPG 062230Z 24009KT 9999 SCT004 SCT041 BKN056 14/13 Q1014 NOSIG
12-10-06 METAR LFPG 062300Z 23010KT 9999 BKN010 BKN029 14/13 Q1014 NOSIG
12-10-06 METAR LFPG 062330Z 23010KT 9999 FEW010 BKN023 14/13 Q1013 NOSIG
12-10-07 METAR LFPG 070300Z 02012KT 8000 SCT003 SCT009 BKN020 11/10 Q1015 NOSIG
12-10-07 METAR LFPG 070330Z 02013KT 360V060 8000 SCT006 BKN026 11/10 Q1016 NOSIG
12-10-07 METAR LFPG 070400Z 02012G24KT 9999 FEW006 OVC026 11/09 Q1016 NOSIG
12-10-07 METAR LFPG 070430Z 02010KT 9999 FEW009 OVC030 11/09 Q1016 NOSIG
12-10-07 METAR LFPG 070500Z 02010KT 340V100 9999 FEW006 OVC033 11/09 Q1017 NOSIG
12-10-07 METAR LFPG 070530Z 02008KT 350V090 8000 SCT007 BKN036 11/09 Q1017 NOSIG
12-10-07 METAR LFPG 070600Z 03008KT 350V110 8000 FEW008 BKN036 11/09 Q1018 NOSIG
12-10-07 METAR LFPG 070630Z 03009KT 010V090 8000 FEW008 SCT036 11/09 Q1018 NOSIG
12-10-07 METAR LFPG 070700Z 03008KT 9000 NSC 10/09 Q1018 NOSIG
12-10-07 METAR LFPG 070730Z 03008KT 010V090 CAVOK 11/09 Q1019 NOSIG
12-10-07 METAR LFPG 070800Z 03007KT 9999 FEW009 BKN260 11/09 Q1020 NOSIG
12-10-07 METAR LFPG 070830Z 04008KT 9999 FEW012 BKN260 11/08 Q1020 NOSIG
12-10-07 METAR LFPG 070900Z 05009KT 9999 FEW012 BKN260 12/08 Q1021 NOSIG
12-10-07 METAR LFPG 070930Z 05007KT 9999 FEW016 BKN260 12/08 Q1021 NOSIG
12-10-07 METAR LFPG 071000Z 05010KT 020V080 9999 FEW020 BKN260 13/07 Q1021 NOSIG
12-10-07 METAR LFPG 071030Z 06010KT 030V090 9999 FEW025 BKN260 14/06 Q1021 NOSIG
12-10-07 METAR LFPG 071100Z 07011KT 030V090 9999 FEW028 BKN260 14/06 Q1021 NOSIG
12-10-07 METAR LFPG 071130Z 06010KT 010V080 9999 FEW028 BKN260 14/06 Q1022 NOSIG
12-10-07 METAR LFPG 071200Z 07008KT 9999 FEW033 BKN260 14/07 Q1022 NOSIG
12-10-07 METAR LFPG 071230Z 05009KT 020V080 9999 FEW033 BKN260 15/06 Q1022 NOSIG
12-10-07 METAR LFPG 071300Z 05008KT 360V080 9999 FEW033 BKN260 15/06 Q1022 NOSIG
12-10-07 METAR LFPG 071330Z 05009KT 9999 FEW033 BKN240 15/06 Q1022 NOSIG
12-10-07 METAR LFPG 071400Z 04008KT 010V090 9999 FEW033 SCT130 BKN230 15/06 Q1022
12-10-07 METAR LFPG 071430Z 06007KT 030V090 9999 FEW033 BKN230 15/06 Q1022 NOSIG
12-10-07 METAR LFPG 071500Z 06006KT 9999 FEW033 BKN230 15/06 Q1022 NOSIG
12-10-07 METAR LFPG 071530Z 05006KT 020V090 9999 FEW034 SCT130 BKN230 15/06 Q1022
12-10-07 METAR LFPG 071600Z 04005KT 010V090 9999 FEW034 SCT130 BKN230 14/07 Q1022
12-10-07 METAR LFPG 071630Z 04006KT 020V100 9999 FEW034 SCT130 BKN220 14/07 Q1022
12-10-07 METAR LFPG 071700Z 05005KT CAVOK 13/07 Q1022 NOSIG
12-10-07 METAR LFPG 071730Z 06007KT CAVOK 13/07 Q1022 NOSIG
12-10-07 METAR LFPG 071800Z 05007KT CAVOK 12/08 Q1022 NOSIG
12-10-07 METAR LFPG 071830Z 05006KT CAVOK 12/07 Q1023 NOSIG
12-10-07 METAR LFPG 071900Z 05005KT CAVOK 12/07 Q1023 NOSIG
12-10-07 METAR LFPG 071930Z 08006KT CAVOK 12/07 Q1022 NOSIG
12-10-07 METAR LFPG 072000Z 07006KT CAVOK 12/07 Q1022 NOSIG
12-10-07 METAR LFPG 072030Z 08006KT CAVOK 12/07 Q1023 NOSIG
12-10-07 METAR LFPG 072100Z 10006KT CAVOK 12/07 Q1023 NOSIG
12-10-07 METAR LFPG 072130Z 11006KT CAVOK 12/07 Q1023 NOSIG
12-10-07 METAR LFPG 072200Z 10007KT CAVOK 12/07 Q1022 NOSIG
12-10-07 METAR LFPG 072230Z 08007KT CAVOK 11/07 Q1022 NOSIG
12-10-07 METAR LFPG 072300Z 09007KT CAVOK 11/07 Q1022 NOSIG
12-10-07 METAR LFPG 072330Z 09006KT CAVOK 10/07 Q1022 NOSIG
12-10-08 METAR LFPG 080000Z 10005KT CAVOK 10/06 Q1022 NOSIG
12-10-08 METAR LFPG 080030Z 09007KT CAVOK 10/06 Q1021 NOSIG
12-10-08 METAR LFPG 080100Z 09006KT CAVOK 10/06 Q1021 NOSIG
12-10-08 METAR LFPG 080130Z 10005KT CAVOK 10/06 Q1021 NOSIG
12-10-08 METAR LFPG 080200Z 10008KT CAVOK 10/06 Q1020 NOSIG
12-10-08 METAR LFPG 080230Z 10007KT CAVOK 10/06 Q1020 NOSIG
12-10-08 METAR LFPG 080300Z 11007KT CAVOK 10/07 Q1020 NOSIG
12-10-08 METAR LFPG 080330Z 12008KT CAVOK 10/07 Q1019 NOSIG
12-10-08 METAR LFPG 080400Z 12008KT CAVOK 10/07 Q1019 NOSIG
12-10-08 METAR LFPG 080430Z 12008KT 9999 BKN046 11/07 Q1019 NOSIG
12-10-08 METAR LFPG 080500Z 12009KT 9999 -RA BKN044 BKN070 11/07 Q1018 NOSIG
12-10-08 METAR LFPG 080530Z 12008KT 8000 -RA SCT044 BKN070 BKN100 10/08 Q1018 NOSIG
12-10-08 METAR LFPG 080600Z 13009KT 8000 -RA SCT044 BKN070 BKN100 10/08 Q1018 NOSIG
12-10-08 METAR LFPG 080630Z 12010KT 9000 -RA SCT044 BKN070 BKN100 10/08 Q1018 NOSIG
12-10-08 METAR LFPG 080700Z 13009KT 9000 -RA SCT036 BKN060 BKN100 10/08 Q1017 NOSIG
12-10-08 METAR LFPG 080730Z 13008KT 9000 -RA FEW036 BKN050 BKN100 10/09 Q1018 NOSIG
12-10-08 METAR LFPG 080800Z 13007KT 9000 -RA FEW036 BKN046 OVC100 10/09 Q1017 NOSIG
12-10-08 METAR LFPG 080830Z 13008KT 5000 -RA SCT013 BKN046 OVC100 11/09 Q1017 TEMPO 3000 RA BKN006
12-10-08 METAR LFPG 080900Z 12007KT 5000 -RA BKN009 11/10 Q1017 TEMPO 3000 RA BKN006
12-10-08 METAR LFPG 080930Z 12010G21KT 090V150 7000 -RA SCT005 BKN007 11/10 Q1017 TEMPO 3000 RA BKN006
12-10-08 METAR LFPG 081000Z 12010KT 7000 -RA BKN004 BKN006 11/10 Q1016 TEMPO 4000 BKN003
12-10-08 METAR LFPG 081030Z 13010KT 5000 BKN004 11/10 Q1016 TEMPO 3000 BKN003
12-10-08 METAR LFPG 081100Z 13009KT 2000 BR BKN003 11/10 Q1016 NOSIG
12-10-08 METAR LFPG 081130Z 14009KT 110V180 1500 -RA BR BKN003 12/11 Q1015 NOSIG
12-10-08 METAR LFPG 081200Z 16007KT 090V180 2500 -RA BR FEW002 BKN003 12/11 Q1015 NOSIG
12-10-08 METAR LFPG 081230Z 16007KT 100V190 1500 -DZRA BR SCT002 BKN003 13/12 Q1015
12-10-08 METAR LFPG 081300Z 17006KT 100V200 1300 R27L/2000N R09R/P2000 R26R/P2000 R08L/2000U R26L/1800D R08R/1800D R27R/P2000 R09L/1900D -DZRA BR BKN002 BKN003 13/12 Q1014 NOSIG
12-10-08 METAR LFPG 081330Z 16005KT 1300 R27L/P2000 R09R/P2000 R26R/1900U R08L/P2000 R26L/1800U R08R/1900U R27R/P2000 R09L/2000U -DZRA BR BKN002 BKN003 13/12 Q1014 NOSIG
12-10-08 METAR LFPG 081900Z 23007KT 3500 -DZRA SCT002 BKN003 17/16 Q1011 NOSIG
12-10-08 METAR LFPG 082000Z 22008KT 8000 FEW002 BKN005 BKN012 17/16 Q1011 NOSIG
12-10-08 METAR LFPG 082030Z 26007KT 8000 SCT004 BKN006 BKN013 17/16 Q1011 NOSIG
12-10-08 METAR LFPG 082100Z 24007KT 9999 SCT004 BKN013 17/16 Q1011 NOSIG
12-10-08 METAR LFPG 082130Z 22006KT 6000 FEW004 BKN008 BKN045 17/16 Q1011 NOSIG
12-10-08 METAR LFPG 082200Z 24006KT 7000 FEW003 SCT006 BKN026 17/16 Q1011 NOSIG
12-10-08 METAR LFPG 082230Z 26005KT 6000 FEW005 SCT018 BKN031 17/16 Q1011 NOSIG
12-10-08 METAR LFPG 082300Z 26006KT 9999 FEW004 OVC027 16/16 Q1011 NOSIG
12-10-08 METAR LFPG 082330Z 28007KT 9999 FEW009 SCT017 BKN028 16/15 Q1011 NOSIG
12-10-09 METAR LFPG 090600Z 36008KT 9999 BKN003 BKN010 14/13 Q1013 NOSIG
12-10-09 METAR LFPG 090630Z 01006KT 350V060 8000 BKN003 BKN009 13/12 Q1013 NOSIG
12-10-09 METAR LFPG 090800Z 01008KT 350V050 6000 BKN003 BKN007 13/12 Q1014 NOSIG
12-10-09 METAR LFPG 090830Z VRB06KT 7000 BKN003 BKN006 13/12 Q1015 NOSIG
12-10-09 METAR LFPG 090900Z 01008KT 350V080 7000 BKN003 BKN006 13/12 Q1015 NOSIG
12-10-09 METAR LFPG 090930Z 02004KT 340V080 7000 BKN005 BKN008 13/12 Q1015 NOSIG
12-10-09 METAR LFPG 091000Z 36006KT 280V050 9999 BKN005 BKN008 13/12 Q1016 NOSIG
12-10-09 METAR LFPG 091030Z 35004KT 270V050 9999 BKN006 BKN010 14/12 Q1016 NOSIG
12-10-09 METAR LFPG 091100Z 35003KT 310V060 9999 BKN006 BKN009 14/12 Q1016 NOSIG
12-10-09 METAR LFPG 091130Z 02004KT 340V060 9999 BKN007 BKN010 14/12 Q1016 NOSIG
12-10-09 METAR LFPG 091200Z 02006KT 8000 BKN009 14/12 Q1015 NOSIG
12-10-09 METAR LFPG 091230Z 01005KT 330V110 6000 SCT004 BKN007 14/12 Q1015 NOSIG
12-10-09 METAR LFPG 091300Z 02004KT 320V090 6000 BKN007 14/12 Q1015 NOSIG
12-10-09 METAR LFPG 091330Z 01005KT 350V050 7000 BKN008 OVC013 14/12 Q1015 NOSIG
12-10-09 METAR LFPG 091400Z 03004KT 6000 BKN007 14/12 Q1015 NOSIG
12-10-09 METAR LFPG 091430Z 05005KT 020V080 6000 SCT007 BKN009 14/12 Q1015 NOSIG
12-10-09 METAR LFPG 091500Z 06006KT 020V080 6000 OVC009 14/12 Q1015 NOSIG
12-10-09 METAR LFPG 091530Z 05007KT 020V080 6000 OVC009 14/12 Q1015 NOSIG
12-10-09 METAR LFPG 091600Z 05006KT 8000 OVC009 13/11 Q1015 NOSIG
12-10-09 METAR LFPG 091630Z 06007KT 7000 BKN010 13/11 Q1015 NOSIG
12-10-09 METAR LFPG 091700Z 08005KT 7000 SCT012 BKN035 13/11 Q1015 NOSIG
12-10-09 METAR LFPG 091730Z 08007KT 7000 BKN035 BKN049 13/11 Q1015 NOSIG
12-10-09 METAR LFPG 091800Z 09006KT 7000 BKN035 13/11 Q1015 NOSIG
12-10-09 METAR LFPG 091830Z 08007KT 7000 BKN035 13/11 Q1015 NOSIG
12-10-09 METAR LFPG 091900Z 09007KT 6000 FEW027 BKN036 13/11 Q1015 NOSIG
12-10-09 METAR LFPG 091930Z 11007KT 4000 RA BKN035 13/11 Q1015 NOSIG
12-10-09 METAR LFPG 092000Z 12007KT 4000 -RA FEW021 SCT035 BKN053 13/11 Q1015 NOSIG
12-10-09 METAR LFPG 092030Z 09006KT 5000 FEW028 SCT035 BKN066 13/11 Q1015 NOSIG
12-10-09 METAR LFPG 092100Z 06006KT 5000 BKN026 13/11 Q1015 NOSIG
12-10-09 METAR LFPG 092130Z 07004KT 3000 -RA SCT016 BKN026 12/11 Q1015 NOSIG
12-10-09 METAR LFPG 092200Z 10009KT 070V130 1500 -RA SCT011 BKN040 12/11 Q1014
12-10-09 METAR LFPG 092230Z 10011KT 2000 RA FEW005 BKN027 BKN040 12/11 Q1014 NOSIG
12-10-09 METAR LFPG 092300Z 07007KT 3500 RA BKN006 BKN013 12/11 Q1014 NOSIG
12-10-09 METAR LFPG 092330Z 08006KT 3500 RA SCT009 BKN013 12/11 Q1014 NOSIG
12-10-10 METAR LFPG 100000Z 06005KT 4000 BR SCT009 BKN011 12/11 Q1014 NOSIG
12-10-10 METAR LFPG 100030Z 04005KT 2500 BR FEW003 BKN008 12/11 Q1014 NOSIG
12-10-10 METAR LFPG 100100Z 04007KT 2500 BR FEW004 BKN007 12/11 Q1013 NOSIG
12-10-10 METAR LFPG 100130Z 05008KT 3500 BR FEW005 OVC008 12/11 Q1013 NOSIG
12-10-10 METAR LFPG 100230Z 05007KT 3000 BR SCT004 BKN007 11/11 Q1013 NOSIG
12-10-10 METAR LFPG 100330Z 03007KT 010V090 1300 R27L/P2000 R09R/P2000 R26R/P2000 11/10 Q1013 NOSIG
12-10-10 METAR LFPG 100700Z 04006KT 020V090 2000 BR FEW002 BKN004 BKN013 11/10 Q1014
12-10-10 METAR LFPG 100730Z 04006KT 360V140 2700 BR SCT004 BKN100 11/10 Q1014 NOSIG
12-10-10 METAR LFPG 100800Z 04006KT 010V070 4000 -RA BR SCT004 OVC011 11/10 Q1014
12-10-10 METAR LFPG 100830Z 03006KT 010V080 4000 -RA BR BKN004 OVC011 11/10 Q1014
12-10-10 METAR LFPG 100900Z 04005KT 360V060 4000 -RA BR FEW004 BKN007 BKN011 11/10 Q1014 NOSIG
12-10-10 METAR LFPG 100930Z 05004KT 020V080 5000 FEW006 BKN013 12/11 Q1014 NOSIG
12-10-10 METAR LFPG 101000Z 03007KT 360V070 5000 SCT006 BKN015 12/11 Q1014 NOSIG
12-10-10 METAR LFPG 101100Z 07005KT 030V100 6000 BKN006 BKN016 12/11 Q1014 NOSIG
12-10-10 METAR LFPG 101130Z 05006KT 020V090 7000 BKN010 BKN017 13/11 Q1014 NOSIG
12-10-10 METAR LFPG 101200Z 05005KT 020V080 8000 BKN012 BKN018 13/11 Q1014 NOSIG
12-10-10 METAR LFPG 101230Z 07005KT 9999 BKN014 14/11 Q1014 NOSIG
12-10-10 METAR LFPG 101300Z 07005KT 040V110 9999 BKN014 14/10 Q1014 NOSIG
12-10-10 METAR LFPG 101330Z 07005KT 9999 SCT013 BKN017 BKN046 14/11 Q1014 NOSIG
12-10-10 METAR LFPG 101400Z 07004KT 9999 SCT013 BKN025 14/11 Q1014 NOSIG
12-10-10 METAR LFPG 101430Z 06003KT 020V090 9999 SCT014 BKN026 14/11 Q1013 NOSIG
12-10-10 METAR LFPG 101500Z 06003KT 020V090 9999 BKN014 BKN026 14/11 Q1013 NOSIG
12-10-10 METAR LFPG 101530Z 05002KT 9999 SCT014 BKN018 14/11 Q1013 NOSIG
12-10-10 METAR LFPG 101600Z 06004KT 9999 FEW016 BKN021 14/11 Q1013 NOSIG
12-10-10 METAR LFPG 101630Z 09003KT 9999 FEW016 BKN020 14/11 Q1013 NOSIG
12-10-10 METAR LFPG 101700Z 08003KT 9999 FEW015 BKN022 14/11 Q1013 NOSIG
12-10-10 METAR LFPG 101730Z 05004KT 9999 3500S -RA BR FEW013 BKN019 14/11 Q1013
12-10-10 METAR LFPG 101800Z VRB02KT 8000 2500S -RA BR BKN020 14/11 Q1013 NOSIG
12-10-10 METAR LFPG 101830Z 09007KT 8000 3000SE -RA BR SCT013 BKN019 14/11 Q1013
12-10-10 METAR LFPG 101900Z 10007KT 8000 FEW015 BKN019 13/11 Q1013 NOSIG
12-10-10 METAR LFPG 101930Z 10006KT 8000 BKN018 13/11 Q1013 NOSIG
12-10-10 METAR LFPG 102000Z 08007KT 8000 OVC019 13/11 Q1013 NOSIG
12-10-10 METAR LFPG 102030Z 10005KT 6000 OVC015 13/11 Q1013 NOSIG
12-10-10 METAR LFPG 102100Z 10005KT 6000 OVC014 13/11 Q1013 NOSIG
12-10-10 METAR LFPG 102130Z 15004KT 6000 FEW014 BKN016 13/12 Q1013 NOSIG
12-10-10 METAR LFPG 102200Z 13004KT 090V170 6000 OVC018 14/12 Q1012 NOSIG
12-10-10 METAR LFPG 102230Z 16004KT 6000 OVC017 14/11 Q1012 NOSIG
12-10-10 METAR LFPG 102300Z 15004KT 090V190 6000 SCT016 OVC019 13/11 Q1012 NOSIG
12-10-10 METAR LFPG 102330Z 13003KT 6000 FEW026 BKN049 13/11 Q1012 NOSIG
12-10-11 METAR LFPG 110000Z 10005KT 5000 BR BKN045 13/11 Q1011 NOSIG
12-10-11 METAR LFPG 110030Z 12005KT 4500 BR BKN047 13/12 Q1011 NOSIG
12-10-11 METAR LFPG 110100Z 14005KT 4500 BR BKN009 BKN050 13/11 Q1011 NOSIG
12-10-11 METAR LFPG 110130Z 14005KT 4000 BR SCT007 13/11 Q1011 NOSIG
12-10-11 METAR LFPG 110200Z VRB02KT 3500 BR OVC008 13/11 Q1010 NOSIG
12-10-11 METAR LFPG 110230Z 10004KT 4000 BR BKN008 13/12 Q1010 NOSIG
12-10-11 METAR LFPG 110300Z 09007KT 4000 BR BKN007 13/12 Q1010 NOSIG
12-10-11 METAR LFPG 110330Z 12008KT 4500 BR OVC005 13/12 Q1009 NOSIG
12-10-11 METAR LFPG 110400Z 14007KT 2500 BR OVC003 13/12 Q1009 NOSIG
12-10-11 METAR LFPG 110430Z 12006KT 0700 0300S R27L/1200VP2000D R09R/P2000 R26R/P2000 R08L/1000D R26L/1500U R08R/0900N R27R/1200V1900D R09L/P2000 FG BKN000 BKN002 13/12 Q1009 NOSIG
12-10-11 METAR LFPG 110500Z 13005KT 0500 R27L/1500U R09R/1700D R26R/P2000 R08L/1000V1600D R26L/P2000 R08R/1300VP2000U R27R/1300U R09L/1300VP2000U FG BKN000 BKN002 13/12 Q1009 NOSIG
12-10-11 METAR LFPG 110530Z 13006KT 1800 BR FEW001 SCT002 BKN002 13/12 Q1008 NOSIG
12-10-11 METAR LFPG 110600Z 11010KT 2500 BR FEW002 SCT004 BKN005 13/12 Q1008 NOSIG
12-10-11 METAR LFPG 110630Z 12009KT 2500 BR BKN003 BKN004 13/12 Q1008 NOSIG
12-10-11 METAR LFPG 110700Z 13010KT 2500 BR OVC003 13/12 Q1008 NOSIG
12-10-11 METAR LFPG 110730Z 12009KT 2500 BR SCT001 OVC002 13/12 Q1008 NOSIG
12-10-11 METAR LFPG 110800Z 14009KT 2200 BR SCT001 OVC002 13/12 Q1008 NOSIG
12-10-11 METAR LFPG 110830Z 14008KT 2000 BR OVC002 14/13 Q1008 NOSIG
12-10-11 METAR LFPG 110900Z 13008KT 1800 BR OVC002 14/13 Q1007 NOSIG
12-10-11 METAR LFPG 110930Z 12011KT 090V150 4000 BR OVC003 14/13 Q1007 NOSIG
12-10-11 METAR LFPG 111000Z 13010KT 090V150 5000 BR OVC004 15/14 Q1007 NOSIG
12-10-11 METAR LFPG 111130Z 16008KT 120V180 8000 OVC007 16/14 Q1006 BECMG BKN010
12-10-11 METAR LFPG 111200Z 14008KT 110V170 4000 -RA OVC007 16/14 Q1006 NOSIG
12-10-11 METAR LFPG 111230Z 13009KT 100V160 4000 -RA BKN007 SCT013 16/15 Q1005 NOSIG
12-10-11 METAR LFPG 111300Z 15008KT 110V170 5000 -RA BKN005 SCT011 16/15 Q1005
12-10-11 METAR LFPG 111330Z 15008KT 110V180 9999 BKN006 BKN013 16/15 Q1005 NOSIG
12-10-11 METAR LFPG 111400Z 17008KT 9999 BKN009 BKN016 17/15 Q1005 NOSIG
12-10-11 METAR LFPG 111430Z 16009KT 110V180 9999 BKN010 SCT017 17/15 Q1004 NOSIG
12-10-11 METAR LFPG 111500Z 17008KT 090V190 9999 BKN010 SCT017 18/15 Q1004 NOSIG
12-10-11 METAR LFPG 111530Z 17008KT 9999 FEW014 SCT033 BKN040 18/14 Q1004 NOSIG
12-10-11 METAR LFPG 111600Z 18007KT 9999 FEW015 BKN029 17/15 Q1004 NOSIG
12-10-11 METAR LFPG 111630Z 16006KT 9999 FEW020 BKN031 17/15 Q1004 NOSIG
12-10-11 METAR LFPG 111700Z 15006KT 9999 FEW020 SCT035 BKN100 17/15 Q1004 NOSIG
12-10-11 METAR LFPG 111730Z 16006KT 9999 FEW015 BKN030 BKN066 17/15 Q1004 NOSIG
12-10-11 METAR LFPG 111800Z 17007KT 6000 -RA FEW007 BKN014 BKN021 17/15 Q1004 NOSIG
12-10-11 METAR LFPG 111830Z 18009KT 6000 -RA FEW004 BKN009 16/15 Q1004 NOSIG
12-10-11 METAR LFPG 111900Z 18010KT 140V200 6000 -RA SCT004 BKN013 BKN066 16/15 Q1004 NOSIG
12-10-11 METAR LFPG 111930Z 18007KT 130V200 9999 SCT004 BKN006 BKN096 16/15 Q1004
12-10-11 METAR LFPG 112000Z 19008KT 9999 SCT004 BKN005 BKN011 16/15 Q1004 NOSIG
12-10-11 METAR LFPG 112030Z 19008KT 9999 SCT004 BKN006 BKN011 16/15 Q1004 NOSIG
12-10-11 METAR LFPG 112100Z 20009KT 9999 BKN006 16/15 Q1004 NOSIG
12-10-11 METAR LFPG 112130Z 20009KT 9999 BKN006 BKN090 16/15 Q1004 NOSIG
12-10-11 METAR LFPG 112200Z 19007KT 9999 SCT007 BKN012 BKN089 16/15 Q1004 NOSIG
12-10-11 METAR LFPG 112230Z 20007KT 9999 SCT008 BKN011 16/15 Q1004 NOSIG
12-10-11 METAR LFPG 112300Z 22007KT 200V270 9999 FEW008 BKN011 16/15 Q1004 NOSIG
12-10-11 METAR LFPG 112330Z 22009KT 190V250 9999 FEW009 BKN011 16/15 Q1004 NOSIG
12-10-12 METAR LFPG 120000Z 25006KT 200V280 9999 FEW006 BKN010 16/15 Q1004 NOSIG
12-10-12 METAR LFPG 120030Z 27013KT 9999 SCT007 BKN012 15/14 Q1004 NOSIG
12-10-12 METAR LFPG 120100Z 27008KT 9999 FEW012 BKN024 15/13 Q1004 NOSIG
12-10-12 METAR LFPG 120130Z 26008KT 9999 FEW018 BKN033 BKN053 15/13 Q1004 NOSIG
12-10-12 METAR LFPG 120200Z 26008KT 9999 SCT015 BKN020 BKN053 15/13 Q1005 NOSIG
12-10-12 METAR LFPG 120230Z 27008KT 9999 SCT012 BKN021 BKN040 15/13 Q1005 NOSIG
12-10-12 METAR LFPG 120300Z 27010KT 9999 BKN011 BKN019 BKN050 14/12 Q1005 NOSIG
12-10-12 METAR LFPG 120330Z 26009KT 9999 -RA BKN011 BKN053 14/12 Q1005 NOSIG
12-10-12 METAR LFPG 120400Z 26007KT 9999 BKN013 BKN053 14/12 Q1006 NOSIG
12-10-12 METAR LFPG 120430Z 26007KT 9999 FEW013 SCT200 13/11 Q1006 NOSIG
12-10-12 METAR LFPG 120500Z 27007KT 9999 SCT019 SCT044 BKN068 13/11 Q1006 NOSIG
12-10-12 METAR LFPG 120530Z 26013KT 9999 FEW015 BKN028 13/11 Q1007 NOSIG
12-10-12 METAR LFPG 120600Z 25009KT 9999 FEW016 BKN046 BKN073 13/11 Q1007 NOSIG
12-10-12 METAR LFPG 120630Z 25011KT 9999 FEW018 BKN050 13/10 Q1008 NOSIG
12-10-12 METAR LFPG 120700Z 26011KT 9999 FEW018 BKN066 13/10 Q1008 NOSIG
12-10-12 METAR LFPG 120730Z 26012KT 9999 FEW020 BKN060 13/10 Q1009 NOSIG
12-10-12 METAR LFPG 120800Z 26014KT 9999 SCT020 BKN060 13/09 Q1009 NOSIG
12-10-12 METAR LFPG 120830Z 26016KT 9999 SCT021 BKN070 13/08 Q1010 NOSIG
12-10-12 METAR LFPG 120900Z 26017KT 9999 SCT024 BKN070 13/08 Q1011 NOSIG
12-10-12 METAR LFPG 120930Z 27014KT 9999 SCT026 BKN070 13/07 Q1011 NOSIG
12-10-12 METAR LFPG 121000Z 26015KT 9999 FEW023TCU SCT026 13/06 Q1012 NOSIG
12-10-12 METAR LFPG 121030Z 29018KT 9999 FEW023TCU SCT033 13/05 Q1012 NOSIG
12-10-12 METAR LFPG 121100Z 28013KT 9999 SCT036 SCT058 12/06 Q1012 NOSIG
12-10-12 METAR LFPG 121130Z 26013KT 230V310 9999 SCT040 14/06 Q1012 NOSIG
12-10-12 METAR LFPG 121200Z 27017KT 9999 SCT040 15/04 Q1012 NOSIG
12-10-12 METAR LFPG 121230Z 26012KT 230V290 9999 SCT040 15/02 Q1012 NOSIG
12-10-12 METAR LFPG 121300Z 27014KT 9999 SCT043 15/03 Q1013 NOSIG
12-10-12 METAR LFPG 121330Z 27013KT 230V300 CAVOK 16/04 Q1013 NOSIG
12-10-12 METAR LFPG 121400Z 25015KT 210V280 9999 FEW046TCU BKN053 15/04 Q1013 NOSIG
12-10-12 METAR LFPG 121430Z 26016KT 9999 -SHRA FEW043TCU BKN053 12/06 Q1013 NOSIG
12-10-12 METAR LFPG 121500Z 25012KT 9999 FEW043TCU SCT053 14/06 Q1013 NOSIG
12-10-12 METAR LFPG 121530Z 26009KT 9999 FEW043TCU 14/05 Q1013 NOSIG
12-10-12 METAR LFPG 121600Z 24010KT 9999 FEW026CB SCT043TCU 14/06 Q1013 NOSIG
12-10-12 METAR LFPG 121630Z 27004KT 9999 FEW026CB SCT043TCU BKN060 13/06 Q1013 NOSIG
12-10-12 METAR LFPG 121700Z 30007KT 9999 FEW043TCU SCT060 10/07 Q1014 RESHRA NOSIG
12-10-12 METAR LFPG 121730Z 30003KT 9999 FEW043 09/07 Q1014 RESHRA NOSIG
12-10-12 METAR LFPG 121800Z VRB02KT 9999 FEW045 SCT080 09/07 Q1014 NOSIG
12-10-12 METAR LFPG 121830Z 20003KT 9999 FEW046 SCT080 09/07 Q1014 NOSIG
12-10-12 METAR LFPG 121900Z 00000KT 9999 -SHRA SCT041 SCT053 09/07 Q1014 NOSIG
12-10-12 METAR LFPG 121930Z 20006KT 9999 FEW038 SCT060 BKN093 10/08 Q1014 NOSIG
12-10-12 METAR LFPG 122000Z 21007KT CAVOK 11/08 Q1014 NOSIG
12-10-12 METAR LFPG 122030Z 22007KT CAVOK 11/07 Q1014 NOSIG
12-10-12 METAR LFPG 122100Z 21006KT CAVOK 11/07 Q1014 NOSIG
12-10-12 METAR LFPG 122130Z 19008KT 9999 SCT033 10/07 Q1014 NOSIG
12-10-12 METAR LFPG 122200Z 19008KT CAVOK 10/07 Q1014 NOSIG
12-10-12 METAR LFPG 122230Z 19006KT CAVOK 10/07 Q1014 NOSIG
12-10-12 METAR LFPG 122300Z 21010KT CAVOK 10/08 Q1014 NOSIG
12-10-12 METAR LFPG 122330Z 21011KT CAVOK 11/07 Q1014 NOSIG
12-10-13 METAR LFPG 130100Z 19009KT 9999 FEW045 SCT086 10/07 Q1013 NOSIG
12-10-13 METAR LFPG 130130Z 19009KT CAVOK 10/07 Q1013 NOSIG
12-10-13 METAR LFPG 130200Z 19009KT CAVOK 10/07 Q1012 NOSIG
12-10-13 METAR LFPG 130230Z 18008KT CAVOK 09/07 Q1012 NOSIG
12-10-13 METAR LFPG 130300Z 18008KT 9999 FEW046 09/07 Q1012 NOSIG
12-10-13 METAR LFPG 130330Z 18010KT 9999 FEW046 SCT260 09/07 Q1011 NOSIG
12-10-13 METAR LFPG 130400Z 18010KT CAVOK 09/07 Q1011 NOSIG
12-10-13 METAR LFPG 130430Z 17009KT CAVOK 09/07 Q1011 NOSIG
12-10-13 METAR LFPG 130500Z 18012KT CAVOK 09/07 Q1011 NOSIG
12-10-13 METAR LFPG 130530Z 18014KT CAVOK 09/07 Q1010 NOSIG
12-10-13 METAR LFPG 130600Z 19011KT 9999 FEW010 BKN130 BKN220 09/07 Q1010 NOSIG
12-10-13 METAR LFPG 130630Z 19012KT 9999 SCT010 SCT086 BKN200 09/08 Q1010 NOSIG
12-10-13 METAR LFPG 130700Z 19010KT 9999 SCT010 BKN066 BKN093 10/08 Q1010 NOSIG
12-10-13 METAR LFPG 130730Z 19010KT 9999 -RA BKN011 SCT066 BKN110 10/08 Q1010 NOSIG
12-10-13 METAR LFPG 130800Z 19010KT 9999 SCT011 BKN050 10/08 Q1010 NOSIG
12-10-13 METAR LFPG 130830Z 20012KT 9999 BKN011 BKN050 10/08 Q1009 NOSIG
12-10-13 METAR LFPG 130900Z 20012KT 9999 BKN011 BKN041 11/08 Q1009 NOSIG
12-10-13 METAR LFPG 130930Z 20013KT 180V250 9999 BKN011 BKN041 11/09 Q1009 NOSIG
12-10-13 METAR LFPG 131000Z 21014KT 3500 RA BKN010 FEW012TCU BKN040 11/09 Q1009 NOSIG
12-10-13 METAR LFPG 131030Z 22010KT 190V320 6000 -RA SCT010 FEW012TCU SCT020 BKN040 11/09 Q1008 NOSIG
12-10-13 METAR LFPG 131100Z 19010KT 6000 -RA SCT010 SCT020 BKN040 11/10 Q1008 NOSIG
12-10-13 METAR LFPG 131130Z 20013KT 6000 -RA BKN008 SCT020 BKN046 11/10 Q1008 NOSIG
12-10-13 METAR LFPG 131200Z 24015KT 8000 -RA SCT006 FEW008TCU SCT014 BKN040 10/09
12-10-13 METAR LFPG 131230Z 21012KT 8000 -RA FEW006 BKN046 10/08 Q1007 NOSIG
12-10-13 METAR LFPG 131300Z 21014KT 9999 -RA FEW012TCU SCT040 BKN053 10/09 Q1007
12-10-13 METAR LFPG 131330Z 27013KT 9999 R27R/0700V1500N -SHRA FEW012TCU SCT026 BKN033 09/07 Q1007 NOSIG
12-10-13 METAR LFPG 131400Z 24009KT 9999 -RA FEW015 BKN046 09/08 Q1007 NOSIG
12-10-13 METAR LFPG 131430Z 22010KT CAVOK 10/08 Q1007 NOSIG
12-10-13 METAR LFPG 131500Z 22009KT CAVOK 11/08 Q1007 NOSIG
12-10-13 METAR LFPG 131530Z 23011KT 9999 FEW020CB 11/08 Q1007 NOSIG
12-10-13 METAR LFPG 131600Z 23012KT 9999 FEW020CB 11/08 Q1006 NOSIG
12-10-13 METAR LFPG 131630Z 22009KT 9999 FEW020TCU 11/08 Q1006 NOSIG
12-10-13 METAR LFPG 131700Z 22007KT 200V290 9999 FEW023TCU SCT046 10/08 Q1007 NOSIG
12-10-13 METAR LFPG 131730Z 21008KT 190V280 9999 FEW030TCU SCT043 BKN210 10/07 Q1007
12-10-13 METAR LFPG 131800Z 22006KT 9999 FEW025TCU SCT043 BKN220 10/07 Q1007 NOSIG
12-10-13 METAR LFPG 131830Z 22008KT 9999 FEW026 BKN200 09/07 Q1007 NOSIG
12-10-13 METAR LFPG 131900Z 22007KT 9999 FEW026 SCT200 09/07 Q1007 NOSIG
12-10-13 METAR LFPG 131930Z 23008KT CAVOK 09/07 Q1007 NOSIG
12-10-13 METAR LFPG 132000Z 24007KT CAVOK 09/07 Q1007 NOSIG
12-10-13 METAR LFPG 132030Z 24006KT CAVOK 09/07 Q1007 NOSIG
12-10-13 METAR LFPG 132100Z 23006KT CAVOK 08/07 Q1007 NOSIG
12-10-13 METAR LFPG 132130Z 21007KT CAVOK 08/07 Q1007 NOSIG
12-10-13 METAR LFPG 132200Z 22009KT CAVOK 08/06 Q1007 NOSIG
12-10-13 METAR LFPG 132230Z 24009G20KT CAVOK 08/06 Q1007 NOSIG
12-10-13 METAR LFPG 132300Z 23005KT CAVOK 07/05 Q1006 NOSIG
12-10-13 METAR LFPG 132330Z 21005KT CAVOK 07/05 Q1006 NOSIG
12-10-14 METAR LFPG 140000Z 21006KT CAVOK 07/05 Q1006 NOSIG
12-10-14 METAR LFPG 140030Z 22004KT CAVOK 07/05 Q1006 NOSIG
12-10-14 METAR LFPG 140100Z 19004KT CAVOK 06/05 Q1006 NOSIG
12-10-14 METAR LFPG 140130Z 00000KT CAVOK 06/05 Q1006 NOSIG
12-10-14 METAR LFPG 140200Z 16004KT CAVOK 06/05 Q1005 NOSIG
12-10-14 METAR LFPG 140230Z 17005KT CAVOK 07/06 Q1005 NOSIG
12-10-14 METAR LFPG 140300Z 18004KT CAVOK 06/05 Q1004 NOSIG
12-10-14 METAR LFPG 140330Z 15003KT 9999 R26R/0550V1100D R08L/0650D R26L/0750U R08R/0500D MIFG SCT000 SCT140 BKN200 07/05 Q1004 NOSIG
12-10-14 METAR LFPG 140400Z 16006KT 0100 R27L/0450V0650N R09R/0600D R26R/0750N R08L/0500N R26L/0650D R08R/0650N R27R/0400V0550N R09L/0450V0650D FG VV/// 07/06 Q1004 NOSIG
12-10-14 METAR LFPG 140430Z 18005KT 0150 R27L/0700N R09R/0650N R26R/0600N R08L/1000U R26L/0500N R08R/0650N R27R/0550N R09L/0550N FG VV/// 07/06 Q1003 NOSIG
12-10-14 METAR LFPG 140500Z VRB02KT 0150 R27L/0600V0900D R09R/0600V1000D R26R/0600N R08L/0600D R26L/0500N R08R/0550N R27R/0500N R09L/0550N FG VV/// 07/06 Q1003 NOSIG
12-10-14 METAR LFPG 140530Z 11003KT 0400 R27L/0500D R09R/0800V1300D R26R/0800V1100U R08L/0450V0550N R26L/0650N R08R/0900U R27R/0550N R09L/1000N FG BKN000 07/06 Q1003 NOSIG
12-10-14 METAR LFPG 140600Z 09004KT 0250 R27L/0600N R09R/0800V1500U R26R/0750D R08L/0800N R26L/0500D R08R/0650N R27R/0500N R09L/0550V1200U FG VV///
12-10-14 METAR LFPG 140630Z 08005KT 0200 R27L/0450V1200D R09R/1000N R26R/0600V0800U R08L/0500N R26L/0500U R08R/0450N R27R/0500N R09L/0600D FG VV/// 07/06 Q1002 NOSIG
12-10-14 METAR LFPG 140700Z 09005KT 0200 R27L/0500V0750U R09R/1000V2000U R26R/0700V1100N R08L/0500V0650N R26L/0600N R08R/0500N R27R/0500N R09L/0750N FG VV/// 07/06 Q1002 NOSIG
12-10-14 METAR LFPG 140730Z 10006KT 0400 R27L/0800V1000D R09R/0750V1300U R26R/0800V2000U R08L/0550D R26L/1000U R08R/0550N R27R/0700N R09L/0650D FG OVC000 07/06 Q1002 NOSIG
12-10-14 METAR LFPG 140800Z 08007KT 0500 R27L/0900V1400N R09R/1700U R26R/1700U R08L/0900U R26L/1200V1800U R08R/1000U R27R/1200V1600U R09L/1200VP2000U FG OVC001 07/06 Q1001 NOSIG
12-10-14 METAR LFPG 140830Z 11009KT 0800 R27L/0900VP2000D R09R/P2000 R26R/P2000 R08L/1700D R26L/2000U R08R/1800N R27R/1200VP2000D R09L/P2000 FG OVC001 07/07 Q1001 NOSIG
12-10-14 METAR LFPG 140900Z 08005KT 050V120 3000 -RA BR BKN002 BKN003 08/07 Q1001
12-10-14 METAR LFPG 141030Z 10010KT 6000 -RA FEW004 SCT006 BKN040 08/07 Q0999 NOSIG
12-10-14 METAR LFPG 141100Z 09008KT 7000 -RA SCT016 BKN038 08/08 Q0999 NOSIG
12-10-14 METAR LFPG 141130Z 06008KT 7000 -RA SCT004 BKN036 08/08 Q0998 NOSIG
12-10-14 METAR LFPG 141200Z 05008KT 020V080 8000 -RA FEW004 BKN005 BKN033 09/08 Q0998 NOSIG
12-10-14 METAR LFPG 141230Z 04008KT 8000 -RA FEW004 BKN005 BKN030 09/08 Q0998 NOSIG
12-10-14 METAR LFPG 141300Z 06008KT 9000 -RA BKN006 SCT030 BKN046 09/08 Q0998 NOSIG
12-10-14 METAR LFPG 141330Z 04009KT 9999 -RA BKN006 SCT030 BKN060 09/08 Q0998 NOSIG
12-10-14 METAR LFPG 141400Z 03006KT 9999 -RA SCT008 SCT040 BKN060 08/07 Q0998 NOSIG
12-10-14 METAR LFPG 141430Z 04007KT 010V100 9999 -RA SCT007 SCT031 BKN053 08/07
12-10-14 METAR LFPG 141500Z 04007KT 9999 -RA SCT009 SCT026 BKN046 08/07 Q0998 NOSIG
12-10-14 METAR LFPG 141530Z 06009KT 020V080 9999 -RA SCT009 SCT020 BKN040 08/06
12-10-14 METAR LFPG 141600Z 02007KT 9999 FEW010 SCT066 BKN100 08/06 Q0998 NOSIG
12-10-14 METAR LFPG 141630Z 02005KT 360V060 9999 SCT010 BKN110 08/06 Q0999 NOSIG
12-10-14 METAR LFPG 141700Z 01006KT 9999 SCT008 BKN110 08/06 Q0999 NOSIG
12-10-14 METAR LFPG 141730Z 34006KT 320V050 9999 FEW007 SCT110 BKN120 08/06 Q0999
12-10-14 METAR LFPG 141800Z 31005KT 230V330 9999 FEW007 BKN120 08/06 Q1000 NOSIG
12-10-14 METAR LFPG 141830Z 32004KT CAVOK 07/06 Q1000 NOSIG
12-10-14 METAR LFPG 141900Z 28004KT 9999 FEW008 SCT040 BKN160 07/06 Q1000 NOSIG
12-10-14 METAR LFPG 141930Z 26005KT 7000 -RA FEW008 BKN026 BKN046 07/06 Q1001 NOSIG
12-10-14 METAR LFPG 142000Z 29006KT 9999 FEW018 BKN150 07/06 Q1001 NOSIG
12-10-14 METAR LFPG 142030Z 28007KT CAVOK 07/06 Q1002 NOSIG
12-10-14 METAR LFPG 142100Z 29006KT CAVOK 06/05 Q1002 NOSIG
12-10-14 METAR LFPG 142130Z 28006KT CAVOK 06/05 Q1002 NOSIG
12-10-14 METAR LFPG 142200Z 28006KT CAVOK 06/05 Q1002 NOSIG
12-10-14 METAR LFPG 142230Z 25007KT CAVOK 06/05 Q1003 NOSIG
12-10-14 METAR LFPG 142300Z 25006KT CAVOK 06/05 Q1003 NOSIG
12-10-14 METAR LFPG 142330Z 25006KT 9999 BKN043 BKN160 06/05 Q1003 NOSIG
12-10-15 METAR LFPG 150000Z 26007KT 9999 FEW045 BKN086 BKN140 06/04 Q1003 NOSIG
12-10-15 METAR LFPG 150030Z 25007KT CAVOK 06/04 Q1003 NOSIG
12-10-15 METAR LFPG 150100Z 25007KT CAVOK 06/04 Q1004 NOSIG
12-10-15 METAR LFPG 150130Z 25007KT CAVOK 06/04 Q1004 NOSIG
12-10-15 METAR LFPG 150200Z 24007KT 9999 FEW036 BKN060 BKN140 06/04 Q1004 NOSIG
12-10-15 METAR LFPG 150230Z 24007KT 9999 FEW036 BKN053 BKN140 06/04 Q1005 NOSIG
12-10-15 METAR LFPG 150300Z 25005KT 9999 BKN036 BKN050 06/04 Q1005 NOSIG
12-10-15 METAR LFPG 150330Z 24005KT 9999 -RA BKN030 BKN040 06/04 Q1005 NOSIG
12-10-15 METAR LFPG 150400Z 24007KT 9999 FEW031 SCT060 BKN083 06/05 Q1006 NOSIG
12-10-15 METAR LFPG 150430Z 24007KT 9999 FEW031 BKN050 BKN083 06/05 Q1006 NOSIG
12-10-15 METAR LFPG 150500Z 23007KT 9999 FEW040 SCT060 BKN120 06/04 Q1006 NOSIG
12-10-15 METAR LFPG 150530Z 26004KT 230V290 9999 FEW031 SCT063 06/04 Q1007 NOSIG
12-10-15 METAR LFPG 150600Z 22006KT 9999 FEW033 BKN063 05/04 Q1007 NOSIG
12-10-15 METAR LFPG 150630Z 20005KT CAVOK 05/04 Q1007 NOSIG
12-10-15 METAR LFPG 150700Z 22007KT 9999 FEW036 06/04 Q1007 NOSIG
12-10-15 METAR LFPG 150730Z 22006KT 9999 SCT036 06/04 Q1008 NOSIG
12-10-15 METAR LFPG 150800Z 21007KT 9999 SCT036 07/04 Q1008 NOSIG
12-10-15 METAR LFPG 150830Z 22007KT 9999 FEW036 08/05 Q1008 NOSIG
12-10-15 METAR LFPG 150900Z 22007KT 9999 FEW036 09/05 Q1008 NOSIG
12-10-15 METAR LFPG 150930Z 22008KT 190V290 9999 FEW036 10/05 Q1008 NOSIG
12-10-15 METAR LFPG 151000Z 22009KT 9999 FEW040 12/05 Q1008 NOSIG
12-10-15 METAR LFPG 151030Z VRB09KT 9999 FEW036 12/05 Q1008 NOSIG
12-10-15 METAR LFPG 151100Z 23010KT 190V250 9999 FEW028 BKN066 13/06 Q1008 NOSIG
12-10-15 METAR LFPG 151130Z 24011KT 200V270 9999 FEW026 BKN063 13/05 Q1008 NOSIG
12-10-15 METAR LFPG 151200Z 25013KT 9999 SCT028 BKN053 13/06 Q1008 NOSIG
12-10-15 METAR LFPG 151230Z 23015KT 9999 SCT026 BKN060 13/06 Q1008 NOSIG
12-10-15 METAR LFPG 151300Z 23012KT 9999 FEW025 SCT046 BKN220 14/07 Q1008 NOSIG
12-10-15 METAR LFPG 151330Z 24014KT 9999 SCT030 SCT053 BKN230 14/05 Q1008 NOSIG
12-10-15 METAR LFPG 151400Z 24015KT 9999 FEW036 SCT056 14/05 Q1008 NOSIG
12-10-15 METAR LFPG 151430Z 23014KT 9999 BKN036 SCT260 14/05 Q1008 NOSIG
12-10-15 METAR LFPG 151500Z 22012KT 9999 BKN038 14/05 Q1008 NOSIG
12-10-15 METAR LFPG 151530Z 22014KT 9999 SCT038 14/04 Q1008 NOSIG
12-10-15 METAR LFPG 151600Z 22014KT 9999 SCT038 13/05 Q1008 NOSIG
12-10-15 METAR LFPG 151630Z 21013KT 9999 FEW040 BKN058 13/05 Q1008 NOSIG
12-10-15 METAR LFPG 151700Z 21010KT 9999 FEW040 BKN058 12/05 Q1009 NOSIG
12-10-15 METAR LFPG 151730Z 20009KT 9999 FEW040 12/05 Q1009 NOSIG
12-10-15 METAR LFPG 151800Z 20010KT 9999 FEW040 11/05 Q1009 NOSIG
12-10-15 METAR LFPG 151830Z 19010KT 120V210 CAVOK 11/05 Q1009 NOSIG
12-10-15 METAR LFPG 151900Z 18009KT CAVOK 11/06 Q1009 NOSIG
12-10-15 METAR LFPG 151930Z 18008KT CAVOK 10/05 Q1009 NOSIG
12-10-15 METAR LFPG 152000Z 19010KT 9999 FEW040 10/06 Q1009 NOSIG
12-10-15 METAR LFPG 152030Z 19009KT 160V230 9999 FEW040 10/06 Q1009 NOSIG
12-10-15 METAR LFPG 152100Z 18010KT 9999 FEW039 10/06 Q1009 NOSIG
12-10-15 METAR LFPG 152130Z 18010KT 9999 FEW039 SCT200 10/06 Q1009 NOSIG
12-10-15 METAR LFPG 152200Z 18012KT CAVOK 10/06 Q1009 NOSIG
12-10-15 METAR LFPG 152230Z 19011KT CAVOK 10/06 Q1008 NOSIG
12-10-15 METAR LFPG 152300Z 19011KT CAVOK 09/06 Q1008 NOSIG
12-10-15 METAR LFPG 152330Z 19011KT CAVOK 09/06 Q1008 NOSIG
12-10-16 METAR LFPG 160000Z 18010KT CAVOK 09/06 Q1008 NOSIG
12-10-16 METAR LFPG 160030Z 18010KT CAVOK 09/06 Q1007 NOSIG
12-10-16 METAR LFPG 160100Z 18011KT CAVOK 09/06 Q1007 NOSIG
12-10-16 METAR LFPG 160130Z 18011KT CAVOK 09/07 Q1006 NOSIG
12-10-16 METAR LFPG 160200Z 18013KT 9999 -RA NSC 09/07 Q1006 NOSIG
12-10-16 METAR LFPG 160230Z 17012KT CAVOK 09/07 Q1006 NOSIG
12-10-16 METAR LFPG 160300Z 17012KT 9999 -RA NSC 09/07 Q1005 NOSIG
12-10-16 METAR LFPG 160330Z 18015KT 9999 -RA FEW026 BKN051 09/08 Q1005 NOSIG
12-10-16 METAR LFPG 160400Z 18013KT 9999 FEW013 BKN038 09/08 Q1005 NOSIG
12-10-16 METAR LFPG 160430Z 18012KT 9000 -RA SCT011 BKN025 09/08 Q1004 NOSIG
12-10-16 METAR LFPG 160600Z 19014KT 2500 -DZRA BKN006 09/08 Q1004 NOSIG
12-10-16 METAR LFPG 160730Z 22010KT 9999 SCT009 BKN014 BKN040 10/09 Q1005 NOSIG
12-10-16 METAR LFPG 160800Z 23010KT 9999 FEW013 SCT033 BKN053 11/09 Q1006 NOSIG
12-10-16 METAR LFPG 160830Z 23010KT 9999 SCT013 BKN033 11/10 Q1006 NOSIG
12-10-16 METAR LFPG 160900Z 23011KT 9999 SCT013 BKN033 12/10 Q1007 NOSIG
12-10-16 METAR LFPG 160930Z 23012KT 9999 SCT013 BKN033 12/09 Q1007 NOSIG
12-10-16 METAR LFPG 161000Z 24014KT 210V270 9999 FEW019 SCT080 13/09 Q1008 NOSIG
12-10-16 METAR LFPG 161030Z 24013KT 220V280 9999 FEW021 SCT038 14/09 Q1008 NOSIG
12-10-16 METAR LFPG 161100Z 24014KT 9999 FEW021 BKN038 14/08 Q1008 NOSIG
12-10-16 METAR LFPG 161130Z 25012KT 220V280 9999 SCT026 SCT230 15/08 Q1008 NOSIG
12-10-16 METAR LFPG 161200Z 25012KT 9999 SCT031 SCT230 14/07 Q1009 NOSIG
12-10-16 METAR LFPG 161230Z 26010KT 9999 SCT031 BKN230 14/07 Q1009 NOSIG
12-10-16 METAR LFPG 161300Z 25011KT 9999 SCT033 BKN140 BKN230 14/07 Q1009 NOSIG
12-10-16 METAR LFPG 161330Z 25010KT 9999 FEW033 BKN140 BKN230 15/08 Q1009 NOSIG
12-10-16 METAR LFPG 161400Z 24009KT 9999 FEW033 BKN140 BKN230 15/07 Q1009 NOSIG
12-10-16 METAR LFPG 161430Z 24010KT 9999 FEW033 SCT150 15/07 Q1009 NOSIG
12-10-16 METAR LFPG 161500Z 25009KT 220V330 9999 FEW033 SCT150 15/06 Q1009 NOSIG
12-10-16 METAR LFPG 161530Z 23008KT 9999 FEW035 SCT160 15/07 Q1009 NOSIG
12-10-16 METAR LFPG 161600Z 25006KT 9999 FEW035 SCT160 15/06 Q1009 NOSIG
12-10-16 METAR LFPG 161630Z 23004KT 9999 FEW036 SCT260 14/07 Q1009 NOSIG
12-10-16 METAR LFPG 161700Z 21005KT 9999 FEW040 13/06 Q1009 NOSIG
12-10-16 METAR LFPG 161730Z 18004KT 9999 FEW040 12/06 Q1009 NOSIG
12-10-16 METAR LFPG 161800Z 17006KT 9999 FEW040 12/06 Q1009 NOSIG
12-10-16 METAR LFPG 161830Z 16007KT 9999 FEW040 11/06 Q1009 NOSIG
12-10-16 METAR LFPG 161900Z 17007KT CAVOK 11/07 Q1009 NOSIG
12-10-16 METAR LFPG 161930Z 15005KT CAVOK 10/07 Q1009 NOSIG
12-10-16 METAR LFPG 162000Z 15006KT CAVOK 10/07 Q1009 NOSIG
12-10-16 METAR LFPG 162030Z 14006KT CAVOK 10/07 Q1009 NOSIG
12-10-16 METAR LFPG 162100Z 15006KT CAVOK 09/07 Q1009 NOSIG
12-10-16 METAR LFPG 162130Z 16009KT CAVOK 10/07 Q1009 NOSIG
12-10-16 METAR LFPG 162200Z 16009KT 110V190 CAVOK 09/07 Q1009 NOSIG
12-10-16 METAR LFPG 162230Z 15006KT CAVOK 09/07 Q1008 NOSIG
12-10-16 METAR LFPG 162300Z 16010KT CAVOK 09/07 Q1008 NOSIG
12-10-16 METAR LFPG 162330Z 15009KT CAVOK 09/07 Q1008 NOSIG
12-10-17 METAR LFPG 170000Z 14010KT CAVOK 09/08 Q1007 NOSIG
12-10-17 METAR LFPG 170030Z 15009KT 9999 FEW007 BKN046 09/08 Q1007 NOSIG
12-10-17 METAR LFPG 170100Z 15009KT 9999 FEW007 BKN038 10/08 Q1007 NOSIG
12-10-17 METAR LFPG 170130Z 15009KT 9999 BKN007 BKN029 10/08 Q1006 NOSIG
12-10-17 METAR LFPG 170200Z 15009KT 9999 BKN007 10/09 Q1006 NOSIG
12-10-17 METAR LFPG 170230Z 16009KT 9999 -RA BKN007 BKN033 10/09 Q1005 NOSIG
12-10-17 METAR LFPG 170300Z 14010KT 9999 BKN006 BKN093 10/09 Q1005 NOSIG
12-10-17 METAR LFPG 170330Z 13011KT 8000 -RA SCT008 BKN043 10/09 Q1004 NOSIG
12-10-17 METAR LFPG 170400Z 13010KT 9999 FEW008 BKN060 BKN110 11/10 Q1003 NOSIG
12-10-17 METAR LFPG 170430Z 14008KT CAVOK 11/10 Q1003 NOSIG
12-10-17 METAR LFPG 170500Z 16007KT CAVOK 11/10 Q1003 NOSIG
12-10-17 METAR LFPG 170530Z 16009KT 130V190 CAVOK 12/10 Q1003 NOSIG
12-10-17 METAR LFPG 170600Z 18011KT CAVOK 12/10 Q1003 NOSIG
12-10-17 METAR LFPG 170630Z 18012KT 140V200 CAVOK 13/10 Q1003 NOSIG
12-10-17 METAR LFPG 170800Z 19012KT CAVOK 13/10 Q1004 NOSIG
12-10-17 METAR LFPG 170830Z 19011KT CAVOK 13/10 Q1005 NOSIG
12-10-17 METAR LFPG 170900Z 18013KT CAVOK 14/10 Q1005 NOSIG
12-10-17 METAR LFPG 170930Z 19012G24KT 160V270 CAVOK 14/11 Q1005 NOSIG
12-10-17 METAR LFPG 171000Z 18012KT 9999 BKN045 14/11 Q1006 NOSIG
12-10-17 METAR LFPG 171130Z 19010KT 9000 -RA BKN013 BKN020 13/12 Q1006 NOSIG
12-10-17 METAR LFPG 171200Z 18010KT 9999 -RA BKN011 BKN016 13/12 Q1006 NOSIG
12-10-17 METAR LFPG 171230Z 17010KT 3500 -RA SCT012 BKN020 14/12 Q1006 NOSIG
12-10-17 METAR LFPG 171300Z 18008KT 9999 -RA FEW013 BKN071 13/12 Q1005 NOSIG
12-10-17 METAR LFPG 171330Z 17010KT 9999 FEW013 BKN041 BKN080 14/13 Q1005 RERA NOSIG
12-10-17 METAR LFPG 171400Z 17009KT 9999 FEW020 BKN045 BKN080 15/13 Q1005 RERA
12-10-17 METAR LFPG 171430Z 17009KT 9999 FEW021 SCT040 BKN070 15/12 Q1005 RERA
12-10-17 METAR LFPG 171500Z 17008KT 9999 -RA SCT033 BKN066 15/12 Q1005 NOSIG
12-10-17 METAR LFPG 171530Z 16009KT 9999 FEW045 BKN091 15/12 Q1004 NOSIG
12-10-17 METAR LFPG 171600Z 16009KT CAVOK 15/12 Q1004 NOSIG
12-10-17 METAR LFPG 171630Z 16008KT 9999 -RA NSC 15/12 Q1004 NOSIG
12-10-17 METAR LFPG 171700Z 16009KT CAVOK 15/12 Q1004 NOSIG
12-10-17 METAR LFPG 171730Z 16008KT 9999 -RA NSC 15/12 Q1004 NOSIG
12-10-17 METAR LFPG 171800Z 17010KT CAVOK 15/11 Q1004 NOSIG
12-10-17 METAR LFPG 171830Z 17009KT CAVOK 15/11 Q1004 NOSIG
12-10-17 METAR LFPG 171900Z 17009KT CAVOK 15/11 Q1005 NOSIG
12-10-17 METAR LFPG 171930Z 17009KT 9999 -RA NSC 15/11 Q1004 NOSIG
12-10-17 METAR LFPG 172000Z 18009KT CAVOK 15/10 Q1004 NOSIG
12-10-17 METAR LFPG 172030Z 18008KT CAVOK 15/10 Q1004 NOSIG
12-10-17 METAR LFPG 172100Z 17009G20KT 050V210 CAVOK 15/10 Q1004 NOSIG
12-10-17 METAR LFPG 172130Z 16008KT CAVOK 14/10 Q1004 NOSIG
12-10-17 METAR LFPG 172200Z 15008KT 9999 -RA NSC 14/10 Q1004 NOSIG
12-10-17 METAR LFPG 172230Z 15006KT CAVOK 14/10 Q1004 NOSIG
12-10-17 METAR LFPG 172300Z 15006KT CAVOK 14/11 Q1004 NOSIG
12-10-17 METAR LFPG 172330Z 13006KT 090V150 9999 FEW040 SCT100 13/11 Q1004 NOSIG
12-10-18 METAR LFPG 180000Z 12009KT CAVOK 13/12 Q1004 NOSIG
12-10-18 METAR LFPG 180030Z 13007KT CAVOK 14/11 Q1004 NOSIG
12-10-18 METAR LFPG 180100Z 15008KT CAVOK 14/12 Q1003 NOSIG
12-10-18 METAR LFPG 180130Z 17008KT CAVOK 15/12 Q1004 NOSIG
12-10-18 METAR LFPG 180200Z 18005KT 120V210 CAVOK 15/11 Q1003 NOSIG
12-10-18 METAR LFPG 180230Z 18005KT 130V210 CAVOK 14/11 Q1004 NOSIG
12-10-18 METAR LFPG 180300Z 18007KT 120V200 9999 BKN044 14/12 Q1004 NOSIG
12-10-18 METAR LFPG 180330Z 17007KT 9999 BKN040 15/12 Q1004 NOSIG
12-10-18 METAR LFPG 180400Z 17007KT 9999 -RA BKN036 15/12 Q1004 NOSIG
12-10-18 METAR LFPG 180430Z 17008KT 9999 -RA BKN033 15/12 Q1004 NOSIG
12-10-18 METAR LFPG 180500Z 16009KT 9999 BKN035 14/12 Q1004 NOSIG
12-10-18 METAR LFPG 180530Z 16009KT 9999 BKN036 15/12 Q1004 NOSIG
12-10-18 METAR LFPG 180600Z 15008KT 9999 -RA BKN031 15/12 Q1005 NOSIG
12-10-18 METAR LFPG 180630Z 15008KT 110V170 9999 BKN031 BKN053 15/12 Q1005 NOSIG
12-10-18 METAR LFPG 180700Z 16009KT 9999 BKN033 BKN053 15/12 Q1005 NOSIG
12-10-18 METAR LFPG 180730Z 15007KT 9999 -RA BKN033 BKN053 15/12 Q1005 NOSIG
12-10-18 METAR LFPG 180800Z 15008KT 9999 SCT040 BKN063 15/12 Q1006 NOSIG
12-10-18 METAR LFPG 180830Z 15009KT 9999 FEW040 SCT060 BKN130 16/12 Q1006 NOSIG
12-10-18 METAR LFPG 180900Z 18010KT 9999 SCT046 BKN130 17/12 Q1006 NOSIG
12-10-18 METAR LFPG 180930Z 18013KT 110V210 9999 FEW043 SCT130 18/12 Q1006 NOSIG
12-10-18 METAR LFPG 181000Z 19010G22KT CAVOK 18/12 Q1006 NOSIG
12-10-18 METAR LFPG 181030Z 17010KT 070V200 9999 FEW043 SCT260 20/12 Q1006 NOSIG
12-10-18 METAR LFPG 181100Z 19010KT 110V210 9999 BKN043 20/12 Q1006 NOSIG
12-10-18 METAR LFPG 181130Z 19009KT 9999 BKN043 19/12 Q1006 NOSIG
12-10-18 METAR LFPG 181200Z 17007G17KT 070V210 9999 BKN043 BKN130 20/13 Q1006 NOSIG
12-10-18 METAR LFPG 181230Z 17006KT 090V240 9999 BKN043 BKN130 20/13 Q1006 NOSIG
12-10-18 METAR LFPG 181300Z 16009KT 9999 BKN043 BKN130 20/13 Q1006 NOSIG
12-10-18 METAR LFPG 181330Z 16010KT 9999 FEW040TCU SCT046 BKN120 20/13 Q1006 NOSIG
12-10-18 METAR LFPG 181400Z 15010KT 9999 FEW040TCU SCT046 BKN120 20/13 Q1005 NOSIG
12-10-18 METAR LFPG 181430Z 15008G20KT 060V180 9999 FEW040TCU SCT046 BKN120 20/14 Q1005 NOSIG
12-10-18 METAR LFPG 181500Z 14006KT 8000 -SHRA SCT040TCU SCT046 BKN090 18/15 Q1005
12-10-18 METAR LFPG 181530Z 15005KT 9999 -SHRA SCT040TCU SCT046 BKN090 19/14 Q1005
12-10-18 METAR LFPG 181600Z VRB02KT 3000 SHRA FEW045TCU BKN060 18/15 Q1006 NOSIG
12-10-18 METAR LFPG 181630Z VRB03KT 9999 -SHRA FEW045CB BKN060 18/15 Q1006 NOSIG
12-10-18 METAR LFPG 181700Z VRB01KT 9999 FEW046CB BKN053 17/15 Q1006 RESHRA NOSIG
12-10-18 METAR LFPG 181730Z 11005KT 070V140 9999 FEW056CB BKN074 17/15 Q1006 RESHRA
12-10-18 METAR LFPG 181800Z 09007KT CAVOK 17/15 Q1006 NOSIG
12-10-18 METAR LFPG 181830Z 09007KT CAVOK 17/14 Q1006 NOSIG
12-10-18 METAR LFPG 181900Z 10008KT CAVOK 17/14 Q1006 NOSIG
12-10-18 METAR LFPG 181930Z 10010KT CAVOK 17/13 Q1005 NOSIG
12-10-18 METAR LFPG 182000Z 13010KT CAVOK 17/13 Q1006 NOSIG
12-10-18 METAR LFPG 182030Z 14008KT CAVOK 17/13 Q1006 NOSIG
12-10-18 METAR LFPG 182100Z 15003KT 080V220 CAVOK 16/13 Q1006 NOSIG
12-10-18 METAR LFPG 182130Z 02002KT 9999 -RA NSC 16/13 Q1006 NOSIG
12-10-18 METAR LFPG 182200Z 11004KT 090V160 CAVOK 16/13 Q1007 NOSIG
12-10-18 METAR LFPG 182230Z 12005KT 090V150 CAVOK 16/13 Q1007 NOSIG
12-10-18 METAR LFPG 182300Z 14003KT CAVOK 16/13 Q1007 NOSIG
12-10-18 METAR LFPG 182330Z 14003KT CAVOK 16/13 Q1007 NOSIG
12-10-19 METAR LFPG 190000Z 15004KT CAVOK 16/13 Q1007 NOSIG
12-10-19 METAR LFPG 190030Z 11003KT CAVOK 15/13 Q1007 NOSIG
12-10-19 METAR LFPG 190100Z 11005KT CAVOK 15/13 Q1007 NOSIG
12-10-19 METAR LFPG 190130Z 11006KT CAVOK 15/13 Q1007 NOSIG
12-10-19 METAR LFPG 190200Z 12007KT CAVOK 16/12 Q1007 NOSIG
12-10-19 METAR LFPG 190230Z 11008KT CAVOK 16/12 Q1007 NOSIG
12-10-19 METAR LFPG 190300Z 12008KT CAVOK 16/12 Q1007 NOSIG
12-10-19 METAR LFPG 190330Z 12008KT CAVOK 16/12 Q1007 NOSIG
12-10-19 METAR LFPG 190400Z 11006KT CAVOK 16/12 Q1007 NOSIG
12-10-19 METAR LFPG 190430Z 10008KT CAVOK 16/12 Q1007 NOSIG
12-10-19 METAR LFPG 190500Z 11007KT CAVOK 16/11 Q1007 NOSIG
12-10-19 METAR LFPG 190530Z 11005KT 080V140 CAVOK 16/11 Q1007 NOSIG
12-10-19 METAR LFPG 190600Z 11005KT 080V150 CAVOK 16/11 Q1007 NOSIG
12-10-19 METAR LFPG 190630Z 12003KT CAVOK 16/11 Q1007 NOSIG
12-10-19 METAR LFPG 190700Z 12004KT CAVOK 16/11 Q1008 NOSIG
12-10-19 METAR LFPG 190730Z 09003KT CAVOK 16/11 Q1008 NOSIG
12-10-19 METAR LFPG 190800Z 11005KT CAVOK 17/11 Q1008 NOSIG
12-10-19 METAR LFPG 190830Z 15005KT 120V180 CAVOK 16/11 Q1009 NOSIG
12-10-19 METAR LFPG 190900Z 15007KT 100V170 CAVOK 17/11 Q1009 NOSIG
12-10-19 METAR LFPG 190930Z 16007KT 110V200 CAVOK 18/11 Q1009 NOSIG
12-10-19 METAR LFPG 191000Z 17007KT 090V210 CAVOK 18/11 Q1009 NOSIG
12-10-19 METAR LFPG 191030Z 15009G21KT 100V180 CAVOK 18/12 Q1010 NOSIG
12-10-19 METAR LFPG 191100Z 15010KT CAVOK 18/12 Q1010 NOSIG
12-10-19 METAR LFPG 191130Z 15009KT CAVOK 18/12 Q1010 NOSIG
12-10-19 METAR LFPG 191200Z 15010KT 110V180 CAVOK 18/12 Q1010 NOSIG
12-10-19 METAR LFPG 191230Z 14010KT 9999 -RA NSC 18/12 Q1010 NOSIG
12-10-19 METAR LFPG 191300Z 15009KT CAVOK 18/12 Q1010 NOSIG
12-10-19 METAR LFPG 191330Z 14008KT 9999 -RA NSC 18/13 Q1010 NOSIG
12-10-19 METAR LFPG 191400Z 14009KT 9999 -RA NSC 18/13 Q1010 NOSIG
12-10-19 METAR LFPG 191430Z 13008KT 9999 -RA NSC 18/14 Q1010 NOSIG
12-10-19 METAR LFPG 191500Z 14007KT 090V190 9999 -RA NSC 18/14 Q1010 NOSIG
12-10-19 METAR LFPG 191530Z 15005KT CAVOK 18/14 Q1010 NOSIG
12-10-19 METAR LFPG 191600Z VRB03KT CAVOK 17/14 Q1010 NOSIG
12-10-19 METAR LFPG 191630Z VRB02KT 9999 FEW015 BKN056 17/14 Q1010 NOSIG
12-10-19 METAR LFPG 191700Z 31002KT CAVOK 17/14 Q1010 NOSIG
12-10-19 METAR LFPG 191730Z 32003KT CAVOK 16/14 Q1010 NOSIG
12-10-19 METAR LFPG 191800Z 07002KT CAVOK 16/13 Q1010 NOSIG
12-10-19 METAR LFPG 191830Z VRB02KT CAVOK 16/14 Q1011 NOSIG
12-10-19 METAR LFPG 191900Z 18004KT 150V210 9999 SCT036 BKN060 BKN100 16/14 Q1011 NOSIG
12-10-19 METAR LFPG 191930Z 12009KT 080V140 CAVOK 17/14 Q1010 NOSIG
12-10-19 METAR LFPG 192000Z 16006KT CAVOK 16/14 Q1011 NOSIG
12-10-19 METAR LFPG 192030Z 13009KT 090V160 CAVOK 16/14 Q1010 NOSIG
12-10-19 METAR LFPG 192100Z 16008KT CAVOK 17/14 Q1011 NOSIG
12-10-19 METAR LFPG 192130Z 17007KT 9999 -RA NSC 17/14 Q1011 NOSIG
12-10-19 METAR LFPG 192200Z 20006KT CAVOK 16/14 Q1012 NOSIG
12-10-19 METAR LFPG 192230Z 21008KT 9999 -RA NSC 16/14 Q1012 NOSIG
12-10-19 METAR LFPG 192300Z 21008KT 9999 -RA FEW013 BKN088 16/14 Q1012 NOSIG
12-10-19 METAR LFPG 192330Z 21009KT 9999 -RA FEW013 BKN093 16/14 Q1013 NOSIG
12-10-20 METAR LFPG 200000Z 22007KT 9000 -RA BKN008 BKN100 16/14 Q1013 NOSIG
12-10-20 METAR LFPG 200030Z 19004KT 6000 -RA SCT008 BKN017 BKN100 15/14 Q1013 NOSIG
12-10-20 METAR LFPG 200200Z 18006KT 7000 SCT004 OVC006 15/14 Q1013 BECMG BKN012
12-10-20 METAR LFPG 200230Z 19006KT 7000 SCT004 OVC006 15/14 Q1013 BECMG BKN012
12-10-20 METAR LFPG 200300Z 19006KT 7000 SCT005 OVC007 15/14 Q1014 BECMG BKN012
12-10-20 METAR LFPG 200330Z 19005KT 7000 SCT004 OVC008 15/14 Q1014 BECMG BKN012
12-10-20 METAR LFPG 200400Z 21005KT 180V240 7000 SCT004 OVC007 15/14 Q1014 BECMG
12-10-20 METAR LFPG 200530Z 30003KT 9999 FEW004 SCT013 BKN027 14/13 Q1015 NOSIG
12-10-20 METAR LFPG 200600Z 29003KT 9999 FEW009 BKN013 BKN032 14/13 Q1015 NOSIG
12-10-20 METAR LFPG 200630Z 30004KT 7000 FEW004 BKN033 BKN093 14/13 Q1016 NOSIG
12-10-20 METAR LFPG 200700Z VRB02KT 5000 SCT005 BKN033 BKN093 14/13 Q1016 NOSIG
12-10-20 METAR LFPG 200730Z VRB02KT 3000 -RA FEW003 BKN004 BKN016 14/13 Q1016 NOSIG
12-10-20 METAR LFPG 200800Z 01003KT 350V080 2500 BR FEW003 BKN004 BKN066 14/13 Q1017 NOSIG
12-10-20 METAR LFPG 200830Z 34003KT 320V050 3000 -RA BR FEW003 SCT004 BKN062 14/13 Q1017 NOSIG
12-10-20 METAR LFPG 200900Z 03002KT 2500 -RA BR SCT004 SCT030 BKN046 14/13 Q1017
12-10-20 METAR LFPG 200930Z 06003KT 030V090 4000 -RA BR SCT005 BKN027 14/13 Q1017
12-10-20 METAR LFPG 201000Z 05005KT 6000 SCT004 BKN030 14/13 Q1018 RERA NOSIG
12-10-20 METAR LFPG 201030Z 02003KT 340V040 9000 -RA SCT004 BKN030 14/13 Q1018
12-10-20 METAR LFPG 201100Z 04003KT 5000 -RA SCT004 BKN017 15/13 Q1017 NOSIG
12-10-20 METAR LFPG 201130Z 04004KT 8000 -RA SCT004 SCT020 BKN056 15/14 Q1017 NOSIG
12-10-20 METAR LFPG 201200Z 06004KT 9999 -RA BKN005 BKN056 15/14 Q1017 NOSIG
12-10-20 METAR LFPG 201230Z 06005KT 9999 BKN005 BKN036 15/14 Q1017 NOSIG
12-10-20 METAR LFPG 201330Z 06005KT 5000 SCT005 BKN014 15/13 Q1017 NOSIG
12-10-20 METAR LFPG 201400Z 05006KT 9999 FEW005 BKN014 BKN040 15/14 Q1016 NOSIG
12-10-20 METAR LFPG 201430Z 05006KT 020V080 9999 FEW005 SCT013 BKN037 15/14 Q1016
12-10-20 METAR LFPG 201500Z 05006KT 020V090 9999 SCT004 BKN020 15/14 Q1016 NOSIG
12-10-20 METAR LFPG 201630Z 01006KT 340V100 8000 BKN014 SCT033 15/14 Q1016 NOSIG
12-10-20 METAR LFPG 201700Z 01007KT 350V060 9000 SCT004 BKN020 15/14 Q1015 NOSIG
12-10-20 METAR LFPG 201730Z 02008KT 9000 SCT003 BKN019 15/14 Q1015 NOSIG
12-10-20 METAR LFPG 201800Z 01008KT 350V080 9000 SCT004 BKN018 15/14 Q1015 NOSIG
12-10-20 METAR LFPG 201830Z 03009KT 010V100 7000 SCT003 BKN004 15/14 Q1015 NOSIG
12-10-20 METAR LFPG 201900Z 02008KT 360V090 4500 BR FEW002 BKN003 15/14 Q1015 NOSIG
12-10-20 METAR LFPG 201930Z 02008KT 4500 BR SCT003 BKN004 14/13 Q1015 NOSIG
12-10-20 METAR LFPG 202000Z 01008KT 4500 -RA BR SCT003 BKN004 14/14 Q1015 NOSIG
12-10-20 METAR LFPG 202030Z 01010KT 330V100 4500 BR SCT003 BKN004 14/14 Q1015 NOSIG
12-10-20 METAR LFPG 202100Z 02011KT 4000 -DZRA BR SCT003 BKN004 14/13 Q1014 NOSIG
12-10-20 METAR LFPG 202130Z 02010KT 4000 BR SCT003 BKN004 14/13 Q1014 NOSIG
12-10-20 METAR LFPG 202200Z 01007KT 4000 BR SCT003 BKN004 14/13 Q1014 NOSIG
12-10-20 METAR LFPG 202230Z 01008KT 4000 BR BKN004 BKN057 14/13 Q1014 NOSIG
12-10-20 METAR LFPG 202300Z 01009KT 3000 -RA BR BKN004 BKN057 14/13 Q1014 NOSIG
12-10-20 METAR LFPG 202330Z 36010KT 340V040 3000 -RA BR BKN003 BKN066 OVC093 14/13 Q1013 NOSIG
12-10-21 METAR LFPG 210000Z 01010KT 2500 -RA BR SCT003 BKN080 OVC093 14/13 Q1014 NOSIG
12-10-21 METAR LFPG 210030Z 01011KT 2000 -RA BR FEW002 BKN003 BKN093 14/13 Q1014
12-10-21 METAR LFPG 210100Z 01009KT 2000 -RA BR FEW002 BKN003 14/13 Q1014 NOSIG
12-10-21 METAR LFPG 210130Z 01011KT 1700 BR FEW001 BKN002 14/13 Q1013 NOSIG
12-10-21 METAR LFPG 210200Z 01012KT 1500 BR SCT001 BKN002 14/13 Q1013 NOSIG
12-10-21 METAR LFPG 210230Z 01011KT 1500 BR SCT001 BKN002 13/13 Q1013 NOSIG
12-10-21 METAR LFPG 210300Z 01011KT 0900 R27L/P2000 R09R/P2000 R26R/P2000 R08L/P2000 13/13 Q1014 NOSIG
12-10-21 METAR LFPG 210330Z 01011KT 0800 R27L/P2000 R09R/1900U R26R/P2000 R08L/P2000 R26L/P2000 R08R/P2000 R27R/1900U R09L/1700U -RADZ BCFG FEW001 BKN002
12-10-21 METAR LFPG 210400Z 02010G21KT 360V120 1300 R27L/P2000 R09R/P2000 R26R/P2000 R08L/P2000 R26L/P2000 R08R/P2000 R27R/P2000 R09L/P2000 -RADZ BR FEW001 BKN002 13/13 Q1013 NOSIG
12-10-21 METAR LFPG 210430Z 02011KT 010V080 0900 R27L/2000D R09R/P2000 R26R/P2000 R08L/P2000 R26L/P2000 R08R/P2000 R27R/2000D R09L/P2000 BCFG FEW001 BKN002 13/12 Q1013 NOSIG
12-10-21 METAR LFPG 210500Z 03010KT 360V120 1100 0600N R27L/1600U R09R/P2000 R26R/P2000 R08L/P2000 R26L/P2000 R08R/P2000 R27R/1200U R09L/1900D BCFG FEW001 BKN002 13/13 Q1013 NOSIG
12-10-21 METAR LFPG 210530Z 03010KT 360V090 1200 0700N R27L/P2000 R09R/P2000 R26R/P2000 R08L/P2000 R26L/P2000 R08R/P2000 R27R/P2000 R09L/1900U BCFG FEW001 OVC002 13/13 Q1013 NOSIG
12-10-21 METAR LFPG 210600Z 03008KT 2000 1200N R27L/P2000 R09R/P2000 R26R/P2000 R08L/P2000 R26L/P2000 R08R/P2000 R27R/P2000 R09L/P2000 BR SCT002
12-10-21 METAR LFPG 210630Z 04010KT 350V090 2000 1200N R27L/P2000 R09R/P2000 R26R/P2000 R08L/P2000 R26L/P2000 R08R/P2000 R27R/P2000 R09L/P2000 BR SCT002 OVC002 13/13 Q1013 NOSIG
12-10-21 METAR LFPG 210700Z 04008KT 020V080 1800 0900NE R27L/0800V1100N R09R/P2000 R26R/P2000 R08L/P2000 R26L/P2000 R08R/P2000 R27R/1100V1600D R09L/1800D BCFG SCT001 OVC002 13/13 Q1013 BECMG 3000 SCT002 OVC003
12-10-21 METAR LFPG 210730Z 04008KT 020V120 1200 0600N R27L/1100D R09R/1300V1800D R26R/P2000 R08L/P2000 R26L/P2000 R08R/P2000 R27R/1300N R09L/1000U BCFG SCT000 OVC002 13/13 Q1013 BECMG 2000 SCT002 OVC003
12-10-21 METAR LFPG 210800Z 05008KT 020V080 1200 0600N R27L/1300VP2000U R09R/P2000 R26R/P2000 R08L/P2000 R26L/P2000 R08R/P2000 R27R/1200U R09L/1900N BCFG BKN002 OVC003 14/13 Q1014 BECMG 2000 SCT002 OVC003
12-10-21 METAR LFPG 210830Z 05007KT 010V080 2000 BR BKN002 BKN003 14/14 Q1014 BECMG 3000 SCT002 OVC004
12-10-21 METAR LFPG 210900Z 04006KT 3000 BR SCT003 BKN005 BKN050 14/14 Q1014 BECMG 8000 SCT010 BKN050
12-10-21 METAR LFPG 210930Z 04005KT 360V080 6000 SCT005 BKN050 BKN080 16/15 Q1014
12-10-21 METAR LFPG 211000Z 04004KT 010V090 7000 FEW005 BKN050 17/16 Q1014 NOSIG
12-10-21 METAR LFPG 211030Z 05004KT 9999 FEW006 BKN060 18/16 Q1014 NOSIG
12-10-21 METAR LFPG 211100Z 04004KT 010V070 9999 FEW006 SCT060 19/16 Q1014 NOSIG
12-10-21 METAR LFPG 211130Z 03003KT 360V070 CAVOK 19/15 Q1013 NOSIG
12-10-21 METAR LFPG 211200Z 05004KT 020V090 CAVOK 20/16 Q1014 NOSIG
12-10-21 METAR LFPG 211230Z 07004KT 010V100 CAVOK 21/16 Q1013 NOSIG
12-10-21 METAR LFPG 211300Z 03003KT 350V100 CAVOK 21/16 Q1013 NOSIG
12-10-21 METAR LFPG 211330Z 10005KT 050V140 CAVOK 22/16 Q1013 NOSIG
12-10-21 METAR LFPG 211400Z 08004KT 040V110 CAVOK 23/15 Q1013 NOSIG
12-10-21 METAR LFPG 211430Z 08005KT 050V120 CAVOK 23/16 Q1013 NOSIG
12-10-21 METAR LFPG 211500Z 08006KT 030V110 CAVOK 23/16 Q1013 NOSIG
12-10-21 METAR LFPG 211530Z 11006KT CAVOK 22/15 Q1014 NOSIG
12-10-21 METAR LFPG 211600Z 09004KT CAVOK 22/16 Q1014 NOSIG
12-10-21 METAR LFPG 211630Z 09005KT CAVOK 22/16 Q1014 NOSIG
12-10-21 METAR LFPG 211700Z 07004KT CAVOK 21/16 Q1014 NOSIG
12-10-21 METAR LFPG 211730Z 06007KT CAVOK 20/16 Q1014 NOSIG
12-10-21 METAR LFPG 211800Z 05006KT CAVOK 19/15 Q1014 NOSIG
12-10-21 METAR LFPG 211830Z 06006KT CAVOK 19/16 Q1015 NOSIG
12-10-21 METAR LFPG 211900Z 06006KT CAVOK 19/16 Q1015 NOSIG
12-10-21 METAR LFPG 211930Z 07006KT CAVOK 18/15 Q1015 NOSIG
12-10-21 METAR LFPG 212000Z 07006KT CAVOK 18/16 Q1015 NOSIG
12-10-21 METAR LFPG 212030Z 08006KT CAVOK 18/15 Q1015 NOSIG
12-10-21 METAR LFPG 212100Z 09007KT CAVOK 18/15 Q1015 NOSIG
12-10-21 METAR LFPG 212130Z 09007KT CAVOK 18/15 Q1015 NOSIG
12-10-21 METAR LFPG 212200Z 09008KT CAVOK 18/15 Q1015 NOSIG
12-10-21 METAR LFPG 212230Z 10007KT CAVOK 18/15 Q1015 NOSIG
12-10-21 METAR LFPG 212300Z 10006KT CAVOK 18/15 Q1015 NOSIG
12-10-21 METAR LFPG 212330Z 10007KT CAVOK 18/15 Q1015 NOSIG
12-10-22 METAR LFPG 220000Z 12004KT CAVOK 18/14 Q1015 NOSIG
12-10-22 METAR LFPG 220030Z 13006KT CAVOK 18/14 Q1016 NOSIG
12-10-22 METAR LFPG 220100Z 13005KT CAVOK 17/14 Q1016 NOSIG
12-10-22 METAR LFPG 220130Z VRB01KT CAVOK 17/14 Q1016 NOSIG
12-10-22 METAR LFPG 220200Z 08003KT CAVOK 15/12 Q1016 NOSIG
12-10-22 METAR LFPG 220230Z 11005KT CAVOK 16/14 Q1016 NOSIG
12-10-22 METAR LFPG 220300Z 10006KT CAVOK 15/13 Q1016 NOSIG
12-10-22 METAR LFPG 220330Z 11006KT CAVOK 16/14 Q1016 NOSIG
12-10-22 METAR LFPG 220400Z 11004KT CAVOK 15/13 Q1016 NOSIG
12-10-22 METAR LFPG 220430Z 11005KT CAVOK 15/13 Q1017 NOSIG
12-10-22 METAR LFPG 220500Z 13005KT CAVOK 15/13 Q1017 NOSIG
12-10-22 METAR LFPG 220530Z 13005KT 100V160 CAVOK 15/13 Q1017 NOSIG
12-10-22 METAR LFPG 220600Z 11007KT CAVOK 15/13 Q1017 NOSIG
12-10-22 METAR LFPG 220630Z 14004KT 060V170 CAVOK 15/13 Q1018 NOSIG
12-10-22 METAR LFPG 220700Z 12004KT CAVOK 15/13 Q1018 NOSIG
12-10-22 METAR LFPG 220730Z 11002KT CAVOK 16/14 Q1018 NOSIG
12-10-22 METAR LFPG 220800Z 15002KT CAVOK 17/14 Q1018 NOSIG
12-10-22 METAR LFPG 220830Z 16004KT CAVOK 18/14 Q1019 NOSIG
12-10-22 METAR LFPG 220900Z 18003KT CAVOK 19/14 Q1019 NOSIG
12-10-22 METAR LFPG 220930Z 21004KT CAVOK 19/14 Q1019 NOSIG
12-10-22 METAR LFPG 221000Z VRB05KT CAVOK 20/14 Q1019 NOSIG
12-10-22 METAR LFPG 221030Z VRB04KT CAVOK 22/14 Q1019 NOSIG
12-10-22 METAR LFPG 221100Z 24003KT 190V290 CAVOK 22/15 Q1019 NOSIG
12-10-22 METAR LFPG 221130Z VRB03KT CAVOK 23/15 Q1019 NOSIG
12-10-22 METAR LFPG 221200Z VRB03KT CAVOK 23/14 Q1018 NOSIG
12-10-22 METAR LFPG 221230Z VRB02KT CAVOK 23/15 Q1018 NOSIG
12-10-22 METAR LFPG 221300Z 30004KT 260V350 CAVOK 24/15 Q1019 NOSIG
12-10-22 METAR LFPG 221330Z 32003KT 270V360 CAVOK 24/15 Q1019 NOSIG
12-10-22 METAR LFPG 221400Z VRB03KT CAVOK 24/15 Q1019 NOSIG
12-10-22 METAR LFPG 221430Z VRB03KT CAVOK 24/15 Q1019 NOSIG
12-10-22 METAR LFPG 221500Z VRB03KT CAVOK 23/14 Q1019 NOSIG
12-10-22 METAR LFPG 221530Z VRB04KT CAVOK 23/15 Q1019 NOSIG
12-10-22 METAR LFPG 221600Z VRB03KT CAVOK 23/14 Q1019 NOSIG
12-10-22 METAR LFPG 221630Z VRB03KT CAVOK 21/15 Q1019 NOSIG
12-10-22 METAR LFPG 221700Z 05003KT CAVOK 20/15 Q1019 NOSIG
12-10-22 METAR LFPG 221730Z 05004KT 010V090 CAVOK 20/15 Q1020 NOSIG
12-10-22 METAR LFPG 221800Z 04003KT 010V090 CAVOK 19/15 Q1020 NOSIG
12-10-22 METAR LFPG 221830Z VRB02KT CAVOK 19/15 Q1020 NOSIG
12-10-22 METAR LFPG 221900Z 33003KT CAVOK 18/15 Q1020 NOSIG
12-10-22 METAR LFPG 221930Z VRB03KT CAVOK 18/15 Q1020 NOSIG
12-10-22 METAR LFPG 222000Z VRB03KT CAVOK 18/15 Q1020 NOSIG
12-10-22 METAR LFPG 222030Z VRB01KT CAVOK 17/15 Q1021 NOSIG
12-10-22 METAR LFPG 222100Z 32003KT CAVOK 17/15 Q1021 NOSIG
12-10-22 METAR LFPG 222130Z VRB04KT CAVOK 16/15 Q1021 NOSIG
12-10-22 METAR LFPG 222200Z VRB04G14KT 8000 NSC 16/15 Q1021 NOSIG
12-10-22 METAR LFPG 222230Z 36003KT 300V080 4000 R09R/1000VP2000D VCFG BR SCT013 16/15 Q1021 NOSIG
12-10-22 METAR LFPG 222300Z VRB01KT 6000 1200N R27L/1200VP2000D R09R/0450V0800D R26R/P2000 R08L/P2000 R26L/P2000 R08R/P2000 R27R/0650D R09L/0750D VCFG BR SCT009 16/15 Q1021 NOSIG
12-10-22 METAR LFPG 222330Z 34002KT 2000 0500N R27L/1100D R09R/0750N R26R/P2000 R08L/P2000 R26L/P2000 R08R/P2000 R27R/0500D R09L/0450V0550N BCFG BR SCT006 16/15 Q1021 NOSIG
12-10-23 METAR LFPG 230000Z VRB03KT 0300 R27L///// R09R/0375V0650D R26R/P2000 R08L/1000VP2000N R26L/P2000 R08R/P2000 R27R/0375V0550U R09L/0350V0500N FG SCT000 15/14 Q1021 NOSIG
12-10-23 METAR LFPG 230030Z VRB02KT 0200 R27L/0500N R09R/0400N R26R/0900V1900U R08L/0400V1100D R26L/0500D R08R/0450D R27R/0375N R09L/0400N FG VV/// 15/14 Q1021 NOSIG
12-10-23 METAR LFPG 230100Z 30003KT 0250 R27L/0500N R09R/0550D R26R/0400V0800D R08L/0450D R26L/0375N R08R/0550D R27R/0300V0550U R09L/0400N FG VV///
12-10-23 METAR LFPG 230130Z 34004KT 320V040 0150 R27L/0500N R09R/0400N R26R/0375V0500N R08L/0350N R26L/0375N R08R/0600N R27R/0400N R09L/0300N FG VV/// 15/14 Q1021 NOSIG
12-10-23 METAR LFPG 230200Z 34005KT 0150 R27L/0500D R09R/0400V0550N R26R/1100U R08L/0700U R26L/0750U R08R/0600N R27R/0500N R09L/0350N FG VV/// 15/14
12-10-23 METAR LFPG 230230Z 33003KT 0200 R27L/0600N R09R/0600N R26R/1100V1600U R08L/0650D R26L/0800V1000U R08R/1300N R27R/0600N R09L/0450N FG VV/// 14/14 Q1021 NOSIG
12-10-23 METAR LFPG 230300Z 33006KT 0200 R27L/0500N R09R/0600N R26R/0600N R08L/0450D R26L/0375N R08R/0500V0700D R27R/0400N R09L/0400V0500N FG VV/// 15/14
12-10-23 METAR LFPG 230330Z 34006KT 320V020 0200 R27L/0600N R09R/0700N R26R/0550N R08L/0550V1300U R26L/0450V0700N R08R/0800U R27R/0500N R09L/0500N FG VV/// 15/14 Q1021 NOSIG
12-10-23 METAR LFPG 230400Z 33004KT 310V010 0150 R27L/0600U R09R/0650D R26R/0650D R08L/0550N R26L/0550V1000N R08R/0900U R27R/0550N R09L/0400N FG VV///
12-10-23 METAR LFPG 230430Z 35005KT 330V050 0150 R27L/0700N R09R/0600N R26R/0700D R08L/0900U R26L/0700V1200D R08R/0750N R27R/0600N R09L/0450V0600N FG VV/// 14/13 Q1021 NOSIG
12-10-23 METAR LFPG 230500Z VRB05KT 0150 R27L/0500N R09R/0550N R26R/0750N R08L/0550D R26L/0600V0800N R08R/0650N R27R/0450N R09L/0375N FG VV/// 13/13 Q1021
12-10-23 METAR LFPG 230530Z 35004KT 310V030 0150 R27L/0400N R09R/0550N R26R/0800N R08L/0650U R26L/0700N R08R/0750N R27R/0400N R09L/0400V0500N FG VV/// 13/12 Q1021 NOSIG
12-10-23 METAR LFPG 230600Z 02005KT 360V070 0200 R27L/0400V0500N R09R/0500N R26R/0750N R08L/0450D R26L/0750D R08R/0900U R27R/0400N R09L/0375N FG VV/// 13/12 Q1021 NOSIG
12-10-23 METAR LFPG 230630Z 36003KT 310V040 0200 R27L/0400V0550N R09R/0450V0550N R26R/0650N R08L/0500V0800N R26L/0400V0550N R08R/0600V1000D R27R/0375N R09L/0375N FG VV/// 13/12 Q1021 NOSIG
12-10-23 METAR LFPG 230700Z 36004KT 330V080 0150 R27L/0400N R09R/0450V0550N R26R/0800U R08L/0550D R26L/0600U R08R/1200U R27R/0375N R09L/0325N FG VV/// 13/12 Q1022 NOSIG
12-10-23 METAR LFPG 230730Z 03005KT 360V100 0200 R27L/0550D R09R/0600N R26R/0800U R08L/0750D R26L/0550N R08R/0650N R27R/0500D R09L/0400V0500N FG VV/// 13/12 Q1022 NOSIG
12-10-23 METAR LFPG 230800Z 03005KT 330V090 0400 R27L/0600V0750N R09R/0650V0800N R26R/0900V1400U R08L/1400VP2000D R26L/0800V1400U R08R/1000V1500D R27R/0750N R09L/0900U FG BKN000 13/12 Q1022 NOSIG
12-10-23 METAR LFPG 230830Z 02003KT 320V070 0900 R27L/1700U R09R/1300VP2000N R26R/1300VP2000U R08L/P2000 R26L/1000VP2000U R08R/P2000 R27R/1900D R09L/1000VP2000U FG BKN001 BKN003 13/12 Q1022 NOSIG
12-10-23 METAR LFPG 230900Z 03004KT 350V070 3500 BR BKN003 13/12 Q1022 NOSIG
12-10-23 METAR LFPG 230930Z VRB03KT 5000 BR SCT004 BKN190 13/13 Q1022 NOSIG
12-10-23 METAR LFPG 231000Z 01005KT 340V040 7000 FEW005 SCT170 14/13 Q1022 NOSIG
12-10-23 METAR LFPG 231030Z 02006KT 8000 FEW006 15/14 Q1022 NOSIG
12-10-23 METAR LFPG 231100Z 03004KT 340V090 9999 FEW010 16/13 Q1022 NOSIG
12-10-23 METAR LFPG 231130Z VRB02KT CAVOK 17/12 Q1021 NOSIG
12-10-23 METAR LFPG 231200Z VRB03KT CAVOK 18/12 Q1021 NOSIG
12-10-23 METAR LFPG 231230Z 36004KT 290V040 CAVOK 19/12 Q1021 NOSIG
12-10-23 METAR LFPG 231300Z 31006KT 270V350 CAVOK 19/13 Q1021 NOSIG
12-10-23 METAR LFPG 231330Z 33005KT 270V020 CAVOK 19/13 Q1021 NOSIG
12-10-23 METAR LFPG 231400Z 04008KT CAVOK 20/12 Q1021 NOSIG
12-10-23 METAR LFPG 231430Z 02008KT CAVOK 19/12 Q1020 NOSIG
12-10-23 METAR LFPG 231500Z 03007KT 360V080 CAVOK 19/12 Q1020 NOSIG
12-10-23 METAR LFPG 231530Z 03007KT 360V070 CAVOK 19/13 Q1020 NOSIG
12-10-23 METAR LFPG 231600Z 03005KT 010V110 CAVOK 19/12 Q1020 NOSIG
12-10-23 METAR LFPG 231630Z 08006KT CAVOK 18/11 Q1020 NOSIG
12-10-23 METAR LFPG 231700Z 08005KT CAVOK 18/11 Q1020 NOSIG
12-10-23 METAR LFPG 231730Z 05005KT CAVOK 17/11 Q1020 NOSIG
12-10-23 METAR LFPG 231800Z 07008KT CAVOK 16/11 Q1020 NOSIG
12-10-23 METAR LFPG 231830Z 08006KT CAVOK 15/10 Q1021 NOSIG
12-10-23 METAR LFPG 231900Z 09007KT CAVOK 15/11 Q1021 NOSIG
12-10-23 METAR LFPG 231930Z 14005KT 100V160 9000 NSC 14/10 Q1021 NOSIG
12-10-23 METAR LFPG 232000Z 15005KT 100V160 8000 NSC 14/10 Q1021 NOSIG
12-10-23 METAR LFPG 232030Z 16003KT 7000 NSC 14/10 Q1021 BECMG 4000 BR
12-10-23 METAR LFPG 232100Z 14003KT 6000 NSC 13/09 Q1021 BECMG 4500 BR
12-10-23 METAR LFPG 232130Z 00000KT 6000 NSC 12/09 Q1021 BECMG 4500 BR
12-10-23 METAR LFPG 232200Z 03002KT 4500 BR NSC 12/09 Q1021
12-10-23 METAR LFPG 232230Z VRB03KT 4000 BR NSC 11/09 Q1020
12-10-23 METAR LFPG 232300Z 04004KT 4000 0800NO R27L/P2000 R09R/P2000 R26R/P2000 R08L/P2000 R26L/P2000 R08R/P2000 R27R/P2000 R09L/1800N BCFG NSC 11/09 Q1020
12-10-23 METAR LFPG 232330Z 05005KT 3000 BR NSC 10/08 Q1020
12-10-24 METAR LFPG 240000Z 05006KT 3000 BR NSC 10/09 Q1020
12-10-24 METAR LFPG 240030Z 05006KT 2500 R26L/1000VP2000D BR NSC 10/09 Q1020
12-10-24 METAR LFPG 240100Z 04006KT 2500 BR NSC 10/09 Q1020 NOSIG
12-10-24 METAR LFPG 240130Z 07006KT 3000 BR NSC 10/09 Q1019 NOSIG
12-10-24 METAR LFPG 240200Z 07006KT 3000 BR NSC 10/08 Q1019 NOSIG
12-10-24 METAR LFPG 240230Z 07005KT 3000 BR NSC 10/08 Q1019 NOSIG
12-10-24 METAR LFPG 240300Z 08005KT 3000 BR NSC 09/08 Q1019 NOSIG
12-10-24 METAR LFPG 240330Z 07005KT 3000 BR NSC 09/07 Q1019 NOSIG
12-10-24 METAR LFPG 240400Z 10008KT 3000 BR BKN006 09/07 Q1019 NOSIG
12-10-24 METAR LFPG 240430Z 10010KT 2500 BR BKN006 09/07 Q1019 NOSIG
12-10-24 METAR LFPG 240500Z 09010KT 2500 BR OVC006 09/07 Q1019 NOSIG
12-10-24 METAR LFPG 240530Z 09008KT 2500 BR OVC004 09/07 Q1019 NOSIG
12-10-24 METAR LFPG 240600Z 09010KT 2500 BR OVC004 09/07 Q1018 NOSIG
12-10-24 METAR LFPG 240630Z 10008KT 2500 BR OVC004 09/07 Q1019 NOSIG
12-10-24 METAR LFPG 240700Z 08008KT 1500 BR OVC003 09/08 Q1018 NOSIG
12-10-24 METAR LFPG 240730Z 09008KT 2000 BR OVC003 09/08 Q1019 NOSIG
12-10-24 METAR LFPG 240800Z 09008KT 2000 BR OVC004 09/08 Q1019 NOSIG
12-10-24 METAR LFPG 240830Z 08009KT 2500 BR OVC004 09/08 Q1019 NOSIG
12-10-24 METAR LFPG 240900Z 09009KT 4000 BR OVC004 10/08 Q1019 NOSIG
12-10-24 METAR LFPG 240930Z 10009KT 5000 BR OVC005 10/09 Q1019 NOSIG
12-10-24 METAR LFPG 241000Z 11009KT 5000 BR OVC006 10/08 Q1019 NOSIG
12-10-24 METAR LFPG 241030Z 11009KT 5000 BR OVC006 10/08 Q1019 NOSIG
12-10-24 METAR LFPG 241100Z 09009KT 7000 OVC008 10/08 Q1019 NOSIG
12-10-24 METAR LFPG 241130Z 10007KT 060V140 8000 OVC008 11/08 Q1018 NOSIG
12-10-24 METAR LFPG 241200Z 08008KT 8000 OVC009 11/08 Q1018 NOSIG
12-10-24 METAR LFPG 241230Z 09008KT 060V120 8000 OVC010 11/08 Q1018 NOSIG
12-10-24 METAR LFPG 241300Z 09008KT 8000 OVC010 11/08 Q1018 NOSIG
12-10-24 METAR LFPG 241330Z 08008KT 9000 BKN011 11/08 Q1017 NOSIG
12-10-24 METAR LFPG 241400Z 07008KT 9000 BKN011 11/08 Q1017 NOSIG
12-10-24 METAR LFPG 241430Z 09010KT 9000 BKN012 11/08 Q1017 NOSIG
12-10-24 METAR LFPG 241500Z 07010KT 040V100 9000 BKN012 11/08 Q1017 NOSIG
12-10-24 METAR LFPG 241530Z 09008KT 9999 BKN013 11/08 Q1017 NOSIG
12-10-24 METAR LFPG 241600Z 09008KT 9999 FEW013 11/08 Q1017 NOSIG
12-10-24 METAR LFPG 241630Z 07005KT 9000 FEW013 11/08 Q1016 NOSIG
12-10-24 METAR LFPG 241700Z 10005KT 8000 NSC 11/08 Q1017 NOSIG
12-10-24 METAR LFPG 241730Z 09004KT 8000 NSC 10/07 Q1017 NOSIG
12-10-24 METAR LFPG 241800Z 09004KT 8000 NSC 10/08 Q1017 NOSIG
12-10-24 METAR LFPG 241830Z VRB02KT 7000 NSC 10/07 Q1016 NOSIG
12-10-24 METAR LFPG 241900Z 15003KT 090V190 7000 NSC 09/07 Q1016 NOSIG
12-10-24 METAR LFPG 241930Z 00000KT 6000 NSC 09/07 Q1017 NOSIG
12-10-24 METAR LFPG 242000Z VRB01KT 5000 NSC 09/07 Q1017 NOSIG
12-10-24 METAR LFPG 242030Z 03003KT 3000 NSC 09/07 Q1016 NOSIG
12-10-24 METAR LFPG 242100Z 03004KT 3000 NSC 08/07 Q1016 NOSIG
12-10-24 METAR LFPG 242130Z 04006KT 3000 NSC 08/06 Q1016 NOSIG
12-10-24 METAR LFPG 242200Z 06005KT 3000 NSC 09/08 Q1016 NOSIG
12-10-24 METAR LFPG 242230Z 04008KT 3000 NSC 08/07 Q1016 NOSIG
12-10-24 METAR LFPG 242300Z 08005KT 3000 NSC 09/08 Q1016 NOSIG
12-10-24 METAR LFPG 242330Z 08004KT 3000 NSC 09/07 Q1016 NOSIG
12-10-25 METAR LFPG 250000Z 06005KT 3000 NSC 09/08 Q1015 NOSIG
12-10-25 METAR LFPG 250030Z 05004KT 3000 NSC 08/07 Q1015 NOSIG
12-10-25 METAR LFPG 250100Z 06004KT 3000 NSC 08/07 Q1015 NOSIG
12-10-25 METAR LFPG 250130Z 06007KT 3000 NSC 08/06 Q1015 NOSIG
12-10-25 METAR LFPG 250200Z 06008KT 3000 NSC 07/06 Q1015 NOSIG
12-10-25 METAR LFPG 250230Z 05007KT 3000 NSC 08/07 Q1014 NOSIG
12-10-25 METAR LFPG 250300Z 09006KT 3000 NSC 08/07 Q1014 NOSIG
12-10-25 METAR LFPG 250330Z 05006KT 3000 NSC 07/06 Q1014 NOSIG
12-10-25 METAR LFPG 250400Z 06007KT 3000 NSC 07/06 Q1014 NOSIG
12-10-25 METAR LFPG 250430Z 07007KT 3000 NSC 08/07 Q1014 NOSIG
12-10-25 METAR LFPG 250600Z 05010KT 020V080 3500 BR NSC 08/07 Q1014 NOSIG
12-10-25 METAR LFPG 250630Z 05010KT 3500 BR NSC 08/07 Q1014 NOSIG
12-10-25 METAR LFPG 250700Z 06009KT 3700 BR NSC 08/07 Q1014 NOSIG
12-10-25 METAR LFPG 250730Z 07005KT 3700 BR NSC 09/07 Q1014 NOSIG
12-10-25 METAR LFPG 250800Z 09007KT 4000 BR NSC 10/08 Q1014 NOSIG
12-10-25 METAR LFPG 250830Z 06006KT 4700 BR NSC 11/08 Q1014 NOSIG
12-10-25 METAR LFPG 250930Z 09010KT 6000 NSC 12/08 Q1014 NOSIG
12-10-25 METAR LFPG 251000Z 08009KT 7000 NSC 13/08 Q1013 NOSIG
12-10-25 METAR LFPG 251030Z 08009KT 7000 NSC 13/09 Q1013 NOSIG
12-10-25 METAR LFPG 251100Z 07010KT 7000 NSC 14/09 Q1013 NOSIG
12-10-25 METAR LFPG 251130Z 08009KT 8000 NSC 15/09 Q1013 NOSIG
12-10-25 METAR LFPG 251200Z 06010KT 9000 NSC 15/09 Q1012 NOSIG
12-10-25 METAR LFPG 251230Z 07010KT 9000 NSC 16/10 Q1012 NOSIG
12-10-25 METAR LFPG 251300Z 08008KT 050V110 9000 NSC 17/09 Q1012 NOSIG
12-10-25 METAR LFPG 251330Z 08008KT CAVOK 17/10 Q1011 NOSIG
12-10-25 METAR LFPG 251400Z 07007KT CAVOK 17/10 Q1011 NOSIG
12-10-25 METAR LFPG 251430Z 07008KT CAVOK 17/09 Q1011 NOSIG
12-10-25 METAR LFPG 251500Z 07008KT CAVOK 17/09 Q1011 NOSIG
12-10-25 METAR LFPG 251530Z 11007KT 050V140 CAVOK 16/10 Q1011 NOSIG
12-10-25 METAR LFPG 251600Z 12007KT 8000 NSC 15/10 Q1011 NOSIG
12-10-25 METAR LFPG 251630Z 13008KT 8000 NSC 14/09 Q1011 NOSIG
12-10-25 METAR LFPG 251700Z 13007KT 7000 NSC 13/09 Q1011 NOSIG
12-10-25 METAR LFPG 251730Z 10006KT 6000 NSC 12/09 Q1011 NOSIG
12-10-25 METAR LFPG 251800Z 11003KT 070V140 5000 BR NSC 12/10 Q1011 NOSIG
12-10-25 METAR LFPG 251830Z VRB02KT 5000 BR NSC 12/10 Q1011 NOSIG
12-10-25 METAR LFPG 251900Z 02003KT 3500 BR FEW011 SCT260 11/09 Q1011 NOSIG
12-10-25 METAR LFPG 251930Z 03004KT 010V070 3000 BR FEW011 SCT260 11/09 Q1011 NOSIG
12-10-25 METAR LFPG 252000Z 01006KT 340V100 3000 BR NSC 10/09 Q1010 NOSIG
12-10-25 METAR LFPG 252030Z 01007KT 350V090 3000 BR FEW003 BKN260 10/09 Q1010 NOSIG
12-10-25 METAR LFPG 252100Z 03009KT 0300 R27L/1400V2000D R09R/1300VP2000U R26R/P2000 R08L/P2000 R26L/P2000 R08R/P2000 R27R/1000V1500U R09L/0800V1200U BCFG BKN000 SCT002 11/10 Q1010 NOSIG
12-10-25 METAR LFPG 252130Z 03009KT 010V070 2000 BR BKN002 11/10 Q1010 NOSIG
12-10-25 METAR LFPG 252200Z 03009KT 010V090 2500 BR FEW003 BKN004 11/10 Q1010 NOSIG
12-10-25 METAR LFPG 252230Z 03010KT 010V080 2500 BR BKN004 11/10 Q1010 NOSIG
12-10-25 METAR LFPG 252300Z 04009KT 3000 BR BKN005 12/11 Q1010 NOSIG
12-10-25 METAR LFPG 252330Z 04010KT 4000 BR SCT005 BKN006 12/11 Q1010 NOSIG
12-10-26 METAR LFPG 260000Z 04012KT 4500 BR BKN006 12/10 Q1010 NOSIG
12-10-26 METAR LFPG 260030Z 04011KT 5000 BR BKN008 11/10 Q1010 NOSIG
12-10-26 METAR LFPG 260100Z 03011KT 6000 BKN010 BKN030 11/10 Q1009 NOSIG
12-10-26 METAR LFPG 260130Z 04012KT 7000 BKN010 BKN028 11/10 Q1009 NOSIG
12-10-26 METAR LFPG 260200Z 04014KT 7000 BKN010 BKN025 11/10 Q1009 NOSIG
12-10-26 METAR LFPG 260230Z 05013KT 020V080 9000 BKN010 11/10 Q1008 NOSIG
12-10-26 METAR LFPG 260300Z 05013KT 9999 BKN010 11/09 Q1008 NOSIG
12-10-26 METAR LFPG 260330Z 05012KT 9999 BKN011 11/09 Q1008 NOSIG
12-10-26 METAR LFPG 260400Z 05013KT 9999 OVC010 11/09 Q1008 NOSIG
12-10-26 METAR LFPG 260430Z 06014KT 9999 OVC011 11/09 Q1008 NOSIG
12-10-26 METAR LFPG 260500Z 05014KT 9999 OVC011 11/09 Q1007 NOSIG
12-10-26 METAR LFPG 260530Z 05014KT 9999 OVC011 11/09 Q1007 NOSIG
12-10-26 METAR LFPG 260600Z 05013KT 9999 OVC011 11/08 Q1007 NOSIG
12-10-26 METAR LFPG 260630Z 05013KT 9999 OVC012 11/08 Q1007 NOSIG
12-10-26 METAR LFPG 260700Z 05013KT 9999 OVC012 11/08 Q1007 NOSIG
12-10-26 METAR LFPG 260730Z 06014KT 9000 OVC013 11/08 Q1007 NOSIG
12-10-26 METAR LFPG 260800Z 06014KT 9000 OVC013 11/07 Q1006 NOSIG
12-10-26 METAR LFPG 260830Z 06016KT 8000 OVC013 10/07 Q1006 NOSIG
12-10-26 METAR LFPG 260900Z 06013KT 8000 OVC012 10/08 Q1006 NOSIG
12-10-26 METAR LFPG 260930Z 05014KT 8000 OVC012 11/08 Q1006 NOSIG
12-10-26 METAR LFPG 261100Z 04015KT 8000 OVC013 11/08 Q1005 NOSIG
12-10-26 METAR LFPG 261130Z 05015KT 9000 OVC013 11/08 Q1004 NOSIG
12-10-26 METAR LFPG 261200Z 04012KT 9999 OVC013 11/08 Q1004 NOSIG
12-10-26 METAR LFPG 261230Z 04013KT 010V080 9999 OVC013 11/08 Q1003 NOSIG
12-10-26 METAR LFPG 261300Z 03014KT 010V070 9000 SCT012 BKN013 10/07 Q1003 NOSIG
12-10-26 METAR LFPG 261430Z 03013KT 010V080 9999 BKN010 09/07 Q1003 NOSIG
12-10-26 METAR LFPG 261600Z 02014KT 360V070 5000 SCT006 BKN008 08/07 Q1002 NOSIG
12-10-26 METAR LFPG 261630Z 02016KT 360V060 8000 SCT008 BKN010 08/06 Q1002 NOSIG
12-10-26 METAR LFPG 261700Z 02017KT 9000 SCT008 BKN010 08/06 Q1002 NOSIG
12-10-26 METAR LFPG 261730Z 02016KT 9999 OVC008 07/05 Q1002 NOSIG
12-10-26 METAR LFPG 261800Z 02018G30KT 360V080 9999 OVC008 07/05 Q1002 NOSIG
12-10-26 METAR LFPG 261830Z 02017KT 9999 OVC008 07/04 Q1002 NOSIG
12-10-26 METAR LFPG 261900Z 02017KT 9999 OVC010 06/04 Q1002 NOSIG
12-10-26 METAR LFPG 261930Z 02016KT 9999 BKN011 06/03 Q1002 NOSIG
12-10-26 METAR LFPG 262000Z 02018KT 9999 BKN011 06/03 Q1002 NOSIG
12-10-26 METAR LFPG 262030Z 01018G29KT 350V050 9999 BKN014 BKN033 06/02 Q1002 NOSIG
12-10-26 METAR LFPG 262100Z 01017KT 9999 BKN016 BKN035 05/02 Q1002 NOSIG
12-10-26 METAR LFPG 262130Z 01016KT 9999 -RA BKN016 SCT035 BKN041 05/02 Q1002 NOSIG
12-10-26 METAR LFPG 262200Z 01018KT 9999 BKN016 BKN046 05/02 Q1002 NOSIG
12-10-26 METAR LFPG 262230Z 01018KT 9999 BKN017 SCT041 BKN060 05/01 Q1002 NOSIG
12-10-26 METAR LFPG 262300Z 01017KT 9999 SCT018 SCT051 BKN070 05/01 Q1002 NOSIG
12-10-26 METAR LFPG 262330Z 01016KT 9999 SCT019 BKN140 05/00 Q1002 NOSIG
12-10-27 METAR LFPG 270000Z 01013KT 9999 SCT021 SCT120 BKN140 04/M00 Q1002 NOSIG
12-10-27 METAR LFPG 270030Z 01014KT 9999 FEW021 03/M01 Q1002 NOSIG
12-10-27 METAR LFPG 270100Z 01013KT 9999 FEW021 BKN200 03/M01 Q1002 NOSIG
12-10-27 METAR LFPG 270130Z 36014KT CAVOK 03/M01 Q1003 NOSIG
12-10-27 METAR LFPG 270200Z 36012KT 340V040 CAVOK 02/M01 Q1002 NOSIG
12-10-27 METAR LFPG 270230Z 36013KT CAVOK 02/M01 Q1003 NOSIG
12-10-27 METAR LFPG 270300Z 36014KT 340V060 CAVOK 02/M01 Q1003 NOSIG
12-10-27 METAR LFPG 270330Z 36013KT 340V050 CAVOK 02/M02 Q1003 NOSIG
12-10-27 METAR LFPG 270400Z 36014G24KT 340V070 CAVOK 02/M03 Q1003 NOSIG
12-10-27 METAR LFPG 270430Z 35014KT CAVOK 01/M03 Q1004 NOSIG
12-10-27 METAR LFPG 270500Z 35011KT 330V040 CAVOK 01/M03 Q1004 NOSIG
12-10-27 METAR LFPG 270530Z 35011KT CAVOK 01/M04 Q1004 NOSIG
12-10-27 METAR LFPG 270600Z 36009KT 340V040 CAVOK 01/M03 Q1004 NOSIG
12-10-27 METAR LFPG 270630Z 36009KT 340V050 CAVOK 01/M03 Q1005 NOSIG
12-10-27 METAR LFPG 270700Z 35009KT 340V040 CAVOK 01/M02 Q1006 NOSIG
12-10-27 METAR LFPG 270730Z 36010KT 330V050 CAVOK 02/M01 Q1007 NOSIG
12-10-27 METAR LFPG 270800Z 01012KT 9999 FEW021 03/M01 Q1007 NOSIG
12-10-27 METAR LFPG 270830Z 35014KT 340V050 9999 SCT017 04/M00 Q1007 NOSIG
12-10-27 METAR LFPG 270900Z 36014KT 340V040 9999 SCT017 04/M00 Q1008 NOSIG
12-10-27 METAR LFPG 270930Z 36017KT 340V050 9999 BKN016 05/00 Q1008 NOSIG
12-10-27 METAR LFPG 271000Z 36015KT 330V040 9999 BKN017 05/00 Q1008 NOSIG
12-10-27 METAR LFPG 271030Z 36017KT 340V040 9999 SCT021 06/00 Q1009 NOSIG
12-10-27 METAR LFPG 271100Z 01015KT 9999 SCT023 07/00 Q1009 NOSIG
12-10-27 METAR LFPG 271130Z 36017KT 340V050 9999 SCT028 07/M00 Q1009 NOSIG
12-10-27 METAR LFPG 271200Z 35015KT 9999 BKN034 08/M01 Q1009 NOSIG
12-10-27 METAR LFPG 271230Z 34014KT 310V020 9999 BKN036 SCT120 08/M01 Q1009 NOSIG
12-10-27 METAR LFPG 271300Z 34019KT 320V030 9999 -SHRA SCT020 BKN030 BKN074 07/02 Q1009 NOSIG
12-10-27 METAR LFPG 271330Z 33017KT 9999 FEW012 SCT020 BKN078 05/01 Q1010 NOSIG
12-10-27 METAR LFPG 271400Z 33015KT 9999 BKN010 BKN076 04/01 Q1010 NOSIG
12-10-27 METAR LFPG 271430Z 34013KT 9999 SCT013 05/01 Q1010 NOSIG
12-10-27 METAR LFPG 271500Z 33013KT 9999 SCT012 05/01 Q1010 NOSIG
12-10-27 METAR LFPG 271530Z 35012KT 320V040 9999 FEW015 BKN020 05/01 Q1011 NOSIG
12-10-27 METAR LFPG 271600Z 36014KT 340V050 9999 BKN020 05/01 Q1011 NOSIG
12-10-27 METAR LFPG 271630Z 36015KT 340V040 9999 FEW019 SCT026 05/00 Q1012 NOSIG
12-10-27 METAR LFPG 271700Z 35012KT 340V040 9999 FEW020 04/00 Q1012 NOSIG
12-10-27 METAR LFPG 271730Z 34012KT 320V040 9999 FEW020 04/00 Q1013 NOSIG
12-10-27 METAR LFPG 271800Z 34011KT 9999 FEW030 04/00 Q1013 NOSIG
12-10-27 METAR LFPG 271830Z 34012KT 9999 FEW049 03/01 Q1014 NOSIG
12-10-27 METAR LFPG 271900Z 34009KT 9999 FEW049 03/01 Q1014 NOSIG
12-10-27 METAR LFPG 271930Z 34009KT 9999 FEW049 03/01 Q1014 NOSIG
12-10-27 METAR LFPG 272000Z 35009KT 340V050 CAVOK 03/01 Q1015 NOSIG
12-10-27 METAR LFPG 272030Z 35008KT 340V040 CAVOK 02/01 Q1015 NOSIG
12-10-27 METAR LFPG 272100Z 35008KT CAVOK 02/01 Q1015 NOSIG
12-10-27 METAR LFPG 272130Z 34010KT CAVOK 02/01 Q1015 NOSIG
12-10-27 METAR LFPG 272200Z 35010KT CAVOK 02/00 Q1016 NOSIG
12-10-27 METAR LFPG 272230Z 33009KT 9999 FEW040 02/00 Q1016 NOSIG
12-10-27 METAR LFPG 272300Z 34007KT 320V050 9999 FEW040 02/M00 Q1016 NOSIG
12-10-27 METAR LFPG 272330Z 36006KT 340V050 CAVOK 01/M00 Q1016 NOSIG
12-10-28 METAR LFPG 280000Z 36006KT 340V040 CAVOK 01/00 Q1016 NOSIG
12-10-28 METAR LFPG 280030Z 35004KT 330V030 CAVOK 01/M00 Q1016 NOSIG
12-10-28 METAR LFPG 280100Z 35003KT 330V030 CAVOK 01/M00 Q1016 NOSIG
12-10-28 METAR LFPG 280130Z 34005KT CAVOK 01/M00 Q1016 NOSIG
12-10-28 METAR LFPG 280200Z 33005KT CAVOK 00/M01 Q1016 NOSIG
12-10-28 METAR LFPG 280230Z 35005KT 340V040 CAVOK 00/M01 Q1016 NOSIG
12-10-28 METAR LFPG 280300Z 36006KT 340V060 CAVOK 00/M01 Q1016 NOSIG
12-10-28 METAR LFPG 280330Z 35005KT CAVOK 00/M01 Q1016 NOSIG
12-10-28 METAR LFPG 280400Z VRB03KT CAVOK 00/M01 Q1016 NOSIG
12-10-28 METAR LFPG 280430Z 31004KT 280V340 CAVOK 00/M01 Q1016 NOSIG
12-10-28 METAR LFPG 280500Z VRB02KT CAVOK 00/M01 Q1016 NOSIG
12-10-28 METAR LFPG 280530Z 31005KT CAVOK 00/M01 Q1016 NOSIG
12-10-28 METAR LFPG 280600Z 34004KT CAVOK 00/M01 Q1016 NOSIG
12-10-28 METAR LFPG 280630Z 34006KT CAVOK 00/M01 Q1017 NOSIG
12-10-28 METAR LFPG 280700Z 35005KT 340V040 CAVOK 01/M00 Q1017 NOSIG
12-10-28 METAR LFPG 280730Z 34008KT CAVOK 01/M00 Q1017 NOSIG
12-10-28 METAR LFPG 280800Z 36008KT 340V040 CAVOK 02/00 Q1017 NOSIG
12-10-28 METAR LFPG 280830Z 01007KT CAVOK 03/02 Q1018 NOSIG
12-10-28 METAR LFPG 280900Z 01007KT 350V050 CAVOK 04/02 Q1018 NOSIG
12-10-28 METAR LFPG 280930Z 01007KT CAVOK 05/02 Q1018 NOSIG
12-10-28 METAR LFPG 281000Z 02004KT 360V080 9999 FEW016 06/01 Q1018 NOSIG
12-10-28 METAR LFPG 281030Z VRB02KT 9999 FEW022 07/01 Q1018 NOSIG
12-10-28 METAR LFPG 281100Z VRB03KT 9999 FEW016 07/01 Q1018 NOSIG
12-10-28 METAR LFPG 281130Z 36005KT 320V080 9999 FEW016 07/01 Q1017 NOSIG
12-10-28 METAR LFPG 281200Z 01005KT 330V070 9999 FEW024 08/01 Q1017 NOSIG
12-10-28 METAR LFPG 281230Z VRB05KT 9999 FEW024 08/01 Q1017 NOSIG
12-10-28 METAR LFPG 281300Z 34004KT 300V030 9999 FEW024 09/M00 Q1017 NOSIG
12-10-28 METAR LFPG 281330Z 31005KT 270V340 9999 FEW024 SCT260 10/M00 Q1017 NOSIG
12-10-28 METAR LFPG 281400Z 31003KT 260V350 9999 FEW024 10/M01 Q1016 NOSIG
12-10-28 METAR LFPG 281430Z 32004KT 270V010 9999 FEW024 SCT260 10/M01 Q1016 NOSIG
12-10-28 METAR LFPG 281500Z VRB03KT 9999 FEW024 SCT260 10/M01 Q1016 NOSIG
12-10-28 METAR LFPG 281530Z VRB02KT 9999 FEW024 SCT260 09/M00 Q1016 NOSIG
12-10-28 METAR LFPG 281600Z VRB03KT 9999 FEW039 SCT250 09/M01 Q1016 NOSIG
12-10-28 METAR LFPG 281630Z VRB02KT 9999 FEW039 SCT091 08/M01 Q1016 NOSIG
12-10-28 METAR LFPG 281700Z 27003KT CAVOK 07/M00 Q1017 NOSIG
12-10-28 METAR LFPG 281730Z 25004KT CAVOK 07/00 Q1017 NOSIG
12-10-28 METAR LFPG 281800Z 23003KT CAVOK 08/M00 Q1017 NOSIG
12-10-28 METAR LFPG 281830Z 27004KT CAVOK 08/M00 Q1017 NOSIG
12-10-28 METAR LFPG 281900Z 24005KT CAVOK 08/M00 Q1017 NOSIG
12-10-28 METAR LFPG 281930Z 25005KT 9999 BKN048 08/M00 Q1017 NOSIG
12-10-28 METAR LFPG 282000Z 25006KT 9999 BKN046 08/00 Q1017 NOSIG
12-10-28 METAR LFPG 282030Z 24007KT 210V310 9999 BKN035 08/01 Q1017 NOSIG
12-10-28 METAR LFPG 282100Z 23006G17KT 130V280 9999 BKN032 07/01 Q1017 NOSIG
12-10-28 METAR LFPG 282130Z 23007KT 9999 -RA BKN029 07/02 Q1017 NOSIG
12-10-28 METAR LFPG 282200Z 23010KT 9999 -RA SCT022 BKN029 07/03 Q1017 NOSIG
12-10-28 METAR LFPG 282230Z 21008KT 7000 -RA BKN022 BKN033 06/04 Q1017 NOSIG
12-10-28 METAR LFPG 282300Z 19007KT 5000 -RA SCT014 BKN020 06/04 Q1016 NOSIG
12-10-28 METAR LFPG 282330Z 19007KT 4500 -RA SCT008 BKN013 06/05 Q1016 NOSIG
12-10-29 METAR LFPG 290000Z 19008KT 3500 -RA BKN004 06/05 Q1016 NOSIG
12-10-29 METAR LFPG 290030Z 20009KT 2500 -RA BKN003 06/05 Q1016 NOSIG
12-10-29 METAR LFPG 290100Z 19008KT 5000 -RA BKN003 06/05 Q1016 NOSIG
12-10-29 METAR LFPG 290130Z 19008KT 6000 -RA BKN005 BKN043 06/05 Q1016 NOSIG
12-10-29 METAR LFPG 290200Z 19007KT 7000 -RA BKN005 BKN046 06/05 Q1016 NOSIG
12-10-29 METAR LFPG 290230Z 19009KT 8000 -RA BKN006 BKN051 06/05 Q1015 NOSIG
12-10-29 METAR LFPG 290300Z 19009KT 8000 -RA SCT006 SCT032 BKN053 06/05 Q1015 NOSIG
12-10-29 METAR LFPG 290330Z 19010KT 9999 SCT006 BKN040 BKN077 06/05 Q1015 NOSIG
12-10-29 METAR LFPG 290400Z 19009KT 9999 SCT009 BKN033 BKN043 06/05 Q1015 NOSIG
12-10-29 METAR LFPG 290430Z 18009KT 9999 SCT006 BKN037 06/05 Q1015 NOSIG
12-10-29 METAR LFPG 290500Z 19009KT 9999 FEW008 BKN043 06/05 Q1015 NOSIG
12-10-29 METAR LFPG 290530Z 20010KT 9999 BKN042 06/05 Q1015 NOSIG
12-10-29 METAR LFPG 290600Z 19009KT 9999 SCT049 BKN110 06/05 Q1015 NOSIG
12-10-29 METAR LFPG 290630Z 20008KT 9999 FEW006 SCT042 BKN100 06/05 Q1015 NOSIG
12-10-29 METAR LFPG 290700Z 20008KT 9999 FEW006 BKN110 06/05 Q1015 NOSIG
12-10-29 METAR LFPG 290730Z 19008KT 9999 FEW006 SCT044 BKN100 06/05 Q1015 NOSIG
12-10-29 METAR LFPG 290800Z 20007KT 9999 FEW006 BKN100 06/05 Q1015 NOSIG
12-10-29 METAR LFPG 290830Z 19007KT 9999 FEW006 BKN088 07/05 Q1015 NOSIG
12-10-29 METAR LFPG 290900Z 20005KT CAVOK 07/05 Q1015 NOSIG
12-10-29 METAR LFPG 290930Z 20007KT 170V230 CAVOK 07/05 Q1015 NOSIG
12-10-29 METAR LFPG 291000Z 22009KT CAVOK 08/05 Q1015 NOSIG
12-10-29 METAR LFPG 291030Z 22006G20KT 190V330 CAVOK 09/04 Q1015 NOSIG
12-10-29 METAR LFPG 291100Z 22008KT CAVOK 09/04 Q1015 NOSIG
12-10-29 METAR LFPG 291130Z 23009KT 200V260 CAVOK 10/04 Q1014 NOSIG
12-10-29 METAR LFPG 291200Z 23010KT 200V260 CAVOK 10/04 Q1014 NOSIG
12-10-29 METAR LFPG 291230Z 24011KT 210V270 9999 FEW026 BKN061 BKN099 11/04 Q1014 NOSIG
12-10-29 METAR LFPG 291300Z 23010KT 9999 FEW028 BKN069 BKN160 10/03 Q1013 NOSIG
12-10-29 METAR LFPG 291330Z 24010KT 9999 FEW031 BKN071 10/03 Q1013 NOSIG
12-10-29 METAR LFPG 291400Z 21009KT 9999 FEW031 BKN071 BKN100 10/04 Q1013 NOSIG
12-10-29 METAR LFPG 291430Z 21010KT 9999 FEW031 BKN071 BKN100 10/04 Q1013 NOSIG
12-10-29 METAR LFPG 291500Z 22010KT 9999 SCT032 BKN083 BKN100 10/04 Q1013 NOSIG
12-10-29 METAR LFPG 291530Z 22009KT 200V260 9999 SCT030 BKN083 BKN100 10/04 Q1012
12-10-29 METAR LFPG 291600Z 23011KT 9999 SCT030 BKN083 BKN100 10/03 Q1012 NOSIG
12-10-29 METAR LFPG 291630Z 22009KT 9999 FEW030 SCT083 BKN130 10/04 Q1012 NOSIG
12-10-29 METAR LFPG 291700Z 21008KT 9999 FEW030 BKN130 BKN220 10/04 Q1012 NOSIG
12-10-29 METAR LFPG 291730Z 22009KT 9999 FEW029 BKN120 BKN210 10/04 Q1012 NOSIG
12-10-29 METAR LFPG 291800Z 22010KT 9999 FEW029 BKN110 BKN140 10/04 Q1012 NOSIG
12-10-29 METAR LFPG 291830Z 22007KT 9999 BKN046 BKN110 10/04 Q1012 NOSIG
12-10-29 METAR LFPG 291900Z 21007KT 190V280 CAVOK 10/04 Q1012 NOSIG
12-10-29 METAR LFPG 291930Z 20008KT 190V310 CAVOK 09/04 Q1011 NOSIG
12-10-29 METAR LFPG 292000Z 21008KT CAVOK 09/04 Q1011 NOSIG
12-10-29 METAR LFPG 292030Z 21006KT CAVOK 09/04 Q1012 NOSIG
12-10-29 METAR LFPG 292100Z 21009KT CAVOK 09/04 Q1011 NOSIG
12-10-29 METAR LFPG 292130Z 22009KT CAVOK 08/04 Q1011 NOSIG
12-10-29 METAR LFPG 292200Z 21009KT CAVOK 08/04 Q1011 NOSIG
12-10-29 METAR LFPG 292230Z 21010KT CAVOK 08/04 Q1011 NOSIG
12-10-29 METAR LFPG 292300Z 21009KT CAVOK 08/04 Q1010 NOSIG
12-10-29 METAR LFPG 292330Z 22010KT CAVOK 08/03 Q1010 NOSIG
12-10-30 METAR LFPG 300000Z 22009KT CAVOK 07/03 Q1010 NOSIG
12-10-30 METAR LFPG 300030Z 21010KT CAVOK 07/04 Q1010 NOSIG
12-10-30 METAR LFPG 300100Z 21010KT CAVOK 07/04 Q1009 NOSIG
12-10-30 METAR LFPG 300130Z 21007KT CAVOK 07/03 Q1009 NOSIG
12-10-30 METAR LFPG 300200Z 21007KT CAVOK 07/04 Q1009 NOSIG
12-10-30 METAR LFPG 300230Z 21008KT CAVOK 07/04 Q1009 NOSIG
12-10-30 METAR LFPG 300300Z 22008KT CAVOK 06/03 Q1008 NOSIG
12-10-30 METAR LFPG 300330Z 22008KT CAVOK 06/03 Q1008 NOSIG
12-10-30 METAR LFPG 300400Z 21009KT CAVOK 06/03 Q1008 NOSIG
12-10-30 METAR LFPG 300430Z 21008KT CAVOK 05/03 Q1008 NOSIG
12-10-30 METAR LFPG 300500Z 23006KT CAVOK 06/04 Q1007 NOSIG
12-10-30 METAR LFPG 300530Z 22008KT CAVOK 07/04 Q1007 NOSIG
12-10-30 METAR LFPG 300600Z 23009KT 9999 FEW047 BKN057 07/04 Q1007 NOSIG
12-10-30 METAR LFPG 300630Z 22009KT CAVOK 07/04 Q1007 NOSIG
12-10-30 METAR LFPG 300700Z 21008KT CAVOK 07/04 Q1007 NOSIG
12-10-30 METAR LFPG 300730Z 22007KT CAVOK 08/04 Q1007 NOSIG
12-10-30 METAR LFPG 300800Z 22008KT 9999 FEW028 BKN046 08/04 Q1007 NOSIG
12-10-30 METAR LFPG 300830Z 23006KT 7000 -RA FEW028 BKN040 08/04 Q1007 NOSIG
12-10-30 METAR LFPG 300900Z 23007KT 9999 -RA FEW031 BKN040 08/05 Q1007 NOSIG
12-10-30 METAR LFPG 300930Z 23006KT 9999 -RA FEW023 BKN040 09/05 Q1007 NOSIG
12-10-30 METAR LFPG 301000Z 24007KT 210V270 7000 -RA FEW025 BKN041 09/06 Q1007 NOSIG
12-10-30 METAR LFPG 301030Z 24009KT 190V330 9999 -RA SCT021 BKN046 09/05 Q1007
12-10-30 METAR LFPG 301100Z 24008KT 9999 BKN017 BKN043 10/06 Q1007 NOSIG
12-10-30 METAR LFPG 301130Z 24009KT 200V310 9999 BKN018 BKN050 10/06 Q1007 NOSIG
12-10-30 METAR LFPG 301200Z 24007KT 200V280 9999 -RA BKN017 10/06 Q1006 NOSIG
12-10-30 METAR LFPG 301230Z 22008KT 9999 SCT017 BKN053 10/06 Q1006 NOSIG
12-10-30 METAR LFPG 301300Z 24008KT 9999 BKN019 BKN056 11/06 Q1006 NOSIG
12-10-30 METAR LFPG 301330Z 22009KT 9999 SCT020 BKN038 11/06 Q1005 NOSIG
12-10-30 METAR LFPG 301400Z 23008KT 9000 -RA FEW020 BKN038 11/06 Q1005 NOSIG
12-10-30 METAR LFPG 301430Z 23006KT 9999 FEW021 BKN033 11/06 Q1005 NOSIG
12-10-30 METAR LFPG 301500Z 22007KT 9999 -RA FEW031 BKN041 11/07 Q1005 NOSIG
12-10-30 METAR LFPG 301530Z 23006KT 9999 FEW033 BKN040 11/07 Q1005 NOSIG
12-10-30 METAR LFPG 301600Z 23006KT 9999 FEW036 BKN058 11/07 Q1005 NOSIG
12-10-30 METAR LFPG 301630Z 21005KT 9999 -RA FEW035 BKN053 11/07 Q1005 NOSIG
12-10-30 METAR LFPG 301700Z 21007KT 9999 -RA SCT031 BKN055 10/07 Q1004 NOSIG
12-10-30 METAR LFPG 301730Z 19006KT 9999 FEW027 SCT055 10/07 Q1004 NOSIG
12-10-30 METAR LFPG 301800Z 21004KT CAVOK 09/06 Q1004 NOSIG
12-10-30 METAR LFPG 301830Z 24002KT CAVOK 09/06 Q1004 NOSIG
12-10-30 METAR LFPG 301900Z 19002KT 9999 FEW028 SCT062 08/06 Q1004 NOSIG
12-10-30 METAR LFPG 301930Z 20002KT 9999 FEW040 BKN057 09/07 Q1004 NOSIG
12-10-30 METAR LFPG 302000Z VRB04KT 9999 FEW026 SCT040 BKN063 09/07 Q1004 NOSIG
12-10-30 METAR LFPG 302030Z 17005KT 9999 FEW030 SCT036 BKN063 09/07 Q1004 NOSIG
12-10-30 METAR LFPG 302100Z 16004KT 9999 BKN030 BKN058 09/07 Q1004 NOSIG
12-10-30 METAR LFPG 302130Z 17006KT 9999 BKN028 BKN043 BKN055 09/06 Q1004 NOSIG
12-10-30 METAR LFPG 302200Z 19007KT 180V270 9999 SCT028 BKN043 09/06 Q1004 NOSIG
12-10-30 METAR LFPG 302230Z 20006KT 9999 BKN040 09/06 Q1003 NOSIG
12-10-30 METAR LFPG 302300Z 21007KT 9999 BKN038 BKN063 09/05 Q1003 NOSIG
12-10-30 METAR LFPG 302330Z 21007KT 9999 SCT038 BKN063 09/05 Q1003 NOSIG
12-10-31 METAR LFPG 310000Z 21005KT 180V250 CAVOK 09/05 Q1003 NOSIG
12-10-31 METAR LFPG 310030Z 21004KT CAVOK 08/05 Q1002 NOSIG
12-10-31 METAR LFPG 310100Z 19005KT 170V300 9999 FEW046 BKN060 08/04 Q1002 NOSIG
12-10-31 METAR LFPG 310130Z 17006KT 9999 FEW046 BKN055 07/04 Q1002 NOSIG
12-10-31 METAR LFPG 310200Z 18005KT 9999 FEW046 BKN058 07/04 Q1002 NOSIG
12-10-31 METAR LFPG 310230Z 19005KT 150V210 9999 FEW046 BKN058 07/04 Q1001 NOSIG
12-10-31 METAR LFPG 310300Z 17007KT 9999 FEW046 06/03 Q1001 NOSIG
12-10-31 METAR LFPG 310330Z 15008KT 110V170 9999 FEW046 05/03 Q1001 NOSIG
12-10-31 METAR LFPG 310400Z 15007KT CAVOK 04/02 Q1001 NOSIG
12-10-31 METAR LFPG 310430Z 15006KT CAVOK 04/02 Q1001 NOSIG
12-10-31 METAR LFPG 310500Z 14003KT CAVOK 04/02 Q1000 NOSIG
12-10-31 METAR LFPG 310530Z VRB01KT CAVOK 04/02 Q1000 NOSIG
12-10-31 METAR LFPG 310600Z VRB02KT CAVOK 03/01 Q1000 NOSIG
12-10-31 METAR LFPG 310630Z 14003KT CAVOK 03/01 Q1000 NOSIG
12-10-31 METAR LFPG 310700Z 14006KT CAVOK 03/01 Q1000 NOSIG
12-10-31 METAR LFPG 310730Z 14006KT CAVOK 04/01 Q1000 NOSIG
12-10-31 METAR LFPG 310800Z 14006KT CAVOK 04/01 Q1000 NOSIG
12-10-31 METAR LFPG 310830Z 15007KT CAVOK 05/01 Q0999 NOSIG
12-10-31 METAR LFPG 310900Z 16008KT CAVOK 06/01 Q0999 NOSIG
12-10-31 METAR LFPG 310930Z 17006KT CAVOK 07/01 Q0999 NOSIG
12-10-31 METAR LFPG 311000Z 15006KT CAVOK 08/01 Q0999 NOSIG
12-10-31 METAR LFPG 311030Z 14007KT 070V210 CAVOK 09/01 Q0998 NOSIG
12-10-31 METAR LFPG 311100Z 14006KT 080V190 CAVOK 10/01 Q0998 NOSIG
12-10-31 METAR LFPG 311130Z 16007KT 130V190 CAVOK 11/01 Q0997 NOSIG
12-10-31 METAR LFPG 311200Z 16009KT 140V200 CAVOK 11/00 Q0997 NOSIG
12-10-31 METAR LFPG 311230Z 17012KT 120V200 CAVOK 12/02 Q0997 NOSIG
12-10-31 METAR LFPG 311300Z 16010G20KT 100V200 9999 FEW033 SCT260 12/02 Q0996 NOSIG
12-10-31 METAR LFPG 311330Z 18011KT 100V200 9999 FEW033 SCT260 12/02 Q0995 NOSIG
12-10-31 METAR LFPG 311400Z 18012KT 100V210 9999 FEW031 SCT260 13/03 Q0995 NOSIG
12-10-31 METAR LFPG 311430Z 18012KT 9999 FEW031 BKN260 12/04 Q0995 NOSIG
12-10-31 METAR LFPG 311500Z 17012KT 140V200 9999 FEW031 BKN260 12/04 Q0994 NOSIG
12-10-31 METAR LFPG 311530Z 17010KT 9999 FEW031 BKN260 12/05 Q0994 NOSIG
12-10-31 METAR LFPG 311600Z 17008KT 9999 FEW031 BKN260 12/05 Q0993 NOSIG
12-10-31 METAR LFPG 311630Z 19010KT 9999 FEW035 BKN260 11/05 Q0993 NOSIG
12-10-31 METAR LFPG 311700Z 19009KT CAVOK 11/05 Q0993 NOSIG
12-10-31 METAR LFPG 311730Z 19010KT CAVOK 10/05 Q0993 NOSIG
12-10-31 METAR LFPG 311800Z 19009KT CAVOK 10/05 Q0993 NOSIG
12-10-31 METAR LFPG 311830Z 19010KT CAVOK 10/05 Q0993 NOSIG
12-10-31 METAR LFPG 311900Z 18009KT CAVOK 09/05 Q0993 NOSIG
12-10-31 METAR LFPG 311930Z 18007KT 160V310 CAVOK 09/05 Q0992 NOSIG
12-10-31 METAR LFPG 312000Z 16008G20KT 040V190 CAVOK 08/05 Q0992 NOSIG
12-10-31 METAR LFPG 312030Z 16010G21KT 020V180 CAVOK 08/05 Q0992 NOSIG
12-10-31 METAR LFPG 312100Z 16010G20KT 040V200 CAVOK 08/05 Q0991 NOSIG
12-10-31 METAR LFPG 312130Z 17007KT CAVOK 08/05 Q0991 NOSIG
12-10-31 METAR LFPG 312200Z 17008KT 9999 FEW046 BKN240 08/05 Q0991 NOSIG
12-10-31 METAR LFPG 312230Z 17009KT 9999 FEW046 SCT240 08/05 Q0990 NOSIG
12-10-31 METAR LFPG 312300Z 17009KT 100V190 9999 SCT045 08/05 Q0990 NOSIG
12-10-31 METAR LFPG 312330Z 16010KT 9999 SCT045 BKN240 08/05 Q0989 NOSIG
12-11-01 METAR LFPG 010000Z 16009KT CAVOK 08/05 Q0988 NOSIG
12-11-01 METAR LFPG 010030Z 16008KT CAVOK 08/05 Q0988 NOSIG
12-11-01 METAR LFPG 010100Z 18011KT 9999 FEW043 BKN200 08/06 Q0987 NOSIG
12-11-01 METAR LFPG 010130Z 18012KT 9999 FEW043 BKN200 08/07 Q0987 NOSIG
12-11-01 METAR LFPG 010200Z 17013KT CAVOK 09/07 Q0986 NOSIG
12-11-01 METAR LFPG 010230Z 17015KT 9999 FEW010 BKN140 BKN200 09/07 Q0985 NOSIG
12-11-01 METAR LFPG 010300Z 18015KT 9999 FEW012 BKN150 BKN210 09/07 Q0985 NOSIG
12-11-01 METAR LFPG 010330Z 19016KT 150V210 9999 SCT011 BKN130 BKN200 09/07 Q0984 NOSIG
12-11-01 METAR LFPG 010400Z 18015KT 9999 FEW011 SCT046 BKN140 09/07 Q0984 NOSIG
12-11-01 METAR LFPG 010430Z 17015KT 9999 FEW011 BKN060 BKN100 09/07 Q0983 NOSIG
12-11-01 METAR LFPG 010500Z 17017KT 9999 FEW013 SCT066 BKN096 09/07 Q0983 NOSIG
12-11-01 METAR LFPG 010530Z 18016KT 8000 -RA BKN015 BKN050 09/07 Q0983 NOSIG
12-11-01 METAR LFPG 010600Z 18015KT 8000 -RA BKN015 BKN050 09/08 Q0983 NOSIG
12-11-01 METAR LFPG 010630Z 19017KT 9999 -RA BKN012 BKN050 09/08 Q0983 NOSIG
12-11-01 METAR LFPG 010700Z 19018KT 9999 -RA BKN013 10/08 Q0983 NOSIG
12-11-01 METAR LFPG 010730Z 20017KT 9999 -RA BKN013 10/08 Q0983 NOSIG
12-11-01 METAR LFPG 010800Z 21017KT 9999 SCT016 BKN071 10/08 Q0983 NOSIG
12-11-01 METAR LFPG 010830Z 21013KT 9999 -RA SCT014 BKN069 10/08 Q0983 NOSIG
12-11-01 METAR LFPG 010900Z 21012KT 9999 -RA BKN014 BKN067 10/08 Q0983 NOSIG
12-11-01 METAR LFPG 010930Z 22013KT 9999 BKN016 BKN073 10/07 Q0984 NOSIG
12-11-01 METAR LFPG 011000Z 23014KT 9999 BKN020 BKN073 10/07 Q0984 NOSIG
12-11-01 METAR LFPG 011030Z 22015KT 9999 BKN020 BKN096 11/06 Q0984 NOSIG
12-11-01 METAR LFPG 011100Z 22017KT 9999 FEW020TCU BKN026 BKN086 11/05 Q0984 NOSIG
12-11-01 METAR LFPG 011130Z 23017KT 9999 FEW020CB FEW023TCU BKN026 11/05 Q0984
12-11-01 METAR LFPG 011200Z 25020G33KT 9999 R27L/1100VP2000U R26R/1000VP2000D R08L/0700U R26L/1100VP2000D R08R/1100VP2000D R27R/0350VP2000D -TSRA FEW019CB SCT023TCU BKN026 07/03 Q0985 NOSIG
12-11-01 METAR LFPG 011230Z 24016KT 9999 R27R/0900VP2000U FEW020CB FEW031TCU SCT038 09/06 Q0985 RETS NOSIG
12-11-01 METAR LFPG 011300Z 23015KT 9999 FEW020CB FEW031TCU 11/06 Q0985 RETS NOSIG
12-11-01 METAR LFPG 011330Z 24016KT 9999 FEW020CB FEW031TCU SCT033 10/05 Q0985 RETS
12-11-01 METAR LFPG 011400Z 24022KT 9999 FEW033TCU SCT037 11/03 Q0985 RETS NOSIG
12-11-01 METAR LFPG 011430Z 23019KT 9999 -SHRA FEW033TCU SCT037 11/03 Q0986 NOSIG
12-11-01 METAR LFPG 011500Z 23013KT 9999 FEW033TCU SCT037 09/04 Q0986 NOSIG
12-11-01 METAR LFPG 011530Z 22013KT 9999 FEW033TCU SCT150 10/04 Q0986 NOSIG
12-11-01 METAR LFPG 011600Z 22011KT 9999 FEW033TCU SCT180 10/03 Q0987 NOSIG
12-11-01 METAR LFPG 011630Z 22013KT 9999 SCT031 SCT180 09/03 Q0987 NOSIG
12-11-01 METAR LFPG 011700Z 22012KT 9999 FEW033TCU SCT160 09/03 Q0988 NOSIG
12-11-01 METAR LFPG 011730Z 21011KT 9999 FEW033TCU 09/03 Q0989 NOSIG
12-11-01 METAR LFPG 011800Z 21011KT 9999 FEW033TCU SCT150 08/03 Q0989 NOSIG
12-11-01 METAR LFPG 011830Z 22016KT 9999 -SHRA FEW032 FEW039TCU BKN070 08/04 Q0990
12-11-01 METAR LFPG 011900Z 24014KT 6000 -SHRA SCT021TCU BKN032 07/04 Q0991 NOSIG
12-11-01 METAR LFPG 011930Z 23011KT 9999 SCT033 BKN050 07/04 Q0991 NOSIG
12-11-01 METAR LFPG 012000Z 22010KT 190V270 9999 FEW021 SCT050 07/04 Q0991 NOSIG
12-11-01 METAR LFPG 012030Z 23010KT 9999 FEW021 07/04 Q0992 NOSIG
12-11-01 METAR LFPG 012100Z 23011KT 9999 FEW020 07/04 Q0992 NOSIG
12-11-01 METAR LFPG 012130Z 24016KT 9999 FEW020 07/03 Q0993 NOSIG
12-11-01 METAR LFPG 012200Z 24015KT 9999 FEW021 07/03 Q0994 NOSIG
12-11-01 METAR LFPG 012230Z 23016KT 9999 FEW023 SCT032 07/03 Q0994 NOSIG
12-11-01 METAR LFPG 012300Z 23013KT 9999 BKN020 06/03 Q0994 NOSIG
12-11-01 METAR LFPG 012330Z 22013KT 9999 BKN018 06/03 Q0995 NOSIG
12-11-02 METAR LFPG 020000Z 21010KT 9999 FEW017 06/03 Q0995 NOSIG
12-11-02 METAR LFPG 020030Z 21010KT 9999 FEW019 06/03 Q0996 NOSIG
12-11-02 METAR LFPG 020100Z 21011KT 9999 FEW019 06/03 Q0996 NOSIG
12-11-02 METAR LFPG 020130Z 21011KT 9999 FEW019 06/02 Q0996 NOSIG
12-11-02 METAR LFPG 020200Z 21010KT 9999 FEW022 06/02 Q0997 NOSIG
12-11-02 METAR LFPG 020230Z 22011KT CAVOK 06/02 Q0997 NOSIG
12-11-02 METAR LFPG 020300Z 20014KT CAVOK 06/02 Q0997 NOSIG
12-11-02 METAR LFPG 020330Z 20010KT CAVOK 05/02 Q0997 NOSIG
12-11-02 METAR LFPG 020400Z 20011KT CAVOK 05/02 Q0997 NOSIG
12-11-02 METAR LFPG 020430Z 20012KT CAVOK 05/02 Q0998 NOSIG
12-11-02 METAR LFPG 020500Z 20013KT CAVOK 06/02 Q0998 NOSIG
12-11-02 METAR LFPG 020530Z 20013KT CAVOK 05/02 Q0998 NOSIG
12-11-02 METAR LFPG 020600Z 19011KT CAVOK 05/02 Q0998 NOSIG
12-11-02 METAR LFPG 020630Z 19010KT 9999 FEW010 05/02 Q0998 NOSIG
12-11-02 METAR LFPG 020700Z 19010KT 9999 FEW010 SCT064 05/03 Q0998 NOSIG
12-11-02 METAR LFPG 020730Z 19010KT 9999 FEW010 SCT050 06/04 Q0999 NOSIG
12-11-02 METAR LFPG 020800Z 19011KT 9999 FEW010 SCT047 BKN140 06/04 Q0999 NOSIG
12-11-02 METAR LFPG 020830Z 19009KT 9999 FEW010 SCT047 BKN100 06/04 Q0998 NOSIG
12-11-02 METAR LFPG 020900Z 19011KT 9999 FEW010 SCT047 BKN096 07/04 Q0998 NOSIG
12-11-02 METAR LFPG 020930Z 19012KT 170V240 9999 FEW010 SCT066 BKN090 07/05 Q0998 NOSIG
12-11-02 METAR LFPG 021000Z 19012KT 9999 -RA FEW010 SCT066 BKN090 08/05 Q0998 NOSIG
12-11-02 METAR LFPG 021030Z 19013G25KT 090V240 9999 -RA SCT013 SCT036 BKN090 08/05 Q0998 NOSIG
12-11-02 METAR LFPG 021100Z 19011KT 9999 -RA BKN013 BKN043 08/06 Q0998 NOSIG
12-11-02 METAR LFPG 021130Z 18011G22KT 9000 -RA BKN011 SCT016 08/06 Q0997 NOSIG
12-11-02 METAR LFPG 021200Z 18011KT 9000 -RA BKN008 08/07 Q0996 NOSIG
12-11-02 METAR LFPG 021230Z 19012KT 9000 -RA BKN008 BKN046 08/07 Q0996 NOSIG
12-11-02 METAR LFPG 021300Z 19012KT 9999 -RA BKN009 BKN046 08/07 Q0996 NOSIG
12-11-02 METAR LFPG 021330Z 20012KT 9999 SCT010 BKN016 09/07 Q0996 NOSIG
12-11-02 METAR LFPG 021400Z 21009KT 9999 -RA SCT010 BKN016 09/07 Q0996 NOSIG
12-11-02 METAR LFPG 021430Z 24011G24KT 190V260 4000 -RA BKN011 BKN016 09/07 Q0996
12-11-02 METAR LFPG 021500Z 27013KT 8000 -RA SCT007 BKN016 08/07 Q0996 NOSIG
12-11-02 METAR LFPG 021530Z 25009KT 9999 -RA FEW007 SCT013 BKN060 08/06 Q0997 NOSIG
12-11-02 METAR LFPG 021600Z 24009KT CAVOK 08/06 Q0997 NOSIG
12-11-02 METAR LFPG 021630Z 24009KT CAVOK 08/05 Q0998 NOSIG
12-11-02 METAR LFPG 021700Z 24010KT CAVOK 08/05 Q0998 NOSIG
12-11-02 METAR LFPG 021730Z 22011KT CAVOK 07/05 Q0999 NOSIG
12-11-02 METAR LFPG 021800Z 23011KT CAVOK 07/05 Q1000 NOSIG
12-11-02 METAR LFPG 021830Z 22010KT CAVOK 07/05 Q1000 NOSIG
12-11-02 METAR LFPG 021900Z 22007KT CAVOK 07/05 Q1000 NOSIG
12-11-02 METAR LFPG 021930Z 21008KT 200V260 CAVOK 07/05 Q1001 NOSIG
12-11-02 METAR LFPG 022000Z 21010KT CAVOK 07/05 Q1001 NOSIG
12-11-02 METAR LFPG 022030Z 21009KT CAVOK 08/05 Q1001 NOSIG
12-11-02 METAR LFPG 022100Z 21009KT CAVOK 07/05 Q1001 NOSIG
12-11-02 METAR LFPG 022130Z 21006KT CAVOK 07/04 Q1002 NOSIG
12-11-02 METAR LFPG 022200Z 20007KT CAVOK 07/04 Q1002 NOSIG
12-11-02 METAR LFPG 022230Z 17005KT CAVOK 07/05 Q1002 NOSIG
12-11-02 METAR LFPG 022300Z 16006KT CAVOK 07/05 Q1002 NOSIG
12-11-02 METAR LFPG 022330Z 16005KT CAVOK 07/05 Q1002 NOSIG
12-11-03 METAR LFPG 030000Z 15006KT CAVOK 07/05 Q1001 NOSIG
12-11-03 METAR LFPG 030030Z 17007KT CAVOK 07/06 Q1001 NOSIG
12-11-03 METAR LFPG 030100Z 18004KT 160V220 9999 BKN006 BKN066 08/06 Q1001 NOSIG
12-11-03 METAR LFPG 030130Z 18009KT 9999 BKN006 08/07 Q1000 NOSIG
12-11-03 METAR LFPG 030200Z 18008KT 8000 RA BKN006 09/07 Q1000 NOSIG
12-11-03 METAR LFPG 030230Z 18010KT 9999 BKN006 09/08 Q1000 RERA NOSIG
12-11-03 METAR LFPG 030300Z 19012KT 8000 RA BKN006 09/08 Q1000 NOSIG
12-11-03 METAR LFPG 030330Z 19010KT 8000 RA BKN006 09/07 Q1000 NOSIG
12-11-03 METAR LFPG 030400Z 18009KT 9999 -RA BKN006 BKN040 08/07 Q0999 NOSIG
12-11-03 METAR LFPG 030430Z 17008KT 8000 -RA BKN006 08/07 Q0999 NOSIG
12-11-03 METAR LFPG 030500Z 17009KT 4000 -RADZ BKN004 08/07 Q0999 NOSIG
12-11-03 METAR LFPG 030530Z 16008KT 2000 -RADZ SCT003 BKN004 08/07 Q0998 NOSIG
12-11-03 METAR LFPG 030600Z 15006KT 3000 -RADZ SCT004 BKN018 08/07 Q0998 NOSIG
12-11-03 METAR LFPG 030630Z 13010KT 9000 -RA FEW005 BKN016 08/07 Q0997 NOSIG
12-11-03 METAR LFPG 030700Z 13008KT 2000 -RADZ SCT006 BKN023 08/07 Q0997 NOSIG
12-11-03 METAR LFPG 030730Z 19007KT 160V220 2000 RA BKN006 08/08 Q0997 NOSIG
12-11-03 METAR LFPG 030800Z 24009KT 4000 -RA BKN006 SCT016 09/08 Q0997 NOSIG
12-11-03 METAR LFPG 030830Z 23016KT 9999 BKN011 10/09 Q0998 NOSIG
12-11-03 METAR LFPG 030900Z 26014KT 9000 -RA SCT008 SCT013 09/08 Q0999 NOSIG
12-11-03 METAR LFPG 030930Z 24010KT 9999 SCT006 SCT013 09/08 Q1000 RERA NOSIG
12-11-03 METAR LFPG 031000Z 24013KT 9999 BKN013 SCT110 09/08 Q1000 NOSIG
12-11-03 METAR LFPG 031030Z 24016KT 210V270 9999 BKN013 10/08 Q1001 NOSIG
12-11-03 METAR LFPG 031100Z 25013G25KT 220V290 9999 SCT016 BKN100 10/07 Q1001 NOSIG
12-11-03 METAR LFPG 031130Z 24014KT 9999 FEW018 BKN083 11/07 Q1001 NOSIG
12-11-03 METAR LFPG 031200Z 25017KT 9999 SCT023 BKN086 11/06 Q1001 NOSIG
12-11-03 METAR LFPG 031230Z 25012KT 9999 SCT028 SCT090 11/05 Q1001 NOSIG
12-11-03 METAR LFPG 031300Z 24013KT 9999 FEW028 SCT090 12/05 Q1001 NOSIG
12-11-03 METAR LFPG 031330Z 25012KT 9999 SCT028 12/04 Q1001 NOSIG
12-11-03 METAR LFPG 031400Z 24010KT 9999 FEW028 13/03 Q1001 NOSIG
12-11-03 METAR LFPG 031430Z 23011KT 9999 FEW033 12/03 Q1002 NOSIG
12-11-03 METAR LFPG 031500Z 22009KT 180V240 9999 FEW033 12/03 Q1002 NOSIG
12-11-03 METAR LFPG 031530Z 22008KT 9999 FEW033 12/04 Q1002 NOSIG
12-11-03 METAR LFPG 031600Z 22007KT 200V320 9999 FEW033 11/03 Q1002 NOSIG
12-11-03 METAR LFPG 031630Z 22006KT 9999 FEW033 10/03 Q1002 NOSIG
12-11-03 METAR LFPG 031700Z 24006KT 9999 FEW033 SCT240 09/03 Q1002 NOSIG
12-11-03 METAR LFPG 031730Z 18003KT CAVOK 09/03 Q1002 NOSIG
12-11-03 METAR LFPG 031800Z 19005KT CAVOK 08/04 Q1003 NOSIG
12-11-03 METAR LFPG 031830Z 20005KT CAVOK 08/04 Q1003 NOSIG
12-11-03 METAR LFPG 031900Z 20006KT CAVOK 08/04 Q1003 NOSIG
12-11-03 METAR LFPG 031930Z 20006KT 180V240 CAVOK 08/05 Q1003 NOSIG
12-11-03 METAR LFPG 032000Z 19006KT CAVOK 07/05 Q1003 NOSIG
12-11-03 METAR LFPG 032030Z 19007KT 170V230 CAVOK 07/05 Q1003 NOSIG
12-11-03 METAR LFPG 032100Z 18007KT CAVOK 07/05 Q1003 NOSIG
12-11-03 METAR LFPG 032130Z 19008KT 8000 NSC 07/05 Q1003 NOSIG
12-11-03 METAR LFPG 032200Z 18008KT 7000 NSC 07/06 Q1004 NOSIG
12-11-03 METAR LFPG 032230Z 18007KT 6000 NSC 07/06 Q1004 NOSIG
12-11-03 METAR LFPG 032300Z 17006KT 150V260 6000 NSC 07/06 Q1004 NOSIG
12-11-03 METAR LFPG 032330Z 18007KT 140V200 4500 BR NSC 07/06 Q1004 NOSIG
12-11-04 METAR LFPG 040000Z 19006KT 140V210 4500 BR NSC 06/05 Q1003 NOSIG
12-11-04 METAR LFPG 040030Z 15005KT 120V180 4500 0900SE R27L/P2000 R09R/P2000 R26R/1900U R08L/P2000 R26L/P2000 R08R/P2000 R27R/P2000 R09L/P2000 BCFG NSC 06/05 Q1003 NOSIG
12-11-04 METAR LFPG 040100Z 00000KT 3500 0900SE R27L/P2000 R09R/2000U R26R/P2000 R08L/P2000 R26L/P2000 R08R/P2000 R27R/P2000 R09L/P2000 BCFG FEW004 BKN220 06/05 Q1003 NOSIG
12-11-04 METAR LFPG 040130Z 17007KT 4000 0700S R27L/P2000 R09R/P2000 R26R/P2000 R08L/0900VP2000U R26L/P2000 R08R/P2000 R27R/P2000 R09L/P2000 BCFG FEW004 BKN220 06/05 Q1003 NOSIG
12-11-04 METAR LFPG 040200Z 17007KT 3500 0700S R27L/P2000 R09R/P2000 R26R/P2000 R08L/1600VP2000U R26L/1100VP2000D R08R/P2000 R27R/P2000 R09L/P2000 BCFG BKN002 SCT220 06/05 Q1003 NOSIG
12-11-04 METAR LFPG 040230Z 17008KT 0500 R27L/1200VP2000D R09R/1200V2000D R26R/1100D R08L/0800V1800D R26L/0750D R08R/0800N R27R/1600U R09L/0900V1300D FG OVC000 06/05 Q1002 NOSIG
12-11-04 METAR LFPG 040300Z 17009KT 0400 R27L/1000V1400U R09R/0800V1300D R26R/0800N R08L/0800V1100D R26L/0600N R08R/0800V1700D R27R/0800V1500U R09L/0750N FG OVC000 06/05 Q1002 NOSIG
12-11-04 METAR LFPG 040330Z 19008KT 0350 R27L/0800V1000N R09R/1000U R26R/1000D R08L/0800V1300D R26L/0750N R08R/0800V1000U R27R/0700D R09L/0700D FG
12-11-04 METAR LFPG 040400Z 17006KT 0350 R27L/0800V1300U R09R/0900N R26R/0800V1000N R08L/0800V1200D R26L/0700N R08R/1000V1400U R27R/0800N R09L/0800V1000D
12-11-04 METAR LFPG 040430Z 18008KT 0350 R27L/0650V0900D R09R/1000V1900D R26R/0900V1500U R08L/0750V1000N R26L/1000U R08R/1000U R27R/0600D R09L/0800V1200D FG OVC000 06/05 Q1001 NOSIG
12-11-04 METAR LFPG 040500Z 16008KT 0350 R27L/0800V1500U R09R/1100N R26R/1300VP2000U R08L/0900VP2000D R26L/0900V1500D R08R/0750V1400D R27R/0750V1200U R09L/0800V1500U FG OVC000 06/05 Q1001 NOSIG
12-11-04 METAR LFPG 040530Z 16008KT 0350 R27L/0750V1100N R09R/1300U R26R/1400V1800D R08L/0750N R26L/0900D R08R/0800U R27R/0650V1200N R09L/0900V1400N FG OVC000 06/05 Q1000 NOSIG
12-11-04 METAR LFPG 040600Z 17010KT 0350 R27L/1200V1700U R09R/1200V2000U R26R/1400VP2000U R08L/1500VP2000N R26L/1000V1600U R08R/1400VP2000U R27R/1100V1700U R09L/1000U FG OVC000 06/05 Q1000 NOSIG
12-11-04 METAR LFPG 040630Z 16007KT 0900 R27L/P2000 R09R/P2000 R26R/P2000 R08L/P2000 R26L/P2000 R08R/P2000 R27R/P2000 R09L/P2000 FG BKN000 OVC002 07/06 Q0999 BECMG 8000 NSW SCT008
12-11-04 METAR LFPG 040700Z 15006KT 5000 SCT002 OVC004 07/07 Q0999 BECMG 8000 NSW SCT008
12-11-04 METAR LFPG 040730Z 15009KT 7000 SCT004 OVC005 08/07 Q0998 BECMG 8000 NSW
12-11-04 METAR LFPG 040800Z 16013KT 8000 BKN007 BKN013 08/08 Q0998 NOSIG
12-11-04 METAR LFPG 040830Z 17015KT 9999 BKN007 09/08 Q0998 NOSIG
12-11-04 METAR LFPG 040900Z 18014KT 9999 -RA BKN007 09/08 Q0997 NOSIG
12-11-04 METAR LFPG 040930Z 18019G29KT 9999 -RA BKN007 09/08 Q0997 NOSIG
12-11-04 METAR LFPG 041000Z 19016KT 9999 -RA SCT007 BKN013 10/08 Q0996 NOSIG
12-11-04 METAR LFPG 041030Z 20016KT 9999 BKN012 BKN020 10/09 Q0997 NOSIG
12-11-04 METAR LFPG 041100Z 25015KT 5000 RA SCT012 BKN022 08/07 Q0997 NOSIG
12-11-04 METAR LFPG 041130Z 25012KT 9999 SCT015 BKN028 10/08 Q0997 RERA NOSIG
12-11-04 METAR LFPG 041200Z 24017KT 9999 SCT023 SCT030 10/07 Q0997 RERA NOSIG
12-11-04 METAR LFPG 041230Z 24016KT 9999 SCT029 SCT140 12/06 Q0997 RERA NOSIG
12-11-04 METAR LFPG 041400Z 25013KT 9999 SCT036 12/03 Q0998 NOSIG
12-11-04 METAR LFPG 041430Z 23017KT 9999 SCT036 12/02 Q0998 NOSIG
12-11-04 METAR LFPG 041500Z 23015KT 9999 SCT036 12/02 Q0998 NOSIG
12-11-04 METAR LFPG 041530Z 23014KT 9999 FEW036 11/02 Q0998 NOSIG
12-11-04 METAR LFPG 041600Z 23014KT 9999 FEW036 10/02 Q0998 NOSIG
12-11-04 METAR LFPG 041630Z 23012KT CAVOK 10/02 Q0999 NOSIG
12-11-04 METAR LFPG 041700Z 22011KT 9999 FEW046 09/02 Q0999 NOSIG
12-11-04 METAR LFPG 041730Z 21011KT 9999 BKN046 10/02 Q0999 NOSIG
12-11-04 METAR LFPG 041800Z 21011KT 9999 BKN046 10/02 Q0999 NOSIG
12-11-04 METAR LFPG 041830Z 21011KT 9999 FEW042 09/03 Q0999 NOSIG
12-11-04 METAR LFPG 041900Z 20011KT 9999 BKN045 09/03 Q0999 NOSIG
12-11-04 METAR LFPG 041930Z 20009KT 9999 FEW039 SCT046 09/03 Q0999 NOSIG
12-11-04 METAR LFPG 042000Z 20010KT 9999 FEW036 08/04 Q0999 NOSIG
12-11-04 METAR LFPG 042030Z 19008KT 9999 FEW036 08/04 Q0999 NOSIG
12-11-04 METAR LFPG 042100Z 19011KT 9999 FEW036 08/04 Q0999 NOSIG
12-11-04 METAR LFPG 042130Z 20009KT CAVOK 07/04 Q0999 NOSIG
12-11-04 METAR LFPG 042200Z 20009KT CAVOK 07/04 Q1000 NOSIG
12-11-04 METAR LFPG 042230Z 21008KT 9999 BKN026 08/04 Q1000 NOSIG
12-11-04 METAR LFPG 042300Z 21008KT 9999 SCT020 07/04 Q1000 NOSIG
12-11-04 METAR LFPG 042330Z 21009KT 9999 SCT017 07/04 Q1000 NOSIG
12-11-05 METAR LFPG 050000Z 21011KT 9999 FEW017 BKN190 07/04 Q1000 NOSIG
12-11-05 METAR LFPG 050030Z 19006KT 9999 FEW015 BKN140 07/04 Q1000 NOSIG
12-11-05 METAR LFPG 050100Z 15005KT 9999 SCT014 SCT110 06/04 Q1000 NOSIG
12-11-05 METAR LFPG 050130Z 17007KT 9999 SCT013 BKN056 06/04 Q1000 NOSIG
12-11-05 METAR LFPG 050200Z 17006KT 9999 -RA BKN013 BKN055 06/05 Q1001 NOSIG
12-11-05 METAR LFPG 050230Z 17005KT 9999 SCT012 SCT043 BKN063 07/05 Q1001 NOSIG
12-11-05 METAR LFPG 050300Z 18006KT 9999 BKN012 BKN063 06/05 Q1000 NOSIG
12-11-05 METAR LFPG 050330Z 18007KT 9999 SCT012 SCT050 BKN100 06/05 Q1000 NOSIG
12-11-05 METAR LFPG 050400Z 19003KT 9999 SCT011 BKN043 06/05 Q1001 NOSIG
12-11-05 METAR LFPG 050430Z VRB02KT 9999 SCT011 BKN030 BKN220 06/05 Q1001 NOSIG
12-11-05 METAR LFPG 050500Z 00000KT 9999 FEW011 06/04 Q1001 NOSIG
12-11-05 METAR LFPG 050530Z 21005KT 9999 BKN010 06/05 Q1001 NOSIG
12-11-05 METAR LFPG 050600Z 22003KT 9999 SCT010 SCT200 05/04 Q1001 NOSIG
12-11-05 METAR LFPG 050630Z 19004KT 9999 SCT010 SCT190 05/04 Q1001 NOSIG
12-11-05 METAR LFPG 050700Z 19005KT 9999 FEW011 SCT190 05/04 Q1002 NOSIG
12-11-05 METAR LFPG 050730Z 20003KT CAVOK 06/05 Q1002 NOSIG
12-11-05 METAR LFPG 050800Z 18006KT CAVOK 06/05 Q1002 NOSIG
12-11-05 METAR LFPG 050830Z 20007KT 9999 BKN014 08/06 Q1003 NOSIG
12-11-05 METAR LFPG 050900Z 23008KT 190V260 9999 BKN014 09/06 Q1003 NOSIG
12-11-05 METAR LFPG 050930Z 24011KT 9999 BKN016 09/06 Q1003 NOSIG
12-11-05 METAR LFPG 051000Z 24009KT 9999 BKN016 SCT025 09/05 Q1004 NOSIG
12-11-05 METAR LFPG 051030Z 24011KT 220V280 9999 BKN016 09/06 Q1004 NOSIG
12-11-05 METAR LFPG 051100Z 25010KT 210V270 9999 BKN016 09/06 Q1004 NOSIG
12-11-05 METAR LFPG 051130Z 25010KT 200V270 9999 BKN016 09/06 Q1004 NOSIG
12-11-05 METAR LFPG 051200Z 25008KT 9999 BKN018 10/06 Q1004 NOSIG
12-11-05 METAR LFPG 051230Z 25011KT 220V280 9999 -SHRA FEW016TCU BKN023 10/06 Q1005 NOSIG
12-11-05 METAR LFPG 051300Z 26012KT 6000 -SHRA SCT016TCU BKN038 10/06 Q1005 NOSIG
12-11-05 METAR LFPG 051330Z 27010KT 9999 FEW016TCU SCT021 BKN033 10/06 Q1005 NOSIG
12-11-05 METAR LFPG 051400Z 28011KT 8000 -SHRA FEW022TCU SCT026 BKN030 09/05 Q1005
12-11-05 METAR LFPG 051430Z 28010KT 9999 FEW023TCU SCT025 BKN033 09/05 Q1006 NOSIG
12-11-05 METAR LFPG 051500Z 29008KT 9999 FEW023TCU SCT036 09/05 Q1007 NOSIG
12-11-05 METAR LFPG 051530Z 30006KT 9999 FEW023TCU BKN036 09/05 Q1007 NOSIG
12-11-05 METAR LFPG 051600Z 29005KT 9999 -SHRA FEW023TCU BKN036 08/05 Q1007 NOSIG
12-11-05 METAR LFPG 051630Z 26004KT 9999 FEW023TCU BKN043 08/05 Q1008 NOSIG
12-11-05 METAR LFPG 051700Z 30002KT 9999 FEW023TCU SCT056 08/04 Q1008 NOSIG
12-11-05 METAR LFPG 051730Z 28003KT 9999 BKN025 SCT056 08/05 Q1009 NOSIG
12-11-05 METAR LFPG 051800Z 31004KT CAVOK 07/04 Q1009 NOSIG
12-11-05 METAR LFPG 051830Z 30004KT 9999 SCT043 BKN076 07/05 Q1010 NOSIG
12-11-05 METAR LFPG 051900Z 30003KT 9999 FEW046 BKN073 07/04 Q1010 NOSIG
12-11-05 METAR LFPG 051930Z 30004KT 9999 FEW043 SCT071 BKN083 07/04 Q1011 NOSIG
12-11-05 METAR LFPG 052000Z 26004KT 230V310 CAVOK 07/04 Q1011 NOSIG
12-11-05 METAR LFPG 052030Z 26004KT 9999 BKN032 BKN043 07/05 Q1012 NOSIG
12-11-05 METAR LFPG 052100Z 28004KT 9999 -RA BKN032 BKN043 07/05 Q1012 NOSIG
12-11-05 METAR LFPG 052130Z 30004KT 9999 -RA BKN021 BKN033 07/05 Q1013 NOSIG
12-11-05 METAR LFPG 052200Z 33003KT 9999 -RA BKN018 BKN033 06/05 Q1013 NOSIG
12-11-05 METAR LFPG 052230Z 31004KT 9999 BKN016 BKN050 06/05 Q1013 NOSIG
12-11-05 METAR LFPG 052300Z 32003KT 9999 BKN016 BKN023 06/05 Q1013 NOSIG
12-11-05 METAR LFPG 052330Z 31003KT 9999 SCT016 BKN040 BKN110 06/05 Q1013 NOSIG
12-11-06 METAR LFPG 060000Z 32004KT 9999 FEW033 BKN053 06/05 Q1014 NOSIG
12-11-06 METAR LFPG 060030Z 32004KT CAVOK 06/04 Q1014 NOSIG
12-11-06 METAR LFPG 060100Z 35005KT 330V040 CAVOK 05/04 Q1014 NOSIG
12-11-06 METAR LFPG 060130Z 36007KT 340V050 9000 FEW033 05/04 Q1015 NOSIG
12-11-06 METAR LFPG 060200Z 36005KT 350V060 8000 NSC 05/03 Q1015 NOSIG
12-11-06 METAR LFPG 060230Z 36004KT 350V050 8000 NSC 04/03 Q1015 NOSIG
12-11-06 METAR LFPG 060300Z 36006KT 340V070 9000 NSC 04/03 Q1016 NOSIG
12-11-06 METAR LFPG 060330Z 36006KT 340V050 9000 NSC 04/03 Q1016 NOSIG
12-11-06 METAR LFPG 060400Z 36006KT 340V060 9000 FEW008 04/03 Q1016 NOSIG
12-11-06 METAR LFPG 060430Z 36004KT 340V060 9000 NSC 04/03 Q1017 NOSIG
12-11-06 METAR LFPG 060500Z 01004KT 350V050 9000 NSC 04/03 Q1017 NOSIG
12-11-06 METAR LFPG 060530Z 01003KT 9000 NSC 04/03 Q1018 NOSIG
12-11-06 METAR LFPG 060600Z 36003KT 340V080 8000 NSC 04/02 Q1018 NOSIG
12-11-06 METAR LFPG 060630Z 32002KT 6000 FEW002 03/02 Q1019 NOSIG
12-11-06 METAR LFPG 060700Z 32004KT 7000 FEW002 03/02 Q1019 NOSIG
12-11-06 METAR LFPG 060730Z 31004KT 7000 NSC 03/02 Q1019 NOSIG
12-11-06 METAR LFPG 060800Z 24003KT 7000 NSC 04/03 Q1020 NOSIG
12-11-06 METAR LFPG 060830Z 24003KT 8000 NSC 05/04 Q1020 NOSIG
12-11-06 METAR LFPG 060900Z 28004KT 8000 FEW012 05/04 Q1021 NOSIG
12-11-06 METAR LFPG 060930Z 28003KT 250V310 8000 FEW013 06/05 Q1021 NOSIG
12-11-06 METAR LFPG 061000Z 31005KT 270V340 9999 FEW010 07/05 Q1021 NOSIG
12-11-06 METAR LFPG 061030Z 32005KT 290V350 9999 FEW010 08/05 Q1022 NOSIG
12-11-06 METAR LFPG 061100Z 31006KT 9999 FEW012 09/05 Q1022 NOSIG
12-11-06 METAR LFPG 061130Z 32006KT 9999 SCT016 10/05 Q1022 NOSIG
12-11-06 METAR LFPG 061200Z 31006KT 270V350 9999 SCT021 10/04 Q1022 NOSIG
12-11-06 METAR LFPG 061230Z 32005KT 9999 SCT023 09/04 Q1022 NOSIG
12-11-06 METAR LFPG 061300Z 29004KT 9999 SCT030 09/04 Q1023 NOSIG
12-11-06 METAR LFPG 061330Z 28007KT 250V310 9999 SCT025 10/04 Q1023 NOSIG
12-11-06 METAR LFPG 061400Z 30008KT 250V330 9999 SCT030 11/04 Q1023 NOSIG
12-11-06 METAR LFPG 061430Z 28004KT 9999 SCT030 10/04 Q1023 NOSIG
12-11-06 METAR LFPG 061500Z 32007KT 9999 SCT030 10/04 Q1023 NOSIG
12-11-06 METAR LFPG 061530Z 30009KT 9999 FEW031 09/03 Q1023 NOSIG
12-11-06 METAR LFPG 061600Z 28006KT 9999 FEW033 09/03 Q1024 NOSIG
12-11-06 METAR LFPG 061630Z 26006KT 9999 FEW040 08/03 Q1024 NOSIG
12-11-06 METAR LFPG 061700Z 25007KT 9999 FEW045 08/02 Q1024 NOSIG
12-11-06 METAR LFPG 061730Z 23006KT 9999 FEW045 08/03 Q1024 NOSIG
12-11-06 METAR LFPG 061800Z 24006KT 9999 FEW045 07/03 Q1024 NOSIG
12-11-06 METAR LFPG 061830Z 24007KT 9999 FEW036 07/03 Q1025 NOSIG
12-11-06 METAR LFPG 061900Z 24007KT 9999 FEW040 BKN100 07/03 Q1025 NOSIG
12-11-06 METAR LFPG 061930Z 24009KT 9999 FEW046 BKN096 07/03 Q1025 NOSIG
12-11-06 METAR LFPG 062000Z 23007KT CAVOK 07/03 Q1025 NOSIG
12-11-06 METAR LFPG 062030Z 23007KT 9999 FEW030 BKN100 07/03 Q1025 NOSIG
12-11-06 METAR LFPG 062100Z 24006KT 9999 FEW030 SCT076 07/03 Q1025 NOSIG
12-11-06 METAR LFPG 062130Z 24007KT CAVOK 07/03 Q1025 NOSIG
12-11-06 METAR LFPG 062200Z 25007KT CAVOK 07/03 Q1025 NOSIG
12-11-06 METAR LFPG 062230Z 24008KT 9999 FEW036 BKN080 07/03 Q1025 NOSIG
12-11-06 METAR LFPG 062300Z 24007KT 9999 SCT036 SCT056 08/03 Q1025 NOSIG
12-11-06 METAR LFPG 062330Z 24007KT CAVOK 08/04 Q1025 NOSIG
12-11-07 METAR LFPG 070000Z 24008KT CAVOK 08/04 Q1026 NOSIG
12-11-07 METAR LFPG 070030Z 24007KT 9999 BKN033 08/04 Q1026 NOSIG
12-11-07 METAR LFPG 070100Z 24009KT 9999 BKN032 BKN049 08/04 Q1025 NOSIG
12-11-07 METAR LFPG 070130Z 24008KT 9999 SCT032 BKN039 08/04 Q1026 NOSIG
12-11-07 METAR LFPG 070200Z 24009KT 9999 BKN014 08/04 Q1026 NOSIG
12-11-07 METAR LFPG 070230Z 25010KT 9999 BKN012 08/05 Q1026 NOSIG
12-11-07 METAR LFPG 070300Z 25009KT 9999 BKN012 BKN034 08/05 Q1026 NOSIG
12-11-07 METAR LFPG 070330Z 24009KT 9999 SCT016 BKN034 08/05 Q1026 NOSIG
12-11-07 METAR LFPG 070400Z 25008KT 9999 BKN013 BKN034 08/05 Q1026 NOSIG
12-11-07 METAR LFPG 070430Z 23008KT 9999 SCT014 BKN026 08/05 Q1026 NOSIG
12-11-07 METAR LFPG 070500Z 24007KT 9999 FEW016 BKN033 08/05 Q1027 NOSIG
12-11-07 METAR LFPG 070530Z 23008KT 9999 FEW016 BKN030 08/05 Q1027 NOSIG
12-11-07 METAR LFPG 070600Z 24007KT 9999 BKN033 08/05 Q1027 NOSIG
12-11-07 METAR LFPG 070630Z 23007KT 9999 BKN030 08/06 Q1027 NOSIG
12-11-07 METAR LFPG 070700Z 23006KT 9999 BKN026 08/06 Q1027 NOSIG
12-11-07 METAR LFPG 070730Z 24006KT 9999 BKN026 08/06 Q1028 NOSIG
12-11-07 METAR LFPG 070800Z 24007KT 9999 BKN026 09/06 Q1028 NOSIG
12-11-07 METAR LFPG 070830Z 24007KT 9999 BKN026 09/06 Q1028 NOSIG
12-11-07 METAR LFPG 070900Z 24007KT 9999 BKN026 09/06 Q1029 NOSIG
12-11-07 METAR LFPG 070930Z 25007KT 9999 BKN028 10/06 Q1029 NOSIG
12-11-07 METAR LFPG 071000Z 24007KT 210V270 9999 FEW015 OVC026 10/06 Q1029 NOSIG
12-11-07 METAR LFPG 071030Z 25008KT 210V270 9999 FEW015 BKN025 10/07 Q1029 NOSIG
12-11-07 METAR LFPG 071100Z 24007KT 9999 FEW016 BKN025 10/07 Q1029 NOSIG
12-11-07 METAR LFPG 071130Z 25007KT 220V280 9999 FEW016 BKN025 11/07 Q1029 NOSIG
12-11-07 METAR LFPG 071200Z 25009KT 200V280 9999 FEW016 BKN023 11/07 Q1029 NOSIG
12-11-07 METAR LFPG 071230Z 24007KT 9999 SCT016 BKN023 11/07 Q1028 NOSIG
12-11-07 METAR LFPG 071300Z 25008KT 9999 SCT016 BKN023 11/07 Q1028 NOSIG
12-11-07 METAR LFPG 071330Z 24010KT 210V270 9999 SCT018 BKN023 11/07 Q1028 NOSIG
12-11-07 METAR LFPG 071400Z 26008KT 9999 BKN018 11/07 Q1028 NOSIG
12-11-07 METAR LFPG 071430Z 25012KT 9999 BKN020 11/06 Q1028 NOSIG
12-11-07 METAR LFPG 071500Z 24008KT 9999 BKN020 11/06 Q1028 NOSIG
12-11-07 METAR LFPG 071530Z 24008KT 9999 FEW020 BKN025 11/06 Q1028 NOSIG
12-11-07 METAR LFPG 071600Z 24009KT 9999 BKN022 11/06 Q1028 NOSIG
12-11-07 METAR LFPG 071630Z 24008KT 9999 BKN022 11/06 Q1027 NOSIG
12-11-07 METAR LFPG 071700Z 24009KT 9999 BKN022 11/06 Q1028 NOSIG
12-11-07 METAR LFPG 071730Z 25005KT 9999 BKN022 11/05 Q1028 NOSIG
12-11-07 METAR LFPG 071800Z 23008KT 9999 BKN023 11/05 Q1028 NOSIG
12-11-07 METAR LFPG 071830Z 24007KT 9999 BKN025 10/05 Q1028 NOSIG
12-11-07 METAR LFPG 071900Z 24007KT 9999 BKN025 10/05 Q1028 NOSIG
12-11-07 METAR LFPG 071930Z 23008KT 9999 BKN027 10/05 Q1028 NOSIG
12-11-07 METAR LFPG 072000Z 23007KT 9999 BKN027 10/05 Q1028 NOSIG
12-11-07 METAR LFPG 072030Z 23009G21KT 200V290 9999 BKN027 10/05 Q1028 NOSIG
12-11-07 METAR LFPG 072100Z 24007KT 9999 OVC028 10/04 Q1028 NOSIG
12-11-07 METAR LFPG 072130Z 24006KT 9999 OVC026 10/04 Q1027 NOSIG
12-11-07 METAR LFPG 072200Z 24007KT 9999 OVC025 10/04 Q1027 NOSIG
12-11-07 METAR LFPG 072230Z 25007KT 9999 OVC025 10/04 Q1027 NOSIG
12-11-07 METAR LFPG 072300Z 24006KT 9999 OVC025 10/04 Q1027 NOSIG
12-11-07 METAR LFPG 072330Z 25007KT 9999 OVC024 10/04 Q1026 NOSIG
12-11-08 METAR LFPG 080000Z 25005KT 9999 OVC025 10/05 Q1026 NOSIG
12-11-08 METAR LFPG 080030Z 25004KT 9999 BKN025 09/04 Q1026 NOSIG
12-11-08 METAR LFPG 080100Z 25004KT 9999 BKN025 09/04 Q1026 NOSIG
12-11-08 METAR LFPG 080130Z 26004KT 9999 BKN025 09/04 Q1025 NOSIG
12-11-08 METAR LFPG 080200Z 24003KT 9999 BKN026 09/05 Q1025 NOSIG
12-11-08 METAR LFPG 080230Z 25003KT 9999 BKN026 09/05 Q1025 NOSIG
12-11-08 METAR LFPG 080300Z 24003KT 9999 BKN026 09/05 Q1025 NOSIG
12-11-08 METAR LFPG 080330Z 25005KT 9999 BKN027 09/05 Q1024 NOSIG
12-11-08 METAR LFPG 080400Z 21004G14KT 170V240 9999 BKN027 09/05 Q1024 NOSIG
12-11-08 METAR LFPG 080430Z 22004KT 200V270 9999 BKN027 09/05 Q1024 NOSIG
12-11-08 METAR LFPG 080500Z 19004KT 9999 BKN027 09/05 Q1023 NOSIG
12-11-08 METAR LFPG 080530Z 21003KT 9999 BKN027 09/05 Q1023 NOSIG
12-11-08 METAR LFPG 080600Z VRB03KT 9999 BKN027 09/05 Q1023 NOSIG
12-11-08 METAR LFPG 080630Z 14003KT 9999 BKN026 08/05 Q1022 NOSIG
12-11-08 METAR LFPG 080700Z 16004KT 100V200 9999 BKN027 08/05 Q1022 NOSIG
12-11-08 METAR LFPG 080730Z 17003KT 9999 BKN028 08/05 Q1023 NOSIG
12-11-08 METAR LFPG 080800Z 20003KT 9999 BKN028 08/05 Q1023 NOSIG
12-11-08 METAR LFPG 080830Z 00000KT 9999 BKN028 08/05 Q1023 NOSIG
12-11-08 METAR LFPG 080900Z 20001KT 9999 BKN028 08/05 Q1023 NOSIG
12-11-08 METAR LFPG 080930Z VRB02KT 9999 BKN028 08/06 Q1023 NOSIG
12-11-08 METAR LFPG 081000Z 00000KT 9999 FEW023 BKN027 09/06 Q1023 NOSIG
12-11-08 METAR LFPG 081030Z VRB02KT 9999 FEW018 BKN027 09/04 Q1022 NOSIG
12-11-08 METAR LFPG 081100Z 32003KT 9999 FEW018 BKN027 09/04 Q1022 NOSIG
12-11-08 METAR LFPG 081130Z 31003KT 270V010 9999 FEW017 BKN026 09/04 Q1021 NOSIG
12-11-08 METAR LFPG 081200Z 28006KT 9999 FEW020 BKN027 10/04 Q1021 NOSIG
12-11-08 METAR LFPG 081230Z 29006KT 9999 FEW023 BKN030 10/04 Q1021 NOSIG
12-11-08 METAR LFPG 081300Z 25005KT 220V300 9999 FEW023 BKN031 10/04 Q1021 NOSIG
12-11-08 METAR LFPG 081330Z 24006KT 210V280 9999 FEW023 BKN031 10/04 Q1021 NOSIG
12-11-08 METAR LFPG 081400Z 26006KT 9999 FEW023 SCT031 BKN220 10/04 Q1020 NOSIG
12-11-08 METAR LFPG 081430Z 26005KT 9999 SCT031 BKN220 10/04 Q1020 NOSIG
12-11-08 METAR LFPG 081500Z 26005KT 9999 FEW031 BKN220 10/04 Q1020 NOSIG
12-11-08 METAR LFPG 081530Z 24003KT 9999 FEW031 BKN220 09/04 Q1020 NOSIG
12-11-08 METAR LFPG 081600Z 22005KT CAVOK 09/04 Q1020 NOSIG
12-11-08 METAR LFPG 081630Z 25004KT CAVOK 09/04 Q1020 NOSIG
12-11-08 METAR LFPG 081700Z 21005KT CAVOK 08/04 Q1020 NOSIG
12-11-08 METAR LFPG 081730Z 22006KT 200V310 CAVOK 08/04 Q1020 NOSIG
12-11-08 METAR LFPG 081800Z 28005KT 9999 BKN039 08/04 Q1021 NOSIG
12-11-08 METAR LFPG 081830Z VRB02KT 9999 BKN038 08/04 Q1020 NOSIG
12-11-08 METAR LFPG 081900Z 22004KT 9999 BKN038 08/04 Q1020 NOSIG
12-11-08 METAR LFPG 081930Z 22004KT 9999 BKN038 08/04 Q1020 NOSIG
12-11-08 METAR LFPG 082000Z 22005KT 9999 BKN038 08/04 Q1020 NOSIG
12-11-08 METAR LFPG 082030Z 19004KT 160V220 9999 BKN038 08/04 Q1020 NOSIG
12-11-08 METAR LFPG 082100Z 21004KT 9999 BKN037 08/04 Q1020 NOSIG
12-11-08 METAR LFPG 082130Z 20002KT 9999 BKN037 08/04 Q1020 NOSIG
12-11-08 METAR LFPG 082200Z 18004KT 9999 BKN035 08/04 Q1020 NOSIG
12-11-08 METAR LFPG 082230Z 19003KT 9999 BKN037 08/04 Q1020 NOSIG
12-11-08 METAR LFPG 082300Z 18005KT 9999 BKN037 08/04 Q1020 NOSIG
12-11-08 METAR LFPG 082330Z VRB03KT 9999 BKN037 07/04 Q1020 NOSIG
12-11-09 METAR LFPG 090000Z 16003KT 9000 BKN036 07/04 Q1019 NOSIG
12-11-09 METAR LFPG 090030Z 18004KT 7000 FEW035 06/04 Q1019 NOSIG
12-11-09 METAR LFPG 090100Z VRB01KT 7000 NSC 06/04 Q1019 NOSIG
12-11-09 METAR LFPG 090130Z VRB01KT 7000 NSC 05/03 Q1019 NOSIG
12-11-09 METAR LFPG 090200Z VRB02KT 7000 NSC 05/03 Q1019 NOSIG
12-11-09 METAR LFPG 090230Z 12002KT 6000 NSC 04/02 Q1019 NOSIG
12-11-09 METAR LFPG 090300Z 13003KT 110V170 6000 R27R/1300VP2000D NSC 03/02 Q1018 NOSIG
12-11-09 METAR LFPG 090330Z 12003KT 6000 NSC 03/02 Q1018 NOSIG
12-11-09 METAR LFPG 090400Z VRB02KT 6000 NSC 03/01 Q1018 NOSIG
12-11-09 METAR LFPG 090430Z 11003KT 5000 BR NSC 03/01 Q1018 NOSIG
12-11-09 METAR LFPG 090500Z 14004KT 110V170 6000 NSC 03/02 Q1018 NOSIG
12-11-09 METAR LFPG 090530Z 15002KT 6000 NSC 04/03 Q1018 NOSIG
12-11-09 METAR LFPG 090600Z 15003KT 6000 2000SE R26L/1400VP2000D NSC 04/03 Q1017
12-11-09 METAR LFPG 090630Z 12005KT 6000 2000SE NSC 04/03 Q1017 NOSIG
12-11-09 METAR LFPG 090700Z 11005KT 5000 2000SE FEW001 BKN260 03/02 Q1017 NOSIG
12-11-09 METAR LFPG 090730Z 10006KT 5000 2000SE FEW001 BKN260 04/03 Q1017 TEMPO 4000 BR
12-11-09 METAR LFPG 090800Z 14004KT 100V180 5000 2000SE FEW001 BKN260 04/03 Q1017 TEMPO 4000 BR
12-11-09 METAR LFPG 090830Z 15005KT 4000 1200SE R27L/P2000 R09R/1200VP2000D R26R/1400VP2000D R08L/0600D R26L/1800D R08R/1300VP2000D R27R/P2000 R09L/P2000 BR BKN001 04/03 Q1017 BECMG 6000 NSC
12-11-09 METAR LFPG 090900Z 11006KT 0700 0200S R27L/0600D R09R/P2000 R26R/0500D R08L/0325V0650D R26L/0375N R08R/0325N R27R/0450D R09L/1400VP2000D PRFG BKN000 04/03 Q1016 BECMG 9999 BKN020
12-11-09 METAR LFPG 090930Z 12006KT 0800 0300S R27L/0350N R09R/0750VP2000U R26R/0550N R08L/0350N R26L/0350N R08R/0325N R27R/0350N R09L/0350V0500N FG VV/// 04/03 Q1016 BECMG 9999 BKN020
12-11-09 METAR LFPG 091000Z 12006KT 0500 R27L/0650N R09R/0650V1800N R26R/0550N R08L/0375V0550N R26L/0375N R08R/0450V0550N R27R/0500N R09L/1100VP2000D FG OVC001 04/03 Q1016 BECMG 9999 BKN020
12-11-09 METAR LFPG 091030Z 12007KT 0900 0400S R27L/0800VP2000U R09R/1500VP2000D R26R/0800V1600U R08L/0600U R26L/0700N R08R/0550U R27R/0900V1600U R09L/1700D FG OVC001 04/03 Q1015 BECMG 9999 BKN020
12-11-09 METAR LFPG 091100Z 13007KT 070V170 1200 0500S R27L/1200VP2000U R09R/1900U R26R/1700D R08L/1000U R26L/1000V1500D R08R/0800V1100N R27R/1100V1500D R09L/1500VP2000D PRFG BKN000 OVC002 04/03 Q1015 BECMG 9999 BKN020
12-11-09 METAR LFPG 091130Z 12007KT 090V150 2000 1100S R27L/1700U R09R/P2000 R26R/1500VP2000D R08L/1300VP2000U R26L/1600N R08R/1200V1800U R27R/1200V1700N R09L/2000U BR BKN000 OVC003 04/03 Q1014 BECMG 9999 BKN020
12-11-09 METAR LFPG 091200Z 12008KT 100V160 2500 BR OVC002 05/04 Q1013 BECMG 9999
12-11-09 METAR LFPG 091230Z 13006KT 100V160 6000 OVC004 06/05 Q1013 BECMG 9999
12-11-09 METAR LFPG 091300Z 16005KT 080V210 9000 SCT007 BKN260 06/05 Q1013 NOSIG
12-11-09 METAR LFPG 091330Z 13006KT 100V160 9999 SCT008 BKN048 07/05 Q1012 NOSIG
12-11-09 METAR LFPG 091400Z 15004KT 090V180 9999 BKN046 07/05 Q1012 NOSIG
12-11-09 METAR LFPG 091430Z 14005KT 090V180 CAVOK 08/05 Q1011 NOSIG
12-11-09 METAR LFPG 091500Z 14005KT 9999 BKN046 BKN100 08/05 Q1011 NOSIG
12-11-09 METAR LFPG 091530Z 14007KT 100V160 9999 FEW046 BKN110 08/06 Q1010 NOSIG
12-11-09 METAR LFPG 091600Z 14008KT 090V170 9999 SCT043 BKN086 BKN170 08/06 Q1010
12-11-09 METAR LFPG 091630Z 16007KT 9000 -RA BKN043 08/06 Q1010 NOSIG
12-11-09 METAR LFPG 091700Z 17007KT 8000 -RA BKN048 08/06 Q1010 NOSIG
12-11-09 METAR LFPG 091730Z 17006KT 8000 -RA NSC 08/07 Q1010 NOSIG
12-11-09 METAR LFPG 091800Z 16008KT 8000 NSC 08/07 Q1009 NOSIG
12-11-09 METAR LFPG 091830Z 16007KT 8000 NSC 08/07 Q1009 NOSIG
12-11-09 METAR LFPG 091900Z 16007G18KT 040V180 8000 BKN046 08/07 Q1008 NOSIG
12-11-09 METAR LFPG 091930Z 15009G19KT 040V170 8000 BKN043 BKN050 09/07 Q1008 NOSIG
12-11-09 METAR LFPG 092000Z 16008KT 050V180 8000 BKN040 BKN050 09/07 Q1008 NOSIG
12-11-09 METAR LFPG 092030Z 18006KT 5000 -RA SCT025 BKN073 09/07 Q1008 NOSIG
12-11-09 METAR LFPG 092200Z 17007KT 5000 BKN006 BKN020 09/08 Q1007 NOSIG
12-11-09 METAR LFPG 092230Z 17006KT 5000 -RA BKN006 09/08 Q1007 NOSIG
12-11-09 METAR LFPG 092300Z 17007KT 2000 -RA BKN003 10/09 Q1006 NOSIG
12-11-09 METAR LFPG 092330Z 17007KT 2000 -RA BKN002 10/09 Q1006 NOSIG
12-11-10 METAR LFPG 100000Z 18008KT 2000 -RA BKN002 10/09 Q1006 NOSIG
12-11-10 METAR LFPG 100030Z 19009KT 2500 BR BKN002 10/09 Q1005 NOSIG
12-11-10 METAR LFPG 100100Z 18008KT 2500 BR BKN002 10/09 Q1005 NOSIG
12-11-10 METAR LFPG 100130Z 19009KT 2500 BR OVC002 10/09 Q1004 NOSIG
12-11-10 METAR LFPG 100200Z 19008KT 3500 BR OVC002 10/09 Q1004 NOSIG
12-11-10 METAR LFPG 100230Z 18006KT 3500 BR OVC002 10/09 Q1004 NOSIG
12-11-10 METAR LFPG 100300Z 17006KT 3000 BR OVC002 10/10 Q1003 NOSIG
12-11-10 METAR LFPG 100330Z 17005KT 3000 BR OVC002 10/10 Q1003 NOSIG
12-11-10 METAR LFPG 100400Z 17007KT 3000 BR OVC002 11/10 Q1002 NOSIG
12-11-10 METAR LFPG 100430Z 19007KT 4000 BR OVC002 11/10 Q1002 NOSIG
12-11-10 METAR LFPG 100500Z 19008KT 2500 BR OVC002 11/10 Q1002 NOSIG
12-11-10 METAR LFPG 100530Z 18008KT 2000 BR SCT001 OVC002 11/10 Q1002 NOSIG
12-11-10 METAR LFPG 100600Z 21010KT 4500 BR SCT002 OVC003 11/10 Q1002 NOSIG
12-11-10 METAR LFPG 100630Z 20006KT 4500 BR SCT003 OVC005 11/10 Q1002 NOSIG
12-11-10 METAR LFPG 100700Z 19004KT 7000 SCT010 BKN019 11/10 Q1002 NOSIG
12-11-10 METAR LFPG 100730Z 18006KT 7000 SCT006 BKN008 11/10 Q1001 NOSIG
12-11-10 METAR LFPG 100800Z 19007KT 7000 FEW006 SCT008 BKN013 11/11 Q1002 NOSIG
12-11-10 METAR LFPG 100830Z 21008KT 180V240 9999 SCT010 SCT016 12/11 Q1001 NOSIG
12-11-10 METAR LFPG 100900Z 21009KT 9999 FEW007 SCT014 12/10 Q1001 NOSIG
12-11-10 METAR LFPG 100930Z 20010KT 9999 FEW010 BKN130 12/10 Q1001 NOSIG
12-11-10 METAR LFPG 101000Z 21010KT 9999 FEW009 SCT013 BKN130 12/09 Q1001 NOSIG
12-11-10 METAR LFPG 101030Z 22010KT 200V290 9999 FEW011 SCT015 BKN260 12/09 Q1001 NOSIG
12-11-10 METAR LFPG 101100Z 21007G17KT 180V300 9999 FEW012 SCT016 BKN051 12/09 Q1001
12-11-10 METAR LFPG 101130Z 19008KT 9999 SCT012 SCT016 BKN150 12/09 Q1000 NOSIG
12-11-10 METAR LFPG 101200Z 17010KT 9999 BKN010 BKN015 BKN150 12/10 Q1000 NOSIG
12-11-10 METAR LFPG 101230Z 19010KT 9999 BKN010 12/10 Q0999 NOSIG
12-11-10 METAR LFPG 101300Z 19011KT 170V250 9999 BKN010 BKN011 13/10 Q0999 NOSIG
12-11-10 METAR LFPG 101330Z 18011KT 9999 BKN011 SCT031 BKN120 13/11 Q0998 NOSIG
12-11-10 METAR LFPG 101400Z 18015KT 9999 SCT015 SCT028 BKN100 13/10 Q0998 NOSIG
12-11-10 METAR LFPG 101430Z 18015KT 9999 SCT016 SCT028 BKN140 14/10 Q0998 NOSIG
12-11-10 METAR LFPG 101500Z 18011KT 9999 BKN016 SCT027 BKN140 14/10 Q0998 NOSIG
12-11-10 METAR LFPG 101530Z 18013KT 9999 BKN016 FEW018TCU SCT027 13/10 Q0997 NOSIG
12-11-10 METAR LFPG 101600Z 17012KT 4500 SHRA SCT016CB BKN019 13/10 Q0997 NOSIG
12-11-10 METAR LFPG 101630Z 25017KT 6000 -SHRA FEW010CB BKN013 11/09 Q0998 NOSIG
12-11-10 METAR LFPG 101700Z 23012KT 9999 -SHRA SCT012 SCT032 BKN046 11/09 Q0998
12-11-10 METAR LFPG 101730Z 25012KT 9999 SCT010 BKN032 BKN088 10/09 Q0999 NOSIG
12-11-10 METAR LFPG 101800Z 28011KT 9999 SCT011 SCT018 BKN039 10/08 Q1000 NOSIG
12-11-10 METAR LFPG 101830Z 24011KT 9999 SCT009 SCT012 BKN018 10/08 Q1000 NOSIG
12-11-10 METAR LFPG 101900Z 25011KT 9999 SCT009 BKN011 BKN018 09/07 Q1001 NOSIG
12-11-10 METAR LFPG 101930Z 25009KT 9999 FEW011 09/07 Q1001 NOSIG
12-11-10 METAR LFPG 102000Z 25006KT 9999 SCT011 08/07 Q1002 NOSIG
12-11-10 METAR LFPG 102030Z 26004KT 9999 FEW011 BKN250 08/06 Q1002 NOSIG
12-11-10 METAR LFPG 102100Z 22004KT 9999 FEW014 SCT210 08/06 Q1003 NOSIG
12-11-10 METAR LFPG 102130Z 21005KT 9999 FEW013 SCT210 08/06 Q1003 NOSIG
12-11-10 METAR LFPG 102200Z 22006KT 9999 SCT012 08/06 Q1003 NOSIG
12-11-10 METAR LFPG 102230Z 20006KT 9999 BKN011 07/06 Q1004 NOSIG
12-11-10 METAR LFPG 102300Z 20006KT 8000 SCT012 07/06 Q1004 NOSIG
12-11-10 METAR LFPG 102330Z 17005KT 9999 4000S FEW012 07/06 Q1004 NOSIG
12-11-11 METAR LFPG 110000Z 17003KT 9999 1500SE MIFG FEW012 07/05 Q1005 NOSIG
12-11-11 METAR LFPG 110030Z 16004KT 8000 0800SE R27L/P2000 R09R/P2000 R26R/1000VP2000U R08L/P2000 R26L/0700V1600U R08R/P2000 R27R/P2000 R09L/P2000 BCFG NSC 07/06 Q1005 NOSIG
12-11-11 METAR LFPG 110100Z 17005KT 8000 0800S R27L/P2000 R09R/P2000 R26R/P2000 R08L/P2000 R26L/P2000 R08R/P2000 R27R/P2000 R09L/P2000 BCFG NSC 07/06 Q1005 NOSIG
12-11-11 METAR LFPG 110130Z 19006KT 8000 2000S FEW005 BKN056 07/06 Q1005 NOSIG
12-11-11 METAR LFPG 110200Z 17006KT 6000 SCT004 BKN055 07/06 Q1006 NOSIG
12-11-11 METAR LFPG 110230Z 19007KT 6000 BKN003 BKN054 07/06 Q1006 NOSIG
12-11-11 METAR LFPG 110300Z 20004KT 5000 BKN003 BKN054 07/06 Q1006 NOSIG
12-11-11 METAR LFPG 110330Z 21006KT 5000 BKN003 BKN050 07/06 Q1007 NOSIG
12-11-11 METAR LFPG 110400Z 16008KT 5000 BKN003 SCT050 07/06 Q1007 NOSIG
12-11-11 METAR LFPG 110430Z 20007KT 5000 BKN004 07/06 Q1007 NOSIG
12-11-11 METAR LFPG 110500Z 20006KT 6000 BKN004 07/06 Q1007 NOSIG
12-11-11 METAR LFPG 110530Z 22005KT 190V260 6000 BKN005 07/06 Q1008 NOSIG
12-11-11 METAR LFPG 110600Z 19006KT 8000 BKN005 07/06 Q1008 NOSIG
12-11-11 METAR LFPG 110630Z VRB02KT 9999 BKN005 07/05 Q1009 NOSIG
12-11-11 METAR LFPG 110700Z 20005KT 7000 BKN005 07/06 Q1009 NOSIG
12-11-11 METAR LFPG 110730Z 22006KT 7000 BKN005 07/05 Q1010 NOSIG
12-11-11 METAR LFPG 110800Z 23004KT 200V260 7000 BKN005 07/05 Q1010 NOSIG
12-11-11 METAR LFPG 110830Z 24005KT 210V280 9000 BKN007 07/05 Q1011 NOSIG
12-11-11 METAR LFPG 110900Z 25004KT 200V280 9999 BKN009 07/05 Q1011 NOSIG
12-11-11 METAR LFPG 110930Z VRB03KT 9999 BKN010 07/05 Q1011 NOSIG
12-11-11 METAR LFPG 111000Z 26005KT 220V280 9999 BKN011 08/05 Q1012 NOSIG
12-11-11 METAR LFPG 111030Z 23005KT 140V290 9999 BKN013 08/05 Q1012 NOSIG
12-11-11 METAR LFPG 111100Z 22004KT 160V270 9999 BKN013 08/05 Q1013 NOSIG
12-11-11 METAR LFPG 111130Z 22004KT 160V290 9999 BKN013 09/05 Q1013 NOSIG
12-11-11 METAR LFPG 111200Z 23005KT 200V260 9999 SCT013 09/05 Q1013 NOSIG
12-11-11 METAR LFPG 111230Z 22005KT 180V280 9999 BKN014 11/06 Q1013 NOSIG
12-11-11 METAR LFPG 111300Z 28007KT 9999 BKN014 10/05 Q1014 NOSIG
12-11-11 METAR LFPG 111330Z 30008KT 270V330 9999 FEW011 BKN016 09/05 Q1014 NOSIG
12-11-11 METAR LFPG 111400Z 29007KT 9999 FEW010 BKN020 09/05 Q1015 NOSIG
12-11-11 METAR LFPG 111430Z 28005KT 9999 BKN010 BKN016 08/05 Q1015 NOSIG
12-11-11 METAR LFPG 111500Z 29007KT 9999 BKN009 08/05 Q1016 NOSIG
12-11-11 METAR LFPG 111530Z 29005KT 9999 BKN010 07/04 Q1016 NOSIG
12-11-11 METAR LFPG 111600Z 26005KT 230V300 9999 BKN009 07/04 Q1017 NOSIG
12-11-11 METAR LFPG 111630Z 28004KT 9999 BKN009 07/04 Q1017 NOSIG
12-11-11 METAR LFPG 111700Z 31002KT 9999 BKN010 07/04 Q1018 NOSIG
12-11-11 METAR LFPG 111730Z 25003KT 9999 BKN010 07/04 Q1018 NOSIG
12-11-11 METAR LFPG 111800Z 27003KT 9999 BKN010 07/04 Q1019 NOSIG
12-11-11 METAR LFPG 111830Z 26004KT 9999 FEW010 06/04 Q1019 NOSIG
12-11-11 METAR LFPG 111900Z 19002KT 9999 FEW010 06/04 Q1019 NOSIG
12-11-11 METAR LFPG 111930Z 20003KT 8000 FEW008 06/04 Q1020 NOSIG
12-11-11 METAR LFPG 112000Z VRB04G14KT 7000 FEW008 06/04 Q1020 NOSIG
12-11-11 METAR LFPG 112030Z 21003KT 7000 BKN009 06/04 Q1021 NOSIG
12-11-11 METAR LFPG 112100Z 23005KT 190V340 7000 OVC007 06/04 Q1021 NOSIG
12-11-11 METAR LFPG 112130Z 25005KT 5000 SCT004 BKN005 06/05 Q1021 NOSIG
12-11-11 METAR LFPG 112200Z 21005KT 5000 BR SCT004 BKN005 06/05 Q1021 NOSIG
12-11-11 METAR LFPG 112230Z 20005KT 5000 BR SCT004 BKN005 06/05 Q1021 NOSIG
12-11-11 METAR LFPG 112300Z 22004KT 5000 BR FEW004 BKN005 06/05 Q1022 NOSIG
12-11-11 METAR LFPG 112330Z 22005KT 190V250 5000 BR OVC005 06/05 Q1022 NOSIG
12-11-12 METAR LFPG 120000Z 24005KT 5000 BR FEW004 BKN005 07/05 Q1022 NOSIG
12-11-12 METAR LFPG 120030Z 22005KT 6000 OVC005 06/05 Q1022 NOSIG
12-11-12 METAR LFPG 120100Z 22004KT 6000 OVC005 06/05 Q1023 NOSIG
12-11-12 METAR LFPG 120230Z 20006KT 160V220 4000 BR FEW002 BKN003 BKN004 06/05 Q1023
12-11-12 METAR LFPG 120300Z 17007KT 5000 BR SCT003 BKN004 06/05 Q1023 NOSIG
12-11-12 METAR LFPG 120330Z 18006KT 6000 FEW003 BKN004 06/05 Q1023 NOSIG
12-11-12 METAR LFPG 120400Z 20006KT 6000 SCT003 BKN004 06/05 Q1023 NOSIG
12-11-12 METAR LFPG 120430Z 19007KT 7000 FEW003 BKN004 06/05 Q1024 NOSIG
12-11-12 METAR LFPG 120500Z 20007KT 8000 OVC004 06/05 Q1024 NOSIG
12-11-12 METAR LFPG 120530Z 19005KT 7000 OVC005 06/05 Q1024 NOSIG
12-11-12 METAR LFPG 120600Z 20004KT 7000 SCT003 BKN005 06/04 Q1024 NOSIG
12-11-12 METAR LFPG 120630Z 18006KT 5000 OVC003 05/04 Q1024 NOSIG
12-11-12 METAR LFPG 120700Z 17007KT 3000 BR FEW002 BKN003 05/04 Q1025 NOSIG
12-11-12 METAR LFPG 120730Z 18006KT 2500 BR BKN002 05/04 Q1025 NOSIG
12-11-12 METAR LFPG 120830Z 18006KT 0900 R27L/1200VP2000D R09R/1900U R26R/P2000 R08L/2000D R26L/P2000 R08R/1200VP2000D R27R/1200VP2000D R09L/1400VP2000D FG SCT001 BKN002 04/03 Q1026 NOSIG
12-11-12 METAR LFPG 120900Z 18006KT 0500 R27L/1700D R09R/1800D R26R/1700D R08L/1300VP2000D R26L/1700D R08R/1100VP2000U R27R/1700D R09L/0900V1600U FG BKN001 BKN002 04/03 Q1026 NOSIG
12-11-12 METAR LFPG 120930Z 18007KT 050V210 1200 R27L/0800V1700N R09R/P2000 R26R/P2000 R08L/P2000 R26L/1900D R08R/P2000 R27R/1100VP2000N R09L/1100VP2000D BR BKN001 BKN002 04/03 Q1026 NOSIG
12-11-12 METAR LFPG 121000Z 17008KT 150V220 1500 BR SCT001 BKN002 04/03 Q1027 NOSIG
12-11-12 METAR LFPG 121030Z 20008KT 170V320 2500 BR OVC002 05/04 Q1027 NOSIG
12-11-12 METAR LFPG 121100Z 19007KT 160V320 5000 OVC003 05/04 Q1027 NOSIG
12-11-12 METAR LFPG 121130Z 20009G20KT 170V310 6000 OVC004 05/04 Q1026 NOSIG
12-11-12 METAR LFPG 121200Z 20008KT 7000 OVC005 06/04 Q1026 NOSIG
12-11-12 METAR LFPG 121230Z 20008KT 9999 OVC006 06/04 Q1027 NOSIG
12-11-12 METAR LFPG 121300Z 18007KT 9999 OVC006 06/04 Q1026 NOSIG
12-11-12 METAR LFPG 121330Z 17008KT 160V220 9999 BKN006 BKN033 06/04 Q1026 NOSIG
12-11-12 METAR LFPG 121400Z 18010KT 9999 BKN007 BKN120 07/04 Q1027 NOSIG
12-11-12 METAR LFPG 121430Z 19008KT 9999 BKN007 BKN120 07/05 Q1027 NOSIG
12-11-12 METAR LFPG 121500Z 19009KT 9999 BKN008 BKN110 07/05 Q1027 NOSIG
12-11-12 METAR LFPG 121530Z 19009KT 9999 BKN008 BKN110 07/05 Q1027 NOSIG
12-11-12 METAR LFPG 121600Z 19008KT 9999 SCT008 BKN110 07/05 Q1027 NOSIG
12-11-12 METAR LFPG 121630Z 18006KT 9999 SCT008 SCT090 BKN120 07/05 Q1027 NOSIG
12-11-12 METAR LFPG 121700Z 19008KT 9999 SCT008 SCT090 BKN120 07/05 Q1027 NOSIG
12-11-12 METAR LFPG 121730Z 18009KT 9999 SCT008 SCT085 BKN120 07/05 Q1027 NOSIG
12-11-12 METAR LFPG 121800Z 19010G21KT 9999 SCT008 SCT076 BKN110 07/05 Q1028 NOSIG
12-11-12 METAR LFPG 121830Z 18008KT 9999 SCT009 SCT076 BKN100 07/05 Q1028 NOSIG
12-11-12 METAR LFPG 121900Z 19007KT 9999 SCT009 BKN100 07/05 Q1028 NOSIG
12-11-12 METAR LFPG 121930Z 19009KT 9999 BKN009 BKN100 07/05 Q1028 NOSIG
12-11-12 METAR LFPG 122000Z 18008KT 9999 BKN009 BKN100 07/05 Q1028 NOSIG
12-11-12 METAR LFPG 122030Z 19009KT 170V280 9999 SCT009 SCT100 07/05 Q1028 NOSIG
12-11-12 METAR LFPG 122100Z 18007KT 9999 SCT009 SCT100 07/05 Q1028 NOSIG
12-11-12 METAR LFPG 122130Z 18009KT 9999 SCT009 BKN043 07/05 Q1028 NOSIG
12-11-12 METAR LFPG 122200Z 18008KT 9999 BKN008 BKN040 07/05 Q1028 NOSIG
12-11-12 METAR LFPG 122230Z 18010KT 9999 BKN008 07/05 Q1028 NOSIG
12-11-12 METAR LFPG 122300Z 18009KT 9999 BKN008 BKN015 07/05 Q1028 NOSIG
12-11-13 METAR LFPG 130800Z 17004KT 090V190 2000 BR FEW002 BKN003 BKN017 06/06 Q1030
12-11-13 METAR LFPG 130830Z 17004KT 3000 BR SCT002 BKN003 BKN009 07/06 Q1030 NOSIG
12-11-13 METAR LFPG 130900Z 16006KT 3000 BR SCT002 BKN003 07/06 Q1031 NOSIG
12-11-13 METAR LFPG 130930Z 14005KT 2000 BR OVC003 07/06 Q1031 NOSIG
12-11-13 METAR LFPG 131000Z 15006KT 2000 BR SCT003 BKN004 07/06 Q1031 NOSIG
12-11-13 METAR LFPG 131030Z 13007KT 090V160 2500 BR FEW003 BKN004 07/06 Q1031 NOSIG
12-11-13 METAR LFPG 131100Z 14007KT 100V160 3500 BR FEW003 BKN004 07/07 Q1031 NOSIG
12-11-13 METAR LFPG 131130Z 14007KT 110V170 3000 BR FEW003 BKN004 07/07 Q1030 NOSIG
12-11-13 METAR LFPG 131200Z 14005KT 100V170 2000 BR BKN003 BKN004 07/07 Q1030 NOSIG
12-11-13 METAR LFPG 131230Z 14005KT 2500 BR BKN003 BKN004 07/07 Q1030 NOSIG
12-11-13 METAR LFPG 131300Z 14005KT 2000 BR SCT003 BKN004 08/07 Q1030 NOSIG
12-11-13 METAR LFPG 131330Z 15006KT 2000 BR FEW002 BKN003 08/07 Q1030 NOSIG
12-11-13 METAR LFPG 131400Z 15006KT 110V170 2000 BR FEW002 SCT003 BKN004 08/07 Q1030
12-11-13 METAR LFPG 131430Z 13005KT 2000 BR SCT003 SCT004 BKN006 08/07 Q1029 NOSIG
12-11-13 METAR LFPG 131500Z 12007KT 2000 BR FEW003 BKN005 08/07 Q1029 NOSIG
12-11-13 METAR LFPG 131530Z 13005KT 4500 BR FEW004 BKN006 08/07 Q1029 NOSIG
12-11-13 METAR LFPG 131600Z 12004KT 5000 BR FEW005 BKN006 BKN011 08/07 Q1029 NOSIG
12-11-13 METAR LFPG 131630Z 12004KT 5000 BR FEW004 BKN009 08/07 Q1029 NOSIG
12-11-13 METAR LFPG 131700Z 09004KT 5000 BR SCT004 SCT005 BKN007 08/07 Q1029 NOSIG
12-11-13 METAR LFPG 131730Z 09005KT 5000 BR SCT004 SCT005 BKN006 08/07 Q1029 NOSIG
12-11-13 METAR LFPG 131800Z 09006KT 5000 BR FEW003 SCT004 BKN005 08/07 Q1029 NOSIG
12-11-13 METAR LFPG 131830Z 08007KT 7000 BKN004 08/06 Q1029 NOSIG
12-11-13 METAR LFPG 131900Z 08007KT 8000 BKN005 07/06 Q1029 NOSIG
12-11-13 METAR LFPG 131930Z 08006KT 8000 SCT004 BKN005 07/06 Q1029 NOSIG
12-11-13 METAR LFPG 132000Z 08006KT 8000 SCT004 BKN005 07/06 Q1029 NOSIG
12-11-13 METAR LFPG 132030Z 08005KT 6000 BKN003 07/05 Q1029 NOSIG
12-11-13 METAR LFPG 132100Z 05005KT 020V090 6000 SCT003 06/05 Q1029 NOSIG
12-11-13 METAR LFPG 132130Z 03005KT 030V090 4000 BR FEW003 06/05 Q1029 NOSIG
12-11-13 METAR LFPG 132200Z 04005KT 3000 BR FEW006 05/04 Q1029 NOSIG
12-11-13 METAR LFPG 132230Z 04005KT 3000 BR FEW006 05/04 Q1029 NOSIG
12-11-13 METAR LFPG 132300Z 03005KT 010V080 3000 BR FEW004 05/04 Q1029 NOSIG
12-11-13 METAR LFPG 132330Z 03006KT 3000 BR FEW004 05/04 Q1028 NOSIG
12-11-14 METAR LFPG 140000Z 03005KT 3000 BR FEW004 04/03 Q1028 NOSIG
12-11-14 METAR LFPG 140030Z 03006KT 2500 0600 R27L/P2000 R09R/1700U R26R/P2000 R08L/P2000 R26L/P2000 R08R/P2000 R27R/P2000 R09L/P2000 BCFG FEW000 04/03 Q1028 NOSIG
12-11-14 METAR LFPG 140100Z 05006KT 5000 BR NSC 04/03 Q1028 NOSIG
12-11-14 METAR LFPG 140130Z 05007KT 5000 BR NSC 03/03 Q1028 NOSIG
12-11-14 METAR LFPG 140200Z 06007KT 4500 BR NSC 03/02 Q1028 NOSIG
12-11-14 METAR LFPG 140230Z 04006KT 4500 BR NSC 03/02 Q1027 NOSIG
12-11-14 METAR LFPG 140300Z 05005KT 4500 BR NSC 03/02 Q1027 NOSIG
12-11-14 METAR LFPG 140330Z 05006KT 6000 NSC 03/02 Q1027 NOSIG
12-11-14 METAR LFPG 140400Z 06006KT 5000 BR NSC 02/02 Q1027 NOSIG
12-11-14 METAR LFPG 140430Z 06006KT 5000 BR NSC 03/02 Q1027 NOSIG
12-11-14 METAR LFPG 140500Z 05006KT 4000 BR NSC 02/02 Q1026 NOSIG
12-11-14 METAR LFPG 140530Z 06008KT 3500 BR NSC 02/01 Q1026 NOSIG
12-11-14 METAR LFPG 140600Z 06007KT 4500 BR NSC 02/01 Q1026 NOSIG
12-11-14 METAR LFPG 140630Z 07006KT 3500 BR NSC 03/02 Q1026 NOSIG
12-11-14 METAR LFPG 140700Z 08007KT 3500 BR NSC 02/02 Q1026 NOSIG
12-11-14 METAR LFPG 140730Z 07007KT 3500 BR NSC 03/02 Q1026 NOSIG
12-11-14 METAR LFPG 140800Z 09006KT 4000 BR NSC 03/02 Q1027 NOSIG
12-11-14 METAR LFPG 140830Z 09006KT 2500 BR FEW002 BKN004 03/02 Q1026 NOSIG
12-11-14 METAR LFPG 140900Z 11010KT 0600 R27L/0450D R09R/1100VP2000D R26R/1100VP2000D R08L/1000V1900D R26L/0800V1100D R08R/0750D R27R/0600V0900N R09L/0600D FG OVC000 03/02 Q1026 NOSIG
12-11-14 METAR LFPG 140930Z 10010KT 0400 R27L/0650U R09R/0650V1600U R26R/0750N R08L/0550N R26L/0550N R08R/0550D R27R/0500N R09L/0450V0700N FG OVC000 03/02 Q1026 NOSIG
12-11-14 METAR LFPG 141000Z 11009KT 0300 R27L/0500N R09R/0700D R26R/0750N R08L/0500N R26L/0600N R08R/0500U R27R/0500N R09L/0450V0650N FG OVC000 03/02 Q1026
12-11-14 METAR LFPG 141030Z 12009KT 090V160 0300 R27L/0700V1900D R09R/0750D R26R/1000D R08L/1100V1900U R26L/0650V1100U R08R/1500V2000D R27R/0600U R09L/0450V0700N FG OVC000 03/02 Q1026 NOSIG
12-11-14 METAR LFPG 141100Z 11008KT 1200 0600NO R27L/1000V1800U R09R/1100VP2000D R26R/P2000 R08L/2000U R26L/P2000 R08R/P2000 R27R/1000V1700U R09L/1000U BCFG BR BKN000 BKN002 03/03 Q1026 BECMG 2000 BR BKN003
12-11-14 METAR LFPG 141130Z 09008KT 1500 1000N R27L/1700U R09R/P2000 R26R/P2000 R08L/P2000 R26L/P2000 R08R/P2000 R27R/1700N R09L/1500VP2000D BR FEW000 BKN002 BKN002 03/03 Q1026 BECMG 3000 BR BKN003
12-11-14 METAR LFPG 141200Z 11008KT 070V130 1500 1000N R27L/1800N R09R/P2000 R26R/P2000 R08L/P2000 R26L/P2000 R08R/P2000 R27R/1600D R09L/1200VP2000U BR FEW000 BKN002 BKN003 03/03 Q1025 BECMG 3000 BR BKN003
12-11-14 METAR LFPG 141230Z 10006KT 070V130 1300 1000N R27L/1900D R09R/P2000 R26R/P2000 R08L/P2000 R26L/P2000 R08R/P2000 R27R/1900U R09L/1900U BR FEW001 OVC003 04/03 Q1025 BECMG 3000 BR BKN003
12-11-14 METAR LFPG 141300Z 09007KT 1500 BR BKN002 OVC003 04/03 Q1025 BECMG 3000 BR
12-11-14 METAR LFPG 141330Z 09007KT 060V130 2000 BR BKN003 OVC004 04/03 Q1025 BECMG 3000 BR BKN003
12-11-14 METAR LFPG 141400Z 09007KT 2500 BR OVC004 04/03 Q1025 BECMG 3000 BR BKN003
12-11-14 METAR LFPG 141430Z 10009KT 2500 BR FEW003 OVC004 04/03 Q1025 BECMG 3000 BR
12-11-14 METAR LFPG 141530Z 10009KT 3000 BR BKN005 04/03 Q1025 NOSIG
12-11-14 METAR LFPG 141600Z 10006KT 070V140 3000 BR FEW004 BKN005 BKN006 04/03 Q1025
12-11-14 METAR LFPG 141630Z 11009KT 3000 BR BKN004 OVC006 05/03 Q1025 NOSIG
12-11-14 METAR LFPG 141700Z 11005KT 3000 BR BKN004 OVC005 05/03 Q1025 NOSIG
12-11-14 METAR LFPG 141730Z 15004KT 2500 BR OVC004 04/03 Q1025 NOSIG
12-11-14 METAR LFPG 141800Z 15004KT 2500 BR OVC003 04/03 Q1025 NOSIG
12-11-14 METAR LFPG 141830Z 15004KT 120V180 2500 BR OVC003 04/03 Q1025 NOSIG
12-11-14 METAR LFPG 141900Z 10005KT 070V150 2500 BR OVC003 05/04 Q1025 NOSIG
12-11-14 METAR LFPG 142000Z 09006KT 3000 BR OVC004 05/03 Q1024 NOSIG
12-11-14 METAR LFPG 142100Z 11006KT 080V140 3500 BR OVC005 05/03 Q1024 NOSIG
12-11-14 METAR LFPG 142130Z 14004KT 2900 BR OVC004 04/03 Q1024 NOSIG
12-11-14 METAR LFPG 142200Z 12005KT 090V150 3000 BR OVC004 04/03 Q1024 NOSIG
12-11-14 METAR LFPG 142230Z 14005KT 100V170 3000 BR OVC004 04/03 Q1024 NOSIG
12-11-14 METAR LFPG 142300Z 13003KT 3000 BR OVC004 04/03 Q1024 NOSIG
12-11-14 METAR LFPG 142330Z 11003KT 070V160 3000 BR OVC004 04/03 Q1024 NOSIG
12-11-15 METAR LFPG 150100Z 09005KT 3500 BR OVC004 04/03 Q1024 NOSIG
12-11-15 METAR LFPG 150130Z 13004KT 090V170 3500 BR OVC006 04/03 Q1024 NOSIG
12-11-15 METAR LFPG 150200Z 08003KT 050V170 3500 BR OVC007 04/03 Q1024 NOSIG
12-11-15 METAR LFPG 150230Z 11005KT 060V160 3500 BR OVC007 04/03 Q1023 NOSIG
12-11-15 METAR LFPG 150300Z 12003KT 080V160 3500 BR OVC007 04/03 Q1023 NOSIG
12-11-15 METAR LFPG 150330Z 12003KT 080V170 4000 BR OVC007 04/03 Q1023 NOSIG
12-11-15 METAR LFPG 150400Z 09004KT 050V160 4000 BR OVC007 05/03 Q1023 NOSIG
12-11-15 METAR LFPG 150430Z VRB02KT 4000 BR OVC007 05/03 Q1023 NOSIG
12-11-15 METAR LFPG 150500Z 06004KT 020V100 4000 BR OVC007 05/03 Q1023 NOSIG
12-11-15 METAR LFPG 150530Z VRB02KT 4000 BR OVC007 05/03 Q1023 NOSIG
12-11-15 METAR LFPG 150600Z 06004KT 020V080 4000 BR OVC007 05/03 Q1023 NOSIG
12-11-15 METAR LFPG 150630Z 08003KT 030V100 5000 BR OVC008 05/03 Q1023 NOSIG
12-11-15 METAR LFPG 150700Z 05004KT 010V070 4500 BR FEW008 BKN009 05/03 Q1023 NOSIG
12-11-15 METAR LFPG 150730Z 07004KT 020V100 4700 BR OVC009 05/03 Q1024 NOSIG
12-11-15 METAR LFPG 150800Z 11005KT 5000 BR OVC009 05/03 Q1023 NOSIG
12-11-15 METAR LFPG 150830Z VRB03KT 5000 BR OVC009 05/03 Q1023 NOSIG
12-11-15 METAR LFPG 150900Z 08004KT 050V120 5000 BR OVC010 05/03 Q1023 NOSIG
12-11-15 METAR LFPG 150930Z 10004KT 040V130 5000 BR OVC010 05/03 Q1023 NOSIG
12-11-15 METAR LFPG 151000Z VRB03KT 6000 OVC011 05/03 Q1023 NOSIG
12-11-15 METAR LFPG 151030Z 06005KT 6000 OVC011 05/03 Q1023 NOSIG
12-11-15 METAR LFPG 151100Z VRB02KT 6000 BKN011 06/03 Q1023 NOSIG
12-11-15 METAR LFPG 151130Z VRB02KT 6000 OVC011 06/03 Q1022 NOSIG
12-11-15 METAR LFPG 151200Z VRB03KT 6000 OVC011 06/03 Q1022 NOSIG
12-11-15 METAR LFPG 151230Z 07003KT 040V130 6000 OVC011 06/03 Q1022 NOSIG
12-11-15 METAR LFPG 151300Z 07004KT 020V110 6000 OVC011 06/03 Q1022 NOSIG
12-11-15 METAR LFPG 151330Z 08004KT 5000 BR OVC011 06/03 Q1021 NOSIG
12-11-15 METAR LFPG 151400Z VRB03KT 5000 BR OVC011 06/03 Q1021 NOSIG
12-11-15 METAR LFPG 151430Z VRB03KT 5000 BR OVC012 06/03 Q1021 NOSIG
12-11-15 METAR LFPG 151500Z 09004KT 060V120 5000 BR OVC011 06/03 Q1021 NOSIG
12-11-15 METAR LFPG 151530Z 10005KT 5000 BR BKN011 06/03 Q1021 NOSIG
12-11-15 METAR LFPG 151600Z VRB02KT 5000 BR OVC011 05/03 Q1021 NOSIG
12-11-15 METAR LFPG 151630Z 09004KT 5000 BR BKN011 05/02 Q1021 NOSIG
12-11-15 METAR LFPG 151700Z 05004KT 020V080 5000 BR BKN011 05/02 Q1021 NOSIG
12-11-15 METAR LFPG 151730Z 06004KT 5000 BR OVC011 05/02 Q1021 NOSIG
12-11-15 METAR LFPG 151800Z 06005KT 5000 BR OVC010 05/02 Q1021 NOSIG
12-11-15 METAR LFPG 151830Z 07005KT 5000 BR OVC010 05/02 Q1021 NOSIG
12-11-15 METAR LFPG 151900Z 09005KT 5000 OVC010 05/02 Q1021 NOSIG
12-11-15 METAR LFPG 151930Z 14006KT 090V160 5000 FEW008 OVC009 05/02 Q1021 NOSIG
12-11-15 METAR LFPG 152000Z 13006KT 090V170 5000 BKN008 OVC009 05/02 Q1021 NOSIG
12-11-15 METAR LFPG 152030Z 13006KT 090V160 5000 OVC008 04/02 Q1021 NOSIG
12-11-15 METAR LFPG 152100Z 14005KT 5000 FEW006 OVC007 04/02 Q1020 NOSIG
12-11-15 METAR LFPG 152130Z 14005KT 4000 BR SCT006 OVC007 04/02 Q1020 NOSIG
12-11-15 METAR LFPG 152200Z 15006KT 4000 BR OVC006 04/02 Q1020 NOSIG
12-11-15 METAR LFPG 152230Z 14005KT 4000 BR FEW005 OVC005 04/02 Q1020 NOSIG
12-11-15 METAR LFPG 152300Z 14005KT 100V170 4000 BR SCT004 OVC004 04/02 Q1020 NOSIG
12-11-15 METAR LFPG 152330Z 15004KT 3500 BR FEW004 OVC005 04/02 Q1020 NOSIG
12-11-16 METAR LFPG 160000Z 14004KT 3500 BR FEW003 OVC004 04/02 Q1020 NOSIG
12-11-16 METAR LFPG 160030Z 18005KT 3000 BR SCT003 OVC004 04/02 Q1019 NOSIG
12-11-16 METAR LFPG 160100Z 18004KT 3000 BR FEW002 OVC003 03/02 Q1019 NOSIG
12-11-16 METAR LFPG 160130Z 14004KT 100V170 2000 BR SCT002 SCT003 03/02 Q1019 NOSIG
12-11-16 METAR LFPG 160230Z 15005KT 1300 0600N R27L/1300VP2000U R09R/P2000 R26R/P2000 R08L/P2000 R26L/P2000 R08R/P2000 R27R/1100VP2000N R09L/1700D PRFG BKN001 OVC002 03/02 Q1019 NOSIG
12-11-16 METAR LFPG 160300Z 15005KT 110V180 1300 0600N R27L/2000D R09R/P2000 R26R/P2000 R08L/P2000 R26L/P2000 R08R/P2000 R27R/P2000 R09L/1700N PRFG
12-11-16 METAR LFPG 160330Z 13006KT 1000 0400N R27L/1200VP2000D R09R/1700N R26R/P2000 R08L/P2000 R26L/P2000 R08R/P2000 R27R/1500VP2000D R09L/1100VP2000D PRFG BKN001 OVC002 03/02 Q1019 NOSIG
12-11-16 METAR LFPG 160500Z 17004KT 0400 R27L/0750V1500U R09R/1300D R26R/1200V2000D R08L/1100N R26L/0900D R08R/1000V1500D R27R/0800V1600D R09L/0800V1000U FG OVC001 02/02 Q1019 NOSIG
12-11-16 METAR LFPG 160530Z 14006KT 120V190 0300 R27L/0750N R09R/0800V1200U R26R/1000D R08L/0900U R26L/0700N R08R/0800N R27R/0750V1300D R09L/0750N FG OVC001 02/01 Q1019 NOSIG
12-11-16 METAR LFPG 160600Z 15005KT 120V180 0300 R27L/0600V0800D R09R/0700N R26R/0800V1300U R08L/0600V0800D R26L/0750V1000D R08R/0550D R27R/0700N R09L/0750N FG OVC001 02/01 Q1019 NOSIG
12-11-16 METAR LFPG 160630Z 14004KT 0250 R27L/0650N R09R/0600N R26R/0900V1600U R08L/0550N R26L/0700D R08R/0600V0800N R27R/0700N R09L/0500D FG VV///
12-11-16 METAR LFPG 160700Z 14005KT 100V170 0200 R27L/0700V1000N R09R/0600V0800N R26R/0900V1300D R08L/0600N R26L/0700N R08R/0650N R27R/0650V1500N R09L/0600U FG VV/// 02/01 Q1019 NOSIG
12-11-16 METAR LFPG 160730Z 14005KT 100V170 0150 R27L/0500N R09R/0550N R26R/0800V1100N R08L/0600N R26L/0650N R08R/0600N R27R/0550N R09L/0550N FG VV/// 02/01 Q1019 NOSIG
12-11-16 METAR LFPG 160800Z 11006KT 080V150 0150 R27L/0450V0550N R09R/0900U R26R/0600V0800D R08L/0600V0800U R26L/0550N R08R/0800N R27R/0500N R09L/0400V0550N FG VV/// 02/01 Q1019 NOSIG
12-11-16 METAR LFPG 160830Z 13006KT 090V150 0450 R27L/0450V0650N R09R/0900U R26R/0650N R08L/0500V0800D R26L/0500N R08R/0500N R27R/0450N R09L/0650V1500U FG OVC001 02/01 Q1019 NOSIG
12-11-16 METAR LFPG 160900Z 15004KT 110V170 0250 R27L/0450V0550N R09R/0650U R26R/0800U R08L/0500N R26L/0400V0550D R08R/0500N R27R/0450V0550N R09L/0375V0500N FG VV/// 02/01 Q1019 NOSIG
12-11-16 METAR LFPG 160930Z 13005KT 090V160 0400 R27L/0550V0800N R09R/0550V0800N R26R/0650V1100U R08L/0550N R26L/0400V0550U R08R/0550D R27R/0650U R09L/0550V1000U FG OVC001 02/01 Q1019 NOSIG
12-11-16 METAR LFPG 161000Z 12006KT 090V150 0400 R27L/1000U R09R/0800V1500U R26R/0700D R08L/0450V0550N R26L/0500N R08R/0600U R27R/0550V0900U R09L/0500V0800U FG OVC001 02/01 Q1019 NOSIG
12-11-16 METAR LFPG 161030Z 12007KT 0500 R27L/0700U R09R/0700V1800U R26R/0750V1200D R08L/0700U R26L/0550V0750N R08R/0650N R27R/0650N R09L/0650V1500N FG OVC001 02/02 Q1018 NOSIG
12-11-16 METAR LFPG 161100Z 14007KT 100V170 0500 R27L/0900VP2000D R09R/1200VP2000D R26R/0650V2000U R08L/0900U R26L/0750V1100U R08R/1200U R27R/0800U R09L/0900VP2000U FG OVC001 03/02 Q1018 NOSIG
12-11-16 METAR LFPG 161130Z 13007KT 090V180 0800 R27L/1000V1900N R09R/P2000 R26R/1500VP2000U R08L/0700V1600U R26L/1000V1600U R08R/0900V1600U R27R/0800V1200U R09L/2000U FG BKN001 SCT002 03/02 Q1018 NOSIG
12-11-16 METAR LFPG 161200Z 11007KT 070V160 0900 R27L/1000VP2000D R09R/P2000 R26R/1900U R08L/0900VP2000U R26L/P2000 R08R/2000D R27R/0650V1800U R09L/1800N FG BKN001 SCT002 03/02 Q1017 NOSIG
12-11-16 METAR LFPG 161230Z 13008KT 090V150 1200 R27L/P2000 R09R/P2000 R26R/P2000 R08L/1800U R26L/P2000 R08R/P2000 R27R/1500VP2000U R09L/P2000 VCFG BR SCT001 BKN002 03/03 Q1017 NOSIG
12-11-16 METAR LFPG 161300Z 12008KT 1800 VCFG BR OVC003 04/03 Q1016 NOSIG
12-11-16 METAR LFPG 161330Z 12007KT 1900 VCFG BR OVC003 04/03 Q1016 NOSIG
12-11-16 METAR LFPG 161400Z 12006KT 090V160 2500 BR OVC004 04/03 Q1016 NOSIG
12-11-16 METAR LFPG 161430Z 14005KT 100V180 3000 BR OVC004 04/03 Q1016 NOSIG
12-11-16 METAR LFPG 161500Z 15005KT 120V180 3500 BR OVC005 04/03 Q1015 NOSIG
12-11-16 METAR LFPG 161530Z 13005KT 100V160 3500 BR OVC005 04/03 Q1015 NOSIG
12-11-16 METAR LFPG 161600Z 16005KT 070V200 4000 BR OVC005 04/03 Q1015 NOSIG
12-11-16 METAR LFPG 161630Z 14004KT 4000 BR OVC005 04/03 Q1015 NOSIG
12-11-16 METAR LFPG 161700Z 14005KT 4000 BR SCT005 04/03 Q1015 NOSIG
12-11-16 METAR LFPG 161730Z 14004KT 4000 BR FEW005 04/03 Q1015 NOSIG
12-11-16 METAR LFPG 161800Z 16003KT 090V180 4000 BR BKN009 04/03 Q1015 NOSIG
12-11-16 METAR LFPG 161830Z 15004KT 110V180 4000 BR BKN008 04/03 Q1015 NOSIG
12-11-16 METAR LFPG 161900Z 15005KT 4000 BR BKN010 04/03 Q1015 NOSIG
12-11-16 METAR LFPG 161930Z 15006KT 4000 BR BKN009 04/03 Q1014 NOSIG
12-11-16 METAR LFPG 162000Z 14005KT 3000 BR BKN005 04/03 Q1014 NOSIG
12-11-16 METAR LFPG 162030Z 14007KT 4000 BR SCT003 BKN005 04/03 Q1014 NOSIG
12-11-16 METAR LFPG 162100Z 14008KT 0250 R27L/0800V1100 R09R/1700 R26R/P2000 R08L/0750 R26L/P2000 R08R/0800 R27R/1100V1700 R09L/0900V1700 FG OVC000 04/03 Q1014 NOSIG
12-11-16 METAR LFPG 162130Z 14009KT 100V160 0200 R27L/0900V1900D R09R/0900V2000D R26R/0800V1000N R08L/0800U R26L/0700N R08R/0750D R27R/1000D R09L/0800V1000U FG VV/// 04/03 Q1013 NOSIG
12-11-16 METAR LFPG 162200Z 15010KT 110V170 0200 R27L/0650N R09R/0900V1100U R26R/0800N R08L/0700N R26L/0700N R08R/0700N R27R/0700N R09L/0750D FG VV/// 04/03 Q1013 NOSIG
12-11-16 METAR LFPG 162230Z 16008KT 0200 R27L/0600N R09R/0750N R26R/0800N R08L/0700N R26L/0650N R08R/0700N R27R/0600N R09L/0600N FG VV/// 04/03 Q1013 NOSIG
12-11-16 METAR LFPG 162300Z 16007KT 120V180 0200 R27L/0600N R09R/0900U R26R/0750V1000N R08L/0750N R26L/0600N R08R/0700N R27R/0600N R09L/0550N FG VV/// 04/04 Q1013 NOSIG
12-11-16 METAR LFPG 162330Z 17008KT 100V200 0200 R27L/0700N R09R/0650V1100D R26R/0800V1300D R08L/0750N R26L/0650N R08R/0750N R27R/0750N R09L/0650N
12-11-17 METAR LFPG 170000Z 19007KT 0200 R27L/0700N R09R/0900D R26R/1200D R08L/0900U R26L/0900N R08R/0900V1100D R27R/0750N R09L/0650N FG VV/// 04/04 Q1013 NOSIG
12-11-17 METAR LFPG 170030Z 17006KT 0200 R27L/0800U R09R/1000N R26R/1200N R08L/1100N R26L/0900D R08R/0900N R27R/0900U R09L/0700N FG VV/// 04/04 Q1012 NOSIG
12-11-17 METAR LFPG 170100Z 17008KT 0250 R27L/0900N R09R/0900N R26R/1200N R08L/0900N R26L/0900N R08R/0900U R27R/0900N R09L/0750N FG VV/// 05/04 Q1012 NOSIG
12-11-17 METAR LFPG 170130Z 16008KT 0250 R27L/0800N R09R/0900N R26R/1100N R08L/0900N R26L/0900N R08R/0800D R27R/0800N R09L/0800N FG VV/// 05/04 Q1012 NOSIG
12-11-17 METAR LFPG 170200Z 17007KT 0250 R27L/0750N R09R/0900U R26R/1200U R08L/0800D R26L/0900N R08R/0900N R27R/0800N R09L/0800N FG VV/// 05/04 Q1011 NOSIG
12-11-17 METAR LFPG 170230Z 17006KT 0250 R27L/0800N R09R/0900N R26R/1300N R08L/0800U R26L/0900V1100D R08R/0900N R27R/0800N R09L/0800N FG VV/// 05/04 Q1012
12-11-17 METAR LFPG 170300Z 16006KT 0250 R27L/0750N R09R/0800V1000D R26R/1000N R08L/0800N R26L/0800N R08R/0800N R27R/0750N R09L/0700N FG VV/// 05/04 Q1011 NOSIG
12-11-17 METAR LFPG 170330Z 17006KT 0200 R27L/0650N R09R/0800N R26R/0900N R08L/0750N R26L/0750N R08R/0750N R27R/0700N R09L/0600N FG VV/// 05/05 Q1011 NOSIG
12-11-17 METAR LFPG 170400Z 16006KT 0200 R27L/0700N R09R/0800N R26R/0900N R08L/0750N R26L/0700N R08R/0750N R27R/0800N R09L/0700N FG VV/// 06/05 Q1011 NOSIG
12-11-17 METAR LFPG 170430Z 16006KT 0200 R27L/0700N R09R/0800D R26R/0800V1300N R08L/0750N R26L/0700N R08R/0750N R27R/0800N R09L/0700N FG VV/// 06/05
12-11-17 METAR LFPG 170500Z 16006KT 0150 R27L/0750N R09R/0800N R26R/0800N R08L/0700N R26L/0650N R08R/0700N R27R/0800N R09L/0650N FG VV/// 06/05 Q1011 NOSIG
12-11-17 METAR LFPG 170530Z 15005KT 0150 R27L/0700N R09R/0800N R26R/0800N R08L/0650N R26L/0650N R08R/0650N R27R/0750N R09L/0650N FG VV/// 06/05 Q1011 NOSIG
12-11-17 METAR LFPG 170600Z 17007KT 0150 R27L/0700N R09R/0800N R26R/0900V1200U R08L/0700N R26L/0700N R08R/0700N R27R/0750N R09L/0700N FG VV/// 06/06
12-11-17 METAR LFPG 170630Z 18006KT 0150 R27L/0800N R09R/0900U R26R/0900V1300N R08L/0800N R26L/0700N R08R/0800N R27R/0800N R09L/0700N FG VV/// 06/06
12-11-17 METAR LFPG 170700Z 18006KT 0200 R27L/1000N R09R/1100N R26R/1000V1400N R08L/0800N R26L/0700N R08R/0800N R27R/1000N R09L/0800V1000N FG VV/// 07/06 Q1011 NOSIG
12-11-17 METAR LFPG 170730Z 17007KT 0150 R27L/0650N R09R/0700N R26R/0750N R08L/0600N R26L/0550N R08R/0600N R27R/0700N R09L/0600V0750N FG VV/// 07/06 Q1011
12-11-17 METAR LFPG 170800Z 17006KT 0250 R27L/0650N R09R/0700N R26R/0800V1200U R08L/0600N R26L/0600N R08R/0650N R27R/0700N R09L/0600N FG VV/// 07/06
12-11-17 METAR LFPG 170830Z 17006KT 0250 R27L/0800V1000D R09R/0900N R26R/1000V1400D R08L/0900U R26L/0750N R08R/0800N R27R/0900V1100U R09L/0800N FG VV///
12-11-17 METAR LFPG 170900Z 19006KT 0250 R27L/0800V1100N R09R/0900N R26R/1000V1700U R08L/1000U R26L/0700N R08R/0800V1100U R27R/1000N R09L/0750N FG VV/// 07/07 Q1011 NOSIG
12-11-17 METAR LFPG 170930Z 18006KT 0400 R27L/1000V1700U R09R/1600U R26R/1000V1800D R08L/1300V2000D R26L/0700N R08R/P2000 R27R/1100V1700U R09L/1000V1500N FG BKN000 OVC002 07/07 Q1011 NOSIG
12-11-17 METAR LFPG 171000Z 17007KT 0700 R27L/1800D R09R/1900U R26R/P2000 R08L/P2000 R26L/1700U R08R/P2000 R27R/2000N R09L/1800N FG BKN001 OVC002 08/07 Q1011 BECMG 1000 BR BKN002
12-11-17 METAR LFPG 171030Z 19006KT 160V270 1400 R27L/P2000 R09R/P2000 R26R/P2000 R08L/P2000 R26L/2000D R08R/P2000 R27R/P2000 R09L/2000U BR BKN002 OVC002 08/07 Q1011 BECMG 3000 BR BKN003
12-11-17 METAR LFPG 171100Z VRB08KT 1500 BR SCT002 OVC003 08/07 Q1010 BECMG 3000 BR BKN003
12-11-17 METAR LFPG 171130Z VRB06KT 1500 BR SCT002 OVC003 08/07 Q1010 BECMG 3000 BR
12-11-17 METAR LFPG 171200Z 19004KT 1500 BR SCT002 OVC002 08/08 Q1010 BECMG 3000 BR
12-11-17 METAR LFPG 171230Z 18005KT 1400 R27L/1900D R09R/P2000 R26R/P2000 R08L/P2000 R26L/P2000 R08R/P2000 R27R/1900N R09L/1700D BR FEW001 OVC002 08/08 Q1010 BECMG 3000 BR BKN003
12-11-17 METAR LFPG 171300Z 19006KT 1500 BR SCT002 OVC003 08/08 Q1010 BECMG 3000 BR
12-11-17 METAR LFPG 171330Z VRB07KT 1500 BR SCT003 OVC004 09/08 Q1009 BECMG 3000 BR
12-11-17 METAR LFPG 171400Z 18007KT 3500 BR SCT004 OVC005 09/08 Q1009 NOSIG
12-11-17 METAR LFPG 171430Z 17007KT 3500 BR SCT003 OVC004 09/08 Q1009 NOSIG
12-11-17 METAR LFPG 171600Z 15006KT 2000 BR FEW004 OVC006 09/09 Q1009 NOSIG
12-11-17 METAR LFPG 171630Z 16005KT 4000 BR SCT006 OVC008 09/09 Q1009 NOSIG
12-11-17 METAR LFPG 171700Z 17002KT 4500 BR SCT008 OVC009 09/09 Q1009 NOSIG
12-11-17 METAR LFPG 171730Z 19003KT 5000 SCT009 OVC012 09/09 Q1009 NOSIG
12-11-17 METAR LFPG 171800Z 00000KT 5000 SCT011 OVC013 10/09 Q1009 NOSIG
12-11-17 METAR LFPG 171830Z 18002KT 5000 OVC013 10/09 Q1009 NOSIG
12-11-17 METAR LFPG 171900Z VRB02KT 5000 OVC013 10/09 Q1009 NOSIG
12-11-17 METAR LFPG 171930Z VRB03KT 5000 OVC013 10/09 Q1009 NOSIG
12-11-17 METAR LFPG 172000Z 16003KT 5000 BKN013 SCT057 10/09 Q1009 NOSIG
12-11-17 METAR LFPG 172030Z VRB03KT 5000 SCT018 BKN055 10/09 Q1010 NOSIG
12-11-17 METAR LFPG 172100Z VRB02KT 5000 R26L/1000VP2000N BR BKN018 SCT055 09/09 Q1010 NOSIG
12-11-17 METAR LFPG 172130Z 14003KT 4000 BR SCT018 SCT055 09/08 Q1010 NOSIG
12-11-17 METAR LFPG 172200Z VRB02KT 3000 BR FEW018 BKN052 09/09 Q1009 NOSIG
12-11-17 METAR LFPG 172230Z 00000KT 3000 BR FEW046 BKN050 09/08 Q1009 NOSIG
12-11-17 METAR LFPG 172300Z 00000KT 1200 R27L/P2000 R09R/P2000 R26R/P2000 R08L/P2000 R26L/P2000 R08R/1800U R27R/P2000 R09L/P2000 BR FEW002 BKN050 BKN090 09/08 Q1009 NOSIG
12-11-17 METAR LFPG 172330Z VRB02KT 0700 R27L/P2000 R09R/P2000 R26R/P2000 R08L/P2000 R26L/0800VP2000U R08R/1700D R27R/1300VP2000D R09L/P2000 BCFG FEW020 BKN050 BKN100 08/08 Q1010 NOSIG
12-11-18 METAR LFPG 180000Z VRB02KT 1200 R27L/P2000 R09R/P2000 R26R/P2000 R08L/P2000 R26L/P2000 R08R/P2000 R27R/P2000 R09L/P2000 BR FEW009 BKN036 08/08 Q1010 NOSIG
12-11-18 METAR LFPG 180030Z VRB02KT 0800 R27L/P2000 R09R/P2000 R26R/P2000 R08L/P2000 R26L/P2000 R08R/P2000 R27R/P2000 R09L/1400VP2000D BCFG FEW008 SCT018 BKN059 09/08 Q1009 NOSIG
12-11-18 METAR LFPG 180100Z 36003KT 350V080 0600 R27L/1700U R09R/1700D R26R/P2000 R08L/P2000 R26L/P2000 R08R/P2000 R27R/1100V1900D R09L/1200VP2000D BCFG FEW003 SCT018 BKN054 09/08 Q1009 NOSIG
12-11-18 METAR LFPG 180130Z 12003KT 080V140 0700 R27L/P2000 R09R/1400VP2000U R26R/P2000 R08L/P2000 R26L/P2000 R08R/P2000 R27R/1700U R09L/2000D BCFG FEW003 BKN005 BKN054 08/08 Q1009 NOSIG
12-11-18 METAR LFPG 180200Z 14003KT 0900 R27L/P2000 R09R/P2000 R26R/P2000 R08L/P2000 R26L/P2000 R08R/P2000 R27R/P2000 R09L/P2000 BCFG OVC004 09/08 Q1010 NOSIG
12-11-18 METAR LFPG 180230Z 11001KT 1200 R27L/P2000 R09R/P2000 R26R/P2000 R08L/P2000 R26L/P2000 R08R/P2000 R27R/P2000 R09L/P2000 OVC004 09/08 Q1010 NOSIG
12-11-18 METAR LFPG 180300Z 00000KT 1200 R27L/P2000 R09R/P2000 R26R/P2000 R08L/P2000 R26L/P2000 R08R/P2000 R27R/P2000 R09L/P2000 BR OVC004 09/08 Q1010
12-11-18 METAR LFPG 180330Z 00000KT 1200 R27L/P2000 R09R/P2000 R26R/P2000 R08L/P2000 R26L/P2000 R08R/P2000 R27R/P2000 R09L/P2000 BR SCT001 BKN003 09/08
12-11-18 METAR LFPG 180400Z 34002KT 0250 R27L/1000VP2000D R09R/1400VP2000D R26R/P2000 R08L/P2000 R26L/P2000 R08R/P2000 R27R/0800N R09L/0900V1300D FG SCT001 BKN003 09/08 Q1010 NOSIG
12-11-18 METAR LFPG 180430Z 01004KT 0300 R27L/1600U R09R/1000N R26R/P2000 R08L/2000D R26L/1800D R08R/1700D R27R/1100V1500U R09L/1000U -DZRA FG BKN001
12-11-18 METAR LFPG 180500Z 36005KT 320V040 2000 -DZRA BR OVC002 09/09 Q1010 NOSIG
12-11-18 METAR LFPG 180530Z 01006KT 2000 -DZRA BR OVC003 09/09 Q1010 NOSIG
12-11-18 METAR LFPG 180600Z 34009KT 2000 -RA BR OVC003 09/08 Q1011 NOSIG
12-11-18 METAR LFPG 180630Z 01012KT 4000 -RA BR SCT005 BKN022 08/07 Q1011 NOSIG
12-11-18 METAR LFPG 180700Z 01010KT 4000 -RA BR SCT006 BKN025 08/07 Q1012 TEMPO BKN012
12-11-18 METAR LFPG 180730Z 36009KT 4000 -RA BR FEW004 BKN006 BKN028 08/07 Q1012 TEMPO BKN020
12-11-18 METAR LFPG 180800Z 01009KT 4500 -RA BR FEW004 BKN006 BKN028 08/07 Q1012
12-11-18 METAR LFPG 180830Z 02007KT 8000 -RA BKN006 BKN028 08/07 Q1012 TEMPO BKN020
12-11-18 METAR LFPG 180900Z 03006KT 8000 -RA BKN006 BKN041 08/07 Q1012 TEMPO BKN020
12-11-18 METAR LFPG 180930Z 04005KT 010V080 8000 -RA BKN006 BKN048 08/07 Q1013 TEMPO
12-11-18 METAR LFPG 181000Z 03006KT 360V100 7000 -RA BKN006 BKN048 08/08 Q1013 TEMPO
12-11-18 METAR LFPG 181030Z 01005KT 350V120 7000 -RA BKN006 BKN050 08/08 Q1014 TEMPO
12-11-18 METAR LFPG 181100Z 05005KT 020V080 7000 -RA SCT007 SCT013 BKN063 08/08 Q1013 NOSIG
12-11-18 METAR LFPG 181130Z 03005KT 010V070 9000 -RA BKN005 BKN056 09/08 Q1013
12-11-18 METAR LFPG 181200Z 02007KT 350V050 9999 -RA BKN006 BKN056 09/08 Q1013
12-11-18 METAR LFPG 181230Z 01007KT 9999 BKN006 BKN013 BKN055 09/08 Q1014 NOSIG
12-11-18 METAR LFPG 181300Z 02007KT 360V090 9999 SCT008 BKN018 BKN053 09/08 Q1014
12-11-18 METAR LFPG 181330Z 02008KT 360V060 9999 BKN006 BKN013 09/08 Q1014 NOSIG
12-11-18 METAR LFPG 181400Z 03007KT 350V090 9999 SCT008 BKN018 BKN050 09/07 Q1014
12-11-18 METAR LFPG 181430Z 02007KT 9999 FEW010 SCT016 BKN050 09/07 Q1014 NOSIG
12-11-18 METAR LFPG 181500Z 02008KT 9999 FEW008 SCT018 BKN050 09/07 Q1014 NOSIG
12-11-18 METAR LFPG 181530Z 02007KT 9999 FEW008 SCT021 BKN050 09/07 Q1014 NOSIG
12-11-18 METAR LFPG 181600Z 02007KT 300V080 9999 FEW011 BKN020 BKN050 09/07 Q1015
12-11-18 METAR LFPG 181630Z VRB05KT 9999 BKN021 BKN051 09/07 Q1015 NOSIG
12-11-18 METAR LFPG 181700Z 01006KT 9999 BKN023 BKN056 08/07 Q1015 NOSIG
12-11-18 METAR LFPG 181730Z 02005KT 350V100 9999 SCT024 BKN048 08/07 Q1015 NOSIG
12-11-18 METAR LFPG 181800Z 01006KT 360V120 9999 BKN046 SCT060 08/07 Q1016 NOSIG
12-11-18 METAR LFPG 181830Z 04006KT 010V080 9999 SCT024 BKN048 BKN065 08/06 Q1016
12-11-18 METAR LFPG 182000Z 03004KT 330V070 8000 BKN046 07/06 Q1016 NOSIG
12-11-18 METAR LFPG 182030Z 04005KT 7000 BKN047 07/06 Q1016 NOSIG
12-11-18 METAR LFPG 182100Z 03006KT 010V100 7000 BKN047 07/06 Q1016 NOSIG
12-11-18 METAR LFPG 182130Z 04005KT 020V080 7000 BKN047 07/06 Q1016 NOSIG
12-11-18 METAR LFPG 182200Z 03006KT 020V080 7000 BKN045 07/06 Q1016 NOSIG
12-11-18 METAR LFPG 182230Z 03005KT 7000 BKN045 07/06 Q1015 NOSIG
12-11-18 METAR LFPG 182300Z 04006KT 7000 BKN049 BKN076 07/06 Q1015 NOSIG
12-11-18 METAR LFPG 182330Z 03005KT 6000 BKN049 BKN076 07/06 Q1016 NOSIG
12-11-19 METAR LFPG 190000Z 05006KT 6000 BKN044 07/06 Q1015 NOSIG
12-11-19 METAR LFPG 190030Z 07006KT 6000 BKN044 BKN070 07/06 Q1015 NOSIG
12-11-19 METAR LFPG 190100Z 03003KT 6000 FEW024 BKN041 BKN070 07/06 Q1015 NOSIG
12-11-19 METAR LFPG 190130Z 01003KT 4000 BR BKN024 BKN041 07/06 Q1015 NOSIG
12-11-19 METAR LFPG 190200Z 04004KT 4500 BR SCT029 BKN046 07/06 Q1015 NOSIG
12-11-19 METAR LFPG 190230Z 05004KT 4000 BR SCT026 BKN047 07/06 Q1015 NOSIG
12-11-19 METAR LFPG 190300Z 06003KT 4000 BR FEW011 SCT025 BKN050 07/05 Q1015 NOSIG
12-11-19 METAR LFPG 190330Z 06005KT 4000 BR BKN009 07/06 Q1014 NOSIG
12-11-19 METAR LFPG 190400Z 11003KT 4000 BR BKN009 07/06 Q1014 NOSIG
12-11-19 METAR LFPG 190430Z 07003KT 4000 BR BKN008 07/06 Q1014 NOSIG
12-11-19 METAR LFPG 190500Z 09003KT 4000 BR BKN007 07/06 Q1014 NOSIG
12-11-19 METAR LFPG 190530Z 08002KT 4000 BR BKN007 07/06 Q1014 NOSIG
12-11-19 METAR LFPG 190600Z 08002KT 4000 BR SCT007 BKN010 07/06 Q1014 NOSIG
12-11-19 METAR LFPG 190630Z 08004KT 4000 BR BKN006 07/06 Q1014 NOSIG
12-11-19 METAR LFPG 190700Z 10005KT 4000 BR SCT004 BKN006 07/06 Q1014 NOSIG
12-11-19 METAR LFPG 190730Z 13003KT 090V160 4500 BR SCT005 BKN007 08/06 Q1015 NOSIG
12-11-19 METAR LFPG 190800Z 12003KT 4000 BR BKN005 08/07 Q1015 NOSIG
12-11-19 METAR LFPG 190830Z 14006KT 4000 BR BKN004 08/07 Q1015 NOSIG
12-11-19 METAR LFPG 190900Z 15007KT 3500 BR BKN003 08/07 Q1014 NOSIG
12-11-19 METAR LFPG 190930Z 16005KT 3500 BR SCT003 BKN004 08/07 Q1015 NOSIG
12-11-19 METAR LFPG 191000Z 16007KT 110V190 4500 BR BKN004 09/08 Q1015 NOSIG
12-11-19 METAR LFPG 191030Z 16007KT 5000 BR BKN005 BKN023 10/09 Q1015 NOSIG
12-11-19 METAR LFPG 191100Z VRB06KT 6000 BKN006 10/09 Q1015 NOSIG
12-11-19 METAR LFPG 191130Z 18007KT 6000 BKN006 11/09 Q1014 NOSIG
12-11-19 METAR LFPG 191200Z 16006KT 7000 SCT006 BKN046 11/09 Q1014 NOSIG
12-11-19 METAR LFPG 191230Z 15008KT 8000 SCT008 BKN040 11/09 Q1014 NOSIG
12-11-19 METAR LFPG 191300Z 16006KT 110V190 9999 SCT008 BKN063 12/10 Q1014 NOSIG
12-11-19 METAR LFPG 191330Z 15008KT 100V200 9999 BKN009 SCT063 12/10 Q1014 NOSIG
12-11-19 METAR LFPG 191400Z 16006KT 100V180 8000 BKN010 12/10 Q1014 NOSIG
12-11-19 METAR LFPG 191430Z 18007KT 100V210 8000 OVC011 12/10 Q1014 NOSIG
12-11-19 METAR LFPG 191500Z 20009KT 8000 OVC010 13/10 Q1014 NOSIG
12-11-19 METAR LFPG 191530Z 21008KT 7000 OVC008 12/10 Q1015 NOSIG
12-11-19 METAR LFPG 191600Z 19009KT 7000 OVC006 12/10 Q1015 NOSIG
12-11-19 METAR LFPG 191630Z 19007KT 6000 SCT006 BKN010 12/10 Q1015 NOSIG
12-11-19 METAR LFPG 191700Z 19007KT 8000 BKN011 12/10 Q1015 NOSIG
12-11-19 METAR LFPG 191730Z 21009KT 9000 BKN010 12/10 Q1015 NOSIG
12-11-19 METAR LFPG 191800Z 17007KT 9999 FEW010 BKN015 12/10 Q1015 NOSIG
12-11-19 METAR LFPG 191830Z 18006KT 9999 OVC014 12/10 Q1015 NOSIG
12-11-19 METAR LFPG 191900Z 18006KT 9999 OVC013 12/09 Q1015 NOSIG
12-11-19 METAR LFPG 191930Z 17006KT 160V250 9999 OVC012 11/09 Q1015 NOSIG
12-11-19 METAR LFPG 192000Z 18006KT 9999 BKN013 BKN046 11/09 Q1015 NOSIG
12-11-19 METAR LFPG 192030Z VRB07KT 9999 BKN012 SCT046 11/10 Q1015 NOSIG
12-11-19 METAR LFPG 192100Z 17008KT 9999 FEW011 BKN019 12/10 Q1015 NOSIG
12-11-19 METAR LFPG 192130Z 17006KT 9999 SCT011 BKN016 11/10 Q1015 NOSIG
12-11-19 METAR LFPG 192200Z 18007KT 9999 FEW013 BKN019 BKN043 11/10 Q1016 NOSIG
12-11-19 METAR LFPG 192230Z 21006KT 9999 FEW009 BKN013 11/10 Q1016 NOSIG
12-11-19 METAR LFPG 192300Z 22005KT 9999 BKN026 BKN043 11/10 Q1016 NOSIG
12-11-19 METAR LFPG 192330Z 22004KT 9999 BKN045 11/09 Q1016 NOSIG
12-11-20 METAR LFPG 200000Z 18005KT 9999 BKN043 11/09 Q1016 NOSIG
12-11-20 METAR LFPG 200030Z 18006KT 8000 NSC 10/09 Q1016 NOSIG
12-11-20 METAR LFPG 200100Z 18006KT 7000 NSC 10/09 Q1016 NOSIG
12-11-20 METAR LFPG 200130Z 17007KT 6000 NSC 10/08 Q1016 NOSIG
12-11-20 METAR LFPG 200200Z 16006KT 6000 0700SE R27L/P2000 R09R/P2000 R26R/P2000 R08L/P2000 R26L/1400V1900D R08R/1300VP2000D R27R/P2000 R09L/P2000 BCFG SCT002 09/08 Q1016 NOSIG
12-11-20 METAR LFPG 200230Z 15007KT 0800 0400S R27L/0750D R09R/P2000 R26R/P2000 R08L/0800VP2000D R26L/0900VP2000D R08R/0800V1300D R27R/0800VP2000D R09L/P2000 FG BKN000 08/08 Q1016 NOSIG
12-11-20 METAR LFPG 200300Z 16008KT 0800 0400S R27L/0800V1100D R09R/1500VP2000U R26R/0800V1100N R08L/0900V1800U R26L/0700N R08R/0900V1400U R27R/0900V1500D R09L/1300VP2000U FG BKN001 09/08 Q1016 NOSIG
12-11-20 METAR LFPG 200330Z 19008KT 1500 0400S R27L/2000D R09R/P2000 R26R/0800V1800U R08L/P2000 R26L/0900U R08R/P2000 R27R/P2000 R09L/P2000 BCFG BR BKN001 09/08 Q1016 NOSIG
12-11-20 METAR LFPG 200400Z 16006KT 2000 0600SE R27L/0800V1200D R09R/P2000 R26R/1900D R08L/1100V1600D R26L/P2000 R08R/1700U R27R/0800V1600D R09L/P2000 BCFG BR BKN001 09/08 Q1016 NOSIG
12-11-20 METAR LFPG 200430Z 16006KT 2000 0600SE R27L/1800U R09R/P2000 R26R/1700D R08L/1100V1800U R26L/1000VP2000U R08R/P2000 R27R/P2000 R09L/P2000 BCFG BR BKN001 BKN280 08/08 Q1016 NOSIG
12-11-20 METAR LFPG 200500Z 16008KT 2500 BR BKN002 BKN210 08/07 Q1016 NOSIG
12-11-20 METAR LFPG 200530Z 17007KT 2000 BR BKN002 08/07 Q1016 NOSIG
12-11-20 METAR LFPG 200600Z 16009KT 2000 0900SE R27L/P2000 R09R/P2000 R26R/P2000 R08L/P2000 R26L/P2000 R08R/1900D R27R/P2000 R09L/P2000 BCFG BR BKN001 BKN002 08/07 Q1016 NOSIG
12-11-20 METAR LFPG 200630Z 16006KT 1000 0700SE R27L/P2000 R09R/P2000 R26R/P2000 R08L/1800U R26L/1900U R08R/2000U R27R/P2000 R09L/P2000 BCFG BR SCT001 BKN001 BKN002 08/07 Q1016 NOSIG
12-11-20 METAR LFPG 200700Z 17008KT 1000 0500E R27L/P2000 R09R/P2000 R26R/1900D R08L/1300VP2000D R26L/1300VP2000U R08R/1000V1900D R27R/P2000 R09L/P2000 PRFG BKN001 BKN001 BKN002 08/07 Q1016 NOSIG
12-11-20 METAR LFPG 200730Z 16007KT 1000 0500E R27L/1700D R09R/P2000 R26R/1800D R08L/1100N R26L/1000V1900U R08R/1000VP2000U R27R/1500VP2000D R09L/1900D PRFG BKN001 BKN002 07/07 Q1017 NOSIG
12-11-20 METAR LFPG 200800Z 16007KT 0600 R27L/1300VP2000U R09R/P2000 R26R/1900U R08L/1500U R26L/1700D R08R/1300VP2000D R27R/1300VP2000D R09L/1700D FG
12-11-20 METAR LFPG 200830Z 17007KT 0800 R27L/1900U R09R/P2000 R26R/P2000 R08L/P2000 R26L/1800U R08R/1900U R27R/1700U R09L/P2000 FG BKN001 BKN002 08/07 Q1017 NOSIG
12-11-20 METAR LFPG 200900Z 16008KT 2000 BR BKN002 08/07 Q1017 NOSIG
12-11-20 METAR LFPG 201030Z 16008G19KT 110V180 8000 SCT006 BKN260 10/08 Q1017 NOSIG
12-11-20 METAR LFPG 201100Z 16009KT 9000 FEW007 BKN260 10/08 Q1017 NOSIG
12-11-20 METAR LFPG 201130Z 16010KT 9999 FEW008 BKN260 11/08 Q1016 NOSIG
12-11-20 METAR LFPG 201200Z 17008KT 110V200 9999 FEW008 BKN260 11/07 Q1016 NOSIG
12-11-20 METAR LFPG 201230Z 16008KT 100V210 9999 FEW010 BKN260 11/07 Q1016 NOSIG
12-11-20 METAR LFPG 201300Z 16009KT 110V190 9999 FEW012 BKN260 12/07 Q1016 NOSIG
12-11-20 METAR LFPG 201330Z 16008KT 110V190 9999 FEW013 BKN260 11/07 Q1016 NOSIG
12-11-20 METAR LFPG 201400Z 15009KT 110V180 CAVOK 11/07 Q1016 NOSIG
12-11-20 METAR LFPG 201530Z 13009KT 7000 NSC 09/07 Q1015 NOSIG
12-11-20 METAR LFPG 201600Z 14011KT 8000 SCT007 SCT100 BKN230 09/07 Q1016 NOSIG
12-11-20 METAR LFPG 201630Z 15009KT 8000 BKN006 SCT100 BKN220 08/07 Q1016 NOSIG
12-11-20 METAR LFPG 201700Z 15008KT 8000 FEW005 BKN006 08/07 Q1016 NOSIG
12-11-20 METAR LFPG 201730Z 14009KT 6000 FEW004 BKN005 08/07 Q1016 NOSIG
12-11-20 METAR LFPG 201800Z 16010KT 5000 BKN003 BKN004 09/07 Q1016 NOSIG
12-11-20 METAR LFPG 201830Z 16007KT 2500 FEW002 OVC003 09/08 Q1016 NOSIG
12-11-20 METAR LFPG 201900Z 15008KT 110V180 2500 FEW002 OVC003 09/08 Q1016 NOSIG
12-11-20 METAR LFPG 201930Z 14010KT 3000 BR SCT002 OVC003 09/08 Q1015 NOSIG
12-11-20 METAR LFPG 202000Z 15012KT 3000 BR FEW001 SCT002 OVC003 09/08 Q1015 NOSIG
12-11-20 METAR LFPG 202030Z 13011KT 3000 BR SCT002 OVC003 08/07 Q1015 NOSIG
12-11-20 METAR LFPG 202100Z 13010KT 3000 BR SCT002 OVC003 08/08 Q1015 NOSIG
12-11-20 METAR LFPG 202130Z 13011KT 3000 BR SCT001 OVC003 08/07 Q1014 NOSIG
12-11-20 METAR LFPG 202200Z 13009KT 2000 BR FEW000 SCT001 OVC003 07/07 Q1014 NOSIG
12-11-20 METAR LFPG 202230Z 13009KT 2000 BR SCT000 OVC002 07/07 Q1014 NOSIG
12-11-20 METAR LFPG 202300Z 13011KT 2500 BR SCT002 OVC003 07/06 Q1014 NOSIG
12-11-20 METAR LFPG 202330Z 13010KT 2500 BR SCT000 OVC002 07/06 Q1014 NOSIG
12-11-21 METAR LFPG 210000Z 12010KT 2500 BR SCT000 OVC002 07/06 Q1013 NOSIG
12-11-21 METAR LFPG 210030Z 13011KT 3500 BR SCT002 OVC004 06/06 Q1013 NOSIG
12-11-21 METAR LFPG 210100Z 12011KT 6000 SCT002 OVC004 06/05 Q1012 NOSIG
12-11-21 METAR LFPG 210130Z 12012KT 6000 FEW002 OVC004 06/05 Q1012 NOSIG
12-11-21 METAR LFPG 210300Z 13010KT 6000 SCT003 OVC004 05/04 Q1011 NOSIG
12-11-21 METAR LFPG 210330Z 13012KT 7000 OVC004 05/04 Q1011 NOSIG
12-11-21 METAR LFPG 210400Z 13010KT 7000 OVC004 05/04 Q1011 NOSIG
12-11-21 METAR LFPG 210430Z 13011KT 7000 OVC004 05/04 Q1011 NOSIG
12-11-21 METAR LFPG 210500Z 12013KT 7000 OVC005 05/04 Q1010 NOSIG
12-11-21 METAR LFPG 210530Z 13009KT 7000 BKN006 05/04 Q1010 NOSIG
12-11-21 METAR LFPG 210600Z 16009KT 9000 BKN007 BKN110 05/03 Q1011 NOSIG
12-11-21 METAR LFPG 210630Z 14010KT 9000 SCT007 BKN093 05/03 Q1011 NOSIG
12-11-21 METAR LFPG 210700Z 15013KT 9999 FEW008 BKN090 05/03 Q1011 NOSIG
12-11-21 METAR LFPG 210730Z 14013KT CAVOK 05/03 Q1010 NOSIG
12-11-21 METAR LFPG 210800Z 15012KT CAVOK 05/03 Q1011 NOSIG
12-11-21 METAR LFPG 210830Z 16010KT CAVOK 05/03 Q1011 NOSIG
12-11-21 METAR LFPG 210900Z 16008KT 9999 -RA NSC 06/04 Q1011 NOSIG
12-11-21 METAR LFPG 210930Z 16008KT 9000 -RA NSC 06/04 Q1011 NOSIG
12-11-21 METAR LFPG 211000Z 17009KT 9000 -RA FEW015 BKN070 06/05 Q1011 NOSIG
12-11-21 METAR LFPG 211030Z 17011G21KT 150V290 9000 -RA FEW012 BKN033 07/05 Q1011
12-11-21 METAR LFPG 211100Z 18010KT 9000 -RA SCT010 BKN046 07/06 Q1011 NOSIG
12-11-21 METAR LFPG 211130Z 19011KT 8000 -RA BKN009 08/07 Q1012 NOSIG
12-11-21 METAR LFPG 211200Z 19010KT 8000 -RA OVC008 09/07 Q1012 BECMG BKN020
12-11-21 METAR LFPG 211230Z 19011KT 9999 BKN009 BKN016 09/08 Q1012 BECMG BKN020
12-11-21 METAR LFPG 211300Z 20011KT 9999 BKN011 10/09 Q1012 BECMG BKN020
12-11-21 METAR LFPG 211330Z 22013KT 9999 -RA OVC012 11/09 Q1013 BECMG BKN020
12-11-21 METAR LFPG 211400Z 23011KT 9999 BKN014 11/09 Q1013 BECMG BKN020
12-11-21 METAR LFPG 211430Z 24015KT 9999 BKN015 12/08 Q1014 NOSIG
12-11-21 METAR LFPG 211500Z 24014KT 9999 BKN019 11/08 Q1014 NOSIG
12-11-21 METAR LFPG 211530Z 25016KT 9999 BKN033 11/06 Q1015 NOSIG
12-11-21 METAR LFPG 211600Z 25012KT 9999 BKN036 11/06 Q1016 NOSIG
12-11-21 METAR LFPG 211630Z 23011KT 9999 BKN040 11/06 Q1016 NOSIG
12-11-21 METAR LFPG 211700Z 25011KT 9999 BKN041 11/06 Q1017 NOSIG
12-11-21 METAR LFPG 211730Z 24008KT 9999 SCT030 10/06 Q1017 NOSIG
12-11-21 METAR LFPG 211800Z 23009G21KT 200V260 9999 FEW028 10/06 Q1018 NOSIG
12-11-21 METAR LFPG 211830Z 22007KT 9999 FEW028 09/06 Q1018 NOSIG
12-11-21 METAR LFPG 211900Z 23009KT CAVOK 09/06 Q1019 NOSIG
12-11-21 METAR LFPG 212030Z 24008KT CAVOK 08/05 Q1020 NOSIG
12-11-21 METAR LFPG 212100Z 23007KT CAVOK 08/05 Q1020 NOSIG
12-11-21 METAR LFPG 212130Z 23003KT 210V310 CAVOK 08/05 Q1020 NOSIG
12-11-21 METAR LFPG 212200Z 00000KT 9999 FEW045 06/04 Q1021 NOSIG
12-11-21 METAR LFPG 212230Z 18005KT 9999 FEW045 07/05 Q1021 NOSIG
12-11-21 METAR LFPG 212300Z 18006KT 9999 FEW045 07/05 Q1021 NOSIG
12-11-21 METAR LFPG 212330Z 18005KT 9999 FEW045 07/05 Q1021 NOSIG
12-11-22 METAR LFPG 220000Z 19007KT CAVOK 06/05 Q1021 NOSIG
12-11-22 METAR LFPG 220030Z 18007KT CAVOK 06/05 Q1021 NOSIG
12-11-22 METAR LFPG 220100Z 17006KT 9999 4000S BR NSC 06/05 Q1021 NOSIG
12-11-22 METAR LFPG 220130Z 16005KT CAVOK 06/05 Q1022 NOSIG
12-11-22 METAR LFPG 220200Z 16005KT CAVOK 06/05 Q1022 NOSIG
12-11-22 METAR LFPG 220230Z 16007KT 9999 4000S BR NSC 05/04 Q1022 NOSIG
12-11-22 METAR LFPG 220300Z 16007KT 9000 2000S BR NSC 05/04 Q1022 NOSIG
12-11-22 METAR LFPG 220430Z 17007KT 2500 0300S R27L/P2000 R09R/P2000 R26R/1100VP2000D R08L/1000V1600D R26L/0800V1800U R08R/0550D R27R/P2000 R09L/P2000 BCFG BR FEW000 BKN002 05/04 Q1022 NOSIG
12-11-22 METAR LFPG 220500Z 17007KT 0100 R27L/0450N R09R/0500N R26R/0650N R08L/0550N R26L/0500N R08R/0500N R27R/0450V0650N R09L/0600U FG VV/// 05/04 Q1022 NOSIG
12-11-22 METAR LFPG 220530Z 18008KT 150V210 0100 R27L/0450V0650N R09R/0550N R26R/0900U R08L/0600N R26L/0550N R08R/0550N R27R/0450N R09L/0450N FG VV/// 05/04 Q1022 NOSIG
12-11-22 METAR LFPG 220600Z 16009KT 0150 R27L/0500N R09R/0600N R26R/0750N R08L/0600N R26L/0600N R08R/0600N R27R/0600N R09L/0450V0550N FG VV/// 05/04 Q1022
12-11-22 METAR LFPG 220630Z 17010KT 0200 R27L/0600N R09R/0650U R26R/0900N R08L/0650N R26L/0700N R08R/0650N R27R/0600N R09L/0550N FG VV/// 05/04 Q1022 NOSIG
12-11-22 METAR LFPG 220700Z 17007KT 0300 R27L/0800V1000N R09R/0800N R26R/0800V1200D R08L/0800N R26L/0650N R08R/0800U R27R/0800V1100U R09L/0650N FG VV/// 05/04 Q1022 NOSIG
12-11-22 METAR LFPG 220730Z 18007KT 0250 R27L/0550D R09R/0650N R26R/0800V1200U R08L/0600N R26L/0650N R08R/0700N R27R/0600N R09L/0500V0700N FG VV/// 05/04 Q1023 NOSIG
12-11-22 METAR LFPG 220800Z 17008KT 0150 R27L/0600N R09R/0550N R26R/0800V1100U R08L/0600N R26L/0650N R08R/0650N R27R/0550N R09L/0500N FG VV/// 05/05
12-11-22 METAR LFPG 220830Z 18007KT 090V250 0250 R27L/0550V0800N R09R/0750D R26R/1100D R08L/0900U R26L/0750V1200U R08R/0650N R27R/0550V0750N R09L/0450V0700N FG VV/// 05/05 Q1023 NOSIG
12-11-22 METAR LFPG 220900Z 19007KT 0500 R27L/0800U R09R/1200VP2000D R26R/1700U R08L/0800D R26L/0800V1700U R08R/1300V2000D R27R/0700N R09L/0800U FG OVC001 06/05 Q1023 NOSIG
12-11-22 METAR LFPG 220930Z 17008KT 0500 R27L/0750N R09R/1200VP2000U R26R/1700U R08L/0900U R26L/1200V2000U R08R/1200VP2000U R27R/0800V1300D R09L/0900V1900U FG BKN000 OVC002 06/05 Q1023 NOSIG
12-11-22 METAR LFPG 221000Z 18008KT 1500 BR BKN001 OVC002 06/05 Q1023 BECMG 1500 BR OVC003
12-11-22 METAR LFPG 221030Z 17010G23KT 030V190 2100 BR SCT001 OVC002 06/05 Q1022 BECMG 3000 BR OVC005
12-11-22 METAR LFPG 221200Z 18010KT 8000 BKN005 07/06 Q1022 NOSIG
12-11-22 METAR LFPG 221230Z 18013KT 9999 BKN006 07/06 Q1021 NOSIG
12-11-22 METAR LFPG 221300Z 17011KT 100V200 9999 BKN007 07/06 Q1021 NOSIG
12-11-22 METAR LFPG 221330Z 17011KT 100V200 9999 BKN008 08/06 Q1021 NOSIG
12-11-22 METAR LFPG 221500Z 17010KT 9999 BKN011 08/06 Q1020 NOSIG
12-11-22 METAR LFPG 221530Z 16012KT 9999 BKN013 08/06 Q1020 NOSIG
12-11-22 METAR LFPG 221600Z 16011KT 9999 BKN013 BKN017 08/06 Q1020 NOSIG
12-11-22 METAR LFPG 221630Z 16010KT 9999 BKN012 BKN016 08/06 Q1019 NOSIG
12-11-22 METAR LFPG 221700Z 16010KT 9999 OVC010 08/06 Q1019 NOSIG
12-11-22 METAR LFPG 221730Z 16011KT 9999 OVC010 08/06 Q1019 NOSIG
12-11-22 METAR LFPG 221800Z 16012KT 9999 OVC009 07/05 Q1019 NOSIG
12-11-22 METAR LFPG 221830Z 17012KT 9999 SCT008 BKN260 07/05 Q1019 NOSIG
12-11-22 METAR LFPG 221900Z 17008KT 9999 FEW007 BKN260 07/05 Q1019 NOSIG
12-11-22 METAR LFPG 221930Z 15010KT 9999 FEW007 BKN260 06/05 Q1018 NOSIG
12-11-22 METAR LFPG 222000Z 16010KT 110V180 9999 FEW006 BKN260 07/05 Q1018 NOSIG
12-11-22 METAR LFPG 222030Z 16015KT 9999 SCT006 SCT260 07/06 Q1018 NOSIG
12-11-22 METAR LFPG 222100Z 17015KT 9999 SCT006 BKN230 07/05 Q1017 NOSIG
12-11-22 METAR LFPG 222130Z 17013KT 9999 FEW007 BKN230 07/05 Q1017 NOSIG
12-11-22 METAR LFPG 222200Z 17010KT 9999 SCT007 BKN230 06/05 Q1017 NOSIG
12-11-22 METAR LFPG 222230Z 17012KT 9999 SCT007 SCT230 06/05 Q1017 NOSIG
12-11-22 METAR LFPG 222300Z 17012KT 110V190 9999 SCT007 SCT260 06/05 Q1017 NOSIG
12-11-22 METAR LFPG 222330Z 17013KT 9999 SCT007 BKN220 06/04 Q1017 NOSIG
12-11-23 METAR LFPG 230000Z 17013KT 9999 FEW007 BKN220 06/04 Q1017 NOSIG
12-11-23 METAR LFPG 230030Z 16011KT 9999 FEW007 BKN180 06/05 Q1016 NOSIG
12-11-23 METAR LFPG 230100Z 16011KT CAVOK 06/05 Q1016 NOSIG
12-11-23 METAR LFPG 230130Z 18010KT CAVOK 06/05 Q1016 NOSIG
12-11-23 METAR LFPG 230200Z 17011KT CAVOK 06/05 Q1016 NOSIG
12-11-23 METAR LFPG 230230Z 18010KT CAVOK 06/05 Q1015 NOSIG
12-11-23 METAR LFPG 230300Z 18011KT CAVOK 07/04 Q1015 NOSIG
12-11-23 METAR LFPG 230330Z 17012KT CAVOK 07/05 Q1014 NOSIG
12-11-23 METAR LFPG 230400Z 17013KT CAVOK 07/04 Q1014 NOSIG
12-11-23 METAR LFPG 230430Z 18012KT CAVOK 07/04 Q1014 NOSIG
12-11-23 METAR LFPG 230500Z 18012KT CAVOK 07/04 Q1014 NOSIG
12-11-23 METAR LFPG 230530Z 17013KT CAVOK 08/04 Q1014 NOSIG
12-11-23 METAR LFPG 230600Z 18013KT CAVOK 08/03 Q1014 NOSIG
12-11-23 METAR LFPG 230630Z 18011KT CAVOK 08/04 Q1014 NOSIG
12-11-23 METAR LFPG 230700Z 18011KT CAVOK 08/04 Q1014 NOSIG
12-11-23 METAR LFPG 230730Z 18010KT CAVOK 08/04 Q1015 NOSIG
12-11-23 METAR LFPG 230800Z 18011KT 9999 -RA NSC 08/04 Q1015 NOSIG
12-11-23 METAR LFPG 230830Z 18012KT 9999 -RA NSC 08/05 Q1015 NOSIG
12-11-23 METAR LFPG 230900Z 18010KT 9999 -RA NSC 08/05 Q1015 NOSIG
12-11-23 METAR LFPG 230930Z 18010KT 9999 -RA NSC 08/05 Q1015 NOSIG
12-11-23 METAR LFPG 231000Z 18009KT 9999 -RA NSC 08/06 Q1015 NOSIG
12-11-23 METAR LFPG 231030Z 18009KT 130V220 9999 -RA NSC 09/06 Q1015 NOSIG
12-11-23 METAR LFPG 231100Z 18008KT 9999 -RA SCT032 BKN060 09/06 Q1015 NOSIG
12-11-23 METAR LFPG 231130Z 18009KT 9999 -RA BKN028 BKN060 09/07 Q1015 NOSIG
12-11-23 METAR LFPG 231200Z 18009KT 120V190 9999 -RA BKN032 BKN060 09/07 Q1015 NOSIG
12-11-23 METAR LFPG 231230Z 18010KT 6000 -RA BKN031 BKN060 09/07 Q1015 NOSIG
12-11-23 METAR LFPG 231300Z 17008KT 030V200 9999 -RA SCT040 BKN046 09/08 Q1015
12-11-23 METAR LFPG 231330Z 17007KT 9000 -RA OVC039 09/08 Q1015 NOSIG
12-11-23 METAR LFPG 231400Z 18008KT 7000 -RA FEW009 OVC035 09/08 Q1015 NOSIG
12-11-23 METAR LFPG 231430Z 17005G17KT 120V240 6000 -RA BKN029 OVC035 09/08 Q1015
12-11-23 METAR LFPG 231500Z 17006KT 6000 RA OVC030 09/08 Q1015 NOSIG
12-11-23 METAR LFPG 231530Z 17006KT 9999 OVC030 09/08 Q1015 NOSIG
12-11-23 METAR LFPG 231600Z 16007KT 8000 -RA OVC026 10/08 Q1015 NOSIG
12-11-23 METAR LFPG 231630Z 17006KT 9999 -RA OVC026 10/08 Q1015 NOSIG
12-11-23 METAR LFPG 231700Z 18008KT 8000 -RA BKN024 OVC055 10/08 Q1016 NOSIG
12-11-23 METAR LFPG 231730Z 18008KT 8000 -RA OVC036 10/08 Q1015 NOSIG
12-11-23 METAR LFPG 231800Z 19010KT 9999 -RA SCT022 SCT035 BKN060 10/08 Q1016 NOSIG
12-11-23 METAR LFPG 231830Z 19010KT 9999 -RA BKN023 BKN033 10/08 Q1016 NOSIG
12-11-23 METAR LFPG 231900Z 19009KT 9999 -RA BKN026 BKN033 10/08 Q1016 NOSIG
12-11-23 METAR LFPG 231930Z 19010KT 9999 -RA BKN032 10/08 Q1016 NOSIG
12-11-23 METAR LFPG 232000Z 20009KT 180V270 9999 -RA BKN023 BKN066 10/08 Q1016
12-11-23 METAR LFPG 232030Z 20008KT 9999 -RA BKN021 BKN074 10/08 Q1016 NOSIG
12-11-23 METAR LFPG 232100Z 19008KT 180V290 9999 -RA BKN020 BKN083 10/08 Q1016
12-11-23 METAR LFPG 232130Z 19009KT 8000 -RA BKN021 BKN066 10/08 Q1017 NOSIG
12-11-23 METAR LFPG 232200Z 20008KT 9999 -RA SCT022 BKN026 10/08 Q1017 NOSIG
12-11-23 METAR LFPG 232230Z 20006KT 9999 SCT023 BKN026 10/08 Q1017 NOSIG
12-11-23 METAR LFPG 232300Z 19006KT 9999 SCT025 BKN028 10/08 Q1017 NOSIG
12-11-23 METAR LFPG 232330Z 19007KT 9999 BKN030 BKN043 10/08 Q1017 NOSIG
12-11-24 METAR LFPG 240000Z 17004KT 9999 BKN031 BKN066 BKN090 10/08 Q1017 NOSIG
12-11-24 METAR LFPG 240030Z 15006KT 9999 BKN033 BKN073 BKN090 10/08 Q1017 NOSIG
12-11-24 METAR LFPG 240100Z 17007KT 9999 SCT033 BKN073 BKN100 10/08 Q1017 NOSIG
12-11-24 METAR LFPG 240130Z 18006KT 9999 SCT033 BKN076 09/08 Q1017 NOSIG
12-11-24 METAR LFPG 240200Z 18006KT 9999 FEW033 BKN080 09/08 Q1017 NOSIG
12-11-24 METAR LFPG 240230Z 16004KT CAVOK 09/07 Q1017 NOSIG
12-11-24 METAR LFPG 240300Z 16003KT CAVOK 09/07 Q1016 NOSIG
12-11-24 METAR LFPG 240330Z 15005KT CAVOK 08/07 Q1016 NOSIG
12-11-24 METAR LFPG 240400Z 14005KT CAVOK 08/06 Q1016 NOSIG
12-11-24 METAR LFPG 240430Z 12005KT CAVOK 08/06 Q1016 NOSIG
12-11-24 METAR LFPG 240500Z 12005KT CAVOK 07/06 Q1016 NOSIG
12-11-24 METAR LFPG 240530Z 14006KT CAVOK 07/06 Q1016 NOSIG
12-11-24 METAR LFPG 240600Z 13004KT CAVOK 08/06 Q1016 NOSIG
12-11-24 METAR LFPG 240630Z 14006KT CAVOK 08/06 Q1016 NOSIG
12-11-24 METAR LFPG 240700Z 13006KT CAVOK 08/06 Q1016 NOSIG
12-11-24 METAR LFPG 240730Z 13007KT CAVOK 08/06 Q1016 NOSIG
12-11-24 METAR LFPG 240800Z 12005KT CAVOK 08/06 Q1016 NOSIG
12-11-24 METAR LFPG 240830Z 13005KT CAVOK 08/06 Q1016 NOSIG
12-11-24 METAR LFPG 240900Z 12006KT CAVOK 08/06 Q1015 NOSIG
12-11-24 METAR LFPG 240930Z 12007KT CAVOK 09/06 Q1015 NOSIG
12-11-24 METAR LFPG 241000Z 11008KT CAVOK 09/06 Q1015 NOSIG
12-11-24 METAR LFPG 241030Z 12009KT CAVOK 09/06 Q1015 NOSIG
12-11-24 METAR LFPG 241100Z 12009KT CAVOK 09/06 Q1014 NOSIG
12-11-24 METAR LFPG 241130Z 13008KT CAVOK 10/06 Q1014 NOSIG
12-11-24 METAR LFPG 241200Z 09008KT CAVOK 10/07 Q1013 NOSIG
12-11-24 METAR LFPG 241230Z 13009KT 090V170 CAVOK 10/07 Q1012 NOSIG
12-11-24 METAR LFPG 241300Z 12007KT 090V150 CAVOK 10/07 Q1012 NOSIG
12-11-24 METAR LFPG 241330Z 10009KT CAVOK 10/07 Q1011 NOSIG
12-11-24 METAR LFPG 241400Z 10008KT CAVOK 10/07 Q1011 NOSIG
12-11-24 METAR LFPG 241430Z 11008KT 9999 -RA NSC 10/07 Q1011 NOSIG
12-11-24 METAR LFPG 241530Z 12011KT CAVOK 10/07 Q1010 NOSIG
12-11-24 METAR LFPG 241600Z 12012KT CAVOK 10/07 Q1010 NOSIG
12-11-24 METAR LFPG 241630Z 13010KT CAVOK 10/07 Q1010 NOSIG
12-11-24 METAR LFPG 241700Z 12010KT CAVOK 10/07 Q1009 NOSIG
12-11-24 METAR LFPG 241730Z 12010KT CAVOK 10/07 Q1009 NOSIG
12-11-24 METAR LFPG 241800Z 12009KT CAVOK 10/07 Q1008 NOSIG
12-11-24 METAR LFPG 241830Z 13009KT CAVOK 10/08 Q1008 NOSIG
12-11-24 METAR LFPG 241900Z 13010KT CAVOK 10/08 Q1008 NOSIG
12-11-24 METAR LFPG 241930Z 14010KT CAVOK 11/08 Q1007 NOSIG
12-11-24 METAR LFPG 242000Z 15011KT CAVOK 12/08 Q1007 NOSIG
12-11-24 METAR LFPG 242030Z 16015KT CAVOK 13/08 Q1006 NOSIG
12-11-24 METAR LFPG 242100Z 17016KT CAVOK 13/08 Q1006 NOSIG
12-11-24 METAR LFPG 242130Z 17016KT CAVOK 13/08 Q1005 NOSIG
12-11-24 METAR LFPG 242200Z 18019KT 9999 FEW036 BKN086 14/08 Q1005 NOSIG
12-11-24 METAR LFPG 242230Z 19023KT 9999 BKN036 BKN086 14/08 Q1005 NOSIG
12-11-24 METAR LFPG 242300Z 20026G38KT 9999 BKN031 14/08 Q1005 NOSIG
12-11-24 METAR LFPG 242330Z 20025G37KT 9999 BKN030 14/08 Q1005 NOSIG
12-11-25 METAR LFPG 250100Z 21024KT 9999 BKN028 13/08 Q1006 NOSIG
12-11-25 METAR LFPG 250130Z 21022KT 9999 BKN028 13/08 Q1007 NOSIG
12-11-25 METAR LFPG 250200Z 24025G37KT 9999 BKN028 13/07 Q1008 NOSIG
12-11-25 METAR LFPG 250230Z 21019KT 9999 -RA BKN024 12/08 Q1008 NOSIG
12-11-25 METAR LFPG 250300Z 21017KT 9999 BKN026 13/08 Q1008 NOSIG
12-11-25 METAR LFPG 250330Z 21018KT 9999 BKN027 13/07 Q1008 NOSIG
12-11-25 METAR LFPG 250400Z 23022KT 9999 -RA BKN024 11/07 Q1009 NOSIG
12-11-25 METAR LFPG 250430Z 23021KT 9999 BKN045 12/06 Q1010 NOSIG
12-11-25 METAR LFPG 250500Z 22019KT 9999 -RA BKN024 11/06 Q1010 NOSIG
12-11-25 METAR LFPG 250530Z 23022KT 9999 -RA BKN024 11/06 Q1011 NOSIG
12-11-25 METAR LFPG 250600Z 24019KT 9999 -RA BKN023 BKN043 10/06 Q1012 NOSIG
12-11-25 METAR LFPG 250630Z 24013KT 9999 -RA BKN028 BKN056 09/07 Q1012 NOSIG
12-11-25 METAR LFPG 250700Z 24016KT 9999 SCT027 SCT055 BKN200 10/06 Q1013 NOSIG
12-11-25 METAR LFPG 250730Z 24016KT 9999 FEW027 SCT055 BKN200 09/05 Q1013 NOSIG
12-11-25 METAR LFPG 250800Z 24015G25KT 9999 SCT042 BKN200 BKN240 09/03 Q1014 NOSIG
12-11-25 METAR LFPG 250830Z 23014KT 9999 FEW029 SCT220 BKN260 09/04 Q1014 NOSIG
12-11-25 METAR LFPG 250900Z 23016KT 9999 FEW029 BKN260 09/04 Q1015 NOSIG
12-11-25 METAR LFPG 250930Z 23016KT 9999 FEW031 BKN260 10/04 Q1015 NOSIG
12-11-25 METAR LFPG 251000Z 22016KT 9999 FEW031 BKN260 10/04 Q1015 NOSIG
12-11-25 METAR LFPG 251030Z 22015KT 9999 FEW031 BKN260 10/04 Q1015 NOSIG
12-11-25 METAR LFPG 251100Z 22014KT 200V260 9999 FEW031 SCT260 11/04 Q1015 NOSIG
12-11-25 METAR LFPG 251130Z 22015KT 9999 FEW031 SCT260 11/04 Q1015 NOSIG
12-11-25 METAR LFPG 251200Z 23017KT 9999 FEW031 SCT260 12/04 Q1015 NOSIG
12-11-25 METAR LFPG 251230Z 23015KT 9999 FEW033 12/04 Q1015 NOSIG
12-11-25 METAR LFPG 251300Z 22015KT 9999 FEW033 12/04 Q1015 NOSIG
12-11-25 METAR LFPG 251330Z 22016KT 200V260 9999 FEW033 12/03 Q1014 NOSIG
12-11-25 METAR LFPG 251400Z 21013KT 9999 FEW033 12/04 Q1014 NOSIG
12-11-25 METAR LFPG 251430Z 21018KT 9999 SCT033 11/04 Q1014 NOSIG
12-11-25 METAR LFPG 251500Z 21016KT 9999 SCT033 11/04 Q1014 NOSIG
12-11-25 METAR LFPG 251530Z 21014KT 9999 FEW031 11/04 Q1014 NOSIG
12-11-25 METAR LFPG 251600Z 21016G26KT 190V290 9999 FEW028 11/05 Q1014 NOSIG
12-11-25 METAR LFPG 251630Z 20012KT 9999 FEW028 10/05 Q1014 NOSIG
12-11-25 METAR LFPG 251700Z 19012KT 9999 FEW026 10/05 Q1014 NOSIG
12-11-25 METAR LFPG 251730Z 19011KT 9999 FEW026 09/05 Q1013 NOSIG
12-11-25 METAR LFPG 251800Z VRB09KT CAVOK 09/05 Q1013 NOSIG
12-11-25 METAR LFPG 251830Z 17007KT 9999 FEW033 09/04 Q1013 NOSIG
12-11-25 METAR LFPG 251900Z 17008KT 120V190 9999 FEW041 08/04 Q1013 NOSIG
12-11-25 METAR LFPG 251930Z 17008KT CAVOK 08/04 Q1012 NOSIG
12-11-25 METAR LFPG 252000Z 16010KT 040V190 CAVOK 08/04 Q1012 NOSIG
12-11-25 METAR LFPG 252030Z 17008KT CAVOK 08/04 Q1012 NOSIG
12-11-25 METAR LFPG 252100Z 16007KT CAVOK 07/04 Q1012 NOSIG
12-11-25 METAR LFPG 252130Z 17006KT CAVOK 07/05 Q1011 NOSIG
12-11-25 METAR LFPG 252200Z 17009KT CAVOK 07/05 Q1011 NOSIG
12-11-25 METAR LFPG 252230Z 16008KT CAVOK 06/04 Q1011 NOSIG
12-11-25 METAR LFPG 252300Z 16008KT CAVOK 07/05 Q1010 NOSIG
12-11-25 METAR LFPG 252330Z 16008KT CAVOK 06/04 Q1010 NOSIG
12-11-26 METAR LFPG 260000Z 15007KT 9999 SCT049 06/04 Q1009 NOSIG
12-11-26 METAR LFPG 260030Z 15007KT 9999 BKN045 06/05 Q1009 NOSIG
12-11-26 METAR LFPG 260100Z 15008KT 9999 FEW043 06/05 Q1008 NOSIG
12-11-26 METAR LFPG 260130Z 14007KT 9999 BKN042 07/05 Q1008 NOSIG
12-11-26 METAR LFPG 260200Z 15008KT 9999 BKN038 07/05 Q1008 NOSIG
12-11-26 METAR LFPG 260230Z 15007KT 9999 BKN032 07/05 Q1007 NOSIG
12-11-26 METAR LFPG 260300Z 14006KT 9999 BKN030 BKN066 08/06 Q1006 NOSIG
12-11-26 METAR LFPG 260330Z 15006KT 9999 FEW028 BKN065 08/06 Q1006 NOSIG
12-11-26 METAR LFPG 260400Z 17010KT 9999 BKN017 BKN060 09/06 Q1005 NOSIG
12-11-26 METAR LFPG 260430Z 18011KT 9999 BKN015 09/06 Q1005 NOSIG
12-11-26 METAR LFPG 260500Z 19010KT 9999 BKN014 09/07 Q1005 NOSIG
12-11-26 METAR LFPG 260530Z 19012KT 9999 SCT012 BKN020 09/07 Q1005 NOSIG
12-11-26 METAR LFPG 260600Z 18011KT 9999 BKN020 09/07 Q1005 NOSIG
12-11-26 METAR LFPG 260630Z 19011KT 9999 SCT014 BKN023 10/07 Q1004 NOSIG
12-11-26 METAR LFPG 260700Z 17011KT 9999 FEW012 SCT041 BKN086 10/08 Q1004 NOSIG
12-11-26 METAR LFPG 260730Z 18012KT 9999 FEW012 BKN016 10/08 Q1004 NOSIG
12-11-26 METAR LFPG 260800Z 18014KT 9999 FEW011 BKN015 10/08 Q1004 NOSIG
12-11-26 METAR LFPG 260830Z 19013KT 9999 FEW011 BKN014 11/08 Q1004 NOSIG
12-11-26 METAR LFPG 260900Z 19014KT 9999 BKN015 SCT053 BKN260 11/08 Q1004 NOSIG
12-11-26 METAR LFPG 260930Z 20016KT 9999 BKN017 BKN260 11/08 Q1003 NOSIG
12-11-26 METAR LFPG 261000Z 20015KT 9999 BKN018 BKN030 11/07 Q1003 NOSIG
12-11-26 METAR LFPG 261030Z 20017KT 9999 BKN022 BKN046 12/07 Q1003 NOSIG
12-11-26 METAR LFPG 261100Z 20020KT 9999 FEW022TCU BKN023 BKN050 12/07 Q1003 NOSIG
12-11-26 METAR LFPG 261130Z 20017KT 9999 FEW022TCU SCT046 BKN260 12/06 Q1002 NOSIG
12-11-26 METAR LFPG 261200Z 21019KT 9999 FEW028 BKN035 BKN043 12/06 Q1002 NOSIG
12-11-26 METAR LFPG 261230Z 21018G29KT 9999 BKN024 SCT034 BKN040 12/06 Q1002 NOSIG
12-11-26 METAR LFPG 261300Z 21019KT 9999 SCT032 SCT046 12/04 Q1002 NOSIG
12-11-26 METAR LFPG 261330Z 23017KT 9999 BKN033 SCT260 12/04 Q1002 NOSIG
12-11-26 METAR LFPG 261400Z 23017KT 200V270 9999 BKN036 BKN260 12/03 Q1002 NOSIG
12-11-26 METAR LFPG 261430Z 22018KT 9999 SCT036 BKN260 12/03 Q1002 NOSIG
12-11-26 METAR LFPG 261500Z 23017KT 9999 SCT040 BKN260 11/02 Q1002 NOSIG
12-11-26 METAR LFPG 261530Z 23015KT 9999 BKN040 BKN260 11/02 Q1002 NOSIG
12-11-26 METAR LFPG 261600Z 23015KT 9999 BKN040 BKN260 11/02 Q1002 NOSIG
12-11-26 METAR LFPG 261630Z 22011KT 9999 BKN038 BKN260 11/03 Q1002 NOSIG
12-11-26 METAR LFPG 261700Z 22014KT 9999 SCT036 BKN050 11/03 Q1003 NOSIG
12-11-26 METAR LFPG 261730Z 21012KT 9999 SCT033 BKN050 10/03 Q1003 NOSIG
12-11-26 METAR LFPG 261800Z 21015KT 9999 FEW033 BKN051 10/03 Q1003 NOSIG
12-11-26 METAR LFPG 261830Z 21013KT 9999 FEW033 BKN053 BKN230 10/03 Q1002 NOSIG
12-11-26 METAR LFPG 261900Z 21013KT 9999 FEW033 BKN053 BKN230 10/03 Q1003 NOSIG
12-11-26 METAR LFPG 261930Z 21014KT 9999 SCT031 BKN049 10/03 Q1003 NOSIG
12-11-26 METAR LFPG 262000Z 22013KT 9999 SCT028 BKN050 09/03 Q1003 NOSIG
12-11-26 METAR LFPG 262030Z 22011KT 9999 SCT028 BKN050 09/03 Q1003 NOSIG
12-11-26 METAR LFPG 262100Z 21012KT 9999 SCT028 BKN050 09/03 Q1003 NOSIG
12-11-26 METAR LFPG 262130Z 22013KT 9999 FEW028 BKN043 09/04 Q1003 NOSIG
12-11-26 METAR LFPG 262200Z 21012KT 9999 FEW026 BKN043 09/04 Q1003 NOSIG
12-11-26 METAR LFPG 262230Z 21014KT 9999 FEW026 BKN043 09/04 Q1003 NOSIG
12-11-26 METAR LFPG 262300Z 21013KT 9999 FEW026 BKN043 09/04 Q1003 NOSIG
12-11-26 METAR LFPG 262330Z 20012KT 9999 FEW026 BKN040 09/04 Q1003 NOSIG
12-11-27 METAR LFPG 270000Z 20010KT 9999 FEW026 BKN040 08/04 Q1003 NOSIG
12-11-27 METAR LFPG 270030Z 20011KT 9999 SCT016 BKN040 08/04 Q1002 NOSIG
12-11-27 METAR LFPG 270100Z 21013KT 9999 BKN016 BKN040 08/04 Q1002 NOSIG
12-11-27 METAR LFPG 270130Z 21011KT 9999 BKN016 08/04 Q1003 NOSIG
12-11-27 METAR LFPG 270200Z 19009KT 9999 SCT018 BKN022 08/04 Q1002 NOSIG
12-11-27 METAR LFPG 270230Z 19010KT 9999 SCT016 BKN022 07/04 Q1002 NOSIG
12-11-27 METAR LFPG 270300Z 19010KT 9999 SCT016 BKN027 07/03 Q1002 NOSIG
12-11-27 METAR LFPG 270330Z 18009KT 9999 FEW015 BKN022 07/03 Q1002 NOSIG
12-11-27 METAR LFPG 270400Z 19011KT 9999 SCT014 BKN038 07/04 Q1002 NOSIG
12-11-27 METAR LFPG 270430Z 19010KT 130V210 9999 -RA BKN013 07/04 Q1002 NOSIG
12-11-27 METAR LFPG 270500Z 19011KT 9999 -RA BKN011 07/04 Q1002 NOSIG
12-11-27 METAR LFPG 270530Z 19010KT 9999 BKN010 07/05 Q1001 NOSIG
12-11-27 METAR LFPG 270600Z 20010KT 9999 BKN009 07/05 Q1002 NOSIG
12-11-27 METAR LFPG 270630Z 20009KT 9999 FEW008 BKN009 07/05 Q1002 NOSIG
12-11-27 METAR LFPG 270700Z 19010KT 9999 FEW008 BKN009 07/05 Q1002 NOSIG
12-11-27 METAR LFPG 270730Z 20010KT 9999 FEW008 BKN009 07/05 Q1002 NOSIG
12-11-27 METAR LFPG 270800Z 19009KT 9999 FEW009 BKN010 BKN033 07/05 Q1002 NOSIG
12-11-27 METAR LFPG 270830Z 20008KT 9999 SCT011 SCT013 BKN031 07/05 Q1002 NOSIG
12-11-27 METAR LFPG 270900Z 19008KT 9999 FEW011 SCT014 BKN033 07/05 Q1003 NOSIG
12-11-27 METAR LFPG 270930Z 19009KT 9999 SCT014 BKN045 07/04 Q1003 NOSIG
12-11-27 METAR LFPG 271000Z 20011KT 9999 SCT014 BKN045 07/04 Q1003 NOSIG
12-11-27 METAR LFPG 271030Z 20010G20KT 170V290 9999 -SHRA BKN014 BKN045 07/04 Q1003 NOSIG
12-11-27 METAR LFPG 271100Z 19008KT 9999 BKN013 BKN045 07/04 Q1003 NOSIG
12-11-27 METAR LFPG 271130Z 19008G22KT 170V250 9999 BKN010 BKN013 07/04 Q1003 NOSIG
12-11-27 METAR LFPG 271200Z 20010KT 9999 BKN012 BKN020 08/04 Q1003 NOSIG
12-11-27 METAR LFPG 271230Z 20008KT 9999 BKN012 BKN020 07/05 Q1003 NOSIG
12-11-27 METAR LFPG 271400Z 18006KT 8000 FEW010 BKN014 BKN026 07/06 Q1003 NOSIG
12-11-27 METAR LFPG 271430Z 19007KT 5000 -SHRA FEW010 BKN016 BKN026 07/06 Q1003
12-11-27 METAR LFPG 271500Z 18005KT 9999 SCT015 BKN040 07/06 Q1003 TEMPO 5000 SHRA BKN006
12-11-27 METAR LFPG 271530Z 21005KT 180V240 8000 -SHRA SCT016 BKN036 07/06 Q1003 TEMPO 5000 SHRA BKN006
12-11-27 METAR LFPG 271600Z 24006KT 200V280 5000 -RA FEW005 BKN015 BKN025 07/05 Q1003 NOSIG
12-11-27 METAR LFPG 271630Z 23003KT 7000 -RA FEW007 SCT015 BKN026 07/06 Q1003 NOSIG
12-11-27 METAR LFPG 271700Z 22003KT 9999 FEW014 BKN026 07/06 Q1004 NOSIG
12-11-27 METAR LFPG 271730Z 24001KT 9999 SCT017 BKN031 07/06 Q1004 NOSIG
12-11-27 METAR LFPG 271800Z 21002KT 9999 SCT012 BKN030 07/06 Q1004 NOSIG
12-11-27 METAR LFPG 271830Z 26002KT 9999 FEW012 BKN022 BKN032 07/06 Q1004 NOSIG
12-11-27 METAR LFPG 271900Z VRB02KT 9999 SCT012 BKN029 BKN040 07/06 Q1004 NOSIG
12-11-27 METAR LFPG 271930Z VRB02KT 9999 SCT011 BKN044 07/06 Q1004 NOSIG
12-11-27 METAR LFPG 272000Z 21003KT 9999 SCT010 BKN044 07/06 Q1005 NOSIG
12-11-27 METAR LFPG 272030Z VRB02KT 9999 SCT010 BKN044 07/05 Q1005 NOSIG
12-11-27 METAR LFPG 272100Z 26003KT 9999 FEW013 BKN044 07/05 Q1005 NOSIG
12-11-27 METAR LFPG 272130Z 26003KT 9999 FEW013 BKN044 07/05 Q1005 NOSIG
12-11-27 METAR LFPG 272200Z 00000KT 9999 FEW015 BKN044 07/05 Q1005 NOSIG
12-11-27 METAR LFPG 272230Z 00000KT 9999 FEW011 BKN044 07/05 Q1005 NOSIG
12-11-27 METAR LFPG 272300Z 00000KT 9999 FEW008 BKN046 07/05 Q1005 NOSIG
12-11-27 METAR LFPG 272330Z 00000KT 9999 FEW010 BKN047 07/05 Q1005 NOSIG
12-11-28 METAR LFPG 280000Z 05003KT 9999 FEW010 BKN044 06/05 Q1005 NOSIG
12-11-28 METAR LFPG 280030Z 08002KT 9000 FEW010 BKN044 06/05 Q1005 NOSIG
12-11-28 METAR LFPG 280100Z 03003KT 8000 FEW010 BKN046 06/05 Q1005 NOSIG
12-11-28 METAR LFPG 280130Z 02003KT 8000 BKN046 06/05 Q1005 NOSIG
12-11-28 METAR LFPG 280200Z 04004KT 8000 BKN046 06/05 Q1005 NOSIG
12-11-28 METAR LFPG 280230Z 01003KT 8000 BKN046 06/05 Q1005 NOSIG
12-11-28 METAR LFPG 280300Z 03003KT 8000 BKN046 06/05 Q1005 NOSIG
12-11-28 METAR LFPG 280430Z 01006KT 5000 BKN005 06/05 Q1006 NOSIG
12-11-28 METAR LFPG 280500Z 36008KT 4000 BR BKN005 BKN058 06/05 Q1006 NOSIG
12-11-28 METAR LFPG 280530Z 35008KT 340V050 4000 BR BKN005 BKN045 05/04 Q1006 NOSIG
12-11-28 METAR LFPG 280600Z 36006KT 330V050 4500 BR BKN005 05/04 Q1006 NOSIG
12-11-28 METAR LFPG 280630Z 01008KT 4500 BR BKN004 05/04 Q1006 NOSIG
12-11-28 METAR LFPG 280700Z 36009KT 350V070 4000 BR BKN004 05/04 Q1006 NOSIG
12-11-28 METAR LFPG 280730Z 01010KT 3000 BR OVC003 05/04 Q1007 NOSIG
12-11-28 METAR LFPG 280800Z 36007KT 350V050 2500 BR OVC003 05/04 Q1006 NOSIG
12-11-28 METAR LFPG 280830Z 36008KT 330V050 3000 BR BKN004 BKN058 05/04 Q1007 NOSIG
12-11-28 METAR LFPG 280900Z 36011KT 330V040 3000 BR BKN004 BKN063 06/05 Q1007 NOSIG
12-11-28 METAR LFPG 281030Z 01008KT 350V070 4000 BR BKN006 BKN016 06/05 Q1007 NOSIG
12-11-28 METAR LFPG 281100Z 01011KT 280V040 5000 BR BKN007 BKN014 07/05 Q1007 NOSIG
12-11-28 METAR LFPG 281130Z 35012KT 280V030 6000 BKN010 BKN015 07/05 Q1007 NOSIG
12-11-28 METAR LFPG 281200Z 36009KT 330V060 8000 SCT013 BKN016 07/05 Q1007 NOSIG
12-11-28 METAR LFPG 281230Z 36010KT 340V060 9999 SCT016 SCT026 08/05 Q1006 NOSIG
12-11-28 METAR LFPG 281300Z 36009KT 340V050 9999 BKN016 08/05 Q1007 NOSIG
12-11-28 METAR LFPG 281330Z 36010KT 330V050 9999 BKN016 BKN053 08/05 Q1006 NOSIG
12-11-28 METAR LFPG 281400Z 36013KT 350V050 9999 BKN017 BKN050 08/05 Q1006 NOSIG
12-11-28 METAR LFPG 281430Z 36015KT 9999 SCT021 SCT047 08/04 Q1006 NOSIG
12-11-28 METAR LFPG 281500Z 36013KT 9999 FEW025 BKN051 07/03 Q1006 NOSIG
12-11-28 METAR LFPG 281530Z 36011KT 9999 FEW022 BKN051 08/03 Q1006 NOSIG
12-11-28 METAR LFPG 281600Z 35011KT 340V050 9999 FEW020 BKN037 07/03 Q1006 NOSIG
12-11-28 METAR LFPG 281630Z 36014KT 330V040 9999 FEW020 BKN040 07/04 Q1006 NOSIG
12-11-28 METAR LFPG 281700Z 36012KT 340V090 9999 FEW020 SCT050 06/03 Q1006 NOSIG
12-11-28 METAR LFPG 281730Z VRB07KT 9999 FEW016 BKN033 07/04 Q1007 NOSIG
12-11-28 METAR LFPG 281800Z 35009KT 330V040 9999 BKN019 BKN040 06/03 Q1007 NOSIG
12-11-28 METAR LFPG 281830Z 34009KT 300V040 9999 BKN017 BKN030 06/03 Q1007 NOSIG
12-11-28 METAR LFPG 281900Z 34009KT 330V040 9999 BKN015 BKN026 06/03 Q1007 NOSIG
12-11-28 METAR LFPG 281930Z 34010KT 320V020 9999 BKN015 BKN023 06/03 Q1007 NOSIG
12-11-28 METAR LFPG 282000Z 34009KT 9999 BKN012 SCT021 BKN036 06/03 Q1007 NOSIG
12-11-28 METAR LFPG 282030Z 34010KT 9999 BKN012 BKN033 06/04 Q1007 NOSIG
12-11-28 METAR LFPG 282100Z 34013KT 9999 -RA BKN012 06/04 Q1007 NOSIG
12-11-28 METAR LFPG 282130Z 34012KT 320V040 9999 -RA FEW010 BKN012 06/04 Q1007
12-11-28 METAR LFPG 282200Z 34013KT 320V030 9999 -RA FEW010 BKN012 06/05 Q1007
12-11-28 METAR LFPG 282230Z 34015KT 9999 -RA FEW010 BKN014 06/05 Q1006 NOSIG
12-11-28 METAR LFPG 282300Z 34015KT 9999 BKN011 06/05 Q1006 NOSIG
12-11-28 METAR LFPG 282330Z 34015KT 9999 BKN011 BKN041 06/04 Q1006 NOSIG