
12-05-29 METAR LIMC 290020Z 00000KT CAVOK 14/13 Q1013 NOSIG
12-05-29 METAR LIMC 290120Z 33002KT CAVOK 12/11 Q1013 NOSIG
12-05-29 METAR LIMC 290220Z VRB02KT 9999 FEW080 12/12 Q1013 NOSIG
12-05-29 METAR LIMC 290320Z 03002KT CAVOK 12/11 Q1012 NOSIG
12-05-29 METAR LIMC 290420Z 00000KT 9999 FEW060 13/10 Q1013 NOSIG
12-05-29 METAR LIMC 290520Z 17002KT 9999 FEW060 15/13 Q1013 NOSIG
12-05-29 METAR LIMC 290620Z VRB02KT 9999 FEW060 18/12 Q1013 NOSIG
12-05-29 METAR LIMC 290720Z 25003KT 210V290 CAVOK 21/11 Q1013 NOSIG
12-05-29 METAR LIMC 290820Z 23003KT CAVOK 23/11 Q1013 NOSIG
12-05-29 METAR LIMC 290920Z 23003KT 170V260 CAVOK 24/11 Q1013 NOSIG
12-05-29 METAR LIMC 291020Z 21003KT 160V260 CAVOK 25/11 Q1013 NOSIG
12-05-29 METAR LIMC 291120Z VRB02KT CAVOK 27/09 Q1012 NOSIG
12-05-29 METAR LIMC 291220Z 22003KT 190V300 CAVOK 27/09 Q1012 NOSIG
12-05-29 METAR LIMC 291320Z 23003KT 180V270 CAVOK 28/10 Q1011 NOSIG
12-05-29 METAR LIMC 291420Z 23004KT CAVOK 28/10 Q1011 NOSIG
12-05-29 METAR LIMC 291520Z 21005KT CAVOK 28/09 Q1011 NOSIG
12-05-29 METAR LIMC 291620Z 22005KT CAVOK 27/08 Q1011 NOSIG
12-05-29 METAR LIMC 291720Z 21004KT CAVOK 27/09 Q1011 NOSIG
12-05-29 METAR LIMC 291820Z 20003KT CAVOK 25/10 Q1011 NOSIG
12-05-29 METAR LIMC 291920Z 18003KT CAVOK 22/12 Q1011 NOSIG
12-05-29 METAR LIMC 292020Z 16003KT CAVOK 20/13 Q1013 NOSIG
12-05-29 METAR LIMC 292120Z 17003KT CAVOK 19/12 Q1013 NOSIG
12-05-29 METAR LIMC 292220Z 13002KT CAVOK 18/13 Q1014 NOSIG
12-05-29 METAR LIMC 292320Z VRB01KT CAVOK 16/13 Q1014 NOSIG
12-05-30 METAR LIMC 300020Z 00000KT CAVOK 15/12 Q1015 NOSIG
12-05-30 METAR LIMC 300120Z 00000KT CAVOK 13/12 Q1015 NOSIG
12-05-30 METAR LIMC 300220Z VRB01KT CAVOK 13/12 Q1015 NOSIG
12-05-30 METAR LIMC 300320Z 00000KT CAVOK 13/12 Q1016 NOSIG
12-05-30 METAR LIMC 300420Z 35003KT CAVOK 14/12 Q1017 NOSIG
12-05-30 METAR LIMC 300520Z VRB02KT CAVOK 17/14 Q1017 NOSIG
12-05-30 METAR LIMC 300620Z 00000KT CAVOK 20/14 Q1018 NOSIG
12-05-30 METAR LIMC 300720Z VRB01KT CAVOK 21/13 Q1018 NOSIG
12-05-30 METAR LIMC 300820Z VRB02KT CAVOK 22/13 Q1018 NOSIG
12-05-30 METAR LIMC 300920Z VRB02KT CAVOK 23/14 Q1018 NOSIG
12-05-30 METAR LIMC 301020Z 21003KT 150V260 CAVOK 24/13 Q1018 NOSIG
12-05-30 METAR LIMC 301120Z 22003KT 150V320 CAVOK 25/12 Q1017 NOSIG
12-05-30 METAR LIMC 301220Z 21004KT 140V280 CAVOK 26/14 Q1017 NOSIG
12-05-30 METAR LIMC 301320Z 18004KT 120V220 CAVOK 26/13 Q1017 NOSIG
12-05-30 METAR LIMC 301420Z 23004KT 200V260 CAVOK 26/13 Q1016 NOSIG
12-05-30 METAR LIMC 301520Z 24003KT 200V280 CAVOK 25/14 Q1016 NOSIG
12-05-30 METAR LIMC 301620Z 26003KT CAVOK 26/13 Q1016 NOSIG
12-05-30 METAR LIMC 301720Z VRB02KT CAVOK 25/14 Q1016 NOSIG
12-05-30 METAR LIMC 301820Z 00000KT CAVOK 25/15 Q1016 NOSIG
12-05-30 METAR LIMC 301920Z 00000KT CAVOK 22/15 Q1016 NOSIG
12-05-30 METAR LIMC 302020Z 00000KT CAVOK 20/15 Q1017 NOSIG
12-05-30 METAR LIMC 302120Z 00000KT 9999 SCT090 20/16 Q1018 NOSIG
12-05-30 METAR LIMC 302220Z 16002KT CAVOK 19/14 Q1017 NOSIG
12-05-30 METAR LIMC 302320Z VRB01KT 9999 FEW090 17/14 Q1017 NOSIG
12-05-31 METAR LIMC 310020Z 18002KT 9999 FEW090 16/14 Q1017 NOSIG
12-05-31 METAR LIMC 310120Z 00000KT 9999 FEW090 15/14 Q1017 NOSIG
12-05-31 METAR LIMC 310220Z 00000KT 9999 FEW090 15/14 Q1017 NOSIG
12-05-31 METAR LIMC 310320Z 00000KT 9999 FEW090 15/14 Q1017 NOSIG
12-05-31 METAR LIMC 310420Z 00000KT 9999 FEW090 15/14 Q1018 NOSIG
12-05-31 METAR LIMC 310520Z VRB03KT 9999 SCT040 17/15 Q1019 NOSIG
12-05-31 METAR LIMC 310620Z 11003KT 080V160 7000 FEW060 19/15 Q1019 NOSIG
12-05-31 METAR LIMC 310720Z 14003KT 110V170 8000 FEW030 20/15 Q1019 NOSIG
12-05-31 METAR LIMC 310820Z VRB02KT 8000 BKN030 21/15 Q1020 NOSIG
12-05-31 METAR LIMC 310920Z VRB02KT 8000 FEW030 SCT080 23/15 Q1019 NOSIG
12-05-31 METAR LIMC 311020Z VRB02KT 8000 FEW030 23/15 Q1019 NOSIG
12-05-31 METAR LIMC 311120Z 19003KT 130V230 8000 FEW030 24/15 Q1019 NOSIG
12-05-31 METAR LIMC 311220Z VRB04KT 9999 SCT030 25/15 Q1019 NOSIG
12-05-31 METAR LIMC 311320Z 24003KT 210V280 9999 SCT030 25/15 Q1018 NOSIG
12-05-31 METAR LIMC 311420Z 25003KT 200V280 9999 FEW030 26/15 Q1017 NOSIG
12-05-31 METAR LIMC 311520Z VRB03KT 9999 FEW030 25/15 Q1016 NOSIG
12-05-31 METAR LIMC 311620Z 20003KT 160V270 9999 FEW030 25/14 Q1016 NOSIG
12-05-31 METAR LIMC 311720Z 23003KT 9999 FEW030 24/15 Q1016 NOSIG
12-05-31 METAR LIMC 311820Z 25002KT CAVOK 24/14 Q1016 NOSIG
12-05-31 METAR LIMC 311920Z 00000KT CAVOK 22/15 Q1016 NOSIG
12-05-31 METAR LIMC 312020Z 00000KT CAVOK 20/15 Q1016 NOSIG
12-05-31 METAR LIMC 312120Z 20004KT CAVOK 20/16 Q1016 NOSIG
12-05-31 METAR LIMC 312220Z 20003KT CAVOK 19/15 Q1016 NOSIG
12-05-31 METAR LIMC 312320Z 00000KT CAVOK 18/15 Q1016 NOSIG
12-06-01 METAR LIMC 010020Z 00000KT CAVOK 16/14 Q1015 NOSIG
12-06-01 METAR LIMC 010120Z 15001KT CAVOK 16/15 Q1015 NOSIG
12-06-01 METAR LIMC 010220Z 00000KT CAVOK 15/14 Q1014 NOSIG
12-06-01 METAR LIMC 010320Z 00000KT CAVOK 15/13 Q1014 NOSIG
12-06-01 METAR LIMC 010420Z 00000KT 8000 NSC 15/14 Q1014 NOSIG
12-06-01 METAR LIMC 010520Z VRB02KT 8000 NSC 18/15 Q1014 NOSIG
12-06-01 METAR LIMC 010620Z VRB02KT 9000 NSC 20/16 Q1014 NOSIG
12-06-01 METAR LIMC 010720Z 22003KT 190V250 CAVOK 21/16 Q1014 NOSIG
12-06-01 METAR LIMC 010820Z 22004KT 190V250 CAVOK 23/17 Q1014 NOSIG
12-06-01 METAR LIMC 010920Z 20008KT 180V240 CAVOK 23/17 Q1014 NOSIG
12-06-01 METAR LIMC 011020Z VRB04KT 9999 BKN080 23/17 Q1014 NOSIG
12-06-01 METAR LIMC 011120Z 21004KT 170V250 9000 BKN080 24/17 Q1014 NOSIG
12-06-01 METAR LIMC 011220Z 22005KT 180V240 9000 SCT080 25/18 Q1013 NOSIG
12-06-01 METAR LIMC 011320Z 20004KT 160V230 CAVOK 26/18 Q1013 NOSIG
12-06-01 METAR LIMC 011420Z 21006KT CAVOK 26/17 Q1012 NOSIG
12-06-01 METAR LIMC 011520Z 21005KT 190V250 CAVOK 26/17 Q1012 NOSIG
12-06-01 METAR LIMC 011620Z 23004KT 190V260 CAVOK 26/18 Q1012 NOSIG
12-06-01 METAR LIMC 011720Z 21004KT CAVOK 26/18 Q1012 NOSIG
12-06-01 METAR LIMC 011820Z 21004KT 180V240 CAVOK 25/17 Q1012 NOSIG
12-06-01 METAR LIMC 011920Z 20002KT CAVOK 22/16 Q1013 NOSIG
12-06-01 METAR LIMC 012020Z 20002KT CAVOK 20/16 Q1013 NOSIG
12-06-01 METAR LIMC 012120Z 20003KT CAVOK 19/15 Q1013 NOSIG
12-06-01 METAR LIMC 012220Z 00000KT CAVOK 18/15 Q1014 NOSIG
12-06-01 METAR LIMC 012320Z VRB01KT CAVOK 17/15 Q1014 NOSIG
12-06-02 METAR LIMC 020020Z 13001KT CAVOK 16/14 Q1014 NOSIG
12-06-02 METAR LIMC 020120Z 00000KT CAVOK 15/14 Q1014 NOSIG
12-06-02 METAR LIMC 020220Z 00000KT CAVOK 15/14 Q1014 NOSIG
12-06-02 METAR LIMC 020320Z 00000KT CAVOK 15/14 Q1014 NOSIG
12-06-02 METAR LIMC 020420Z 00000KT 9999 SCT070 15/15 Q1015 NOSIG
12-06-02 METAR LIMC 020520Z VRB01KT 9999 FEW080 18/16 Q1015 NOSIG
12-06-02 METAR LIMC 020620Z VRB01KT 9999 FEW080 20/16 Q1016 NOSIG
12-06-02 METAR LIMC 020720Z VRB02KT 9999 BKN090 21/17 Q1016 NOSIG
12-06-02 METAR LIMC 020820Z 19004KT 160V220 9999 BKN090 22/16 Q1016 NOSIG
12-06-02 METAR LIMC 020920Z 17003KT 120V210 9999 BKN090 24/16 Q1016 NOSIG
12-06-02 METAR LIMC 021020Z 18003KT 130V240 9999 BKN040 24/17 Q1016 NOSIG
12-06-02 METAR LIMC 021120Z VRB02KT 9999 SCT020 SCT040 25/17 Q1015 NOSIG
12-06-02 METAR LIMC 021220Z VRB02KT 9999 BKN025 25/17 Q1015 NOSIG
12-06-02 METAR LIMC 021320Z 19003KT 150V260 9999 SCT025 SCT060 26/17 Q1015 NOSIG
12-06-02 METAR LIMC 021420Z 19004KT 160V240 9999 SCT025 SCT060 25/16 Q1015 NOSIG
12-06-02 METAR LIMC 021520Z 20004KT 170V230 9999 FEW025 SCT060 25/17 Q1015 NOSIG
12-06-02 METAR LIMC 021620Z 19003KT 160V220 9999 FEW025 BKN060 25/17 Q1014 NOSIG
12-06-02 METAR LIMC 021720Z 19002KT CAVOK 24/17 Q1014 NOSIG
12-06-02 METAR LIMC 021820Z 18004KT CAVOK 23/17 Q1015 NOSIG
12-06-02 METAR LIMC 021920Z 18003KT CAVOK 21/16 Q1015 NOSIG
12-06-02 METAR LIMC 022020Z 18002KT 9999 FEW040 20/16 Q1016 NOSIG
12-06-02 METAR LIMC 022120Z VRB02KT 9999 FEW040 18/16 Q1016 NOSIG
12-06-02 METAR LIMC 022220Z 00000KT 9999 FEW040 18/16 Q1016 NOSIG
12-06-02 METAR LIMC 022320Z 00000KT 9999 FEW040 17/16 Q1015 NOSIG
12-06-03 METAR LIMC 030020Z 14001KT 9999 FEW040 17/16 Q1015 NOSIG
12-06-03 METAR LIMC 030120Z 10001KT 9999 SCT040 17/16 Q1015 NOSIG
12-06-03 METAR LIMC 030220Z VRB01KT 9999 SCT040 18/16 Q1015 NOSIG
12-06-03 METAR LIMC 030320Z 08002KT 9999 SCT040 18/16 Q1015 NOSIG
12-06-03 METAR LIMC 030420Z 10001KT 9999 BKN040 18/16 Q1015 NOSIG
12-06-03 METAR LIMC 030520Z VRB01KT 9999 SCT030 BKN055 19/16 Q1015 NOSIG
12-06-03 METAR LIMC 030620Z 00000KT 9999 BKN050 20/17 Q1015 NOSIG
12-06-03 METAR LIMC 030720Z 00000KT 9999 SCT035 BKN060 21/17 Q1015 NOSIG
12-06-03 METAR LIMC 030820Z VRB02KT 9999 BKN018 BKN030 20/17 Q1015 NOSIG
12-06-03 METAR LIMC 030920Z VRB02KT 9999 FEW018 BKN030 BKN060 20/17 Q1015 NOSIG
12-06-03 METAR LIMC 031020Z VRB02KT 9999 SCT018 BKN030 21/17 Q1015 NOSIG
12-06-03 METAR LIMC 031120Z 16005KT 120V190 9999 SCT020 BKN045 22/17 Q1014 NOSIG
12-06-03 METAR LIMC 031220Z 17004KT 130V210 9999 SCT020 BKN045 24/17 Q1013 NOSIG
12-06-03 METAR LIMC 031320Z 16004KT 120V190 9999 SCT020 BKN045 23/17 Q1013 NOSIG
12-06-03 METAR LIMC 031420Z 18004KT 150V210 9999 SCT020 SCT050 24/16 Q1012 NOSIG
12-06-03 METAR LIMC 031520Z 17002KT 9999 SCT020 BKN050 23/16 Q1012 NOSIG
12-06-03 METAR LIMC 031620Z 15004KT 120V180 9999 SCT020 BKN050 22/16 Q1011 NOSIG
12-06-03 METAR LIMC 031720Z VRB02KT 9999 SCT025 BKN060 22/16 Q1011 NOSIG
12-06-03 METAR LIMC 031820Z 14003KT 090V170 9999 BKN035 BKN060 22/16 Q1011 NOSIG
12-06-03 METAR LIMC 031920Z 16003KT 9999 SCT035 BKN060 21/15 Q1011 NOSIG
12-06-03 METAR LIMC 032020Z 16003KT 9999 FEW020 BKN050 21/15 Q1010 BECMG TS
12-06-03 METAR LIMC 032120Z 16003KT 130V190 9999 BKN044 20/14 Q1010 BECMG TS
12-06-03 METAR LIMC 032220Z 19003KT 160V230 9999 BKN040 19/15 Q1010 NOSIG
12-06-03 METAR LIMC 032320Z VRB01KT 9999 BKN040 19/16 Q1009 NOSIG
12-06-04 METAR LIMC 040020Z 30004KT 5000 RA FEW015CB BKN030 17/16 Q1008 BECMG TS
12-06-04 METAR LIMC 040120Z 01002KT 4000 RA BKN025 17/17 Q1008 BECMG TS
12-06-04 METAR LIMC 040220Z 04005KT 010V070 7000 -RA FEW004 OVC015 18/16 Q1009 RERA NOSIG
12-06-04 METAR LIMC 040320Z 02005KT 9999 FEW015 BKN040 OVC060 17/15 Q1008 NOSIG
12-06-04 METAR LIMC 040420Z 02003KT 9999 FEW015 BKN040 BKN060 16/14 Q1008 NOSIG
12-06-04 METAR LIMC 040520Z 01004KT 9999 FEW025 BKN040 BKN060 15/12 Q1008 NOSIG
12-06-04 METAR LIMC 040620Z VRB03KT 9999 SCT040 BKN060 16/12 Q1007 NOSIG
12-06-04 METAR LIMC 040720Z VRB02KT 9999 BKN050 BKN060 17/13 Q1008 NOSIG
12-06-04 METAR LIMC 040820Z 05003KT 330V090 9999 SCT050 BKN060 19/12 Q1008 NOSIG
12-06-04 METAR LIMC 040920Z VRB02KT 9999 FEW060 22/14 Q1008 NOSIG
12-06-04 METAR LIMC 041020Z VRB02KT 9999 FEW060 BKN090 22/15 Q1008 NOSIG
12-06-04 METAR LIMC 041120Z VRB02KT 9999 SCT050 BKN080 21/15 Q1008 NOSIG
12-06-04 METAR LIMC 041220Z VRB02KT 9999 SCT040 BKN070 22/14 Q1008 NOSIG
12-06-04 METAR LIMC 041320Z VRB02KT 9999 SCT040 BKN070 23/14 Q1008 NOSIG
12-06-04 METAR LIMC 041420Z 22003KT 170V270 9999 SCT040 24/15 Q1008 NOSIG
12-06-04 METAR LIMC 041520Z VRB01KT 9999 SCT040 24/13 Q1007 NOSIG
12-06-04 METAR LIMC 041620Z 21004KT 180V250 9999 SCT040 23/15 Q1008 NOSIG
12-06-04 METAR LIMC 041720Z 22003KT CAVOK 23/14 Q1008 NOSIG
12-06-04 METAR LIMC 041820Z 21003KT CAVOK 22/14 Q1008 NOSIG
12-06-04 METAR LIMC 041920Z VRB02KT CAVOK 19/15 Q1008 NOSIG
12-06-04 METAR LIMC 042020Z 00000KT CAVOK 18/15 Q1009 NOSIG
12-06-04 METAR LIMC 042120Z VRB01KT CAVOK 17/15 Q1010 NOSIG
12-06-04 METAR LIMC 042220Z 00000KT 9999 SCT050 17/14 Q1010 NOSIG
12-06-04 METAR LIMC 042320Z 00000KT 9999 FEW050 14/13 Q1010 NOSIG
12-06-05 METAR LIMC 050020Z 35002KT 9999 FEW060 13/12 Q1010 NOSIG
12-06-05 METAR LIMC 050120Z VRB02KT CAVOK 12/11 Q1010 NOSIG
12-06-05 METAR LIMC 050220Z 00000KT CAVOK 11/11 Q1010 NOSIG
12-06-05 METAR LIMC 050320Z 31003KT CAVOK 11/09 Q1010 NOSIG
12-06-05 METAR LIMC 050420Z 33003KT CAVOK 11/08 Q1010 NOSIG
12-06-05 METAR LIMC 050520Z 36003KT 330V040 CAVOK 16/08 Q1011 NOSIG
12-06-05 METAR LIMC 050620Z 36003KT CAVOK 18/09 Q1011 NOSIG
12-06-05 METAR LIMC 050720Z VRB02KT CAVOK 21/10 Q1012 NOSIG
12-06-05 METAR LIMC 050820Z VRB01KT CAVOK 23/10 Q1012 NOSIG
12-06-05 METAR LIMC 050920Z VRB03KT CAVOK 24/08 Q1012 NOSIG
12-06-05 METAR LIMC 051020Z 24003KT 200V270 CAVOK 25/03 Q1012 NOSIG
12-06-05 METAR LIMC 051120Z 21003KT 160V310 CAVOK 26/06 Q1012 NOSIG
12-06-05 METAR LIMC 051220Z 23003KT 160V280 CAVOK 26/06 Q1012 NOSIG
12-06-05 METAR LIMC 051320Z VRB02KT CAVOK 26/07 Q1012 NOSIG
12-06-05 METAR LIMC 051420Z VRB03KT CAVOK 26/08 Q1011 NOSIG
12-06-05 METAR LIMC 051520Z 23004KT 150V280 CAVOK 26/07 Q1011 NOSIG
12-06-05 METAR LIMC 051620Z 22004KT CAVOK 26/08 Q1011 NOSIG
12-06-05 METAR LIMC 051720Z 22003KT CAVOK 25/08 Q1011 NOSIG
12-06-05 METAR LIMC 051820Z 20002KT CAVOK 24/10 Q1011 NOSIG
12-06-05 METAR LIMC 051920Z 00000KT CAVOK 20/12 Q1012 NOSIG
12-06-05 METAR LIMC 052020Z 17003KT CAVOK 19/10 Q1012 NOSIG
12-06-05 METAR LIMC 052120Z VRB01KT CAVOK 18/09 Q1012 NOSIG
12-06-05 METAR LIMC 052220Z 00000KT CAVOK 17/12 Q1013 NOSIG
12-06-05 METAR LIMC 052320Z 04001KT CAVOK 16/12 Q1013 NOSIG
12-06-06 METAR LIMC 060020Z 00000KT CAVOK 15/12 Q1013 NOSIG
12-06-06 METAR LIMC 060120Z VRB01KT CAVOK 14/12 Q1012 NOSIG
12-06-06 METAR LIMC 060220Z 00000KT CAVOK 13/12 Q1012 NOSIG
12-06-06 METAR LIMC 060320Z 00000KT CAVOK 12/11 Q1013 NOSIG
12-06-06 METAR LIMC 060420Z 07001KT CAVOK 13/11 Q1013 NOSIG
12-06-06 METAR LIMC 060520Z 08002KT CAVOK 17/12 Q1013 NOSIG
12-06-06 METAR LIMC 060620Z VRB01KT CAVOK 21/12 Q1013 NOSIG
12-06-06 METAR LIMC 060720Z VRB02KT CAVOK 21/13 Q1013 NOSIG
12-06-06 METAR LIMC 060820Z VRB01KT 9999 FEW040 22/13 Q1013 NOSIG
12-06-06 METAR LIMC 060920Z VRB02KT 9999 FEW040 23/13 Q1013 NOSIG
12-06-06 METAR LIMC 061020Z VRB01KT 9999 BKN030 23/12 Q1013 NOSIG
12-06-06 METAR LIMC 061120Z VRB02KT 9999 SCT030 BKN080 23/12 Q1013 NOSIG
12-06-06 METAR LIMC 061220Z 17003KT 120V210 9999 SCT030 BKN080 23/13 Q1012 NOSIG
12-06-06 METAR LIMC 061320Z VRB02KT 9999 SCT030 BKN070 23/13 Q1012 NOSIG
12-06-06 METAR LIMC 061420Z VRB02KT 9999 SCT030 BKN070 23/13 Q1012 NOSIG
12-06-06 METAR LIMC 061520Z VRB02KT 9999 SCT030 BKN070 24/14 Q1011 NOSIG
12-06-06 METAR LIMC 061620Z 18002KT 9999 SCT030 BKN070 23/15 Q1012 NOSIG
12-06-06 METAR LIMC 061720Z 36004KT 9999 SCT030 BKN070 22/13 Q1012 NOSIG
12-06-06 METAR LIMC 061820Z VRB01KT 9999 BKN035 BKN070 21/14 Q1012 NOSIG
12-06-06 METAR LIMC 061920Z 29003KT 9999 BKN035 BKN070 19/15 Q1012 NOSIG
12-06-06 METAR LIMC 062020Z VRB02KT 9999 BKN060 18/15 Q1012 NOSIG
12-06-06 METAR LIMC 062120Z 18003KT 9999 BKN060 18/15 Q1013 NOSIG
12-06-06 METAR LIMC 062220Z 00000KT 9999 BKN060 18/15 Q1013 NOSIG
12-06-06 METAR LIMC 062320Z 17001KT 9999 BKN070 18/15 Q1013 NOSIG
12-06-07 METAR LIMC 070020Z 16001KT 9999 BKN080 17/15 Q1013 NOSIG
12-06-07 METAR LIMC 070120Z 00000KT 9999 BKN070 17/16 Q1013 NOSIG
12-06-07 METAR LIMC 070220Z VRB01KT 9999 BKN070 17/15 Q1012 NOSIG
12-06-07 METAR LIMC 070320Z 00000KT 9999 BKN070 17/16 Q1013 NOSIG
12-06-07 METAR LIMC 070420Z 00000KT 7000 BKN050 17/16 Q1013 NOSIG
12-06-07 METAR LIMC 070520Z 00000KT 9999 BKN040 BKN070 18/15 Q1013 NOSIG
12-06-07 METAR LIMC 070620Z 00000KT 9999 BKN040 BKN070 19/16 Q1013 NOSIG
12-06-07 METAR LIMC 070720Z 18003KT 150V210 9999 BKN040 BKN070 18/16 Q1013 NOSIG
12-06-07 METAR LIMC 070820Z VRB01KT 9000 BKN035 BKN070 20/16 Q1013 NOSIG
12-06-07 METAR LIMC 070920Z 17003KT 130V210 9999 BKN030 BKN070 20/16 Q1013 NOSIG
12-06-07 METAR LIMC 071020Z VRB02KT 9999 BKN030 BKN070 21/16 Q1013 NOSIG
12-06-07 METAR LIMC 071120Z 18003KT 120V220 9999 BKN030 BKN070 21/17 Q1013 NOSIG
12-06-07 METAR LIMC 071220Z 19003KT 9999 BKN030 BKN070 21/17 Q1013 NOSIG
12-06-07 METAR LIMC 071320Z 23003KT 210V270 9999 SCT030 OVC070 21/17 Q1013 NOSIG
12-06-07 METAR LIMC 071420Z 00000KT 9999 SCT030 OVC070 21/17 Q1012 NOSIG
12-06-07 METAR LIMC 071520Z NIL
12-06-07 METAR LIMC 071520Z VRB02KT 9999 SCT030 OVC070 21/17 Q1012 NOSIG
12-06-07 METAR LIMC 071620Z 00000KT 9999 SCT030 OVC070 21/16 Q1012 NOSIG
12-06-07 METAR LIMC 071720Z VRB01KT 9999 SCT030 OVC070 20/16 Q1012 NOSIG
12-06-07 METAR LIMC 071820Z VRB02KT 9999 SCT030 BKN070 20/17 Q1012 NOSIG
12-06-07 METAR LIMC 071920Z 33002KT 9999 SCT030 BKN070 19/17 Q1012 NOSIG
12-06-07 METAR LIMC 072020Z 34003KT 9999 BKN040 BKN070 19/17 Q1012 NOSIG
12-06-07 METAR LIMC 072120Z VRB02KT 9999 BKN040 19/17 Q1012 NOSIG
12-06-07 METAR LIMC 072220Z 33002KT 9999 BKN040 18/17 Q1012 NOSIG
12-06-07 METAR LIMC 072320Z VRB02KT 9999 BKN060 17/16 Q1012 NOSIG
12-06-08 METAR LIMC 080020Z 01001KT 9999 BKN050 17/17 Q1012 NOSIG
12-06-08 METAR LIMC 080120Z 00000KT 9999 BKN050 18/17 Q1012 NOSIG
12-06-08 METAR LIMC 080220Z VRB01KT 9999 BKN050 17/16 Q1012 NOSIG
12-06-08 METAR LIMC 080320Z 26002KT 9999 BKN030 18/17 Q1012 NOSIG
12-06-08 METAR LIMC 080420Z 35002KT 9999 BKN030 18/17 Q1012 NOSIG
12-06-08 METAR LIMC 080520Z VRB02KT 9999 BKN030 19/16 Q1012 NOSIG
12-06-08 METAR LIMC 080620Z VRB01KT 9999 BKN030 21/15 Q1012 NOSIG
12-06-08 METAR LIMC 080720Z VRB02KT 9999 FEW030 SCT070 21/15 Q1012 NOSIG
12-06-08 METAR LIMC 080820Z VRB01KT 9999 FEW030 SCT070 22/15 Q1012 NOSIG
12-06-08 METAR LIMC 080920Z 21003KT 170V230 9999 FEW030 OVC070 21/16 Q1012 NOSIG
12-06-08 METAR LIMC 081020Z 18003KT 150V230 9999 -RA BKN030 OVC060 20/15 Q1013 NOSIG
12-06-08 METAR LIMC 081120Z VRB02KT 9999 SCT040 SCT070 22/16 Q1013 NOSIG
12-06-08 METAR LIMC 081220Z VRB02KT 9999 FEW030 BKN070 23/15 Q1013 NOSIG
12-06-08 METAR LIMC 081320Z VRB02KT 9999 SCT035 SCT060 23/16 Q1013 NOSIG
12-06-08 METAR LIMC 081420Z 32003KT 280V340 9999 SCT025 BKN060 22/16 Q1013 NOSIG
12-06-08 METAR LIMC 081520Z 33004KT 300V360 9999 BKN025 BKN060 22/15 Q1013 NOSIG
12-06-08 METAR LIMC 081620Z 36003KT 320V030 9999 SCT025 BKN060 21/15 Q1013 NOSIG
12-06-08 METAR LIMC 081720Z 36004KT 9999 BKN035 BKN060 21/15 Q1013 NOSIG
12-06-08 METAR LIMC 081820Z 34004KT 9999 BKN060 21/16 Q1013 NOSIG
12-06-08 METAR LIMC 081920Z 36004KT 9999 BKN060 20/15 Q1013 NOSIG
12-06-08 METAR LIMC 082020Z 34003KT 9999 BKN060 19/15 Q1013 NOSIG
12-06-08 METAR LIMC 082120Z 33004KT 9999 BKN060 19/15 Q1013 NOSIG
12-06-08 METAR LIMC 082220Z VRB02KT 9999 BKN060 18/16 Q1013 NOSIG
12-06-08 METAR LIMC 082320Z VRB02KT 9000 RA OVC025 18/17 Q1013 NOSIG
12-06-09 METAR LIMC 090020Z 02002KT 9000 -RA OVC030 18/16 Q1012 RESHRA NOSIG
12-06-09 METAR LIMC 090120Z 36002KT 9000 OVC030 18/17 Q1012 NOSIG
12-06-09 METAR LIMC 090220Z NIL
12-06-09 METAR LIMC 090220Z 35002KT 9000 OVC030 18/17 Q1012 NOSIG
12-06-09 METAR LIMC 090320Z VRB01KT 9000 OVC030 18/17 Q1012 NOSIG
12-06-09 METAR LIMC 090420Z 34003KT 6000 OVC060 18/17 Q1012 NOSIG
12-06-09 METAR LIMC 090420Z NIL
12-06-09 METAR LIMC 090520Z 33003KT 7000 OVC040 18/17 Q1013 NOSIG
12-06-09 METAR LIMC 090620Z 34003KT 7000 BKN040 OVC060 18/17 Q1013 NOSIG
12-06-09 METAR LIMC 090720Z VRB01KT 6000 BKN060 20/18 Q1013 NOSIG
12-06-09 METAR LIMC 090820Z VRB01KT 4000 BR SCT025 BKN060 21/18 Q1013 NOSIG
12-06-09 METAR LIMC 090920Z 00000KT 5000 BR SCT007 BKN015 23/18 Q1013 NOSIG
12-06-09 METAR LIMC 091020Z 19004KT 150V220 6000 SCT010 BKN030 23/17 Q1013 NOSIG
12-06-09 METAR LIMC 091120Z VRB02KT 7000 FEW010TCU BKN020 24/17 Q1012 NOSIG
12-06-09 METAR LIMC 091220Z VRB01KT 7000 BKN020 24/16 Q1012 NOSIG
12-06-09 METAR LIMC 091320Z VRB02KT 9999 BKN020 25/17 Q1012 NOSIG
12-06-09 METAR LIMC 091420Z 17003KT 9999 SCT020 25/15 Q1011 NOSIG
12-06-09 METAR LIMC 091520Z 16004KT 9999 SCT020 25/17 Q1010 NOSIG
12-06-09 METAR LIMC 091620Z 17002KT 9999 BKN020TCU 25/17 Q1010 NOSIG
12-06-09 METAR LIMC 091720Z 17001KT 9999 SCT020TCU BKN060 24/17 Q1010 NOSIG
12-06-09 METAR LIMC 091820Z VRB02KT 9999 VCTS SCT020CB BKN060 22/17 Q1009 BECMG TSRA
12-06-09 METAR LIMC 091920Z 01005KT 310V110 9999 -RA VCTS FEW005 SCT015CB BKN040 17/15 Q1010 RETSRA NOSIG
12-06-09 METAR LIMC 092020Z VRB01KT 9999 SCT080 17/15 Q1010 NOSIG
12-06-09 METAR LIMC 092120Z 12003KT 080V170 9999 BKN032 18/16 Q1010 NOSIG
12-06-09 METAR LIMC 092220Z 04004KT 360V080 9999 -RA VCTS SCT015CB BKN033 18/17
12-06-09 METAR LIMC 092320Z 03005KT 9999 VCTS FEW015CB BKN033 17/15 Q1010 BECMG TS
12-06-10 METAR LIMC 100020Z 02003KT 340V050 9999 -RA BKN022 16/14 Q1010 NOSIG
12-06-10 METAR LIMC 100120Z 35003KT 9999 -RA SCT022 BKN060 15/14 Q1010 NOSIG
12-06-10 METAR LIMC 100220Z 35003KT 9999 SCT030 BKN060 16/15 Q1009 NOSIG
12-06-10 METAR LIMC 100320Z 33003KT 9999 BKN025 OVC040 16/15 Q1010 NOSIG
12-06-10 METAR LIMC 100420Z 01004KT 9999 4500N SHRA BKN025 OVC040 15/15 Q1009 NOSIG
12-06-10 METAR LIMC 100520Z 35003KT 320V040 9999 BKN035 BKN050 15/14 Q1010 NOSIG
12-06-10 METAR LIMC 100620Z VRB02KT 9999 BKN050 17/15 Q1010 NOSIG
12-06-10 METAR LIMC 100720Z 03003KT 310V080 9999 FEW060 18/14 Q1010 NOSIG
12-06-10 METAR LIMC 100820Z 02003KT 340V060 9999 FEW070 20/12 Q1009 NOSIG
12-06-10 METAR LIMC 100920Z VRB02KT 9999 SCT030 21/13 Q1009 NOSIG
12-06-10 METAR LIMC 101020Z 16003KT 090V210 9999 SCT030 21/14 Q1009 NOSIG
12-06-10 METAR LIMC 101120Z VRB02KT 9999 SCT030 21/13 Q1009 NOSIG
12-06-10 METAR LIMC 101220Z VRB02KT 9999 SCT030 23/14 Q1008 NOSIG
12-06-10 METAR LIMC 101320Z VRB02KT 9999 SCT030 BKN050 23/12 Q1008 NOSIG
12-06-10 METAR LIMC 101420Z 17003KT 140V210 9999 SCT040 BKN060 22/14 Q1007 NOSIG
12-06-10 METAR LIMC 101520Z 13003KT 080V180 9999 SCT040 BKN060 22/14 Q1007 NOSIG
12-06-10 METAR LIMC 101620Z 16004KT 3000 RA BR SCT030 OVC060 16/16 Q1008 BECMG TS
12-06-10 METAR LIMC 101720Z VRB02KT 7000 -RA SCT030 OVC060 17/16 Q1008 RERA NOSIG
12-06-10 METAR LIMC 101820Z VRB02KT 7000 -RA SCT030 OVC060 17/16 Q1007 RERA NOSIG
12-06-10 METAR LIMC 101920Z VRB02KT 9999 FEW010TCU SCT020 OVC060 17/16 Q1007 NOSIG
12-06-10 METAR LIMC 102020Z 04003KT 8000 -RA FEW008TCU BKN015 OVC060 17/16 Q1007 NOSIG
12-06-10 METAR LIMC 102120Z VRB02KT 8000 FEW008TCU BKN015 OVC060 17/16 Q1007 NOSIG
12-06-10 METAR LIMC 102220Z 34002KT 9999 SCT025 OVC060 16/15 Q1007 NOSIG
12-06-10 METAR LIMC 102320Z VRB02KT 9999 SCT025 OVC060 16/15 Q1007 NOSIG
12-06-11 METAR LIMC 110020Z 35002KT 9999 SCT025 OVC060 16/15 Q1006 NOSIG
12-06-11 METAR LIMC 110120Z 35002KT 9999 SCT025 OVC060 16/15 Q1006 NOSIG
12-06-11 METAR LIMC 110220Z 35002KT 9999 SCT025 OVC060 16/15 Q1006 NOSIG
12-06-11 METAR LIMC 110320Z VRB01KT 9999 SCT025 OVC060 16/15 Q1006 NOSIG
12-06-11 METAR LIMC 110420Z 35001KT 9999 BKN030 OVC060 16/15 Q1006 NOSIG
12-06-11 METAR LIMC 110520Z 35003KT 320V020 9999 BKN030 16/14 Q1006 NOSIG
12-06-11 METAR LIMC 110620Z VRB01KT 9999 SCT030 BKN050 16/15 Q1006 NOSIG
12-06-11 METAR LIMC 110720Z VRB01KT 9999 SCT030 BKN050 18/15 Q1006 NOSIG
12-06-11 METAR LIMC 110820Z VRB01KT 9999 FEW020 SCT040 19/15 Q1005 NOSIG
12-06-11 METAR LIMC 110920Z VRB01KT 9999 SCT030 20/14 Q1005 NOSIG
12-06-11 METAR LIMC 111020Z VRB02KT 9999 SCT030 20/14 Q1005 NOSIG
12-06-11 METAR LIMC 111120Z 20003KT 100V260 9999 SCT030 22/14 Q1004 NOSIG
12-06-11 METAR LIMC 111220Z VRB02KT 9999 SCT020 23/13 Q1004 NOSIG
12-06-11 METAR LIMC 111320Z VRB03KT 9999 SCT020 24/15 Q1003 NOSIG
12-06-11 METAR LIMC 111420Z 23003KT 180V290 9999 SCT020 24/14 Q1003 NOSIG
12-06-11 METAR LIMC 111520Z 24003KT 180V340 9999 SCT020 24/12 Q1002 NOSIG
12-06-11 METAR LIMC 111620Z VRB02KT 9999 SCT040 24/12 Q1001 NOSIG
12-06-11 METAR LIMC 111720Z 15007KT 110V180 9999 SCT020TCU BKN060 20/14 Q1002 BECMG TS
12-06-11 METAR LIMC 111820Z VRB02KT 3000 +TSRA SCT015CB BKN030 16/15 Q1002 NOSIG
12-06-11 METAR LIMC 111920Z 10004KT 070V200 9999 3000S -TSRA SCT015CB BKN030 15/12 Q1003 RERA NOSIG
12-06-11 METAR LIMC 112020Z VRB02KT 9999 -TSRA SCT020CB BKN040 15/13 Q1003 RERA NOSIG
12-06-11 METAR LIMC 112120Z VRB02KT 9999 TSRA SCT020CB BKN040 16/15 Q1004 NOSIG
12-06-11 METAR LIMC 112220Z 03003KT 350V080 9999 RA SCT020CB BKN040 16/14 Q1003 RETS
12-06-11 METAR LIMC 112320Z VRB02KT 9999 VCTS SCT020CB BKN040 15/14 Q1003 NOSIG
12-06-12 METAR LIMC 120020Z 09002KT 9999 VCTS RA FEW010CB SCT020 BKN060 15/14 Q1003 NOSIG
12-06-12 METAR LIMC 120120Z 05004KT 9999 SCT030 BKN060 15/14 Q1001 RERA NOSIG
12-06-12 METAR LIMC 120220Z VRB01KT 9999 RA SCT030 BKN060 15/14 Q1001 NOSIG
12-06-12 METAR LIMC 120320Z 07003KT 040V100 9999 RA SCT030 BKN060 14/14 Q1000 NOSIG
12-06-12 METAR LIMC 120420Z VRB01KT 9999 RA SCT025 OVC050 13/13 Q1001 NOSIG
12-06-12 METAR LIMC 120520Z 36003KT 330V050 8000 -RA SCT025 OVC050 14/13 Q1001
12-06-12 METAR LIMC 120620Z 32003KT 7000 -RA SCT020 OVC060 14/13 Q1001 NOSIG
12-06-12 METAR LIMC 120720Z 28002KT 8000 -RA FEW008 SCT020 OVC060 14/14 Q1001 NOSIG
12-06-12 METAR LIMC 120820Z VRB01KT 9999 -RA FEW008 BKN050 15/12 Q1002 NOSIG
12-06-12 METAR LIMC 120920Z VRB01KT 9999 -RA FEW008 BKN050 15/10 Q1002 NOSIG
12-06-12 METAR LIMC 121020Z VRB01KT 9999 -RA SCT008 BKN050 15/14 Q1002 NOSIG
12-06-12 METAR LIMC 121220Z VRB02KT 9999 BKN050 18/14 Q1003 NOSIG
12-06-12 METAR LIMC 121320Z 31003KT 270V350 9999 FEW090 19/13 Q1003 NOSIG
12-06-12 METAR LIMC 121420Z VRB03KT 9999 FEW025 20/14 Q1003 NOSIG
12-06-12 METAR LIMC 121520Z VRB01KT 9999 FEW025 21/13 Q1003 NOSIG
12-06-12 METAR LIMC 121620Z VRB02KT CAVOK 21/13 Q1004 NOSIG
12-06-12 METAR LIMC 121720Z VRB01KT CAVOK 21/13 Q1004 NOSIG
12-06-12 METAR LIMC 121820Z 00000KT CAVOK 21/13 Q1005 NOSIG
12-06-12 METAR LIMC 121920Z VRB01KT CAVOK 17/14 Q1005 NOSIG
12-06-12 METAR LIMC 122020Z 01001KT 9999 SCT040 16/14 Q1006 NOSIG
12-06-12 METAR LIMC 122120Z VRB01KT 9999 FEW040 15/13 Q1007 NOSIG
12-06-12 METAR LIMC 122220Z 35002KT 9999 FEW040 14/13 Q1007 NOSIG
12-06-12 METAR LIMC 122320Z 00000KT 9999 FEW040 13/12 Q1007 NOSIG
12-06-13 METAR LIMC 130020Z VRB01KT 9999 FEW040 12/11 Q1007 NOSIG
12-06-13 METAR LIMC 130120Z 35002KT 9999 FEW040 13/12 Q1007 NOSIG
12-06-13 METAR LIMC 130220Z 34004KT CAVOK 11/10 Q1007 NOSIG
12-06-13 METAR LIMC 130320Z 33002KT CAVOK 11/10 Q1008 NOSIG
12-06-13 METAR LIMC 130420Z 01002KT CAVOK 12/10 Q1008 NOSIG
12-06-13 METAR LIMC 130520Z 35004KT 9999 FEW060 15/11 Q1009 NOSIG
12-06-13 METAR LIMC 130620Z 31003KT CAVOK 17/11 Q1009 NOSIG
12-06-13 METAR LIMC 130720Z 32003KT 280V360 CAVOK 20/10 Q1010 NOSIG
12-06-13 METAR LIMC 130820Z 31003KT 280V340 CAVOK 21/08 Q1010 NOSIG
12-06-13 METAR LIMC 130920Z 27003KT 240V320 CAVOK 23/06 Q1011 NOSIG
12-06-13 METAR LIMC 131020Z 24004KT 180V290 CAVOK 23/11 Q1011 NOSIG
12-06-13 METAR LIMC 131120Z 25004KT CAVOK 24/07 Q1011 NOSIG
12-06-13 METAR LIMC 131220Z 25004KT 190V290 9999 SCT070 25/07 Q1011 NOSIG
12-06-13 METAR LIMC 131320Z 22004KT 190V280 CAVOK 24/07 Q1011 NOSIG
12-06-13 METAR LIMC 131420Z VRB02KT CAVOK 24/06 Q1011 NOSIG
12-06-13 METAR LIMC 131520Z VRB02KT CAVOK 25/07 Q1011 NOSIG
12-06-13 METAR LIMC 131620Z 24004KT CAVOK 25/07 Q1011 NOSIG
12-06-13 METAR LIMC 131720Z 25002KT 9999 SCT080 23/08 Q1012 NOSIG
12-06-13 METAR LIMC 131820Z 18003KT 9999 FEW035 SCT060 21/14 Q1012 NOSIG
12-06-13 METAR LIMC 131920Z 20004KT 160V220 9999 SCT040 SCT070 21/12 Q1013 NOSIG
12-06-13 METAR LIMC 132020Z VRB02KT 9999 FEW030TCU SCT050 18/12 Q1014 NOSIG
12-06-13 METAR LIMC 132120Z VRB02KT 9999 FEW080 18/11 Q1015 NOSIG
12-06-13 METAR LIMC 132220Z VRB01KT 9999 FEW070 15/12 Q1016 NOSIG
12-06-13 METAR LIMC 132320Z VRB01KT 9999 SCT070 14/12 Q1016 NOSIG
12-06-14 METAR LIMC 140020Z 03002KT 9999 SCT070 13/11 Q1016 NOSIG
12-06-14 METAR LIMC 140120Z VRB01KT 9999 SCT070 13/11 Q1016 NOSIG
12-06-14 METAR LIMC 140220Z 00000KT CAVOK 12/11 Q1017 NOSIG
12-06-14 METAR LIMC 140320Z 00000KT CAVOK 11/10 Q1017 NOSIG
12-06-14 METAR LIMC 140420Z 00000KT CAVOK 12/11 Q1018 NOSIG
12-06-14 METAR LIMC 140520Z VRB02KT CAVOK 15/12 Q1018 NOSIG
12-06-14 METAR LIMC 140620Z VRB02KT CAVOK 17/12 Q1018 NOSIG
12-06-14 METAR LIMC 140720Z VRB02KT CAVOK 19/12 Q1018 NOSIG
12-06-14 METAR LIMC 140820Z 00000KT CAVOK 20/11 Q1018 NOSIG
12-06-14 METAR LIMC 140920Z VRB01KT 9999 SCT030 21/12 Q1018 NOSIG
12-06-14 METAR LIMC 141020Z VRB02KT 9999 SCT030 21/13 Q1018 NOSIG
12-06-14 METAR LIMC 141120Z 15003KT 110V190 9999 SCT030 22/14 Q1018 NOSIG
12-06-14 METAR LIMC 141220Z 18003KT 140V230 9999 SCT030 23/12 Q1018 NOSIG
12-06-14 METAR LIMC 141320Z 17003KT 120V210 9999 SCT030 22/13 Q1018 NOSIG
12-06-14 METAR LIMC 141420Z 18003KT 110V240 9999 SCT030 23/12 Q1018 NOSIG
12-06-14 METAR LIMC 141520Z VRB02KT 9999 FEW030 SCT060 24/11 Q1018 NOSIG
12-06-14 METAR LIMC 141620Z VRB02KT 9999 FEW030 SCT070 24/12 Q1017 NOSIG
12-06-14 METAR LIMC 141720Z VRB02KT 9999 FEW030 23/13 Q1017 NOSIG
12-06-14 METAR LIMC 141820Z 19001KT CAVOK 22/14 Q1018 NOSIG
12-06-14 METAR LIMC 141920Z 36003KT CAVOK 21/14 Q1018 NOSIG
12-06-14 METAR LIMC 142020Z VRB01KT CAVOK 18/13 Q1019 NOSIG
12-06-14 METAR LIMC 142120Z VRB02KT CAVOK 17/14 Q1019 NOSIG
12-06-14 METAR LIMC 142220Z 01002KT 9999 SCT070 15/13 Q1020 NOSIG
12-06-14 METAR LIMC 142320Z 00000KT 9999 SCT070 16/14 Q1020 NOSIG
12-06-15 METAR LIMC 150020Z 00000KT 9999 SCT070 15/14 Q1020 NOSIG
12-06-15 METAR LIMC 150120Z 35002KT CAVOK 15/13 Q1020 NOSIG
12-06-15 METAR LIMC 150220Z 36001KT CAVOK 14/12 Q1020 NOSIG
12-06-15 METAR LIMC 150320Z 01002KT CAVOK 14/12 Q1020 NOSIG
12-06-15 METAR LIMC 150420Z 01001KT CAVOK 14/12 Q1020 NOSIG
12-06-15 METAR LIMC 150520Z 34003KT 330V030 CAVOK 17/13 Q1021 NOSIG
12-06-15 METAR LIMC 150620Z VRB02KT CAVOK 20/13 Q1021 NOSIG
12-06-15 METAR LIMC 150720Z VRB01KT CAVOK 21/14 Q1021 NOSIG
12-06-15 METAR LIMC 150820Z 00000KT CAVOK 23/13 Q1021 NOSIG
12-06-15 METAR LIMC 150920Z VRB01KT CAVOK 24/13 Q1022 NOSIG
12-06-15 METAR LIMC 151020Z VRB02KT 9999 FEW025 24/13 Q1022 NOSIG
12-06-15 METAR LIMC 151120Z 25003KT 200V320 9999 SCT030 25/13 Q1021 NOSIG
12-06-15 METAR LIMC 151220Z VRB02KT 9999 SCT030 26/14 Q1021 NOSIG
12-06-15 METAR LIMC 151320Z 20003KT 160V250 9999 FEW030 26/13 Q1021 NOSIG
12-06-15 METAR LIMC 151420Z 24003KT 210V270 9999 FEW030 26/13 Q1021 NOSIG
12-06-15 METAR LIMC 151520Z 20003KT 160V230 9999 FEW030 26/13 Q1020 NOSIG
12-06-15 METAR LIMC 151620Z 21003KT 160V270 CAVOK 26/14 Q1020 NOSIG
12-06-15 METAR LIMC 151720Z 22003KT 190V280 CAVOK 25/13 Q1020 NOSIG
12-06-15 METAR LIMC 151820Z 22002KT CAVOK 24/14 Q1021 NOSIG
12-06-15 METAR LIMC 151920Z 00000KT CAVOK 22/13 Q1021 NOSIG
12-06-15 METAR LIMC 152020Z 00000KT CAVOK 19/14 Q1021 NOSIG
12-06-15 METAR LIMC 152120Z 00000KT CAVOK 17/14 Q1022 NOSIG
12-06-15 METAR LIMC 152220Z VRB01KT CAVOK 17/14 Q1022 NOSIG
12-06-15 METAR LIMC 152320Z 35003KT CAVOK 17/14 Q1021 NOSIG
12-06-16 METAR LIMC 160020Z 35002KT CAVOK 17/14 Q1022 NOSIG
12-06-16 METAR LIMC 160120Z 35002KT CAVOK 17/14 Q1021 NOSIG
12-06-16 METAR LIMC 160220Z 00000KT CAVOK 16/14 Q1021 NOSIG
12-06-16 METAR LIMC 160320Z VRB02KT CAVOK 16/14 Q1021 NOSIG
12-06-16 METAR LIMC 160420Z VRB02KT CAVOK 17/14 Q1022 NOSIG
12-06-16 METAR LIMC 160520Z 36003KT 310V050 CAVOK 18/15 Q1022 NOSIG
12-06-16 METAR LIMC 160620Z VRB01KT CAVOK 21/15 Q1022 NOSIG
12-06-16 METAR LIMC 160720Z VRB02KT CAVOK 23/15 Q1022 NOSIG
12-06-16 METAR LIMC 160820Z VRB01KT CAVOK 25/15 Q1022 NOSIG
12-06-16 METAR LIMC 160920Z VRB01KT CAVOK 25/14 Q1022 NOSIG
12-06-16 METAR LIMC 161020Z VRB02KT CAVOK 26/14 Q1021 NOSIG
12-06-16 METAR LIMC 161120Z 16003KT 120V240 CAVOK 27/14 Q1021 NOSIG
12-06-16 METAR LIMC 161220Z VRB02KT CAVOK 28/16 Q1021 NOSIG
12-06-16 METAR LIMC 161320Z 18003KT 100V250 CAVOK 28/16 Q1020 NOSIG
12-06-16 METAR LIMC 161420Z VRB02KT CAVOK 28/15 Q1020 NOSIG
12-06-16 METAR LIMC 161520Z VRB02KT CAVOK 29/16 Q1020 NOSIG
12-06-16 METAR LIMC 161620Z VRB02KT CAVOK 28/16 Q1020 NOSIG
12-06-16 METAR LIMC 161720Z 22003KT CAVOK 27/16 Q1020 NOSIG
12-06-16 METAR LIMC 161820Z 20002KT CAVOK 26/17 Q1020 NOSIG
12-06-16 METAR LIMC 161920Z 00000KT CAVOK 24/16 Q1020 NOSIG
12-06-16 METAR LIMC 162020Z 00000KT CAVOK 21/16 Q1020 NOSIG
12-06-16 METAR LIMC 162120Z 00000KT CAVOK 20/16 Q1020 NOSIG
12-06-16 METAR LIMC 162220Z 00000KT CAVOK 19/16 Q1020 NOSIG
12-06-16 METAR LIMC 162320Z 34002KT CAVOK 19/16 Q1020 NOSIG
12-06-17 METAR LIMC 170020Z 36002KT CAVOK 18/16 Q1020 NOSIG
12-06-17 METAR LIMC 170120Z 00000KT CAVOK 17/16 Q1019 NOSIG
12-06-17 METAR LIMC 170220Z 00000KT CAVOK 18/16 Q1019 NOSIG
12-06-17 METAR LIMC 170320Z VRB01KT CAVOK 17/16 Q1019 NOSIG
12-06-17 METAR LIMC 170420Z 36002KT CAVOK 17/15 Q1020 NOSIG
12-06-17 METAR LIMC 170520Z VRB02KT CAVOK 21/16 Q1020 NOSIG
12-06-17 METAR LIMC 170620Z 35002KT CAVOK 22/16 Q1020 NOSIG
12-06-17 METAR LIMC 170720Z VRB01KT CAVOK 25/17 Q1020 NOSIG
12-06-17 METAR LIMC 170820Z VRB01KT CAVOK 26/16 Q1020 NOSIG
12-06-17 METAR LIMC 170920Z VRB01KT CAVOK 27/16 Q1020 NOSIG
12-06-17 METAR LIMC 171020Z 00000KT CAVOK 29/17 Q1020 NOSIG
12-06-17 METAR LIMC 171120Z VRB02KT CAVOK 29/18 Q1019 NOSIG
12-06-17 METAR LIMC 171220Z VRB02KT CAVOK 30/18 Q1019 NOSIG
12-06-17 METAR LIMC 171320Z VRB02KT CAVOK 30/17 Q1019 NOSIG
12-06-17 METAR LIMC 171420Z 19003KT 130V250 CAVOK 30/18 Q1018 NOSIG
12-06-17 METAR LIMC 171520Z 20003KT 160V280 CAVOK 30/18 Q1018 NOSIG
12-06-17 METAR LIMC 171620Z 23003KT 150V280 CAVOK 30/18 Q1018 NOSIG
12-06-17 METAR LIMC 171720Z 23003KT 200V260 CAVOK 29/18 Q1018 NOSIG
12-06-17 METAR LIMC 171820Z 22002KT CAVOK 28/18 Q1018 NOSIG
12-06-17 METAR LIMC 171920Z 00000KT CAVOK 26/19 Q1018 NOSIG
12-06-17 METAR LIMC 172020Z 00000KT CAVOK 22/19 Q1019 NOSIG
12-06-17 METAR LIMC 172120Z VRB02KT CAVOK 23/18 Q1019 NOSIG
12-06-17 METAR LIMC 172220Z VRB01KT CAVOK 21/19 Q1019 NOSIG
12-06-17 METAR LIMC 172320Z VRB02KT CAVOK 21/19 Q1018 NOSIG
12-06-18 METAR LIMC 180020Z VRB02KT CAVOK 21/18 Q1018 NOSIG
12-06-18 METAR LIMC 180120Z 35003KT CAVOK 21/18 Q1018 NOSIG
12-06-18 METAR LIMC 180220Z 01001KT CAVOK 20/18 Q1018 NOSIG
12-06-18 METAR LIMC 180320Z 36002KT CAVOK 21/18 Q1018 NOSIG
12-06-18 METAR LIMC 180420Z 00000KT 9999 FEW045 21/18 Q1018 NOSIG
12-06-18 METAR LIMC 180520Z 35003KT 320V030 9999 FEW030 SCT060 22/18 Q1019 NOSIG
12-06-18 METAR LIMC 180620Z 01003KT 330V040 9999 FEW030 24/19 Q1019 NOSIG
12-06-18 METAR LIMC 180720Z 33004KT 9999 FEW070 26/19 Q1019 NOSIG
12-06-18 METAR LIMC 180820Z 00000KT CAVOK 28/18 Q1019 NOSIG
12-06-18 METAR LIMC 180920Z VRB01KT CAVOK 29/16 Q1019 NOSIG
12-06-18 METAR LIMC 181020Z VRB02KT CAVOK 30/17 Q1018 NOSIG
12-06-18 METAR LIMC 181120Z VRB02KT 9999 FEW040 30/16 Q1018 NOSIG
12-06-18 METAR LIMC 181220Z 18003KT 150V210 9999 FEW040 30/18 Q1018 NOSIG
12-06-18 METAR LIMC 181320Z VRB02KT 9999 FEW035 30/18 Q1017 NOSIG
12-06-18 METAR LIMC 181420Z VRB02KT CAVOK 31/19 Q1017 NOSIG
12-06-18 METAR LIMC 181520Z VRB02KT CAVOK 30/18 Q1016 NOSIG
12-06-18 METAR LIMC 181620Z 21003KT CAVOK 30/19 Q1016 NOSIG
12-06-18 METAR LIMC 181720Z 20003KT CAVOK 28/19 Q1016 NOSIG
12-06-18 METAR LIMC 181820Z 24004KT CAVOK 28/20 Q1017 NOSIG
12-06-18 METAR LIMC 181920Z 26004KT CAVOK 27/19 Q1017 NOSIG
12-06-18 METAR LIMC 182020Z VRB02KT 9999 BKN070 25/19 Q1017 NOSIG
12-06-18 METAR LIMC 182120Z 34003KT CAVOK 25/14 Q1017 NOSIG
12-06-18 METAR LIMC 182220Z 34003KT CAVOK 23/14 Q1017 NOSIG
12-06-18 METAR LIMC 182320Z 00000KT CAVOK 21/15 Q1017 NOSIG
12-06-19 METAR LIMC 190020Z 00000KT CAVOK 20/14 Q1017 NOSIG
12-06-19 METAR LIMC 190120Z VRB02KT CAVOK 17/15 Q1017 NOSIG
12-06-19 METAR LIMC 190220Z 35003KT CAVOK 17/14 Q1017 NOSIG
12-06-19 METAR LIMC 190320Z 35003KT CAVOK 19/14 Q1017 NOSIG
12-06-19 METAR LIMC 190420Z 36002KT CAVOK 19/14 Q1017 NOSIG
12-06-19 METAR LIMC 190520Z 36003KT 320V040 CAVOK 22/15 Q1017 NOSIG
12-06-19 METAR LIMC 190620Z VRB02KT CAVOK 24/16 Q1017 NOSIG
12-06-19 METAR LIMC 190720Z VRB01KT CAVOK 26/15 Q1018 NOSIG
12-06-19 METAR LIMC 190820Z VRB01KT CAVOK 28/18 Q1017 NOSIG
12-06-19 METAR LIMC 190920Z VRB01KT CAVOK 29/18 Q1017 NOSIG
12-06-19 METAR LIMC 191020Z VRB02KT CAVOK 30/19 Q1017 NOSIG
12-06-19 METAR LIMC 191120Z VRB02KT CAVOK 31/18 Q1017 NOSIG
12-06-19 METAR LIMC 191220Z 16003KT 110V190 CAVOK 31/18 Q1016 NOSIG
12-06-19 METAR LIMC 191320Z 19003KT 120V230 9999 FEW090 31/19 Q1016 NOSIG
12-06-19 METAR LIMC 191420Z 18003KT 120V210 CAVOK 31/19 Q1016 NOSIG
12-06-19 METAR LIMC 191520Z 19004KT 150V220 9999 SCT080 31/14 Q1015 NOSIG
12-06-19 METAR LIMC 191620Z 17002KT 9999 SCT080 31/17 Q1015 NOSIG
12-06-19 METAR LIMC 191720Z 22002KT 9999 SCT080 29/19 Q1015 NOSIG
12-06-19 METAR LIMC 191820Z VRB02KT 9999 SCT070 28/20 Q1015 NOSIG
12-06-19 METAR LIMC 191920Z 00000KT 9999 SCT070 27/20 Q1015 NOSIG
12-06-19 METAR LIMC 192020Z 00000KT 9999 SCT040 BKN070 25/21 Q1016 NOSIG
12-06-19 METAR LIMC 192120Z 35002KT 9999 BKN060 24/22 Q1016 NOSIG
12-06-19 METAR LIMC 192220Z 34003KT 9999 SCT060 22/20 Q1015 NOSIG
12-06-19 METAR LIMC 192320Z 35003KT 9999 FEW060 22/20 Q1015 NOSIG
12-06-20 METAR LIMC 200020Z 36003KT 320V030 9999 FEW060 22/19 Q1015 NOSIG
12-06-20 METAR LIMC 200120Z 33002KT 9999 FEW060 21/19 Q1015 NOSIG
12-06-20 METAR LIMC 200220Z 34002KT 9999 SCT060 21/19 Q1015 NOSIG
12-06-20 METAR LIMC 200320Z VRB02KT 9999 SCT060 21/19 Q1015 NOSIG
12-06-20 METAR LIMC 200420Z 35002KT 9999 SCT070 21/18 Q1014 NOSIG
12-06-20 METAR LIMC 200520Z VRB02KT CAVOK 23/18 Q1014 NOSIG
12-06-20 METAR LIMC 200620Z VRB02KT CAVOK 24/19 Q1015 NOSIG
12-06-20 METAR LIMC 200720Z VRB01KT CAVOK 26/18 Q1015 NOSIG
12-06-20 METAR LIMC 200820Z VRB01KT CAVOK 26/19 Q1014 NOSIG
12-06-20 METAR LIMC 200920Z VRB01KT CAVOK 29/19 Q1014 NOSIG
12-06-20 METAR LIMC 201020Z 16004KT 130V200 CAVOK 29/17 Q1014 NOSIG
12-06-20 METAR LIMC 201120Z 18005KT 150V210 9999 FEW050 BKN070 28/18 Q1014 NOSIG
12-06-20 METAR LIMC 201220Z 18003KT 160V230 9999 BKN070 28/20 Q1014 NOSIG
12-06-20 METAR LIMC 201320Z 17003KT 150V210 9999 BKN080 28/17 Q1014 NOSIG
12-06-20 METAR LIMC 201420Z VRB01KT 9999 FEW070 BKN090 27/19 Q1013 NOSIG
12-06-20 METAR LIMC 201520Z VRB02KT 9999 FEW070 SCT090 28/20 Q1013 NOSIG
12-06-20 METAR LIMC 201620Z 00000KT 9999 FEW090 29/18 Q1012 NOSIG
12-06-20 METAR LIMC 201720Z 00000KT CAVOK 28/18 Q1012 NOSIG
12-06-20 METAR LIMC 201820Z VRB01KT CAVOK 26/20 Q1012 NOSIG
12-06-20 METAR LIMC 201920Z VRB02KT CAVOK 25/19 Q1012 NOSIG
12-06-20 METAR LIMC 202020Z 35003KT 330V030 CAVOK 24/19 Q1012 NOSIG
12-06-20 METAR LIMC 202120Z 34004KT CAVOK 22/19 Q1011 NOSIG
12-06-20 METAR LIMC 202220Z 36002KT CAVOK 21/18 Q1011 NOSIG
12-06-20 METAR LIMC 202320Z 36002KT CAVOK 21/18 Q1011 NOSIG
12-06-21 METAR LIMC 210020Z 00000KT CAVOK 19/18 Q1011 NOSIG
12-06-21 METAR LIMC 210120Z 00000KT CAVOK 19/17 Q1011 NOSIG
12-06-21 METAR LIMC 210220Z 36001KT CAVOK 19/17 Q1011 NOSIG
12-06-21 METAR LIMC 210320Z VRB02KT CAVOK 20/18 Q1010 NOSIG
12-06-21 METAR LIMC 210420Z 33003KT CAVOK 20/18 Q1011 NOSIG
12-06-21 METAR LIMC 210520Z 33004KT 9999 SCT085 22/18 Q1010 NOSIG
12-06-21 METAR LIMC 210620Z 32003KT 9999 FEW090 23/18 Q1010 NOSIG
12-06-21 METAR LIMC 210720Z VRB02KT CAVOK 26/18 Q1010 NOSIG
12-06-21 METAR LIMC 210820Z 00000KT CAVOK 27/18 Q1010 NOSIG
12-06-21 METAR LIMC 210920Z VRB02KT CAVOK 27/19 Q1011 NOSIG
12-06-21 METAR LIMC 211020Z VRB02KT CAVOK 28/18 Q1011 NOSIG
12-06-21 METAR LIMC 211120Z VRB02KT CAVOK 29/17 Q1010 NOSIG
12-06-21 METAR LIMC 211220Z 21003KT 110V260 CAVOK 30/17 Q1010 NOSIG
12-06-21 METAR LIMC 211320Z 24003KT 190V280 CAVOK 30/17 Q1010 NOSIG
12-06-21 METAR LIMC 211420Z 22003KT 180V280 CAVOK 30/16 Q1009 NOSIG
12-06-21 METAR LIMC 211520Z 18003KT 140V230 CAVOK 30/18 Q1009 NOSIG
12-06-21 METAR LIMC 211720Z 25003KT 190V280 9999 FEW090 28/19 Q1009 NOSIG
12-06-21 METAR LIMC 211820Z 27004KT 9999 -RA BKN060 27/18 Q1010 NOSIG
12-06-21 METAR LIMC 211920Z 01003KT 320V040 9999 SCT060 BKN090 26/19 Q1010 NOSIG
12-06-21 METAR LIMC 212020Z 33003KT CAVOK 23/17 Q1011 NOSIG
12-06-21 METAR LIMC 212120Z VRB01KT CAVOK 22/16 Q1011 NOSIG
12-06-21 METAR LIMC 212220Z VRB01KT CAVOK 20/16 Q1012 NOSIG
12-06-21 METAR LIMC 212320Z 21002KT CAVOK 19/16 Q1012 NOSIG
12-06-22 METAR LIMC 220020Z 35002KT CAVOK 19/16 Q1012 NOSIG
12-06-22 METAR LIMC 220120Z 33003KT CAVOK 19/16 Q1012 NOSIG
12-06-22 METAR LIMC 220220Z 07001KT CAVOK 17/15 Q1013 NOSIG
12-06-22 METAR LIMC 220320Z 00000KT CAVOK 18/15 Q1013 NOSIG
12-06-22 METAR LIMC 220420Z 34003KT CAVOK 18/15 Q1013 NOSIG
12-06-22 METAR LIMC 220520Z 34003KT CAVOK 21/16 Q1014 NOSIG
12-06-22 METAR LIMC 220620Z 33003KT CAVOK 23/16 Q1014 NOSIG
12-06-22 METAR LIMC 220720Z VRB02KT CAVOK 25/16 Q1015 NOSIG
12-06-22 METAR LIMC 220820Z VRB02KT CAVOK 27/15 Q1015 NOSIG
12-06-22 METAR LIMC 220920Z VRB01KT CAVOK 29/14 Q1015 NOSIG
12-06-22 METAR LIMC 221020Z VRB02KT CAVOK 30/13 Q1015 NOSIG
12-06-22 METAR LIMC 221120Z VRB02KT CAVOK 31/12 Q1015 NOSIG
12-06-22 METAR LIMC 221220Z 16003KT 120V220 CAVOK 31/15 Q1015 NOSIG
12-06-22 METAR LIMC 221320Z 17004KT 130V210 9999 FEW040 31/15 Q1015 NOSIG
12-06-22 METAR LIMC 221420Z 17004KT 100V210 9999 FEW040 32/12 Q1014 NOSIG
12-06-22 METAR LIMC 221520Z 17003KT 130V230 CAVOK 32/12 Q1014 NOSIG
12-06-22 METAR LIMC 221620Z VRB02KT CAVOK 31/10 Q1014 NOSIG
12-06-22 METAR LIMC 221720Z 21003KT CAVOK 30/13 Q1014 NOSIG
12-06-22 METAR LIMC 221820Z VRB01KT CAVOK 30/13 Q1014 NOSIG
12-06-22 METAR LIMC 221920Z 00000KT CAVOK 25/16 Q1015 NOSIG
12-06-22 METAR LIMC 222020Z 00000KT CAVOK 23/16 Q1015 NOSIG
12-06-22 METAR LIMC 222120Z 36002KT CAVOK 21/15 Q1016 NOSIG
12-06-22 METAR LIMC 222220Z 01002KT 9999 SCT070 21/16 Q1016 NOSIG
12-06-22 METAR LIMC 222320Z 35003KT 9999 SCT070 21/16 Q1016 NOSIG
12-06-23 METAR LIMC 230020Z VRB01KT 9999 SCT070 20/16 Q1016 NOSIG
12-06-23 METAR LIMC 230120Z 01002KT 9999 SCT070 20/15 Q1016 NOSIG
12-06-23 METAR LIMC 230220Z 04003KT 9999 SCT070 23/16 Q1016 NOSIG
12-06-23 METAR LIMC 230320Z 03004KT 9999 SCT070 23/16 Q1017 NOSIG
12-06-23 METAR LIMC 230420Z 01003KT 9999 SCT050 23/16 Q1018 NOSIG
12-06-23 METAR LIMC 230520Z 03003KT 340V070 9999 SCT050 24/17 Q1018 NOSIG
12-06-23 METAR LIMC 230620Z 03002KT 9999 SCT050 25/17 Q1019 NOSIG
12-06-23 METAR LIMC 230720Z VRB02KT 9999 SCT050 26/16 Q1019 NOSIG
12-06-23 METAR LIMC 230820Z 04003KT 340V080 9999 BKN040 27/16 Q1019 NOSIG
12-06-23 METAR LIMC 230920Z 05003KT 350V120 9999 BKN050 27/17 Q1019 NOSIG
12-06-23 METAR LIMC 231020Z 06004KT 010V130 9999 BKN060 28/17 Q1019 NOSIG
12-06-23 METAR LIMC 231120Z VRB03KT 9999 BKN060 29/16 Q1019 NOSIG
12-06-23 METAR LIMC 231220Z 10003KT 050V180 9999 FEW030 SCT060 29/17 Q1019 NOSIG
12-06-23 METAR LIMC 231320Z 11003KT 040V140 9999 FEW030TCU SCT060 29/17 Q1019 NOSIG
12-06-23 METAR LIMC 231420Z 11003KT 070V160 9999 BKN025TCU 28/17 Q1019 NOSIG
12-06-23 METAR LIMC 231520Z 10004KT 060V130 9999 BKN025TCU 28/16 Q1018 NOSIG
12-06-23 METAR LIMC 231620Z 11004KT 050V160 9999 VCSH BKN025TCU 28/16 Q1018 NOSIG
12-06-23 METAR LIMC 231720Z VRB01KT 9999 BKN015TCU 23/20 Q1019 RETSGR NOSIG
12-06-23 METAR LIMC 231820Z 35004KT 330V030 9999 SCT020TCU BKN040 23/20 Q1020 NOSIG
12-06-23 METAR LIMC 231920Z 34003KT 9999 SCT020TCU BKN040 22/20 Q1020 NOSIG
12-06-23 METAR LIMC 232020Z 36004KT 9999 SCT025 SCT040 21/19 Q1020 NOSIG
12-06-23 METAR LIMC 232120Z VRB02KT 9999 SCT060 21/19 Q1020 NOSIG
12-06-23 METAR LIMC 232220Z VRB02KT CAVOK 20/18 Q1020 NOSIG
12-06-23 METAR LIMC 232320Z VRB01KT CAVOK 20/19 Q1020 NOSIG
12-06-24 METAR LIMC 240020Z 35002KT CAVOK 20/19 Q1020 NOSIG
12-06-24 METAR LIMC 240120Z VRB01KT CAVOK 19/18 Q1020 NOSIG
12-06-24 METAR LIMC 240220Z VRB02KT 9999 R17R/0050V1500N R35L/1500N SCT040 19/18 Q1020 NOSIG
12-06-24 METAR LIMC 240320Z 34004KT 9999 SCT040 19/18 Q1020 NOSIG
12-06-24 METAR LIMC 240420Z VRB02KT 9999 BKN060 20/19 Q1020 NOSIG
12-06-24 METAR LIMC 240520Z 01001KT 9999 BKN060 21/19 Q1020 NOSIG
12-06-24 METAR LIMC 240620Z 33003KT 9999 BKN060 22/19 Q1020 NOSIG
12-06-24 METAR LIMC 240720Z VRB01KT 9999 SCT070 24/18 Q1020 NOSIG
12-06-24 METAR LIMC 240820Z VRB02KT 9999 FEW030 BKN070 25/16 Q1020 NOSIG
12-06-24 METAR LIMC 240920Z VRB02KT 9999 FEW030 SCT070 26/17 Q1019 NOSIG
12-06-24 METAR LIMC 241020Z VRB02KT 9999 FEW030 SCT060 26/17 Q1019 NOSIG
12-06-24 METAR LIMC 241120Z VRB01KT 9999 FEW030 SCT080 28/17 Q1019 NOSIG
12-06-24 METAR LIMC 241220Z VRB02KT 9999 FEW030 SCT080 29/18 Q1018 NOSIG
12-06-24 METAR LIMC 241320Z VRB01KT 9999 FEW030 SCT080 29/17 Q1017 NOSIG
12-06-24 METAR LIMC 241420Z VRB02KT 9999 FEW030 SCT080 28/18 Q1017 NOSIG
12-06-24 METAR LIMC 241520Z VRB02KT 9999 SCT070 27/17 Q1016 NOSIG
12-06-24 METAR LIMC 241620Z VRB01KT 9999 SCT080 27/17 Q1016 NOSIG
12-06-24 METAR LIMC 241720Z 00000KT 9999 FEW080 28/18 Q1015 NOSIG
12-06-24 METAR LIMC 241820Z 00000KT CAVOK 28/19 Q1015 NOSIG
12-06-24 METAR LIMC 241920Z 00000KT CAVOK 24/20 Q1015 NOSIG
12-06-24 METAR LIMC 242020Z 00000KT CAVOK 22/19 Q1015 NOSIG
12-06-24 METAR LIMC 242120Z 00000KT CAVOK 22/19 Q1015 NOSIG
12-06-24 METAR LIMC 242220Z 00000KT CAVOK 21/19 Q1014 NOSIG
12-06-24 METAR LIMC 242320Z 35002KT CAVOK 20/18 Q1014 NOSIG
12-06-25 METAR LIMC 250020Z VRB01KT 9999 SCT070 20/18 Q1014 NOSIG
12-06-25 METAR LIMC 250120Z 35001KT 9999 BKN070 20/18 Q1013 NOSIG
12-06-25 METAR LIMC 250220Z VRB01KT 9999 BKN070 20/18 Q1013 NOSIG
12-06-25 METAR LIMC 250320Z 01001KT CAVOK 18/18 Q1012 NOSIG
12-06-25 METAR LIMC 250420Z VRB01KT CAVOK 19/18 Q1012 NOSIG
12-06-25 METAR LIMC 250520Z VRB01KT CAVOK 21/19 Q1012 NOSIG
12-06-25 METAR LIMC 250620Z VRB02KT 9999 SCT050 22/18 Q1012 NOSIG
12-06-25 METAR LIMC 250720Z VRB01KT 9999 SCT050 25/18 Q1012 NOSIG
12-06-25 METAR LIMC 250820Z VRB01KT 9999 FEW070 27/20 Q1012 NOSIG
12-06-25 METAR LIMC 250920Z VRB02KT 9999 FEW060 27/17 Q1012 NOSIG
12-06-25 METAR LIMC 251020Z 21003KT 160V250 9999 FEW060 28/18 Q1011 NOSIG
12-06-25 METAR LIMC 251120Z VRB02KT CAVOK 29/18 Q1011 NOSIG
12-06-25 METAR LIMC 251220Z 22004KT CAVOK 29/18 Q1011 NOSIG
12-06-25 METAR LIMC 251320Z 22004KT 190V260 CAVOK 30/19 Q1010 NOSIG
12-06-25 METAR LIMC 251420Z 23003KT 180V270 CAVOK 30/15 Q1010 NOSIG
12-06-25 METAR LIMC 251520Z 21003KT 180V240 CAVOK 31/17 Q1010 NOSIG
12-06-25 METAR LIMC 251620Z 24003KT 200V270 CAVOK 31/16 Q1009 NOSIG
12-06-25 METAR LIMC 251720Z VRB02KT CAVOK 31/16 Q1010 NOSIG
12-06-25 METAR LIMC 251820Z 25002KT CAVOK 29/17 Q1010 NOSIG
12-06-25 METAR LIMC 251920Z VRB02KT 9999 FEW060 28/11 Q1011 NOSIG
12-06-25 METAR LIMC 252020Z 00000KT 9999 FEW060 23/12 Q1012 NOSIG
12-06-25 METAR LIMC 252120Z 02003KT 330V070 9999 FEW060 23/13 Q1012 NOSIG
12-06-25 METAR LIMC 252220Z 00000KT 9999 SCT070 23/12 Q1013 NOSIG
12-06-25 METAR LIMC 252320Z 36002KT 9999 SCT070 20/13 Q1013 NOSIG
12-06-26 METAR LIMC 260020Z 36002KT 9999 SCT070 21/13 Q1013 NOSIG
12-06-26 METAR LIMC 260120Z 33002KT 9999 SCT070 23/10 Q1014 NOSIG
12-06-26 METAR LIMC 260220Z 07005KT 040V100 9999 SCT070 24/16 Q1014 NOSIG
12-06-26 METAR LIMC 260320Z 09005KT 050V140 9999 SCT070 22/18 Q1015 NOSIG
12-06-26 METAR LIMC 260420Z VRB02KT 9999 SCT070 22/18 Q1016 NOSIG
12-06-26 METAR LIMC 260520Z 06004KT 290V100 9999 SCT070 22/17 Q1017 NOSIG
12-06-26 METAR LIMC 260620Z 05004KT 360V110 9999 SCT070 23/16 Q1018 NOSIG
12-06-26 METAR LIMC 260720Z 08008KT 9999 SCT070 24/17 Q1017 NOSIG
12-06-26 METAR LIMC 260820Z 10003KT 010V150 CAVOK 25/16 Q1018 NOSIG
12-06-26 METAR LIMC 260920Z VRB03KT CAVOK 26/16 Q1018 NOSIG
12-06-26 METAR LIMC 261020Z NIL
12-06-26 METAR LIMC 261020Z 05003KT 340V130 CAVOK 28/17 Q1018 NOSIG
12-06-26 METAR LIMC 261120Z VRB03KT 9999 SCT020 27/16 Q1017 NOSIG
12-06-26 METAR LIMC 261220Z VRB01KT 9999 BKN050 28/16 Q1017 NOSIG
12-06-26 METAR LIMC 261320Z 06004KT 030V130 9999 SCT030 29/16 Q1017 NOSIG
12-06-26 METAR LIMC 261420Z 33005KT 280V360 9999 SCT040 29/16 Q1016 NOSIG
12-06-26 METAR LIMC 261520Z VRB02KT 9999 SCT040 29/16 Q1017 NOSIG
12-06-26 METAR LIMC 261620Z 35003KT 240V040 9999 SCT040 29/16 Q1017 NOSIG
12-06-26 METAR LIMC 261720Z 33003KT 280V360 CAVOK 28/17 Q1017 NOSIG
12-06-26 METAR LIMC 261820Z 33003KT CAVOK 27/17 Q1017 NOSIG
12-06-26 METAR LIMC 261920Z 00000KT CAVOK 24/17 Q1017 NOSIG
12-06-26 METAR LIMC 262020Z 34002KT CAVOK 23/17 Q1018 NOSIG
12-06-26 METAR LIMC 262120Z 00000KT CAVOK 21/17 Q1018 NOSIG
12-06-26 METAR LIMC 262220Z 01001KT CAVOK 20/17 Q1018 NOSIG
12-06-26 METAR LIMC 262320Z 35004KT CAVOK 20/17 Q1018 NOSIG
12-06-27 METAR LIMC 270020Z 00000KT CAVOK 20/16 Q1019 NOSIG
12-06-27 METAR LIMC 270120Z 00000KT CAVOK 19/15 Q1019 NOSIG
12-06-27 METAR LIMC 270220Z 36002KT CAVOK 19/15 Q1018 NOSIG
12-06-27 METAR LIMC 270320Z VRB01KT CAVOK 19/15 Q1019 NOSIG
12-06-27 METAR LIMC 270420Z 02002KT CAVOK 19/15 Q1019 NOSIG
12-06-27 METAR LIMC 270520Z 35003KT 320V020 CAVOK 21/16 Q1019 NOSIG
12-06-27 METAR LIMC 270620Z VRB02KT CAVOK 23/16 Q1019 NOSIG
12-06-27 METAR LIMC 270720Z VRB02KT CAVOK 25/16 Q1019 NOSIG
12-06-27 METAR LIMC 270820Z VRB01KT CAVOK 27/17 Q1019 NOSIG
12-06-27 METAR LIMC 270920Z VRB02KT 9999 FEW040 27/17 Q1019 NOSIG
12-06-27 METAR LIMC 271020Z 16003KT 120V220 9999 SCT040 29/18 Q1019 NOSIG
12-06-27 METAR LIMC 271120Z VRB02KT 9999 SCT040 28/18 Q1019 NOSIG
12-06-27 METAR LIMC 271220Z 21003KT 130V280 9999 SCT030 29/18 Q1018 NOSIG
12-06-27 METAR LIMC 271320Z 19003KT 150V220 9999 FEW030 30/18 Q1018 NOSIG
12-06-27 METAR LIMC 271420Z 22003KT 150V280 9999 FEW030 30/18 Q1017 NOSIG
12-06-27 METAR LIMC 271520Z VRB02KT 9999 FEW030 30/18 Q1016 NOSIG
12-06-27 METAR LIMC 271620Z VRB02KT CAVOK 30/16 Q1016 NOSIG
12-06-27 METAR LIMC 271720Z VRB02KT CAVOK 29/18 Q1016 NOSIG
12-06-27 METAR LIMC 271820Z 18001KT CAVOK 28/18 Q1016 NOSIG
12-06-27 METAR LIMC 271920Z 00000KT CAVOK 25/17 Q1016 NOSIG
12-06-27 METAR LIMC 272020Z 00000KT CAVOK 24/18 Q1016 NOSIG
12-06-27 METAR LIMC 272120Z 00000KT CAVOK 22/18 Q1016 NOSIG
12-06-27 METAR LIMC 272220Z 00000KT CAVOK 22/19 Q1016 NOSIG
12-06-27 METAR LIMC 272320Z 06002KT CAVOK 23/19 Q1016 NOSIG
12-06-28 METAR LIMC 280020Z 04002KT CAVOK 23/18 Q1016 NOSIG
12-06-28 METAR LIMC 280120Z VRB02KT 9999 FEW060 23/17 Q1016 NOSIG
12-06-28 METAR LIMC 280220Z 04002KT 9999 BKN050 23/16 Q1015 NOSIG
12-06-28 METAR LIMC 280320Z 04002KT 9999 BKN050 22/15 Q1016 NOSIG
12-06-28 METAR LIMC 280420Z VRB01KT 9999 BKN050 22/16 Q1016 NOSIG
12-06-28 METAR LIMC 280520Z 02002KT 9999 BKN050 22/17 Q1016 NOSIG
12-06-28 METAR LIMC 280620Z VRB02KT 9999 SCT070 25/14 Q1016 NOSIG
12-06-28 METAR LIMC 280720Z VRB01KT 9999 BKN060 26/14 Q1016 NOSIG
12-06-28 METAR LIMC 280820Z 00000KT 9999 SCT050 28/14 Q1016 NOSIG
12-06-28 METAR LIMC 280920Z VRB02KT CAVOK 28/14 Q1016 NOSIG
12-06-28 METAR LIMC 281020Z VRB01KT CAVOK 30/15 Q1015 NOSIG
12-06-28 METAR LIMC 281120Z VRB03KT CAVOK 30/16 Q1015 NOSIG
12-06-28 METAR LIMC 281220Z 20003KT 130V260 CAVOK 30/16 Q1015 NOSIG
12-06-28 METAR LIMC 281320Z VRB02KT CAVOK 30/16 Q1014 NOSIG
12-06-28 METAR LIMC 281420Z 22003KT 170V270 CAVOK 31/17 Q1014 NOSIG
12-06-28 METAR LIMC 281520Z NIL
12-06-28 METAR LIMC 281520Z VRB02KT CAVOK 31/17 Q1013 NOSIG
12-06-28 METAR LIMC 281620Z VRB02KT CAVOK 31/17 Q1013 NOSIG
12-06-28 METAR LIMC 281720Z VRB02KT CAVOK 30/19 Q1013 NOSIG
12-06-28 METAR LIMC 281820Z 00000KT 9999 FEW080 28/21 Q1013 NOSIG
12-06-28 METAR LIMC 281920Z 00000KT 9999 FEW060 27/19 Q1013 NOSIG
12-06-28 METAR LIMC 282020Z 00000KT 9999 SCT050 26/19 Q1014 NOSIG
12-06-28 METAR LIMC 282120Z 36003KT 9999 SCT060 25/19 Q1014 NOSIG
12-06-28 METAR LIMC 282220Z 17001KT 9999 SCT050 24/20 Q1014 NOSIG
12-06-28 METAR LIMC 282320Z VRB01KT 9999 SCT050 23/19 Q1014 NOSIG
12-06-29 METAR LIMC 290020Z VRB01KT 9999 SCT050 22/20 Q1014 NOSIG
12-06-29 METAR LIMC 290120Z 34003KT 9999 SCT050 22/19 Q1014 NOSIG
12-06-29 METAR LIMC 290220Z VRB02KT 9999 SCT050 21/19 Q1014 NOSIG
12-06-29 METAR LIMC 290320Z 36002KT CAVOK 20/19 Q1014 NOSIG
12-06-29 METAR LIMC 290420Z 00000KT 9999 FEW070 20/19 Q1014 NOSIG
12-06-29 METAR LIMC 290520Z 07002KT CAVOK 23/19 Q1015 NOSIG
12-06-29 METAR LIMC 290620Z VRB02KT CAVOK 25/18 Q1015 NOSIG
12-06-29 METAR LIMC 290720Z VRB02KT 9999 FEW040 26/18 Q1015 NOSIG
12-06-29 METAR LIMC 290820Z 16003KT 130V210 9999 FEW040 27/18 Q1015 NOSIG
12-06-29 METAR LIMC 290920Z VRB02KT 9999 FEW050 28/17 Q1015 NOSIG
12-06-29 METAR LIMC 291020Z VRB02KT 9999 FEW050 29/17 Q1015 NOSIG
12-06-29 METAR LIMC 291120Z 15003KT 110V230 CAVOK 30/19 Q1015 NOSIG
12-06-29 METAR LIMC 291220Z 18003KT 120V230 CAVOK 30/19 Q1015 NOSIG
12-06-29 METAR LIMC 291320Z VRB01KT 9999 FEW030 31/18 Q1014 NOSIG
12-06-29 METAR LIMC 291420Z VRB02KT 9999 FEW030 30/19 Q1014 NOSIG
12-06-29 METAR LIMC 291520Z VRB02KT 9999 FEW030 31/20 Q1014 NOSIG
12-06-29 METAR LIMC 291620Z VRB02KT 9999 FEW030 30/19 Q1014 NOSIG
12-06-29 METAR LIMC 291720Z 00000KT CAVOK 30/20 Q1014 NOSIG
12-06-29 METAR LIMC 291820Z 00000KT CAVOK 29/21 Q1014 NOSIG
12-06-29 METAR LIMC 291920Z 18003KT CAVOK 27/19 Q1014 NOSIG
12-06-29 METAR LIMC 292020Z 18002KT CAVOK 25/17 Q1015 NOSIG
12-06-29 METAR LIMC 292120Z 00000KT CAVOK 25/17 Q1015 NOSIG
12-06-29 METAR LIMC 292220Z 00000KT CAVOK 24/16 Q1016 NOSIG
12-06-29 METAR LIMC 292320Z VRB01KT CAVOK 23/16 Q1015 NOSIG
12-06-30 METAR LIMC 300120Z VRB01KT CAVOK 21/17 Q1015 NOSIG
12-06-30 METAR LIMC 300220Z 00000KT CAVOK 20/17 Q1015 NOSIG
12-06-30 METAR LIMC 300320Z 00000KT CAVOK 19/17 Q1015 NOSIG
12-06-30 METAR LIMC 300420Z VRB01KT CAVOK 20/18 Q1015 NOSIG
12-06-30 METAR LIMC 300520Z 00000KT 9999 BKN070 22/20 Q1016 NOSIG
12-06-30 METAR LIMC 300620Z VRB01KT 9999 BKN060 25/19 Q1016 NOSIG
12-06-30 METAR LIMC 300720Z 16002KT 9999 BKN060 26/18 Q1017 NOSIG
12-06-30 METAR LIMC 300820Z VRB02KT 9999 BKN060 27/17 Q1017 NOSIG
12-06-30 METAR LIMC 300920Z VRB01KT 9999 FEW030 SCT060 29/17 Q1017 NOSIG
12-06-30 METAR LIMC 301020Z 19003KT 130V250 9999 SCT080 29/15 Q1016 NOSIG
12-06-30 METAR LIMC 301120Z 17003KT 100V220 CAVOK 30/16 Q1016 NOSIG
12-06-30 METAR LIMC 301220Z 16003KT 120V210 CAVOK 31/15 Q1016 NOSIG
12-06-30 METAR LIMC 301320Z VRB02KT CAVOK 31/16 Q1015 NOSIG
12-06-30 METAR LIMC 301420Z VRB02KT CAVOK 32/17 Q1015 NOSIG
12-06-30 METAR LIMC 301520Z 22003KT 170V250 CAVOK 31/18 Q1014 NOSIG
12-06-30 METAR LIMC 301620Z VRB02KT CAVOK 31/18 Q1014 NOSIG
12-06-30 METAR LIMC 301720Z VRB01KT CAVOK 31/19 Q1014 NOSIG
12-06-30 METAR LIMC 301820Z 20002KT CAVOK 29/21 Q1014 NOSIG
12-06-30 METAR LIMC 301920Z 17002KT CAVOK 27/20 Q1014 NOSIG
12-06-30 METAR LIMC 302020Z 15002KT CAVOK 25/18 Q1015 NOSIG
12-06-30 METAR LIMC 302120Z 15002KT CAVOK 24/16 Q1015 NOSIG
12-06-30 METAR LIMC 302220Z 01001KT CAVOK 22/17 Q1015 NOSIG
12-06-30 METAR LIMC 302320Z 00000KT CAVOK 21/16 Q1015 NOSIG
12-07-01 METAR LIMC 010020Z 00000KT CAVOK 20/16 Q1015 NOSIG
12-07-01 METAR LIMC 010120Z 00000KT CAVOK 19/16 Q1015 NOSIG
12-07-01 METAR LIMC 010220Z VRB01KT CAVOK 19/16 Q1014 NOSIG
12-07-01 METAR LIMC 010320Z 34002KT CAVOK 20/16 Q1015 NOSIG
12-07-01 METAR LIMC 010420Z VRB01KT CAVOK 19/17 Q1015 NOSIG
12-07-01 METAR LIMC 010520Z VRB01KT 9999 SCT070 24/18 Q1015 NOSIG
12-07-01 METAR LIMC 010620Z 07003KT 9999 SCT070 26/17 Q1015 NOSIG
12-07-01 METAR LIMC 010720Z VRB01KT 9999 FEW070 28/14 Q1015 NOSIG
12-07-01 METAR LIMC 010820Z VRB02KT CAVOK 29/13 Q1015 NOSIG
12-07-01 METAR LIMC 010920Z VRB01KT CAVOK 29/14 Q1015 NOSIG
12-07-01 METAR LIMC 011020Z VRB02KT 9999 FEW070 30/13 Q1015 NOSIG
12-07-01 METAR LIMC 011120Z VRB01KT CAVOK 30/14 Q1015 NOSIG
12-07-01 METAR LIMC 011220Z VRB02KT 9999 SCT070 31/15 Q1015 NOSIG
12-07-01 METAR LIMC 011320Z 16003KT 130V200 9999 SCT070 30/16 Q1015 NOSIG
12-07-01 METAR LIMC 011420Z VRB02KT CAVOK 30/16 Q1014 NOSIG
12-07-01 METAR LIMC 011520Z 00000KT 9999 FEW070 30/17 Q1014 NOSIG
12-07-01 METAR LIMC 011620Z 00000KT CAVOK 30/16 Q1013 NOSIG
12-07-01 METAR LIMC 011720Z 15001KT CAVOK 28/18 Q1013 NOSIG
12-07-01 METAR LIMC 011820Z 00000KT 9999 SCT070 28/19 Q1013 NOSIG
12-07-01 METAR LIMC 011920Z 34002KT 9999 SCT070 26/19 Q1013 NOSIG
12-07-01 METAR LIMC 012020Z 35004KT 9999 SCT070 26/18 Q1014 NOSIG
12-07-01 METAR LIMC 012120Z VRB02KT 9999 SCT070 24/19 Q1014 NOSIG
12-07-01 METAR LIMC 012220Z 34002KT 9999 SCT070 24/19 Q1014 NOSIG
12-07-01 METAR LIMC 012320Z 01002KT 9999 SCT070 24/18 Q1013 NOSIG
12-07-02 METAR LIMC 020020Z 35003KT 330V030 9999 SCT070 23/18 Q1013 NOSIG
12-07-02 METAR LIMC 020120Z 30003KT 270V330 9999 SCT070 22/18 Q1013 NOSIG
12-07-02 METAR LIMC 020220Z 02003KT 350V050 9999 SCT070 23/17 Q1012 NOSIG
12-07-02 METAR LIMC 020320Z 07003KT 020V090 9999 SCT070 24/17 Q1011 NOSIG
12-07-02 METAR LIMC 020420Z 21003KT 9999 FEW090 22/18 Q1013 NOSIG
12-07-02 METAR LIMC 020520Z 01004KT 9999 SCT070 23/18 Q1013 NOSIG
12-07-02 METAR LIMC 020620Z 03003KT 330V090 9999 SCT040 BKN070 24/18 Q1013 NOSIG
12-07-02 METAR LIMC 020720Z 36004KT 330V040 9999 SCT040 BKN070 24/20 Q1013 NOSIG
12-07-02 METAR LIMC 020820Z VRB01KT 9999 SCT040 BKN070 25/22 Q1013 NOSIG
12-07-02 METAR LIMC 020920Z VRB01KT 9999 SCT040 SCT070 27/21 Q1014 NOSIG
12-07-02 METAR LIMC 021020Z VRB02KT 9999 BKN060 27/21 Q1014 NOSIG
12-07-02 METAR LIMC 021120Z VRB02KT 9999 SCT040 SCT070 29/20 Q1014 NOSIG
12-07-02 METAR LIMC 021220Z 18003KT 140V200 9999 SCT045 29/18 Q1013 NOSIG
12-07-02 METAR LIMC 021320Z 15004KT 100V180 9999 SCT035 30/17 Q1013 NOSIG
12-07-02 METAR LIMC 021420Z 18004KT 130V210 9999 SCT035 28/17 Q1013 NOSIG
12-07-02 METAR LIMC 021520Z 18004KT 140V230 CAVOK 30/18 Q1013 NOSIG
12-07-02 METAR LIMC 021620Z 20004KT 160V240 CAVOK 29/17 Q1013 NOSIG
12-07-02 METAR LIMC 021720Z 20004KT CAVOK 27/17 Q1013 NOSIG
12-07-02 METAR LIMC 021820Z 19003KT 160V220 CAVOK 25/17 Q1014 NOSIG
12-07-02 METAR LIMC 021920Z 00000KT CAVOK 23/17 Q1014 NOSIG
12-07-02 METAR LIMC 022020Z 00000KT CAVOK 21/17 Q1015 NOSIG
12-07-02 METAR LIMC 022120Z 19002KT CAVOK 21/16 Q1015 NOSIG
12-07-02 METAR LIMC 022220Z 00000KT CAVOK 19/16 Q1016 NOSIG
12-07-02 METAR LIMC 022320Z 00000KT CAVOK 18/16 Q1015 NOSIG
12-07-03 METAR LIMC 030020Z 15001KT CAVOK 17/15 Q1015 NOSIG
12-07-03 METAR LIMC 030120Z 00000KT CAVOK 18/16 Q1015 NOSIG
12-07-03 METAR LIMC 030220Z 00000KT CAVOK 17/16 Q1015 NOSIG
12-07-03 METAR LIMC 030320Z 00000KT CAVOK 16/15 Q1015 NOSIG
12-07-03 METAR LIMC 030420Z 00000KT CAVOK 16/15 Q1015 NOSIG
12-07-03 METAR LIMC 030520Z 00000KT CAVOK 19/18 Q1015 NOSIG
12-07-03 METAR LIMC 030620Z 00000KT CAVOK 22/16 Q1015 NOSIG
12-07-03 METAR LIMC 030720Z VRB01KT CAVOK 23/16 Q1015 NOSIG
12-07-03 METAR LIMC 030820Z VRB02KT CAVOK 24/17 Q1015 NOSIG
12-07-03 METAR LIMC 030920Z 00000KT CAVOK 26/17 Q1015 NOSIG
12-07-03 METAR LIMC 031020Z VRB02KT CAVOK 27/17 Q1015 NOSIG
12-07-03 METAR LIMC 031120Z 19003KT 100V260 CAVOK 27/18 Q1014 NOSIG
12-07-03 METAR LIMC 031220Z 16003KT 110V220 CAVOK 29/18 Q1014 NOSIG
12-07-03 METAR LIMC 031320Z VRB02KT CAVOK 29/16 Q1014 NOSIG
12-07-03 METAR LIMC 031420Z 22003KT 160V270 CAVOK 28/17 Q1013 NOSIG
12-07-03 METAR LIMC 031520Z 24004KT 220V300 CAVOK 28/17 Q1013 NOSIG
12-07-03 METAR LIMC 031620Z 23003KT 200V260 CAVOK 29/15 Q1012 NOSIG
12-07-03 METAR LIMC 031720Z 23003KT CAVOK 28/17 Q1013 NOSIG
12-07-03 METAR LIMC 031820Z VRB01KT CAVOK 27/18 Q1013 NOSIG
12-07-03 METAR LIMC 031920Z 18003KT CAVOK 25/18 Q1013 NOSIG
12-07-03 METAR LIMC 032020Z 17002KT CAVOK 23/18 Q1014 NOSIG
12-07-03 METAR LIMC 032120Z 19002KT CAVOK 22/17 Q1014 NOSIG
12-07-03 METAR LIMC 032220Z 18001KT CAVOK 21/17 Q1014 NOSIG
12-07-03 METAR LIMC 032320Z 00000KT CAVOK 20/17 Q1014 NOSIG
12-07-04 METAR LIMC 040020Z 00000KT CAVOK 19/16 Q1013 NOSIG
12-07-04 METAR LIMC 040120Z 00000KT CAVOK 18/16 Q1013 NOSIG
12-07-04 METAR LIMC 040220Z 00000KT CAVOK 18/16 Q1013 NOSIG
12-07-04 METAR LIMC 040320Z 00000KT CAVOK 17/16 Q1013 NOSIG
12-07-04 METAR LIMC 040420Z 36001KT CAVOK 18/17 Q1013 NOSIG
12-07-04 METAR LIMC 040520Z VRB01KT 9999 SCT060 21/18 Q1013 NOSIG
12-07-04 METAR LIMC 040620Z VRB01KT 9999 FEW060 23/18 Q1013 NOSIG
12-07-04 METAR LIMC 040720Z VRB01KT CAVOK 25/18 Q1013 NOSIG
12-07-04 METAR LIMC 040820Z VRB01KT CAVOK 26/18 Q1013 NOSIG
12-07-04 METAR LIMC 040920Z VRB02KT CAVOK 28/18 Q1013 NOSIG
12-07-04 METAR LIMC 041020Z VRB02KT 9999 FEW030 29/18 Q1012 NOSIG
12-07-04 METAR LIMC 041120Z 22003KT 190V250 9999 SCT030 28/18 Q1012 NOSIG
12-07-04 METAR LIMC 041220Z 18004KT 140V220 9999 FEW020TCU 30/19 Q1012 NOSIG
12-07-04 METAR LIMC 041320Z 19005KT 160V230 9999 SCT020TCU 30/17 Q1011 NOSIG
12-07-04 METAR LIMC 041420Z 32007KT 290V350 9999 SCT020TCU BKN040 28/15 Q1012 NOSIG
12-07-04 METAR LIMC 041520Z 35005KT 320V030 9999 SCT020TCU BKN040 25/17 Q1012 NOSIG
12-07-04 METAR LIMC 041620Z 36004KT 330V030 9999 SCT060 25/16 Q1011 NOSIG
12-07-04 METAR LIMC 041720Z 35004KT 320V030 9999 SCT070 24/17 Q1011 NOSIG
12-07-04 METAR LIMC 041820Z 17002KT 9999 FEW030TCU BKN070 23/17 Q1012 NOSIG
12-07-04 METAR LIMC 041920Z VRB02KT 9999 -RA FEW030TCU BKN060 21/18 Q1013 NOSIG
12-07-04 METAR LIMC 042020Z 29002KT 9999 BKN060 21/18 Q1012 NOSIG
12-07-04 METAR LIMC 042120Z 03003KT 010V080 9999 BKN060 21/18 Q1013 NOSIG
12-07-04 METAR LIMC 042220Z 00000KT 9999 FEW030 SCT060 21/18 Q1013 NOSIG
12-07-04 METAR LIMC 042320Z 00000KT 9999 SCT060 19/18 Q1013 NOSIG
12-07-05 METAR LIMC 050020Z 00000KT 9999 SCT060 19/18 Q1013 NOSIG
12-07-05 METAR LIMC 050120Z VRB02KT 9999 FEW060 17/16 Q1013 NOSIG
12-07-05 METAR LIMC 050220Z 00000KT 9999 FEW060 18/17 Q1012 NOSIG
12-07-05 METAR LIMC 050320Z 02002KT CAVOK 17/16 Q1012 NOSIG
12-07-05 METAR LIMC 050420Z 34001KT CAVOK 17/16 Q1013 NOSIG
12-07-05 METAR LIMC 050520Z 36003KT 330V040 CAVOK 20/17 Q1013 NOSIG
12-07-05 METAR LIMC 050620Z VRB02KT CAVOK 22/17 Q1013 NOSIG
12-07-05 METAR LIMC 050720Z VRB02KT CAVOK 24/16 Q1013 NOSIG
12-07-05 METAR LIMC 050820Z VRB02KT CAVOK 25/16 Q1013 NOSIG
12-07-05 METAR LIMC 050920Z VRB02KT CAVOK 26/15 Q1013 NOSIG
12-07-05 METAR LIMC 051020Z VRB02KT CAVOK 27/15 Q1013 NOSIG
12-07-05 METAR LIMC 051120Z VRB02KT CAVOK 29/15 Q1012 NOSIG
12-07-05 METAR LIMC 051220Z VRB02KT 9999 FEW025 29/15 Q1012 NOSIG
12-07-05 METAR LIMC 051320Z 21003KT 170V280 9999 FEW025 SCT080 29/15 Q1011 NOSIG
12-07-05 METAR LIMC 051420Z 21004KT 170V240 9999 FEW025 SCT080 29/16 Q1011 NOSIG
12-07-05 METAR LIMC 051520Z 22004KT 190V250 CAVOK 29/16 Q1011 NOSIG
12-07-05 METAR LIMC 051620Z 23004KT CAVOK 29/14 Q1011 NOSIG
12-07-05 METAR LIMC 051720Z 22003KT CAVOK 27/16 Q1011 NOSIG
12-07-05 METAR LIMC 051820Z 19002KT 9999 SCT070 25/17 Q1010 NOSIG
12-07-05 METAR LIMC 051920Z 00000KT 9999 SCT070 24/16 Q1011 NOSIG
12-07-05 METAR LIMC 052020Z 00000KT 9999 SCT070 23/17 Q1011 NOSIG
12-07-05 METAR LIMC 052120Z 00000KT 9999 SCT070 22/17 Q1011 NOSIG
12-07-05 METAR LIMC 052220Z 00000KT 9999 SCT070 21/16 Q1011 NOSIG
12-07-05 METAR LIMC 052320Z 00000KT 9999 SCT070 21/16 Q1011 NOSIG
12-07-06 METAR LIMC 060020Z VRB02KT 9999 SCT070 23/16 Q1011 NOSIG
12-07-06 METAR LIMC 060120Z 33003KT 9999 -RA FEW020 SCT060 21/17 Q1010 NOSIG
12-07-06 METAR LIMC 060220Z 36003KT 330V030 9999 FEW020 BKN060 21/16 Q1010 NOSIG
12-07-06 METAR LIMC 060320Z 35004KT 9999 SCT020 BKN050 21/16 Q1011 NOSIG
12-07-06 METAR LIMC 060420Z 35004KT 330V030 9999 BKN060 21/17 Q1011 NOSIG
12-07-06 METAR LIMC 060520Z 33004KT 9999 BKN060 21/17 Q1010 NOSIG
12-07-06 METAR LIMC 060620Z 01004KT 330V060 9999 SCT070 23/18 Q1011 NOSIG
12-07-06 METAR LIMC 060720Z 01003KT 330V090 9999 BKN060 24/18 Q1012 NOSIG
12-07-06 METAR LIMC 060820Z 13004KT 060V170 9000 BKN060 25/18 Q1011 NOSIG
12-07-06 METAR LIMC 060920Z 11003KT 050V180 9000 SCT025 SCT070 26/19 Q1011 NOSIG
12-07-06 METAR LIMC 061020Z 16004KT 140V200 9000 SCT025 SCT070 28/16 Q1011 NOSIG
12-07-06 METAR LIMC 061120Z 15006KT 110V200 9999 SCT025 28/17 Q1011 NOSIG
12-07-06 METAR LIMC 061220Z 13004KT 070V170 9999 SCT025 29/17 Q1011 NOSIG
12-07-06 METAR LIMC 061320Z 01004KT 9999 FEW015TCU BKN025 26/16 Q1012 NOSIG
12-07-06 METAR LIMC 061420Z 35005KT 320V020 9999 FEW015TCU BKN025 25/16 Q1011 NOSIG
12-07-06 METAR LIMC 061520Z 35005KT 320V020 9999 -RA VCTS SCT010CB BKN020 23/16 Q1012 TEMPO TS
12-07-06 METAR LIMC 061620Z 01006KT 340V050 9999 -RA SCT010CB BKN020 19/17 Q1012 RETSRA NOSIG
12-07-06 METAR LIMC 061720Z 02004KT 340V090 9000 VCTS SCT010CB BKN020 19/17 Q1012 BECMG TS
12-07-06 METAR LIMC 061820Z 05005KT 020V100 5000 RA SCT010 BKN020 19/17 Q1011 RETS
12-07-06 METAR LIMC 061920Z 32006KT 290V350 9999 TSRA SCT010CB BKN020 19/18 Q1012
12-07-06 METAR LIMC 062020Z 03007G17KT 9999 TSRA SCT010CB BKN020 18/17 Q1013 NOSIG
12-07-06 METAR LIMC 062120Z VRB01KT 9999 SCT010 BKN020 19/17 Q1013 NOSIG
12-07-06 METAR LIMC 062220Z 35003KT 9999 SCT035 BKN070 18/18 Q1013 NOSIG
12-07-06 METAR LIMC 062320Z 01003KT 9999 BKN035 18/17 Q1013 NOSIG
12-07-07 METAR LIMC 070020Z 01002KT 9999 BKN035 18/17 Q1013 NOSIG
12-07-07 METAR LIMC 070120Z 33003KT 9999 BKN035 18/17 Q1013 NOSIG
12-07-07 METAR LIMC 070220Z 34004KT 9999 BKN035 18/17 Q1013 NOSIG
12-07-07 METAR LIMC 070320Z 36003KT 9999 SCT035 18/17 Q1013 NOSIG
12-07-07 METAR LIMC 070420Z 35002KT 9999 BKN035 18/17 Q1013 NOSIG
12-07-07 METAR LIMC 070520Z VRB02KT 9999 BKN040 19/17 Q1014 NOSIG
12-07-07 METAR LIMC 070620Z VRB02KT 9999 BKN040 20/17 Q1014 NOSIG
12-07-07 METAR LIMC 070720Z VRB02KT 9999 SCT070 22/17 Q1014 NOSIG
12-07-07 METAR LIMC 070820Z VRB01KT 9999 SCT060 23/18 Q1014 NOSIG
12-07-07 METAR LIMC 070920Z VRB02KT 9999 SCT020 SCT060 23/17 Q1014 NOSIG
12-07-07 METAR LIMC 071020Z VRB01KT 9999 SCT020 25/17 Q1014 NOSIG
12-07-07 METAR LIMC 071120Z VRB02KT 9999 SCT020 25/17 Q1014 NOSIG
12-07-07 METAR LIMC 071220Z 20003KT 100V270 9999 SCT030 26/17 Q1014 NOSIG
12-07-07 METAR LIMC 071320Z 18003KT 110V240 9999 FEW030 27/17 Q1014 NOSIG
12-07-07 METAR LIMC 071420Z VRB02KT 9999 FEW030 26/16 Q1013 NOSIG
12-07-07 METAR LIMC 071520Z 26003KT 210V290 CAVOK 28/16 Q1013 NOSIG
12-07-07 METAR LIMC 071620Z VRB01KT CAVOK 29/13 Q1013 NOSIG
12-07-07 METAR LIMC 071720Z VRB01KT CAVOK 28/14 Q1013 NOSIG
12-07-07 METAR LIMC 071820Z VRB02KT CAVOK 27/15 Q1013 NOSIG
12-07-07 METAR LIMC 071920Z VRB02KT CAVOK 25/15 Q1013 NOSIG
12-07-07 METAR LIMC 072020Z 00000KT CAVOK 22/17 Q1013 NOSIG
12-07-07 METAR LIMC 072120Z VRB02KT CAVOK 23/15 Q1013 NOSIG
12-07-07 METAR LIMC 072220Z VRB01KT CAVOK 20/17 Q1013 NOSIG
12-07-07 METAR LIMC 072320Z 00000KT CAVOK 19/17 Q1013 NOSIG
12-07-08 METAR LIMC 080020Z 00000KT CAVOK 19/18 Q1013 NOSIG
12-07-08 METAR LIMC 080120Z 00000KT CAVOK 20/18 Q1013 NOSIG
12-07-08 METAR LIMC 080220Z 00000KT CAVOK 19/18 Q1013 NOSIG
12-07-08 METAR LIMC 080320Z 00000KT CAVOK 19/18 Q1013 NOSIG
12-07-08 METAR LIMC 080420Z VRB02KT CAVOK 19/18 Q1013 NOSIG
12-07-08 METAR LIMC 080520Z 00000KT 9999 SCT040 SCT060 21/18 Q1013 NOSIG
12-07-08 METAR LIMC 080620Z VRB01KT 9999 SCT040 SCT060 22/18 Q1013 NOSIG
12-07-08 METAR LIMC 080720Z VRB02KT 9999 SCT040 SCT060 24/17 Q1013 NOSIG
12-07-08 METAR LIMC 080820Z VRB02KT 9999 FEW060 SCT080 24/16 Q1013 NOSIG
12-07-08 METAR LIMC 080920Z VRB02KT 9999 FEW080 26/15 Q1013 NOSIG
12-07-08 METAR LIMC 081020Z 13003KT 080V200 9999 FEW080 27/14 Q1013 NOSIG
12-07-08 METAR LIMC 081120Z VRB03KT CAVOK 27/14 Q1013 NOSIG
12-07-08 METAR LIMC 081220Z 16003KT 110V210 CAVOK 28/14 Q1013 NOSIG
12-07-08 METAR LIMC 081320Z VRB02KT 9999 FEW040 28/16 Q1012 NOSIG
12-07-08 METAR LIMC 081420Z 20004KT 130V250 9999 FEW040 29/15 Q1012 NOSIG
12-07-08 METAR LIMC 081520Z 24003KT 200V280 9999 FEW040 29/16 Q1012 NOSIG
12-07-08 METAR LIMC 081620Z VRB02KT 9999 FEW040 29/16 Q1011 NOSIG
12-07-08 METAR LIMC 081720Z VRB01KT 9999 FEW040 29/16 Q1011 NOSIG
12-07-08 METAR LIMC 081820Z 00000KT 9999 FEW040 28/15 Q1011 NOSIG
12-07-08 METAR LIMC 081920Z VRB01KT 9999 9000NW FEW040 24/18 Q1012 NOSIG
12-07-08 METAR LIMC 082020Z 00000KT 9999 FEW040 23/17 Q1012 NOSIG
12-07-08 METAR LIMC 082120Z 00000KT 9999 FEW040 22/18 Q1012 NOSIG
12-07-08 METAR LIMC 082220Z 00000KT 9999 FEW050 22/16 Q1013 NOSIG
12-07-08 METAR LIMC 082320Z 00000KT 9999 FEW050 20/17 Q1012 NOSIG
12-07-09 METAR LIMC 090020Z 00000KT 9999 FEW050 19/17 Q1012 NOSIG
12-07-09 METAR LIMC 090120Z 36002KT CAVOK 19/17 Q1012 NOSIG
12-07-09 METAR LIMC 090220Z 00000KT CAVOK 19/17 Q1012 NOSIG
12-07-09 METAR LIMC 090320Z 00000KT CAVOK 18/17 Q1012 NOSIG
12-07-09 METAR LIMC 090420Z 00000KT CAVOK 18/17 Q1012 NOSIG
12-07-09 METAR LIMC 090520Z VRB02KT CAVOK 21/18 Q1012 NOSIG
12-07-09 METAR LIMC 090620Z VRB02KT CAVOK 23/18 Q1012 NOSIG
12-07-09 METAR LIMC 090720Z 35003KT 300V030 CAVOK 25/17 Q1012 NOSIG
12-07-09 METAR LIMC 090820Z VRB01KT CAVOK 26/17 Q1012 NOSIG
12-07-09 METAR LIMC 090920Z VRB02KT CAVOK 28/16 Q1012 NOSIG
12-07-09 METAR LIMC 091020Z VRB02KT 9999 FEW025 28/17 Q1012 NOSIG
12-07-09 METAR LIMC 091120Z 24003KT 160V290 9999 SCT030 30/16 Q1012 NOSIG
12-07-09 METAR LIMC 091220Z VRB03KT 9999 SCT030 30/16 Q1011 NOSIG
12-07-09 METAR LIMC 091320Z 21004KT 160V240 9999 FEW030 30/16 Q1011 NOSIG
12-07-09 METAR LIMC 091420Z VRB02KT 9999 FEW030 31/16 Q1011 NOSIG
12-07-09 METAR LIMC 091520Z 23003KT 170V270 9999 FEW060 30/15 Q1011 NOSIG
12-07-09 METAR LIMC 091620Z VRB02KT CAVOK 30/15 Q1010 NOSIG
12-07-09 METAR LIMC 091720Z VRB01KT CAVOK 30/16 Q1010 NOSIG
12-07-09 METAR LIMC 091820Z VRB01KT CAVOK 29/17 Q1010 NOSIG
12-07-09 METAR LIMC 091920Z VRB01KT CAVOK 27/17 Q1010 NOSIG
12-07-09 METAR LIMC 092020Z VRB01KT CAVOK 26/17 Q1011 NOSIG
12-07-09 METAR LIMC 092120Z VRB02KT CAVOK 25/18 Q1011 NOSIG
12-07-09 METAR LIMC 092220Z 00000KT CAVOK 23/18 Q1012 NOSIG
12-07-09 METAR LIMC 092320Z 00000KT 9999 SCT080 21/18 Q1012 NOSIG
12-07-10 METAR LIMC 100020Z 00000KT 9999 SCT080 20/18 Q1012 NOSIG
12-07-10 METAR LIMC 100120Z 09001KT CAVOK 21/19 Q1012 NOSIG
12-07-10 METAR LIMC 100220Z 00000KT CAVOK 19/18 Q1012 NOSIG
12-07-10 METAR LIMC 100320Z 00000KT CAVOK 20/18 Q1012 NOSIG
12-07-10 METAR LIMC 100420Z VRB01KT 9999 SCT070 19/18 Q1012 NOSIG
12-07-10 METAR LIMC 100520Z VRB01KT 9999 SCT040 22/19 Q1012 NOSIG
12-07-10 METAR LIMC 100620Z VRB01KT 9999 SCT040 24/18 Q1013 NOSIG
12-07-10 METAR LIMC 100720Z 09003KT 050V110 CAVOK 25/19 Q1013 NOSIG
12-07-10 METAR LIMC 100820Z 12003KT 080V150 CAVOK 26/19 Q1013 NOSIG
12-07-10 METAR LIMC 100920Z VRB03KT 9999 SCT030 26/19 Q1013 NOSIG
12-07-10 METAR LIMC 101020Z 13003KT 080V170 9999 BKN030 27/20 Q1013 NOSIG
12-07-10 METAR LIMC 101120Z 13003KT 030V200 9999 BKN030 28/19 Q1013 NOSIG
12-07-10 METAR LIMC 101220Z 15003KT 080V210 9999 SCT030 29/17 Q1013 NOSIG
12-07-10 METAR LIMC 101320Z 21003KT 160V240 9999 FEW020TCU SCT030 30/18 Q1012 BECMG TS
12-07-10 METAR LIMC 101420Z 33005KT 300V010 9999 SCT030 28/19 Q1012 NOSIG
12-07-10 METAR LIMC 101520Z 36004KT 330V030 9999 SCT040 28/17 Q1012 NOSIG
12-07-10 METAR LIMC 101620Z 35004KT 330V030 9999 SCT040 28/17 Q1011 NOSIG
12-07-10 METAR LIMC 101720Z 36004KT 9999 SCT040 BKN070 27/17 Q1011 NOSIG
12-07-10 METAR LIMC 101820Z 34003KT 310V010 9999 -TSRA SCT040CB BKN070 25/18 Q1011 NOSIG
12-07-10 METAR LIMC 101920Z 36006KT 320V030 9999 -TSRA SCT030CB BKN050 21/18 Q1012 RETSRA NOSIG
12-07-10 METAR LIMC 102020Z VRB02KT 9999 FEW050 20/18 Q1013 NOSIG
12-07-10 METAR LIMC 102120Z 34003KT 320V030 CAVOK 19/17 Q1013 NOSIG
12-07-10 METAR LIMC 102220Z 36002KT CAVOK 19/17 Q1013 WS RWY 35R NOSIG
12-07-10 METAR LIMC 102320Z VRB01KT CAVOK 18/17 Q1013 NOSIG
12-07-11 METAR LIMC 110020Z VRB01KT CAVOK 18/17 Q1013 NOSIG
12-07-11 METAR LIMC 110120Z 00000KT CAVOK 18/17 Q1013 NOSIG
12-07-11 METAR LIMC 110220Z 00000KT CAVOK 18/17 Q1013 NOSIG
12-07-11 METAR LIMC 110320Z 35002KT CAVOK 17/16 Q1013 NOSIG
12-07-11 METAR LIMC 110420Z 35001KT CAVOK 17/16 Q1014 NOSIG
12-07-11 METAR LIMC 110520Z 34002KT CAVOK 19/17 Q1014 NOSIG
12-07-11 METAR LIMC 110620Z 34003KT 310V020 CAVOK 22/17 Q1014 NOSIG
12-07-11 METAR LIMC 110720Z 01003KT 320V030 CAVOK 23/16 Q1014 NOSIG
12-07-11 METAR LIMC 110820Z 01002KT CAVOK 25/16 Q1014 NOSIG
12-07-11 METAR LIMC 110920Z VRB01KT CAVOK 27/17 Q1014 NOSIG
12-07-11 METAR LIMC 111020Z VRB02KT 9999 SCT040 27/16 Q1014 NOSIG
12-07-11 METAR LIMC 111120Z 16003KT 110V200 9999 SCT040 27/17 Q1013 NOSIG
12-07-11 METAR LIMC 111220Z 20004KT 120V270 9999 SCT030 28/18 Q1013 NOSIG
12-07-11 METAR LIMC 111320Z VRB02KT 9999 SCT030 29/19 Q1012 NOSIG
12-07-11 METAR LIMC 111420Z 23003KT 190V280 9999 SCT030 29/18 Q1012 NOSIG
12-07-11 METAR LIMC 111520Z 24003KT 210V270 9999 FEW020TCU SCT030 29/19 Q1011 NOSIG
12-07-11 METAR LIMC 111620Z VRB02KT 9999 FEW020TCU SCT030 28/20 Q1011 NOSIG
12-07-11 METAR LIMC 111720Z 18002KT 9999 FEW030TCU SCT070 28/20 Q1010 NOSIG
12-07-11 METAR LIMC 111820Z 20004KT 160V220 9999 FEW020TCU SCT040 25/18 Q1010 NOSIG
12-07-11 METAR LIMC 111920Z 28004KT 230V320 9999 FEW040 23/17 Q1011 NOSIG
12-07-11 METAR LIMC 112020Z VRB02KT CAVOK 22/16 Q1012 NOSIG
12-07-11 METAR LIMC 112120Z VRB01KT CAVOK 22/16 Q1012 NOSIG
12-07-11 METAR LIMC 112220Z VRB01KT CAVOK 21/17 Q1012 NOSIG
12-07-11 METAR LIMC 112320Z 35002KT CAVOK 20/17 Q1012 NOSIG
12-07-12 METAR LIMC 120020Z VRB01KT CAVOK 18/16 Q1012 NOSIG
12-07-12 METAR LIMC 120120Z 00000KT CAVOK 17/16 Q1012 NOSIG
12-07-12 METAR LIMC 120220Z VRB01KT CAVOK 17/16 Q1012 NOSIG
12-07-12 METAR LIMC 120320Z 00000KT CAVOK 16/15 Q1012 NOSIG
12-07-12 METAR LIMC 120420Z 32002KT CAVOK 16/15 Q1012 NOSIG
12-07-12 METAR LIMC 120520Z VRB01KT CAVOK 19/16 Q1013 NOSIG
12-07-12 METAR LIMC 120620Z VRB01KT CAVOK 22/15 Q1013 NOSIG
12-07-12 METAR LIMC 120720Z VRB02KT CAVOK 24/16 Q1013 NOSIG
12-07-12 METAR LIMC 120820Z 08003KT 030V150 CAVOK 25/17 Q1013 NOSIG
12-07-12 METAR LIMC 120920Z VRB02KT CAVOK 26/14 Q1013 NOSIG
12-07-12 METAR LIMC 121020Z VRB02KT CAVOK 27/15 Q1013 NOSIG
12-07-12 METAR LIMC 121120Z VRB02KT CAVOK 28/15 Q1013 NOSIG
12-07-12 METAR LIMC 121220Z VRB02KT CAVOK 28/15 Q1012 NOSIG
12-07-12 METAR LIMC 121320Z 24003KT 190V330 CAVOK 29/13 Q1012 NOSIG
12-07-12 METAR LIMC 121420Z 15003KT 100V210 CAVOK 30/11 Q1011 NOSIG
12-07-12 METAR LIMC 121520Z 00000KT CAVOK 30/12 Q1011 NOSIG
12-07-12 METAR LIMC 121620Z 22004KT 190V250 CAVOK 29/16 Q1011 NOSIG
12-07-12 METAR LIMC 121720Z 22005KT CAVOK 28/14 Q1011 NOSIG
12-07-12 METAR LIMC 121820Z 23003KT 200V290 CAVOK 27/13 Q1011 NOSIG
12-07-12 METAR LIMC 121920Z 35003KT CAVOK 26/14 Q1011 NOSIG
12-07-12 METAR LIMC 122020Z VRB02KT CAVOK 24/14 Q1011 NOSIG
12-07-12 METAR LIMC 122120Z 00000KT CAVOK 21/15 Q1012 NOSIG
12-07-12 METAR LIMC 122220Z 25002KT 9999 SCT080 22/16 Q1012 NOSIG
12-07-12 METAR LIMC 122320Z 00000KT 9999 SCT080 20/16 Q1012 NOSIG
12-07-13 METAR LIMC 130020Z 00000KT 9999 SCT080 19/15 Q1011 NOSIG
12-07-13 METAR LIMC 130120Z 17001KT 9999 BKN080 19/15 Q1011 NOSIG
12-07-13 METAR LIMC 130220Z 00000KT 9999 BKN080 20/16 Q1010 NOSIG
12-07-13 METAR LIMC 130320Z 00000KT 9999 SCT060 19/16 Q1010 NOSIG
12-07-13 METAR LIMC 130420Z VRB01KT 9999 BKN060 19/16 Q1010 NOSIG
12-07-13 METAR LIMC 130520Z 13002KT 9999 SCT060 21/17 Q1010 NOSIG
12-07-13 METAR LIMC 130620Z VRB02KT 9999 SCT060 22/17 Q1010 NOSIG
12-07-13 METAR LIMC 130720Z VRB02KT CAVOK 24/17 Q1010 NOSIG
12-07-13 METAR LIMC 130820Z VRB02KT CAVOK 24/18 Q1009 NOSIG
12-07-13 METAR LIMC 130920Z VRB02KT 9999 BKN020 25/18 Q1009 NOSIG
12-07-13 METAR LIMC 131220Z VRB02KT 9999 SCT025 28/17 Q1009 NOSIG
12-07-13 METAR LIMC 131320Z VRB02G12KT 9999 SCT025 28/18 Q1008 NOSIG
12-07-13 METAR LIMC 131420Z VRB02KT 9999 SCT025 29/16 Q1007 NOSIG
12-07-13 METAR LIMC 131520Z 20004KT 170V230 9999 FEW025 30/17 Q1007 NOSIG
12-07-13 METAR LIMC 131620Z 17004KT 9999 FEW025 29/17 Q1006 NOSIG
12-07-13 METAR LIMC 131720Z 18004KT 9999 FEW025 28/17 Q1006 NOSIG
12-07-13 METAR LIMC 131820Z 17003KT 140V200 9999 VCSH SCT020TCU BKN030 26/17 Q1007 NOSIG
12-07-13 METAR LIMC 131920Z 16004KT 130V190 9999 SCT040 24/16 Q1007 NOSIG
12-07-13 METAR LIMC 132020Z 18003KT 9999 SCT025 SCT050 24/14 Q1007 NOSIG
12-07-13 METAR LIMC 132120Z 16002KT 9999 SCT040 22/15 Q1007 NOSIG
12-07-13 METAR LIMC 132220Z 00000KT CAVOK 20/16 Q1008 NOSIG
12-07-13 METAR LIMC 132320Z VRB01KT CAVOK 20/15 Q1009 NOSIG
12-07-14 METAR LIMC 140020Z 08002KT CAVOK 20/16 Q1008 NOSIG
12-07-14 METAR LIMC 140120Z VRB01KT CAVOK 21/15 Q1008 NOSIG
12-07-14 METAR LIMC 140220Z 06002KT CAVOK 20/16 Q1008 NOSIG
12-07-14 METAR LIMC 140320Z 00000KT CAVOK 20/16 Q1008 NOSIG
12-07-14 METAR LIMC 140420Z VRB01KT 9999 SCT070 20/17 Q1008 NOSIG
12-07-14 METAR LIMC 140520Z 00000KT 9999 BKN060 22/17 Q1009 NOSIG
12-07-14 METAR LIMC 140620Z 11003KT 030V180 9999 FEW035 BKN050 22/15 Q1009 NOSIG
12-07-14 METAR LIMC 140720Z 08003KT 040V120 9999 FEW035 BKN050 23/16 Q1009 NOSIG
12-07-14 METAR LIMC 141120Z VRB02KT 9999 BKN035 27/18 Q1009 NOSIG
12-07-14 METAR LIMC 141220Z 20003KT 150V250 9999 SCT035 27/18 Q1009 NOSIG
12-07-14 METAR LIMC 141420Z NIL
12-07-14 METAR LIMC 141420Z 19004KT 150V240 9999 BKN035 27/19 Q1008 NOSIG
12-07-14 METAR LIMC 141520Z 17002KT 9999 BKN035 27/19 Q1008 NOSIG
12-07-14 METAR LIMC 141620Z 19004KT 150V210 9999 SCT035 28/18 Q1007 NOSIG
12-07-14 METAR LIMC 141720Z 18006KT 9999 FEW035TCU SCT040 BKN080 25/18 Q1006 BECMG TSRA
12-07-14 METAR LIMC 141820Z 23003KT 200V270 9999 VCTS -RA FEW030CB SCT060 BKN080 24/18 Q1007 NOSIG
12-07-14 METAR LIMC 141920Z 04003KT 300V070 9999 SCT040TCU BKN070 22/18 Q1007 WS RWY 35L NOSIG
12-07-14 METAR LIMC 142020Z 05003KT 330V080 9999 SCT040TCU BKN070 21/16 Q1008 NOSIG
12-07-14 METAR LIMC 142120Z VRB03KT 9999 SCT040 BKN070 21/17 Q1008 NOSIG
12-07-14 METAR LIMC 142220Z VRB01KT 9999 SCT040 SCT070 21/17 Q1008 NOSIG
12-07-14 METAR LIMC 142320Z 00000KT 9999 SCT040 SCT070 21/17 Q1008 NOSIG
12-07-15 METAR LIMC 150020Z 34003KT 9999 SCT040 SCT070 20/17 Q1008 NOSIG
12-07-15 METAR LIMC 150120Z 35003KT 9999 SCT040 SCT070 20/17 Q1008 NOSIG
12-07-15 METAR LIMC 150220Z 35002KT 9999 SCT040 SCT070 20/17 Q1008 NOSIG
12-07-15 METAR LIMC 150320Z 00000KT 9999 SCT040 SCT070 19/17 Q1008 NOSIG
12-07-15 METAR LIMC 150420Z 00000KT 9999 SCT040 18/16 Q1008 NOSIG
12-07-15 METAR LIMC 150520Z 34003KT 320V020 9999 FEW050 SCT060 20/16 Q1009 NOSIG
12-07-15 METAR LIMC 150620Z VRB01KT 9999 FEW050 22/16 Q1009 NOSIG
12-07-15 METAR LIMC 150720Z 03003KT 360V060 CAVOK 24/14 Q1009 NOSIG
12-07-15 METAR LIMC 150820Z 36003KT 310V090 9999 SCT050 26/09 Q1010 NOSIG
12-07-15 METAR LIMC 150920Z 32004KT 290V010 9999 FEW050 26/07 Q1010 NOSIG
12-07-15 METAR LIMC 151020Z 32004KT 280V020 CAVOK 27/07 Q1010 NOSIG
12-07-15 METAR LIMC 151120Z VRB02KT CAVOK 28/06 Q1011 NOSIG
12-07-15 METAR LIMC 151220Z 19001KT CAVOK 29/06 Q1010 NOSIG
12-07-15 METAR LIMC 151320Z 23006KT 180V260 9999 FEW030 28/08 Q1011 NOSIG
12-07-15 METAR LIMC 151420Z 24005KT 190V270 9999 FEW030 28/09 Q1011 NOSIG
12-07-15 METAR LIMC 151520Z 22004KT 9999 FEW030 28/06 Q1011 NOSIG
12-07-15 METAR LIMC 151620Z 25003KT 160V270 9999 FEW050 28/05 Q1011 NOSIG
12-07-15 METAR LIMC 151720Z 33003KT 9999 FEW050 26/09 Q1011 NOSIG
12-07-15 METAR LIMC 151820Z 01004KT 9999 FEW070 25/11 Q1012 NOSIG
12-07-15 METAR LIMC 152120Z NIL
12-07-15 METAR LIMC 152120Z 02003KT 350V050 CAVOK 22/04 Q1015 NOSIG
12-07-15 METAR LIMC 152220Z 01003KT CAVOK 20/04 Q1015 NOSIG
12-07-15 METAR LIMC 152320Z 02002KT CAVOK 20/03 Q1016 NOSIG
12-07-16 METAR LIMC 160020Z 03006KT CAVOK 21/02 Q1017 NOSIG
12-07-16 METAR LIMC 160120Z 03004KT 9999 SCT070 20/02 Q1018 NOSIG
12-07-16 METAR LIMC 160220Z 03004KT 9999 SCT070 19/02 Q1018 NOSIG
12-07-16 METAR LIMC 160320Z 04005KT 9999 FEW070 19/02 Q1019 NOSIG
12-07-16 METAR LIMC 160420Z NIL
12-07-16 METAR LIMC 160520Z NIL
12-07-16 METAR LIMC 160620Z NIL
12-07-16 METAR LIMC 160720Z 36005KT 330V030 CAVOK 23/04 Q1022 NOSIG
12-07-16 METAR LIMC 160820Z 36005KT 320V050 CAVOK 24/04 Q1022 NOSIG
12-07-16 METAR LIMC 160920Z 35004KT 320V050 CAVOK 25/04 Q1022 NOSIG
12-07-16 METAR LIMC 161020Z 35003KT 280V060 CAVOK 26/02 Q1023 NOSIG
12-07-16 METAR LIMC 161120Z VRB02KT CAVOK 27/02 Q1022 NOSIG
12-07-16 METAR LIMC 161220Z VRB02KT CAVOK 28/03 Q1022 NOSIG
12-07-16 METAR LIMC 161320Z 27004KT 230V300 CAVOK 27/02 Q1021 NOSIG
12-07-16 METAR LIMC 161420Z 22003KT 150V260 CAVOK 28/05 Q1021 NOSIG
12-07-16 METAR LIMC 161520Z 23005KT 200V260 CAVOK 27/06 Q1021 NOSIG
12-07-16 METAR LIMC 161620Z 22005KT 190V250 CAVOK 27/07 Q1021 NOSIG
12-07-16 METAR LIMC 161720Z 22005KT CAVOK 26/08 Q1021 NOSIG
12-07-16 METAR LIMC 161820Z 21004KT CAVOK 24/09 Q1021 NOSIG
12-07-16 METAR LIMC 161920Z 22003KT CAVOK 22/10 Q1022 NOSIG
12-07-16 METAR LIMC 162020Z 00000KT CAVOK 19/11 Q1022 NOSIG
12-07-16 METAR LIMC 162120Z 00000KT CAVOK 17/11 Q1023 NOSIG
12-07-16 METAR LIMC 162220Z 34003KT CAVOK 14/11 Q1023 NOSIG
12-07-16 METAR LIMC 162250Z 36003KT CAVOK 15/11 Q1023 NOSIG
12-07-16 METAR LIMC 162320Z 02001KT CAVOK 15/11 Q1023 NOSIG
12-07-17 METAR LIMC 170020Z 00000KT CAVOK 15/11 Q1023 NOSIG
12-07-17 METAR LIMC 170120Z 35002KT CAVOK 14/10 Q1023 NOSIG
12-07-17 METAR LIMC 170220Z VRB02KT CAVOK 14/10 Q1023 NOSIG
12-07-17 METAR LIMC 170320Z 00000KT CAVOK 14/09 Q1023 NOSIG
12-07-17 METAR LIMC 170420Z 00000KT CAVOK 13/09 Q1023 NOSIG
12-07-17 METAR LIMC 170520Z 36003KT 320V020 CAVOK 18/10 Q1023 NOSIG
12-07-17 METAR LIMC 170620Z VRB02KT CAVOK 20/10 Q1023 NOSIG
12-07-17 METAR LIMC 170720Z 00000KT CAVOK 23/11 Q1023 NOSIG
12-07-17 METAR LIMC 170820Z VRB01KT CAVOK 25/10 Q1023 NOSIG
12-07-17 METAR LIMC 170920Z VRB02KT CAVOK 26/12 Q1022 NOSIG
12-07-17 METAR LIMC 171020Z VRB02KT CAVOK 26/11 Q1022 NOSIG
12-07-17 METAR LIMC 171120Z 24004KT 210V280 CAVOK 27/08 Q1022 NOSIG
12-07-17 METAR LIMC 171220Z 24003KT 200V350 CAVOK 28/09 Q1021 NOSIG
12-07-17 METAR LIMC 171320Z 25004KT 210V270 CAVOK 28/10 Q1021 NOSIG
12-07-17 METAR LIMC 171420Z 21003KT 160V260 CAVOK 29/12 Q1020 NOSIG
12-07-17 METAR LIMC 171520Z 21004KT CAVOK 29/09 Q1020 NOSIG
12-07-17 METAR LIMC 171620Z 22003KT CAVOK 29/12 Q1019 NOSIG
12-07-17 METAR LIMC 171720Z 22003KT CAVOK 29/11 Q1019 NOSIG
12-07-17 METAR LIMC 171820Z VRB02KT CAVOK 27/12 Q1019 NOSIG
12-07-17 METAR LIMC 171920Z VRB02KT CAVOK 25/13 Q1020 NOSIG
12-07-17 METAR LIMC 172020Z 00000KT CAVOK 20/14 Q1020 NOSIG
12-07-17 METAR LIMC 172120Z 35004KT CAVOK 22/14 Q1020 NOSIG
12-07-17 METAR LIMC 172220Z 35004KT CAVOK 20/14 Q1021 NOSIG
12-07-17 METAR LIMC 172320Z VRB02KT CAVOK 20/13 Q1021 NOSIG
12-07-18 METAR LIMC 180020Z 36004KT CAVOK 21/13 Q1020 NOSIG
12-07-18 METAR LIMC 180120Z 32005KT CAVOK 20/14 Q1020 NOSIG
12-07-18 METAR LIMC 180220Z 36003KT CAVOK 19/12 Q1020 NOSIG
12-07-18 METAR LIMC 180320Z VRB02KT CAVOK 17/11 Q1020 NOSIG
12-07-18 METAR LIMC 180420Z VRB02KT CAVOK 20/11 Q1021 NOSIG
12-07-18 METAR LIMC 180520Z 04002KT CAVOK 21/14 Q1021 NOSIG
12-07-18 METAR LIMC 180620Z VRB03KT CAVOK 22/15 Q1021 NOSIG
12-07-18 METAR LIMC 180720Z 06003KT 030V100 CAVOK 24/15 Q1021 NOSIG
12-07-18 METAR LIMC 180820Z VRB02KT CAVOK 26/15 Q1021 NOSIG
12-07-18 METAR LIMC 180920Z VRB01KT CAVOK 28/14 Q1020 NOSIG
12-07-18 METAR LIMC 181020Z VRB02KT CAVOK 29/12 Q1020 NOSIG
12-07-18 METAR LIMC 181120Z VRB02KT CAVOK 30/11 Q1020 NOSIG
12-07-18 METAR LIMC 181220Z VRB02KT CAVOK 31/09 Q1019 NOSIG
12-07-18 METAR LIMC 181320Z VRB02KT CAVOK 31/11 Q1018 NOSIG
12-07-18 METAR LIMC 181420Z 20003KT 160V240 CAVOK 31/10 Q1018 NOSIG
12-07-18 METAR LIMC 181520Z 22003KT 170V280 CAVOK 31/11 Q1017 NOSIG
12-07-18 METAR LIMC 181620Z VRB02KT CAVOK 31/10 Q1016 NOSIG
12-07-18 METAR LIMC 181720Z VRB02KT CAVOK 31/11 Q1016 NOSIG
12-07-18 METAR LIMC 181820Z 22002KT CAVOK 28/14 Q1016 NOSIG
12-07-18 METAR LIMC 181920Z 00000KT CAVOK 24/13 Q1016 NOSIG
12-07-18 METAR LIMC 182020Z 00000KT CAVOK 22/13 Q1016 NOSIG
12-07-18 METAR LIMC 182120Z 00000KT CAVOK 20/14 Q1017 NOSIG
12-07-18 METAR LIMC 182220Z 36001KT CAVOK 19/14 Q1017 NOSIG
12-07-18 METAR LIMC 182320Z 36002KT CAVOK 19/14 Q1016 NOSIG
12-07-19 METAR LIMC 190020Z 36001KT CAVOK 18/14 Q1016 NOSIG
12-07-19 METAR LIMC 190120Z 02001KT CAVOK 17/14 Q1015 NOSIG
12-07-19 METAR LIMC 190220Z 00000KT CAVOK 18/14 Q1015 NOSIG
12-07-19 METAR LIMC 190320Z 35001KT CAVOK 16/14 Q1015 NOSIG
12-07-19 METAR LIMC 190420Z 00000KT CAVOK 16/14 Q1015 NOSIG
12-07-19 METAR LIMC 190520Z 35003KT 310V040 CAVOK 20/15 Q1015 NOSIG
12-07-19 METAR LIMC 190620Z VRB02KT 9999 FEW080 24/14 Q1015 NOSIG
12-07-19 METAR LIMC 190720Z 13003KT 100V160 CAVOK 25/12 Q1015 NOSIG
12-07-19 METAR LIMC 190820Z 17003KT 130V200 CAVOK 26/12 Q1015 NOSIG
12-07-19 METAR LIMC 190920Z 16003KT 130V200 CAVOK 27/12 Q1015 NOSIG
12-07-19 METAR LIMC 191020Z 21003KT 150V250 CAVOK 27/13 Q1014 NOSIG
12-07-19 METAR LIMC 191120Z 19003KT 110V280 CAVOK 28/14 Q1014 NOSIG
12-07-19 METAR LIMC 191220Z VRB02KT CAVOK 29/15 Q1013 NOSIG
12-07-19 METAR LIMC 191320Z 18003KT 140V270 CAVOK 30/15 Q1012 NOSIG
12-07-19 METAR LIMC 191420Z VRB03KT CAVOK 30/16 Q1012 NOSIG
12-07-19 METAR LIMC 191520Z VRB01KT CAVOK 31/14 Q1011 NOSIG
12-07-19 METAR LIMC 191620Z VRB02KT CAVOK 30/14 Q1011 NOSIG
12-07-19 METAR LIMC 191720Z 27003KT 9999 SCT060 28/16 Q1010 NOSIG
12-07-19 METAR LIMC 191820Z 19004KT 9999 SCT060 26/17 Q1010 NOSIG
12-07-19 METAR LIMC 191920Z 18003KT 9999 SCT060 24/15 Q1010 NOSIG
12-07-19 METAR LIMC 192020Z 19003KT 9999 SCT060 23/16 Q1011 NOSIG
12-07-19 METAR LIMC 192220Z 17002KT CAVOK 21/16 Q1011 NOSIG
12-07-19 METAR LIMC 192250Z 00000KT CAVOK 21/16 Q1011 NOSIG
12-07-19 METAR LIMC 192320Z 15002KT CAVOK 20/16 Q1011 NOSIG
12-07-19 METAR LIMC 192350Z 14001KT CAVOK 20/16 Q1011 NOSIG
12-07-20 METAR LIMC 200020Z 13001KT CAVOK 19/16 Q1011 NOSIG
12-07-20 METAR LIMC 200050Z 12001KT CAVOK 18/16 Q1011 NOSIG
12-07-20 METAR LIMC 200120Z 00000KT CAVOK 18/16 Q1011 NOSIG
12-07-20 METAR LIMC 200150Z 00000KT CAVOK 18/16 Q1011 NOSIG
12-07-20 METAR LIMC 200220Z VRB02KT CAVOK 18/17 Q1011 NOSIG
12-07-20 METAR LIMC 200250Z 00000KT CAVOK 18/16 Q1011 NOSIG
12-07-20 METAR LIMC 200320Z 00000KT 9999 FEW070 17/16 Q1011 NOSIG
12-07-20 METAR LIMC 200350Z VRB01KT 9999 FEW070 18/16 Q1011 NOSIG
12-07-20 METAR LIMC 200420Z 00000KT 9999 FEW070 17/16 Q1011 NOSIG
12-07-20 METAR LIMC 200450Z 36001KT CAVOK 18/16 Q1011 NOSIG
12-07-20 METAR LIMC 200520Z VRB01KT CAVOK 20/17 Q1012 NOSIG
12-07-20 METAR LIMC 200550Z VRB02KT CAVOK 21/17 Q1012 NOSIG
12-07-20 METAR LIMC 200620Z VRB02KT CAVOK 22/17 Q1012 NOSIG
12-07-20 METAR LIMC 200650Z VRB02KT CAVOK 23/18 Q1012 NOSIG
12-07-20 METAR LIMC 200720Z 14004KT CAVOK 24/17 Q1012 NOSIG
12-07-20 METAR LIMC 200750Z 17003KT 120V210 CAVOK 24/18 Q1012 NOSIG
12-07-20 METAR LIMC 200820Z 14004KT 080V190 CAVOK 25/18 Q1013 NOSIG
12-07-20 METAR LIMC 200850Z 16004KT 120V210 CAVOK 25/18 Q1012 NOSIG
12-07-20 METAR LIMC 200920Z 17003KT 130V210 CAVOK 25/18 Q1013 NOSIG
12-07-20 METAR LIMC 200950Z 16003KT 140V210 9999 SCT025 25/18 Q1013 NOSIG
12-07-20 METAR LIMC 201020Z 18003KT 150V210 9999 SCT025 25/18 Q1013 NOSIG
12-07-20 METAR LIMC 201050Z VRB02KT 9999 BKN025 25/18 Q1013 NOSIG
12-07-20 METAR LIMC 201120Z VRB02KT 9999 BKN030 26/18 Q1012 NOSIG
12-07-20 METAR LIMC 201150Z VRB02KT 9999 SCT035 SCT050 27/18 Q1012 NOSIG
12-07-20 METAR LIMC 201220Z VRB02KT 9999 SCT035 SCT095 28/17 Q1012 NOSIG
12-07-20 METAR LIMC 201250Z VRB02KT 9999 SCT035 28/18 Q1012 NOSIG
12-07-20 METAR LIMC 201320Z 16004KT 090V250 9999 SCT040 28/18 Q1011 NOSIG
12-07-20 METAR LIMC 201350Z 16004KT 110V200 9999 SCT040 28/17 Q1011 NOSIG
12-07-20 METAR LIMC 201420Z 18004KT 120V210 9999 SCT045 SCT080 28/18 Q1011 NOSIG
12-07-20 METAR LIMC 201520Z 16003KT 110V250 9999 SCT045 SCT080 28/18 Q1010 NOSIG
12-07-20 METAR LIMC 201620Z 18003KT 150V210 9999 SCT045 SCT080 28/18 Q1010 NOSIG
12-07-20 METAR LIMC 201650Z 19003KT 9999 SCT045 BKN070 27/18 Q1010 NOSIG
12-07-20 METAR LIMC 201720Z 20003KT 9999 BKN045 BKN070 26/19 Q1011 NOSIG
12-07-20 METAR LIMC 201820Z 19003KT 9999 SCT030 BKN060 24/19 Q1010 NOSIG
12-07-20 METAR LIMC 201920Z 00000KT 9999 SCT040 23/19 Q1010 NOSIG
12-07-20 METAR LIMC 202020Z 27004KT 7000 2500W +TSRA FEW010CB BKN040 23/19 Q1012 NOSIG
12-07-20 METAR LIMC 202120Z 31003KT 9999 SCT040 20/19 Q1011 RETSRA NOSIG
12-07-20 METAR LIMC 202220Z 00000KT 9999 SCT040 19/19 Q1011 NOSIG
12-07-20 METAR LIMC 202320Z VRB02KT 9999 SCT040 19/18 Q1011 NOSIG
12-07-21 METAR LIMC 210020Z 00000KT 9999 SCT040 19/18 Q1011 NOSIG
12-07-21 METAR LIMC 210120Z VRB02KT 9999 SCT040 18/17 Q1011 NOSIG
12-07-21 METAR LIMC 210220Z 00000KT 9999 SCT040 17/16 Q1010 NOSIG
12-07-21 METAR LIMC 210320Z VRB01KT 9999 SCT040 17/17 Q1011 NOSIG
12-07-21 METAR LIMC 210420Z 00000KT 9999 SCT040 17/17 Q1011 NOSIG
12-07-21 METAR LIMC 210520Z 35004KT 9999 SCT040 BKN080 19/18 Q1011 NOSIG
12-07-21 METAR LIMC 210620Z 00000KT 9999 SCT040 BKN060 19/18 Q1012 NOSIG
12-07-21 METAR LIMC 210720Z 01003KT 9999 FEW040 BKN060 21/17 Q1012 NOSIG
12-07-21 METAR LIMC 210820Z VRB01KT 9999 SCT060 23/18 Q1012 NOSIG
12-07-21 METAR LIMC 210920Z VRB01KT 9999 SCT020 26/17 Q1011 NOSIG
12-07-21 METAR LIMC 211020Z VRB02KT 9999 FEW030 26/16 Q1011 NOSIG
12-07-21 METAR LIMC 211120Z VRB02KT 9999 FEW030 28/15 Q1011 NOSIG
12-07-21 METAR LIMC 211220Z VRB02KT 9999 SCT030 28/16 Q1011 NOSIG
12-07-21 METAR LIMC 211320Z 14003KT 090V190 9999 FEW025TCU SCT040 29/15 Q1010 NOSIG
12-07-21 METAR LIMC 211420Z 27009KT 230V290 8000 TSGRRA SCT025CB BKN040 20/17 Q1012 NOSIG
12-07-21 METAR LIMC 211520Z 04003KT 340V130 9999 SCT050 24/17 Q1011 NOSIG
12-07-21 METAR LIMC 211620Z 02003KT 350V050 CAVOK 26/17 Q1011 NOSIG
12-07-21 METAR LIMC 211720Z 05003KT 320V120 9999 FEW050 26/17 Q1011 NOSIG
12-07-21 METAR LIMC 211820Z 09003KT 050V170 9999 SCT095 25/14 Q1013 NOSIG
12-07-21 METAR LIMC 211920Z 04002KT 9999 FEW035TCU SCT065 22/18 Q1013 NOSIG
12-07-21 METAR LIMC 212020Z 10004KT 050V130 9999 VCTS FEW035CB SCT065 22/16 Q1015
12-07-21 METAR LIMC 212120Z VRB03KT 9999 SCT080 20/16 Q1015 NOSIG
12-07-21 METAR LIMC 212220Z 03003KT 270V060 9999 FEW080 20/16 Q1016 NOSIG
12-07-21 METAR LIMC 212320Z 04003KT 340V080 CAVOK 20/16 Q1016 NOSIG
12-07-22 METAR LIMC 220020Z 05003KT 340V060 9999 FEW080 20/15 Q1017 NOSIG
12-07-22 METAR LIMC 220120Z 09002KT CAVOK 19/15 Q1017 NOSIG
12-07-22 METAR LIMC 220220Z VRB02KT CAVOK 18/14 Q1017 NOSIG
12-07-22 METAR LIMC 220320Z 00000KT CAVOK 15/13 Q1017 NOSIG
12-07-22 METAR LIMC 220420Z 03001KT 9999 SCT060 14/13 Q1018 NOSIG
12-07-22 METAR LIMC 220520Z 34003KT 310V010 9999 FEW060 18/12 Q1018 NOSIG
12-07-22 METAR LIMC 220620Z 34003KT CAVOK 20/11 Q1018 NOSIG
12-07-22 METAR LIMC 220720Z 33003KT 300V360 CAVOK 22/10 Q1018 NOSIG
12-07-22 METAR LIMC 220820Z VRB02KT CAVOK 23/08 Q1018 NOSIG
12-07-22 METAR LIMC 220920Z VRB02KT CAVOK 25/06 Q1017 NOSIG
12-07-22 METAR LIMC 221020Z 02003KT 310V120 9999 FEW060 25/06 Q1017 NOSIG
12-07-22 METAR LIMC 221120Z VRB02KT 9999 FEW060 27/07 Q1017 NOSIG
12-07-22 METAR LIMC 221220Z VRB01KT 9999 FEW060 26/05 Q1017 NOSIG
12-07-22 METAR LIMC 221320Z 30003KT 230V030 9999 FEW035 27/06 Q1016 NOSIG
12-07-22 METAR LIMC 221420Z VRB04KT 9999 SCT040 28/07 Q1016 NOSIG
12-07-22 METAR LIMC 221520Z 13006KT 9999 SCT030 23/10 Q1017 NOSIG
12-07-22 METAR LIMC 221620Z 11004KT 080V150 9999 FEW030 24/08 Q1017 NOSIG
12-07-22 METAR LIMC 221720Z 08006KT 050V110 9999 FEW030 24/07 Q1018 NOSIG
12-07-22 METAR LIMC 221820Z 07003KT 010V150 CAVOK 22/08 Q1018 NOSIG
12-07-22 METAR LIMC 221920Z 00000KT CAVOK 19/11 Q1019 NOSIG
12-07-22 METAR LIMC 222020Z 18002KT CAVOK 18/11 Q1021 NOSIG
12-07-22 METAR LIMC 222120Z 00000KT 9999 FEW070 16/11 Q1021 NOSIG
12-07-22 METAR LIMC 222220Z 35003KT 9999 SCT070 16/11 Q1021 NOSIG
12-07-22 METAR LIMC 222320Z 36002KT 9999 SCT090 16/11 Q1021 NOSIG
12-07-23 METAR LIMC 230020Z 00000KT CAVOK 13/11 Q1020 NOSIG
12-07-23 METAR LIMC 230120Z 36001KT CAVOK 13/10 Q1020 NOSIG
12-07-23 METAR LIMC 230220Z 00000KT CAVOK 11/10 Q1020 NOSIG
12-07-23 METAR LIMC 230320Z 36002KT CAVOK 12/10 Q1020 NOSIG
12-07-23 METAR LIMC 230420Z 00000KT CAVOK 13/10 Q1020 NOSIG
12-07-23 METAR LIMC 230520Z 35004KT CAVOK 16/09 Q1021 NOSIG
12-07-23 METAR LIMC 230620Z 35002KT CAVOK 18/09 Q1021 NOSIG
12-07-23 METAR LIMC 230720Z VRB02KT 9999 BKN070 19/09 Q1021 NOSIG
12-07-23 METAR LIMC 230820Z VRB02KT 9999 BKN070 21/07 Q1021 NOSIG
12-07-23 METAR LIMC 230920Z VRB02KT 9999 BKN060 21/08 Q1021 NOSIG
12-07-23 METAR LIMC 231020Z VRB02KT 9999 BKN060 22/08 Q1021 NOSIG
12-07-23 METAR LIMC 231120Z VRB02KT 9999 BKN060 23/07 Q1021 NOSIG
12-07-23 METAR LIMC 231220Z 27004KT 9999 FEW080 24/06 Q1020 NOSIG
12-07-23 METAR LIMC 231320Z 23003KT 190V270 9999 FEW080 26/06 Q1020 NOSIG
12-07-23 METAR LIMC 231420Z 16003KT 110V210 9999 FEW080 26/07 Q1019 NOSIG
12-07-23 METAR LIMC 231520Z 21003KT 160V250 9999 FEW080 27/08 Q1018 NOSIG
12-07-23 METAR LIMC 231620Z 22003KT 9999 SCT080 25/09 Q1018 NOSIG
12-07-23 METAR LIMC 231720Z 23004KT 9999 FEW080 24/10 Q1018 NOSIG
12-07-23 METAR LIMC 231820Z 18002KT CAVOK 22/13 Q1018 NOSIG
12-07-23 METAR LIMC 231920Z 18002KT CAVOK 20/12 Q1019 NOSIG
12-07-23 METAR LIMC 232020Z 00000KT CAVOK 19/13 Q1019 NOSIG
12-07-23 METAR LIMC 232120Z VRB01KT CAVOK 16/13 Q1020 NOSIG
12-07-23 METAR LIMC 232220Z VRB02KT CAVOK 19/13 Q1020 NOSIG
12-07-23 METAR LIMC 232320Z 02001KT CAVOK 16/12 Q1020 NOSIG
12-07-24 METAR LIMC 240020Z 01002KT CAVOK 15/12 Q1020 NOSIG
12-07-24 METAR LIMC 240120Z 36002KT CAVOK 15/12 Q1020 NOSIG
12-07-24 METAR LIMC 240220Z VRB02KT CAVOK 15/11 Q1019 NOSIG
12-07-24 METAR LIMC 240320Z 36002KT CAVOK 16/12 Q1019 NOSIG
12-07-24 METAR LIMC 240420Z 36002KT CAVOK 17/12 Q1019 NOSIG
12-07-24 METAR LIMC 240520Z 35004KT 9999 SCT070 19/13 Q1019 NOSIG
12-07-24 METAR LIMC 240620Z 36004KT CAVOK 21/12 Q1019 NOSIG
12-07-24 METAR LIMC 240720Z 34004KT CAVOK 23/12 Q1019 NOSIG
12-07-24 METAR LIMC 240820Z 34004KT 300V360 CAVOK 25/12 Q1018 NOSIG
12-07-24 METAR LIMC 240920Z 31003KT 250V350 CAVOK 26/12 Q1018 NOSIG
12-07-24 METAR LIMC 241020Z 26003KT 200V300 CAVOK 27/13 Q1017 NOSIG
12-07-24 METAR LIMC 241120Z 27003KT 220V330 CAVOK 28/14 Q1017 NOSIG
12-07-24 METAR LIMC 241220Z 21004KT 170V270 CAVOK 29/16 Q1016 NOSIG
12-07-24 METAR LIMC 241320Z 21004KT 170V230 CAVOK 29/15 Q1015 NOSIG
12-07-24 METAR LIMC 241420Z 20004KT 170V230 CAVOK 30/12 Q1015 NOSIG
12-07-24 METAR LIMC 241520Z 21004KT 9999 FEW080 30/12 Q1015 NOSIG
12-07-24 METAR LIMC 241620Z 22004KT 9999 SCT070 29/13 Q1014 NOSIG
12-07-24 METAR LIMC 241720Z 20003KT 140V240 9999 SCT070 29/13 Q1014 NOSIG
12-07-24 METAR LIMC 241820Z 20002KT 9999 BKN070 26/16 Q1015 NOSIG
12-07-24 METAR LIMC 241920Z 00000KT 9999 6000NE BKN070 25/15 Q1015 NOSIG
12-07-24 METAR LIMC 242020Z 33002KT 9999 BKN070 25/15 Q1016 NOSIG
12-07-24 METAR LIMC 242120Z VRB01KT 9999 BKN070 25/15 Q1015 NOSIG
12-07-24 METAR LIMC 242220Z 00000KT 9999 BKN070 22/17 Q1015 NOSIG
12-07-24 METAR LIMC 242320Z 35003KT 9999 BKN070 22/16 Q1015 NOSIG
12-07-25 METAR LIMC 250020Z VRB01KT 9999 BKN070 21/16 Q1015 NOSIG
12-07-25 METAR LIMC 250120Z 07001KT 9999 SCT070 19/16 Q1015 NOSIG
12-07-25 METAR LIMC 250220Z 00000KT CAVOK 18/15 Q1014 NOSIG
12-07-25 METAR LIMC 250320Z 35002KT CAVOK 18/16 Q1014 NOSIG
12-07-25 METAR LIMC 250420Z 34003KT CAVOK 18/15 Q1014 NOSIG
12-07-25 METAR LIMC 250520Z 34003KT 310V020 CAVOK 20/16 Q1014 NOSIG
12-07-25 METAR LIMC 250620Z 00000KT CAVOK 23/17 Q1014 NOSIG
12-07-25 METAR LIMC 250720Z VRB01KT CAVOK 25/16 Q1014 NOSIG
12-07-25 METAR LIMC 250820Z VRB02KT CAVOK 26/16 Q1013 NOSIG
12-07-25 METAR LIMC 250920Z VRB02KT CAVOK 27/16 Q1013 NOSIG
12-07-25 METAR LIMC 251020Z 22003KT 170V280 CAVOK 29/17 Q1013 NOSIG
12-07-25 METAR LIMC 251120Z 23004KT 190V270 CAVOK 29/17 Q1012 NOSIG
12-07-25 METAR LIMC 251220Z 20004KT 160V250 CAVOK 30/17 Q1012 NOSIG
12-07-25 METAR LIMC 251320Z VRB04KT CAVOK 30/16 Q1012 NOSIG
12-07-25 METAR LIMC 251420Z 19003KT 130V240 CAVOK 31/17 Q1012 NOSIG
12-07-25 METAR LIMC 251520Z VRB02KT CAVOK 32/15 Q1012 NOSIG
12-07-25 METAR LIMC 251620Z 21003KT CAVOK 32/14 Q1012 NOSIG
12-07-25 METAR LIMC 251720Z 22002KT CAVOK 31/15 Q1012 NOSIG
12-07-25 METAR LIMC 251820Z VRB02KT 9999 7000NW FEW060 29/17 Q1012 NOSIG
12-07-25 METAR LIMC 251920Z 07007KT 050V110 9999 VCTS FEW020CB SCT030 BKN060 25/15 Q1015 BECMG TS
12-07-25 METAR LIMC 252020Z 07003KT 040V110 9999 SCT060 23/15 Q1015 NOSIG
12-07-25 METAR LIMC 252120Z 33003KT CAVOK 22/16 Q1016 NOSIG
12-07-25 METAR LIMC 252220Z 04002KT CAVOK 21/16 Q1016 NOSIG
12-07-25 METAR LIMC 252320Z 14001KT CAVOK 20/17 Q1016 NOSIG
12-07-26 METAR LIMC 260020Z 36001KT CAVOK 19/16 Q1016 NOSIG
12-07-26 METAR LIMC 260120Z 00000KT CAVOK 19/16 Q1016 NOSIG
12-07-26 METAR LIMC 260220Z VRB01KT CAVOK 19/16 Q1016 NOSIG
12-07-26 METAR LIMC 260320Z VRB02KT CAVOK 19/16 Q1016 NOSIG
12-07-26 METAR LIMC 260420Z 01002KT CAVOK 18/16 Q1016 NOSIG
12-07-26 METAR LIMC 260520Z VRB01KT CAVOK 20/17 Q1016 NOSIG
12-07-26 METAR LIMC 260620Z VRB01KT CAVOK 23/17 Q1017 NOSIG
12-07-26 METAR LIMC 260720Z VRB01KT CAVOK 25/18 Q1017 NOSIG
12-07-26 METAR LIMC 260820Z VRB01KT CAVOK 26/18 Q1017 NOSIG
12-07-26 METAR LIMC 260920Z VRB02KT CAVOK 27/18 Q1017 NOSIG
12-07-26 METAR LIMC 261020Z 00000KT CAVOK 28/19 Q1017 NOSIG
12-07-26 METAR LIMC 261120Z 21003KT 160V260 CAVOK 29/19 Q1016 NOSIG
12-07-26 METAR LIMC 261220Z 17003KT 050V220 CAVOK 30/20 Q1016 NOSIG
12-07-26 METAR LIMC 261320Z 19003KT 150V230 CAVOK 30/19 Q1016 NOSIG
12-07-26 METAR LIMC 261420Z VRB02KT CAVOK 31/18 Q1015 NOSIG
12-07-26 METAR LIMC 261520Z VRB02KT CAVOK 32/18 Q1015 NOSIG
12-07-26 METAR LIMC 261620Z VRB02KT CAVOK 31/18 Q1015 NOSIG
12-07-26 METAR LIMC 261720Z 23002KT CAVOK 31/19 Q1014 NOSIG
12-07-26 METAR LIMC 261820Z 15001KT CAVOK 28/20 Q1015 NOSIG
12-07-26 METAR LIMC 261920Z 00000KT CAVOK 25/19 Q1015 NOSIG
12-07-26 METAR LIMC 262020Z VRB01KT CAVOK 27/19 Q1015 NOSIG
12-07-26 METAR LIMC 262120Z 00000KT CAVOK 23/19 Q1016 NOSIG
12-07-26 METAR LIMC 262220Z 01001KT CAVOK 22/19 Q1016 NOSIG
12-07-26 METAR LIMC 262320Z 00000KT CAVOK 21/19 Q1016 NOSIG
12-07-27 METAR LIMC 270020Z 35002KT CAVOK 21/19 Q1016 NOSIG
12-07-27 METAR LIMC 270120Z 01001KT CAVOK 20/18 Q1016 NOSIG
12-07-27 METAR LIMC 270220Z 02001KT CAVOK 20/18 Q1016 NOSIG
12-07-27 METAR LIMC 270320Z 36001KT CAVOK 19/18 Q1016 NOSIG
12-07-27 METAR LIMC 270420Z 00000KT CAVOK 20/17 Q1016 NOSIG
12-07-27 METAR LIMC 270520Z VRB02KT CAVOK 23/18 Q1016 NOSIG
12-07-27 METAR LIMC 270620Z VRB02KT CAVOK 25/18 Q1016 NOSIG
12-07-27 METAR LIMC 270720Z VRB02KT CAVOK 27/18 Q1016 NOSIG
12-07-27 METAR LIMC 270820Z 00000KT CAVOK 29/18 Q1016 NOSIG
12-07-27 METAR LIMC 270920Z VRB02KT CAVOK 30/18 Q1016 NOSIG
12-07-27 METAR LIMC 271020Z VRB02KT CAVOK 31/17 Q1016 NOSIG
12-07-27 METAR LIMC 271120Z 20003KT 080V250 CAVOK 32/14 Q1015 NOSIG
12-07-27 METAR LIMC 271220Z 20004KT 150V250 CAVOK 32/15 Q1015 NOSIG
12-07-27 METAR LIMC 271320Z 20004KT 160V240 CAVOK 33/15 Q1014 NOSIG
12-07-27 METAR LIMC 271420Z VRB03KT CAVOK 33/13 Q1014 NOSIG
12-07-27 METAR LIMC 271520Z 25004KT 220V280 9999 FEW060 32/18 Q1014 NOSIG
12-07-27 METAR LIMC 271620Z 29004KT 260V330 9999 SCT040 SCT060 31/15 Q1013 NOSIG
12-07-27 METAR LIMC 271720Z 20003KT 9999 SCT040 BKN070 29/18 Q1014 NOSIG
12-07-27 METAR LIMC 271820Z 36005KT 9999 SCT080 28/18 Q1013 NOSIG
12-07-27 METAR LIMC 271920Z 36004KT CAVOK 26/17 Q1013 NOSIG
12-07-27 METAR LIMC 272020Z 35004KT CAVOK 25/17 Q1013 NOSIG
12-07-27 METAR LIMC 272120Z 03003KT 360V110 CAVOK 24/17 Q1013 NOSIG
12-07-27 METAR LIMC 272220Z VRB01KT CAVOK 23/17 Q1013 NOSIG
12-07-27 METAR LIMC 272320Z VRB01KT CAVOK 22/17 Q1013 NOSIG
12-07-28 METAR LIMC 280020Z 34003KT CAVOK 21/17 Q1013 NOSIG
12-07-28 METAR LIMC 280120Z 03002KT 9999 FEW070 22/17 Q1012 NOSIG
12-07-28 METAR LIMC 280220Z 35003KT 9999 SCT060 22/17 Q1012 NOSIG
12-07-28 METAR LIMC 280320Z 35003KT 9999 SCT060 22/17 Q1012 NOSIG
12-07-28 METAR LIMC 280420Z 34002KT 9999 FEW080 21/17 Q1012 NOSIG
12-07-28 METAR LIMC 280520Z VRB02KT 9999 FEW070 23/17 Q1012 NOSIG
12-07-28 METAR LIMC 280620Z 35002KT 9999 SCT060 24/18 Q1012 NOSIG
12-07-28 METAR LIMC 280720Z 00000KT 9999 SCT060 26/19 Q1013 NOSIG
12-07-28 METAR LIMC 280820Z 22003KT 9999 BKN060 25/20 Q1013 NOSIG
12-07-28 METAR LIMC 280920Z 06003KT 030V090 9999 SCT060 26/19 Q1012 RERA NOSIG
12-07-28 METAR LIMC 281020Z 13003KT 090V180 9999 FEW060 29/19 Q1012 NOSIG
12-07-28 METAR LIMC 281120Z 11004KT 050V210 9999 FEW060 30/16 Q1011 NOSIG
12-07-28 METAR LIMC 281220Z 13004KT 030V190 CAVOK 30/15 Q1011 NOSIG
12-07-28 METAR LIMC 281320Z 17003KT 130V210 CAVOK 31/17 Q1010 NOSIG
12-07-28 METAR LIMC 281420Z 17003KT 130V210 CAVOK 31/15 Q1010 NOSIG
12-07-28 METAR LIMC 281520Z VRB02KT CAVOK 31/16 Q1009 NOSIG
12-07-28 METAR LIMC 281620Z 33007KT 9999 SCT060 27/17 Q1009 NOSIG
12-07-28 METAR LIMC 281720Z 35006KT CAVOK 26/18 Q1009 NOSIG
12-07-28 METAR LIMC 281820Z 34005KT CAVOK 25/17 Q1009 NOSIG
12-07-28 METAR LIMC 281920Z 33007KT 9999 VCTS FEW020CB SCT035 24/17 Q1009 NOSIG
12-07-28 METAR LIMC 282020Z 02004KT 9999 TS FEW020CB BKN035 21/19 Q1011 NOSIG
12-07-28 METAR LIMC 282120Z 35003KT 9999 SCT050 21/19 Q1010 NOSIG
12-07-28 METAR LIMC 282220Z 35002KT 9999 SCT050 20/19 Q1010 NOSIG
12-07-28 METAR LIMC 282320Z 32001KT 9999 SCT050 19/18 Q1010 NOSIG
12-07-29 METAR LIMC 290020Z 23002KT 9999 SCT050 19/18 Q1010 NOSIG
12-07-29 METAR LIMC 290120Z 33002KT 9999 FEW060 18/18 Q1010 NOSIG
12-07-29 METAR LIMC 290220Z 00000KT 9999 FEW060 18/17 Q1010 NOSIG
12-07-29 METAR LIMC 290320Z 33001KT 9999 FEW060 18/17 Q1010 NOSIG
12-07-29 METAR LIMC 290420Z 00000KT 9999 FEW060 17/17 Q1010 NOSIG
12-07-29 METAR LIMC 290520Z 34003KT CAVOK 19/18 Q1010 NOSIG
12-07-29 METAR LIMC 290620Z VRB02KT CAVOK 21/18 Q1011 NOSIG
12-07-29 METAR LIMC 290720Z VRB01KT CAVOK 24/18 Q1011 NOSIG
12-07-29 METAR LIMC 290820Z VRB02KT CAVOK 25/17 Q1011 NOSIG
12-07-29 METAR LIMC 290920Z 27003KT 220V290 CAVOK 27/16 Q1011 NOSIG
12-07-29 METAR LIMC 291020Z VRB02KT CAVOK 28/17 Q1011 NOSIG
12-07-29 METAR LIMC 291120Z VRB02KT CAVOK 29/17 Q1010 NOSIG
12-07-29 METAR LIMC 291220Z VRB02KT CAVOK 30/17 Q1010 NOSIG
12-07-29 METAR LIMC 291320Z 15003KT 090V260 CAVOK 30/17 Q1010 NOSIG
12-07-29 METAR LIMC 291420Z 23004KT 180V280 CAVOK 30/18 Q1010 NOSIG
12-07-29 METAR LIMC 291520Z 24004KT CAVOK 30/17 Q1010 NOSIG
12-07-29 METAR LIMC 291620Z 23004KT 200V270 CAVOK 31/12 Q1009 NOSIG
12-07-29 METAR LIMC 291720Z VRB02KT CAVOK 30/16 Q1009 NOSIG
12-07-29 METAR LIMC 291820Z 22002KT CAVOK 28/18 Q1010 NOSIG
12-07-29 METAR LIMC 291920Z 17002KT CAVOK 25/18 Q1011 NOSIG
12-07-29 METAR LIMC 292020Z 16004KT CAVOK 25/19 Q1011 NOSIG
12-07-29 METAR LIMC 292120Z 22002KT CAVOK 23/19 Q1012 NOSIG
12-07-29 METAR LIMC 292220Z 28003KT CAVOK 23/19 Q1012 NOSIG
12-07-29 METAR LIMC 292320Z VRB02KT CAVOK 21/19 Q1012 NOSIG
12-07-30 METAR LIMC 300020Z 00000KT CAVOK 20/19 Q1012 NOSIG
12-07-30 METAR LIMC 300120Z NIL
12-07-30 METAR LIMC 300120Z 00000KT CAVOK 20/18 Q1012 NOSIG
12-07-30 METAR LIMC 300220Z VRB01KT CAVOK 19/18 Q1012 NOSIG
12-07-30 METAR LIMC 300320Z 04001KT CAVOK 18/16 Q1013 NOSIG
12-07-30 METAR LIMC 300420Z VRB02KT CAVOK 18/16 Q1013 NOSIG
12-07-30 METAR LIMC 300520Z VRB02KT CAVOK 20/16 Q1014 NOSIG
12-07-30 METAR LIMC 300620Z 05003KT 010V080 CAVOK 24/18 Q1014 NOSIG
12-07-30 METAR LIMC 300720Z 06003KT 020V110 9999 SCT050 24/19 Q1015 NOSIG
12-07-30 METAR LIMC 300820Z 12003KT 070V170 9999 SCT050 25/19 Q1015 NOSIG
12-07-30 METAR LIMC 300920Z VRB02KT 9999 FEW050 26/17 Q1015 NOSIG
12-07-30 METAR LIMC 301020Z VRB02KT 9999 SCT040 27/18 Q1015 NOSIG
12-07-30 METAR LIMC 301120Z 09002KT 9999 SCT040 29/18 Q1015 NOSIG
12-07-30 METAR LIMC 301220Z VRB01KT 9999 FEW035TCU SCT045 29/18 Q1014 NOSIG
12-07-30 METAR LIMC 301320Z VRB01KT 9999 FEW035TCU SCT045 31/18 Q1014 NOSIG
12-07-30 METAR LIMC 301420Z 21003KT 170V240 9999 FEW035TCU SCT050 31/17 Q1013 NOSIG
12-07-30 METAR LIMC 301520Z 18003KT 150V210 9999 SCT045 31/17 Q1013 NOSIG
12-07-30 METAR LIMC 301620Z 20003KT 170V230 9999 FEW045 30/18 Q1013 NOSIG
12-07-30 METAR LIMC 301720Z 22003KT 9999 FEW045 30/16 Q1013 NOSIG
12-07-30 METAR LIMC 301820Z VRB01KT CAVOK 28/18 Q1013 NOSIG
12-07-30 METAR LIMC 301920Z 36003KT 330V030 CAVOK 27/19 Q1014 NOSIG
12-07-30 METAR LIMC 302020Z VRB01KT CAVOK 24/19 Q1014 NOSIG
12-07-30 METAR LIMC 302120Z 00000KT 9999 SCT070 24/19 Q1015 NOSIG
12-07-30 METAR LIMC 302220Z 01002KT 9999 SCT070 22/19 Q1015 NOSIG
12-07-30 METAR LIMC 302320Z 36002KT 9999 FEW070 22/18 Q1015 NOSIG
12-07-31 METAR LIMC 310020Z 36003KT 9999 FEW070 23/17 Q1015 NOSIG
12-07-31 METAR LIMC 310120Z VRB02KT 9999 FEW070 22/17 Q1015 NOSIG
12-07-31 METAR LIMC 310220Z 36003KT 9999 FEW070 21/17 Q1015 NOSIG
12-07-31 METAR LIMC 310320Z 01003KT 340V070 9999 SCT060 21/17 Q1016 NOSIG
12-07-31 METAR LIMC 310420Z VRB01KT 9999 SCT060 22/17 Q1017 NOSIG
12-07-31 METAR LIMC 310520Z VRB02KT 9999 BKN050 23/16 Q1017 NOSIG
12-07-31 METAR LIMC 310620Z VRB02KT 9999 SCT050 24/16 Q1018 NOSIG
12-07-31 METAR LIMC 310720Z VRB02KT 9999 SCT050 25/17 Q1018 NOSIG
12-07-31 METAR LIMC 310820Z VRB03KT 9999 SCT050 25/16 Q1018 NOSIG
12-07-31 METAR LIMC 310920Z VRB02KT 9999 FEW030 27/15 Q1018 NOSIG
12-07-31 METAR LIMC 311020Z VRB02KT 9999 FEW030 27/16 Q1018 NOSIG
12-07-31 METAR LIMC 311120Z VRB02KT 9999 FEW030 29/15 Q1017 NOSIG
12-07-31 METAR LIMC 311220Z VRB02KT 9999 FEW030 29/16 Q1017 NOSIG
12-07-31 METAR LIMC 311320Z VRB02KT 9999 FEW040 30/16 Q1016 NOSIG
12-07-31 METAR LIMC 311420Z VRB02KT 9999 FEW040 31/16 Q1015 NOSIG
12-07-31 METAR LIMC 311520Z 21003KT 170V260 9999 FEW040 31/15 Q1015 NOSIG
12-07-31 METAR LIMC 311620Z 19003KT 160V240 9999 FEW040 30/17 Q1015 NOSIG
12-07-31 METAR LIMC 311720Z 23004KT 9999 FEW040 29/18 Q1015 NOSIG
12-07-31 METAR LIMC 311820Z 21003KT CAVOK 27/19 Q1015 NOSIG
12-07-31 METAR LIMC 311920Z 17001KT CAVOK 26/18 Q1016 NOSIG
12-07-31 METAR LIMC 312020Z 00000KT CAVOK 23/18 Q1016 NOSIG
12-07-31 METAR LIMC 312120Z VRB02KT CAVOK 25/18 Q1016 NOSIG
12-07-31 METAR LIMC 312220Z 00000KT CAVOK 21/18 Q1016 NOSIG
12-07-31 METAR LIMC 312320Z 35002KT CAVOK 21/18 Q1017 NOSIG
12-08-01 METAR LIMC 010020Z 36001KT CAVOK 21/18 Q1017 NOSIG
12-08-01 METAR LIMC 010120Z 02001KT CAVOK 20/18 Q1017 NOSIG
12-08-01 METAR LIMC 010220Z 35002KT CAVOK 21/17 Q1017 NOSIG
12-08-01 METAR LIMC 010320Z VRB02KT CAVOK 20/18 Q1017 NOSIG
12-08-01 METAR LIMC 010420Z 36003KT CAVOK 20/17 Q1017 NOSIG
12-08-01 METAR LIMC 010520Z 35003KT 9999 SCT060 21/17 Q1017 NOSIG
12-08-01 METAR LIMC 010620Z 36002KT 9999 SCT060 23/18 Q1018 NOSIG
12-08-01 METAR LIMC 010720Z VRB02KT 9999 SCT060 25/18 Q1018 NOSIG
12-08-01 METAR LIMC 010820Z 00000KT 9999 SCT060 28/18 Q1018 NOSIG
12-08-01 METAR LIMC 010920Z VRB01KT 9999 SCT060 29/18 Q1017 NOSIG
12-08-01 METAR LIMC 011020Z VRB01KT 9999 SCT060 29/16 Q1017 NOSIG
12-08-01 METAR LIMC 011120Z 14003KT 090V190 9999 SCT025 31/15 Q1017 NOSIG
12-08-01 METAR LIMC 011220Z VRB02KT 9999 SCT025 31/15 Q1016 NOSIG
12-08-01 METAR LIMC 011320Z VRB02KT 9999 SCT025 31/15 Q1015 NOSIG
12-08-01 METAR LIMC 011420Z 17003KT 110V240 9999 R35L/1100V1500N R35R/1500N FEW040 SCT080 31/14 Q1015 NOSIG
12-08-01 METAR LIMC 011520Z 23005KT 9999 FEW040 SCT090 31/17 Q1014 NOSIG
12-08-01 METAR LIMC 011620Z 22003KT CAVOK 31/16 Q1014 NOSIG
12-08-01 METAR LIMC 011720Z 25003KT 210V280 CAVOK 30/16 Q1014 NOSIG
12-08-01 METAR LIMC 011820Z 22002KT CAVOK 28/17 Q1014 NOSIG
12-08-01 METAR LIMC 011920Z 00000KT CAVOK 26/16 Q1014 NOSIG
12-08-01 METAR LIMC 012020Z 00000KT CAVOK 23/17 Q1014 NOSIG
12-08-01 METAR LIMC 012120Z 36001KT CAVOK 23/18 Q1015 NOSIG
12-08-01 METAR LIMC 012220Z VRB02KT 9999 VCTS FEW025CB BKN060 24/19 Q1015 NOSIG
12-08-01 METAR LIMC 012320Z 35004KT 9999 FEW025 BKN060 23/20 Q1015 RETSRA NOSIG
12-08-02 METAR LIMC 020020Z 36003KT 9999 SCT070 24/19 Q1014 NOSIG
12-08-02 METAR LIMC 020120Z VRB02KT 9999 FEW070 22/19 Q1015 NOSIG
12-08-02 METAR LIMC 020220Z 00000KT CAVOK 21/18 Q1015 NOSIG
12-08-02 METAR LIMC 020320Z VRB01KT CAVOK 21/18 Q1015 NOSIG
12-08-02 METAR LIMC 020420Z 35002KT CAVOK 21/18 Q1015 NOSIG
12-08-02 METAR LIMC 020520Z 36004KT 9999 BKN045 23/17 Q1015 NOSIG
12-08-02 METAR LIMC 020620Z 35003KT 9999 BKN045 24/18 Q1015 NOSIG
12-08-02 METAR LIMC 020720Z 36003KT 330V030 9999 SCT050 SCT070 26/17 Q1015 NOSIG
12-08-02 METAR LIMC 020820Z VRB01KT 9999 SCT050 BKN080 27/18 Q1015 NOSIG
12-08-02 METAR LIMC 020920Z VRB02KT 9999 SCT070 29/17 Q1015 NOSIG
12-08-02 METAR LIMC 021020Z VRB02KT CAVOK 30/17 Q1015 NOSIG
12-08-02 METAR LIMC 021120Z VRB02KT 9999 FEW040 32/17 Q1014 NOSIG
12-08-02 METAR LIMC 021220Z VRB02KT 9999 SCT035 32/16 Q1014 NOSIG
12-08-02 METAR LIMC 021320Z NIL
12-08-02 METAR LIMC 021320Z 21004KT 180V250 9999 SCT035 33/15 Q1014 NOSIG
12-08-02 METAR LIMC 021420Z VRB02KT 9999 FEW035 33/14 Q1013 NOSIG
12-08-02 METAR LIMC 021520Z 24003KT 9999 FEW035 SCT080 32/16 Q1013 NOSIG
12-08-02 METAR LIMC 021620Z 23004KT 9999 SCT080 31/18 Q1012 NOSIG
12-08-02 METAR LIMC 021720Z 24003KT 9999 SCT080 29/17 Q1013 NOSIG
12-08-02 METAR LIMC 021820Z 26002KT 9999 BKN080 29/17 Q1013 NOSIG
12-08-02 METAR LIMC 021920Z 00000KT 9999 BKN080 27/18 Q1013 NOSIG
12-08-02 METAR LIMC 022020Z 00000KT 9999 SCT090 25/19 Q1013 NOSIG
12-08-02 METAR LIMC 022120Z 00000KT 9999 VCTS FEW030CB OVC070 24/19 Q1014 BECMG TS
12-08-02 METAR LIMC 022220Z 02003KT 310V050 9999 -RA SCT040 BKN060 23/21 Q1013 NOSIG
12-08-02 METAR LIMC 022320Z 36002KT 9999 SCT080 23/21 Q1014 NOSIG
12-08-03 METAR LIMC 030020Z 35004KT CAVOK 22/19 Q1013 NOSIG
12-08-03 METAR LIMC 030120Z VRB01KT CAVOK 20/19 Q1013 NOSIG
12-08-03 METAR LIMC 030220Z 00000KT CAVOK 19/19 Q1013 NOSIG
12-08-03 METAR LIMC 030320Z VRB02KT CAVOK 20/19 Q1013 NOSIG
12-08-03 METAR LIMC 030420Z 34003KT 330V050 CAVOK 20/18 Q1014 NOSIG
12-08-03 METAR LIMC 030520Z 01004KT CAVOK 22/18 Q1014 NOSIG
12-08-03 METAR LIMC 030620Z 36004KT CAVOK 23/19 Q1014 NOSIG
12-08-03 METAR LIMC 030720Z NIL
12-08-03 METAR LIMC 030820Z VRB02KT CAVOK 28/18 Q1014 NOSIG
12-08-03 METAR LIMC 030920Z VRB02KT CAVOK 29/17 Q1014 NOSIG
12-08-03 METAR LIMC 031020Z VRB01KT CAVOK 31/16 Q1014 NOSIG
12-08-03 METAR LIMC 031120Z VRB03KT CAVOK 31/17 Q1013 NOSIG
12-08-03 METAR LIMC 031220Z 18004KT 130V220 CAVOK 32/17 Q1013 NOSIG
12-08-03 METAR LIMC 031320Z 19003KT 140V230 CAVOK 32/15 Q1013 NOSIG
12-08-03 METAR LIMC 031420Z 16004KT 130V190 CAVOK 31/18 Q1012 NOSIG
12-08-03 METAR LIMC 031520Z 16003KT 090V230 CAVOK 32/16 Q1012 NOSIG
12-08-03 METAR LIMC 031620Z VRB02KT CAVOK 32/13 Q1012 NOSIG
12-08-03 METAR LIMC 031720Z VRB01KT CAVOK 32/14 Q1012 NOSIG
12-08-03 METAR LIMC 031820Z VRB01KT CAVOK 29/17 Q1012 NOSIG
12-08-03 METAR LIMC 031920Z VRB01KT CAVOK 26/18 Q1012 NOSIG
12-08-03 METAR LIMC 032020Z 20003KT CAVOK 25/18 Q1013 NOSIG
12-08-03 METAR LIMC 032120Z 19001KT CAVOK 24/16 Q1013 NOSIG
12-08-03 METAR LIMC 032220Z 28002KT CAVOK 24/15 Q1014 NOSIG
12-08-03 METAR LIMC 032320Z 26001KT CAVOK 24/16 Q1014 NOSIG
12-08-04 METAR LIMC 040020Z 00000KT CAVOK 21/17 Q1013 NOSIG
12-08-04 METAR LIMC 040120Z 00000KT 9999 SCT060 21/17 Q1013 NOSIG
12-08-04 METAR LIMC 040220Z 00000KT 9999 SCT060 21/17 Q1013 NOSIG
12-08-04 METAR LIMC 040320Z 00000KT 9999 SCT060 20/17 Q1013 NOSIG
12-08-04 METAR LIMC 040420Z 09001KT 9999 FEW060 19/17 Q1013 NOSIG
12-08-04 METAR LIMC 040520Z VRB01KT 9999 SCT060 22/18 Q1014 NOSIG
12-08-04 METAR LIMC 040620Z 00000KT 9999 FEW070 25/14 Q1014 NOSIG
12-08-04 METAR LIMC 040720Z 00000KT 9999 SCT070 27/13 Q1014 NOSIG
12-08-04 METAR LIMC 040820Z VRB01KT CAVOK 28/14 Q1014 NOSIG
12-08-04 METAR LIMC 040920Z VRB02KT CAVOK 29/15 Q1014 NOSIG
12-08-04 METAR LIMC 041020Z VRB02KT CAVOK 29/15 Q1014 NOSIG
12-08-04 METAR LIMC 041120Z VRB02KT 9999 FEW040 31/15 Q1014 NOSIG
12-08-04 METAR LIMC 041220Z VRB03KT 9999 SCT040 31/15 Q1013 NOSIG
12-08-04 METAR LIMC 041320Z VRB02KT 9999 SCT040 30/16 Q1013 NOSIG
12-08-04 METAR LIMC 041420Z VRB02KT 9999 SCT040 31/16 Q1012 NOSIG
12-08-04 METAR LIMC 041520Z 21003KT 160V250 9999 SCT070 31/17 Q1012 NOSIG
12-08-04 METAR LIMC 041620Z 36006KT 9999 FEW035 SCT070 30/17 Q1011 NOSIG
12-08-04 METAR LIMC 041720Z 35006KT 9999 SCT070 28/15 Q1011 NOSIG
12-08-04 METAR LIMC 041820Z NIL
12-08-04 METAR LIMC 041920Z 34004KT 9999 VCTS FEW020CB BKN050 24/17 Q1012 NOSIG
12-08-04 METAR LIMC 042020Z 35008KT 9999 VCTS FEW020CB BKN060 22/15 Q1012 NOSIG
12-08-04 METAR LIMC 042120Z 36006KT 9999 SCT030 BKN070 22/15 Q1012 NOSIG
12-08-04 METAR LIMC 042220Z 01005KT 9999 FEW030 BKN070 22/15 Q1012 NOSIG
12-08-04 METAR LIMC 042320Z 01003KT 340V040 9999 FEW070 21/16 Q1012 NOSIG
12-08-05 METAR LIMC 050020Z 35003KT CAVOK 21/16 Q1012 NOSIG
12-08-05 METAR LIMC 050120Z 36003KT CAVOK 21/16 Q1012 NOSIG
12-08-05 METAR LIMC 050220Z 34004KT CAVOK 20/16 Q1011 NOSIG
12-08-05 METAR LIMC 050320Z 33002KT CAVOK 19/16 Q1011 NOSIG
12-08-05 METAR LIMC 050420Z 35002KT CAVOK 19/16 Q1012 NOSIG
12-08-05 METAR LIMC 050520Z VRB02KT CAVOK 21/16 Q1012 NOSIG
12-08-05 METAR LIMC 050620Z 35003KT 320V020 9999 SCT080 23/17 Q1012 NOSIG
12-08-05 METAR LIMC 050720Z VRB02KT CAVOK 25/17 Q1013 NOSIG
12-08-05 METAR LIMC 050820Z VRB01KT CAVOK 26/18 Q1013 NOSIG
12-08-05 METAR LIMC 050920Z VRB02KT CAVOK 28/17 Q1013 NOSIG
12-08-05 METAR LIMC 051020Z VRB02KT 9999 SCT035 SCT090 29/17 Q1013 NOSIG
12-08-05 METAR LIMC 051120Z 23003KT 200V280 9999 SCT035 SCT090 28/17 Q1013 NOSIG
12-08-05 METAR LIMC 051220Z VRB04KT 9999 SCT090 30/15 Q1012 NOSIG
12-08-05 METAR LIMC 051320Z 20003KT 150V270 9999 FEW040 30/14 Q1012 NOSIG
12-08-05 METAR LIMC 051420Z VRB03KT 9999 FEW030 30/18 Q1012 NOSIG
12-08-05 METAR LIMC 051520Z 32005KT 9999 FEW030 29/18 Q1011 NOSIG
12-08-05 METAR LIMC 051620Z 01003KT 330V040 9999 FEW070 28/18 Q1010 NOSIG
12-08-05 METAR LIMC 051720Z 33005KT 9999 VCTS FEW020CB SCT060 26/18 Q1011 BECMG TS
12-08-05 METAR LIMC 051820Z NIL
12-08-05 METAR LIMC 051820Z 20005KT 130V300 3000 +TSRA BKN005CB OVC050 21/19 Q1012 NOSIG
12-08-05 METAR LIMC 051920Z 32004KT 9999 SCT080 21/20 Q1012 NOSIG
12-08-05 METAR LIMC 052020Z 36004KT CAVOK 21/20 Q1012 NOSIG
12-08-05 METAR LIMC 052120Z 34004KT 9999 FEW080 21/19 Q1012 NOSIG
12-08-05 METAR LIMC 052220Z 35003KT 9999 BKN045 21/19 Q1012 NOSIG
12-08-05 METAR LIMC 052320Z 35003KT 9999 BKN045 21/19 Q1012 NOSIG
12-08-06 METAR LIMC 060020Z VRB02KT CAVOK 20/18 Q1013 NOSIG
12-08-06 METAR LIMC 060120Z 34002KT 9999 SCT050 20/19 Q1013 NOSIG
12-08-06 METAR LIMC 060220Z VRB01KT 9999 SCT050 20/17 Q1013 NOSIG
12-08-06 METAR LIMC 060320Z 34002KT 9999 SCT050 19/17 Q1013 NOSIG
12-08-06 METAR LIMC 060420Z 32002KT CAVOK 18/17 Q1013 NOSIG
12-08-06 METAR LIMC 060520Z 36003KT CAVOK 20/18 Q1013 NOSIG
12-08-06 METAR LIMC 060620Z VRB02KT 9999 SCT070 22/19 Q1014 NOSIG
12-08-06 METAR LIMC 060720Z VRB02KT 9999 BKN070 24/19 Q1014 NOSIG
12-08-06 METAR LIMC 060820Z VRB02KT 9999 BKN060 25/19 Q1014 NOSIG
12-08-06 METAR LIMC 060920Z 00000KT 9999 BKN060 26/20 Q1014 NOSIG
12-08-06 METAR LIMC 061020Z VRB02KT 9999 SCT040 BKN070 26/20 Q1014 NOSIG
12-08-06 METAR LIMC 061120Z 16003KT 120V200 9999 BKN070 27/20 Q1014 NOSIG
12-08-06 METAR LIMC 061220Z 19005KT 9999 SCT070 28/20 Q1014 NOSIG
12-08-06 METAR LIMC 061320Z 17004KT 140V220 9999 FEW030TCU SCT070 28/19 Q1013 NOSIG
12-08-06 METAR LIMC 061420Z 21003KT 160V230 9999 FEW025CB BKN050 27/19 Q1013 BECMG TS
12-08-06 METAR LIMC 061520Z 36004KT 330V050 5000 -RA SCT020CB OVC050 18/18 Q1013 RETSRAGR NOSIG
12-08-06 METAR LIMC 061620Z VRB02KT 1800 -RA SCT025 SCT050 19/19 Q1013 RERA NOSIG
12-08-06 METAR LIMC 061720Z VRB01KT CAVOK 22/20 Q1013 NOSIG
12-08-06 METAR LIMC 061820Z 36003KT CAVOK 22/20 Q1014 NOSIG
12-08-06 METAR LIMC 061920Z VRB01KT CAVOK 21/19 Q1014 NOSIG
12-08-06 METAR LIMC 062020Z 34002KT CAVOK 19/19 Q1015 NOSIG
12-08-06 METAR LIMC 062120Z 00000KT CAVOK 20/19 Q1016 NOSIG
12-08-06 METAR LIMC 062220Z 35004KT CAVOK 20/19 Q1016 NOSIG
12-08-06 METAR LIMC 062320Z 36003KT CAVOK 19/18 Q1017 NOSIG
12-08-07 METAR LIMC 070020Z 35002KT CAVOK 18/17 Q1017 NOSIG
12-08-07 METAR LIMC 070120Z 35003KT CAVOK 17/17 Q1017 NOSIG
12-08-07 METAR LIMC 070220Z 33006KT CAVOK 16/15 Q1016 NOSIG
12-08-07 METAR LIMC 070320Z 33005KT CAVOK 16/14 Q1017 NOSIG
12-08-07 METAR LIMC 070420Z 34006KT CAVOK 15/14 Q1017 NOSIG
12-08-07 METAR LIMC 070520Z 35006KT CAVOK 16/15 Q1017 NOSIG
12-08-07 METAR LIMC 070620Z 33004KT CAVOK 20/15 Q1018 NOSIG
12-08-07 METAR LIMC 070720Z 32005KT CAVOK 22/13 Q1018 NOSIG
12-08-07 METAR LIMC 070820Z 34004KT 310V020 CAVOK 24/13 Q1019 NOSIG
12-08-07 METAR LIMC 070920Z 34004KT 290V020 CAVOK 26/12 Q1019 NOSIG
12-08-07 METAR LIMC 071020Z 02004KT 310V070 CAVOK 28/08 Q1019 NOSIG
12-08-07 METAR LIMC 071120Z VRB02KT CAVOK 28/11 Q1019 NOSIG
12-08-07 METAR LIMC 071220Z 24003KT 180V270 CAVOK 29/11 Q1019 NOSIG
12-08-07 METAR LIMC 071320Z VRB02KT CAVOK 30/13 Q1018 NOSIG
12-08-07 METAR LIMC 071420Z VRB02KT CAVOK 30/12 Q1018 NOSIG
12-08-07 METAR LIMC 071520Z 22003KT 180V270 CAVOK 30/12 Q1018 NOSIG
12-08-07 METAR LIMC 071620Z 23004KT 200V260 CAVOK 29/11 Q1017 NOSIG
12-08-07 METAR LIMC 071720Z 26003KT CAVOK 29/09 Q1017 NOSIG
12-08-07 METAR LIMC 071820Z 00000KT CAVOK 25/12 Q1017 NOSIG
12-08-07 METAR LIMC 071920Z 00000KT 9999 FEW050 22/13 Q1018 NOSIG
12-08-07 METAR LIMC 072020Z 00000KT 9999 FEW050 19/15 Q1018 NOSIG
12-08-07 METAR LIMC 072120Z VRB02KT 9999 FEW050 21/13 Q1018 NOSIG
12-08-07 METAR LIMC 072220Z 01002KT 9999 FEW050 19/14 Q1018 NOSIG
12-08-07 METAR LIMC 072320Z 01001KT 9999 FEW050 18/14 Q1018 NOSIG
12-08-08 METAR LIMC 080020Z 00000KT 9999 FEW050 17/14 Q1018 NOSIG
12-08-08 METAR LIMC 080120Z 36001KT 9999 FEW050 17/14 Q1018 NOSIG
12-08-08 METAR LIMC 080220Z 00000KT 9999 FEW050 15/13 Q1018 NOSIG
12-08-08 METAR LIMC 080320Z VRB01KT 9999 FEW050 16/14 Q1018 NOSIG
12-08-08 METAR LIMC 080420Z 35003KT CAVOK 15/13 Q1019 NOSIG
12-08-08 METAR LIMC 080520Z 35003KT CAVOK 19/14 Q1019 NOSIG
12-08-08 METAR LIMC 080620Z 35003KT CAVOK 21/14 Q1020 NOSIG
12-08-08 METAR LIMC 080720Z VRB02KT CAVOK 24/14 Q1020 NOSIG
12-08-08 METAR LIMC 080820Z VRB02KT CAVOK 27/13 Q1020 NOSIG
12-08-08 METAR LIMC 080920Z 08003KT 040V130 CAVOK 28/14 Q1020 NOSIG
12-08-08 METAR LIMC 081020Z 32002KT CAVOK 29/13 Q1020 NOSIG
12-08-08 METAR LIMC 081120Z 13003KT 080V200 CAVOK 30/15 Q1020 NOSIG
12-08-08 METAR LIMC 081220Z 16003KT 100V200 CAVOK 30/13 Q1019 NOSIG
12-08-08 METAR LIMC 081320Z VRB02KT CAVOK 31/13 Q1019 NOSIG
12-08-08 METAR LIMC 081420Z VRB01KT CAVOK 31/12 Q1018 NOSIG
12-08-08 METAR LIMC 081520Z VRB02KT CAVOK 31/14 Q1018 NOSIG
12-08-08 METAR LIMC 081620Z 24003KT 210V270 CAVOK 31/14 Q1017 NOSIG
12-08-08 METAR LIMC 081720Z 24003KT 210V270 CAVOK 30/15 Q1017 NOSIG
12-08-08 METAR LIMC 081820Z VRB02KT CAVOK 27/17 Q1017 NOSIG
12-08-08 METAR LIMC 081920Z 00000KT CAVOK 25/16 Q1018 NOSIG
12-08-08 METAR LIMC 082020Z VRB01KT CAVOK 22/17 Q1018 NOSIG
12-08-08 METAR LIMC 082120Z VRB01KT CAVOK 22/17 Q1018 NOSIG
12-08-08 METAR LIMC 082220Z VRB01KT CAVOK 21/17 Q1018 NOSIG
12-08-08 METAR LIMC 082320Z 36001KT CAVOK 20/17 Q1018 NOSIG
12-08-09 METAR LIMC 090020Z VRB02KT CAVOK 20/17 Q1019 NOSIG
12-08-09 METAR LIMC 090120Z VRB01KT CAVOK 19/16 Q1019 NOSIG
12-08-09 METAR LIMC 090220Z 36003KT CAVOK 19/16 Q1019 NOSIG
12-08-09 METAR LIMC 090320Z VRB02KT CAVOK 18/15 Q1019 NOSIG
12-08-09 METAR LIMC 090420Z 01002KT CAVOK 18/15 Q1019 NOSIG
12-08-09 METAR LIMC 090520Z 01003KT 320V050 CAVOK 20/16 Q1020 NOSIG
12-08-09 METAR LIMC 090620Z 36003KT 330V040 CAVOK 22/17 Q1020 NOSIG
12-08-09 METAR LIMC 090720Z VRB02KT CAVOK 25/15 Q1020 NOSIG
12-08-09 METAR LIMC 090820Z VRB01KT CAVOK 27/15 Q1020 NOSIG
12-08-09 METAR LIMC 090920Z VRB02KT CAVOK 27/15 Q1021 NOSIG
12-08-09 METAR LIMC 091020Z VRB01KT CAVOK 29/14 Q1020 NOSIG
12-08-09 METAR LIMC 091120Z 00000KT CAVOK 30/15 Q1019 NOSIG
12-08-09 METAR LIMC 091220Z VRB01KT CAVOK 30/14 Q1019 NOSIG
12-08-09 METAR LIMC 091320Z VRB02KT CAVOK 31/14 Q1018 NOSIG
12-08-09 METAR LIMC 091420Z 23003KT 180V270 CAVOK 31/13 Q1018 NOSIG
12-08-09 METAR LIMC 091520Z 21003KT 180V240 CAVOK 30/16 Q1017 NOSIG
12-08-09 METAR LIMC 091620Z 23003KT 190V270 CAVOK 31/14 Q1017 NOSIG
12-08-09 METAR LIMC 091720Z 22003KT CAVOK 30/16 Q1017 NOSIG
12-08-09 METAR LIMC 091820Z 22003KT CAVOK 28/16 Q1017 NOSIG
12-08-09 METAR LIMC 091920Z 00000KT CAVOK 25/18 Q1017 NOSIG
12-08-09 METAR LIMC 092020Z 00000KT CAVOK 23/18 Q1018 NOSIG
12-08-09 METAR LIMC 092120Z 00000KT CAVOK 23/18 Q1018 NOSIG
12-08-09 METAR LIMC 092220Z 00000KT 9999 SCT060 22/18 Q1019 NOSIG
12-08-09 METAR LIMC 092320Z 05003KT 9999 SCT060 24/17 Q1019 NOSIG
12-08-10 METAR LIMC 100020Z VRB02KT 9999 SCT060 24/16 Q1019 NOSIG
12-08-10 METAR LIMC 100120Z VRB02KT 9999 SCT060 23/14 Q1020 NOSIG
12-08-10 METAR LIMC 100220Z 02002KT 9999 SCT060 22/15 Q1020 NOSIG
12-08-10 METAR LIMC 100320Z 03002KT 9999 SCT060 20/16 Q1020 NOSIG
12-08-10 METAR LIMC 100420Z 00000KT 9999 9000NW SCT060 18/16 Q1020 NOSIG
12-08-10 METAR LIMC 100520Z VRB01KT 9999 FEW060 20/16 Q1020 NOSIG
12-08-10 METAR LIMC 100620Z VRB01KT CAVOK 23/16 Q1020 NOSIG
12-08-10 METAR LIMC 100720Z 10001KT CAVOK 25/16 Q1021 NOSIG
12-08-10 METAR LIMC 100820Z VRB02KT 9999 FEW080 26/16 Q1021 NOSIG
12-08-10 METAR LIMC 100920Z VRB01KT CAVOK 27/16 Q1020 NOSIG
12-08-10 METAR LIMC 101020Z VRB02KT CAVOK 28/15 Q1020 NOSIG
12-08-10 METAR LIMC 101120Z VRB01KT 9999 FEW040 29/13 Q1019 NOSIG
12-08-10 METAR LIMC 101220Z VRB02KT 9999 FEW040 29/14 Q1019 NOSIG
12-08-10 METAR LIMC 101320Z VRB02KT 9999 FEW040 29/13 Q1018 NOSIG
12-08-10 METAR LIMC 101420Z VRB02KT CAVOK 30/14 Q1017 NOSIG
12-08-10 METAR LIMC 101520Z VRB01KT CAVOK 30/14 Q1017 NOSIG
12-08-10 METAR LIMC 101620Z VRB02KT CAVOK 29/15 Q1016 NOSIG
12-08-10 METAR LIMC 101720Z 22003KT CAVOK 28/16 Q1016 NOSIG
12-08-10 METAR LIMC 101820Z 21002KT CAVOK 26/17 Q1016 NOSIG
12-08-10 METAR LIMC 101920Z 15001KT CAVOK 24/16 Q1017 NOSIG
12-08-10 METAR LIMC 102020Z VRB01KT CAVOK 22/17 Q1018 NOSIG
12-08-10 METAR LIMC 102120Z 00000KT CAVOK 21/18 Q1018 NOSIG
12-08-10 METAR LIMC 102220Z 00000KT CAVOK 20/17 Q1018 NOSIG
12-08-11 METAR LIMC 110020Z 35001KT CAVOK 18/15 Q1018 NOSIG
12-08-11 METAR LIMC 110120Z VRB02KT CAVOK 19/15 Q1018 NOSIG
12-08-11 METAR LIMC 110220Z 35004KT CAVOK 20/14 Q1018 NOSIG
12-08-11 METAR LIMC 110320Z 36002KT CAVOK 18/14 Q1017 NOSIG
12-08-11 METAR LIMC 110420Z 00000KT CAVOK 17/15 Q1018 NOSIG
12-08-11 METAR LIMC 110520Z VRB02KT 9999 FEW050 18/15 Q1018 NOSIG
12-08-11 METAR LIMC 110620Z VRB02KT 9999 SCT080 21/16 Q1018 NOSIG
12-08-11 METAR LIMC 110720Z VRB02KT 9999 FEW080 24/15 Q1018 NOSIG
12-08-11 METAR LIMC 110820Z VRB02KT CAVOK 25/14 Q1017 NOSIG
12-08-11 METAR LIMC 110920Z VRB02KT CAVOK 26/13 Q1017 NOSIG
12-08-11 METAR LIMC 111020Z VRB02KT CAVOK 28/12 Q1016 NOSIG
12-08-11 METAR LIMC 111120Z VRB02KT CAVOK 28/13 Q1016 NOSIG
12-08-11 METAR LIMC 111220Z VRB02KT CAVOK 29/13 Q1015 NOSIG
12-08-11 METAR LIMC 111320Z VRB02KT CAVOK 29/14 Q1014 NOSIG
12-08-11 METAR LIMC 111420Z 24004KT 200V280 CAVOK 29/13 Q1014 NOSIG
12-08-11 METAR LIMC 111520Z 25003KT 210V300 CAVOK 30/14 Q1013 NOSIG
12-08-11 METAR LIMC 111620Z 23003KT CAVOK 29/13 Q1013 NOSIG
12-08-11 METAR LIMC 111720Z 21003KT CAVOK 28/14 Q1013 NOSIG
12-08-11 METAR LIMC 111820Z VRB01KT CAVOK 25/16 Q1013 NOSIG
12-08-11 METAR LIMC 111920Z 00000KT CAVOK 22/16 Q1013 NOSIG
12-08-11 METAR LIMC 112020Z VRB01KT CAVOK 21/16 Q1014 NOSIG
12-08-11 METAR LIMC 112120Z VRB01KT CAVOK 19/16 Q1014 NOSIG
12-08-11 METAR LIMC 112220Z 36002KT CAVOK 19/16 Q1014 NOSIG
12-08-11 METAR LIMC 112320Z 35002KT CAVOK 19/16 Q1014 NOSIG
12-08-12 METAR LIMC 120020Z VRB02KT 9999 BKN070 19/16 Q1015 NOSIG
12-08-12 METAR LIMC 120120Z 10005KT 060V120 9999 SCT070 22/13 Q1015 NOSIG
12-08-12 METAR LIMC 120220Z 08003KT 030V180 9999 FEW070 22/14 Q1015 NOSIG
12-08-12 METAR LIMC 120320Z 08003KT 040V120 9999 FEW070 22/13 Q1015 NOSIG
12-08-12 METAR LIMC 120420Z 05003KT 010V090 9999 SCT070 21/14 Q1015 NOSIG
12-08-12 METAR LIMC 120520Z 03003KT 340V100 9999 BKN060 22/14 Q1016 NOSIG
12-08-12 METAR LIMC 120620Z 00000KT 9999 BKN050 BKN070 22/14 Q1016 NOSIG
12-08-12 METAR LIMC 120720Z 12005KT 080V140 9999 SCT050 SCT070 23/15 Q1016 NOSIG
12-08-12 METAR LIMC 120820Z 09003KT 040V140 9999 FEW050 BKN070 23/15 Q1016 NOSIG
12-08-12 METAR LIMC 120920Z 08003KT 020V180 9999 FEW050 BKN070 25/14 Q1015 NOSIG
12-08-12 METAR LIMC 121020Z VRB02KT 9999 FEW050 BKN080 25/14 Q1015 NOSIG
12-08-12 METAR LIMC 121120Z 11003KT 030V160 9999 FEW040 SCT080 25/14 Q1014 NOSIG
12-08-12 METAR LIMC 121220Z VRB02KT 9999 FEW040 SCT080 27/14 Q1014 NOSIG
12-08-12 METAR LIMC 121320Z 17003KT 110V240 9999 FEW080 27/16 Q1013 NOSIG
12-08-12 METAR LIMC 121420Z VRB02KT CAVOK 27/15 Q1013 NOSIG
12-08-12 METAR LIMC 121520Z 22004KT 180V240 9999 FEW080 26/17 Q1012 NOSIG
12-08-12 METAR LIMC 121620Z 21003KT 9999 FEW070 26/18 Q1012 NOSIG
12-08-12 METAR LIMC 121720Z 22002KT 9999 FEW070 25/18 Q1012 NOSIG
12-08-12 METAR LIMC 121820Z NIL
12-08-12 METAR LIMC 121920Z 16001KT 9999 SCT080 23/18 Q1013 NOSIG
12-08-12 METAR LIMC 122020Z 00000KT 9999 SCT080 21/18 Q1013 NOSIG
12-08-12 METAR LIMC 122120Z 00000KT 9999 SCT080 21/18 Q1013 NOSIG
12-08-12 METAR LIMC 122220Z 00000KT 9999 SCT080 20/18 Q1013 NOSIG
12-08-12 METAR LIMC 122320Z 36002KT 9999 SCT080 19/17 Q1013 NOSIG
12-08-13 METAR LIMC 130020Z VRB02KT 9999 SCT080 21/17 Q1013 NOSIG
12-08-13 METAR LIMC 130120Z VRB02KT 9999 SCT080 21/16 Q1013 NOSIG
12-08-13 METAR LIMC 130220Z 00000KT 9999 SCT080 21/16 Q1013 NOSIG
12-08-13 METAR LIMC 130320Z VRB01KT 9999 SCT080 19/16 Q1013 NOSIG
12-08-13 METAR LIMC 130420Z VRB02KT 9999 SCT070 18/16 Q1013 NOSIG
12-08-13 METAR LIMC 130520Z 03002KT 9999 FEW070 19/16 Q1014 NOSIG
12-08-13 METAR LIMC 130620Z VRB01KT 9999 FEW070 21/17 Q1014 NOSIG
12-08-13 METAR LIMC 130720Z VRB02KT 9999 BKN060 23/15 Q1014 NOSIG
12-08-13 METAR LIMC 130820Z VRB02KT 9999 SCT070 24/15 Q1014 NOSIG
12-08-13 METAR LIMC 130920Z VRB02KT 9999 FEW070 25/15 Q1014 NOSIG
12-08-13 METAR LIMC 131020Z VRB03KT CAVOK 26/15 Q1013 NOSIG
12-08-13 METAR LIMC 131120Z VRB02KT CAVOK 27/14 Q1013 NOSIG
12-08-13 METAR LIMC 131220Z 19003KT 130V260 9999 FEW040 27/14 Q1013 NOSIG
12-08-13 METAR LIMC 131320Z 19003KT 140V230 9999 FEW040 28/16 Q1012 NOSIG
12-08-13 METAR LIMC 131420Z VRB02KT 9999 FEW040 28/15 Q1012 NOSIG
12-08-13 METAR LIMC 131520Z VRB02KT 9999 FEW040 28/15 Q1012 NOSIG
12-08-13 METAR LIMC 131620Z 22002KT CAVOK 28/15 Q1011 NOSIG
12-08-13 METAR LIMC 131720Z 22003KT 180V250 CAVOK 26/16 Q1011 NOSIG
12-08-13 METAR LIMC 131820Z 22002KT CAVOK 25/18 Q1012 NOSIG
12-08-13 METAR LIMC 131920Z 00000KT 9999 SCT070 24/17 Q1012 NOSIG
12-08-13 METAR LIMC 132020Z 00000KT 9999 SCT070 22/18 Q1012 NOSIG
12-08-13 METAR LIMC 132120Z 00000KT 9999 SCT070 22/17 Q1013 NOSIG
12-08-13 METAR LIMC 132220Z 00000KT 9999 SCT070 21/17 Q1013 NOSIG
12-08-13 METAR LIMC 132320Z VRB01KT 9999 SCT070 20/17 Q1013 NOSIG
12-08-14 METAR LIMC 140020Z 00000KT 9999 SCT070 21/18 Q1013 NOSIG
12-08-14 METAR LIMC 140120Z 00000KT 9999 SCT060 21/18 Q1013 NOSIG
12-08-14 METAR LIMC 140220Z 04001KT 9999 SCT060 20/16 Q1013 NOSIG
12-08-14 METAR LIMC 140320Z VRB02KT 9999 SCT060 20/17 Q1013 NOSIG
12-08-14 METAR LIMC 140420Z VRB02KT 9999 SCT060 20/17 Q1013 NOSIG
12-08-14 METAR LIMC 140520Z 02003KT 350V050 9999 SCT060 22/17 Q1014 NOSIG
12-08-14 METAR LIMC 140620Z VRB02KT 9999 BKN060 23/17 Q1014 NOSIG
12-08-14 METAR LIMC 140720Z 10003KT 070V140 9999 SCT060 24/16 Q1014 NOSIG
12-08-14 METAR LIMC 140820Z VRB02KT 9999 FEW060 25/15 Q1014 NOSIG
12-08-14 METAR LIMC 140920Z VRB02KT CAVOK 26/15 Q1014 NOSIG
12-08-14 METAR LIMC 141020Z VRB02KT CAVOK 28/15 Q1014 NOSIG
12-08-14 METAR LIMC 141120Z 17003KT 140V200 CAVOK 28/16 Q1014 NOSIG
12-08-14 METAR LIMC 141220Z VRB01KT 9999 FEW035 30/16 Q1013 NOSIG
12-08-14 METAR LIMC 141320Z 22004KT 140V260 9999 FEW035 29/17 Q1013 NOSIG
12-08-14 METAR LIMC 141420Z VRB02KT 9999 FEW035 29/17 Q1012 NOSIG
12-08-14 METAR LIMC 141520Z 24003KT 210V280 CAVOK 29/16 Q1012 NOSIG
12-08-14 METAR LIMC 141620Z 24003KT 200V260 CAVOK 29/17 Q1012 NOSIG
12-08-14 METAR LIMC 141720Z 23003KT CAVOK 28/16 Q1012 NOSIG
12-08-14 METAR LIMC 141820Z 20002KT CAVOK 25/17 Q1013 NOSIG
12-08-14 METAR LIMC 141920Z 00000KT CAVOK 23/18 Q1013 NOSIG
12-08-14 METAR LIMC 142020Z 00000KT CAVOK 22/18 Q1014 NOSIG
12-08-14 METAR LIMC 142120Z 00000KT CAVOK 21/18 Q1014 NOSIG
12-08-14 METAR LIMC 142220Z 01001KT CAVOK 20/17 Q1014 NOSIG
12-08-14 METAR LIMC 142320Z 01002KT 9999 SCT080 21/18 Q1014 NOSIG
12-08-15 METAR LIMC 150020Z 36002KT 9999 SCT080 20/17 Q1014 NOSIG
12-08-15 METAR LIMC 150120Z VRB01KT CAVOK 19/17 Q1014 NOSIG
12-08-15 METAR LIMC 150220Z 01002KT CAVOK 19/17 Q1014 NOSIG
12-08-15 METAR LIMC 150320Z 01003KT 350V050 CAVOK 20/17 Q1014 NOSIG
12-08-15 METAR LIMC 150420Z 36003KT 340V040 9999 SCT070 20/17 Q1015 NOSIG
12-08-15 METAR LIMC 150520Z 36003KT 330V030 9999 SCT060 21/17 Q1015 NOSIG
12-08-15 METAR LIMC 150620Z 35004KT 9999 SCT060 22/18 Q1015 NOSIG
12-08-15 METAR LIMC 150720Z 01002KT 9999 SCT060 24/18 Q1016 NOSIG
12-08-15 METAR LIMC 150820Z 07003KT 020V100 9999 FEW060 26/17 Q1015 NOSIG
12-08-15 METAR LIMC 150920Z VRB02KT 9999 FEW050 27/18 Q1015 NOSIG
12-08-15 METAR LIMC 151020Z VRB01KT 9999 SCT050 28/17 Q1015 NOSIG
12-08-15 METAR LIMC 151120Z VRB02KT 9999 SCT040 29/18 Q1014 NOSIG
12-08-15 METAR LIMC 151220Z VRB02KT 9999 SCT040 30/17 Q1014 NOSIG
12-08-15 METAR LIMC 151320Z VRB01KT 9999 SCT040 31/17 Q1013 NOSIG
12-08-15 METAR LIMC 151420Z VRB02KT 9999 FEW040 31/17 Q1013 NOSIG
12-08-15 METAR LIMC 151520Z 19003KT 160V230 9999 FEW040 31/16 Q1013 NOSIG
12-08-15 METAR LIMC 151620Z 23004KT CAVOK 30/18 Q1012 NOSIG
12-08-15 METAR LIMC 151720Z 22003KT CAVOK 29/19 Q1012 NOSIG
12-08-15 METAR LIMC 151820Z VRB02KT CAVOK 26/19 Q1012 NOSIG
12-08-15 METAR LIMC 151920Z 00000KT CAVOK 25/19 Q1013 NOSIG
12-08-15 METAR LIMC 152020Z 00000KT CAVOK 23/19 Q1013 NOSIG
12-08-15 METAR LIMC 152120Z 17003KT CAVOK 24/16 Q1013 NOSIG
12-08-15 METAR LIMC 152220Z 19002KT CAVOK 23/16 Q1014 NOSIG
12-08-15 METAR LIMC 152320Z 00000KT CAVOK 21/16 Q1014 NOSIG
12-08-16 METAR LIMC 160020Z 00000KT CAVOK 20/16 Q1014 NOSIG
12-08-16 METAR LIMC 160120Z 00000KT CAVOK 20/16 Q1014 NOSIG
12-08-16 METAR LIMC 160220Z 09002KT CAVOK 20/16 Q1013 NOSIG
12-08-16 METAR LIMC 160320Z 00000KT CAVOK 18/16 Q1013 NOSIG
12-08-16 METAR LIMC 160420Z VRB01KT CAVOK 18/16 Q1014 NOSIG
12-08-16 METAR LIMC 160520Z 08002KT CAVOK 21/17 Q1014 NOSIG
12-08-16 METAR LIMC 160620Z VRB02KT CAVOK 23/18 Q1014 NOSIG
12-08-16 METAR LIMC 160720Z VRB02KT CAVOK 25/18 Q1015 NOSIG
12-08-16 METAR LIMC 160820Z VRB01KT 9999 FEW070 26/18 Q1015 NOSIG
12-08-16 METAR LIMC 160920Z VRB02KT 9999 SCT070 27/18 Q1015 NOSIG
12-08-16 METAR LIMC 161020Z 34003KT 290V010 CAVOK 28/17 Q1015 NOSIG
12-08-16 METAR LIMC 161120Z 30003KT CAVOK 29/18 Q1014 NOSIG
12-08-16 METAR LIMC 161220Z VRB03KT CAVOK 30/17 Q1014 NOSIG
12-08-16 METAR LIMC 161320Z 25003KT 210V300 CAVOK 31/17 Q1014 NOSIG
12-08-16 METAR LIMC 161420Z 22004KT 170V260 CAVOK 31/17 Q1014 NOSIG
12-08-16 METAR LIMC 161520Z 22004KT CAVOK 30/18 Q1013 NOSIG
12-08-16 METAR LIMC 161620Z 23004KT 9999 SCT080 29/19 Q1013 NOSIG
12-08-16 METAR LIMC 161720Z 21003KT 9999 SCT080 29/19 Q1013 NOSIG
12-08-16 METAR LIMC 161820Z 21001KT 9999 SCT080 27/19 Q1014 NOSIG
12-08-16 METAR LIMC 161920Z 00000KT CAVOK 25/19 Q1015 NOSIG
12-08-16 METAR LIMC 162020Z VRB02KT CAVOK 24/19 Q1015 NOSIG
12-08-16 METAR LIMC 162120Z VRB01KT CAVOK 24/19 Q1016 NOSIG
12-08-16 METAR LIMC 162220Z 00000KT CAVOK 22/19 Q1017 NOSIG
12-08-16 METAR LIMC 162320Z 00000KT CAVOK 22/19 Q1017 NOSIG
12-08-17 METAR LIMC 170020Z VRB01KT CAVOK 22/19 Q1017 NOSIG
12-08-17 METAR LIMC 170120Z 08002KT 9999 SCT070 22/19 Q1018 NOSIG
12-08-17 METAR LIMC 170220Z 01001KT 9999 FEW070 21/19 Q1018 NOSIG
12-08-17 METAR LIMC 170320Z VRB01KT 9999 FEW070 22/19 Q1018 NOSIG
12-08-17 METAR LIMC 170420Z VRB02KT 9999 FEW080 22/18 Q1018 NOSIG
12-08-17 METAR LIMC 170520Z VRB02KT 9999 SCT030 21/18 Q1019 NOSIG
12-08-17 METAR LIMC 170620Z VRB01KT 9999 FEW060 24/18 Q1019 NOSIG
12-08-17 METAR LIMC 170720Z VRB02KT 9999 FEW060 26/17 Q1019 NOSIG
12-08-17 METAR LIMC 170820Z VRB02KT 9999 SCT040 27/16 Q1020 NOSIG
12-08-17 METAR LIMC 171020Z VRB02KT CAVOK 30/16 Q1019 NOSIG
12-08-17 METAR LIMC 171120Z VRB02KT CAVOK 30/17 Q1019 NOSIG
12-08-17 METAR LIMC 171220Z VRB02KT CAVOK 31/16 Q1018 NOSIG
12-08-17 METAR LIMC 171320Z 24003KT 190V270 CAVOK 31/17 Q1018 NOSIG
12-08-17 METAR LIMC 171420Z 20003KT 150V220 CAVOK 32/17 Q1017 NOSIG
12-08-17 METAR LIMC 171520Z 23003KT 190V280 CAVOK 31/17 Q1017 NOSIG
12-08-17 METAR LIMC 171620Z 23003KT CAVOK 31/18 Q1017 NOSIG
12-08-17 METAR LIMC 171720Z 23003KT CAVOK 30/18 Q1017 NOSIG
12-08-17 METAR LIMC 171820Z VRB02KT CAVOK 27/19 Q1017 NOSIG
12-08-17 METAR LIMC 171920Z 00000KT CAVOK 26/19 Q1018 NOSIG
12-08-17 METAR LIMC 172020Z VRB01KT CAVOK 24/20 Q1018 NOSIG
12-08-17 METAR LIMC 172120Z 00000KT CAVOK 22/19 Q1019 NOSIG
12-08-17 METAR LIMC 172220Z 00000KT CAVOK 21/19 Q1019 NOSIG
12-08-17 METAR LIMC 172320Z 00000KT CAVOK 21/19 Q1019 NOSIG
12-08-18 METAR LIMC 180020Z 03001KT CAVOK 22/19 Q1019 NOSIG
12-08-18 METAR LIMC 180120Z 00000KT CAVOK 20/19 Q1019 NOSIG
12-08-18 METAR LIMC 180220Z VRB02KT CAVOK 22/19 Q1019 NOSIG
12-08-18 METAR LIMC 180320Z 01001KT CAVOK 22/18 Q1020 NOSIG
12-08-18 METAR LIMC 180420Z 36002KT CAVOK 21/19 Q1020 NOSIG
12-08-18 METAR LIMC 180520Z 36004KT CAVOK 23/19 Q1020 NOSIG
12-08-18 METAR LIMC 180620Z 34003KT CAVOK 24/20 Q1021 NOSIG
12-08-18 METAR LIMC 180720Z VRB02KT CAVOK 27/19 Q1021 NOSIG
12-08-18 METAR LIMC 180820Z VRB02KT CAVOK 29/18 Q1021 NOSIG
12-08-18 METAR LIMC 180920Z VRB01KT CAVOK 30/17 Q1021 NOSIG
12-08-18 METAR LIMC 181020Z VRB03KT CAVOK 31/17 Q1021 NOSIG
12-08-18 METAR LIMC 181120Z VRB02KT CAVOK 32/17 Q1020 NOSIG
12-08-18 METAR LIMC 181220Z VRB02KT CAVOK 33/17 Q1020 NOSIG
12-08-18 METAR LIMC 181320Z 20003KT 090V250 CAVOK 33/18 Q1019 NOSIG
12-08-18 METAR LIMC 181420Z 20004KT 160V250 CAVOK 33/18 Q1019 NOSIG
12-08-18 METAR LIMC 181520Z 23004KT 190V260 CAVOK 33/18 Q1019 NOSIG
12-08-18 METAR LIMC 181620Z 24004KT CAVOK 32/18 Q1019 NOSIG
12-08-18 METAR LIMC 181720Z 23003KT CAVOK 31/18 Q1019 NOSIG
12-08-18 METAR LIMC 181820Z 20001KT CAVOK 29/19 Q1019 NOSIG
12-08-18 METAR LIMC 181920Z 00000KT CAVOK 27/19 Q1020 NOSIG
12-08-18 METAR LIMC 182020Z VRB01KT CAVOK 27/19 Q1020 NOSIG
12-08-18 METAR LIMC 182120Z 00000KT CAVOK 23/19 Q1021 NOSIG
12-08-18 METAR LIMC 182220Z 00000KT CAVOK 22/19 Q1021 NOSIG
12-08-18 METAR LIMC 182320Z 36002KT CAVOK 22/19 Q1021 NOSIG
12-08-19 METAR LIMC 190020Z 35002KT CAVOK 22/19 Q1021 NOSIG
12-08-19 METAR LIMC 190120Z NIL
12-08-19 METAR LIMC 190220Z VRB02KT CAVOK 21/19 Q1022 NOSIG
12-08-19 METAR LIMC 190320Z NIL
12-08-19 METAR LIMC 190320Z 36002KT CAVOK 22/19 Q1022 NOSIG
12-08-19 METAR LIMC 190420Z 35003KT CAVOK 22/20 Q1022 NOSIG
12-08-19 METAR LIMC 190520Z 00000KT CAVOK 23/20 Q1022 NOSIG
12-08-19 METAR LIMC 190620Z VRB02KT CAVOK 25/20 Q1022 NOSIG
12-08-19 METAR LIMC 190720Z VRB02KT CAVOK 27/20 Q1023 NOSIG
12-08-19 METAR LIMC 190820Z VRB01KT CAVOK 30/14 Q1023 NOSIG
12-08-19 METAR LIMC 190920Z VRB02KT CAVOK 31/17 Q1023 NOSIG
12-08-19 METAR LIMC 191020Z VRB02KT CAVOK 32/16 Q1022 NOSIG
12-08-19 METAR LIMC 191120Z VRB02KT CAVOK 33/15 Q1022 NOSIG
12-08-19 METAR LIMC 191220Z VRB02KT CAVOK 33/17 Q1021 NOSIG
12-08-19 METAR LIMC 191320Z VRB04KT CAVOK 33/16 Q1021 NOSIG
12-08-19 METAR LIMC 191420Z VRB02KT CAVOK 34/16 Q1021 NOSIG
12-08-19 METAR LIMC 191520Z VRB02KT CAVOK 33/16 Q1020 NOSIG
12-08-19 METAR LIMC 191620Z VRB02KT CAVOK 33/17 Q1020 NOSIG
12-08-19 METAR LIMC 191720Z VRB02KT CAVOK 32/18 Q1020 NOSIG
12-08-19 METAR LIMC 191820Z 23002KT CAVOK 29/19 Q1021 NOSIG
12-08-19 METAR LIMC 191920Z 00000KT CAVOK 27/19 Q1021 NOSIG
12-08-19 METAR LIMC 192020Z VRB02KT CAVOK 26/19 Q1022 NOSIG
12-08-19 METAR LIMC 192120Z 00000KT CAVOK 23/19 Q1022 NOSIG
12-08-19 METAR LIMC 192220Z 00000KT CAVOK 23/19 Q1022 NOSIG
12-08-19 METAR LIMC 192320Z 36002KT CAVOK 23/19 Q1022 NOSIG
12-08-20 METAR LIMC 200020Z 36002KT CAVOK 22/19 Q1022 NOSIG
12-08-20 METAR LIMC 200120Z 35001KT CAVOK 21/18 Q1021 NOSIG
12-08-20 METAR LIMC 200220Z 35002KT CAVOK 22/19 Q1021 NOSIG
12-08-20 METAR LIMC 200320Z 36002KT CAVOK 22/19 Q1021 NOSIG
12-08-20 METAR LIMC 200420Z VRB01KT CAVOK 21/18 Q1022 NOSIG
12-08-20 METAR LIMC 200520Z VRB01KT CAVOK 24/19 Q1022 NOSIG
12-08-20 METAR LIMC 200620Z VRB01KT CAVOK 25/19 Q1022 NOSIG
12-08-20 METAR LIMC 200720Z VRB02KT CAVOK 28/20 Q1022 NOSIG
12-08-20 METAR LIMC 200820Z 00000KT CAVOK 30/18 Q1022 NOSIG
12-08-20 METAR LIMC 200920Z VRB02KT CAVOK 31/19 Q1021 NOSIG
12-08-20 METAR LIMC 201020Z 15005KT 100V200 CAVOK 32/18 Q1021 NOSIG
12-08-20 METAR LIMC 201120Z VRB03KT CAVOK 33/17 Q1021 NOSIG
12-08-20 METAR LIMC 201220Z 22003KT 170V300 CAVOK 33/17 Q1020 NOSIG
12-08-20 METAR LIMC 201320Z VRB02KT CAVOK 34/17 Q1019 NOSIG
12-08-20 METAR LIMC 201420Z 15004KT 110V200 CAVOK 34/17 Q1019 NOSIG
12-08-20 METAR LIMC 201520Z 24003KT 180V280 CAVOK 34/18 Q1019 NOSIG
12-08-20 METAR LIMC 201620Z 22003KT CAVOK 32/19 Q1019 NOSIG
12-08-20 METAR LIMC 201720Z 20002KT 9999 FEW080 31/19 Q1019 NOSIG
12-08-20 METAR LIMC 201820Z 28003KT CAVOK 30/20 Q1019 NOSIG
12-08-20 METAR LIMC 201920Z 36002KT CAVOK 29/20 Q1019 NOSIG
12-08-20 METAR LIMC 202020Z 00000KT CAVOK 25/20 Q1019 NOSIG
12-08-20 METAR LIMC 202120Z 35003KT CAVOK 26/21 Q1019 NOSIG
12-08-20 METAR LIMC 202220Z 35003KT CAVOK 25/21 Q1019 NOSIG
12-08-20 METAR LIMC 202320Z 36002KT CAVOK 24/21 Q1019 NOSIG
12-08-21 METAR LIMC 210020Z 35001KT CAVOK 24/20 Q1019 NOSIG
12-08-21 METAR LIMC 210120Z 34002KT CAVOK 23/19 Q1019 NOSIG
12-08-21 METAR LIMC 210220Z 01002KT CAVOK 23/18 Q1019 NOSIG
12-08-21 METAR LIMC 210320Z 01002KT CAVOK 23/18 Q1018 NOSIG
12-08-21 METAR LIMC 210420Z 01003KT CAVOK 24/18 Q1019 NOSIG
12-08-21 METAR LIMC 210520Z VRB01KT 9999 BKN060 24/18 Q1019 NOSIG
12-08-21 METAR LIMC 210620Z VRB02KT CAVOK 26/17 Q1019 NOSIG
12-08-21 METAR LIMC 210720Z VRB02KT CAVOK 28/18 Q1019 NOSIG
12-08-21 METAR LIMC 210820Z VRB01KT CAVOK 30/18 Q1019 NOSIG
12-08-21 METAR LIMC 210920Z VRB02KT CAVOK 31/17 Q1018 NOSIG
12-08-21 METAR LIMC 211020Z VRB01KT CAVOK 33/17 Q1018 NOSIG
12-08-21 METAR LIMC 211120Z 24003KT 170V270 CAVOK 33/17 Q1018 NOSIG
12-08-21 METAR LIMC 211220Z 24004KT 180V280 CAVOK 34/18 Q1017 NOSIG
12-08-21 METAR LIMC 211320Z 22004KT 190V250 CAVOK 34/18 Q1016 NOSIG
12-08-21 METAR LIMC 211420Z 23004KT 200V270 CAVOK 34/18 Q1016 NOSIG
12-08-21 METAR LIMC 211520Z 23003KT 190V260 9999 SCT080 34/17 Q1016 NOSIG
12-08-21 METAR LIMC 211620Z 21003KT CAVOK 34/17 Q1016 NOSIG
12-08-21 METAR LIMC 211720Z 26003KT CAVOK 33/18 Q1015 NOSIG
12-08-21 METAR LIMC 211820Z VRB01KT CAVOK 31/19 Q1015 NOSIG
12-08-21 METAR LIMC 211920Z 35003KT CAVOK 29/20 Q1016 NOSIG
12-08-21 METAR LIMC 212020Z 00000KT CAVOK 27/20 Q1016 NOSIG
12-08-21 METAR LIMC 212120Z 04001KT CAVOK 26/21 Q1016 NOSIG
12-08-21 METAR LIMC 212220Z 36002KT CAVOK 25/21 Q1017 NOSIG
12-08-21 METAR LIMC 212320Z 34002KT CAVOK 24/21 Q1017 NOSIG
12-08-22 METAR LIMC 220020Z VRB02KT CAVOK 25/20 Q1017 NOSIG
12-08-22 METAR LIMC 220120Z 36002KT CAVOK 25/20 Q1017 NOSIG
12-08-22 METAR LIMC 220220Z 35003KT CAVOK 24/20 Q1017 NOSIG
12-08-22 METAR LIMC 220320Z 00000KT CAVOK 24/20 Q1017 NOSIG
12-08-22 METAR LIMC 220420Z 02002KT 9999 SCT050 24/20 Q1017 NOSIG
12-08-22 METAR LIMC 220520Z 02003KT 350V050 9999 FEW050 25/20 Q1017 NOSIG
12-08-22 METAR LIMC 220620Z 02002KT 9999 SCT080 26/20 Q1017 NOSIG
12-08-22 METAR LIMC 220720Z VRB02KT 9999 SCT080 28/19 Q1017 NOSIG
12-08-22 METAR LIMC 220820Z VRB02KT CAVOK 30/18 Q1017 NOSIG
12-08-22 METAR LIMC 220920Z VRB02KT CAVOK 32/16 Q1017 NOSIG
12-08-22 METAR LIMC 221020Z VRB01KT CAVOK 33/15 Q1017 NOSIG
12-08-22 METAR LIMC 221120Z VRB02KT CAVOK 34/17 Q1016 NOSIG
12-08-22 METAR LIMC 221220Z 19003KT 140V250 CAVOK 34/17 Q1016 NOSIG
12-08-22 METAR LIMC 221320Z VRB03KT CAVOK 34/17 Q1015 NOSIG
12-08-22 METAR LIMC 221420Z 20003KT 150V250 CAVOK 35/17 Q1014 NOSIG
12-08-22 METAR LIMC 221520Z 22003KT 160V250 9999 SCT080 35/16 Q1014 NOSIG
12-08-22 METAR LIMC 221620Z 19003KT 150V230 CAVOK 34/15 Q1014 NOSIG
12-08-22 METAR LIMC 221720Z 00000KT CAVOK 34/16 Q1014 NOSIG
12-08-22 METAR LIMC 221820Z VRB01KT CAVOK 30/15 Q1014 NOSIG
12-08-22 METAR LIMC 221920Z 16001KT CAVOK 29/16 Q1014 NOSIG
12-08-22 METAR LIMC 222020Z 17003KT 9999 SCT070 28/18 Q1015 NOSIG
12-08-22 METAR LIMC 222120Z 26003KT 9999 BKN070 28/18 Q1016 NOSIG
12-08-22 METAR LIMC 222220Z 02007KT 9999 TSRA FEW020CB BKN050 22/19 Q1015 NOSIG
12-08-22 METAR LIMC 222320Z VRB02KT 9999 TS FEW020CB BKN060 22/19 Q1016 NOSIG
12-08-23 METAR LIMC 230020Z VRB02KT 9999 SCT070 22/19 Q1016 RETS NOSIG
12-08-23 METAR LIMC 230120Z 00000KT 9999 SCT070 21/19 Q1016 NOSIG
12-08-23 METAR LIMC 230220Z 02002KT 9999 FEW070 21/18 Q1016 NOSIG
12-08-23 METAR LIMC 230320Z 34003KT 9999 FEW070 21/18 Q1016 NOSIG
12-08-23 METAR LIMC 230420Z 36003KT CAVOK 20/18 Q1016 NOSIG
12-08-23 METAR LIMC 230520Z 36003KT CAVOK 22/18 Q1016 NOSIG
12-08-23 METAR LIMC 230620Z 05003KT 010V080 CAVOK 24/19 Q1016 NOSIG
12-08-23 METAR LIMC 230720Z 05003KT 350V110 CAVOK 26/19 Q1016 NOSIG
12-08-23 METAR LIMC 230820Z 09003KT 340V130 CAVOK 28/20 Q1017 NOSIG
12-08-23 METAR LIMC 230920Z 11003KT 080V150 9999 FEW045 29/19 Q1017 NOSIG
12-08-23 METAR LIMC 231020Z 21002KT 9999 FEW030 30/19 Q1017 NOSIG
12-08-23 METAR LIMC 231120Z VRB02KT 9999 FEW030 31/18 Q1016 NOSIG
12-08-23 METAR LIMC 231220Z VRB03KT 9999 FEW030 32/17 Q1015 NOSIG
12-08-23 METAR LIMC 231320Z 18003KT 100V230 9999 FEW030 32/16 Q1014 NOSIG
12-08-23 METAR LIMC 231420Z 20004KT 140V250 9999 FEW030 32/17 Q1014 NOSIG
12-08-23 METAR LIMC 231520Z 23005KT 9999 FEW030 30/20 Q1015 NOSIG
12-08-23 METAR LIMC 231620Z 00000KT 9999 BKN060 30/19 Q1013 NOSIG
12-08-23 METAR LIMC 231720Z 33005KT 9999 BKN060 29/20 Q1013 NOSIG
12-08-23 METAR LIMC 231820Z 34004KT 9999 SCT080 27/18 Q1013 NOSIG
12-08-23 METAR LIMC 231920Z 34003KT CAVOK 26/19 Q1014 NOSIG
12-08-23 METAR LIMC 232020Z 34003KT CAVOK 25/18 Q1014 NOSIG
12-08-23 METAR LIMC 232120Z 01002KT CAVOK 23/18 Q1014 NOSIG
12-08-23 METAR LIMC 232220Z 01002KT CAVOK 24/18 Q1013 NOSIG
12-08-23 METAR LIMC 232320Z 34002KT 9999 SCT070 23/18 Q1014 NOSIG
12-08-24 METAR LIMC 240020Z 36002KT 9999 SCT070 23/18 Q1013 NOSIG
12-08-24 METAR LIMC 240120Z 36001KT CAVOK 21/18 Q1013 NOSIG
12-08-24 METAR LIMC 240220Z 00000KT CAVOK 21/18 Q1013 NOSIG
12-08-24 METAR LIMC 240320Z 03001KT CAVOK 21/18 Q1012 NOSIG
12-08-24 METAR LIMC 240420Z 00000KT 9999 FEW060 19/17 Q1012 NOSIG
12-08-24 METAR LIMC 240520Z 01003KT 9999 9000NW FEW060 21/18 Q1012 NOSIG
12-08-24 METAR LIMC 240620Z 07002KT 9999 SCT070 23/19 Q1013 NOSIG
12-08-24 METAR LIMC 240720Z 09002KT 9999 SCT070 25/20 Q1013 NOSIG
12-08-24 METAR LIMC 240820Z 14003KT 090V210 9999 SCT070 27/21 Q1013 NOSIG
12-08-24 METAR LIMC 240920Z VRB02KT 9999 SCT030 BKN070 27/21 Q1013 NOSIG
12-08-24 METAR LIMC 241020Z 20003KT 160V240 9999 BKN030 28/20 Q1013 NOSIG
12-08-24 METAR LIMC 241120Z 19003KT 150V240 9999 BKN030 29/20 Q1013 NOSIG
12-08-24 METAR LIMC 241220Z 23003KT 180V260 9999 SCT050 29/20 Q1012 NOSIG
12-08-24 METAR LIMC 241320Z 18003KT 090V250 9999 SCT050 31/19 Q1012 NOSIG
12-08-24 METAR LIMC 241420Z 18003KT 150V220 9999 FEW040 SCT060 31/19 Q1011 NOSIG
12-08-24 METAR LIMC 241520Z VRB03KT 9999 FEW040 SCT060 32/19 Q1010 NOSIG
12-08-24 METAR LIMC 241620Z VRB02KT 9999 FEW040 SCT060 31/19 Q1010 NOSIG
12-08-24 METAR LIMC 241720Z 15003KT 9999 SCT050 30/19 Q1010 NOSIG
12-08-24 METAR LIMC 241820Z 17002KT 9999 SCT050 28/19 Q1010 NOSIG
12-08-24 METAR LIMC 241920Z 15003KT 120V180 9999 BKN050 27/18 Q1010 NOSIG
12-08-24 METAR LIMC 242020Z 16001KT 9999 BKN050 26/17 Q1011 NOSIG
12-08-24 METAR LIMC 242120Z 16002KT 9999 BKN050 25/17 Q1011 NOSIG
12-08-24 METAR LIMC 242220Z 00000KT 9999 BKN050 25/17 Q1011 NOSIG
12-08-24 METAR LIMC 242320Z 00000KT 9999 FEW070 22/18 Q1011 NOSIG
12-08-25 METAR LIMC 250020Z 35002KT 9999 FEW070 23/19 Q1011 NOSIG
12-08-25 METAR LIMC 250120Z 08003KT 060V230 9999 FEW070 24/18 Q1011 NOSIG
12-08-25 METAR LIMC 250220Z VRB02KT 9999 SCT050 23/19 Q1011 NOSIG
12-08-25 METAR LIMC 250320Z 09002KT 9999 SCT050 22/18 Q1011 NOSIG
12-08-25 METAR LIMC 250420Z VRB01KT 9999 SCT050 22/19 Q1011 NOSIG
12-08-25 METAR LIMC 250520Z VRB02KT 9999 SCT070 22/19 Q1011 NOSIG
12-08-25 METAR LIMC 250620Z VRB01KT 9999 SCT080 24/20 Q1011 NOSIG
12-08-25 METAR LIMC 250720Z VRB01KT 9999 FEW080 26/20 Q1012 NOSIG
12-08-25 METAR LIMC 250820Z VRB02KT 9999 FEW080 28/18 Q1012 NOSIG
12-08-25 METAR LIMC 250920Z 19003KT 120V250 9999 FEW080 29/18 Q1012 NOSIG
12-08-25 METAR LIMC 251020Z VRB02KT 9999 SCT050 29/17 Q1012 NOSIG
12-08-25 METAR LIMC 251120Z 14004KT 100V190 9999 SCT050 30/18 Q1012 NOSIG
12-08-25 METAR LIMC 251220Z 13004KT 080V180 9999 SCT040 SCT070 31/18 Q1011 NOSIG
12-08-25 METAR LIMC 251320Z 17003KT 120V220 9999 SCT030 SCT070 31/18 Q1011 NOSIG
12-08-25 METAR LIMC 251420Z 15004KT 120V180 9999 SCT030 SCT070 30/18 Q1010 NOSIG
12-08-25 METAR LIMC 251520Z 16003KT 9999 SCT030 31/17 Q1009 NOSIG
12-08-25 METAR LIMC 251620Z 17005KT 140V200 9999 FEW025CB SCT030 31/16 Q1008 NOSIG
12-08-25 METAR LIMC 251720Z 18004KT 9999 FEW025CB SCT040 BKN070 29/17 Q1008 NOSIG
12-08-25 METAR LIMC 251820Z 17003KT 140V200 9999 -RA FEW030CB BKN050 27/18 Q1009 TREND BECMG TS
12-08-25 METAR LIMC 251920Z VRB01KT 9999 RA VCTS FEW030CB BKN050 23/21 Q1010 BECMG TS
12-08-25 METAR LIMC 252120Z 36003KT 330V040 9999 FEW030CB BKN050 21/18 Q1011 BECMG
12-08-25 METAR LIMC 252220Z 01003KT 340V040 9999 SCT050 20/18 Q1011 NOSIG
12-08-25 METAR LIMC 252320Z 35003KT 9999 SCT050 19/18 Q1011 NOSIG
12-08-26 METAR LIMC 260020Z 35003KT 9999 SCT050 19/18 Q1010 NOSIG
12-08-26 METAR LIMC 260120Z 36003KT 9999 FEW050 19/18 Q1010 NOSIG
12-08-26 METAR LIMC 260220Z 33002KT CAVOK 18/17 Q1010 NOSIG
12-08-26 METAR LIMC 260320Z 36002KT CAVOK 17/16 Q1009 NOSIG
12-08-26 METAR LIMC 260420Z VRB02KT CAVOK 17/16 Q1009 NOSIG
12-08-26 METAR LIMC 260520Z 35004KT CAVOK 19/17 Q1010 NOSIG
12-08-26 METAR LIMC 260620Z 36003KT CAVOK 20/17 Q1010 NOSIG
12-08-26 METAR LIMC 260720Z 34003KT 300V010 CAVOK 23/16 Q1010 NOSIG
12-08-26 METAR LIMC 260820Z 33006KT CAVOK 26/12 Q1010 NOSIG
12-08-26 METAR LIMC 260920Z 32007KT CAVOK 28/07 Q1010 NOSIG
12-08-26 METAR LIMC 261020Z 34007KT CAVOK 29/05 Q1010 NOSIG
12-08-26 METAR LIMC 261120Z 34008KT 300V010 CAVOK 30/04 Q1010 NOSIG
12-08-26 METAR LIMC 261220Z 34010KT CAVOK 31/M01 Q1010 NOSIG
12-08-26 METAR LIMC 261320Z 33009KT 290V350 CAVOK 31/M01 Q1010 NOSIG
12-08-26 METAR LIMC 261420Z 34011KT 310V010 CAVOK 30/M01 Q1010 NOSIG
12-08-26 METAR LIMC 261520Z 36008KT 330V040 CAVOK 30/00 Q1010 NOSIG
12-08-26 METAR LIMC 261620Z 01006KT 330V040 CAVOK 29/M01 Q1011 NOSIG
12-08-26 METAR LIMC 261720Z 01004KT CAVOK 27/02 Q1011 NOSIG
12-08-26 METAR LIMC 261820Z 02005KT 350V060 CAVOK 25/02 Q1012 NOSIG
12-08-26 METAR LIMC 261920Z VRB05KT CAVOK 24/02 Q1014 NOSIG
12-08-26 METAR LIMC 262020Z 02007KT CAVOK 24/01 Q1014 NOSIG
12-08-26 METAR LIMC 262120Z 03007KT 340V060 CAVOK 24/01 Q1015 NOSIG
12-08-26 METAR LIMC 262220Z 02004KT 360V060 CAVOK 23/02 Q1017 NOSIG
12-08-26 METAR LIMC 262320Z 10004KT 060V140 CAVOK 21/10 Q1018 NOSIG
12-08-27 METAR LIMC 270020Z VRB02KT CAVOK 19/11 Q1019 NOSIG
12-08-27 METAR LIMC 270120Z VRB01KT CAVOK 17/11 Q1019 NOSIG
12-08-27 METAR LIMC 270220Z 35002KT CAVOK 14/11 Q1019 NOSIG
12-08-27 METAR LIMC 270320Z 35003KT CAVOK 13/11 Q1020 NOSIG
12-08-27 METAR LIMC 270420Z 01002KT CAVOK 13/10 Q1020 NOSIG
12-08-27 METAR LIMC 270520Z 36003KT CAVOK 15/12 Q1021 NOSIG
12-08-27 METAR LIMC 270620Z VRB02KT CAVOK 19/13 Q1021 NOSIG
12-08-27 METAR LIMC 270720Z VRB02KT CAVOK 21/11 Q1021 NOSIG
12-08-27 METAR LIMC 270820Z VRB02KT CAVOK 23/09 Q1021 NOSIG
12-08-27 METAR LIMC 270920Z VRB01KT CAVOK 24/10 Q1021 NOSIG
12-08-27 METAR LIMC 271020Z VRB02KT CAVOK 25/07 Q1021 NOSIG
12-08-27 METAR LIMC 271120Z VRB02KT CAVOK 27/07 Q1020 NOSIG
12-08-27 METAR LIMC 271220Z 29003KT 220V030 CAVOK 27/09 Q1020 NOSIG
12-08-27 METAR LIMC 271320Z 16004KT 110V230 CAVOK 27/08 Q1020 NOSIG
12-08-27 METAR LIMC 271420Z 20003KT 120V240 CAVOK 28/08 Q1020 NOSIG
12-08-27 METAR LIMC 271520Z VRB02KT CAVOK 28/07 Q1019 NOSIG
12-08-27 METAR LIMC 271620Z 23003KT 200V260 CAVOK 28/08 Q1019 NOSIG
12-08-27 METAR LIMC 271720Z 22003KT CAVOK 26/08 Q1019 NOSIG
12-08-27 METAR LIMC 271820Z 22003KT CAVOK 23/08 Q1019 NOSIG
12-08-27 METAR LIMC 271920Z VRB01KT CAVOK 20/10 Q1020 NOSIG
12-08-27 METAR LIMC 272020Z VRB01KT CAVOK 19/10 Q1021 NOSIG
12-08-27 METAR LIMC 272120Z 01001KT CAVOK 17/11 Q1021 NOSIG
12-08-27 METAR LIMC 272220Z 36002KT CAVOK 15/10 Q1021 NOSIG
12-08-27 METAR LIMC 272320Z VRB01KT CAVOK 15/11 Q1021 NOSIG
12-08-28 METAR LIMC 280020Z 34002KT CAVOK 16/11 Q1021 NOSIG
12-08-28 METAR LIMC 280120Z 01002KT CAVOK 15/11 Q1021 NOSIG
12-08-28 METAR LIMC 280220Z VRB01KT CAVOK 15/11 Q1021 NOSIG
12-08-28 METAR LIMC 280320Z 00000KT CAVOK 15/11 Q1021 NOSIG
12-08-28 METAR LIMC 280420Z 36002KT CAVOK 14/10 Q1022 NOSIG
12-08-28 METAR LIMC 280520Z 36004KT 340V070 CAVOK 17/12 Q1022 NOSIG
12-08-28 METAR LIMC 280620Z 35003KT CAVOK 19/12 Q1022 NOSIG
12-08-28 METAR LIMC 280720Z VRB02KT CAVOK 22/12 Q1022 NOSIG
12-08-28 METAR LIMC 280820Z VRB02KT CAVOK 25/10 Q1022 NOSIG
12-08-28 METAR LIMC 280920Z VRB02KT CAVOK 26/08 Q1022 NOSIG
12-08-28 METAR LIMC 281020Z VRB02KT CAVOK 27/09 Q1022 NOSIG
12-08-28 METAR LIMC 281120Z VRB02KT 9999 BKN080 28/08 Q1021 NOSIG
12-08-28 METAR LIMC 281220Z VRB02KT 9999 SCT080 28/09 Q1020 NOSIG
12-08-28 METAR LIMC 281320Z 17003KT 120V210 9999 BKN060 28/09 Q1020 NOSIG
12-08-28 METAR LIMC 281420Z 22004KT 190V270 9999 SCT070 28/10 Q1019 NOSIG
12-08-28 METAR LIMC 281520Z 24003KT 210V270 9999 SCT070 28/10 Q1019 NOSIG
12-08-28 METAR LIMC 281620Z 22003KT CAVOK 27/10 Q1019 NOSIG
12-08-28 METAR LIMC 281720Z 24003KT 9999 BKN080 26/11 Q1019 NOSIG
12-08-28 METAR LIMC 281820Z VRB02KT CAVOK 23/12 Q1019 NOSIG
12-08-28 METAR LIMC 281920Z VRB01KT CAVOK 21/12 Q1019 NOSIG
12-08-28 METAR LIMC 282020Z 36001KT CAVOK 18/12 Q1020 NOSIG
12-08-28 METAR LIMC 282120Z 35002KT CAVOK 19/13 Q1020 NOSIG
12-08-28 METAR LIMC 282220Z 00000KT CAVOK 18/13 Q1020 NOSIG
12-08-28 METAR LIMC 282320Z VRB01KT CAVOK 18/13 Q1020 NOSIG
12-08-29 METAR LIMC 290020Z 00000KT CAVOK 17/13 Q1019 NOSIG
12-08-29 METAR LIMC 290120Z VRB01KT CAVOK 16/13 Q1019 NOSIG
12-08-29 METAR LIMC 290220Z 00000KT CAVOK 17/13 Q1019 NOSIG
12-08-29 METAR LIMC 290320Z 36002KT CAVOK 16/13 Q1019 NOSIG
12-08-29 METAR LIMC 290420Z VRB02KT CAVOK 16/13 Q1020 NOSIG
12-08-29 METAR LIMC 290520Z VRB02KT CAVOK 17/13 Q1020 NOSIG
12-08-29 METAR LIMC 290620Z VRB02KT CAVOK 19/14 Q1020 NOSIG
12-08-29 METAR LIMC 290720Z VRB02KT 9999 SCT080 22/14 Q1021 NOSIG
12-08-29 METAR LIMC 290820Z VRB02KT 9999 SCT080 24/13 Q1021 NOSIG
12-08-29 METAR LIMC 290920Z VRB01KT CAVOK 27/12 Q1020 NOSIG
12-08-29 METAR LIMC 291020Z VRB02KT CAVOK 28/13 Q1020 NOSIG
12-08-29 METAR LIMC 291120Z VRB02KT CAVOK 29/11 Q1020 NOSIG
12-08-29 METAR LIMC 291220Z 23003KT 180V310 CAVOK 29/13 Q1019 NOSIG
12-08-29 METAR LIMC 291320Z VRB01KT CAVOK 30/12 Q1018 NOSIG
12-08-29 METAR LIMC 291420Z 23004KT 200V270 CAVOK 30/12 Q1018 NOSIG
12-08-29 METAR LIMC 291520Z 23004KT CAVOK 30/12 Q1018 NOSIG
12-08-29 METAR LIMC 291720Z VRB01KT 9999 BKN060 27/14 Q1018 NOSIG
12-08-29 METAR LIMC 291820Z 00000KT 9999 BKN050 26/15 Q1018 NOSIG
12-08-29 METAR LIMC 291920Z 36003KT 9999 BKN050 26/15 Q1019 NOSIG
12-08-29 METAR LIMC 292020Z VRB02KT 9999 BKN050 25/16 Q1019 NOSIG
12-08-29 METAR LIMC 292120Z 35003KT 9999 SCT070 23/15 Q1019 NOSIG
12-08-29 METAR LIMC 292220Z 00000KT 9999 SCT070 22/15 Q1019 NOSIG
12-08-29 METAR LIMC 292320Z 02001KT 9999 SCT070 21/16 Q1018 NOSIG
12-08-30 METAR LIMC 300020Z 35003KT 9999 FEW070 20/15 Q1018 NOSIG
12-08-30 METAR LIMC 300120Z 35003KT CAVOK 20/15 Q1018 NOSIG
12-08-30 METAR LIMC 300220Z 02003KT 9999 FEW060 20/15 Q1018 NOSIG
12-08-30 METAR LIMC 300320Z 36004KT 9999 FEW060 21/14 Q1018 NOSIG
12-08-30 METAR LIMC 300420Z 36002KT 9999 FEW060 20/14 Q1018 NOSIG
12-08-30 METAR LIMC 300520Z 36004KT 9999 SCT050 BKN070 22/14 Q1018 NOSIG
12-08-30 METAR LIMC 300620Z 01003KT 9999 SCT060 BKN080 21/14 Q1018 NOSIG
12-08-30 METAR LIMC 300720Z 34002KT 9999 BKN060 BKN080 22/15 Q1018 NOSIG
12-08-30 METAR LIMC 300820Z 35003KT 9999 -RA BKN060 BKN080 21/18 Q1018 NOSIG
12-08-30 METAR LIMC 300920Z 35005KT 9999 BKN060 BKN080 21/17 Q1018 NOSIG
12-08-30 METAR LIMC 301020Z 36005KT 9999 -RA BKN040 BKN080 20/17 Q1018 NOSIG
12-08-30 METAR LIMC 301120Z 33004KT 9999 -RA BKN040 BKN080 20/18 Q1018 NOSIG
12-08-30 METAR LIMC 301220Z 35005KT 9999 BKN040 BKN080 21/18 Q1017 NOSIG
12-08-30 METAR LIMC 301320Z 35003KT 9999 BKN040 BKN080 20/18 Q1017 NOSIG
12-08-30 METAR LIMC 301420Z 36004KT 9999 BKN040 BKN060 21/17 Q1016 NOSIG
12-08-30 METAR LIMC 301520Z 36005KT 340V050 9999 SCT050 BKN070 22/17 Q1016 NOSIG
12-08-30 METAR LIMC 301620Z 36004KT 330V030 9999 SCT050 BKN070 22/17 Q1016 NOSIG
12-08-30 METAR LIMC 301720Z 06003KT 340V090 9999 SCT050 BKN070 21/17 Q1016 NOSIG
12-08-30 METAR LIMC 301820Z NIL
12-08-30 METAR LIMC 301920Z NIL
12-08-30 METAR LIMC 302020Z NIL
12-08-30 METAR LIMC 302120Z NIL
12-08-30 METAR LIMC 302220Z 01002KT 9999 SCT060 18/17 Q1015 NOSIG
12-08-30 METAR LIMC 302320Z 04001KT 9999 SCT060 18/17 Q1015 NOSIG
12-08-31 METAR LIMC 310020Z 36002KT 9999 SCT060 18/17 Q1014 NOSIG
12-08-31 METAR LIMC 310120Z NIL
12-08-31 METAR LIMC 310220Z 36002KT 9999 SCT060 18/17 Q1013 NOSIG
12-08-31 METAR LIMC 310320Z 01002KT 9999 -RA SCT060 18/17 Q1012 NOSIG
12-08-31 METAR LIMC 310420Z VRB02KT 9999 -RA BKN040 18/17 Q1012 NOSIG
12-08-31 METAR LIMC 310520Z 29003KT 240V360 9999 BKN040 18/14 Q1012 NOSIG
12-08-31 METAR LIMC 310620Z 36004KT 330V040 9999 RA SCT030 BKN040 16/13 Q1012 NOSIG
12-08-31 METAR LIMC 310720Z 02006KT 9999 -RA BKN040 BKN050 15/13 Q1012 RERA NOSIG
12-08-31 METAR LIMC 310820Z 01004KT 340V060 9999 SCT040 BKN050 16/11 Q1012 NOSIG
12-08-31 METAR LIMC 310920Z 02008KT 350V050 9999 SCT040 SCT050 19/09 Q1012 NOSIG
12-08-31 METAR LIMC 311020Z 03008KT 9999 -RA SCT040 BKN050 20/09 Q1010 NOSIG
12-08-31 METAR LIMC 311120Z 02009KT 350V050 9999 BKN070 22/07 Q1010 NOSIG
12-08-31 METAR LIMC 311220Z 01008KT 350V050 9999 FEW050 BKN070 22/05 Q1010 NOSIG
12-08-31 METAR LIMC 311320Z 02006KT 9999 SCT050 BKN070 23/05 Q1010 NOSIG
12-08-31 METAR LIMC 311420Z 03006KT 9999 SCT060 BKN080 23/05 Q1010 NOSIG
12-08-31 METAR LIMC 311520Z NIL
12-08-31 METAR LIMC 311620Z NIL
12-08-31 METAR LIMC 311720Z NIL
12-08-31 METAR LIMC 311820Z 07004KT 030V140 9999 -RA BKN050 BKN070 17/11 Q1012 NOSIG
12-08-31 METAR LIMC 311920Z 10004KT 9999 BKN050 BKN070 16/14 Q1013 NOSIG
12-08-31 METAR LIMC 312020Z VRB03KT 9999 -RA BKN040 17/11 Q1013 NOSIG
12-08-31 METAR LIMC 312120Z 01009KT 9999 -RA BKN035 17/07 Q1013 NOSIG
12-08-31 METAR LIMC 312220Z 34006KT 9999 -RA BKN035 16/08 Q1013 NOSIG
12-08-31 METAR LIMC 312320Z NIL
12-08-31 METAR LIMC 312320Z 03004KT 9999 -RA BKN035 16/08 Q1013 NOSIG
12-09-01 METAR LIMC 010020Z 36006KT 9999 -RA BKN035 15/09 Q1013 RERA NOSIG
12-09-01 METAR LIMC 010120Z 02004KT 9999 -RA BKN035 15/09 Q1013 RERA NOSIG
12-09-01 METAR LIMC 010220Z 05004KT 020V090 9999 -RA BKN035 15/09 Q1013 NOSIG
12-09-01 METAR LIMC 010320Z 00000KT 9999 -RA BKN035 13/12 Q1013 NOSIG
12-09-01 METAR LIMC 010420Z 32003KT 280V360 9999 -RA BKN035 13/12 Q1013 NOSIG
12-09-01 METAR LIMC 010520Z 33003KT 290V350 9999 -RA BKN040 14/11 Q1013 NOSIG
12-09-01 METAR LIMC 010620Z 02004KT 5000 RA BKN025 BKN060 13/12 Q1014 RESHRA NOSIG
12-09-01 METAR LIMC 010720Z 36003KT 9999 4000S RA VCSH BKN025 BKN060 13/12 Q1014 NOSIG
12-09-01 METAR LIMC 010820Z 31004KT 9999 R35L/1500N R35R/1400V1500N BKN030 BKN060 14/12 Q1015 RERA NOSIG
12-09-01 METAR LIMC 010920Z 30003KT 240V360 9999 R35L/1500N R35R/1300V1500N BKN030 BKN060 15/13 Q1015 RERA NOSIG
12-09-01 METAR LIMC 011020Z 34004KT 9999 SCT040 BKN070 16/13 Q1016 NOSIG
12-09-01 METAR LIMC 011120Z 36004KT 9999 SCT035 BKN060 19/11 Q1016 NOSIG
12-09-01 METAR LIMC 011220Z 01005KT 340V040 9999 BKN035 20/11 Q1016 NOSIG
12-09-01 METAR LIMC 011320Z 01005KT 340V050 9999 SCT040 21/10 Q1016 NOSIG
12-09-01 METAR LIMC 011420Z 01006KT 340V040 9999 FEW040 21/10 Q1016 NOSIG
12-09-01 METAR LIMC 011520Z 01006KT 9999 FEW040 21/09 Q1016 NOSIG
12-09-01 METAR LIMC 011620Z 36006KT 9999 SCT050 20/10 Q1016 NOSIG
12-09-01 METAR LIMC 011720Z 09007KT 050V110 9999 -TSRA SCT035CB SCT070 18/10 Q1017
12-09-01 METAR LIMC 011820Z 03003KT 360V070 9999 RA SCT030 OVC070 15/13 Q1018 NOSIG
12-09-01 METAR LIMC 011920Z 35004KT 9999 -RA BKN030 BKN070 15/13 Q1018 RERA NOSIG
12-09-01 METAR LIMC 012020Z 36004KT 9999 RA BKN030 BKN070 14/13 Q1019 NOSIG
12-09-01 METAR LIMC 012120Z 02004KT 4000 RA OVC030 14/13 Q1019 NOSIG
12-09-01 METAR LIMC 012220Z 02004KT 340V050 7000 RA OVC030 14/13 Q1020 NOSIG
12-09-01 METAR LIMC 012320Z 35005KT 7000 RA OVC030 14/13 Q1020 NOSIG
12-09-02 METAR LIMC 020020Z 34005KT 7000 RA OVC030 14/13 Q1020 NOSIG
12-09-02 METAR LIMC 020120Z 34005KT 9999 BKN030 14/14 Q1019 NOSIG
12-09-02 METAR LIMC 020220Z 36003KT 320V060 9999 BKN050 14/13 Q1019 NOSIG
12-09-02 METAR LIMC 020320Z 36002KT 9999 BKN050 14/13 Q1019 NOSIG
12-09-02 METAR LIMC 020420Z 35002KT 9999 SCT050 SCT080 13/13 Q1020 NOSIG
12-09-02 METAR LIMC 020520Z VRB02KT 9999 BKN035 14/13 Q1020 NOSIG
12-09-02 METAR LIMC 020620Z VRB01KT 9999 BKN035 14/14 Q1021 NOSIG
12-09-02 METAR LIMC 020720Z 36003KT 9999 BKN035 16/13 Q1021 NOSIG
12-09-02 METAR LIMC 020820Z 36004KT 9999 -RA SCT030 BKN070 16/14 Q1022 NOSIG
12-09-02 METAR LIMC 020920Z VRB02KT 9999 FEW040 SCT080 19/13 Q1022 NOSIG
12-09-02 METAR LIMC 021020Z VRB02KT 9999 BKN060 21/14 Q1022 NOSIG
12-09-02 METAR LIMC 021120Z VRB02KT 9999 BKN060 22/14 Q1021 NOSIG
12-09-02 METAR LIMC 021220Z VRB02KT 9999 FEW025 BKN070 23/13 Q1021 NOSIG
12-09-02 METAR LIMC 021320Z 23003KT 180V270 9999 FEW025 SCT070 24/13 Q1020 NOSIG
12-09-02 METAR LIMC 021420Z VRB02KT 9999 FEW025 BKN050 24/14 Q1020 NOSIG
12-09-02 METAR LIMC 021520Z 22003KT 190V250 9999 BKN050 23/14 Q1020 NOSIG
12-09-02 METAR LIMC 021620Z 22003KT 9999 SCT050 BKN090 22/14 Q1020 NOSIG
12-09-02 METAR LIMC 021720Z 22002KT 9999 SCT050 BKN090 21/14 Q1020 NOSIG
12-09-02 METAR LIMC 021820Z VRB01KT 9999 SCT050 20/15 Q1020 NOSIG
12-09-02 METAR LIMC 021920Z 00000KT 9999 BKN050 20/15 Q1020 NOSIG
12-09-02 METAR LIMC 022020Z VRB01KT 9999 BKN050 18/16 Q1020 NOSIG
12-09-02 METAR LIMC 022120Z 36002KT 9999 BKN060 18/15 Q1020 NOSIG
12-09-02 METAR LIMC 022220Z 35003KT 9999 BKN060 17/15 Q1019 NOSIG
12-09-02 METAR LIMC 022320Z 35004KT 9999 BKN060 18/15 Q1019 NOSIG
12-09-03 METAR LIMC 030020Z 35002KT 9999 BKN060 18/15 Q1018 NOSIG
12-09-03 METAR LIMC 030120Z 34002KT 9999 BKN060 18/15 Q1017 NOSIG
12-09-03 METAR LIMC 030220Z 35003KT 9999 BKN050 18/14 Q1017 NOSIG
12-09-03 METAR LIMC 030320Z 35003KT 9999 SCT040 BKN080 17/13 Q1016 NOSIG
12-09-03 METAR LIMC 030420Z VRB02KT 9999 SCT040 BKN080 18/13 Q1016 NOSIG
12-09-03 METAR LIMC 030520Z 34004KT 9999 FEW040 SCT080 17/13 Q1015 NOSIG
12-09-03 METAR LIMC 030620Z 36003KT 9999 FEW050 SCT080 19/12 Q1015 NOSIG
12-09-03 METAR LIMC 030720Z 00000KT 9999 SCT080 19/14 Q1015 NOSIG
12-09-03 METAR LIMC 030820Z VRB01KT 9999 SCT070 21/12 Q1015 NOSIG
12-09-03 METAR LIMC 030920Z VRB01KT 9999 SCT070 22/13 Q1016 NOSIG
12-09-03 METAR LIMC 031020Z 16003KT 9999 SCT050 21/15 Q1018 NOSIG
12-09-03 METAR LIMC 031120Z 09006KT 050V130 4000 RA BKN035 19/16 Q1020 NOSIG
12-09-03 METAR LIMC 031220Z 06004KT 8000 RA BKN035 18/16 Q1020 NOSIG
12-09-03 METAR LIMC 031320Z 36004KT 9999 -RA BKN035 OVC070 19/17 Q1019 RERA NOSIG
12-09-03 METAR LIMC 031420Z 34006KT 9999 -RA SCT035 OVC070 19/18 Q1018 NOSIG
12-09-03 METAR LIMC 031520Z 01006KT 9999 SCT035 OVC070 19/17 Q1018 NOSIG
12-09-03 METAR LIMC 031620Z 36005KT 9999 SCT045 BKN080 19/17 Q1018 NOSIG
12-09-03 METAR LIMC 031720Z 35004KT 9999 SCT045 BKN080 19/17 Q1017 NOSIG
12-09-03 METAR LIMC 031820Z 01004KT 9999 SCT045 BKN080 19/16 Q1017 NOSIG
12-09-03 METAR LIMC 031920Z 36003KT 340V040 9999 SCT045 BKN080 19/16 Q1017 NOSIG
12-09-03 METAR LIMC 032020Z 04003KT 9999 SCT045 BKN080 19/16 Q1017 NOSIG
12-09-03 METAR LIMC 032120Z 35003KT 9999 SCT040 BKN080 18/16 Q1017 NOSIG
12-09-03 METAR LIMC 032220Z VRB01KT 9999 SCT040 BKN080 18/16 Q1017 NOSIG
12-09-03 METAR LIMC 032320Z 12003KT 090V150 9999 SCT040 BKN080 19/16 Q1018 NOSIG
12-09-04 METAR LIMC 040020Z VRB01KT 9999 SCT040 BKN080 18/17 Q1018 NOSIG
12-09-04 METAR LIMC 040120Z 32003KT 9999 -RA SCT040 BKN080 18/17 Q1018 NOSIG
12-09-04 METAR LIMC 040220Z VRB01KT 9999 -RA SCT040 BKN080 17/17 Q1017 NOSIG
12-09-04 METAR LIMC 040320Z VRB02KT 9999 -RA SCT030 BKN080 17/17 Q1017 NOSIG
12-09-04 METAR LIMC 040420Z 00000KT 9999 BKN040 BKN080 17/17 Q1017 NOSIG
12-09-04 METAR LIMC 040520Z 34002KT 5000 BR SCT040 BKN080 17/17 Q1017 NOSIG
12-09-04 METAR LIMC 040620Z 28002KT 7000 SCT040 BKN080 18/17 Q1016 NOSIG
12-09-04 METAR LIMC 040720Z 28002KT 8000 FEW040 BKN070 19/17 Q1017 NOSIG
12-09-04 METAR LIMC 040820Z VRB01KT 9000 FEW040 BKN070 19/17 Q1017 NOSIG
12-09-04 METAR LIMC 040920Z VRB01KT 9999 FEW045 BKN080 20/17 Q1018 NOSIG
12-09-04 METAR LIMC 041020Z VRB01KT 9999 SCT050 BKN080 21/17 Q1017 NOSIG
12-09-04 METAR LIMC 041120Z VRB02KT 9999 SCT050 BKN080 22/16 Q1017 NOSIG
12-09-04 METAR LIMC 041520Z 28004KT 9999 BKN080 24/16 Q1016 NOSIG
12-09-04 METAR LIMC 041620Z 31003KT 9999 BKN080 24/16 Q1015 NOSIG
12-09-04 METAR LIMC 041720Z 32003KT 9999 BKN080 23/16 Q1015 NOSIG
12-09-04 METAR LIMC 041820Z 34001KT 9999 FEW080 21/17 Q1015 NOSIG
12-09-04 METAR LIMC 041920Z 34003KT 310V020 9999 FEW080 21/16 Q1015 NOSIG
12-09-04 METAR LIMC 042020Z VRB02KT 9999 BKN070 21/16 Q1015 NOSIG
12-09-04 METAR LIMC 042120Z 20003KT 160V230 7000 RA SCT020 BKN070 18/18 Q1017 NOSIG
12-09-04 METAR LIMC 042220Z 32003KT 290V350 7000 FEW035 BKN080 18/17 Q1016 NOSIG
12-09-04 METAR LIMC 042320Z 34003KT 9999 SCT080 18/17 Q1016 NOSIG
12-09-05 METAR LIMC 050020Z 00000KT 9999 SCT080 17/16 Q1016 NOSIG
12-09-05 METAR LIMC 050120Z 21003KT 3000 BR SCT080 17/17 Q1016 NOSIG
12-09-05 METAR LIMC 050220Z 31002KT 4000 BR SCT080 17/17 Q1016 NOSIG
12-09-05 METAR LIMC 050320Z 34002KT 6000 SCT080 16/16 Q1016 NOSIG
12-09-05 METAR LIMC 050420Z VRB03KT 7000 FEW006 BKN070 17/17 Q1016 NOSIG
12-09-05 METAR LIMC 050620Z 32003KT 6000 SCT015 BKN060 18/17 Q1016 NOSIG
12-09-05 METAR LIMC 050720Z 33003KT 9999 SCT030 BKN060 18/17 Q1016 NOSIG
12-09-05 METAR LIMC 050820Z 33003KT 9999 SCT030 BKN060 20/17 Q1016 NOSIG
12-09-05 METAR LIMC 050920Z 33003KT 9999 SCT030 BKN060 23/16 Q1016 NOSIG
12-09-05 METAR LIMC 051020Z VRB02KT 9999 BKN070 26/15 Q1016 NOSIG
12-09-05 METAR LIMC 051120Z 24003KT 200V280 CAVOK 26/15 Q1016 NOSIG
12-09-05 METAR LIMC 051220Z 22003KT 180V260 CAVOK 27/16 Q1016 NOSIG
12-09-05 METAR LIMC 051320Z 22004KT 170V250 CAVOK 27/16 Q1015 NOSIG
12-09-05 METAR LIMC 051420Z 22004KT 170V260 CAVOK 27/15 Q1015 NOSIG
12-09-05 METAR LIMC 051520Z 20003KT 160V240 CAVOK 27/15 Q1015 NOSIG
12-09-05 METAR LIMC 051620Z VRB01KT 9999 SCT050 26/14 Q1015 NOSIG
12-09-05 METAR LIMC 051720Z 06005KT 270V080 9999 SCT040 SCT080 22/18 Q1015 NOSIG
12-09-05 METAR LIMC 051820Z 01003KT 330V040 9999 SCT040 SCT080 21/17 Q1016 NOSIG
12-09-05 METAR LIMC 051920Z VRB02KT 9999 RA SCT040 SCT080 20/18 Q1016 NOSIG
12-09-05 METAR LIMC 052020Z 33003KT 9999 SCT040 SCT080 19/18 Q1016 RERA NOSIG
12-09-05 METAR LIMC 052120Z VRB01KT 9999 SCT040 SCT080 19/18 Q1016 NOSIG
12-09-05 METAR LIMC 052220Z VRB02KT 9999 SCT040 SCT080 18/18 Q1017 NOSIG
12-09-05 METAR LIMC 052320Z 06002KT 9999 SCT040 18/17 Q1017 NOSIG
12-09-06 METAR LIMC 060020Z 01001KT 9999 SCT040 17/16 Q1017 NOSIG
12-09-06 METAR LIMC 060120Z VRB01KT CAVOK 16/16 Q1017 NOSIG
12-09-06 METAR LIMC 060220Z 00000KT CAVOK 15/15 Q1017 NOSIG
12-09-06 METAR LIMC 060320Z 00000KT CAVOK 15/15 Q1016 NOSIG
12-09-06 METAR LIMC 060420Z VRB02KT CAVOK 15/15 Q1017 NOSIG
12-09-06 METAR LIMC 060520Z 34002KT CAVOK 16/15 Q1017 NOSIG
12-09-06 METAR LIMC 060620Z VRB02KT CAVOK 17/16 Q1018 NOSIG
12-09-06 METAR LIMC 060720Z VRB02KT CAVOK 20/16 Q1018 NOSIG
12-09-06 METAR LIMC 060820Z VRB02KT CAVOK 23/15 Q1019 NOSIG
12-09-06 METAR LIMC 060920Z VRB01KT CAVOK 25/15 Q1019 NOSIG
12-09-06 METAR LIMC 061020Z VRB02KT CAVOK 26/15 Q1019 NOSIG
12-09-06 METAR LIMC 061120Z VRB01KT CAVOK 28/14 Q1019 NOSIG
12-09-06 METAR LIMC 061220Z VRB02KT CAVOK 28/13 Q1019 NOSIG
12-09-06 METAR LIMC 061320Z 19003KT 150V230 CAVOK 29/14 Q1019 NOSIG
12-09-06 METAR LIMC 061420Z 22004KT 180V250 CAVOK 29/16 Q1019 NOSIG
12-09-06 METAR LIMC 061520Z 23004KT 190V270 CAVOK 28/15 Q1019 NOSIG
12-09-06 METAR LIMC 061620Z 22002KT CAVOK 28/15 Q1019 NOSIG
12-09-06 METAR LIMC 061720Z VRB01KT CAVOK 26/17 Q1019 NOSIG
12-09-06 METAR LIMC 061820Z VRB01KT CAVOK 23/14 Q1019 NOSIG
12-09-06 METAR LIMC 061920Z 00000KT CAVOK 19/16 Q1020 NOSIG
12-09-06 METAR LIMC 062020Z VRB01KT CAVOK 18/16 Q1021 NOSIG
12-09-06 METAR LIMC 062120Z 02001KT CAVOK 18/16 Q1021 NOSIG
12-09-06 METAR LIMC 062220Z 01001KT CAVOK 17/16 Q1022 NOSIG
12-09-06 METAR LIMC 062320Z 00000KT CAVOK 16/15 Q1022 NOSIG
12-09-07 METAR LIMC 070020Z 36002KT CAVOK 17/16 Q1022 NOSIG
12-09-07 METAR LIMC 070120Z 36002KT CAVOK 17/15 Q1022 NOSIG
12-09-07 METAR LIMC 070220Z 36003KT CAVOK 18/16 Q1022 NOSIG
12-09-07 METAR LIMC 070320Z 01002KT CAVOK 17/16 Q1022 NOSIG
12-09-07 METAR LIMC 070420Z 35003KT CAVOK 16/15 Q1022 NOSIG
12-09-07 METAR LIMC 070520Z 35003KT CAVOK 18/15 Q1023 NOSIG
12-09-07 METAR LIMC 070620Z VRB02KT CAVOK 19/16 Q1023 NOSIG
12-09-07 METAR LIMC 070720Z VRB02KT CAVOK 21/16 Q1024 NOSIG
12-09-07 METAR LIMC 070820Z VRB02KT CAVOK 23/16 Q1024 NOSIG
12-09-07 METAR LIMC 070920Z 07003KT 030V130 CAVOK 25/17 Q1024 NOSIG
12-09-07 METAR LIMC 071020Z VRB02KT CAVOK 26/16 Q1023 NOSIG
12-09-07 METAR LIMC 071120Z VRB02KT CAVOK 27/15 Q1023 NOSIG
12-09-07 METAR LIMC 071220Z 14003KT 090V180 CAVOK 28/14 Q1022 NOSIG
12-09-07 METAR LIMC 071320Z VRB02KT CAVOK 29/15 Q1021 NOSIG
12-09-07 METAR LIMC 071420Z VRB01KT CAVOK 29/14 Q1021 NOSIG
12-09-07 METAR LIMC 071520Z VRB02KT CAVOK 28/14 Q1020 NOSIG
12-09-07 METAR LIMC 071620Z 20002KT CAVOK 28/15 Q1020 NOSIG
12-09-07 METAR LIMC 071720Z 20002KT CAVOK 25/16 Q1020 NOSIG
12-09-07 METAR LIMC 071820Z 00000KT CAVOK 24/16 Q1020 NOSIG
12-09-07 METAR LIMC 071920Z 00000KT CAVOK 23/16 Q1021 NOSIG
12-09-07 METAR LIMC 072020Z 00000KT CAVOK 19/16 Q1021 NOSIG
12-09-07 METAR LIMC 072120Z 00000KT CAVOK 19/16 Q1021 NOSIG
12-09-07 METAR LIMC 072220Z VRB02KT CAVOK 19/16 Q1021 NOSIG
12-09-07 METAR LIMC 072320Z VRB02KT CAVOK 20/16 Q1022 NOSIG
12-09-08 METAR LIMC 080020Z 01002KT CAVOK 18/16 Q1022 NOSIG
12-09-08 METAR LIMC 080120Z VRB01KT CAVOK 18/16 Q1022 NOSIG
12-09-08 METAR LIMC 080220Z VRB01KT CAVOK 17/16 Q1022 NOSIG
12-09-08 METAR LIMC 080320Z 36002KT CAVOK 17/16 Q1021 NOSIG
12-09-08 METAR LIMC 080420Z 36003KT 340V040 CAVOK 17/16 Q1021 NOSIG
12-09-08 METAR LIMC 080520Z 35003KT 320V070 9000 NSC 18/16 Q1022 NOSIG
12-09-08 METAR LIMC 080620Z 36003KT 9000 NSC 19/16 Q1022 NOSIG
12-09-08 METAR LIMC 080720Z VRB02KT CAVOK 21/16 Q1022 NOSIG
12-09-08 METAR LIMC 080820Z VRB01KT CAVOK 23/16 Q1022 NOSIG
12-09-08 METAR LIMC 080920Z VRB01KT CAVOK 25/16 Q1022 NOSIG
12-09-08 METAR LIMC 081020Z VRB01KT CAVOK 26/16 Q1021 NOSIG
12-09-08 METAR LIMC 081120Z VRB02KT CAVOK 27/17 Q1021 NOSIG
12-09-08 METAR LIMC 081220Z 21003KT 130V260 CAVOK 28/15 Q1020 NOSIG
12-09-08 METAR LIMC 081320Z 12003KT 080V160 CAVOK 28/15 Q1020 NOSIG
12-09-08 METAR LIMC 081420Z VRB03KT CAVOK 28/16 Q1019 NOSIG
12-09-08 METAR LIMC 081520Z VRB02KT CAVOK 28/15 Q1019 NOSIG
12-09-08 METAR LIMC 081620Z 22002KT CAVOK 28/16 Q1019 NOSIG
12-09-08 METAR LIMC 081720Z 22002KT CAVOK 26/17 Q1019 NOSIG
12-09-08 METAR LIMC 081820Z 00000KT CAVOK 22/18 Q1019 NOSIG
12-09-08 METAR LIMC 081920Z 00000KT CAVOK 20/17 Q1019 NOSIG
12-09-08 METAR LIMC 082020Z 00000KT CAVOK 20/17 Q1019 NOSIG
12-09-08 METAR LIMC 082120Z 00000KT CAVOK 18/17 Q1019 NOSIG
12-09-08 METAR LIMC 082220Z 36002KT CAVOK 18/17 Q1019 NOSIG
12-09-08 METAR LIMC 082320Z 36002KT CAVOK 17/16 Q1019 NOSIG
12-09-09 METAR LIMC 090020Z 35003KT CAVOK 17/16 Q1019 NOSIG
12-09-09 METAR LIMC 090120Z 01002KT CAVOK 17/16 Q1019 NOSIG
12-09-09 METAR LIMC 090220Z 36002KT CAVOK 17/16 Q1019 NOSIG
12-09-09 METAR LIMC 090320Z 00000KT CAVOK 16/15 Q1019 NOSIG
12-09-09 METAR LIMC 090420Z 02002KT CAVOK 16/16 Q1019 NOSIG
12-09-09 METAR LIMC 090520Z 35003KT 330V030 6000 MIFG NSC 17/16 Q1019 NOSIG
12-09-09 METAR LIMC 090620Z 35002KT 9000 NSC 19/16 Q1019 NOSIG
12-09-09 METAR LIMC 090720Z 35004KT 9000 NSC 21/17 Q1019 NOSIG
12-09-09 METAR LIMC 090820Z VRB02KT 9000 NSC 23/16 Q1019 NOSIG
12-09-09 METAR LIMC 090920Z VRB01KT CAVOK 26/16 Q1019 NOSIG
12-09-09 METAR LIMC 091020Z VRB02KT CAVOK 27/16 Q1019 NOSIG
12-09-09 METAR LIMC 091120Z VRB02KT CAVOK 27/15 Q1019 NOSIG
12-09-09 METAR LIMC 091220Z VRB02KT CAVOK 28/15 Q1018 NOSIG
12-09-09 METAR LIMC 091320Z VRB02KT CAVOK 29/15 Q1018 NOSIG
12-09-09 METAR LIMC 091420Z VRB02KT CAVOK 28/14 Q1017 NOSIG
12-09-09 METAR LIMC 091520Z 21003KT CAVOK 29/14 Q1017 NOSIG
12-09-09 METAR LIMC 091620Z VRB02KT CAVOK 28/13 Q1017 NOSIG
12-09-09 METAR LIMC 091720Z 22002KT CAVOK 25/14 Q1016 NOSIG
12-09-09 METAR LIMC 091820Z 00000KT CAVOK 23/15 Q1017 NOSIG
12-09-09 METAR LIMC 091920Z 00000KT CAVOK 20/15 Q1018 NOSIG
12-09-09 METAR LIMC 092020Z 00000KT CAVOK 19/15 Q1018 NOSIG
12-09-09 METAR LIMC 092120Z VRB01KT CAVOK 18/15 Q1018 NOSIG
12-09-09 METAR LIMC 092220Z 35002KT CAVOK 18/15 Q1018 NOSIG
12-09-09 METAR LIMC 092320Z 00000KT CAVOK 16/14 Q1018 NOSIG
12-09-10 METAR LIMC 100020Z VRB02KT CAVOK 17/14 Q1018 NOSIG
12-09-10 METAR LIMC 100120Z VRB02KT CAVOK 17/13 Q1018 NOSIG
12-09-10 METAR LIMC 100220Z VRB02KT CAVOK 17/13 Q1018 NOSIG
12-09-10 METAR LIMC 100320Z 35002KT CAVOK 16/13 Q1018 NOSIG
12-09-10 METAR LIMC 100420Z VRB01KT CAVOK 15/13 Q1018 NOSIG
12-09-10 METAR LIMC 100520Z 00000KT CAVOK 16/13 Q1018 NOSIG
12-09-10 METAR LIMC 100620Z 35003KT CAVOK 18/14 Q1019 NOSIG
12-09-10 METAR LIMC 100720Z VRB02KT CAVOK 21/14 Q1019 NOSIG
12-09-10 METAR LIMC 100820Z VRB02KT CAVOK 24/14 Q1019 NOSIG
12-09-10 METAR LIMC 100920Z VRB02KT CAVOK 26/14 Q1019 NOSIG
12-09-10 METAR LIMC 101020Z VRB01KT CAVOK 27/12 Q1018 NOSIG
12-09-10 METAR LIMC 101120Z VRB02KT CAVOK 28/13 Q1018 NOSIG
12-09-10 METAR LIMC 101220Z 27003KT 200V320 CAVOK 28/12 Q1018 NOSIG
12-09-10 METAR LIMC 101320Z 23004KT 190V270 CAVOK 29/12 Q1018 NOSIG
12-09-10 METAR LIMC 101420Z VRB03KT CAVOK 29/10 Q1017 NOSIG
12-09-10 METAR LIMC 101520Z 22003KT 190V270 CAVOK 29/10 Q1017 WS RWY 35L NOSIG
12-09-10 METAR LIMC 101620Z VRB02KT CAVOK 28/11 Q1017 WS RWY 35L NOSIG
12-09-10 METAR LIMC 101720Z 21002KT CAVOK 24/13 Q1017 NOSIG
12-09-10 METAR LIMC 101820Z 00000KT CAVOK 24/12 Q1017 NOSIG
12-09-10 METAR LIMC 101920Z VRB01KT CAVOK 20/13 Q1018 NOSIG
12-09-10 METAR LIMC 102020Z 00000KT CAVOK 19/14 Q1018 NOSIG
12-09-10 METAR LIMC 102120Z NIL
12-09-10 METAR LIMC 102220Z 02004KT CAVOK 18/14 Q1018 NOSIG
12-09-10 METAR LIMC 102320Z 03003KT CAVOK 17/14 Q1019 NOSIG
12-09-11 METAR LIMC 110020Z 35003KT CAVOK 16/14 Q1018 NOSIG
12-09-11 METAR LIMC 110120Z 36002KT CAVOK 18/14 Q1018 NOSIG
12-09-11 METAR LIMC 110220Z 36002KT CAVOK 18/14 Q1018 NOSIG
12-09-11 METAR LIMC 110320Z 36002KT CAVOK 18/14 Q1018 NOSIG
12-09-11 METAR LIMC 110420Z 00000KT CAVOK 16/14 Q1018 NOSIG
12-09-11 METAR LIMC 110520Z 01003KT 320V060 CAVOK 18/14 Q1018 NOSIG
12-09-11 METAR LIMC 110620Z 36002KT CAVOK 18/14 Q1018 NOSIG
12-09-11 METAR LIMC 110720Z VRB02KT CAVOK 21/14 Q1018 NOSIG
12-09-11 METAR LIMC 110820Z 35003KT 320V020 CAVOK 22/14 Q1019 NOSIG
12-09-11 METAR LIMC 110920Z 11001KT CAVOK 25/15 Q1018 NOSIG
12-09-11 METAR LIMC 111020Z 00000KT CAVOK 27/13 Q1018 NOSIG
12-09-11 METAR LIMC 111120Z VRB01KT CAVOK 27/13 Q1017 NOSIG
12-09-11 METAR LIMC 111220Z 22003KT 150V260 CAVOK 28/13 Q1017 NOSIG
12-09-11 METAR LIMC 111320Z VRB02KT 9999 FEW030 29/14 Q1016 NOSIG
12-09-11 METAR LIMC 111420Z 23003KT 200V270 9999 FEW030 28/14 Q1015 NOSIG
12-09-11 METAR LIMC 111520Z 21003KT 150V260 9999 FEW030 29/13 Q1015 NOSIG
12-09-11 METAR LIMC 111620Z 22003KT 9999 FEW030 26/14 Q1015 NOSIG
12-09-11 METAR LIMC 111720Z 20002KT 9999 FEW030 24/14 Q1015 NOSIG
12-09-11 METAR LIMC 111820Z VRB01KT 9999 FEW030 24/14 Q1014 NOSIG
12-09-11 METAR LIMC 111920Z 19003KT 9999 SCT080 22/16 Q1015 NOSIG
12-09-11 METAR LIMC 112020Z 20002KT 9999 SCT080 21/17 Q1015 NOSIG
12-09-11 METAR LIMC 112120Z 00000KT 9999 FEW070 20/17 Q1015 NOSIG
12-09-11 METAR LIMC 112220Z VRB01KT 9999 SCT070 20/17 Q1015 NOSIG
12-09-11 METAR LIMC 112320Z VRB01KT 9999 SCT070 20/17 Q1014 NOSIG
12-09-12 METAR LIMC 120020Z 00000KT 9999 SCT070 19/17 Q1014 NOSIG
12-09-12 METAR LIMC 120120Z 12001KT 9999 SCT040 SCT070 18/17 Q1013 NOSIG
12-09-12 METAR LIMC 120220Z 02001KT 9999 SCT070 18/17 Q1012 NOSIG
12-09-12 METAR LIMC 120320Z 00000KT 9999 SCT070 18/17 Q1012 NOSIG
12-09-12 METAR LIMC 120420Z 00000KT 9999 SCT070 18/17 Q1011 NOSIG
12-09-12 METAR LIMC 120520Z 00000KT 5000 BR SCT060 18/17 Q1011 NOSIG
12-09-12 METAR LIMC 120620Z VRB02KT 5000 BR SCT060 20/18 Q1010 NOSIG
12-09-12 METAR LIMC 120720Z 22001KT 5000 BR SCT070 21/18 Q1010 NOSIG
12-09-12 METAR LIMC 120820Z VRB02KT 6000 SCT070 22/17 Q1009 NOSIG
12-09-12 METAR LIMC 120920Z 23003KT 8000 SCT035 BKN070 22/18 Q1009 NOSIG
12-09-12 METAR LIMC 121020Z VRB02KT 9000 SCT025 BKN070 22/19 Q1008 NOSIG
12-09-12 METAR LIMC 121120Z NIL
12-09-12 METAR LIMC 121220Z 04006KT 9999 BKN030 BKN070 20/17 Q1006 NOSIG
12-09-12 METAR LIMC 121320Z 04005KT 360V060 9999 BKN030 BKN070 20/15 Q1006 NOSIG
12-09-12 METAR LIMC 121420Z 34003KT 280V040 6000 RA BKN040 BKN070 20/14 Q1005 NOSIG
12-09-12 METAR LIMC 121520Z VRB02KT 9999 -RA SCT040 BKN070 20/17 Q1004 NOSIG
12-09-12 METAR LIMC 121620Z VRB02KT 9999 SCT050 BKN080 20/14 Q1004 NOSIG
12-09-12 METAR LIMC 121720Z 02005KT 9999 BKN070 19/08 Q1004 NOSIG
12-09-12 METAR LIMC 121820Z 01007KT 9999 BKN060 20/02 Q1004 NOSIG
12-09-12 METAR LIMC 121920Z 35008KT 9999 BKN060 19/01 Q1005 NOSIG
12-09-12 METAR LIMC 122020Z 36009KT 9999 BKN060 19/M01 Q1004 NOSIG
12-09-12 METAR LIMC 122120Z 36008KT 9999 SCT060 19/M00 Q1005 NOSIG
12-09-12 METAR LIMC 122220Z 02005KT 9999 FEW070 18/M01 Q1005 NOSIG
12-09-12 METAR LIMC 122320Z 03005KT CAVOK 17/00 Q1005 NOSIG
12-09-13 METAR LIMC 130020Z 03005KT CAVOK 16/M00 Q1005 NOSIG
12-09-13 METAR LIMC 130120Z 36003KT CAVOK 16/00 Q1005 NOSIG
12-09-13 METAR LIMC 130220Z 36006KT 9999 FEW070 17/M00 Q1005 NOSIG
12-09-13 METAR LIMC 130320Z 02004KT 9999 FEW070 15/01 Q1005 NOSIG
12-09-13 METAR LIMC 130420Z 01002KT 9999 FEW070 12/02 Q1005 NOSIG
12-09-13 METAR LIMC 130520Z 34004KT CAVOK 13/01 Q1006 NOSIG
12-09-13 METAR LIMC 130620Z 34003KT CAVOK 16/01 Q1006 NOSIG
12-09-13 METAR LIMC 130720Z 36005KT 330V030 CAVOK 19/M01 Q1006 NOSIG
12-09-13 METAR LIMC 130820Z 36008KT CAVOK 20/M02 Q1006 NOSIG
12-09-13 METAR LIMC 130920Z 01008KT CAVOK 21/M01 Q1006 NOSIG
12-09-13 METAR LIMC 131020Z 02008KT 350V060 CAVOK 22/M01 Q1007 NOSIG
12-09-13 METAR LIMC 131120Z 02008KT CAVOK 22/M02 Q1007 NOSIG
12-09-13 METAR LIMC 131220Z 02009KT CAVOK 22/M02 Q1007 NOSIG
12-09-13 METAR LIMC 131320Z 03010KT CAVOK 22/M02 Q1007 NOSIG
12-09-13 METAR LIMC 131420Z 03010KT 010V070 CAVOK 23/M02 Q1007 NOSIG
12-09-13 METAR LIMC 131520Z 03010KT 350V050 CAVOK 22/M02 Q1007 NOSIG
12-09-13 METAR LIMC 131620Z 02010KT CAVOK 21/M03 Q1008 NOSIG
12-09-13 METAR LIMC 131720Z 02009KT CAVOK 19/M03 Q1008 NOSIG
12-09-13 METAR LIMC 131820Z 02009KT 350V050 CAVOK 18/M03 Q1009 NOSIG
12-09-13 METAR LIMC 131920Z 02008KT CAVOK 18/M03 Q1010 WS RWY 35R NOSIG
12-09-13 METAR LIMC 132020Z 01007KT 350V050 CAVOK 18/M03 Q1011 WS RWY 35R NOSIG
12-09-13 METAR LIMC 132120Z 01006KT CAVOK 18/M03 Q1011 NOSIG
12-09-13 METAR LIMC 132220Z 01006KT CAVOK 17/M03 Q1011 NOSIG
12-09-13 METAR LIMC 132320Z 01003KT CAVOK 15/M03 Q1011 NOSIG
12-09-14 METAR LIMC 140020Z 01004KT CAVOK 15/M02 Q1011 NOSIG
12-09-14 METAR LIMC 140120Z 35004KT CAVOK 13/M01 Q1011 NOSIG
12-09-14 METAR LIMC 140220Z 34003KT CAVOK 11/00 Q1011 NOSIG
12-09-14 METAR LIMC 140320Z VRB01KT CAVOK 09/01 Q1011 NOSIG
12-09-14 METAR LIMC 140420Z 00000KT CAVOK 08/02 Q1011 NOSIG
12-09-14 METAR LIMC 140520Z 35003KT CAVOK 10/03 Q1011 NOSIG
12-09-14 METAR LIMC 140620Z 35003KT CAVOK 14/03 Q1011 NOSIG
12-09-14 METAR LIMC 140720Z 32003KT 290V350 CAVOK 18/03 Q1010 NOSIG
12-09-14 METAR LIMC 140820Z 33003KT 290V010 CAVOK 19/02 Q1010 NOSIG
12-09-14 METAR LIMC 140920Z VRB02KT CAVOK 21/00 Q1011 NOSIG
12-09-14 METAR LIMC 141020Z VRB02KT CAVOK 23/01 Q1011 NOSIG
12-09-14 METAR LIMC 141120Z VRB02KT CAVOK 23/01 Q1011 NOSIG
12-09-14 METAR LIMC 141220Z VRB02KT CAVOK 24/03 Q1010 NOSIG
12-09-14 METAR LIMC 141320Z 24003KT 200V290 CAVOK 24/01 Q1009 NOSIG
12-09-14 METAR LIMC 141420Z 22003KT 190V260 CAVOK 25/02 Q1008 NOSIG
12-09-14 METAR LIMC 141520Z 22004KT 190V250 CAVOK 25/03 Q1007 NOSIG
12-09-14 METAR LIMC 141620Z 20004KT CAVOK 24/02 Q1008 NOSIG
12-09-14 METAR LIMC 141720Z 20002KT CAVOK 21/04 Q1008 NOSIG
12-09-14 METAR LIMC 141820Z 00000KT CAVOK 19/04 Q1009 NOSIG
12-09-14 METAR LIMC 141920Z VRB01KT CAVOK 17/05 Q1010 NOSIG
12-09-14 METAR LIMC 142020Z VRB01KT CAVOK 14/06 Q1010 NOSIG
12-09-14 METAR LIMC 142120Z 00000KT CAVOK 12/07 Q1010 NOSIG
12-09-14 METAR LIMC 142220Z VRB02KT CAVOK 10/07 Q1011 NOSIG
12-09-14 METAR LIMC 142320Z 36002KT CAVOK 10/06 Q1011 NOSIG
12-09-15 METAR LIMC 150020Z VRB01KT CAVOK 08/06 Q1011 NOSIG
12-09-15 METAR LIMC 150120Z VRB02KT CAVOK 09/06 Q1011 NOSIG
12-09-15 METAR LIMC 150220Z VRB01KT CAVOK 09/06 Q1011 NOSIG
12-09-15 METAR LIMC 150320Z 36003KT CAVOK 10/07 Q1011 NOSIG
12-09-15 METAR LIMC 150420Z 36002KT CAVOK 09/07 Q1011 NOSIG
12-09-15 METAR LIMC 150520Z VRB01KT CAVOK 11/10 Q1012 NOSIG
12-09-15 METAR LIMC 150620Z VRB02KT CAVOK 14/10 Q1012 NOSIG
12-09-15 METAR LIMC 150720Z VRB01KT CAVOK 18/11 Q1013 NOSIG
12-09-15 METAR LIMC 150820Z 10003KT 070V140 CAVOK 20/11 Q1014 NOSIG
12-09-15 METAR LIMC 150920Z VRB02KT CAVOK 22/10 Q1014 NOSIG
12-09-15 METAR LIMC 151020Z VRB02KT CAVOK 23/09 Q1014 NOSIG
12-09-15 METAR LIMC 151120Z VRB02KT CAVOK 24/09 Q1014 NOSIG
12-09-15 METAR LIMC 151220Z VRB02KT CAVOK 24/09 Q1014 NOSIG
12-09-15 METAR LIMC 151320Z 12003KT 080V210 CAVOK 24/10 Q1013 NOSIG
12-09-15 METAR LIMC 151420Z 14003KT 080V190 CAVOK 25/10 Q1013 NOSIG
12-09-15 METAR LIMC 151520Z 15003KT CAVOK 25/10 Q1013 NOSIG
12-09-15 METAR LIMC 151620Z 14003KT 110V170 CAVOK 24/10 Q1014 NOSIG
12-09-15 METAR LIMC 151720Z 14003KT CAVOK 22/10 Q1014 NOSIG
12-09-15 METAR LIMC 151820Z VRB02KT CAVOK 18/10 Q1015 NOSIG
12-09-15 METAR LIMC 151920Z VRB01KT CAVOK 16/11 Q1016 NOSIG
12-09-15 METAR LIMC 152020Z VRB01KT CAVOK 16/10 Q1016 NOSIG
12-09-15 METAR LIMC 152120Z VRB02KT CAVOK 16/11 Q1017 NOSIG
12-09-15 METAR LIMC 152220Z VRB02KT CAVOK 16/11 Q1018 NOSIG
12-09-15 METAR LIMC 152320Z 04002KT CAVOK 16/12 Q1018 NOSIG
12-09-16 METAR LIMC 160020Z VRB01KT CAVOK 14/12 Q1018 NOSIG
12-09-16 METAR LIMC 160120Z VRB02KT 9999 SCT060 16/13 Q1018 NOSIG
12-09-16 METAR LIMC 160220Z 36002KT 9999 SCT060 16/13 Q1018 NOSIG
12-09-16 METAR LIMC 160320Z 00000KT 9999 SCT060 14/12 Q1018 NOSIG
12-09-16 METAR LIMC 160420Z 00000KT 9999 SCT060 14/13 Q1017 NOSIG
12-09-16 METAR LIMC 160520Z VRB01KT 9999 MIFG FEW080 12/11 Q1018 NOSIG
12-09-16 METAR LIMC 160620Z VRB01KT 9999 MIFG FEW080 14/14 Q1018 NOSIG
12-09-16 METAR LIMC 160720Z VRB01KT 9999 FEW080 19/15 Q1018 NOSIG
12-09-16 METAR LIMC 160820Z VRB02KT 9999 FEW080 21/11 Q1018 NOSIG
12-09-16 METAR LIMC 160920Z 08003KT 330V120 9999 SCT080 22/09 Q1018 NOSIG
12-09-16 METAR LIMC 161020Z 15003KT 110V190 9999 SCT080 23/08 Q1018 NOSIG
12-09-16 METAR LIMC 161120Z VRB03KT 9999 FEW030 25/09 Q1017 NOSIG
12-09-16 METAR LIMC 161220Z VRB02KT 9999 FEW030 25/08 Q1016 NOSIG
12-09-16 METAR LIMC 161320Z VRB02KT 9999 FEW030 25/09 Q1016 NOSIG
12-09-16 METAR LIMC 161420Z 18003KT 130V210 9999 FEW030 25/09 Q1015 NOSIG
12-09-16 METAR LIMC 161520Z VRB02KT 9999 FEW030 25/09 Q1015 NOSIG
12-09-16 METAR LIMC 161620Z VRB02KT CAVOK 24/09 Q1015 NOSIG
12-09-16 METAR LIMC 161720Z 19002KT CAVOK 21/10 Q1015 NOSIG
12-09-16 METAR LIMC 161820Z 00000KT CAVOK 19/10 Q1015 NOSIG
12-09-16 METAR LIMC 161920Z NIL
12-09-16 METAR LIMC 162020Z 00000KT CAVOK 16/11 Q1016 NOSIG
12-09-16 METAR LIMC 162120Z 01002KT CAVOK 13/11 Q1016 NOSIG
12-09-16 METAR LIMC 162220Z 36001KT CAVOK 12/10 Q1016 NOSIG
12-09-16 METAR LIMC 162320Z 01001KT CAVOK 12/10 Q1016 NOSIG
12-09-17 METAR LIMC 170020Z 02001KT CAVOK 14/11 Q1016 NOSIG
12-09-17 METAR LIMC 170120Z 01001KT 9999 SCT080 12/11 Q1016 NOSIG
12-09-17 METAR LIMC 170220Z 36001KT 9999 SCT080 12/09 Q1016 NOSIG
12-09-17 METAR LIMC 170320Z 36001KT 9999 SCT080 11/09 Q1016 NOSIG
12-09-17 METAR LIMC 170420Z 00000KT 9999 SCT080 12/11 Q1016 NOSIG
12-09-17 METAR LIMC 170520Z 36003KT 330V050 CAVOK 14/12 Q1016 NOSIG
12-09-17 METAR LIMC 170620Z VRB01KT CAVOK 14/12 Q1016 NOSIG
12-09-17 METAR LIMC 170720Z VRB02KT CAVOK 18/12 Q1016 NOSIG
12-09-17 METAR LIMC 170820Z VRB02KT CAVOK 20/12 Q1017 NOSIG
12-09-17 METAR LIMC 170920Z VRB02KT CAVOK 21/12 Q1017 NOSIG
12-09-17 METAR LIMC 171020Z VRB02KT CAVOK 23/12 Q1016 NOSIG
12-09-17 METAR LIMC 171120Z NIL
12-09-17 METAR LIMC 171120Z VRB02KT CAVOK 24/11 Q1016 NOSIG
12-09-17 METAR LIMC 171220Z VRB02KT CAVOK 25/11 Q1015 NOSIG
12-09-17 METAR LIMC 171320Z VRB02KT CAVOK 25/11 Q1015 NOSIG
12-09-17 METAR LIMC 171420Z 23003KT 150V320 9999 FEW070 25/12 Q1015 NOSIG
12-09-17 METAR LIMC 171520Z VRB02KT 9999 FEW070 24/12 Q1015 NOSIG
12-09-17 METAR LIMC 171620Z 19002KT 9999 FEW080 23/12 Q1015 NOSIG
12-09-17 METAR LIMC 171720Z 16001KT 9999 FEW080 21/12 Q1015 NOSIG
12-09-17 METAR LIMC 171820Z 15001KT 9999 FEW080 20/12 Q1016 NOSIG
12-09-17 METAR LIMC 171920Z 00000KT 9999 SCT090 19/12 Q1016 NOSIG
12-09-17 METAR LIMC 172020Z 00000KT CAVOK 17/13 Q1017 NOSIG
12-09-17 METAR LIMC 172120Z 00000KT CAVOK 15/13 Q1017 NOSIG
12-09-17 METAR LIMC 172220Z VRB01KT CAVOK 14/12 Q1017 NOSIG
12-09-17 METAR LIMC 172320Z 00000KT CAVOK 14/12 Q1016 NOSIG
12-09-18 METAR LIMC 180020Z 36002KT CAVOK 13/12 Q1016 NOSIG
12-09-18 METAR LIMC 180120Z 02001KT CAVOK 12/12 Q1016 NOSIG
12-09-18 METAR LIMC 180220Z 00000KT CAVOK 12/11 Q1016 NOSIG
12-09-18 METAR LIMC 180320Z 01002KT CAVOK 12/11 Q1016 NOSIG
12-09-18 METAR LIMC 180420Z 00000KT CAVOK 11/11 Q1016 NOSIG
12-09-18 METAR LIMC 180520Z VRB01KT 9000 MIFG NSC 11/11 Q1016 NOSIG
12-09-18 METAR LIMC 180620Z VRB02KT 9000 MIFG NSC 16/14 Q1017 NOSIG
12-09-18 METAR LIMC 180720Z 00000KT CAVOK 18/14 Q1017 NOSIG
12-09-18 METAR LIMC 180820Z 00000KT CAVOK 21/13 Q1017 NOSIG
12-09-18 METAR LIMC 180920Z NIL
12-09-18 METAR LIMC 180920Z VRB02KT CAVOK 22/14 Q1017 NOSIG
12-09-18 METAR LIMC 181020Z VRB02KT CAVOK 23/14 Q1016 NOSIG
12-09-18 METAR LIMC 181120Z VRB02KT CAVOK 24/14 Q1015 NOSIG
12-09-18 METAR LIMC 181220Z 24003KT 190V270 CAVOK 25/13 Q1015 NOSIG
12-09-18 METAR LIMC 181320Z VRB02KT CAVOK 25/13 Q1014 NOSIG
12-09-18 METAR LIMC 181420Z 22003KT 200V260 CAVOK 24/13 Q1014 NOSIG
12-09-18 METAR LIMC 181520Z 22003KT 9999 BKN080 24/14 Q1013 NOSIG
12-09-18 METAR LIMC 181620Z 22003KT 9999 BKN070 23/13 Q1013 NOSIG
12-09-18 METAR LIMC 181720Z 00000KT 9999 BKN070 22/14 Q1013 NOSIG
12-09-18 METAR LIMC 181820Z 00000KT 9999 BKN070 21/14 Q1013 NOSIG
12-09-18 METAR LIMC 181920Z 00000KT 9999 BKN070 20/14 Q1013 NOSIG
12-09-18 METAR LIMC 182020Z 00000KT 9999 SCT045 BKN070 19/15 Q1013 NOSIG
12-09-18 METAR LIMC 182120Z 06001KT 9999 SCT045 BKN070 19/14 Q1013 NOSIG
12-09-18 METAR LIMC 182220Z VRB01KT 9999 SCT045 BKN070 18/15 Q1013 NOSIG
12-09-18 METAR LIMC 182320Z 00000KT 9999 SCT040 BKN060 18/15 Q1013 NOSIG
12-09-19 METAR LIMC 190020Z 00000KT 9999 SCT040 BKN060 17/15 Q1013 NOSIG
12-09-19 METAR LIMC 190120Z 00000KT 9999 SCT040 BKN060 17/15 Q1012 NOSIG
12-09-19 METAR LIMC 190220Z 00000KT 9999 SCT030 BKN060 17/15 Q1012 NOSIG
12-09-19 METAR LIMC 190320Z 00000KT 9999 SCT030 BKN060 18/16 Q1011 NOSIG
12-09-19 METAR LIMC 190420Z 34001KT 7000 RA BKN025 BKN050 17/17 Q1011 NOSIG
12-09-19 METAR LIMC 190520Z VRB02KT 4000 -RA BR BKN025 BKN050 17/17 Q1011 RERA NOSIG
12-09-19 METAR LIMC 190620Z 00000KT 2500 R35L/1500N R35R/1400V1500N -RA BR BKN025 BKN050 17/17 Q1011 BECMG 1500
12-09-19 METAR LIMC 190720Z VRB01KT 3000 BR SKC 18/17 Q1012 NOSIG
12-09-19 METAR LIMC 190820Z 11003KT 3500 BR BKN070 18/17 Q1012 NOSIG
12-09-19 METAR LIMC 190920Z VRB01KT 6000 FEW010 SCT070 21/17 Q1012 NOSIG
12-09-19 METAR LIMC 191020Z VRB02KT 9999 SCT012 SCT070 22/17 Q1012 NOSIG
12-09-19 METAR LIMC 191120Z VRB02KT 9999 BKN025 22/16 Q1011 NOSIG
12-09-19 METAR LIMC 191220Z VRB02KT 9999 SCT025 22/16 Q1011 NOSIG
12-09-19 METAR LIMC 191320Z VRB01KT 9999 SCT025 23/16 Q1010 NOSIG
12-09-19 METAR LIMC 191420Z 14003KT 100V170 9999 SCT025 24/15 Q1010 NOSIG
12-09-19 METAR LIMC 191520Z 00000KT 9999 -RA FEW030 SCT070 22/17 Q1010 NOSIG
12-09-19 METAR LIMC 191550Z 00000KT 9999 SCT030 SCT070 24/16 Q1010 NOSIG
12-09-19 METAR LIMC 191620Z 25003KT 9999 SCT050 22/17 Q1010 NOSIG
12-09-19 METAR LIMC 191650Z 27002KT 9999 SCT050 22/17 Q1011 NOSIG
12-09-19 METAR LIMC 191720Z VRB01KT 9999 SCT060 21/16 Q1011 NOSIG
12-09-19 METAR LIMC 191750Z 35003KT 9999 SCT060 20/17 Q1011 NOSIG
12-09-19 METAR LIMC 191820Z 04003KT 020V090 9999 FEW060 20/13 Q1012 NOSIG
12-09-19 METAR LIMC 191850Z 03005KT 350V060 CAVOK 20/04 Q1012 NOSIG
12-09-19 METAR LIMC 191920Z 03005KT 350V060 CAVOK 19/02 Q1013 NOSIG
12-09-19 METAR LIMC 191950Z 02004KT 300V050 CAVOK 19/00 Q1013 NOSIG
12-09-19 METAR LIMC 192020Z 03003KT 350V060 CAVOK 19/M01 Q1014 NOSIG
12-09-19 METAR LIMC 192050Z 02005KT 350V050 CAVOK 19/M01 Q1014 NOSIG
12-09-19 METAR LIMC 192120Z 02005KT CAVOK 18/M02 Q1015 NOSIG
12-09-19 METAR LIMC 192150Z 02004KT CAVOK 17/M02 Q1015 NOSIG
12-09-19 METAR LIMC 192220Z 02004KT CAVOK 17/M03 Q1015 NOSIG
12-09-19 METAR LIMC 192250Z 01007KT 340V040 CAVOK 18/M03 Q1016 NOSIG
12-09-19 METAR LIMC 192320Z 01006KT CAVOK 17/M03 Q1016 NOSIG
12-09-19 METAR LIMC 192350Z 02007KT 350V060 CAVOK 17/M03 Q1016 NOSIG
12-09-20 METAR LIMC 200020Z 03006KT 360V060 CAVOK 17/M03 Q1017 NOSIG
12-09-20 METAR LIMC 200050Z 03005KT CAVOK 16/M03 Q1017 NOSIG
12-09-20 METAR LIMC 200120Z 02005KT 350V050 CAVOK 17/M03 Q1017 NOSIG
12-09-20 METAR LIMC 200150Z 02005KT CAVOK 16/M03 Q1017 NOSIG
12-09-20 METAR LIMC 200220Z 03004KT CAVOK 15/M02 Q1018 NOSIG
12-09-20 METAR LIMC 200250Z VRB02KT CAVOK 13/M01 Q1018 NOSIG
12-09-20 METAR LIMC 200320Z 02002KT CAVOK 10/01 Q1018 NOSIG
12-09-20 METAR LIMC 200350Z 00000KT CAVOK 09/01 Q1019 NOSIG
12-09-20 METAR LIMC 200420Z VRB01KT CAVOK 08/02 Q1019 NOSIG
12-09-20 METAR LIMC 200450Z VRB01KT CAVOK 08/02 Q1020 NOSIG
12-09-20 METAR LIMC 200520Z VRB01KT CAVOK 08/03 Q1020 NOSIG
12-09-20 METAR LIMC 200550Z VRB02KT CAVOK 09/06 Q1020 NOSIG
12-09-20 METAR LIMC 200620Z VRB02KT CAVOK 13/09 Q1021 NOSIG
12-09-20 METAR LIMC 200650Z VRB02KT 9999 FEW080 16/11 Q1021 NOSIG
12-09-20 METAR LIMC 200720Z 07003KT 030V160 9999 FEW080 17/12 Q1021 NOSIG
12-09-20 METAR LIMC 200750Z 07003KT 020V100 CAVOK 17/12 Q1022 NOSIG
12-09-20 METAR LIMC 200820Z VRB02KT 9999 9000NW FEW030 18/12 Q1022 NOSIG
12-09-20 METAR LIMC 200850Z 09003KT 040V150 9999 SCT030 18/11 Q1022 NOSIG
12-09-20 METAR LIMC 200920Z 15003KT 090V240 9999 SCT030 18/10 Q1022 NOSIG
12-09-20 METAR LIMC 200950Z 11003KT 040V160 9999 SCT030 19/09 Q1022 NOSIG
12-09-20 METAR LIMC 201020Z VRB02KT 9999 SCT030 19/09 Q1022 NOSIG
12-09-20 METAR LIMC 201050Z 14003KT 100V170 9999 SCT030 20/08 Q1022 NOSIG
12-09-20 METAR LIMC 201120Z 13003KT 060V190 9999 SCT030 21/07 Q1022 NOSIG
12-09-20 METAR LIMC 201150Z 17003KT 110V230 9999 SCT030 21/07 Q1022 NOSIG
12-09-20 METAR LIMC 201220Z VRB02KT 9999 SCT030 20/07 Q1022 NOSIG
12-09-20 METAR LIMC 201250Z VRB02KT 9999 SCT030 20/06 Q1021 NOSIG
12-09-20 METAR LIMC 201320Z 14003KT 9999 SCT030 20/07 Q1021 NOSIG
12-09-20 METAR LIMC 201350Z VRB02KT 9999 SCT030 20/06 Q1021 NOSIG
12-09-20 METAR LIMC 201420Z VRB02KT 9999 SCT030 21/07 Q1021 NOSIG
12-09-20 METAR LIMC 201450Z VRB01KT 9999 SCT030 22/06 Q1021 NOSIG
12-09-20 METAR LIMC 201520Z 15002KT 9999 FEW030 21/07 Q1021 NOSIG
12-09-20 METAR LIMC 201550Z 14003KT 100V180 9999 FEW030 21/07 Q1021 NOSIG
12-09-20 METAR LIMC 201620Z VRB02KT CAVOK 20/07 Q1021 NOSIG
12-09-20 METAR LIMC 201650Z 14001KT CAVOK 19/08 Q1021 NOSIG
12-09-20 METAR LIMC 201720Z 15001KT CAVOK 17/09 Q1021 NOSIG
12-09-20 METAR LIMC 201750Z 13001KT CAVOK 15/09 Q1022 NOSIG
12-09-20 METAR LIMC 201820Z VRB01KT CAVOK 16/09 Q1022 NOSIG
12-09-20 METAR LIMC 201850Z 00000KT CAVOK 13/09 Q1022 NOSIG
12-09-20 METAR LIMC 201920Z 00000KT CAVOK 14/09 Q1023 NOSIG
12-09-20 METAR LIMC 201950Z 00000KT CAVOK 13/09 Q1023 NOSIG
12-09-20 METAR LIMC 202020Z VRB01KT CAVOK 11/08 Q1023 NOSIG
12-09-20 METAR LIMC 202050Z VRB02KT CAVOK 13/08 Q1023 NOSIG
12-09-20 METAR LIMC 202120Z VRB01KT CAVOK 12/08 Q1023 NOSIG
12-09-20 METAR LIMC 202150Z 00000KT CAVOK 10/08 Q1023 NOSIG
12-09-20 METAR LIMC 202220Z 00000KT CAVOK 11/08 Q1024 NOSIG
12-09-20 METAR LIMC 202250Z NIL
12-09-20 METAR LIMC 202320Z 03001KT CAVOK 11/08 Q1024 NOSIG
12-09-20 METAR LIMC 202350Z 06002KT CAVOK 13/08 Q1024 NOSIG
12-09-21 METAR LIMC 210020Z 05002KT CAVOK 13/08 Q1024 NOSIG
12-09-21 METAR LIMC 210050Z 05003KT CAVOK 13/08 Q1024 NOSIG
12-09-21 METAR LIMC 210120Z NIL
12-09-21 METAR LIMC 210120Z 06003KT CAVOK 13/08 Q1024 NOSIG
12-09-21 METAR LIMC 210150Z 05002KT CAVOK 13/08 Q1023 NOSIG
12-09-21 METAR LIMC 210220Z 00000KT CAVOK 12/07 Q1023 NOSIG
12-09-21 METAR LIMC 210250Z VRB01KT CAVOK 10/07 Q1023 NOSIG
12-09-21 METAR LIMC 210320Z 34002KT CAVOK 10/07 Q1023 NOSIG
12-09-21 METAR LIMC 210350Z 36002KT CAVOK 10/07 Q1023 NOSIG
12-09-21 METAR LIMC 210420Z 01002KT CAVOK 10/08 Q1023 NOSIG
12-09-21 METAR LIMC 210450Z VRB02KT 9999 SCT050 12/08 Q1023 NOSIG
12-09-21 METAR LIMC 210520Z VRB02KT 9999 BKN050 13/08 Q1023 NOSIG
12-09-21 METAR LIMC 210550Z VRB02KT 9999 FEW040 BKN060 14/09 Q1023 NOSIG
12-09-21 METAR LIMC 210620Z 36002KT 9999 BKN060 15/09 Q1024 NOSIG
12-09-21 METAR LIMC 210650Z VRB01KT 9999 BKN060 15/08 Q1024 NOSIG
12-09-21 METAR LIMC 210720Z VRB01KT 9999 BKN060 16/07 Q1024 NOSIG
12-09-21 METAR LIMC 210750Z VRB02KT 9999 BKN060 16/07 Q1024 NOSIG
12-09-21 METAR LIMC 210820Z VRB02KT 9999 BKN060 17/07 Q1024 NOSIG
12-09-21 METAR LIMC 210850Z VRB02KT 9999 BKN060 17/07 Q1024 NOSIG
12-09-21 METAR LIMC 210920Z VRB02KT 9999 BKN060 18/06 Q1024 NOSIG
12-09-21 METAR LIMC 210950Z VRB02KT 9999 BKN075 18/05 Q1024 NOSIG
12-09-21 METAR LIMC 211020Z VRB01KT 9999 BKN065 19/05 Q1024 NOSIG
12-09-21 METAR LIMC 211050Z VRB01KT 9999 BKN065 19/04 Q1023 NOSIG
12-09-21 METAR LIMC 211120Z VRB02KT 9999 BKN050 19/04 Q1023 NOSIG
12-09-21 METAR LIMC 211150Z VRB02KT 9999 BKN045 20/05 Q1023 NOSIG
12-09-21 METAR LIMC 211220Z VRB02KT 9999 BKN070 21/05 Q1022 NOSIG
12-09-21 METAR LIMC 211250Z VRB02KT 9999 BKN070 21/05 Q1022 NOSIG
12-09-21 METAR LIMC 211320Z VRB02KT 9999 BKN070 21/04 Q1022 NOSIG
12-09-21 METAR LIMC 211350Z 00000KT 9999 SCT080 21/05 Q1021 NOSIG
12-09-21 METAR LIMC 211420Z VRB02KT 9999 FEW080 21/05 Q1021 NOSIG
12-09-21 METAR LIMC 211450Z VRB01KT CAVOK 21/05 Q1021 NOSIG
12-09-21 METAR LIMC 211520Z VRB03KT CAVOK 21/06 Q1021 NOSIG
12-09-21 METAR LIMC 211550Z 23003KT 200V270 CAVOK 21/06 Q1021 NOSIG
12-09-21 METAR LIMC 211620Z 22003KT 9999 SCT080 19/07 Q1020 NOSIG
12-09-21 METAR LIMC 211650Z 20002KT 9999 SCT080 18/08 Q1020 NOSIG
12-09-21 METAR LIMC 211720Z 20002KT CAVOK 17/08 Q1020 NOSIG
12-09-21 METAR LIMC 211750Z 00000KT CAVOK 17/07 Q1021 NOSIG
12-09-21 METAR LIMC 211820Z 00000KT CAVOK 16/07 Q1021 NOSIG
12-09-21 METAR LIMC 211850Z 00000KT CAVOK 15/07 Q1020 NOSIG
12-09-21 METAR LIMC 211920Z VRB01KT CAVOK 13/08 Q1020 NOSIG
12-09-21 METAR LIMC 211950Z 00000KT CAVOK 11/08 Q1020 NOSIG
12-09-21 METAR LIMC 212020Z 00000KT CAVOK 11/07 Q1020 NOSIG
12-09-21 METAR LIMC 212050Z VRB01KT CAVOK 12/08 Q1020 NOSIG
12-09-21 METAR LIMC 212120Z 00000KT CAVOK 11/08 Q1020 NOSIG
12-09-21 METAR LIMC 212150Z 01001KT CAVOK 10/08 Q1020 NOSIG
12-09-21 METAR LIMC 212220Z 36002KT CAVOK 09/07 Q1019 NOSIG
12-09-21 METAR LIMC 212250Z 00000KT CAVOK 09/08 Q1019 NOSIG
12-09-21 METAR LIMC 212320Z 01002KT CAVOK 09/08 Q1019 NOSIG
12-09-21 METAR LIMC 212350Z 35003KT CAVOK 11/09 Q1019 NOSIG
12-09-22 METAR LIMC 220020Z 36002KT CAVOK 12/09 Q1019 NOSIG
12-09-22 METAR LIMC 220050Z 01001KT CAVOK 12/09 Q1018 NOSIG
12-09-22 METAR LIMC 220120Z 01002KT CAVOK 13/09 Q1018 NOSIG
12-09-22 METAR LIMC 220150Z 00000KT CAVOK 14/09 Q1018 NOSIG
12-09-22 METAR LIMC 220220Z 00000KT 9999 BKN050 14/09 Q1018 NOSIG
12-09-22 METAR LIMC 220250Z 01001KT 9999 BKN050 14/09 Q1018 NOSIG
12-09-22 METAR LIMC 220320Z 00000KT 9999 BKN050 13/09 Q1017 NOSIG
12-09-22 METAR LIMC 220350Z 00000KT 9999 BKN050 13/10 Q1017 NOSIG
12-09-22 METAR LIMC 220420Z 00000KT 9999 BKN050 13/10 Q1017 NOSIG
12-09-22 METAR LIMC 220450Z VRB01KT 9999 BKN050 13/09 Q1017 NOSIG
12-09-22 METAR LIMC 220520Z VRB01KT 9999 BKN050 13/10 Q1017 NOSIG
12-09-22 METAR LIMC 220550Z 36002KT 9999 BKN050 14/10 Q1018 NOSIG
12-09-22 METAR LIMC 220620Z VRB02KT 9999 BKN050 15/09 Q1018 NOSIG
12-09-22 METAR LIMC 220650Z VRB02KT 9999 BKN050 15/10 Q1018 NOSIG
12-09-22 METAR LIMC 220720Z 01001KT 9999 BKN050 16/10 Q1018 NOSIG
12-09-22 METAR LIMC 220750Z VRB01KT 9999 BKN080 18/10 Q1018 NOSIG
12-09-22 METAR LIMC 220820Z VRB01KT CAVOK 19/09 Q1018 NOSIG
12-09-22 METAR LIMC 220850Z VRB01KT CAVOK 20/08 Q1018 NOSIG
12-09-22 METAR LIMC 220920Z VRB01KT 9999 SCT080 20/09 Q1018 NOSIG
12-09-22 METAR LIMC 220950Z VRB01KT 9999 SCT080 20/09 Q1018 NOSIG
12-09-22 METAR LIMC 221020Z VRB02KT 9999 SCT080 20/09 Q1017 NOSIG
12-09-22 METAR LIMC 221050Z VRB01KT 9999 BKN080 20/09 Q1017 NOSIG
12-09-22 METAR LIMC 221120Z VRB01KT 9999 BKN080 21/08 Q1017 NOSIG
12-09-22 METAR LIMC 221150Z VRB03KT 9999 BKN080 22/06 Q1017 NOSIG
12-09-22 METAR LIMC 221220Z VRB01KT 9999 FEW080 22/08 Q1016 NOSIG
12-09-22 METAR LIMC 221250Z VRB01KT 9999 FEW080 23/07 Q1016 NOSIG
12-09-22 METAR LIMC 221320Z VRB02KT 9999 FEW080 23/08 Q1016 NOSIG
12-09-22 METAR LIMC 221350Z VRB02KT CAVOK 23/08 Q1016 NOSIG
12-09-22 METAR LIMC 221420Z 25003KT 210V290 CAVOK 23/08 Q1016 NOSIG
12-09-22 METAR LIMC 221450Z 18003KT 140V220 CAVOK 23/08 Q1016 NOSIG
12-09-22 METAR LIMC 221520Z 20003KT 150V230 CAVOK 23/08 Q1016 NOSIG
12-09-22 METAR LIMC 221550Z VRB02KT CAVOK 22/09 Q1016 NOSIG
12-09-22 METAR LIMC 221620Z 17003KT CAVOK 21/11 Q1016 NOSIG
12-09-22 METAR LIMC 221650Z 16002KT CAVOK 20/11 Q1017 NOSIG
12-09-22 METAR LIMC 221720Z 15002KT CAVOK 19/12 Q1017 NOSIG
12-09-22 METAR LIMC 221750Z VRB01KT CAVOK 18/12 Q1017 NOSIG
12-09-22 METAR LIMC 221820Z 00000KT CAVOK 17/12 Q1017 NOSIG
12-09-22 METAR LIMC 221850Z 00000KT CAVOK 17/11 Q1017 NOSIG
12-09-22 METAR LIMC 221920Z 00000KT CAVOK 15/11 Q1017 NOSIG
12-09-22 METAR LIMC 221950Z 00000KT 9999 BKN045 14/12 Q1018 NOSIG
12-09-22 METAR LIMC 222020Z 00000KT 9999 BKN045 15/12 Q1018 NOSIG
12-09-22 METAR LIMC 222050Z NIL
12-09-22 METAR LIMC 222120Z 00000KT 9999 BKN045 17/13 Q1018 NOSIG
12-09-22 METAR LIMC 222150Z 07001KT 9999 BKN050 17/12 Q1018 NOSIG
12-09-22 METAR LIMC 222220Z 34002KT 9999 BKN050 17/12 Q1018 NOSIG
12-09-22 METAR LIMC 222250Z 01001KT 9999 BKN050 17/12 Q1018 NOSIG
12-09-22 METAR LIMC 222320Z 36004KT 9999 BKN050 17/12 Q1018 NOSIG
12-09-22 METAR LIMC 222350Z VRB01KT 9999 BKN050 17/12 Q1018 NOSIG
12-09-23 METAR LIMC 230020Z 32003KT 9999 BKN060 17/12 Q1018 NOSIG
12-09-23 METAR LIMC 230050Z 33002KT 9999 BKN060 17/12 Q1018 NOSIG
12-09-23 METAR LIMC 230120Z 35002KT 9999 BKN060 16/12 Q1018 NOSIG
12-09-23 METAR LIMC 230150Z 35003KT 9999 BKN060 16/12 Q1018 NOSIG
12-09-23 METAR LIMC 230220Z 35002KT 9999 BKN060 16/12 Q1018 NOSIG
12-09-23 METAR LIMC 230250Z 35002KT 9999 BKN060 16/12 Q1018 NOSIG
12-09-23 METAR LIMC 230320Z 35002KT 9999 BKN060 16/12 Q1018 NOSIG
12-09-23 METAR LIMC 230350Z 35002KT 9999 BKN060 17/12 Q1018 NOSIG
12-09-23 METAR LIMC 230420Z 00000KT 9999 BKN060 17/12 Q1018 NOSIG
12-09-23 METAR LIMC 230450Z 34002KT 9999 BKN060 17/12 Q1018 NOSIG
12-09-23 METAR LIMC 230520Z 34003KT 9999 BKN060 17/12 Q1018 NOSIG
12-09-23 METAR LIMC 230550Z VRB02KT 9999 BKN060 17/12 Q1019 NOSIG
12-09-23 METAR LIMC 230620Z VRB01KT 9999 BKN060 17/12 Q1019 NOSIG
12-09-23 METAR LIMC 230650Z VRB02KT 9999 BKN060 17/12 Q1019 NOSIG
12-09-23 METAR LIMC 230720Z VRB02KT 9999 BKN060 17/12 Q1019 NOSIG
12-09-23 METAR LIMC 230750Z VRB02KT 9999 BKN060 18/12 Q1019 NOSIG
12-09-23 METAR LIMC 230820Z VRB02KT 9999 BKN060 18/13 Q1019 NOSIG
12-09-23 METAR LIMC 230850Z VRB02KT 9999 BKN060 18/12 Q1019 NOSIG
12-09-23 METAR LIMC 230920Z 36003KT 320V040 9999 BKN060 19/13 Q1019 NOSIG
12-09-23 METAR LIMC 230950Z VRB02KT 9999 BKN060 19/13 Q1019 NOSIG
12-09-23 METAR LIMC 231020Z VRB02KT 8000 BKN060 20/13 Q1019 NOSIG
12-09-23 METAR LIMC 231050Z VRB01KT 8000 BKN060 21/13 Q1019 NOSIG
12-09-23 METAR LIMC 231120Z VRB02KT 8000 BKN060 20/13 Q1019 NOSIG
12-09-23 METAR LIMC 231150Z VRB02KT 8000 BKN060 21/13 Q1018 NOSIG
12-09-23 METAR LIMC 231220Z 00000KT 6000 OVC050 21/14 Q1018 NOSIG
12-09-23 METAR LIMC 231250Z VRB01KT 6000 OVC050 22/14 Q1018 NOSIG
12-09-23 METAR LIMC 231320Z VRB01KT 6000 OVC050 21/14 Q1018 NOSIG
12-09-23 METAR LIMC 231350Z VRB02KT 6000 OVC050 21/14 Q1018 NOSIG
12-09-23 METAR LIMC 231420Z VRB01KT 6000 OVC050 21/15 Q1017 NOSIG
12-09-23 METAR LIMC 231450Z VRB01KT 6000 BKN050 21/14 Q1017 NOSIG
12-09-23 METAR LIMC 231520Z 00000KT 6000 BKN050 21/14 Q1017 NOSIG
12-09-23 METAR LIMC 231550Z 00000KT 6000 BKN050 21/14 Q1017 NOSIG
12-09-23 METAR LIMC 231620Z VRB01KT 8000 BKN050 20/14 Q1017 NOSIG
12-09-23 METAR LIMC 231650Z 01003KT 7000 BKN050 20/14 Q1016 NOSIG
12-09-23 METAR LIMC 231720Z 33003KT 7000 BKN050 19/14 Q1016 NOSIG
12-09-23 METAR LIMC 231750Z 35003KT 6000 -RA BKN040 18/16 Q1016 NOSIG
12-09-23 METAR LIMC 231820Z 36003KT 330V030 6000 RA BKN040 18/15 Q1016 NOSIG
12-09-23 METAR LIMC 231850Z 35002KT 6000 RA BKN040 18/16 Q1016 NOSIG
12-09-23 METAR LIMC 231920Z 34002KT 6000 RA BKN040 18/16 Q1016 NOSIG
12-09-23 METAR LIMC 231950Z 34002KT 8000 -RA BKN040 17/16 Q1016 RERA NOSIG
12-09-23 METAR LIMC 232020Z 34002KT 8000 -RA BKN040 17/17 Q1016 RERA NOSIG
12-09-23 METAR LIMC 232050Z 34003KT 8000 -RA BKN040 17/16 Q1016 RERA NOSIG
12-09-23 METAR LIMC 232120Z 34003KT 8000 -RA BKN040 17/16 Q1015 NOSIG
12-09-23 METAR LIMC 232150Z 33004KT 8000 RA BKN040 17/16 Q1015 NOSIG
12-09-23 METAR LIMC 232220Z 34004KT 8000 RA BKN040 16/16 Q1015 NOSIG
12-09-23 METAR LIMC 232250Z 33005KT 5000 RA BKN040 16/16 Q1015 NOSIG
12-09-23 METAR LIMC 232320Z 33004KT 5000 RA BKN040 16/16 Q1014 NOSIG
12-09-23 METAR LIMC 232350Z 34004KT 4000 RA BR BKN040 16/16 Q1014 NOSIG
12-09-24 METAR LIMC 240020Z 33003KT 4000 RA BR BKN040 16/16 Q1014 NOSIG
12-09-24 METAR LIMC 240050Z VRB02KT 2000 RA BR BKN040 16/16 Q1013 NOSIG
12-09-24 METAR LIMC 240120Z 33003KT 300V360 1500 RA BR BKN040 16/16 Q1013 NOSIG
12-09-24 METAR LIMC 240150Z 35003KT 1500 -RA BR BKN040 16/16 Q1012 RERA NOSIG
12-09-24 METAR LIMC 240220Z 35003KT 1500 -RA BR BKN040 16/16 Q1012 RERA NOSIG
12-09-24 METAR LIMC 240250Z 33003KT 3000 -RA BR BKN040 16/16 Q1011 NOSIG
12-09-24 METAR LIMC 240320Z NIL
12-09-24 METAR LIMC 240320Z VRB01KT 3000 -RA BR BKN040 16/16 Q1011 NOSIG
12-09-24 METAR LIMC 240350Z VRB02KT 3000 -RA BR BKN040 16/16 Q1010 NOSIG
12-09-24 METAR LIMC 240420Z 00000KT 3000 -RA BR BKN040 17/16 Q1010 NOSIG
12-09-24 METAR LIMC 240450Z 00000KT 3000 -RA BR BKN040 17/16 Q1010 NOSIG
12-09-24 METAR LIMC 240520Z VRB02KT 3000 -RA BR BKN040 17/16 Q1009 NOSIG
12-09-24 METAR LIMC 240550Z 14003KT 100V170 1500 DZ BR BKN025 17/17 Q1009 NOSIG
12-09-24 METAR LIMC 240620Z 12003KT 070V190 1200 R35L///// R35R/1500N DZ BR OVC015 17/17 Q1009 NOSIG
12-09-24 METAR LIMC 240650Z 13004KT 1200 R35R/P1500 R35L/P1500 DZ BR OVC006 17/17 Q1008 NOSIG
12-09-24 METAR LIMC 240720Z VRB02KT 1200 R35L///// R35R///// DZ BR OVC006 17/17
12-09-24 METAR LIMC 240750Z VRB02KT 1200 R35L///// R35R/1400V1500N DZ BR OVC006
12-09-24 METAR LIMC 240820Z NIL
12-09-24 METAR LIMC 240820Z 15003KT 1000 R35L/1500N R35R/1300V1500N DZ BR OVC006
12-09-24 METAR LIMC 241120Z NIL
12-09-24 METAR LIMC 241150Z NIL
12-09-24 METAR LIMC 241220Z 14004KT 3000 1400NE R35L/1500N R35R/1300V1500N -RA BR FEW006CB SCT015 BKN030 17/17 Q1004 RETSRA NOSIG
12-09-24 METAR LIMC 241250Z 21002KT 5000 BR FEW006 SCT030 BKN060 17/16 Q1005 NOSIG
12-09-24 METAR LIMC 241320Z VRB02KT 4000 BR FEW012 SCT030 BKN060 18/16 Q1005 NOSIG
12-09-24 METAR LIMC 241350Z VRB01KT 4000 BR FEW015 SCT040 BKN060 18/16 Q1005 NOSIG
12-09-24 METAR LIMC 241420Z VRB02KT 5000 BR SCT030 BKN070 19/16 Q1005 NOSIG
12-09-24 METAR LIMC 241450Z VRB02KT 6000 SCT030 SCT070 19/16 Q1005 NOSIG
12-09-24 METAR LIMC 241520Z VRB01KT 7000 BKN015 19/15 Q1005 NOSIG
12-09-24 METAR LIMC 241550Z VRB01KT 6000 FEW015 19/16 Q1005 NOSIG
12-09-24 METAR LIMC 241620Z VRB01KT 6000 FEW015 19/16 Q1005 NOSIG
12-09-24 METAR LIMC 241650Z 30002KT 7000 NSC 18/16 Q1005 NOSIG
12-09-24 METAR LIMC 241720Z VRB02KT 5000 BR NSC 17/16 Q1005 NOSIG
12-09-24 METAR LIMC 241820Z 00000KT 6000 0900N R35L///// R35R/0450V1200N BCFG NSC 15/15 Q1005 NOSIG
12-09-24 METAR LIMC 241850Z VRB01KT 6000 0900N R35L///// R35R/0300V1200U BCFG NSC 15/15 Q1006 NOSIG
12-09-24 METAR LIMC 241920Z 00000KT 6000 0900N R35L///// R35R/0500V1500D BCFG NSC
12-09-24 METAR LIMC 242020Z 00000KT 4000 1400N R35L///// R35R/0250V0800D BCFG NSC 14/14 Q1006 NOSIG
12-09-24 METAR LIMC 242050Z 00000KT 4000 1400N R35L/0325V1500D R35R/0250V1500U BCFG
12-09-24 METAR LIMC 242120Z 00000KT 4000 1400N R35L/0375V1500D R35R///// BCFG NSC 12/12 Q1007 TEMPO 0800
12-09-24 METAR LIMC 242150Z VRB01KT 4000 1400N BCFG NSC 12/12 Q1007 NOSIG
12-09-24 METAR LIMC 242220Z VRB02KT 2500 R35L///// R35R/0300V1500U BCFG NSC 13/13
12-09-24 METAR LIMC 242250Z 00000KT 0500 R35L/0350V0750D R35R/0325V0450N FG NSC 12/12 Q1007 NOSIG
12-09-24 METAR LIMC 242320Z 35003KT 0500 R35L/0300V0450N R35R/0325V0450N FG NSC 14/13 Q1007 NOSIG
12-09-24 METAR LIMC 242350Z VRB02KT 0900 0700NE R35L/0500V1500D R35R/0450N BCFG NSC
12-09-25 METAR LIMC 250020Z VRB01KT 1600 0900N R35L/0600V0800U R35R///// BCFG NSC 12/12 Q1007 NOSIG
12-09-25 METAR LIMC 250050Z NIL
12-09-25 METAR LIMC 250050Z 00000KT 1600 0900N BCFG NSC 11/12 Q1007 NOSIG
12-09-25 METAR LIMC 250120Z 00000KT 4000 BR NSC 11/11 Q1007 NOSIG
12-09-25 METAR LIMC 250150Z 00000KT 8000 NSC 11/12 Q1007 NOSIG
12-09-25 METAR LIMC 250220Z 00000KT 9999 R35L///// R35R/0225V0350N MIFG NSC 11/11
12-09-25 METAR LIMC 250250Z 00000KT 9999 R35L///// R35R/0175N MIFG NSC 11/12 Q1008
12-09-25 METAR LIMC 250320Z 00000KT 9999 R35L///// R35R/0200N MIFG NSC 12/12 Q1008
12-09-25 METAR LIMC 250350Z 01001KT 9999 R35L///// R35R/0150N MIFG NSC 12/12 Q1008
12-09-25 METAR LIMC 250420Z 00000KT 9999 R35L///// R35R/0150V0200N MIFG NSC 12/12 Q1008 NOSIG
12-09-25 METAR LIMC 250450Z VRB01KT 9999 R35L///// R35R/0150V0200N MIFG SCT030 13/13
12-09-25 METAR LIMC 250520Z VRB02KT 9999 BKN015 13/13 Q1008 NOSIG
12-09-25 METAR LIMC 250550Z 35004KT 9999 BKN020 14/14 Q1009 NOSIG
12-09-25 METAR LIMC 250620Z VRB01KT 9999 SCT010 BKN020 14/14 Q1009 NOSIG
12-09-25 METAR LIMC 250650Z VRB02KT 9999 BKN010 BKN020 14/14 Q1009 NOSIG
12-09-25 METAR LIMC 250720Z VRB02KT 9999 RA BKN010 BKN020 15/14 Q1010 NOSIG
12-09-25 METAR LIMC 250750Z 02003KT 320V050 9999 DZ SCT015 BKN040 15/15 Q1010 RERA
12-09-25 METAR LIMC 250820Z 06003KT 030V100 9999 SCT015 BKN040 17/17 Q1010 REDZ
12-09-25 METAR LIMC 250920Z 03003KT 330V080 9999 BKN030 BKN070 17/15 Q1010 NOSIG
12-09-25 METAR LIMC 250950Z 06004KT 030V090 9999 FEW030 SCT070 19/16 Q1009 NOSIG
12-09-25 METAR LIMC 251020Z 09003KT 060V150 9999 SCT030 BKN070 19/16 Q1009 NOSIG
12-09-25 METAR LIMC 251050Z 12004KT 080V170 9999 BKN030 BKN070 19/13 Q1010 NOSIG
12-09-25 METAR LIMC 251120Z 11003KT 050V170 9999 BKN030 BKN070 20/14 Q1009 NOSIG
12-09-25 METAR LIMC 251150Z 11004KT 070V150 9999 SCT030 SCT070 20/14 Q1009 NOSIG
12-09-25 METAR LIMC 251220Z 11004KT 080V150 9999 SCT030 20/14 Q1009 NOSIG
12-09-25 METAR LIMC 251250Z 13005KT 090V150 9999 SCT030 20/14 Q1009 NOSIG
12-09-25 METAR LIMC 251320Z 15005KT 9999 SCT030 21/15 Q1009 NOSIG
12-09-25 METAR LIMC 251350Z 15003KT 110V190 9999 BKN030 20/15 Q1009 NOSIG
12-09-25 METAR LIMC 251420Z VRB02KT 9000 SCT015 BKN045 19/15 Q1009 NOSIG
12-09-25 METAR LIMC 251450Z 00000KT 6000 -RA SCT015 BKN045 19/17 Q1009 NOSIG
12-09-25 METAR LIMC 251520Z 00000KT 6000 -RA SCT015 BKN045 19/17 Q1009 NOSIG
12-09-25 METAR LIMC 251550Z VRB01KT 6000 -RA SCT015 BKN045 19/17 Q1008 NOSIG
12-09-25 METAR LIMC 251620Z VRB01KT 6000 BKN050 19/17 Q1008 NOSIG
12-09-25 METAR LIMC 251650Z VRB02KT 6000 BKN050 19/17 Q1008 NOSIG
12-09-25 METAR LIMC 251720Z VRB01KT 6000 SCT025 SCT070 18/17 Q1008 NOSIG
12-09-25 METAR LIMC 251750Z 12003KT 080V160 9999 SCT025 SCT070 19/16 Q1008 NOSIG
12-09-25 METAR LIMC 251820Z 15003KT 100V170 9999 BKN025 BKN070 19/15 Q1009 NOSIG
12-09-25 METAR LIMC 251920Z VRB02KT 9999 FEW035 BKN070 19/15 Q1008 NOSIG
12-09-25 METAR LIMC 251950Z 10002KT 9999 SCT035 BKN070 18/15 Q1008 NOSIG
12-09-25 METAR LIMC 252020Z 10004KT 020V140 9999 BKN080 18/16 Q1008 NOSIG
12-09-25 METAR LIMC 252050Z 09003KT 9999 BKN070 18/15 Q1009 NOSIG
12-09-25 METAR LIMC 252120Z VRB02KT 9999 SCT035 BKN070 18/15 Q1009 NOSIG
12-09-25 METAR LIMC 252150Z VRB02KT 9999 BKN035 BKN070 18/15 Q1009 NOSIG
12-09-25 METAR LIMC 252220Z VRB01KT 9999 BKN035 BKN070 18/15 Q1009 NOSIG
12-09-25 METAR LIMC 252250Z 10003KT 070V140 9999 BKN035 BKN070 18/14 Q1009 NOSIG
12-09-25 METAR LIMC 252320Z 10003KT 9999 BKN035 BKN070 18/14 Q1009 NOSIG
12-09-25 METAR LIMC 252350Z 10003KT 9999 BKN030 BKN070 18/14 Q1009 NOSIG
12-09-26 METAR LIMC 260020Z 09003KT 9999 BKN030 BKN070 18/14 Q1009 NOSIG
12-09-26 METAR LIMC 260050Z 10003KT 9999 BKN030 BKN070 18/14 Q1008 NOSIG
12-09-26 METAR LIMC 260120Z VRB02KT 9999 SCT030 BKN070 18/14 Q1008 NOSIG
12-09-26 METAR LIMC 260150Z 10003KT 9999 SCT030 BKN070 18/14 Q1008 NOSIG
12-09-26 METAR LIMC 260220Z VRB02KT 9999 BKN030 BKN070 18/14 Q1008 NOSIG
12-09-26 METAR LIMC 260250Z VRB02KT 9999 BKN030 BKN070 18/14 Q1008 NOSIG
12-09-26 METAR LIMC 260320Z VRB02KT 9999 BKN030 BKN070 17/14 Q1008 NOSIG
12-09-26 METAR LIMC 260350Z VRB02KT 9999 BKN030 BKN070 17/14 Q1008 NOSIG
12-09-26 METAR LIMC 260420Z VRB01KT 9999 BKN030 BKN070 17/14 Q1008 NOSIG
12-09-26 METAR LIMC 260450Z 10003KT 050V220 9999 BKN030 BKN060 18/13 Q1008 NOSIG
12-09-26 METAR LIMC 260520Z 10003KT 050V130 9999 BKN030 BKN060 18/14 Q1008 NOSIG
12-09-26 METAR LIMC 260550Z 09003KT 050V130 9999 BKN030 BKN060 18/14 Q1008 NOSIG
12-09-26 METAR LIMC 260620Z 10004KT 030V160 9999 BKN030 BKN060 18/15 Q1008 NOSIG
12-09-26 METAR LIMC 260650Z 11003KT 060V130 9999 SCT030 BKN060 18/15 Q1009 NOSIG
12-09-26 METAR LIMC 260720Z 11003KT 070V140 9999 SCT030 BKN060 18/15 Q1009 NOSIG
12-09-26 METAR LIMC 260750Z 11005KT 070V170 9999 SCT030 BKN060 18/15 Q1009 NOSIG
12-09-26 METAR LIMC 260820Z 11005KT 080V140 9999 SCT035 BKN070 19/16 Q1009 NOSIG
12-09-26 METAR LIMC 260850Z 11004KT 070V140 9999 SCT030 BKN070 19/16 Q1009 NOSIG
12-09-26 METAR LIMC 260920Z 11005KT 070V150 9999 SCT030 BKN070 20/16 Q1009 NOSIG
12-09-26 METAR LIMC 260950Z 12005KT 080V160 9999 SCT030 BKN070 20/16 Q1009 NOSIG
12-09-26 METAR LIMC 261020Z 12005KT 090V150 9999 BKN025 BKN070 20/16 Q1009 NOSIG
12-09-26 METAR LIMC 261050Z 09004KT 9999 BKN025 BKN070 21/15 Q1009 NOSIG
12-09-26 METAR LIMC 261120Z 12003KT 070V180 9999 BKN020 BKN070 20/15 Q1009 NOSIG
12-09-26 METAR LIMC 261150Z 09004KT 040V140 9999 SCT020 BKN070 21/16 Q1009 NOSIG
12-09-26 METAR LIMC 261220Z 12006KT 080V150 9999 SCT020TCU BKN070 22/16 Q1008 NOSIG
12-09-26 METAR LIMC 261250Z 11005KT 070V140 9999 SCT020TCU BKN050 22/16 Q1008 BECMG TS
12-09-26 METAR LIMC 261320Z 11005KT 070V140 9999 SCT020TCU BKN050 21/16 Q1008 BECMG
12-09-26 METAR LIMC 261350Z 11005KT 070V130 9999 SCT020 BKN060 21/16 Q1008 NOSIG
12-09-26 METAR LIMC 261420Z 12007KT 080V150 9999 -RA SCT020 BKN040 22/16 Q1007 RERA BECMG TS
12-09-26 METAR LIMC 261450Z 12007KT 9999 SCT020TCU BKN050 21/16 Q1007 BECMG TS
12-09-26 METAR LIMC 261520Z 12006KT 9999 SCT050 BKN070 21/17 Q1007 NOSIG
12-09-26 METAR LIMC 261550Z 11006KT 080V150 9999 BKN050 BKN070 21/17 Q1006 NOSIG
12-09-26 METAR LIMC 261620Z 12006KT 080V150 8000 RA BKN040 BKN070 20/17 Q1006 NOSIG
12-09-26 METAR LIMC 261650Z 11006KT 080V140 6000 SHRA BKN030 BKN070 19/18 Q1006 NOSIG
12-09-26 METAR LIMC 261720Z 10004KT 070V140 7000 RA BKN030 BKN070 19/18 Q1006 RESHRA
12-09-26 METAR LIMC 261750Z 10004KT 060V140 8000 RA SCT040 BKN070 19/18 Q1006 NOSIG
12-09-26 METAR LIMC 261820Z 11005KT 070V130 9999 SCT040 BKN070 19/18 Q1006 RERA
12-09-26 METAR LIMC 261850Z 10004KT 070V130 9999 SCT040 BKN070 19/17 Q1006 NOSIG
12-09-26 METAR LIMC 261920Z 10004KT 9999 SCT040 BKN070 19/17 Q1006 NOSIG
12-09-26 METAR LIMC 261950Z 10003KT 060V140 9999 SCT040 BKN070 19/17 Q1006 NOSIG
12-09-26 METAR LIMC 262020Z 11005KT 9999 SCT040 BKN070 19/17 Q1006 NOSIG
12-09-26 METAR LIMC 262050Z 11005KT 080V140 9999 -RA SCT040 BKN070 19/17 Q1005
12-09-26 METAR LIMC 262120Z 12006KT 9999 -RA SCT040 BKN070 18/17 Q1005 NOSIG
12-09-26 METAR LIMC 262150Z 12006KT 9999 RA SCT025 BKN070 18/17 Q1005 NOSIG
12-09-26 METAR LIMC 262220Z 12007KT 090V150 9999 RA SCT025 BKN060 18/17 Q1005 NOSIG
12-09-26 METAR LIMC 262250Z 12006KT 090V150 9999 RA SCT025 BKN060 18/17 Q1005 NOSIG
12-09-26 METAR LIMC 262320Z 11006KT 080V150 9999 RA SCT025 BKN060 18/17 Q1005 NOSIG
12-09-26 METAR LIMC 262350Z 11005KT 9999 SCT025 SCT060 18/17 Q1005 RERA NOSIG
12-09-27 METAR LIMC 270020Z NIL
12-09-27 METAR LIMC 270050Z 10004KT 9999 FEW025 SCT060 18/17 Q1005 NOSIG
12-09-27 METAR LIMC 270120Z 10003KT 9999 SCT040 18/17 Q1005 NOSIG
12-09-27 METAR LIMC 270150Z 10004KT 9999 BKN035 18/17 Q1005 NOSIG
12-09-27 METAR LIMC 270220Z 09004KT 9999 BKN035 18/17 Q1006 NOSIG
12-09-27 METAR LIMC 270250Z 10004KT 9999 BKN035 18/16 Q1006 NOSIG
12-09-27 METAR LIMC 270320Z 09004KT 9999 BKN035 18/16 Q1006 NOSIG
12-09-27 METAR LIMC 270350Z 10003KT 9999 BKN035 17/16 Q1006 NOSIG
12-09-27 METAR LIMC 270420Z 09003KT 9999 BKN035 17/16 Q1007 NOSIG
12-09-27 METAR LIMC 270450Z 09003KT CAVOK 17/15 Q1007 NOSIG
12-09-27 METAR LIMC 270520Z 09003KT CAVOK 16/15 Q1008 NOSIG
12-09-27 METAR LIMC 270550Z 09003KT 9999 SCT090 16/15 Q1008 NOSIG
12-09-27 METAR LIMC 270620Z 13003KT 9999 SCT080 17/14 Q1009 NOSIG
12-09-27 METAR LIMC 270650Z 14003KT 9999 FEW080 18/15 Q1009 NOSIG
12-09-27 METAR LIMC 270720Z 19003KT 9999 FEW070 18/15 Q1010 NOSIG
12-09-27 METAR LIMC 270750Z 18003KT 150V210 8000 SCT015 SCT060 18/15 Q1011 NOSIG
12-09-27 METAR LIMC 270820Z NIL
12-09-27 METAR LIMC 270820Z VRB02KT 9999 BKN020 18/15 Q1011 NOSIG
12-09-27 METAR LIMC 270850Z VRB02KT 9999 BKN020 18/15 Q1011 NOSIG
12-09-27 METAR LIMC 270920Z VRB01KT 9999 BKN020 19/15 Q1011 NOSIG
12-09-27 METAR LIMC 270950Z NIL
12-09-27 METAR LIMC 270950Z VRB02KT 9999 BKN020 20/14 Q1011 NOSIG
12-09-27 METAR LIMC 271020Z VRB02KT 9999 BKN030 20/14 Q1011 NOSIG
12-09-27 METAR LIMC 271050Z VRB02KT 9999 BKN030 21/14 Q1011 NOSIG
12-09-27 METAR LIMC 271120Z VRB02KT 9999 BKN030 22/13 Q1011 NOSIG
12-09-27 METAR LIMC 271150Z VRB02KT 9999 BKN030 21/12 Q1011 NOSIG
12-09-27 METAR LIMC 271220Z VRB02KT 9999 BKN030 21/12 Q1011 NOSIG
12-09-27 METAR LIMC 271250Z VRB02KT 9999 SCT030 SCT060 22/11 Q1011 NOSIG
12-09-27 METAR LIMC 271320Z VRB02KT 9999 SCT030 SCT060 22/11 Q1011 NOSIG
12-09-27 METAR LIMC 271350Z 11003KT 060V150 9999 SCT030 SCT060 22/12 Q1011 NOSIG
12-09-27 METAR LIMC 271420Z 17003KT 120V210 9999 SCT030 SCT080 23/11 Q1011 NOSIG
12-09-27 METAR LIMC 271450Z 13004KT 100V160 9999 SCT020 SCT080 22/12 Q1012 NOSIG
12-09-27 METAR LIMC 271520Z 15004KT 9999 SCT020 SCT050 21/11 Q1012 NOSIG
12-09-27 METAR LIMC 271550Z 16003KT 9999 FEW020 SCT050 20/12 Q1012 NOSIG
12-09-27 METAR LIMC 271620Z 15003KT 9999 FEW020 BKN050 20/11 Q1012 NOSIG
12-09-27 METAR LIMC 271650Z 15003KT 9999 FEW020 BKN090 19/12 Q1012 NOSIG
12-09-27 METAR LIMC 271720Z VRB02KT 9999 FEW020 SCT090 18/12 Q1013 NOSIG
12-09-27 METAR LIMC 271750Z VRB02KT 9999 FEW030 SCT090 18/11 Q1013 NOSIG
12-09-27 METAR LIMC 271820Z 15002KT 9999 FEW030 SCT080 17/12 Q1014 NOSIG
12-09-27 METAR LIMC 271850Z VRB01KT 9999 SCT080 17/12 Q1015 NOSIG
12-09-27 METAR LIMC 271920Z VRB01KT 9999 SCT080 16/12 Q1015 NOSIG
12-09-27 METAR LIMC 271950Z VRB02KT 9999 FEW080 16/12 Q1016 NOSIG
12-09-27 METAR LIMC 272020Z VRB01KT CAVOK 15/12 Q1016 NOSIG
12-09-27 METAR LIMC 272050Z VRB02KT CAVOK 16/12 Q1016 NOSIG
12-09-27 METAR LIMC 272120Z VRB02KT CAVOK 16/12 Q1016 NOSIG
12-09-27 METAR LIMC 272150Z 00000KT CAVOK 13/12 Q1016 NOSIG
12-09-27 METAR LIMC 272220Z VRB01KT CAVOK 13/11 Q1016 NOSIG
12-09-27 METAR LIMC 272250Z 34003KT CAVOK 13/12 Q1016 NOSIG
12-09-27 METAR LIMC 272320Z 35001KT CAVOK 13/11 Q1017 NOSIG
12-09-27 METAR LIMC 272350Z 00000KT CAVOK 12/11 Q1017 NOSIG
12-09-28 METAR LIMC 280020Z 01001KT CAVOK 12/11 Q1017 NOSIG
12-09-28 METAR LIMC 280050Z 01002KT CAVOK 12/11 Q1017 NOSIG
12-09-28 METAR LIMC 280120Z 36002KT CAVOK 12/11 Q1017 NOSIG
12-09-28 METAR LIMC 280150Z 36001KT 9999 SCT070 12/11 Q1017 NOSIG
12-09-28 METAR LIMC 280220Z VRB01KT 9999 SCT070 11/11 Q1017 NOSIG
12-09-28 METAR LIMC 280250Z 36003KT 9999 SCT070 13/12 Q1017 NOSIG
12-09-28 METAR LIMC 280320Z 00000KT 9999 SCT070 11/11 Q1017 NOSIG
12-09-28 METAR LIMC 280350Z 00000KT 9999 SCT070 10/10 Q1017 NOSIG
12-09-28 METAR LIMC 280420Z 00000KT 9999 SCT070 11/10 Q1018 NOSIG
12-09-28 METAR LIMC 280450Z VRB02KT CAVOK 11/10 Q1018 NOSIG
12-09-28 METAR LIMC 280520Z 02001KT CAVOK 12/11 Q1018 NOSIG
12-09-28 METAR LIMC 280550Z VRB02KT 9999 MIFG NSC 13/11 Q1018 NOSIG
12-09-28 METAR LIMC 280620Z 35002KT CAVOK 13/12 Q1019 NOSIG
12-09-28 METAR LIMC 280650Z 35002KT CAVOK 13/12 Q1019 NOSIG
12-09-28 METAR LIMC 280720Z 36002KT CAVOK 14/12 Q1019 NOSIG
12-09-28 METAR LIMC 280750Z 36003KT CAVOK 15/12 Q1019 NOSIG
12-09-28 METAR LIMC 280820Z VRB02KT CAVOK 17/12 Q1020 NOSIG
12-09-28 METAR LIMC 280850Z VRB02KT 9999 FEW080 19/12 Q1020 NOSIG
12-09-28 METAR LIMC 280920Z VRB02KT CAVOK 20/12 Q1020 NOSIG
12-09-28 METAR LIMC 280950Z VRB01KT CAVOK 20/11 Q1019 NOSIG
12-09-28 METAR LIMC 281020Z VRB02KT CAVOK 21/11 Q1019 NOSIG
12-09-28 METAR LIMC 281050Z VRB02KT 9999 FEW030 22/12 Q1019 NOSIG
12-09-28 METAR LIMC 281120Z 16003KT 110V250 9999 SCT030 22/12 Q1019 NOSIG
12-09-28 METAR LIMC 281150Z 14003KT 110V180 9999 FEW030 BKN080 22/12 Q1019 NOSIG
12-09-28 METAR LIMC 281220Z 16003KT 110V190 9999 FEW030 SCT080 22/13 Q1019 NOSIG
12-09-28 METAR LIMC 281250Z 14003KT 100V180 9999 FEW030 SCT080 22/12 Q1019 NOSIG
12-09-28 METAR LIMC 281320Z 17003KT 140V210 9999 FEW030 SCT080 22/13 Q1019 NOSIG
12-09-28 METAR LIMC 281350Z VRB02KT 9999 FEW030 BKN080 22/12 Q1018 NOSIG
12-09-28 METAR LIMC 281420Z 16003KT 120V200 9999 FEW030 BKN080 22/13 Q1018 NOSIG
12-09-28 METAR LIMC 281450Z VRB02KT 9999 FEW030 BKN080 22/12 Q1018 NOSIG
12-09-28 METAR LIMC 281520Z VRB01KT 9999 FEW030 BKN080 22/12 Q1018 NOSIG
12-09-28 METAR LIMC 281550Z VRB02KT CAVOK 22/11 Q1018 NOSIG
12-09-28 METAR LIMC 281620Z 00000KT CAVOK 21/12 Q1019 NOSIG
12-09-28 METAR LIMC 281650Z 00000KT CAVOK 20/12 Q1019 NOSIG
12-09-28 METAR LIMC 281720Z 14001KT 9999 SCT080 18/12 Q1019 NOSIG
12-09-28 METAR LIMC 281750Z 00000KT 9999 SCT080 18/12 Q1019 NOSIG
12-09-28 METAR LIMC 281820Z VRB01KT 9999 SCT080 17/12 Q1019 NOSIG
12-09-28 METAR LIMC 281850Z 00000KT 9999 BKN070 16/13 Q1020 NOSIG
12-09-28 METAR LIMC 281920Z 00000KT 9999 BKN070 17/13 Q1020 NOSIG
12-09-28 METAR LIMC 281950Z 00000KT 9999 BKN070 17/13 Q1020 NOSIG
12-09-28 METAR LIMC 282020Z VRB01KT 9999 BKN070 17/13 Q1020 NOSIG
12-09-28 METAR LIMC 282050Z 36002KT 9999 SCT070 16/12 Q1020 NOSIG
12-09-28 METAR LIMC 282120Z 35003KT CAVOK 15/13 Q1020 NOSIG
12-09-28 METAR LIMC 282150Z 35002KT CAVOK 16/13 Q1020 NOSIG
12-09-28 METAR LIMC 282220Z 36002KT 9999 BKN070 16/14 Q1020 NOSIG
12-09-28 METAR LIMC 282250Z VRB02KT 9999 -RA SCT030 BKN070 16/14 Q1020 NOSIG
12-09-28 METAR LIMC 282320Z 02001KT 9999 -RA SCT030 BKN070 16/14 Q1020 NOSIG
12-09-28 METAR LIMC 282350Z 01002KT 9999 -RA SCT030 BKN070 16/15 Q1020 NOSIG
12-09-29 METAR LIMC 290050Z 35003KT 9999 SCT030 BKN070 16/15 Q1019 NOSIG
12-09-29 METAR LIMC 290120Z 34001KT 9999 BKN070 16/15 Q1019 NOSIG
12-09-29 METAR LIMC 290150Z 33002KT 9999 -RA BKN050 16/15 Q1019 RERA NOSIG
12-09-29 METAR LIMC 290220Z 01002KT 9999 -RA BKN050 15/15 Q1019 NOSIG
12-09-29 METAR LIMC 290250Z 35002KT 9999 BKN050 15/14 Q1018 NOSIG
12-09-29 METAR LIMC 290320Z 35002KT 9999 BKN060 16/14 Q1018 NOSIG
12-09-29 METAR LIMC 290350Z 34001KT 9999 BKN060 15/14 Q1018 NOSIG
12-09-29 METAR LIMC 290420Z VRB01KT 9999 BKN060 15/14 Q1018 NOSIG
12-09-29 METAR LIMC 290450Z VRB02KT 9999 BKN060 15/14 Q1018 NOSIG
12-09-29 METAR LIMC 290520Z 01002KT 9999 BKN060 16/14 Q1018 NOSIG
12-09-29 METAR LIMC 290550Z VRB01KT 9999 BKN060 16/14 Q1019 NOSIG
12-09-29 METAR LIMC 290620Z 34002KT 9999 BKN060 16/14 Q1019 NOSIG
12-09-29 METAR LIMC 290650Z 34003KT 9999 BKN060 16/14 Q1019 NOSIG
12-09-29 METAR LIMC 290720Z 35002KT 9999 BKN060 16/14 Q1019 NOSIG
12-09-29 METAR LIMC 290750Z 02002KT 9999 BKN060 16/14 Q1019 NOSIG
12-09-29 METAR LIMC 290820Z VRB02KT 9999 BKN060 16/14 Q1019 NOSIG
12-09-29 METAR LIMC 290850Z 00000KT 9999 BKN060 16/14 Q1019 NOSIG
12-09-29 METAR LIMC 290920Z 00000KT 9999 -RA BKN060 16/15 Q1020 NOSIG
12-09-29 METAR LIMC 290950Z 35003KT 9999 -RA BKN060 16/15 Q1019 NOSIG
12-09-29 METAR LIMC 291020Z 36004KT 9999 -RA BKN060 16/15 Q1018 NOSIG
12-09-29 METAR LIMC 291050Z 32002KT 9999 -RA BKN060 16/15 Q1018 NOSIG
12-09-29 METAR LIMC 291120Z VRB02KT 9999 -RA BKN060 16/15 Q1017 NOSIG
12-09-29 METAR LIMC 291150Z VRB02KT 9999 -RA FEW030 BKN050 OVC060 16/15 Q1018 NOSIG
12-09-29 METAR LIMC 291220Z VRB02KT 9999 BKN050 OVC060 17/15 Q1017 NOSIG
12-09-29 METAR LIMC 291250Z VRB01KT 9999 -RA BKN050 OVC060 16/15 Q1017 NOSIG
12-09-29 METAR LIMC 291320Z 00000KT 9999 -RA FEW025 BKN050 OVC060 17/16 Q1017 NOSIG
12-09-29 METAR LIMC 291350Z VRB01KT 9999 -RA SCT025 OVC050 17/15 Q1017 NOSIG
12-09-29 METAR LIMC 291420Z 24002KT 9000 -RA SCT020 OVC050 17/16 Q1017 NOSIG
12-09-29 METAR LIMC 291450Z 28003KT 250V310 2500 RA BKN012 OVC040 15/15 Q1017 NOSIG
12-09-29 METAR LIMC 291520Z 36005KT 9000 4000E -RA SCT020 OVC040 15/15 Q1016 RERA NOSIG
12-09-29 METAR LIMC 291550Z 02003KT 320V040 8000 -RA SCT020 OVC040 16/15 Q1016 RERA
12-09-29 METAR LIMC 291620Z 04003KT 9000 -RA SCT020 OVC050 15/14 Q1015 NOSIG
12-09-29 METAR LIMC 291650Z VRB01KT 9000 BKN020 OVC035 16/15 Q1017 NOSIG
12-09-29 METAR LIMC 291720Z VRB02KT 6000 RA BKN020 OVC035 15/15 Q1016 NOSIG
12-09-29 METAR LIMC 291750Z 35002KT 9000 -RA BKN020 OVC035 15/15 Q1017 RERA NOSIG
12-09-29 METAR LIMC 291820Z 00000KT 9000 -RA BKN020 OVC040 15/15 Q1017 NOSIG
12-09-29 METAR LIMC 291850Z 31003KT 9999 -RA BKN020 OVC040 15/15 Q1017 NOSIG
12-09-29 METAR LIMC 291920Z 01003KT 9999 -RA BKN020 OVC040 15/14 Q1017 NOSIG
12-09-29 METAR LIMC 291950Z VRB02KT 9999 RA BKN020 OVC040 15/14 Q1017 NOSIG
12-09-29 METAR LIMC 292020Z 03001KT 9999 -RA BKN020 OVC040 15/15 Q1017 RERA NOSIG
12-09-29 METAR LIMC 292050Z 34002KT 9999 BKN020 OVC040 15/15 Q1017 NOSIG
12-09-29 METAR LIMC 292120Z 36002KT 9999 BKN020 OVC040 15/15 Q1017 NOSIG
12-09-29 METAR LIMC 292150Z 35002KT 9999 BKN020 OVC040 15/15 Q1017 NOSIG
12-09-29 METAR LIMC 292220Z 01002KT 9999 BKN020 OVC040 15/14 Q1017 NOSIG
12-09-29 METAR LIMC 292250Z 00000KT 9999 BKN020 OVC040 15/15 Q1017 NOSIG
12-09-29 METAR LIMC 292320Z 00000KT 9999 BKN020 OVC040 15/15 Q1017 NOSIG
12-09-29 METAR LIMC 292350Z 00000KT 9999 BKN020 OVC040 15/15 Q1017 NOSIG
12-09-30 METAR LIMC 300020Z 00000KT 9999 BKN020 OVC040 15/15 Q1017 NOSIG
12-09-30 METAR LIMC 300050Z 00000KT 9999 BKN020 OVC040 15/15 Q1017 NOSIG
12-09-30 METAR LIMC 300120Z 00000KT 9999 BKN020 OVC040 15/15 Q1017 NOSIG
12-09-30 METAR LIMC 300150Z 30001KT 9999 BKN020 OVC040 16/15 Q1017 NOSIG
12-09-30 METAR LIMC 300220Z VRB02KT 9999 BKN040 15/15 Q1017 NOSIG
12-09-30 METAR LIMC 300250Z 00000KT 9999 BKN040 15/15 Q1017 NOSIG
12-09-30 METAR LIMC 300320Z 25002KT 9999 BKN040 15/15 Q1017 NOSIG
12-09-30 METAR LIMC 300350Z VRB02KT 9999 BKN040 15/15 Q1016 NOSIG
12-09-30 METAR LIMC 300420Z 33001KT 9999 BKN040 15/15 Q1016 NOSIG
12-09-30 METAR LIMC 300450Z 00000KT 9999 BKN040 15/15 Q1016 NOSIG
12-09-30 METAR LIMC 300520Z VRB01KT 9999 BKN040 15/15 Q1017 NOSIG
12-09-30 METAR LIMC 300550Z 00000KT 9999 BKN040 16/15 Q1017 NOSIG
12-09-30 METAR LIMC 300620Z 00000KT 9999 BKN035 BKN050 16/15 Q1017 NOSIG
12-09-30 METAR LIMC 300650Z 00000KT 9999 BKN035 BKN050 16/15 Q1018 NOSIG
12-09-30 METAR LIMC 300720Z 23002KT 9999 FEW010 BKN030 BKN050 16/15 Q1018 NOSIG
12-09-30 METAR LIMC 300750Z 00000KT 9999 FEW010 BKN030 BKN050 17/15 Q1018 NOSIG
12-09-30 METAR LIMC 300820Z VRB02KT 9999 FEW010 BKN030 BKN050 17/15 Q1019 NOSIG
12-09-30 METAR LIMC 300850Z 01003KT 9999 FEW010 BKN030 BKN050 18/15 Q1019 NOSIG
12-09-30 METAR LIMC 300920Z VRB02KT 9999 FEW010 BKN030 BKN050 18/15 Q1019 NOSIG
12-09-30 METAR LIMC 300950Z 00000KT 9999 SCT025 BKN050 19/15 Q1019 NOSIG
12-09-30 METAR LIMC 301020Z VRB02KT 9999 SCT025 BKN050 20/15 Q1019 NOSIG
12-09-30 METAR LIMC 301050Z VRB02KT 9999 SCT030 21/15 Q1019 NOSIG
12-09-30 METAR LIMC 301120Z VRB02KT 9999 SCT030 21/15 Q1019 NOSIG
12-09-30 METAR LIMC 301150Z VRB02KT 9999 BKN020 21/15 Q1018 NOSIG
12-09-30 METAR LIMC 301220Z VRB02KT 9999 SCT030 SCT080 21/16 Q1018 NOSIG
12-09-30 METAR LIMC 301250Z VRB01KT 9999 SCT030 21/15 Q1018 NOSIG
12-09-30 METAR LIMC 301320Z 00000KT 9999 SCT035 22/15 Q1018 NOSIG
12-09-30 METAR LIMC 301350Z VRB01KT 9999 SCT035 23/16 Q1017 NOSIG
12-09-30 METAR LIMC 301420Z VRB01KT 9999 SCT035 22/15 Q1017 NOSIG
12-09-30 METAR LIMC 301450Z VRB02KT 9999 SCT035 23/15 Q1017 NOSIG
12-09-30 METAR LIMC 301520Z 16003KT 130V200 9999 SCT030 22/15 Q1016 NOSIG
12-09-30 METAR LIMC 301550Z 16003KT 9999 FEW030 22/16 Q1016 NOSIG
12-09-30 METAR LIMC 301620Z 18002KT 9999 SCT030 21/16 Q1016 NOSIG
12-09-30 METAR LIMC 301650Z VRB02KT 9999 FEW030TCU 20/16 Q1016 NOSIG
12-09-30 METAR LIMC 301720Z 16001KT 9999 FEW030 18/16 Q1016 NOSIG
12-09-30 METAR LIMC 301750Z 00000KT 9999 FEW030 SCT080 18/16 Q1016 NOSIG
12-09-30 METAR LIMC 301820Z 17001KT 9999 FEW030 SCT080 18/17 Q1017 NOSIG
12-09-30 METAR LIMC 301850Z 26001KT 9999 FEW030 BKN080 19/15 Q1017 NOSIG
12-09-30 METAR LIMC 301920Z 25002KT 9999 SCT030 BKN080 19/15 Q1017 NOSIG
12-09-30 METAR LIMC 301950Z VRB02KT 9999 SCT030 BKN080 19/16 Q1017 NOSIG
12-09-30 METAR LIMC 302020Z 33003KT 9999 SCT030 BKN080 18/16 Q1017 NOSIG
12-09-30 METAR LIMC 302050Z 33004KT 9999 SCT030 BKN080 17/16 Q1017 NOSIG
12-09-30 METAR LIMC 302120Z 34004KT 9999 SCT030 BKN080 17/16 Q1017 NOSIG
12-09-30 METAR LIMC 302150Z 35003KT 9999 FEW025 BKN060 16/14 Q1016 NOSIG
12-09-30 METAR LIMC 302220Z 34002KT 9999 FEW025 BKN060 16/14 Q1016 NOSIG
12-09-30 METAR LIMC 302250Z 03003KT 340V070 9999 FEW020 BKN045 16/14 Q1017 NOSIG
12-09-30 METAR LIMC 302320Z 03005KT 7000 SHRA BKN015 OVC030 15/14 Q1016 NOSIG
12-09-30 METAR LIMC 302350Z 03002KT 7000 SHRA BKN015 OVC030 15/14 Q1017 NOSIG
12-10-01 METAR LIMC 010020Z 14002KT 9000 RA SCT015 OVC030 15/14 Q1017 RESHRA NOSIG
12-10-01 METAR LIMC 010050Z 24002KT 9999 RA SCT020 OVC040 15/15 Q1017 NOSIG
12-10-01 METAR LIMC 010120Z 34003KT 9999 RA OVC030 15/14 Q1017 NOSIG
12-10-01 METAR LIMC 010150Z 01003KT 9999 RA OVC030 15/14 Q1016 NOSIG
12-10-01 METAR LIMC 010220Z 31002KT 9999 RA OVC030 15/14 Q1017 NOSIG
12-10-01 METAR LIMC 010250Z 35002KT 9999 -RA BKN030 BKN050 15/14 Q1017 RERA NOSIG
12-10-01 METAR LIMC 010320Z 34002KT 9999 -RA BKN030 BKN050 15/14 Q1017 RERA NOSIG
12-10-01 METAR LIMC 010350Z 35001KT 9999 BKN030 BKN050 15/14 Q1016 NOSIG
12-10-01 METAR LIMC 010420Z 36002KT 9999 BKN030 BKN050 15/14 Q1016 NOSIG
12-10-01 METAR LIMC 010450Z 35002KT 9999 -RA BKN035 15/14 Q1016 NOSIG
12-10-01 METAR LIMC 010520Z 00000KT 9999 BKN060 15/14 Q1016 NOSIG
12-10-01 METAR LIMC 010550Z 00000KT 9999 BKN060 15/14 Q1016 NOSIG
12-10-01 METAR LIMC 010620Z VRB01KT 9999 BKN060 15/15 Q1016 NOSIG
12-10-01 METAR LIMC 010650Z VRB01KT 9999 3000SW VCFG BKN060 16/15 Q1017 NOSIG
12-10-01 METAR LIMC 010720Z 30001KT 9999 3000SW VCFG BKN080 16/15 Q1017 NOSIG
12-10-01 METAR LIMC 010750Z VRB02KT 9999 SCT080 17/16 Q1017 NOSIG
12-10-01 METAR LIMC 010820Z VRB01KT 9999 FEW056 SCT080 19/16 Q1017 NOSIG
12-10-01 METAR LIMC 010850Z VRB01KT 9999 SCT010 SCT080 19/16 Q1017 NOSIG
12-10-01 METAR LIMC 010920Z VRB02KT 9999 SCT010 SCT080 18/16 Q1017 NOSIG
12-10-01 METAR LIMC 010950Z VRB01KT 9999 FEW010 SCT080 20/15 Q1017 NOSIG
12-10-01 METAR LIMC 011020Z 00000KT 9999 FEW015 BKN080 21/14 Q1017 NOSIG
12-10-01 METAR LIMC 011050Z VRB01KT 9999 SCT018 BKN080 21/14 Q1017 NOSIG
12-10-01 METAR LIMC 011120Z VRB02KT 9999 SCT025 BKN080 21/14 Q1017 NOSIG
12-10-01 METAR LIMC 011150Z VRB02KT 9999 SCT025 BKN080 21/15 Q1016 NOSIG
12-10-01 METAR LIMC 011220Z VRB02KT 9999 SCT025 SCT080 21/14 Q1016 NOSIG
12-10-01 METAR LIMC 011250Z 21003KT 9999 SCT025 BKN080 21/15 Q1016 NOSIG
12-10-01 METAR LIMC 011320Z VRB02KT 9999 SCT025 BKN080 21/15 Q1016 NOSIG
12-10-01 METAR LIMC 011350Z VRB02KT 9999 FEW025 BKN060 21/15 Q1016 NOSIG
12-10-01 METAR LIMC 011420Z 00000KT 9999 FEW025 SCT060 21/14 Q1016 NOSIG
12-10-01 METAR LIMC 011450Z VRB02KT 9999 FEW025 SCT060 21/14 Q1016 NOSIG
12-10-01 METAR LIMC 011520Z 17001KT 9999 FEW025 SCT060 21/15 Q1016 NOSIG
12-10-01 METAR LIMC 011550Z VRB02KT 9999 FEW025 SCT060 21/14 Q1016 NOSIG
12-10-01 METAR LIMC 011620Z VRB02KT 9999 FEW025 SCT060 20/15 Q1016 NOSIG
12-10-01 METAR LIMC 011650Z VRB02KT 9999 SCT060 20/14 Q1016 NOSIG
12-10-01 METAR LIMC 011720Z VRB02KT 9999 SCT060 19/15 Q1016 NOSIG
12-10-01 METAR LIMC 011750Z 00000KT 9999 SCT060 17/15 Q1017 NOSIG
12-10-01 METAR LIMC 011820Z VRB01KT 9999 FEW060 18/15 Q1017 NOSIG
12-10-01 METAR LIMC 011850Z 00000KT 9999 FEW060 16/15 Q1017 NOSIG
12-10-01 METAR LIMC 011920Z 00000KT CAVOK 16/15 Q1017 NOSIG
12-10-01 METAR LIMC 011950Z VRB01KT CAVOK 15/15 Q1018 NOSIG
12-10-01 METAR LIMC 012020Z VRB02KT 9999 BKN025 16/15 Q1018 NOSIG
12-10-01 METAR LIMC 012050Z 13003KT 090V150 CAVOK 17/15 Q1018 NOSIG
12-10-01 METAR LIMC 012120Z VRB01KT 9999 FEW025 15/14 Q1018 NOSIG
12-10-01 METAR LIMC 012150Z 35002KT CAVOK 14/14 Q1018 NOSIG
12-10-01 METAR LIMC 012220Z 36002KT 6000 FEW025 14/13 Q1018 NOSIG
12-10-01 METAR LIMC 012250Z 00000KT 5000 BR FEW025 13/13 Q1018 NOSIG
12-10-01 METAR LIMC 012320Z 36002KT 6000 SCT008 14/13 Q1018 NOSIG
12-10-01 METAR LIMC 012350Z 00000KT 6000 SCT009 14/14 Q1017 NOSIG
12-10-02 METAR LIMC 020020Z VRB01KT 5000 BR NSC 14/13 Q1017 NOSIG
12-10-02 METAR LIMC 020050Z 11001KT 5000 BR NSC 13/12 Q1017 NOSIG
12-10-02 METAR LIMC 020120Z 00000KT 4000 1500W BR NSC 13/12 Q1017 NOSIG
12-10-02 METAR LIMC 020150Z 36001KT 4000 BR NSC 13/12 Q1017 NOSIG
12-10-02 METAR LIMC 020250Z 35003KT 2500 R17R/0900V1500D R35L///// BCFG NSC 12/12 Q1017 NOSIG
12-10-02 METAR LIMC 020320Z 35003KT 1000 0600E R17R/0600N R35L/0650N BCFG NSC 13/12
12-10-02 METAR LIMC 020350Z 01002KT 1000 0600E R35L/0700V1300D BCFG NSC 13/13 Q1017
12-10-02 METAR LIMC 020420Z 00000KT 1500 0600S R35L/0450V0750D R35R/1000V1500D BCFG NSC 13/13 Q1017 NOSIG
12-10-02 METAR LIMC 020450Z 00000KT 1500 0700S R35L/0450V1300U R35R/0650V1500D BCFG
12-10-02 METAR LIMC 020520Z 00000KT 2500 1000S BCFG NSC 12/12 Q1017 NOSIG
12-10-02 METAR LIMC 020550Z VRB02KT 3000 R35L/1500N R35R/0800V1500N MIFG NSC 13/12
12-10-02 METAR LIMC 020620Z 33001KT 6000 MIFG NSC 13/13 Q1017 NOSIG
12-10-02 METAR LIMC 020650Z 00000KT 9000 NSC 15/15 Q1017 NOSIG
12-10-02 METAR LIMC 020720Z 35002KT CAVOK 15/15 Q1018 NOSIG
12-10-02 METAR LIMC 020750Z VRB01KT CAVOK 17/15 Q1018 NOSIG
12-10-02 METAR LIMC 020820Z VRB01KT CAVOK 18/15 Q1018 NOSIG
12-10-02 METAR LIMC 020850Z VRB01KT CAVOK 19/14 Q1018 NOSIG
12-10-02 METAR LIMC 020920Z VRB02KT CAVOK 19/14 Q1018 NOSIG
12-10-02 METAR LIMC 020950Z VRB01KT CAVOK 21/13 Q1017 NOSIG
12-10-02 METAR LIMC 021020Z VRB02KT CAVOK 21/14 Q1017 NOSIG
12-10-02 METAR LIMC 021050Z 23003KT 190V260 9999 FEW020 21/13 Q1017 NOSIG
12-10-02 METAR LIMC 021120Z 24003KT 200V270 9999 FEW020 21/14 Q1017 NOSIG
12-10-02 METAR LIMC 021150Z 24003KT 200V280 9999 FEW020 21/14 Q1017 NOSIG
12-10-02 METAR LIMC 021220Z 23003KT 140V280 9999 SCT030 22/14 Q1016 NOSIG
12-10-02 METAR LIMC 021250Z 21004KT 180V250 9999 SCT030 22/14 Q1016 NOSIG
12-10-02 METAR LIMC 021320Z 22004KT 190V250 9999 SCT030 23/13 Q1016 NOSIG
12-10-02 METAR LIMC 021350Z 23003KT 180V270 9999 SCT030 23/14 Q1016 NOSIG
12-10-02 METAR LIMC 021420Z 21004KT 150V260 9999 SCT030 22/13 Q1016 NOSIG
12-10-02 METAR LIMC 021450Z 23003KT 9999 FEW030 23/14 Q1016 NOSIG
12-10-02 METAR LIMC 021520Z 23003KT 170V260 CAVOK 22/13 Q1016 NOSIG
12-10-02 METAR LIMC 021550Z 25003KT CAVOK 22/13 Q1016 NOSIG
12-10-02 METAR LIMC 021620Z 22003KT CAVOK 22/13 Q1016 NOSIG
12-10-02 METAR LIMC 021650Z 16001KT CAVOK 20/14 Q1016 NOSIG
12-10-02 METAR LIMC 021720Z 00000KT CAVOK 18/14 Q1016 NOSIG
12-10-02 METAR LIMC 021750Z 00000KT CAVOK 17/14 Q1017 NOSIG
12-10-02 METAR LIMC 021820Z 00000KT CAVOK 16/14 Q1017 NOSIG
12-10-02 METAR LIMC 021850Z 00000KT CAVOK 16/15 Q1017 NOSIG
12-10-02 METAR LIMC 021920Z 18002KT CAVOK 17/14 Q1017 NOSIG
12-10-02 METAR LIMC 021950Z 19002KT CAVOK 17/14 Q1018 NOSIG
12-10-02 METAR LIMC 022020Z 00000KT CAVOK 17/13 Q1018 NOSIG
12-10-02 METAR LIMC 022050Z 00000KT CAVOK 17/14 Q1018 NOSIG
12-10-02 METAR LIMC 022120Z VRB01KT CAVOK 15/14 Q1018 NOSIG
12-10-02 METAR LIMC 022150Z 00000KT CAVOK 13/13 Q1019 NOSIG
12-10-02 METAR LIMC 022220Z 00000KT CAVOK 13/12 Q1019 NOSIG
12-10-02 METAR LIMC 022250Z 00000KT CAVOK 13/12 Q1019 NOSIG
12-10-02 METAR LIMC 022320Z NIL
12-10-02 METAR LIMC 022350Z 00000KT CAVOK 12/12 Q1018 NOSIG
12-10-03 METAR LIMC 030020Z 03001KT CAVOK 12/11 Q1018 NOSIG
12-10-03 METAR LIMC 030050Z 00000KT CAVOK 12/11 Q1018 NOSIG
12-10-03 METAR LIMC 030120Z 00000KT CAVOK 11/11 Q1018 NOSIG
12-10-03 METAR LIMC 030150Z 34001KT CAVOK 11/11 Q1018 NOSIG
12-10-03 METAR LIMC 030220Z 00000KT CAVOK 11/11 Q1018 NOSIG
12-10-03 METAR LIMC 030250Z VRB01KT 9999 BKN040 12/11 Q1018 NOSIG
12-10-03 METAR LIMC 030320Z 00000KT 9999 BKN040 12/12 Q1018 NOSIG
12-10-03 METAR LIMC 030350Z 00000KT 9999 BKN040 13/12 Q1018 NOSIG
12-10-03 METAR LIMC 030420Z 01002KT 9999 SCT030 13/13 Q1018 NOSIG
12-10-03 METAR LIMC 030450Z VRB02KT 9999 FEW035 SCT070 13/12 Q1018 NOSIG
12-10-03 METAR LIMC 030520Z 00000KT 9999 BKN050 13/12 Q1018 NOSIG
12-10-03 METAR LIMC 030550Z 00000KT 9999 BKN050 13/12 Q1018 NOSIG
12-10-03 METAR LIMC 030620Z VRB02KT 9999 SCT050 13/13 Q1019 NOSIG
12-10-03 METAR LIMC 030650Z VRB01KT 9999 SCT050 14/13 Q1019 NOSIG
12-10-03 METAR LIMC 030720Z 00000KT 9999 SCT050 15/14 Q1019 NOSIG
12-10-03 METAR LIMC 030750Z 00000KT CAVOK 17/13 Q1019 NOSIG
12-10-03 METAR LIMC 030820Z 00000KT CAVOK 18/14 Q1019 NOSIG
12-10-03 METAR LIMC 030850Z 00000KT CAVOK 19/14 Q1019 NOSIG
12-10-03 METAR LIMC 030920Z VRB02KT CAVOK 19/14 Q1019 NOSIG
12-10-03 METAR LIMC 030950Z VRB02KT CAVOK 20/14 Q1019 NOSIG
12-10-03 METAR LIMC 031020Z 20003KT 160V250 CAVOK 20/14 Q1019 NOSIG
12-10-03 METAR LIMC 031050Z VRB02KT CAVOK 21/14 Q1019 NOSIG
12-10-03 METAR LIMC 031120Z 00000KT 9999 SCT040 22/14 Q1019 NOSIG
12-10-03 METAR LIMC 031150Z VRB02KT 9999 FEW040 22/13 Q1018 NOSIG
12-10-03 METAR LIMC 031220Z VRB03KT 9999 FEW040 22/12 Q1018 NOSIG
12-10-03 METAR LIMC 031250Z 16003KT 110V220 9999 FEW040 22/12 Q1018 NOSIG
12-10-03 METAR LIMC 031320Z VRB02KT 9999 SCT040 23/12 Q1018 NOSIG
12-10-03 METAR LIMC 031350Z 15003KT 110V170 9999 SCT040 23/12 Q1017 NOSIG
12-10-03 METAR LIMC 031420Z 20003KT 160V230 9999 SCT040 23/12 Q1017 NOSIG
12-10-03 METAR LIMC 031450Z 15004KT 9999 SCT040 22/12 Q1017 NOSIG
12-10-03 METAR LIMC 031520Z 15003KT 110V170 9999 SCT040 22/12 Q1017 NOSIG
12-10-03 METAR LIMC 031550Z 14003KT 090V160 9999 SCT040 22/12 Q1017 NOSIG
12-10-03 METAR LIMC 031620Z 16001KT 9999 SCT040 21/13 Q1017 NOSIG
12-10-03 METAR LIMC 031650Z 00000KT 9999 SCT040 20/13 Q1017 NOSIG
12-10-03 METAR LIMC 031720Z 14001KT 9999 SCT040 18/12 Q1017 NOSIG
12-10-03 METAR LIMC 031750Z VRB01KT 9999 SCT040 18/13 Q1018 NOSIG
12-10-03 METAR LIMC 031820Z 35002KT 9999 SCT040 17/14 Q1018 NOSIG
12-10-03 METAR LIMC 031850Z 36003KT 9999 SCT040 18/14 Q1018 NOSIG
12-10-03 METAR LIMC 031920Z VRB01KT 9999 SCT040 17/14 Q1018 NOSIG
12-10-03 METAR LIMC 031950Z VRB01KT 9999 SCT040 16/13 Q1018 NOSIG
12-10-03 METAR LIMC 032020Z VRB01KT 9999 FEW040 16/14 Q1019 NOSIG
12-10-03 METAR LIMC 032050Z VRB01KT 9999 FEW040 16/13 Q1019 NOSIG
12-10-03 METAR LIMC 032120Z VRB01KT CAVOK 16/14 Q1018 NOSIG
12-10-03 METAR LIMC 032150Z 00000KT CAVOK 14/14 Q1019 NOSIG
12-10-03 METAR LIMC 032220Z 00000KT CAVOK 14/13 Q1018 NOSIG
12-10-03 METAR LIMC 032250Z 35002KT 9999 SCT040 14/14 Q1018 NOSIG
12-10-03 METAR LIMC 032320Z 00000KT 9999 SCT040 14/13 Q1018 NOSIG
12-10-03 METAR LIMC 032350Z 02001KT 9999 FEW040 13/13 Q1018 NOSIG
12-10-04 METAR LIMC 040020Z 00000KT 9999 FEW040 13/13 Q1018 NOSIG
12-10-04 METAR LIMC 040050Z 00000KT 9999 FEW040 12/12 Q1018 NOSIG
12-10-04 METAR LIMC 040120Z 01001KT 9999 FEW040 12/12 Q1018 NOSIG
12-10-04 METAR LIMC 040150Z 00000KT 9999 FEW040 12/12 Q1018 NOSIG
12-10-04 METAR LIMC 040220Z 09002KT 9999 FEW040 14/14 Q1017 NOSIG
12-10-04 METAR LIMC 040250Z 36002KT 9999 FEW040 14/13 Q1017 NOSIG
12-10-04 METAR LIMC 040320Z 36002KT 9999 FEW040 13/13 Q1017 NOSIG
12-10-04 METAR LIMC 040350Z 00000KT 9999 FEW040 13/12 Q1017 NOSIG
12-10-04 METAR LIMC 040420Z 00000KT 8000 FEW040 13/12 Q1017 NOSIG
12-10-04 METAR LIMC 040450Z 34001KT 8000 FEW040 12/12 Q1017 NOSIG
12-10-04 METAR LIMC 040520Z 00000KT 8000 MIFG BKN080 12/11 Q1017 NOSIG
12-10-04 METAR LIMC 040550Z 00000KT 8000 MIFG BKN080 14/13 Q1017 NOSIG
12-10-04 METAR LIMC 040620Z VRB02KT 8000 SCT050 SCT080 15/14 Q1018 NOSIG
12-10-04 METAR LIMC 040650Z VRB02KT 8000 SCT050 BKN090 16/14 Q1018 NOSIG
12-10-04 METAR LIMC 040720Z VRB02KT 9000 SCT050 BKN090 16/15 Q1018 NOSIG
12-10-04 METAR LIMC 040750Z VRB02KT 9000 SCT050 BKN090 17/15 Q1018 NOSIG
12-10-04 METAR LIMC 040820Z VRB02KT 9000 BKN026 BKN090 17/14 Q1018 NOSIG
12-10-04 METAR LIMC 040850Z VRB02KT 9000 BKN026 BKN090 19/15 Q1018 NOSIG
12-10-04 METAR LIMC 040920Z VRB02KT 9000 BKN030 BKN070 19/15 Q1018 NOSIG
12-10-04 METAR LIMC 040950Z VRB01KT 9000 BKN030 BKN070 19/15 Q1018 NOSIG
12-10-04 METAR LIMC 041020Z VRB02KT 9000 BKN030 BKN070 19/15 Q1018 NOSIG
12-10-04 METAR LIMC 041050Z VRB02KT 9999 BKN030 BKN070 19/14 Q1018 NOSIG
12-10-04 METAR LIMC 041120Z VRB01KT 9999 FEW025TCU SCT030 BKN070 20/14 Q1017 NOSIG
12-10-04 METAR LIMC 041150Z 00000KT 9999 BKN030 BKN070 20/14 Q1017 NOSIG
12-10-04 METAR LIMC 041220Z VRB01KT 9999 BKN030 BKN070 21/14 Q1017 NOSIG
12-10-04 METAR LIMC 041250Z 00000KT 9999 BKN030 BKN070 20/14 Q1017 NOSIG
12-10-04 METAR LIMC 041320Z 00000KT 9999 BKN030 BKN070 21/14 Q1016 NOSIG
12-10-04 METAR LIMC 041350Z 00000KT 9999 BKN030 BKN070 21/14 Q1016 NOSIG
12-10-04 METAR LIMC 041420Z 00000KT 9999 BKN030 BKN070 21/13 Q1016 NOSIG
12-10-04 METAR LIMC 041450Z VRB02KT 9999 SCT040 BKN090 21/14 Q1016 NOSIG
12-10-04 METAR LIMC 041520Z 00000KT 9999 BKN090 21/14 Q1016 NOSIG
12-10-04 METAR LIMC 041550Z 00000KT 9999 BKN090 21/13 Q1016 NOSIG
12-10-04 METAR LIMC 041620Z 00000KT 9999 BKN070 20/15 Q1016 NOSIG
12-10-04 METAR LIMC 041650Z VRB01KT 9999 BKN070 19/14 Q1016 NOSIG
12-10-04 METAR LIMC 041720Z 00000KT 9999 BKN070 17/15 Q1017 NOSIG
12-10-04 METAR LIMC 041750Z 36002KT 9999 BKN070 17/15 Q1017 NOSIG
12-10-04 METAR LIMC 041820Z 35002KT 9999 BKN070 17/15 Q1017 NOSIG
12-10-04 METAR LIMC 041850Z 35003KT 9999 FEW040 SCT070 16/15 Q1017 NOSIG
12-10-04 METAR LIMC 041920Z 36004KT 9999 FEW040 SCT070 18/15 Q1017 NOSIG
12-10-04 METAR LIMC 041950Z 35003KT 9999 FEW040 SCT070 17/15 Q1018 NOSIG
12-10-04 METAR LIMC 042020Z 35003KT 9999 FEW040 BKN070 16/15 Q1018 NOSIG
12-10-04 METAR LIMC 042050Z 35003KT 9999 FEW040 BKN070 16/15 Q1018 NOSIG
12-10-04 METAR LIMC 042120Z 33002KT 9999 FEW040 BKN070 15/14 Q1018 NOSIG
12-10-04 METAR LIMC 042150Z 34003KT 9999 BKN070 15/14 Q1018 NOSIG
12-10-04 METAR LIMC 042220Z 36002KT 9999 BKN070 15/14 Q1018 NOSIG
12-10-04 METAR LIMC 042250Z 36002KT 9999 SCT080 14/13 Q1018 NOSIG
12-10-04 METAR LIMC 042320Z 00000KT CAVOK 14/13 Q1019 NOSIG
12-10-04 METAR LIMC 042350Z 34003KT CAVOK 13/12 Q1019 NOSIG
12-10-05 METAR LIMC 050020Z 35003KT CAVOK 13/13 Q1019 NOSIG
12-10-05 METAR LIMC 050050Z 35002KT CAVOK 13/13 Q1019 NOSIG
12-10-05 METAR LIMC 050120Z VRB02KT CAVOK 13/13 Q1018 NOSIG
12-10-05 METAR LIMC 050150Z 36002KT CAVOK 13/12 Q1018 NOSIG
12-10-05 METAR LIMC 050220Z 35002KT CAVOK 13/12 Q1018 NOSIG
12-10-05 METAR LIMC 050250Z 00000KT CAVOK 13/12 Q1018 NOSIG
12-10-05 METAR LIMC 050320Z 36002KT CAVOK 13/12 Q1018 NOSIG
12-10-05 METAR LIMC 050350Z 01001KT CAVOK 12/12 Q1019 NOSIG
12-10-05 METAR LIMC 050420Z 36002KT CAVOK 12/12 Q1019 NOSIG
12-10-05 METAR LIMC 050450Z VRB02KT CAVOK 13/13 Q1019 NOSIG
12-10-05 METAR LIMC 050520Z VRB02KT 9999 MIFG NSC 13/12 Q1019 NOSIG
12-10-05 METAR LIMC 050550Z 36004KT CAVOK 14/12 Q1019 NOSIG
12-10-05 METAR LIMC 050620Z 35002KT CAVOK 12/12 Q1019 NOSIG
12-10-05 METAR LIMC 050650Z 34002KT CAVOK 14/13 Q1020 NOSIG
12-10-05 METAR LIMC 050720Z 36002KT CAVOK 15/13 Q1020 NOSIG
12-10-05 METAR LIMC 050750Z 35003KT CAVOK 16/13 Q1021 NOSIG
12-10-05 METAR LIMC 050820Z VRB02KT 9999 SCT050 17/13 Q1021 NOSIG
12-10-05 METAR LIMC 050850Z VRB02KT 9999 SCT050 17/13 Q1021 NOSIG
12-10-05 METAR LIMC 050920Z VRB02KT 9999 SCT050 18/13 Q1021 NOSIG
12-10-05 METAR LIMC 050950Z VRB02KT 9999 SCT050 18/13 Q1021 NOSIG
12-10-05 METAR LIMC 051020Z VRB01KT 9999 SCT050 18/13 Q1021 NOSIG
12-10-05 METAR LIMC 051050Z VRB01KT 9999 BKN040 BKN060 18/13 Q1021 NOSIG
12-10-05 METAR LIMC 051120Z VRB02KT 9999 BKN040 BKN060 19/13 Q1021 NOSIG
12-10-05 METAR LIMC 051150Z VRB02KT 9999 BKN040 BKN060 19/14 Q1021 NOSIG
12-10-05 METAR LIMC 051220Z VRB02KT 9999 BKN040 BKN060 20/13 Q1021 NOSIG
12-10-05 METAR LIMC 051320Z VRB02KT 9999 SCT040 SCT070 20/13 Q1020 NOSIG
12-10-05 METAR LIMC 051350Z VRB02KT 9999 BKN040 BKN070 20/14 Q1020 NOSIG
12-10-05 METAR LIMC 051420Z VRB02KT 9999 SCT040 BKN070 20/13 Q1020 NOSIG
12-10-05 METAR LIMC 051450Z VRB01KT 9999 FEW040 SCT070 20/14 Q1020 NOSIG
12-10-05 METAR LIMC 051520Z VRB01KT 9999 SCT070 21/14 Q1020 NOSIG
12-10-05 METAR LIMC 051550Z VRB01KT 9999 FEW080 20/14 Q1020 NOSIG
12-10-05 METAR LIMC 051620Z 00000KT 9999 FEW080 20/14 Q1020 NOSIG
12-10-05 METAR LIMC 051650Z VRB02KT CAVOK 19/14 Q1020 NOSIG
12-10-05 METAR LIMC 051720Z 00000KT CAVOK 17/14 Q1020 NOSIG
12-10-05 METAR LIMC 051750Z 00000KT CAVOK 16/14 Q1020 NOSIG
12-10-05 METAR LIMC 051820Z 00000KT CAVOK 15/14 Q1021 NOSIG
12-10-05 METAR LIMC 051850Z 35001KT 9999 SCT060 15/14 Q1021 NOSIG
12-10-05 METAR LIMC 051920Z VRB01KT CAVOK 14/13 Q1021 NOSIG
12-10-05 METAR LIMC 051950Z 36001KT CAVOK 14/13 Q1021 NOSIG
12-10-05 METAR LIMC 052020Z 36002KT CAVOK 16/15 Q1021 NOSIG
12-10-05 METAR LIMC 052050Z 35002KT CAVOK 14/13 Q1021 NOSIG
12-10-05 METAR LIMC 052120Z 01002KT CAVOK 14/13 Q1021 NOSIG
12-10-05 METAR LIMC 052150Z 02001KT CAVOK 13/13 Q1021 NOSIG
12-10-05 METAR LIMC 052220Z 36001KT CAVOK 13/12 Q1022 NOSIG
12-10-05 METAR LIMC 052250Z VRB01KT 9999 SCT040 14/13 Q1021 NOSIG
12-10-05 METAR LIMC 052320Z 00000KT 9999 SCT040 14/14 Q1021 NOSIG
12-10-05 METAR LIMC 052350Z 02001KT 9999 SCT040 14/13 Q1021 NOSIG
12-10-06 METAR LIMC 060020Z 36002KT 9999 SCT040 14/13 Q1021 NOSIG
12-10-06 METAR LIMC 060050Z 01001KT CAVOK 13/13 Q1021 NOSIG
12-10-06 METAR LIMC 060120Z 36002KT CAVOK 13/12 Q1021 NOSIG
12-10-06 METAR LIMC 060150Z 36003KT CAVOK 14/13 Q1021 NOSIG
12-10-06 METAR LIMC 060220Z 35003KT CAVOK 12/11 Q1021 NOSIG
12-10-06 METAR LIMC 060250Z 00000KT CAVOK 11/11 Q1021 NOSIG
12-10-06 METAR LIMC 060320Z 36001KT CAVOK 11/11 Q1021 NOSIG
12-10-06 METAR LIMC 060350Z VRB01KT 9999 SCT040 12/12 Q1021 NOSIG
12-10-06 METAR LIMC 060420Z 36001KT 9999 SCT040 13/12 Q1021 NOSIG
12-10-06 METAR LIMC 060450Z 34002KT 9999 SCT040 13/13 Q1021 NOSIG
12-10-06 METAR LIMC 060520Z VRB02KT 9999 BKN040 14/13 Q1021 NOSIG
12-10-06 METAR LIMC 060550Z 36003KT 320V020 9999 BKN040 14/13 Q1021 NOSIG
12-10-06 METAR LIMC 060620Z VRB02KT 9999 BKN035 14/13 Q1021 NOSIG
12-10-06 METAR LIMC 060650Z 35002KT 9999 BKN040 BKN060 15/14 Q1021 NOSIG
12-10-06 METAR LIMC 060720Z 34002KT 9999 SCT040 SCT060 15/14 Q1021 NOSIG
12-10-06 METAR LIMC 060750Z VRB02KT 9999 SCT040 SCT070 16/14 Q1021 NOSIG
12-10-06 METAR LIMC 060820Z VRB02KT 9999 SCT040 SCT070 17/14 Q1021 NOSIG
12-10-06 METAR LIMC 060850Z VRB02KT 9999 SCT070 18/13 Q1021 NOSIG
12-10-06 METAR LIMC 060920Z VRB01KT CAVOK 20/14 Q1021 NOSIG
12-10-06 METAR LIMC 060950Z VRB01KT CAVOK 21/13 Q1021 NOSIG
12-10-06 METAR LIMC 061020Z VRB01KT CAVOK 21/13 Q1021 NOSIG
12-10-06 METAR LIMC 061050Z 00000KT 9999 FEW030 21/13 Q1021 NOSIG
12-10-06 METAR LIMC 061120Z VRB02KT 9999 FEW030 21/13 Q1020 NOSIG
12-10-06 METAR LIMC 061150Z VRB01KT 9999 FEW030 22/14 Q1020 NOSIG
12-10-06 METAR LIMC 061220Z VRB01KT 9999 FEW035 22/13 Q1020 NOSIG
12-10-06 METAR LIMC 061250Z VRB02KT 9999 FEW035 23/13 Q1019 NOSIG
12-10-06 METAR LIMC 061320Z VRB02KT 9999 FEW035 23/13 Q1019 NOSIG
12-10-06 METAR LIMC 061350Z 20003KT 150V240 9999 FEW035 23/13 Q1019 NOSIG
12-10-06 METAR LIMC 061420Z VRB01KT 9999 FEW035 23/13 Q1019 NOSIG
12-10-06 METAR LIMC 061450Z 18003KT 9999 FEW035 22/13 Q1018 NOSIG
12-10-06 METAR LIMC 061520Z VRB02KT 9999 SCT080 22/13 Q1018 NOSIG
12-10-06 METAR LIMC 061550Z 21002KT 9999 SCT080 21/13 Q1018 NOSIG
12-10-06 METAR LIMC 061620Z VRB01KT 9999 BKN070 20/13 Q1018 NOSIG
12-10-06 METAR LIMC 061650Z 16001KT 9999 BKN070 19/14 Q1018 NOSIG
12-10-06 METAR LIMC 061720Z 16001KT 9999 BKN070 18/14 Q1019 NOSIG
12-10-06 METAR LIMC 061750Z 00000KT 9999 BKN070 18/14 Q1019 NOSIG
12-10-06 METAR LIMC 061820Z 00000KT 9999 BKN070 17/14 Q1019 NOSIG
12-10-06 METAR LIMC 061850Z 00000KT 9999 BKN070 18/14 Q1019 NOSIG
12-10-06 METAR LIMC 061920Z 00000KT 9999 BKN070 18/14 Q1019 NOSIG
12-10-06 METAR LIMC 061950Z 00000KT 9999 BKN070 17/14 Q1019 NOSIG
12-10-06 METAR LIMC 062020Z 00000KT 9999 BKN070 17/14 Q1019 NOSIG
12-10-06 METAR LIMC 062050Z 00000KT 9999 BKN070 16/14 Q1019 NOSIG
12-10-06 METAR LIMC 062120Z 00000KT 9999 BKN070 16/15 Q1019 NOSIG
12-10-06 METAR LIMC 062150Z 00000KT 9999 BKN070 16/15 Q1018 NOSIG
12-10-06 METAR LIMC 062220Z 35001KT 9999 BKN070 15/14 Q1018 NOSIG
12-10-06 METAR LIMC 062250Z 00000KT 9999 BKN070 16/15 Q1018 NOSIG
12-10-06 METAR LIMC 062320Z 00000KT 9999 FEW030 BKN070 15/14 Q1018 NOSIG
12-10-06 METAR LIMC 062350Z 00000KT 9999 FEW030 BKN070 16/15 Q1018 NOSIG
12-10-07 METAR LIMC 070020Z VRB02KT 9999 FEW030 BKN070 15/14 Q1018 NOSIG
12-10-07 METAR LIMC 070050Z 00000KT 9999 FEW030 BKN070 15/14 Q1018 NOSIG
12-10-07 METAR LIMC 070120Z 00000KT 9999 FEW030 BKN070 14/14 Q1017 NOSIG
12-10-07 METAR LIMC 070150Z 03001KT 9999 FEW030 BKN070 14/14 Q1017 NOSIG
12-10-07 METAR LIMC 070220Z 00000KT 9999 FEW030 BKN070 14/14 Q1016 NOSIG
12-10-07 METAR LIMC 070250Z 01001KT 9999 FEW030 BKN070 14/14 Q1016 NOSIG
12-10-07 METAR LIMC 070320Z 36002KT 9999 FEW030 BKN070 13/13 Q1016 NOSIG
12-10-07 METAR LIMC 070350Z 00000KT 9999 FEW030 BKN070 13/13 Q1016 NOSIG
12-10-07 METAR LIMC 070420Z VRB01KT 9999 FEW030 BKN060 13/13 Q1016 NOSIG
12-10-07 METAR LIMC 070450Z 00000KT 9999 FEW030 SCT070 13/13 Q1016 NOSIG
12-10-07 METAR LIMC 070520Z VRB01KT 7000 MIFG SCT080 15/14 Q1015 NOSIG
12-10-07 METAR LIMC 070550Z 01002KT 6000 MIFG SCT080 14/13 Q1015 NOSIG
12-10-07 METAR LIMC 070620Z 35002KT 6000 MIFG SCT080 14/14 Q1015 NOSIG
12-10-07 METAR LIMC 070650Z VRB02KT 6000 FEW080 15/14 Q1016 NOSIG
12-10-07 METAR LIMC 070720Z 00000KT 6000 FEW080 17/15 Q1016 NOSIG
12-10-07 METAR LIMC 070750Z VRB01KT 7000 NSC 18/15 Q1016 NOSIG
12-10-07 METAR LIMC 070820Z VRB01KT 7000 NSC 19/15 Q1016 NOSIG
12-10-07 METAR LIMC 070850Z VRB01KT CAVOK 20/15 Q1015 NOSIG
12-10-07 METAR LIMC 070920Z 00000KT CAVOK 21/15 Q1015 NOSIG
12-10-07 METAR LIMC 070950Z VRB02KT 9999 FEW025 22/14 Q1015 NOSIG
12-10-07 METAR LIMC 071020Z 00000KT 9999 SCT025 22/14 Q1015 NOSIG
12-10-07 METAR LIMC 071050Z 21003KT 170V230 9999 SCT030 22/13 Q1015 NOSIG
12-10-07 METAR LIMC 071120Z VRB02KT 9999 SCT030 22/13 Q1014 NOSIG
12-10-07 METAR LIMC 071150Z 22003KT 180V260 9999 FEW030 22/13 Q1014 NOSIG
12-10-07 METAR LIMC 071220Z VRB02KT 9999 FEW030 23/14 Q1014 NOSIG
12-10-07 METAR LIMC 071250Z VRB02KT 9999 FEW030 23/14 Q1014 NOSIG
12-10-07 METAR LIMC 071320Z VRB02KT 9999 FEW030 23/14 Q1013 NOSIG
12-10-07 METAR LIMC 071350Z VRB02KT CAVOK 23/14 Q1013 NOSIG
12-10-07 METAR LIMC 071420Z 23003KT 170V260 CAVOK 23/14 Q1013 NOSIG
12-10-07 METAR LIMC 071450Z 23003KT 170V280 CAVOK 23/14 Q1013 NOSIG
12-10-07 METAR LIMC 071520Z 21003KT 180V240 CAVOK 22/14 Q1012 NOSIG
12-10-07 METAR LIMC 071550Z 21003KT CAVOK 22/14 Q1013 NOSIG
12-10-07 METAR LIMC 071620Z 21003KT CAVOK 22/14 Q1013 NOSIG
12-10-07 METAR LIMC 071650Z 19001KT CAVOK 20/13 Q1013 NOSIG
12-10-07 METAR LIMC 071720Z VRB01KT CAVOK 20/14 Q1013 NOSIG
12-10-07 METAR LIMC 071750Z 00000KT CAVOK 20/14 Q1013 NOSIG
12-10-07 METAR LIMC 071820Z 00000KT CAVOK 17/13 Q1013 NOSIG
12-10-07 METAR LIMC 071850Z 00000KT CAVOK 16/13 Q1014 NOSIG
12-10-07 METAR LIMC 071920Z 00000KT CAVOK 16/13 Q1014 NOSIG
12-10-07 METAR LIMC 071950Z 00000KT CAVOK 14/13 Q1014 NOSIG
12-10-07 METAR LIMC 072020Z VRB01KT CAVOK 15/14 Q1014 NOSIG
12-10-07 METAR LIMC 072050Z 32002KT CAVOK 16/14 Q1014 NOSIG
12-10-07 METAR LIMC 072120Z 36001KT CAVOK 14/13 Q1015 NOSIG
12-10-07 METAR LIMC 072150Z VRB02KT CAVOK 14/13 Q1015 NOSIG
12-10-07 METAR LIMC 072220Z 35003KT CAVOK 15/14 Q1015 NOSIG
12-10-07 METAR LIMC 072250Z 35002KT CAVOK 15/14 Q1015 NOSIG
12-10-07 METAR LIMC 072320Z 34001KT CAVOK 14/14 Q1015 NOSIG
12-10-07 METAR LIMC 072350Z VRB01KT CAVOK 13/12 Q1015 NOSIG
12-10-08 METAR LIMC 080020Z VRB01KT CAVOK 13/12 Q1015 NOSIG
12-10-08 METAR LIMC 080050Z 32002KT CAVOK 12/12 Q1016 NOSIG
12-10-08 METAR LIMC 080150Z NIL
12-10-08 METAR LIMC 080150Z 00000KT CAVOK 11/11 Q1016 NOSIG
12-10-08 METAR LIMC 080220Z 35002KT CAVOK 12/11 Q1016 NOSIG
12-10-08 METAR LIMC 080250Z 01002KT CAVOK 12/11 Q1016 NOSIG
12-10-08 METAR LIMC 080320Z 35002KT CAVOK 12/11 Q1016 NOSIG
12-10-08 METAR LIMC 080350Z 00000KT CAVOK 10/10 Q1016 NOSIG
12-10-08 METAR LIMC 080420Z 36002KT CAVOK 11/11 Q1016 NOSIG
12-10-08 METAR LIMC 080450Z VRB02KT CAVOK 12/11 Q1017 NOSIG
12-10-08 METAR LIMC 080520Z VRB02KT 9999 MIFG FEW080 12/11 Q1017 NOSIG
12-10-08 METAR LIMC 080550Z 01003KT 330V050 CAVOK 13/11 Q1017 NOSIG
12-10-08 METAR LIMC 080620Z VRB02KT CAVOK 15/11 Q1018 NOSIG
12-10-08 METAR LIMC 080650Z 07003KT 350V160 9999 BKN006 BKN015 15/12 Q1018 NOSIG
12-10-08 METAR LIMC 080720Z 04002KT 6000 BKN010 15/14 Q1019 NOSIG
12-10-08 METAR LIMC 080750Z VRB02KT 6000 SCT015 BKN030 16/15 Q1019 NOSIG
12-10-08 METAR LIMC 080820Z VRB02KT 6000 BKN020 17/15 Q1019 NOSIG
12-10-08 METAR LIMC 080850Z NIL
12-10-08 METAR LIMC 080850Z VRB02KT 6000 BKN015 17/15 Q1019 NOSIG
12-10-08 METAR LIMC 080920Z 00000KT 6000 BKN015 17/15 Q1019 NOSIG
12-10-08 METAR LIMC 080950Z VRB01KT 6000 SCT020 BKN050 18/15 Q1019 NOSIG
12-10-08 METAR LIMC 081020Z VRB02KT 6000 BKN020 BKN040 18/15 Q1019 NOSIG
12-10-08 METAR LIMC 081050Z VRB02KT 6000 SCT020 BKN040 18/15 Q1019 NOSIG
12-10-08 METAR LIMC 081120Z VRB02KT 6000 SCT020 SCT040 19/14 Q1019 NOSIG
12-10-08 METAR LIMC 081150Z 11003KT 070V160 8000 SCT020 SCT050 19/13 Q1018 NOSIG
12-10-08 METAR LIMC 081220Z 12004KT 090V210 9999 SCT020 BKN060 19/13 Q1018 NOSIG
12-10-08 METAR LIMC 081250Z 10003KT 060V150 9999 SCT020 BKN060 19/14 Q1018 NOSIG
12-10-08 METAR LIMC 081320Z 13003KT 9999 SCT020 BKN060 19/13 Q1018 NOSIG
12-10-08 METAR LIMC 081350Z 12003KT 070V150 9999 SCT020 BKN060 19/13 Q1017 NOSIG
12-10-08 METAR LIMC 081420Z VRB02KT 9999 SCT020 BKN060 19/13 Q1017 NOSIG
12-10-08 METAR LIMC 081450Z 09003KT 060V150 9999 FEW020 SCT060 19/13 Q1017 NOSIG
12-10-08 METAR LIMC 081520Z VRB02KT 9999 FEW020 SCT060 19/13 Q1017 NOSIG
12-10-08 METAR LIMC 081550Z VRB02KT 9999 FEW020 SCT060 18/13 Q1016 NOSIG
12-10-08 METAR LIMC 081620Z 12003KT 9999 SCT070 18/13 Q1016 NOSIG
12-10-08 METAR LIMC 081650Z 12002KT 9999 SCT080 17/13 Q1016 NOSIG
12-10-08 METAR LIMC 081720Z 12002KT CAVOK 17/13 Q1016 NOSIG
12-10-08 METAR LIMC 081750Z 13003KT CAVOK 16/13 Q1017 NOSIG
12-10-08 METAR LIMC 081820Z 13002KT CAVOK 16/13 Q1016 NOSIG
12-10-08 METAR LIMC 081850Z 13003KT CAVOK 16/13 Q1016 NOSIG
12-10-08 METAR LIMC 081920Z 11002KT CAVOK 16/13 Q1016 NOSIG
12-10-08 METAR LIMC 081950Z VRB01KT 9000 SCT040 15/13 Q1017 NOSIG
12-10-08 METAR LIMC 082020Z 00000KT 9999 SCT040 15/13 Q1016 NOSIG
12-10-08 METAR LIMC 082050Z VRB02KT 9999 BKN040 16/13 Q1016 NOSIG
12-10-08 METAR LIMC 082120Z VRB01KT 9999 BKN040 16/13 Q1016 NOSIG
12-10-08 METAR LIMC 082150Z 02001KT 9999 SCT040 15/13 Q1016 NOSIG
12-10-08 METAR LIMC 082220Z 00000KT 9999 SCT040 14/13 Q1016 NOSIG
12-10-08 METAR LIMC 082250Z 00000KT 9999 SCT040 15/14 Q1015 NOSIG
12-10-08 METAR LIMC 082320Z 01001KT 9999 SCT040 15/14 Q1015 NOSIG
12-10-08 METAR LIMC 082350Z 00000KT 9999 SCT040 15/14 Q1015 NOSIG
12-10-09 METAR LIMC 090020Z 00000KT 9999 SCT040 15/14 Q1014 NOSIG
12-10-09 METAR LIMC 090050Z 00000KT 9999 SCT040 15/14 Q1014 NOSIG
12-10-09 METAR LIMC 090120Z 01001KT 9999 SCT040 15/13 Q1014 NOSIG
12-10-09 METAR LIMC 090150Z 01001KT 9999 BKN040 15/14 Q1014 NOSIG
12-10-09 METAR LIMC 090220Z 03002KT 9999 BKN040 15/14 Q1013 NOSIG
12-10-09 METAR LIMC 090250Z 00000KT 8000 RA BKN030 15/13 Q1013 NOSIG
12-10-09 METAR LIMC 090320Z 00000KT 9999 BKN030 15/14 Q1013 RERA NOSIG
12-10-09 METAR LIMC 090350Z 00000KT 9999 BKN030 14/14 Q1013 NOSIG
12-10-09 METAR LIMC 090420Z 03002KT 9999 BKN030 14/14 Q1012 NOSIG
12-10-09 METAR LIMC 090450Z 03003KT 9999 BKN030 15/13 Q1012 NOSIG
12-10-09 METAR LIMC 090520Z VRB01KT 9999 SCT050 14/13 Q1012 NOSIG
12-10-09 METAR LIMC 090550Z VRB02KT 9999 BKN040 14/13 Q1012 NOSIG
12-10-09 METAR LIMC 090620Z 36002KT 9999 BKN040 14/13 Q1012 NOSIG
12-10-09 METAR LIMC 090650Z VRB02KT 9999 BKN060 14/13 Q1012 NOSIG
12-10-09 METAR LIMC 090720Z VRB01KT 9999 BKN060 15/13 Q1012 NOSIG
12-10-09 METAR LIMC 090750Z VRB02KT 9999 BKN060 15/13 Q1013 NOSIG
12-10-09 METAR LIMC 090820Z 00000KT 9999 BKN060 16/12 Q1013 NOSIG
12-10-09 METAR LIMC 090850Z VRB01KT 9999 BKN070 17/12 Q1012 NOSIG
12-10-09 METAR LIMC 090920Z 00000KT CAVOK 18/12 Q1012 NOSIG
12-10-09 METAR LIMC 090950Z VRB01KT CAVOK 18/12 Q1012 NOSIG
12-10-09 METAR LIMC 091020Z 00000KT CAVOK 19/12 Q1012 NOSIG
12-10-09 METAR LIMC 091050Z VRB02KT CAVOK 19/12 Q1012 NOSIG
12-10-09 METAR LIMC 091120Z VRB01KT CAVOK 20/12 Q1011 NOSIG
12-10-09 METAR LIMC 091150Z VRB02KT CAVOK 20/12 Q1011 NOSIG
12-10-09 METAR LIMC 091220Z NIL
12-10-09 METAR LIMC 091250Z NIL
12-10-09 METAR LIMC 091320Z NIL
12-10-09 METAR LIMC 091350Z NIL
12-10-09 METAR LIMC 091420Z NIL
12-10-09 METAR LIMC 091450Z NIL
12-10-09 METAR LIMC 091520Z NIL
12-10-09 METAR LIMC 091550Z VRB02KT CAVOK 21/10 Q1010 NOSIG
12-10-09 METAR LIMC 091620Z 00000KT CAVOK 20/13 Q1010 NOSIG
12-10-09 METAR LIMC 091650Z VRB01KT CAVOK 20/12 Q1010 NOSIG
12-10-09 METAR LIMC 091720Z 00000KT CAVOK 17/13 Q1011 NOSIG
12-10-09 METAR LIMC 091750Z 00000KT CAVOK 16/13 Q1011 NOSIG
12-10-09 METAR LIMC 091820Z 00000KT CAVOK 15/12 Q1011 NOSIG
12-10-09 METAR LIMC 091850Z NIL
12-10-09 METAR LIMC 091920Z 00000KT CAVOK 14/12 Q1011 NOSIG
12-10-09 METAR LIMC 091950Z 00000KT CAVOK 13/12 Q1011 NOSIG
12-10-09 METAR LIMC 092020Z 00000KT CAVOK 13/12 Q1011 NOSIG
12-10-09 METAR LIMC 092050Z VRB03KT CAVOK 15/13 Q1011 NOSIG
12-10-09 METAR LIMC 092120Z VRB02KT CAVOK 15/14 Q1012 NOSIG
12-10-09 METAR LIMC 092150Z VRB02KT CAVOK 14/13 Q1012 NOSIG
12-10-09 METAR LIMC 092220Z 06003KT CAVOK 14/13 Q1012 NOSIG
12-10-09 METAR LIMC 092250Z 07003KT CAVOK 15/14 Q1012 NOSIG
12-10-09 METAR LIMC 092320Z 07003KT 8000 NSC 15/13 Q1012 NOSIG
12-10-09 METAR LIMC 092350Z 07003KT 8000 NSC 14/13 Q1012 NOSIG
12-10-10 METAR LIMC 100020Z 07002KT 8000 NSC 14/13 Q1012 NOSIG
12-10-10 METAR LIMC 100050Z 00000KT 7000 NSC 14/13 Q1012 NOSIG
12-10-10 METAR LIMC 100120Z 02002KT 7000 NSC 13/12 Q1012 NOSIG
12-10-10 METAR LIMC 100150Z 35001KT 7000 NSC 13/13 Q1012 NOSIG
12-10-10 METAR LIMC 100220Z 35002KT 6000 NSC 13/13 Q1012 NOSIG
12-10-10 METAR LIMC 100250Z 00000KT 6000 NSC 14/13 Q1012 NOSIG
12-10-10 METAR LIMC 100320Z 04002KT 5000 BR NSC 15/14 Q1011 NOSIG
12-10-10 METAR LIMC 100350Z 06002KT 5000 BR NSC 15/14 Q1011 NOSIG
12-10-10 METAR LIMC 100350Z 06002KT 5000 BR SKC 15/14 Q1011 NOSIG
12-10-10 METAR LIMC 100420Z 05002KT 4000 BR SKC 16/14 Q1011 NOSIG
12-10-10 METAR LIMC 100450Z 00000KT 4000 BR NSC 15/14 Q1011 NOSIG
12-10-10 METAR LIMC 100520Z VRB01KT 6000 NSC 16/14 Q1011 NOSIG
12-10-10 METAR LIMC 100550Z 07002KT 4000 BR SCT030 OVC050 16/14 Q1011 NOSIG
12-10-10 METAR LIMC 100620Z VRB02KT 4000 BR SCT030 OVC050 16/14 Q1011 NOSIG
12-10-10 METAR LIMC 100650Z VRB01KT 4000 BR SCT030 OVC050 16/14 Q1011 NOSIG
12-10-10 METAR LIMC 100720Z 00000KT 4000 BR SCT030 BKN050 16/14 Q1012 NOSIG
12-10-10 METAR LIMC 100750Z VRB01KT 4000 BR SCT030 BKN050 17/14 Q1012 NOSIG
12-10-10 METAR LIMC 100820Z NIL
12-10-10 METAR LIMC 100820Z VRB01KT 4000 BR SCT030 BKN050 17/14 Q1012 NOSIG
12-10-10 METAR LIMC 100850Z VRB02KT 4000 BR SCT030 BKN050 17/14 Q1012 NOSIG
12-10-10 METAR LIMC 100920Z VRB02KT 4000 BR SCT030 BKN050 17/14 Q1012 NOSIG
12-10-10 METAR LIMC 100950Z 00000KT 4000 BR SCT030 BKN050 17/14 Q1012 NOSIG
12-10-10 METAR LIMC 101020Z 00000KT 4000 BR SCT030 BKN050 18/14 Q1012 NOSIG
12-10-10 METAR LIMC 101050Z VRB02KT 4000 BR SCT025 OVC060 18/14 Q1012 NOSIG
12-10-10 METAR LIMC 101120Z VRB01KT 4000 BR SCT025 OVC060 18/14 Q1011 NOSIG
12-10-10 METAR LIMC 101150Z VRB02KT 4000 BR SCT025 OVC060 18/14 Q1011 NOSIG
12-10-10 METAR LIMC 101220Z VRB01KT 4000 BR SCT020 OVC060 18/14 Q1011 NOSIG
12-10-10 METAR LIMC 101250Z 00000KT 4000 BR SCT020 OVC060 19/14 Q1011 NOSIG
12-10-10 METAR LIMC 101320Z 00000KT 4000 BR SCT020 OVC060 19/13 Q1011 NOSIG
12-10-10 METAR LIMC 101350Z 00000KT 6000 SCT020 OVC060 19/14 Q1011 NOSIG
12-10-10 METAR LIMC 101420Z VRB01KT 6000 BKN060 20/14 Q1010 NOSIG
12-10-10 METAR LIMC 101450Z 00000KT 6000 SCT070 20/14 Q1010 NOSIG
12-10-10 METAR LIMC 101520Z VRB01KT 7000 FEW080 20/13 Q1010 NOSIG
12-10-10 METAR LIMC 101550Z 24003KT 7000 FEW030 19/14 Q1010 NOSIG
12-10-10 METAR LIMC 101620Z 22002KT 8000 NSC 18/13 Q1010 NOSIG
12-10-10 METAR LIMC 101650Z 20002KT 7000 NSC 16/13 Q1010 NOSIG
12-10-10 METAR LIMC 101720Z 00000KT 7000 NSC 15/13 Q1011 NOSIG
12-10-10 METAR LIMC 101750Z 00000KT 7000 NSC 16/13 Q1011 NOSIG
12-10-10 METAR LIMC 101820Z VRB01KT 7000 NSC 14/12 Q1011 NOSIG
12-10-10 METAR LIMC 101850Z 00000KT 8000 NSC 13/12 Q1011 NOSIG
12-10-10 METAR LIMC 101920Z 00000KT 8000 FEW060 12/12 Q1011 NOSIG
12-10-10 METAR LIMC 101950Z VRB02KT 7000 FEW060 14/13 Q1011 NOSIG
12-10-10 METAR LIMC 102020Z VRB01KT 7000 FEW060 13/12 Q1011 NOSIG
12-10-10 METAR LIMC 102050Z 36002KT 7000 NSC 12/11 Q1011 NOSIG
12-10-10 METAR LIMC 102120Z 36002KT 7000 NSC 12/11 Q1011 NOSIG
12-10-10 METAR LIMC 102150Z 02002KT 6000 NSC 12/12 Q1011 NOSIG
12-10-10 METAR LIMC 102220Z 36001KT 6000 NSC 11/11 Q1012 NOSIG
12-10-10 METAR LIMC 102250Z 02001KT 5000 BCFG NSC 11/11 Q1012 NOSIG
12-10-10 METAR LIMC 102320Z 00000KT 4500 BCFG NSC 10/10 Q1012 NOSIG
12-10-10 METAR LIMC 102350Z 03001KT 4500 BCFG NSC 10/10 Q1012 NOSIG
12-10-11 METAR LIMC 110020Z 35001KT 3000 R17R///// R35L/0400V1500U BCFG NSC 09/09 Q1011 NOSIG
12-10-11 METAR LIMC 110050Z 01001KT 3000 BCFG NSC 10/09 Q1011 NOSIG
12-10-11 METAR LIMC 110120Z 00000KT 2500 BCFG NSC 10/09 Q1011 TEMPO 0800
12-10-11 METAR LIMC 110150Z 35002KT 2500 BCFG NSC 09/09 Q1011 TEMP 0800
12-10-11 METAR LIMC 110220Z 36001KT 2500 BCFG NSC 09/09 Q1011 TEMPO 0800
12-10-11 METAR LIMC 110250Z 02001KT 2500 BCFG NSC 09/09 Q1011 NOSIG
12-10-11 METAR LIMC 110320Z 36001KT 4000 BR NSC 09/08 Q1011 NOSIG
12-10-11 METAR LIMC 110350Z 01002KT 4000 BR NSC 10/10 Q1011 NOSIG
12-10-11 METAR LIMC 110420Z 01001KT 5000 BR NSC 11/11 Q1011 NOSIG
12-10-11 METAR LIMC 110450Z 34002KT 5000 BR SCT040 11/11 Q1011 NOSIG
12-10-11 METAR LIMC 110520Z 35002KT 5000 BR SCT040 13/12 Q1011 NOSIG
12-10-11 METAR LIMC 110550Z 36002KT 4500 BR SCT030 BKN070 13/12 Q1012 NOSIG
12-10-11 METAR LIMC 110620Z NIL
12-10-11 METAR LIMC 110620Z VRB02KT 4000 BR SCT030 BKN070 13/13 Q1012 NOSIG
12-10-11 METAR LIMC 110650Z VRB02KT 4000 BR SCT030 BKN070 13/13 Q1012 NOSIG
12-10-11 METAR LIMC 110720Z 36002KT 4000 BR SCT030 BKN070 14/13 Q1012 NOSIG
12-10-11 METAR LIMC 110750Z 01002KT 4500 BR SCT020 BKN070 14/13 Q1012 NOSIG
12-10-11 METAR LIMC 110820Z 36003KT 330V030 4500 BR SCT020 BKN070 14/14 Q1013 NOSIG
12-10-11 METAR LIMC 110850Z VRB02KT 4500 BR SCT020 BKN070 15/14 Q1013 NOSIG
12-10-11 METAR LIMC 110920Z VRB02KT 4000 BR SCT020 BKN070 15/14 Q1013 NOSIG
12-10-11 METAR LIMC 110950Z VRB02KT 3000 BR SCT020 BKN070 16/15 Q1013 NOSIG
12-10-11 METAR LIMC 111020Z 04003KT 360V080 2500 BR SCT020 BKN070 16/15 Q1013 NOSIG
12-10-11 METAR LIMC 111050Z 06003KT 3000 BR SCT020 BKN070 16/15 Q1012 NOSIG
12-10-11 METAR LIMC 111120Z VRB02KT 4000 BR SCT020 BKN070 17/14 Q1012 NOSIG
12-10-11 METAR LIMC 111150Z VRB02KT 4000 BR SCT020 BKN070 17/14 Q1012 NOSIG
12-10-11 METAR LIMC 111220Z VRB02KT 3500 BR SCT020 BKN050 17/14 Q1012 NOSIG
12-10-11 METAR LIMC 111250Z VRB02KT 3500 BR SCT020 BKN050 17/14 Q1012 NOSIG
12-10-11 METAR LIMC 111350Z VRB02KT 3000 BR SCT020 BKN050 17/14 Q1011 NOSIG
12-10-11 METAR LIMC 111420Z VRB02KT 3000 BR SCT030 BKN070 17/14 Q1011 NOSIG
12-10-11 METAR LIMC 111450Z VRB01KT 3000 BR SCT030 BKN070 17/14 Q1011 NOSIG
12-10-11 METAR LIMC 111520Z 12002KT 3000 BR BKN040 17/14 Q1011 NOSIG
12-10-11 METAR LIMC 111550Z 00000KT 3000 BR BKN040 17/14 Q1011 NOSIG
12-10-11 METAR LIMC 111620Z VRB01KT 3000 BR BKN040 17/14 Q1011 NOSIG
12-10-11 METAR LIMC 111650Z 00000KT 3000 BR BKN040 16/15 Q1011 NOSIG
12-10-11 METAR LIMC 111720Z 10001KT 3000 BR BKN040 16/14 Q1011 NOSIG
12-10-11 METAR LIMC 111750Z VRB01KT 3000 BR BKN040 16/14 Q1011 NOSIG
12-10-11 METAR LIMC 111820Z 00000KT 3000 BR BKN040 16/14 Q1011 NOSIG
12-10-11 METAR LIMC 111850Z 00000KT 3000 BR BKN040 14/14 Q1011 NOSIG
12-10-11 METAR LIMC 111920Z 00000KT 3000 BR BKN040 15/14 Q1012 NOSIG
12-10-11 METAR LIMC 111950Z VRB01KT 3000 BR BKN040 14/14 Q1012 NOSIG
12-10-11 METAR LIMC 112020Z VRB02KT 3000 BR BKN040 15/15 Q1012 NOSIG
12-10-11 METAR LIMC 112050Z VRB02KT 3000 BR BKN040 15/14 Q1012 NOSIG
12-10-11 METAR LIMC 112120Z VRB01KT 2500 BR BKN040 15/14 Q1012 NOSIG
12-10-11 METAR LIMC 112150Z 00000KT 2500 BR BKN020 15/14 Q1011 NOSIG
12-10-11 METAR LIMC 112220Z 00000KT 2500 BR BKN020 15/14 Q1011 NOSIG
12-10-11 METAR LIMC 112250Z 00000KT 2000 BR BKN016 14/14 Q1011 NOSIG
12-10-11 METAR LIMC 112320Z 00000KT 2000 BR BKN016 14/14 Q1011 NOSIG
12-10-11 METAR LIMC 112350Z 21001KT 1200 R17R///// R35L///// BR BKN015 14/14 Q1011
12-10-12 METAR LIMC 120020Z 00000KT 1200 R17R///// R35L///// BR BKN015 14/14 Q1011 NOSIG
12-10-12 METAR LIMC 120050Z 00000KT 0900 R17R///// R35L/1200V1500N FG BKN010 14/13 Q1011 NOSIG
12-10-12 METAR LIMC 120120Z 00000KT 0500 R17R///// R35L/0200V1200D FG BKN004 13/13
12-10-12 METAR LIMC 120150Z 00000KT 0500 R17R/0275V0800U R35L/1100V1500D FG BKN004 12/12 Q1011 NOSIG
12-10-12 METAR LIMC 120220Z 00000KT 1500 BCFG BKN008 13/13 Q1010 NOSIG
12-10-12 METAR LIMC 120250Z 00000KT 1500 BCFG BKN008 13/13 Q1010 NOSIG
12-10-12 METAR LIMC 120320Z 00000KT 1500 BCFG BKN008 13/13 Q1011 NOSIG
12-10-12 METAR LIMC 120350Z 00000KT 1500 BCFG BKN008 14/13 Q1011 NOSIG
12-10-12 METAR LIMC 120420Z 00000KT 1500 BCFG BKN008 14/13 Q1010 NOSIG
12-10-12 METAR LIMC 120450Z VRB01KT 1500 BCFG BKN008 14/13 Q1010 NOSIG
12-10-12 METAR LIMC 120520Z VRB01KT 1800 BCFG BKN008 14/14 Q1010 NOSIG
12-10-12 METAR LIMC 120550Z VRB01KT 1500 BR BKN004 14/13 Q1010 NOSIG
12-10-12 METAR LIMC 120620Z 00000KT 1500 BR BKN004 14/14 Q1010 NOSIG
12-10-12 METAR LIMC 120650Z 00000KT 1500 BR BKN005 14/14 Q1010 NOSIG
12-10-12 METAR LIMC 120720Z 23002KT 1800 BR OVC005 14/14 Q1011 NOSIG
12-10-12 METAR LIMC 120750Z VRB01KT 1800 BR OVC006 15/14 Q1011 NOSIG
12-10-12 METAR LIMC 120820Z VRB01KT 2000 BR OVC009 15/14 Q1011 NOSIG
12-10-12 METAR LIMC 120850Z VRB01KT 3000 BR SCT005 OVC009 15/14 Q1011 NOSIG
12-10-12 METAR LIMC 120920Z 00000KT 3000 BR SCT005 OVC009 16/14 Q1011 NOSIG
12-10-12 METAR LIMC 120950Z VRB01KT 3000 BR SCT005 OVC009 16/13 Q1011 NOSIG
12-10-12 METAR LIMC 121020Z VRB01KT 3000 BR SCT005 OVC009 17/14 Q1011 NOSIG
12-10-12 METAR LIMC 121050Z VRB02KT 3000 BR SCT005 OVC020 16/14 Q1011 NOSIG
12-10-12 METAR LIMC 121120Z 25002KT 3000 BR SCT005 OVC020 17/14 Q1011 NOSIG
12-10-12 METAR LIMC 121150Z VRB02KT 3000 BR SCT008 OVC020 17/14 Q1011 NOSIG
12-10-12 METAR LIMC 121220Z VRB01KT 3000 BR SCT018 BKN030 18/14 Q1011 NOSIG
12-10-12 METAR LIMC 121250Z 00000KT 3000 BR FEW018 BKN030 18/13 Q1010 NOSIG
12-10-12 METAR LIMC 121320Z 24003KT 3000 BR SCT020 BKN040 18/13 Q1011 NOSIG
12-10-12 METAR LIMC 121350Z VRB02KT 4000 BR SCT020 BKN040 18/13 Q1011 NOSIG
12-10-12 METAR LIMC 121420Z VRB02KT 4000 BR FEW020 SCT050 19/13 Q1010 NOSIG
12-10-12 METAR LIMC 121450Z VRB01KT 4000 BR BKN060 18/13 Q1010 NOSIG
12-10-12 METAR LIMC 121520Z VRB01KT 4000 BR BKN060 18/12 Q1010 NOSIG
12-10-12 METAR LIMC 121550Z VRB02KT 5000 BR FEW060 18/13 Q1011 NOSIG
12-10-12 METAR LIMC 121620Z 26001KT 4000 BR FEW060 17/12 Q1011 NOSIG
12-10-12 METAR LIMC 121650Z 28002KT 4000 BR SCT060 16/13 Q1011 NOSIG
12-10-12 METAR LIMC 121720Z VRB02KT 6000 FEW060 15/13 Q1011 NOSIG
12-10-12 METAR LIMC 121750Z 00000KT 6000 FEW060 14/13 Q1011 NOSIG
12-10-12 METAR LIMC 121850Z VRB02KT 4000 BR NSC 13/12 Q1012 NOSIG
12-10-12 METAR LIMC 121920Z 35003KT 6000 NSC 13/12 Q1012 NOSIG
12-10-12 METAR LIMC 121950Z 36003KT 6000 NSC 13/12 Q1012 NOSIG
12-10-12 METAR LIMC 122020Z 35002KT 4000 BR NSC 13/13 Q1012 NOSIG
12-10-12 METAR LIMC 122050Z 35003KT 4000 BR NSC 12/12 Q1012 NOSIG
12-10-12 METAR LIMC 122120Z 01002KT 4000 BCFG NSC 11/11 Q1013 NOSIG
12-10-12 METAR LIMC 122150Z 02002KT 6000 BCFG NSC 11/11 Q1013 NOSIG
12-10-12 METAR LIMC 122220Z 34003KT 320V020 6000 BCFG NSC 11/10 Q1013 NOSIG
12-10-12 METAR LIMC 122250Z 36002KT 6000 BCFG NSC 10/10 Q1013 NOSIG
12-10-12 METAR LIMC 122320Z 35003KT 6000 BCFG NSC 09/09 Q1013 NOSIG
12-10-12 METAR LIMC 122350Z 36002KT CAVOK 09/09 Q1013 NOSIG
12-10-13 METAR LIMC 130020Z 34002KT CAVOK 08/07 Q1013 NOSIG
12-10-13 METAR LIMC 130050Z 36003KT CAVOK 10/10 Q1013 NOSIG
12-10-13 METAR LIMC 130120Z 04002KT CAVOK 10/09 Q1013 NOSIG
12-10-13 METAR LIMC 130150Z VRB02KT CAVOK 09/08 Q1013 NOSIG
12-10-13 METAR LIMC 130220Z 32002KT CAVOK 08/07 Q1013 NOSIG
12-10-13 METAR LIMC 130250Z 35004KT CAVOK 09/08 Q1013 NOSIG
12-10-13 METAR LIMC 130320Z VRB01KT CAVOK 08/08 Q1013 NOSIG
12-10-13 METAR LIMC 130350Z VRB02KT CAVOK 08/07 Q1013 NOSIG
12-10-13 METAR LIMC 130420Z 00000KT CAVOK 08/08 Q1013 NOSIG
12-10-13 METAR LIMC 130450Z 36002KT 9999 SCT040 11/09 Q1013 NOSIG
12-10-13 METAR LIMC 130520Z VRB02KT CAVOK 11/08 Q1014 NOSIG
12-10-13 METAR LIMC 130550Z 34002KT 9999 SCT060 10/08 Q1014 NOSIG
12-10-13 METAR LIMC 130620Z VRB02KT 9999 SCT070 10/08 Q1014 NOSIG
12-10-13 METAR LIMC 130650Z 34002KT 9999 SCT050 12/10 Q1014 NOSIG
12-10-13 METAR LIMC 130720Z 35003KT 9999 SCT080 13/10 Q1014 NOSIG
12-10-13 METAR LIMC 130750Z 34003KT 9999 SCT080 14/09 Q1014 NOSIG
12-10-13 METAR LIMC 130820Z 36004KT 9999 SCT080 14/08 Q1014 NOSIG
12-10-13 METAR LIMC 130850Z VRB02KT 9999 SCT070 15/08 Q1014 NOSIG
12-10-13 METAR LIMC 130920Z VRB02KT 9999 BKN070 16/08 Q1014 NOSIG
12-10-13 METAR LIMC 130950Z VRB02KT 9999 BKN070 16/08 Q1014 NOSIG
12-10-13 METAR LIMC 131020Z 01003KT 310V090 9999 BKN070 17/09 Q1014 NOSIG
12-10-13 METAR LIMC 131050Z VRB02KT 9999 BKN060 17/10 Q1013 NOSIG
12-10-13 METAR LIMC 131120Z VRB01KT 9999 BKN070 17/10 Q1013 NOSIG
12-10-13 METAR LIMC 131150Z 00000KT 9999 FEW020 SCT070 18/11 Q1013 NOSIG
12-10-13 METAR LIMC 131220Z VRB01KT 7000 SCT023 BKN070 17/10 Q1012 NOSIG
12-10-13 METAR LIMC 131250Z VRB02KT 7000 SCT023 BKN070 17/11 Q1012 NOSIG
12-10-13 METAR LIMC 131320Z VRB02KT 7000 SCT025 BKN070 17/11 Q1012 NOSIG
12-10-13 METAR LIMC 131350Z 30003KT 7000 SCT022 BKN070 17/11 Q1012 NOSIG
12-10-13 METAR LIMC 131420Z 01003KT 330V040 8000 SCT022 BKN070 17/11 Q1012 NOSIG
12-10-13 METAR LIMC 131450Z 02003KT 8000 SCT022 BKN070 16/11 Q1011 NOSIG
12-10-13 METAR LIMC 131520Z VRB02KT 7000 SCT025 BKN070 16/12 Q1011 NOSIG
12-10-13 METAR LIMC 131550Z 01003KT 7000 SCT025 BKN070 16/12 Q1011 NOSIG
12-10-13 METAR LIMC 131620Z 36003KT 7000 SCT025 BKN070 15/12 Q1011 NOSIG
12-10-13 METAR LIMC 131650Z 36002KT 7000 SCT025 BKN070 15/12 Q1011 NOSIG
12-10-13 METAR LIMC 131720Z 36003KT 8000 SCT025 BKN070 14/12 Q1011 NOSIG
12-10-13 METAR LIMC 131750Z VRB02KT 8000 SCT025 BKN070 13/12 Q1011 NOSIG
12-10-13 METAR LIMC 131820Z 35003KT 8000 SCT025 BKN070 13/12 Q1011 NOSIG
12-10-13 METAR LIMC 131850Z 01002KT 8000 SCT025 BKN070 14/12 Q1011 NOSIG
12-10-13 METAR LIMC 131920Z 34002KT 9999 BKN025 BKN070 14/12 Q1011 NOSIG
12-10-13 METAR LIMC 131950Z 00000KT 9999 BKN025 BKN070 14/12 Q1011 NOSIG
12-10-13 METAR LIMC 132020Z 01002KT 9999 BKN025 BKN070 14/12 Q1011 NOSIG
12-10-13 METAR LIMC 132050Z VRB02KT 9999 SCT025 BKN070 14/12 Q1011 NOSIG
12-10-13 METAR LIMC 132120Z 07002KT 9999 BKN025 BKN070 14/12 Q1011 NOSIG
12-10-13 METAR LIMC 132150Z VRB01KT 9999 BKN025 BKN070 14/12 Q1011 NOSIG
12-10-13 METAR LIMC 132220Z VRB02KT 9999 BKN025 BKN070 14/12 Q1010 NOSIG
12-10-13 METAR LIMC 132250Z VRB02KT 9999 BKN025 BKN070 14/12 Q1010 NOSIG
12-10-13 METAR LIMC 132320Z 03003KT 350V070 9999 BKN025 BKN070 14/12 Q1010 NOSIG
12-10-13 METAR LIMC 132350Z VRB02KT 9999 BKN015 BKN050 14/12 Q1010 NOSIG
12-10-14 METAR LIMC 140020Z 30003KT 9999 BKN015 BKN050 14/12 Q1010 NOSIG
12-10-14 METAR LIMC 140050Z 05002KT 9999 BKN010 BKN030 14/13 Q1010 NOSIG
12-10-14 METAR LIMC 140120Z VRB02KT 9999 BKN010 BKN030 14/12 Q1010 NOSIG
12-10-14 METAR LIMC 140150Z VRB02KT 9999 BKN010 BKN030 14/12 Q1009 NOSIG
12-10-14 METAR LIMC 140250Z VRB01KT 8000 BKN009 BKN030 14/12 Q1009 NOSIG
12-10-14 METAR LIMC 140320Z 05002KT 8000 BKN009 BKN030 13/12 Q1009 NOSIG
12-10-14 METAR LIMC 140350Z 06002KT 8000 BKN009 BKN030 14/12 Q1009 NOSIG
12-10-14 METAR LIMC 140420Z 00000KT 8000 BKN009 BKN030 14/12 Q1009 NOSIG
12-10-14 METAR LIMC 140450Z VRB01KT 9999 BKN010 BKN030 13/12 Q1009 NOSIG
12-10-14 METAR LIMC 140520Z VRB01KT 9999 SCT010 BKN030 13/12 Q1008 NOSIG
12-10-14 METAR LIMC 140550Z VRB02KT 6000 SCT008 OVC030 13/12 Q1008 NOSIG
12-10-14 METAR LIMC 140620Z VRB02KT 6000 SCT008 OVC030 13/12 Q1009 NOSIG
12-10-14 METAR LIMC 140650Z VRB01KT 6000 SCT008 OVC030 13/12 Q1009 NOSIG
12-10-14 METAR LIMC 140720Z VRB02KT 6000 SCT008 OVC030 14/12 Q1009 NOSIG
12-10-14 METAR LIMC 140750Z 07002KT 7000 SCT009 OVC030 14/12 Q1009 NOSIG
12-10-14 METAR LIMC 140820Z VRB02KT 7000 SCT010 OVC030 14/12 Q1008 NOSIG
12-10-14 METAR LIMC 140850Z 13003KT 080V150 7000 SCT010 OVC030 14/12 Q1009 NOSIG
12-10-14 METAR LIMC 140920Z 14003KT 090V170 7000 SCT015 BKN050 15/12 Q1008 NOSIG
12-10-14 METAR LIMC 140950Z 12003KT 080V170 7000 SCT012 BKN050 14/12 Q1008 NOSIG
12-10-14 METAR LIMC 141020Z 12003KT 090V150 6000 SCT010 OVC040 14/12 Q1008 NOSIG
12-10-14 METAR LIMC 141050Z 13004KT 100V160 6000 SCT009 OVC040 14/12 Q1008 NOSIG
12-10-14 METAR LIMC 141120Z 12003KT 080V180 4500 BR SCT009 OVC040 15/12 Q1007 NOSIG
12-10-14 METAR LIMC 141150Z 13004KT 090V190 5000 BR SCT010 OVC040 15/12 Q1007 NOSIG
12-10-14 METAR LIMC 141220Z 11004KT 070V150 7000 SCT030 BKN070 16/12 Q1006 NOSIG
12-10-14 METAR LIMC 141250Z 10004KT 070V130 9999 SCT030 BKN070 15/12 Q1006 NOSIG
12-10-14 METAR LIMC 141320Z 09003KT 050V130 9999 SCT040 BKN070 16/12 Q1006 NOSIG
12-10-14 METAR LIMC 141350Z 10004KT 060V140 9999 SCT040 BKN070 16/12 Q1006 NOSIG
12-10-14 METAR LIMC 141420Z 09003KT 060V130 9999 SCT040 BKN070 16/12 Q1005 NOSIG
12-10-14 METAR LIMC 141450Z 08003KT 040V110 9999 SCT040 BKN070 16/12 Q1005 NOSIG
12-10-14 METAR LIMC 141520Z 09004KT 070V130 9999 SCT040 BKN070 16/12 Q1005 NOSIG
12-10-14 METAR LIMC 141550Z 11002KT 9999 SCT040 BKN070 15/12 Q1005 NOSIG
12-10-14 METAR LIMC 141620Z VRB02KT 9999 SCT040 BKN070 15/12 Q1005 NOSIG
12-10-14 METAR LIMC 141650Z 13002KT 9999 SCT040 BKN070 15/13 Q1004 NOSIG
12-10-14 METAR LIMC 141720Z 11003KT 9999 SCT040 BKN070 15/13 Q1004 NOSIG
12-10-14 METAR LIMC 141750Z VRB02KT 8000 SCT040 BKN070 15/13 Q1004 NOSIG
12-10-14 METAR LIMC 141820Z 09003KT 8000 SCT040 BKN070 15/13 Q1004 NOSIG
12-10-14 METAR LIMC 141850Z 10004KT 070V130 9999 SCT040 BKN070 15/13 Q1004 NOSIG
12-10-14 METAR LIMC 141920Z 10004KT 070V140 8000 SCT020 BKN050 15/13 Q1004 NOSIG
12-10-14 METAR LIMC 141950Z 11004KT 080V150 8000 SCT020 BKN050 15/13 Q1004 NOSIG
12-10-14 METAR LIMC 142020Z 11005KT 070V150 7000 -RA SCT010 OVC035 14/13 Q1003 NOSIG
12-10-14 METAR LIMC 142050Z 12005KT 070V160 7000 RA SCT010 OVC035 14/13 Q1003 NOSIG
12-10-14 METAR LIMC 142120Z 13005KT 7000 SCT010 OVC035 14/13 Q1003 RERA NOSIG
12-10-14 METAR LIMC 142150Z 12005KT 7000 SCT010 OVC035 14/12 Q1003 NOSIG
12-10-14 METAR LIMC 142220Z 11004KT 070V140 8000 SCT009 OVC035 13/12 Q1003 NOSIG
12-10-14 METAR LIMC 142250Z 10004KT 080V140 8000 SCT009 OVC035 13/13 Q1003 NOSIG
12-10-14 METAR LIMC 142320Z 11005KT 080V140 8000 SCT009 OVC035 14/13 Q1003 NOSIG
12-10-14 METAR LIMC 142350Z 11005KT 080V140 8000 SCT009 OVC035 14/13 Q1002 NOSIG
12-10-15 METAR LIMC 150020Z 11004KT 8000 SCT009 OVC035 13/13 Q1002 NOSIG
12-10-15 METAR LIMC 150050Z 10004KT 070V130 3500 RA BR SCT009 OVC035 13/13 Q1002 NOSIG
12-10-15 METAR LIMC 150120Z 12005KT 5000 -RA BR SCT009 OVC035 13/13 Q1001 RERA
12-10-15 METAR LIMC 150150Z 11005KT 8000 SCT009 OVC035 13/13 Q1001 NOSIG
12-10-15 METAR LIMC 150220Z 11005KT 8000 SCT009 OVC035 13/13 Q1001 NOSIG
12-10-15 METAR LIMC 150250Z 11005KT 070V140 8000 SCT009 OVC035 13/13 Q1001 NOSIG
12-10-15 METAR LIMC 150320Z 11005KT 6000 SCT007 OVC035 13/13 Q1001 NOSIG
12-10-15 METAR LIMC 150350Z 10005KT 060V170 6000 RA SCT007 OVC035 13/13 Q1001 NOSIG
12-10-15 METAR LIMC 150420Z 10004KT 060V140 4000 RA BR SCT007 OVC035 13/12 Q1001
12-10-15 METAR LIMC 150450Z 12004KT 080V170 8000 -RA SCT007 OVC040 13/12 Q1000 RERA
12-10-15 METAR LIMC 150520Z 11004KT 070V150 8000 RA SCT015 OVC040 13/12 Q1000 NOSIG
12-10-15 METAR LIMC 150550Z 12004KT 090V210 8000 RA SCT020 OVC050 13/12 Q1000 NOSIG
12-10-15 METAR LIMC 150620Z VRB04KT 8000 RA SCT020 OVC050 13/12 Q1000 NOSIG
12-10-15 METAR LIMC 150650Z 11004KT 060V150 8000 -RA SCT020 OVC050 13/12 Q1001 RERA
12-10-15 METAR LIMC 150720Z 10005KT 070V130 8000 -RA SCT020 OVC050 13/12 Q1000
12-10-15 METAR LIMC 150750Z 10004KT 070V130 8000 SCT020 OVC050 13/12 Q1001 NOSIG
12-10-15 METAR LIMC 150820Z 10004KT 070V150 9999 SCT040 OVC060 13/13 Q1001 NOSIG
12-10-15 METAR LIMC 150850Z 10004KT 060V140 9999 SCT040 OVC060 14/13 Q1001 NOSIG
12-10-15 METAR LIMC 150920Z 11004KT 070V140 9999 RA SCT040 OVC060 14/13 Q1001 NOSIG
12-10-15 METAR LIMC 150950Z 12004KT 090V150 9999 RA SCT040 OVC060 14/13 Q1001 NOSIG
12-10-15 METAR LIMC 151020Z VRB02KT 8000 RA SCT040 OVC060 12/11 Q1001 NOSIG
12-10-15 METAR LIMC 151050Z 34006KT 8000 RA SCT030 OVC060 11/10 Q1002 NOSIG
12-10-15 METAR LIMC 151120Z 35008KT 6000 RA SCT030 OVC060 10/09 Q1002 WS RWY 35L
12-10-15 METAR LIMC 151150Z 34011KT 6000 RA SCT030 OVC060 10/07 Q1002 WS RWY 35L
12-10-15 METAR LIMC 151220Z 35010KT 6000 R35L/1300V1500N R35R/1500N -RA SCT030 OVC060 09/07 Q1002 RERA WS RWY 35L NOSIG
12-10-15 METAR LIMC 151250Z 35011KT 9999 -RA SCT030 OVC060 09/06 Q1002 RERA NOSIG
12-10-15 METAR LIMC 151320Z 34012KT 9999 RA SCT030 OVC060 09/06 Q1003 NOSIG
12-10-15 METAR LIMC 151350Z 35011KT 9999 -RA SCT030 OVC060 09/06 Q1003 RERA NOSIG
12-10-15 METAR LIMC 151420Z 35012KT 9999 -RA SCT030 OVC060 09/05 Q1003 NOSIG
12-10-15 METAR LIMC 151450Z 36012KT 9999 -RA BKN030 BKN060 10/04 Q1003 WS RWY 35R
12-10-15 METAR LIMC 151520Z 36011KT 9999 BKN030 BKN060 10/04 Q1003 WS RWY 35R NOSIG
12-10-15 METAR LIMC 151550Z 36009KT 9999 BKN030 BKN060 10/03 Q1003 NOSIG
12-10-15 METAR LIMC 151620Z 01007KT 350V050 9999 BKN030 11/02 Q1004 NOSIG
12-10-15 METAR LIMC 151650Z 01009KT 9999 BKN030 11/02 Q1004 NOSIG
12-10-15 METAR LIMC 151720Z 36008KT 9999 BKN030 11/02 Q1004 NOSIG
12-10-15 METAR LIMC 151750Z 36005KT 330V040 9999 BKN030 11/02 Q1004 NOSIG
12-10-15 METAR LIMC 151820Z 36004KT 9999 BKN030 11/02 Q1005 NOSIG
12-10-15 METAR LIMC 151850Z 01003KT 300V050 9999 BKN030 10/02 Q1005 NOSIG
12-10-15 METAR LIMC 151920Z 34003KT 9999 SCT080 08/02 Q1006 NOSIG
12-10-15 METAR LIMC 151950Z 36002KT 9999 SCT080 10/02 Q1006 NOSIG
12-10-15 METAR LIMC 152020Z 34002KT 9999 SCT080 09/04 Q1006 NOSIG
12-10-15 METAR LIMC 152050Z 29004KT 260V320 9999 SCT080 10/04 Q1007 NOSIG
12-10-15 METAR LIMC 152120Z 27003KT 240V300 9999 SCT080 10/05 Q1007 NOSIG
12-10-15 METAR LIMC 152150Z VRB01KT 9999 SCT070 10/05 Q1007 NOSIG
12-10-15 METAR LIMC 152220Z 00000KT 9999 SCT070 09/06 Q1007 NOSIG
12-10-15 METAR LIMC 152250Z 00000KT 9999 SCT070 08/06 Q1007 NOSIG
12-10-15 METAR LIMC 152320Z 00000KT 9999 SCT070 08/07 Q1007 NOSIG
12-10-15 METAR LIMC 152350Z VRB01KT 9999 SCT070 08/07 Q1007 NOSIG
12-10-16 METAR LIMC 160020Z 00000KT 9999 SCT070 08/07 Q1007 NOSIG
12-10-16 METAR LIMC 160050Z VRB01KT 9999 SCT070 08/07 Q1007 NOSIG
12-10-16 METAR LIMC 160120Z 00000KT 9999 SCT070 08/07 Q1007 NOSIG
12-10-16 METAR LIMC 160150Z NIL
12-10-16 METAR LIMC 160150Z 00000KT 9999 SCT070 08/07 Q1007 NOSIG
12-10-16 METAR LIMC 160220Z 00000KT 9999 SCT070 07/06 Q1007 NOSIG
12-10-16 METAR LIMC 160250Z 22001KT 9999 SCT070 06/06 Q1007 NOSIG
12-10-16 METAR LIMC 160320Z 00000KT 9999 R17R///// R35L/0450V1500D MIFG SCT070 05/05 Q1007 NOSIG
12-10-16 METAR LIMC 160350Z 29001KT 9999 MIFG SCT070 04/03 Q1007 NOSIG
12-10-16 METAR LIMC 160420Z VRB02KT 9999 NSC 03/03 Q1007 NOSIG
12-10-16 METAR LIMC 160450Z 35002KT CAVOK 04/04 Q1008 NOSIG
12-10-16 METAR LIMC 160520Z VRB02KT 9999 MIFG NSC 04/04 Q1008 NOSIG
12-10-16 METAR LIMC 160550Z VRB01KT CAVOK 04/04 Q1008 NOSIG
12-10-16 METAR LIMC 160620Z VRB02KT CAVOK 04/03 Q1009 NOSIG
12-10-16 METAR LIMC 160650Z 35003KT CAVOK 06/05 Q1009 NOSIG
12-10-16 METAR LIMC 160720Z 35003KT CAVOK 09/05 Q1009 NOSIG
12-10-16 METAR LIMC 160750Z 31003KT 280V340 CAVOK 11/04 Q1010 NOSIG
12-10-16 METAR LIMC 160820Z VRB02KT CAVOK 11/04 Q1010 NOSIG
12-10-16 METAR LIMC 160850Z VRB02KT CAVOK 12/05 Q1010 NOSIG
12-10-16 METAR LIMC 160920Z VRB02KT CAVOK 14/04 Q1011 NOSIG
12-10-16 METAR LIMC 160950Z 00000KT CAVOK 15/04 Q1011 NOSIG
12-10-16 METAR LIMC 161020Z VRB02KT CAVOK 15/03 Q1011 NOSIG
12-10-16 METAR LIMC 161050Z 23004KT 200V260 CAVOK 16/03 Q1012 NOSIG
12-10-16 METAR LIMC 161120Z 24003KT 200V280 CAVOK 16/02 Q1012 NOSIG
12-10-16 METAR LIMC 161150Z 24003KT 190V270 CAVOK 16/03 Q1011 NOSIG
12-10-16 METAR LIMC 161220Z 22004KT 180V270 CAVOK 16/02 Q1011 NOSIG
12-10-16 METAR LIMC 161250Z 23003KT 190V270 CAVOK 17/01 Q1011 NOSIG
12-10-16 METAR LIMC 161320Z 24003KT 210V270 CAVOK 16/03 Q1012 NOSIG
12-10-16 METAR LIMC 161350Z VRB02KT 9999 SCT060 16/04 Q1011 NOSIG
12-10-16 METAR LIMC 161420Z VRB02KT CAVOK 18/04 Q1012 NOSIG
12-10-16 METAR LIMC 161450Z VRB02KT CAVOK 17/04 Q1012 NOSIG
12-10-16 METAR LIMC 161520Z 20001KT 9999 SCT070 15/04 Q1012 NOSIG
12-10-16 METAR LIMC 161550Z 00000KT 9999 BKN070 14/05 Q1013 NOSIG
12-10-16 METAR LIMC 161620Z 00000KT 9999 BKN070 14/04 Q1013 NOSIG
12-10-16 METAR LIMC 161650Z 00000KT 9999 BKN070 13/06 Q1013 NOSIG
12-10-16 METAR LIMC 161720Z VRB01KT 9999 BKN070 11/05 Q1013 NOSIG
12-10-16 METAR LIMC 161750Z 00000KT 9999 BKN070 09/06 Q1014 NOSIG
12-10-16 METAR LIMC 161820Z VRB01KT 9999 BKN070 09/05 Q1014 NOSIG
12-10-16 METAR LIMC 161850Z 00000KT 9999 BKN070 08/05 Q1015 NOSIG
12-10-16 METAR LIMC 161920Z 35002KT 9999 FEW070 08/05 Q1016 NOSIG
12-10-16 METAR LIMC 161950Z VRB01KT 9999 SCT080 08/06 Q1016 NOSIG
12-10-16 METAR LIMC 162020Z 36003KT 9999 SCT080 08/06 Q1017 NOSIG
12-10-16 METAR LIMC 162050Z VRB01KT 9999 SCT080 10/05 Q1017 NOSIG
12-10-16 METAR LIMC 162120Z 01001KT 9999 FEW080 07/05 Q1017 NOSIG
12-10-16 METAR LIMC 162150Z 01002KT 9999 FEW080 06/04 Q1017 NOSIG
12-10-16 METAR LIMC 162220Z 03002KT 9999 FEW080 05/05 Q1017 NOSIG
12-10-16 METAR LIMC 162250Z 02002KT 9999 FEW080 06/05 Q1017 NOSIG
12-10-16 METAR LIMC 162320Z VRB01KT 9999 FEW080 06/06 Q1018 NOSIG
12-10-16 METAR LIMC 162350Z VRB02KT 9999 SCT080 07/05 Q1018 NOSIG
12-10-17 METAR LIMC 170020Z 35003KT 9999 FEW080 07/06 Q1018 NOSIG
12-10-17 METAR LIMC 170050Z 36003KT CAVOK 08/06 Q1018 NOSIG
12-10-17 METAR LIMC 170120Z 35003KT 9999 9000NW SCT060 08/06 Q1019 NOSIG
12-10-17 METAR LIMC 170150Z 34004KT 9999 SCT050 09/08 Q1019 NOSIG
12-10-17 METAR LIMC 170220Z 36004KT 9999 SCT050 10/07 Q1019 NOSIG
12-10-17 METAR LIMC 170250Z 00000KT 9999 BKN050 10/07 Q1019 NOSIG
12-10-17 METAR LIMC 170350Z NIL
12-10-17 METAR LIMC 170350Z 02002KT 9999 BKN050 10/07 Q1020 NOSIG
12-10-17 METAR LIMC 170420Z 00000KT 9999 BKN045 10/07 Q1020 NOSIG
12-10-17 METAR LIMC 170450Z 34003KT 9999 BKN040 10/08 Q1020 NOSIG
12-10-17 METAR LIMC 170520Z 35003KT 9999 BKN040 11/08 Q1020 NOSIG
12-10-17 METAR LIMC 170550Z 34003KT 9999 BKN040 11/08 Q1021 NOSIG
12-10-17 METAR LIMC 170620Z 35004KT 9999 BKN040 10/08 Q1021 NOSIG
12-10-17 METAR LIMC 170650Z 35003KT 9999 BKN040 11/08 Q1021 NOSIG
12-10-17 METAR LIMC 170720Z 00000KT 9999 BKN040 11/07 Q1022 NOSIG
12-10-17 METAR LIMC 170750Z 35003KT 330V030 9999 BKN040 11/08 Q1023 NOSIG
12-10-17 METAR LIMC 170820Z 00000KT 9999 BKN040 11/08 Q1023 NOSIG
12-10-17 METAR LIMC 170850Z VRB02KT 9999 BKN040 12/08 Q1023 NOSIG
12-10-17 METAR LIMC 170920Z VRB02KT 9999 BKN040 12/07 Q1023 NOSIG
12-10-17 METAR LIMC 170950Z 35003KT 9999 BKN040 13/07 Q1023 NOSIG
12-10-17 METAR LIMC 171020Z 35003KT 300V030 9999 BKN040 BKN070 13/07 Q1023 NOSIG
12-10-17 METAR LIMC 171050Z VRB02KT 9999 BKN040 BKN070 14/08 Q1024 NOSIG
12-10-17 METAR LIMC 171120Z VRB01KT 9999 BKN040 BKN070 14/08 Q1023 NOSIG
12-10-17 METAR LIMC 171150Z VRB01KT 9999 BKN040 BKN070 14/09 Q1023 NOSIG
12-10-17 METAR LIMC 171220Z VRB02KT 9999 BKN040 BKN070 14/08 Q1023 NOSIG
12-10-17 METAR LIMC 171250Z VRB02KT 9999 BKN040 BKN070 14/09 Q1023 NOSIG
12-10-17 METAR LIMC 171320Z NIL
12-10-17 METAR LIMC 171320Z VRB02KT 9999 BKN050 BKN070 14/09 Q1023 NOSIG
12-10-17 METAR LIMC 171350Z VRB01KT 9999 BKN050 BKN070 14/09 Q1023 NOSIG
12-10-17 METAR LIMC 171420Z VRB01KT 9999 BKN050 BKN070 14/09 Q1023 NOSIG
12-10-17 METAR LIMC 171450Z 33002KT 9999 BKN050 BKN070 14/09 Q1023 NOSIG
12-10-17 METAR LIMC 171520Z 34003KT 9999 SCT050 BKN070 13/08 Q1023 NOSIG
12-10-17 METAR LIMC 171550Z 34003KT 9999 SCT050 BKN070 13/09 Q1023 NOSIG
12-10-17 METAR LIMC 171620Z 34003KT 9999 SCT050 BKN070 13/08 Q1023 NOSIG
12-10-17 METAR LIMC 171650Z 36003KT 9999 SCT050 BKN070 13/09 Q1023 NOSIG
12-10-17 METAR LIMC 171720Z VRB02KT 9999 SCT050 BKN070 13/09 Q1023 NOSIG
12-10-17 METAR LIMC 171750Z VRB01KT 9999 BKN035 BKN070 13/08 Q1024 NOSIG
12-10-17 METAR LIMC 171820Z VRB01KT 9999 BKN035 BKN070 13/09 Q1024 NOSIG
12-10-17 METAR LIMC 171850Z VRB01KT 9999 BKN030 BKN070 12/09 Q1024 NOSIG
12-10-17 METAR LIMC 171920Z VRB02KT 9999 BKN030 BKN070 12/09 Q1024 NOSIG
12-10-17 METAR LIMC 171950Z 34001KT 9999 BKN030 BKN070 12/10 Q1024 NOSIG
12-10-17 METAR LIMC 172020Z 33002KT 9999 BKN030 BKN070 12/10 Q1024 NOSIG
12-10-17 METAR LIMC 172050Z 36003KT 9999 BKN030 BKN070 12/10 Q1024 NOSIG
12-10-17 METAR LIMC 172120Z 36002KT 9999 BKN030 BKN070 12/10 Q1024 NOSIG
12-10-17 METAR LIMC 172150Z 36002KT 9999 BKN030 BKN070 11/10 Q1024 NOSIG
12-10-17 METAR LIMC 172220Z 01002KT 9999 BKN030 BKN070 11/10 Q1024 NOSIG
12-10-17 METAR LIMC 172250Z 03002KT 9999 BKN020 BKN070 11/10 Q1025 NOSIG
12-10-17 METAR LIMC 172320Z 34002KT 9999 BKN020 BKN070 11/11 Q1024 NOSIG
12-10-17 METAR LIMC 172350Z 34003KT 9999 BKN020 BKN070 11/11 Q1024 NOSIG
12-10-18 METAR LIMC 180020Z 35003KT 9999 BKN020 BKN070 11/11 Q1024 NOSIG
12-10-18 METAR LIMC 180050Z 35002KT 9999 BKN020 BKN070 11/10 Q1024 NOSIG
12-10-18 METAR LIMC 180120Z 35001KT 9999 BKN020 11/11 Q1024 NOSIG
12-10-18 METAR LIMC 180150Z 35001KT 9999 BKN020 11/11 Q1024 NOSIG
12-10-18 METAR LIMC 180220Z 33003KT 9999 BKN020 11/11 Q1024 NOSIG
12-10-18 METAR LIMC 180250Z 36002KT 9999 BKN020 11/11 Q1023 NOSIG
12-10-18 METAR LIMC 180320Z 33002KT 9999 BKN020 11/11 Q1023 NOSIG
12-10-18 METAR LIMC 180350Z 33002KT 9999 BKN020 11/11 Q1023 NOSIG
12-10-18 METAR LIMC 180420Z 32002KT 9999 BKN025 11/11 Q1023 NOSIG
12-10-18 METAR LIMC 180450Z 00000KT 9999 BKN025 11/11 Q1023 NOSIG
12-10-18 METAR LIMC 180520Z 34001KT 9999 BKN030 11/11 Q1023 NOSIG
12-10-18 METAR LIMC 180550Z 32002KT 9999 BKN035 11/11 Q1023 NOSIG
12-10-18 METAR LIMC 180620Z VRB01KT 9999 BKN035 11/11 Q1024 NOSIG
12-10-18 METAR LIMC 180650Z 34001KT 9999 BKN040 12/11 Q1024 NOSIG
12-10-18 METAR LIMC 180720Z 35002KT 9999 BKN040 12/11 Q1024 NOSIG
12-10-18 METAR LIMC 180750Z 00000KT 9999 BKN050 13/11 Q1024 NOSIG
12-10-18 METAR LIMC 180820Z VRB02KT 9999 BKN050 13/11 Q1024 NOSIG
12-10-18 METAR LIMC 180850Z VRB01KT 9999 BKN050 14/11 Q1024 NOSIG
12-10-18 METAR LIMC 180920Z VRB02KT 9999 BKN040 14/11 Q1024 NOSIG
12-10-18 METAR LIMC 180950Z 00000KT 9999 BKN050 15/11 Q1024 NOSIG
12-10-18 METAR LIMC 181020Z VRB01KT 9999 BKN050 16/10 Q1024 NOSIG
12-10-18 METAR LIMC 181050Z VRB01KT 9999 SCT050 16/10 Q1024 NOSIG
12-10-18 METAR LIMC 181120Z VRB02KT 9999 BKN060 17/11 Q1024 NOSIG
12-10-18 METAR LIMC 181150Z VRB01KT 9999 BKN060 18/11 Q1024 NOSIG
12-10-18 METAR LIMC 181220Z VRB01KT 9999 FEW060 SCT080 17/10 Q1023 NOSIG
12-10-18 METAR LIMC 181250Z 00000KT 9999 FEW060 BKN090 18/11 Q1023 NOSIG
12-10-18 METAR LIMC 181320Z VRB01KT 9999 FEW060 BKN090 18/11 Q1023 NOSIG
12-10-18 METAR LIMC 181350Z VRB01KT 9999 FEW060 18/10 Q1023 NOSIG
12-10-18 METAR LIMC 181420Z VRB02KT 9999 FEW060 18/11 Q1022 NOSIG
12-10-18 METAR LIMC 181450Z 23002KT 9999 FEW060 17/11 Q1022 NOSIG
12-10-18 METAR LIMC 181520Z 22002KT CAVOK 17/11 Q1022 NOSIG
12-10-18 METAR LIMC 181550Z 21002KT CAVOK 16/11 Q1022 NOSIG
12-10-18 METAR LIMC 181620Z 00000KT CAVOK 15/12 Q1022 NOSIG
12-10-18 METAR LIMC 181650Z 00000KT CAVOK 14/11 Q1023 NOSIG
12-10-18 METAR LIMC 181720Z 00000KT CAVOK 13/11 Q1023 NOSIG
12-10-18 METAR LIMC 181750Z 00000KT CAVOK 13/10 Q1023 NOSIG
12-10-18 METAR LIMC 181820Z 00000KT CAVOK 12/12 Q1023 NOSIG
12-10-18 METAR LIMC 181850Z VRB01KT CAVOK 12/11 Q1023 NOSIG
12-10-18 METAR LIMC 181920Z 00000KT CAVOK 11/11 Q1024 NOSIG
12-10-18 METAR LIMC 181950Z 00000KT CAVOK 10/10 Q1024 NOSIG
12-10-18 METAR LIMC 182020Z 00000KT CAVOK 11/10 Q1024 NOSIG
12-10-18 METAR LIMC 182050Z 00000KT CAVOK 09/09 Q1024 NOSIG
12-10-18 METAR LIMC 182120Z 00000KT CAVOK 08/08 Q1024 NOSIG
12-10-18 METAR LIMC 182150Z 36001KT CAVOK 08/07 Q1024 NOSIG
12-10-18 METAR LIMC 182220Z 36001KT CAVOK 08/08 Q1024 NOSIG
12-10-18 METAR LIMC 182250Z 36002KT CAVOK 08/08 Q1024 NOSIG
12-10-18 METAR LIMC 182320Z 36001KT CAVOK 09/08 Q1024 NOSIG
12-10-18 METAR LIMC 182350Z 34001KT CAVOK 09/09 Q1024 NOSIG
12-10-19 METAR LIMC 190020Z NIL
12-10-19 METAR LIMC 190050Z 35002KT 9999 SCT030 11/11 Q1024 NOSIG
12-10-19 METAR LIMC 190120Z 01002KT 9999 SCT030 12/11 Q1024 NOSIG
12-10-19 METAR LIMC 190150Z 00000KT 9999 BKN030 12/12 Q1024 NOSIG
12-10-19 METAR LIMC 190220Z 34002KT 9999 BKN030 12/12 Q1024 NOSIG
12-10-19 METAR LIMC 190250Z 34002KT 9999 BKN030 11/11 Q1023 NOSIG
12-10-19 METAR LIMC 190320Z 00000KT 9999 BKN030 11/11 Q1023 NOSIG
12-10-19 METAR LIMC 190350Z 34001KT 9999 BKN030 11/11 Q1023 NOSIG
12-10-19 METAR LIMC 190420Z VRB01KT 9999 BKN030 12/11 Q1023 NOSIG
12-10-19 METAR LIMC 190450Z VRB01KT 9999 BKN030 12/11 Q1023 NOSIG
12-10-19 METAR LIMC 190520Z 34002KT 9999 BKN030 12/11 Q1023 NOSIG
12-10-19 METAR LIMC 190550Z 34003KT 9999 BKN030 12/11 Q1023 NOSIG
12-10-19 METAR LIMC 190620Z 35002KT 9999 BKN030 12/12 Q1024 NOSIG
12-10-19 METAR LIMC 190650Z 34002KT 9999 BKN035 12/12 Q1024 NOSIG
12-10-19 METAR LIMC 190720Z 34003KT 9999 BKN035 13/12 Q1024 NOSIG
12-10-19 METAR LIMC 190750Z 33004KT 9999 BKN035 13/12 Q1024 NOSIG
12-10-19 METAR LIMC 190820Z 34002KT 9999 BKN035 14/12 Q1024 NOSIG
12-10-19 METAR LIMC 190850Z VRB02KT 9999 BKN035 15/12 Q1024 NOSIG
12-10-19 METAR LIMC 190920Z VRB02KT 9999 FEW040 BKN090 16/12 Q1024 NOSIG
12-10-19 METAR LIMC 190950Z 00000KT 9999 FEW040 17/11 Q1024 NOSIG
12-10-19 METAR LIMC 191020Z VRB01KT CAVOK 17/11 Q1024 NOSIG
12-10-19 METAR LIMC 191050Z VRB02KT 9999 BKN025 17/11 Q1024 NOSIG
12-10-19 METAR LIMC 191120Z 26001KT 9999 BKN025 17/11 Q1024 NOSIG
12-10-19 METAR LIMC 191150Z 26002KT 9999 FEW025 BKN040 17/11 Q1023 NOSIG
12-10-19 METAR LIMC 191220Z VRB01KT 9999 FEW025 BKN040 18/11 Q1023 NOSIG
12-10-19 METAR LIMC 191250Z 00000KT 9999 BKN040 18/10 Q1023 NOSIG
12-10-19 METAR LIMC 191320Z 00000KT 9999 SCT030 BKN050 18/10 Q1023 NOSIG
12-10-19 METAR LIMC 191350Z VRB01KT 9999 SCT030 BKN050 18/10 Q1023 NOSIG
12-10-19 METAR LIMC 191420Z VRB01KT 9999 SCT050 17/11 Q1023 NOSIG
12-10-19 METAR LIMC 191450Z VRB01KT 9999 SCT060 17/11 Q1023 NOSIG
12-10-19 METAR LIMC 191520Z 00000KT 9999 FEW090 18/11 Q1023 NOSIG
12-10-19 METAR LIMC 191550Z 00000KT 9999 FEW090 17/10 Q1023 NOSIG
12-10-19 METAR LIMC 191620Z 00000KT 9999 FEW090 14/11 Q1023 NOSIG
12-10-19 METAR LIMC 191650Z 00000KT CAVOK 14/11 Q1023 NOSIG
12-10-19 METAR LIMC 191720Z 00000KT CAVOK 12/10 Q1023 NOSIG
12-10-19 METAR LIMC 191750Z 36002KT CAVOK 13/10 Q1023 NOSIG
12-10-19 METAR LIMC 191820Z 35003KT CAVOK 13/11 Q1023 NOSIG
12-10-19 METAR LIMC 191850Z 35002KT CAVOK 12/11 Q1023 NOSIG
12-10-19 METAR LIMC 191920Z 00000KT CAVOK 12/11 Q1023 NOSIG
12-10-19 METAR LIMC 191950Z VRB01KT CAVOK 11/11 Q1024 NOSIG
12-10-19 METAR LIMC 192020Z 00000KT 9999 MIFG NSC 10/10 Q1024 NOSIG
12-10-19 METAR LIMC 192050Z VRB01KT 9999 R35L///// R35R/0900V1500N MIFG NSC 10/09 Q1024 NOSIG
12-10-19 METAR LIMC 192120Z 00000KT 9999 MIFG NSC 09/08 Q1024 NOSIG
12-10-19 METAR LIMC 192150Z 36002KT 9999 MIFG NSC 10/08 Q1023 NOSIG
12-10-19 METAR LIMC 192220Z 02001KT CAVOK 09/09 Q1023 NOSIG
12-10-19 METAR LIMC 192250Z 35002KT CAVOK 08/07 Q1023 NOSIG
12-10-19 METAR LIMC 192320Z 00000KT CAVOK 08/07 Q1023 NOSIG
12-10-19 METAR LIMC 192350Z 00000KT CAVOK 07/07 Q1024 NOSIG
12-10-20 METAR LIMC 200020Z 00000KT CAVOK 06/06 Q1023 NOSIG
12-10-20 METAR LIMC 200050Z 01001KT CAVOK 06/06 Q1023 NOSIG
12-10-20 METAR LIMC 200120Z 36002KT CAVOK 07/06 Q1023 NOSIG
12-10-20 METAR LIMC 200150Z 36002KT CAVOK 07/06 Q1023 NOSIG
12-10-20 METAR LIMC 200220Z 35002KT CAVOK 08/08 Q1023 NOSIG
12-10-20 METAR LIMC 200250Z 36003KT CAVOK 08/08 Q1022 NOSIG
12-10-20 METAR LIMC 200320Z 35003KT CAVOK 09/09 Q1022 NOSIG
12-10-20 METAR LIMC 200350Z 01001KT CAVOK 08/08 Q1023 NOSIG
12-10-20 METAR LIMC 200420Z 36002KT CAVOK 07/07 Q1023 NOSIG
12-10-20 METAR LIMC 200450Z 36002KT CAVOK 06/06 Q1023 NOSIG
12-10-20 METAR LIMC 200520Z VRB02KT 9999 4500E MIFG NSC 07/07 Q1022 NOSIG
12-10-20 METAR LIMC 200550Z VRB02KT 9999 4500E MIFG NSC 08/07 Q1023 NOSIG
12-10-20 METAR LIMC 200620Z 01004KT CAVOK 10/09 Q1023 NOSIG
12-10-20 METAR LIMC 200650Z 00000KT CAVOK 10/09 Q1023 NOSIG
12-10-20 METAR LIMC 200720Z VRB01KT CAVOK 12/10 Q1023 NOSIG
12-10-20 METAR LIMC 200750Z VRB02KT CAVOK 13/11 Q1023 NOSIG
12-10-20 METAR LIMC 200820Z VRB01KT 9999 FEW070 14/11 Q1023 NOSIG
12-10-20 METAR LIMC 200850Z VRB02KT 9999 FEW070 15/11 Q1023 NOSIG
12-10-20 METAR LIMC 200920Z VRB01KT 9999 FEW070 17/11 Q1023 NOSIG
12-10-20 METAR LIMC 200950Z VRB02KT CAVOK 17/11 Q1023 NOSIG
12-10-20 METAR LIMC 201020Z VRB01KT CAVOK 18/10 Q1023 NOSIG
12-10-20 METAR LIMC 201050Z VRB01KT CAVOK 19/11 Q1022 NOSIG
12-10-20 METAR LIMC 201120Z 00000KT CAVOK 20/10 Q1022 NOSIG
12-10-20 METAR LIMC 201150Z VRB01KT CAVOK 20/10 Q1022 NOSIG
12-10-20 METAR LIMC 201220Z 00000KT CAVOK 21/10 Q1021 NOSIG
12-10-20 METAR LIMC 201250Z VRB01KT CAVOK 21/10 Q1021 NOSIG
12-10-20 METAR LIMC 201320Z 00000KT CAVOK 21/10 Q1021 NOSIG
12-10-20 METAR LIMC 201350Z 00000KT CAVOK 21/10 Q1020 NOSIG
12-10-20 METAR LIMC 201420Z VRB02KT CAVOK 21/10 Q1020 NOSIG
12-10-20 METAR LIMC 201450Z VRB02KT CAVOK 21/10 Q1020 NOSIG
12-10-20 METAR LIMC 201520Z VRB02KT CAVOK 21/11 Q1020 NOSIG
12-10-20 METAR LIMC 201550Z VRB02KT CAVOK 20/10 Q1020 NOSIG
12-10-20 METAR LIMC 201620Z 00000KT CAVOK 17/12 Q1020 NOSIG
12-10-20 METAR LIMC 201650Z 00000KT CAVOK 16/11 Q1021 NOSIG
12-10-20 METAR LIMC 201720Z 00000KT CAVOK 15/11 Q1020 NOSIG
12-10-20 METAR LIMC 201750Z 00000KT CAVOK 13/10 Q1021 NOSIG
12-10-20 METAR LIMC 201820Z VRB01KT CAVOK 12/11 Q1020 NOSIG
12-10-20 METAR LIMC 201850Z VRB01KT CAVOK 12/11 Q1021 NOSIG
12-10-20 METAR LIMC 201920Z VRB02KT CAVOK 13/12 Q1021 NOSIG
12-10-20 METAR LIMC 201950Z 36002KT CAVOK 12/11 Q1021 NOSIG
12-10-20 METAR LIMC 202020Z VRB02KT CAVOK 11/10 Q1021 NOSIG
12-10-20 METAR LIMC 202050Z 35002KT CAVOK 12/11 Q1021 NOSIG
12-10-20 METAR LIMC 202120Z 00000KT CAVOK 10/10 Q1021 NOSIG
12-10-20 METAR LIMC 202150Z 35002KT CAVOK 09/08 Q1021 NOSIG
12-10-20 METAR LIMC 202220Z 36002KT CAVOK 11/11 Q1021 NOSIG
12-10-20 METAR LIMC 202250Z 35004KT CAVOK 11/10 Q1021 NOSIG
12-10-20 METAR LIMC 202320Z 36002KT CAVOK 11/10 Q1021 NOSIG
12-10-20 METAR LIMC 202350Z 35002KT CAVOK 10/09 Q1021 NOSIG
12-10-21 METAR LIMC 210020Z 36002KT CAVOK 10/10 Q1021 NOSIG
12-10-21 METAR LIMC 210050Z 36002KT CAVOK 10/10 Q1021 NOSIG
12-10-21 METAR LIMC 210120Z 00000KT CAVOK 10/09 Q1021 NOSIG
12-10-21 METAR LIMC 210150Z 02002KT CAVOK 09/09 Q1020 NOSIG
12-10-21 METAR LIMC 210220Z 00000KT CAVOK 09/08 Q1020 NOSIG
12-10-21 METAR LIMC 210250Z 36002KT CAVOK 08/07 Q1020 NOSIG
12-10-21 METAR LIMC 210320Z 35003KT CAVOK 09/09 Q1020 NOSIG
12-10-21 METAR LIMC 210350Z 35003KT CAVOK 08/08 Q1020 NOSIG
12-10-21 METAR LIMC 210420Z 35001KT CAVOK 09/09 Q1020 NOSIG
12-10-21 METAR LIMC 210450Z 36002KT CAVOK 09/09 Q1020 NOSIG
12-10-21 METAR LIMC 210520Z 34003KT 9999 MIFG NSC 10/09 Q1020 NOSIG
12-10-21 METAR LIMC 210550Z 35003KT 330V030 9999 MIFG NSC 10/09 Q1019 NOSIG
12-10-21 METAR LIMC 210620Z 34002KT 9999 MIFG NSC 09/08 Q1020 NOSIG
12-10-21 METAR LIMC 210650Z 00000KT 9999 MIFG NSC 10/10 Q1020 NOSIG
12-10-21 METAR LIMC 210720Z 00000KT CAVOK 12/10 Q1020 NOSIG
12-10-21 METAR LIMC 210750Z 00000KT CAVOK 14/10 Q1021 NOSIG
12-10-21 METAR LIMC 210820Z 00000KT CAVOK 15/11 Q1021 NOSIG
12-10-21 METAR LIMC 210850Z VRB02KT CAVOK 16/11 Q1020 NOSIG
12-10-21 METAR LIMC 210920Z VRB01KT CAVOK 17/10 Q1020 NOSIG
12-10-21 METAR LIMC 210950Z VRB02KT CAVOK 18/11 Q1020 NOSIG
12-10-21 METAR LIMC 211020Z VRB02KT CAVOK 18/10 Q1020 NOSIG
12-10-21 METAR LIMC 211050Z VRB01KT CAVOK 19/11 Q1019 NOSIG
12-10-21 METAR LIMC 211120Z VRB02KT CAVOK 20/11 Q1019 NOSIG
12-10-21 METAR LIMC 211150Z VRB01KT CAVOK 20/11 Q1018 NOSIG
12-10-21 METAR LIMC 211220Z VRB02KT CAVOK 21/11 Q1018 NOSIG
12-10-21 METAR LIMC 211250Z VRB01KT CAVOK 21/10 Q1018 NOSIG
12-10-21 METAR LIMC 211320Z VRB02KT CAVOK 21/11 Q1018 NOSIG
12-10-21 METAR LIMC 211350Z 23003KT CAVOK 21/10 Q1017 NOSIG
12-10-21 METAR LIMC 211420Z 24003KT 210V270 CAVOK 21/11 Q1017 NOSIG
12-10-21 METAR LIMC 211450Z 25002KT CAVOK 21/11 Q1017 NOSIG
12-10-21 METAR LIMC 211520Z 23002KT CAVOK 20/11 Q1017 NOSIG
12-10-21 METAR LIMC 211550Z VRB01KT CAVOK 20/11 Q1017 NOSIG
12-10-21 METAR LIMC 211620Z 00000KT CAVOK 19/11 Q1017 NOSIG
12-10-21 METAR LIMC 211650Z 00000KT CAVOK 17/11 Q1018 NOSIG
12-10-21 METAR LIMC 211720Z 00000KT CAVOK 15/11 Q1018 NOSIG
12-10-21 METAR LIMC 211750Z 00000KT CAVOK 13/11 Q1018 NOSIG
12-10-21 METAR LIMC 211820Z VRB02KT CAVOK 16/12 Q1018 NOSIG
12-10-21 METAR LIMC 211850Z 36001KT CAVOK 13/12 Q1018 NOSIG
12-10-21 METAR LIMC 211920Z 36002KT CAVOK 14/13 Q1019 NOSIG
12-10-21 METAR LIMC 211950Z VRB01KT CAVOK 12/12 Q1019 NOSIG
12-10-21 METAR LIMC 212020Z 36002KT CAVOK 14/12 Q1019 NOSIG
12-10-21 METAR LIMC 212050Z 01001KT CAVOK 13/12 Q1019 NOSIG
12-10-21 METAR LIMC 212120Z 36002KT CAVOK 14/12 Q1019 NOSIG
12-10-21 METAR LIMC 212150Z VRB02KT CAVOK 13/12 Q1019 NOSIG
12-10-21 METAR LIMC 212220Z 02001KT CAVOK 13/12 Q1019 NOSIG
12-10-21 METAR LIMC 212250Z 36003KT CAVOK 12/11 Q1019 NOSIG
12-10-21 METAR LIMC 212320Z VRB02KT CAVOK 13/12 Q1019 NOSIG
12-10-21 METAR LIMC 212350Z VRB01KT CAVOK 12/12 Q1019 NOSIG
12-10-22 METAR LIMC 220020Z VRB01KT CAVOK 14/12 Q1019 NOSIG
12-10-22 METAR LIMC 220050Z 36002KT CAVOK 13/12 Q1019 NOSIG
12-10-22 METAR LIMC 220120Z 36002KT CAVOK 12/12 Q1019 NOSIG
12-10-22 METAR LIMC 220150Z 35002KT 6000 NSC 12/11 Q1019 NOSIG
12-10-22 METAR LIMC 220220Z 36002KT 6000 NSC 11/11 Q1019 NOSIG
12-10-22 METAR LIMC 220250Z 35002KT 6000 NSC 11/11 Q1019 NOSIG
12-10-22 METAR LIMC 220320Z 36003KT 6000 NSC 11/11 Q1019 NOSIG
12-10-22 METAR LIMC 220350Z 34003KT 6000 NSC 10/10 Q1019 NOSIG
12-10-22 METAR LIMC 220420Z 35003KT 6000 NSC 10/10 Q1019 NOSIG
12-10-22 METAR LIMC 220450Z 35002KT CAVOK 11/10 Q1019 NOSIG
12-10-22 METAR LIMC 220520Z 35002KT CAVOK 10/09 Q1019 NOSIG
12-10-22 METAR LIMC 220550Z 35003KT CAVOK 11/11 Q1019 NOSIG
12-10-22 METAR LIMC 220620Z 35003KT CAVOK 10/10 Q1019 NOSIG
12-10-22 METAR LIMC 220650Z 34002KT CAVOK 11/11 Q1020 NOSIG
12-10-22 METAR LIMC 220720Z 00000KT CAVOK 13/12 Q1020 NOSIG
12-10-22 METAR LIMC 220750Z VRB01KT CAVOK 14/12 Q1020 NOSIG
12-10-22 METAR LIMC 220820Z 00000KT CAVOK 15/12 Q1020 NOSIG
12-10-22 METAR LIMC 220850Z VRB01KT 9999 SCT070 16/12 Q1020 NOSIG
12-10-22 METAR LIMC 220920Z 00000KT 9999 FEW070 17/12 Q1020 NOSIG
12-10-22 METAR LIMC 220950Z 00000KT CAVOK 19/12 Q1019 NOSIG
12-10-22 METAR LIMC 221020Z 26002KT CAVOK 19/13 Q1019 NOSIG
12-10-22 METAR LIMC 221050Z VRB01KT CAVOK 20/12 Q1019 NOSIG
12-10-22 METAR LIMC 221120Z VRB02KT CAVOK 20/13 Q1019 NOSIG
12-10-22 METAR LIMC 221150Z VRB01KT CAVOK 21/12 Q1019 NOSIG
12-10-22 METAR LIMC 221220Z VRB01KT CAVOK 21/12 Q1018 NOSIG
12-10-22 METAR LIMC 221250Z 00000KT CAVOK 22/12 Q1018 NOSIG
12-10-22 METAR LIMC 221320Z VRB02KT CAVOK 22/12 Q1018 NOSIG
12-10-22 METAR LIMC 221350Z VRB02KT CAVOK 22/11 Q1018 NOSIG
12-10-22 METAR LIMC 221420Z VRB02KT CAVOK 22/11 Q1018 NOSIG
12-10-22 METAR LIMC 221450Z VRB02KT CAVOK 22/12 Q1018 NOSIG
12-10-22 METAR LIMC 221520Z 13002KT CAVOK 21/12 Q1018 NOSIG
12-10-22 METAR LIMC 221550Z 13001KT CAVOK 20/13 Q1018 NOSIG
12-10-22 METAR LIMC 221620Z 00000KT CAVOK 18/13 Q1018 NOSIG
12-10-22 METAR LIMC 221650Z 00000KT CAVOK 17/12 Q1018 NOSIG
12-10-22 METAR LIMC 221720Z VRB01KT CAVOK 17/13 Q1019 NOSIG
12-10-22 METAR LIMC 221750Z VRB01KT CAVOK 15/13 Q1019 NOSIG
12-10-22 METAR LIMC 221820Z VRB02KT CAVOK 13/13 Q1019 NOSIG
12-10-22 METAR LIMC 221850Z VRB02KT CAVOK 15/13 Q1019 NOSIG
12-10-22 METAR LIMC 221920Z 00000KT CAVOK 13/13 Q1019 NOSIG
12-10-22 METAR LIMC 221950Z 36003KT 330V040 CAVOK 16/13 Q1019 NOSIG
12-10-22 METAR LIMC 222020Z 36003KT CAVOK 13/12 Q1019 NOSIG
12-10-22 METAR LIMC 222050Z 00000KT CAVOK 13/12 Q1020 NOSIG
12-10-22 METAR LIMC 222120Z 00000KT CAVOK 12/12 Q1020 NOSIG
12-10-22 METAR LIMC 222150Z 00000KT CAVOK 11/11 Q1020 NOSIG
12-10-22 METAR LIMC 222220Z 36002KT CAVOK 12/12 Q1020 NOSIG
12-10-22 METAR LIMC 222250Z 36002KT CAVOK 11/11 Q1020 NOSIG
12-10-22 METAR LIMC 222320Z 35003KT CAVOK 11/11 Q1020 NOSIG
12-10-22 METAR LIMC 222350Z 35002KT CAVOK 12/12 Q1020 NOSIG
12-10-23 METAR LIMC 230020Z 36002KT CAVOK 11/11 Q1020 NOSIG
12-10-23 METAR LIMC 230050Z 36002KT CAVOK 10/10 Q1020 NOSIG
12-10-23 METAR LIMC 230120Z 01001KT CAVOK 09/09 Q1020 NOSIG
12-10-23 METAR LIMC 230150Z 01001KT CAVOK 09/09 Q1020 NOSIG
12-10-23 METAR LIMC 230220Z 00000KT CAVOK 09/09 Q1020 NOSIG
12-10-23 METAR LIMC 230250Z 36002KT CAVOK 09/09 Q1020 NOSIG
12-10-23 METAR LIMC 230320Z 36002KT CAVOK 09/09 Q1020 NOSIG
12-10-23 METAR LIMC 230350Z 36002KT CAVOK 10/10 Q1020 NOSIG
12-10-23 METAR LIMC 230420Z 02001KT CAVOK 10/10 Q1020 NOSIG
12-10-23 METAR LIMC 230450Z 35002KT CAVOK 08/08 Q1020 NOSIG
12-10-23 METAR LIMC 230520Z VRB02KT CAVOK 11/10 Q1020 NOSIG
12-10-23 METAR LIMC 230550Z 01002KT CAVOK 09/09 Q1020 NOSIG
12-10-23 METAR LIMC 230620Z VRB02KT 9999 MIFG NSC 09/09 Q1020 NOSIG
12-10-23 METAR LIMC 230650Z VRB02KT 9999 MIFG NSC 11/11 Q1020 NOSIG
12-10-23 METAR LIMC 230720Z 00000KT CAVOK 13/12 Q1021 NOSIG
12-10-23 METAR LIMC 230750Z 33001KT CAVOK 15/13 Q1021 NOSIG
12-10-23 METAR LIMC 230820Z VRB01KT CAVOK 16/13 Q1021 NOSIG
12-10-23 METAR LIMC 230850Z 00000KT CAVOK 17/12 Q1021 NOSIG
12-10-23 METAR LIMC 230920Z 00000KT CAVOK 18/13 Q1021 NOSIG
12-10-23 METAR LIMC 230950Z 00000KT CAVOK 19/12 Q1021 NOSIG
12-10-23 METAR LIMC 231020Z VRB01KT CAVOK 20/12 Q1021 NOSIG
12-10-23 METAR LIMC 231050Z VRB02KT CAVOK 20/13 Q1021 NOSIG
12-10-23 METAR LIMC 231120Z VRB01KT CAVOK 21/12 Q1020 NOSIG
12-10-23 METAR LIMC 231150Z VRB02KT CAVOK 22/11 Q1020 NOSIG
12-10-23 METAR LIMC 231220Z VRB02KT CAVOK 22/11 Q1020 NOSIG
12-10-23 METAR LIMC 231250Z VRB02KT CAVOK 22/10 Q1019 NOSIG
12-10-23 METAR LIMC 231320Z VRB02KT CAVOK 22/11 Q1019 NOSIG
12-10-23 METAR LIMC 231350Z VRB02KT CAVOK 22/11 Q1019 NOSIG
12-10-23 METAR LIMC 231420Z 00000KT CAVOK 22/10 Q1019 NOSIG
12-10-23 METAR LIMC 231450Z VRB02KT CAVOK 22/11 Q1019 NOSIG
12-10-23 METAR LIMC 231520Z VRB02KT CAVOK 21/11 Q1019 NOSIG
12-10-23 METAR LIMC 231550Z 14002KT CAVOK 20/11 Q1019 NOSIG
12-10-23 METAR LIMC 231620Z 15002KT 8000 NSC 19/11 Q1019 NOSIG
12-10-23 METAR LIMC 231650Z VRB01KT 7000 NSC 16/12 Q1019 NOSIG
12-10-23 METAR LIMC 231720Z 00000KT 8000 NSC 15/11 Q1019 NOSIG
12-10-23 METAR LIMC 231750Z 00000KT 8000 NSC 13/11 Q1020 NOSIG
12-10-23 METAR LIMC 231820Z 00000KT 8000 NSC 13/11 Q1020 NOSIG
12-10-23 METAR LIMC 231850Z 00000KT 8000 NSC 12/10 Q1020 NOSIG
12-10-23 METAR LIMC 231920Z 01002KT 8000 NSC 11/10 Q1020 NOSIG
12-10-23 METAR LIMC 231950Z 00000KT 8000 NSC 11/10 Q1020 NOSIG
12-10-23 METAR LIMC 232020Z 00000KT 5000 BR NSC 11/11 Q1020 NOSIG
12-10-23 METAR LIMC 232050Z 00000KT 5000 BR NSC 11/10 Q1020 NOSIG
12-10-23 METAR LIMC 232120Z 36002KT 5000 BR NSC 10/10 Q1020 NOSIG
12-10-23 METAR LIMC 232150Z 00000KT 5000 BR NSC 09/08 Q1020 NOSIG
12-10-23 METAR LIMC 232220Z 01001KT 5000 BR NSC 08/08 Q1020 NOSIG
12-10-23 METAR LIMC 232250Z 36002KT 5000 BR NSC 09/09 Q1020 NOSIG
12-10-23 METAR LIMC 232320Z VRB01KT 5000 BR NSC 08/08 Q1020 NOSIG
12-10-23 METAR LIMC 232350Z VRB02KT 5000 BR NSC 08/08 Q1019 NOSIG
12-10-24 METAR LIMC 240020Z 36002KT 8000 NSC 09/09 Q1019 NOSIG
12-10-24 METAR LIMC 240050Z 36002KT CAVOK 08/08 Q1019 NOSIG
12-10-24 METAR LIMC 240120Z 36003KT CAVOK 10/10 Q1019 NOSIG
12-10-24 METAR LIMC 240150Z 36002KT CAVOK 09/08 Q1018 NOSIG
12-10-24 METAR LIMC 240220Z 36002KT CAVOK 10/09 Q1018 NOSIG
12-10-24 METAR LIMC 240250Z 36003KT CAVOK 09/09 Q1018 NOSIG
12-10-24 METAR LIMC 240320Z 35003KT 7000 NSC 09/09 Q1018 NOSIG
12-10-24 METAR LIMC 240350Z 36002KT 7000 NSC 09/09 Q1018 NOSIG
12-10-24 METAR LIMC 240420Z 01001KT 8000 NSC 07/07 Q1017 NOSIG
12-10-24 METAR LIMC 240450Z 01002KT CAVOK 07/07 Q1017 NOSIG
12-10-24 METAR LIMC 240520Z VRB01KT 8000 NSC 06/06 Q1017 NOSIG
12-10-24 METAR LIMC 240550Z 00000KT 6000 MIFG NSC 06/06 Q1017 NOSIG
12-10-24 METAR LIMC 240620Z 00000KT 6000 MIFG NSC 07/07 Q1018 NOSIG
12-10-24 METAR LIMC 240650Z VRB01KT 6000 MIFG NSC 07/07 Q1018 NOSIG
12-10-24 METAR LIMC 240720Z 00000KT 8000 MIFG NSC 10/10 Q1018 NOSIG
12-10-24 METAR LIMC 240750Z VRB02KT 8000 NSC 12/11 Q1018 NOSIG
12-10-24 METAR LIMC 240820Z 00000KT 7000 NSC 14/11 Q1018 NOSIG
12-10-24 METAR LIMC 240850Z VRB01KT 6000 NSC 15/12 Q1018 NOSIG
12-10-24 METAR LIMC 240920Z 00000KT 6000 NSC 16/12 Q1018 NOSIG
12-10-24 METAR LIMC 240950Z VRB02KT 6000 NSC 17/12 Q1018 NOSIG
12-10-24 METAR LIMC 241020Z VRB02KT 6000 NSC 18/12 Q1018 NOSIG
12-10-24 METAR LIMC 241050Z VRB01KT 6000 NSC 18/12 Q1018 NOSIG
12-10-24 METAR LIMC 241120Z VRB01KT 6000 NSC 18/12 Q1018 NOSIG
12-10-24 METAR LIMC 241150Z VRB02KT 4500 BR NSC 19/11 Q1017 NOSIG
12-10-24 METAR LIMC 241220Z VRB02KT 5000 BR NSC 20/10 Q1017 NOSIG
12-10-24 METAR LIMC 241250Z VRB02KT 5000 BR NSC 20/09 Q1017 NOSIG
12-10-24 METAR LIMC 241320Z VRB02KT 5000 BR NSC 20/10 Q1016 NOSIG
12-10-24 METAR LIMC 241350Z VRB02KT 5000 BR NSC 20/10 Q1016 NOSIG
12-10-24 METAR LIMC 241420Z VRB02KT 5000 BR NSC 20/09 Q1016 NOSIG
12-10-24 METAR LIMC 241450Z VRB02KT 5000 BR NSC 19/10 Q1016 NOSIG
12-10-24 METAR LIMC 241520Z 19002KT 6000 NSC 19/09 Q1016 NOSIG
12-10-24 METAR LIMC 241550Z 19002KT 6000 NSC 17/09 Q1015 NOSIG
12-10-24 METAR LIMC 241620Z VRB01KT 6000 NSC 17/09 Q1015 NOSIG
12-10-24 METAR LIMC 241650Z VRB01KT 6000 NSC 15/08 Q1016 NOSIG
12-10-24 METAR LIMC 241720Z 11001KT 6000 NSC 13/09 Q1016 NOSIG
12-10-24 METAR LIMC 241750Z 00000KT 6000 NSC 12/09 Q1016 NOSIG
12-10-24 METAR LIMC 241820Z 00000KT 6000 NSC 11/09 Q1016 NOSIG
12-10-24 METAR LIMC 241850Z 00000KT 6000 NSC 11/08 Q1016 NOSIG
12-10-24 METAR LIMC 241920Z VRB01KT 8000 NSC 11/09 Q1016 NOSIG
12-10-24 METAR LIMC 241950Z 01001KT 8000 NSC 10/08 Q1017 NOSIG
12-10-24 METAR LIMC 242020Z VRB01KT 8000 NSC 09/08 Q1017 NOSIG
12-10-24 METAR LIMC 242050Z VRB02KT 6000 NSC 08/07 Q1017 NOSIG
12-10-24 METAR LIMC 242120Z 36002KT 6000 NSC 08/07 Q1017 NOSIG
12-10-24 METAR LIMC 242150Z 00000KT 6000 NSC 07/07 Q1017 NOSIG
12-10-24 METAR LIMC 242220Z 00000KT 6000 NSC 07/07 Q1016 NOSIG
12-10-24 METAR LIMC 242250Z 00000KT 6000 NSC 07/07 Q1016 NOSIG
12-10-24 METAR LIMC 242320Z 36002KT 6000 NSC 07/07 Q1016 NOSIG
12-10-24 METAR LIMC 242350Z 01002KT 6000 NSC 07/07 Q1016 NOSIG
12-10-25 METAR LIMC 250020Z 00000KT 5000 BR NSC 07/07 Q1016 NOSIG
12-10-25 METAR LIMC 250050Z 00000KT 5000 BR NSC 06/06 Q1016 NOSIG
12-10-25 METAR LIMC 250120Z 01001KT 4500 BR NSC 07/06 Q1016 NOSIG
12-10-25 METAR LIMC 250150Z 36001KT 4000 BR NSC 06/05 Q1016 NOSIG
12-10-25 METAR LIMC 250220Z 00000KT 4000 BR NSC 06/06 Q1015 NOSIG
12-10-25 METAR LIMC 250250Z 36001KT 4000 BR NSC 06/06 Q1015 NOSIG
12-10-25 METAR LIMC 250320Z 01001KT 3000 R17R///// R35L/0900V1500D BR NSC 05/05 Q1015 NOSIG
12-10-25 METAR LIMC 250350Z VRB01KT 3000 BCFG NSC 06/06 Q1015 NOSIG
12-10-25 METAR LIMC 250420Z 36002KT 3000 BCFG NSC 06/06 Q1015 NOSIG
12-10-25 METAR LIMC 250450Z 36002KT 3000 R35L///// R35R/0225V1500U BR NSC 05/05
12-10-25 METAR LIMC 250620Z 00000KT 2900 1000E R35L/1500N R35R/0350V1400D BCFG NSC 06/06 Q1015 NOSIG
12-10-25 METAR LIMC 250620Z NIL
12-10-25 METAR LIMC 250650Z NIL
12-10-25 METAR LIMC 250650Z 01002KT 2900 1000E R35L/1500N R35R/0250V1300N BCFG NSC
12-10-25 METAR LIMC 250720Z VRB01KT 3000 R35L/1500N R35R/1200V1300N BR NSC 10/10
12-10-25 METAR LIMC 250750Z NIL
12-10-25 METAR LIMC 250750Z VRB01KT 3000 BR NSC 12/11 Q1015 NOSIG
12-10-25 METAR LIMC 250820Z VRB02KT 3500 BR NSC 13/11 Q1015 NOSIG
12-10-25 METAR LIMC 250850Z NIL
12-10-25 METAR LIMC 250850Z 00000KT 3500 BR NSC 14/11 Q1015 NOSIG
12-10-25 METAR LIMC 250920Z 00000KT 3500 BR NSC 15/11 Q1015 NOSIG
12-10-25 METAR LIMC 250920Z NIL
12-10-25 METAR LIMC 250950Z VRB01KT 3500 BR NSC 16/11 Q1015 NOSIG
12-10-25 METAR LIMC 251020Z NIL
12-10-25 METAR LIMC 251050Z VRB02KT 4500 BR NSC 17/12 Q1014 NOSIG
12-10-25 METAR LIMC 251120Z NIL
12-10-25 METAR LIMC 251150Z VRB02KT 7000 NSC 18/10 Q1013 NOSIG
12-10-25 METAR LIMC 251220Z NIL
12-10-25 METAR LIMC 251220Z VRB02KT 7000 NSC 18/10 Q1013 NOSIG
12-10-25 METAR LIMC 251250Z VRB02KT 6000 NSC 19/09 Q1013 NOSIG
12-10-25 METAR LIMC 251320Z NIL
12-10-25 METAR LIMC 251320Z VRB02KT 6000 NSC 19/08 Q1012 NOSIG
12-10-25 METAR LIMC 251350Z VRB01KT 6000 NSC 19/08 Q1012 NOSIG
12-10-25 METAR LIMC 251420Z VRB01KT 6000 NSC 19/08 Q1012 NOSIG
12-10-25 METAR LIMC 251450Z VRB01KT 6000 NSC 19/08 Q1012 NOSIG
12-10-25 METAR LIMC 251520Z NIL
12-10-25 METAR LIMC 251520Z 00000KT 6000 NSC 18/09 Q1011 NOSIG
12-10-25 METAR LIMC 251550Z NIL
12-10-25 METAR LIMC 251550Z VRB01KT 6000 NSC 17/08 Q1011 NOSIG
12-10-25 METAR LIMC 251620Z 00000KT 5000 BR NSC 16/08 Q1011 NOSIG
12-10-25 METAR LIMC 251650Z 00000KT 5000 BR NSC 13/09 Q1011 NOSIG
12-10-25 METAR LIMC 251720Z 00000KT 5000 BR NSC 13/09 Q1012 NOSIG
12-10-25 METAR LIMC 251750Z 00000KT 5000 BR SCT030 13/10 Q1012 NOSIG
12-10-25 METAR LIMC 251820Z 00000KT 5000 BR BKN035 14/10 Q1012 NOSIG
12-10-25 METAR LIMC 251850Z 36001KT 5000 BR BKN035 13/10 Q1012 NOSIG
12-10-25 METAR LIMC 251920Z VRB01KT 6000 BKN060 13/10 Q1012 NOSIG
12-10-25 METAR LIMC 251950Z VRB01KT 5000 BR BKN030 13/10 Q1012 NOSIG
12-10-25 METAR LIMC 252020Z VRB02KT 5000 BR BKN030 14/09 Q1012 NOSIG
12-10-25 METAR LIMC 252050Z 35003KT 5000 BR NSC 12/10 Q1012 NOSIG
12-10-25 METAR LIMC 252120Z VRB01KT 5000 BR NSC 12/10 Q1012 NOSIG
12-10-25 METAR LIMC 252150Z VRB01KT 5000 BR BKN035 11/10 Q1012 NOSIG
12-10-25 METAR LIMC 252220Z 36001KT 5000 BR BKN035 12/10 Q1012 NOSIG
12-10-25 METAR LIMC 252250Z 01001KT 5000 BR BKN035 12/10 Q1012 NOSIG
12-10-25 METAR LIMC 252320Z 00000KT 5000 BR BKN035 11/10 Q1012 NOSIG
12-10-25 METAR LIMC 252350Z 00000KT 5000 BR BKN030 12/10 Q1012 NOSIG
12-10-26 METAR LIMC 260020Z 34002KT 5000 BR BKN030 12/11 Q1011 NOSIG
12-10-26 METAR LIMC 260050Z 00000KT 5000 BR BKN030 13/11 Q1011 NOSIG
12-10-26 METAR LIMC 260120Z 35002KT 6000 BKN030 12/11 Q1011 NOSIG
12-10-26 METAR LIMC 260150Z 35002KT 7000 BKN030 12/11 Q1011 NOSIG
12-10-26 METAR LIMC 260220Z 35002KT 7000 BKN030 13/11 Q1010 NOSIG
12-10-26 METAR LIMC 260250Z 00000KT 7000 BKN030 12/10 Q1010 NOSIG
12-10-26 METAR LIMC 260320Z 00000KT 7000 BKN030 12/10 Q1010 NOSIG
12-10-26 METAR LIMC 260350Z 00000KT 7000 BKN030 12/10 Q1010 NOSIG
12-10-26 METAR LIMC 260420Z 26002KT 7000 BKN030 12/11 Q1010 NOSIG
12-10-26 METAR LIMC 260450Z 00000KT 6000 -RA BKN030 12/11 Q1010 NOSIG
12-10-26 METAR LIMC 260520Z VRB02KT 5000 -RA BR BKN030 12/11 Q1010 NOSIG
12-10-26 METAR LIMC 260550Z VRB02KT 2500 BR BKN030 12/12 Q1009 NOSIG
12-10-26 METAR LIMC 260620Z VRB02KT 2000 BR BKN025 12/12 Q1010 NOSIG
12-10-26 METAR LIMC 260650Z VRB03KT 2000 BR BKN025 12/12 Q1009 NOSIG
12-10-26 METAR LIMC 260720Z 07003KT 330V090 2500 BR BKN025 13/12 Q1009 NOSIG
12-10-26 METAR LIMC 260750Z VRB02KT 2000 BR BKN025 13/12 Q1009 NOSIG
12-10-26 METAR LIMC 260820Z VRB02KT 2000 R35L/1500N R35R/1400V1500N BR BKN025 13/12 Q1009 NOSIG
12-10-26 METAR LIMC 260850Z VRB02KT 1500 R35L/1500N R35R/1300V1500D -RA BR BKN025 13/12 Q1009 NOSIG
12-10-26 METAR LIMC 260920Z VRB02KT 1200 R35L/1300V1500N R35R/1200V1300N RA BR OVC025 13/12 Q1009 NOSIG
12-10-26 METAR LIMC 260950Z VRB02KT 1200 R35L/1400V1500N R35R/1300V1500U -RA BR OVC025 13/12 Q1009 RERA NOSIG
12-10-26 METAR LIMC 261020Z 00000KT 1200 R35L/1400V1500N R35R/1200V1400N -RA BR OVC025 12/12 Q1008 NOSIG
12-10-26 METAR LIMC 261050Z VRB01KT 0800 R35L/0900V1100N R35R/0900V1000N RA FG FEW012 OVC025 12/12 Q1008 NOSIG
12-10-26 METAR LIMC 261120Z VRB02KT 0800 R35L/1300V1500U R35R/1200N RA FG FEW012 OVC025 12/12 Q1007 NOSIG
12-10-26 METAR LIMC 261150Z VRB02KT 0800 R35L/1400V1500N R35R/1100V1300N RA FG SCT012 OVC025 13/12 Q1007 NOSIG
12-10-26 METAR LIMC 261220Z NIL
12-10-26 METAR LIMC 261250Z 05002KT 0800 R35L/1100V1200N R35R/0900V1100N RA FG SCT012 OVC025 12/12 Q1006 NOSIG
12-10-26 METAR LIMC 261320Z VRB02KT 0800 R35L/1000V1200N R35R/0900V1000N RA FG SCT012 OVC025 12/12 Q1005 NOSIG
12-10-26 METAR LIMC 261350Z VRB02KT 0800 R35L/1300V1500N R35R/1100V1200N RA FG SCT012 OVC025 13/12 Q1005 NOSIG
12-10-26 METAR LIMC 261420Z VRB02KT 0600 R35L/1300V1500N R35R/1100V1200N RA FG
12-10-26 METAR LIMC 261450Z VRB01KT 0600 R35L/1200V1400D R35R/1100V1200N RA FG SCT012 OVC025 12/12 Q1004 NOSIG
12-10-26 METAR LIMC 261520Z 00000KT 0600 R35L/1500N R35R/1400V1500N RA FG SCT012
12-10-26 METAR LIMC 261550Z VRB02KT 0600 R35L///// R35R/1500N RA FG SCT012 OVC025 12/12 Q1003 NOSIG
12-10-26 METAR LIMC 261620Z VRB02KT 0800 R35L///// R35R/1500N RA FG SCT012 OVC025
12-10-26 METAR LIMC 261650Z 03003KT 340V080 1200 R35L///// R35R///// RA BR SCT012 OVC025 13/13 Q1002 NOSIG
12-10-26 METAR LIMC 261720Z 34003KT 1200 R35L///// R35R/1500N RA BR SCT012 OVC025 12/12 Q1002 NOSIG
12-10-26 METAR LIMC 261750Z VRB02KT 1400 R35L///// R35R/1500N RA BR SCT012 OVC025
12-10-26 METAR LIMC 261820Z VRB02KT 1400 R35L///// R35R/1500N RA BR SCT012 OVC025 13/12 Q1001 NOSIG
12-10-26 METAR LIMC 261850Z VRB02KT 1000 R35L///// R35R/1500N RA BR SCT008 OVC025 12/12 Q1000 NOSIG
12-10-26 METAR LIMC 261920Z 04002KT 1500 RA BR SCT008 OVC025 12/12 Q1000 NOSIG
12-10-26 METAR LIMC 261950Z VRB01KT 1500 RA BR SCT008 OVC025 12/12 Q1000 NOSIG
12-10-26 METAR LIMC 262020Z VRB02KT 1500 RA BR SCT008 OVC025 12/12 Q0999 NOSIG
12-10-26 METAR LIMC 262050Z VRB02KT 1500 RA BR SCT008 OVC025 12/12 Q0998 NOSIG
12-10-26 METAR LIMC 262120Z 35002KT 1500 RA BR SCT008 OVC025 12/12 Q0998 NOSIG
12-10-26 METAR LIMC 262150Z 33002KT 1500 RA BR SCT008 OVC025 12/12 Q0997 NOSIG
12-10-26 METAR LIMC 262220Z 01002KT 1800 RA BR SCT008 OVC025 12/12 Q0997 NOSIG
12-10-26 METAR LIMC 262250Z 01002KT 1800 RA BR SCT008 OVC025 12/12 Q0996 NOSIG
12-10-26 METAR LIMC 262320Z 35003KT 1800 RA BR SCT008 OVC025 12/12 Q0995 NOSIG
12-10-26 METAR LIMC 262350Z 01002KT 2000 RA BR SCT008 OVC025 12/12 Q0995 NOSIG
12-10-27 METAR LIMC 270020Z 04002KT 2000 RA BR SCT008 OVC025 12/12 Q0994 NOSIG
12-10-27 METAR LIMC 270050Z VRB01KT 2000 RA BR SCT008 OVC025 12/12 Q0994 NOSIG
12-10-27 METAR LIMC 270120Z 05001KT 3000 -RA BR SCT007 OVC025 12/12 Q0993 RERA NOSIG
12-10-27 METAR LIMC 270150Z 05001KT 3000 BR SCT007 OVC025 12/12 Q0993 NOSIG
12-10-27 METAR LIMC 270220Z 00000KT 3000 BR SCT007 OVC025 12/12 Q0992 NOSIG
12-10-27 METAR LIMC 270250Z 00000KT 2000 -RA BR SCT007 OVC025 12/12 Q0991 NOSIG
12-10-27 METAR LIMC 270320Z 19001KT 1800 -RA BR SCT007 OVC025 12/12 Q0991 NOSIG
12-10-27 METAR LIMC 270350Z 00000KT 1800 -RA BR SCT007 OVC025 12/12 Q0990 NOSIG
12-10-27 METAR LIMC 270420Z 00000KT 1800 BR SCT004 OVC025 12/12 Q0990 NOSIG
12-10-27 METAR LIMC 270450Z VRB01KT 1800 BR SCT004 OVC025 12/12 Q0989 NOSIG
12-10-27 METAR LIMC 270520Z 19001KT 1800 BR SCT005 OVC020 12/12 Q0989 NOSIG
12-10-27 METAR LIMC 270550Z 00000KT 1600 BR SCT004 OVC020 12/12 Q0989 NOSIG
12-10-27 METAR LIMC 270620Z 00000KT 1600 BR SCT004 OVC020 12/12 Q0989 NOSIG
12-10-27 METAR LIMC 270650Z 15001KT 1600 -RA BR SCT004 OVC020 12/12 Q0989 NOSIG
12-10-27 METAR LIMC 270720Z 15001KT 1200 R35L/P1500 R35R/1500NV1000 BR SCT004 OVC020 12/12 Q0989 NOSIG
12-10-27 METAR LIMC 270750Z 00000KT 1700 BR SCT004 OVC020 12/12 Q0988 NOSIG
12-10-27 METAR LIMC 270820Z VRB01KT 2000 BR BKN004 OVC070 12/12 Q0988 NOSIG
12-10-27 METAR LIMC 270850Z VRB02KT 3000 BR BKN005 OVC070 12/12 Q0988 NOSIG
12-10-27 METAR LIMC 270920Z VRB01KT 3500 BR BKN005 OVC070 13/12 Q0988 NOSIG
12-10-27 METAR LIMC 270950Z VRB02KT 6000 BKN005 OVC070 13/12 Q0988 NOSIG
12-10-27 METAR LIMC 271020Z 08002KT 7000 BKN005 OVC070 13/12 Q0988 NOSIG
12-10-27 METAR LIMC 271050Z VRB02KT 7000 BKN005 OVC070 13/12 Q0988 NOSIG
12-10-27 METAR LIMC 271120Z VRB02KT 7000 BKN005 OVC070 13/13 Q0987 NOSIG
12-10-27 METAR LIMC 271150Z VRB01KT 7000 BKN005 OVC070 14/12 Q0987 NOSIG
12-10-27 METAR LIMC 271220Z 00000KT 8000 SCT006 BKN070 15/12 Q0987 NOSIG
12-10-27 METAR LIMC 271250Z 00000KT 8000 BKN008 OVC070 14/12 Q0986 NOSIG
12-10-27 METAR LIMC 271320Z VRB02KT 8000 BKN008 OVC070 14/12 Q0986 NOSIG
12-10-27 METAR LIMC 271350Z VRB02KT 8000 SCT015 BKN070 15/12 Q0986 NOSIG
12-10-27 METAR LIMC 271420Z VRB02KT 8000 SCT015 BKN070 15/12 Q0986 NOSIG
12-10-27 METAR LIMC 271450Z VRB02KT 8000 SCT015 BKN070 14/12 Q0986 NOSIG
12-10-27 METAR LIMC 271520Z VRB02KT 8000 SCT015 BKN070 14/12 Q0986 NOSIG
12-10-27 METAR LIMC 271550Z VRB02KT 8000 SCT015 BKN070 14/12 Q0986 NOSIG
12-10-27 METAR LIMC 271620Z 15001KT 8000 SCT015 BKN070 13/12 Q0986 NOSIG
12-10-27 METAR LIMC 271650Z 00000KT 8000 FEW015 BKN070 13/12 Q0986 NOSIG
12-10-27 METAR LIMC 271720Z 00000KT 8000 FEW015 BKN070 13/12 Q0987 NOSIG
12-10-27 METAR LIMC 271750Z 33006KT 8000 FEW015 BKN070 13/07 Q0987 NOSIG
12-10-27 METAR LIMC 271820Z 33009KT 9999 FEW015 BKN070 12/06 Q0987 NOSIG
12-10-27 METAR LIMC 271850Z 33010KT 9999 FEW015 BKN070 11/04 Q0988 NOSIG
12-10-27 METAR LIMC 271920Z 33013KT 9999 BKN060 11/03 Q0988 NOSIG
12-10-27 METAR LIMC 271950Z 33013KT 9999 BKN060 11/03 Q0988 NOSIG
12-10-27 METAR LIMC 272020Z 34013KT 9999 SCT060 10/02 Q0988 NOSIG
12-10-27 METAR LIMC 272050Z 34011KT 9999 SCT060 10/03 Q0988 NOSIG
12-10-27 METAR LIMC 272120Z 34011KT 9999 BKN060 10/01 Q0988 NOSIG
12-10-27 METAR LIMC 272150Z 36010KT 9999 BKN060 10/M01 Q0987 NOSIG
12-10-27 METAR LIMC 272220Z 35009KT 9999 BKN060 10/M02 Q0987 NOSIG
12-10-27 METAR LIMC 272250Z 35006KT 9999 SCT040 BKN070 10/M02 Q0988 NOSIG
12-10-27 METAR LIMC 272320Z 36008KT 9999 SCT040 BKN070 10/M03 Q0987 NOSIG
12-10-27 METAR LIMC 272350Z 01009KT 9999 -RA SCT040 BKN070 09/M00 Q0987 NOSIG
12-10-28 METAR LIMC 280020Z 02010KT 9999 -RA SCT040 BKN070 08/00 Q0987 NOSIG
12-10-28 METAR LIMC 280050Z 01010KT 9999 -RA BKN040 BKN070 06/02 Q0987 NOSIG
12-10-28 METAR LIMC 280120Z 36012KT 9999 -RA BKN035 BKN070 06/02 Q0987 NOSIG
12-10-28 METAR LIMC 280150Z 36010KT 9999 -RA BKN035 BKN070 05/02 Q0987 NOSIG
12-10-28 METAR LIMC 280220Z 34006KT 9999 RA BKN035 BKN070 05/03 Q0988 NOSIG
12-10-28 METAR LIMC 280250Z 36005KT 300V030 9999 RA BKN035 BKN070 05/03 Q0989 NOSIG
12-10-28 METAR LIMC 280320Z 29005KT 240V330 9999 RA BKN035 BKN070 05/03 Q0989 NOSIG
12-10-28 METAR LIMC 280350Z 29004KT 9999 RA BKN035 BKN070 04/03 Q0991 NOSIG
12-10-28 METAR LIMC 280420Z 32008KT 9999 RA BKN035 BKN070 05/03 Q0990 NOSIG
12-10-28 METAR LIMC 280450Z 31007KT 9999 RA BKN035 BKN070 05/03 Q0991 NOSIG
12-10-28 METAR LIMC 280520Z 33005KT 9000 RA BKN030 BKN060 04/03 Q0992 NOSIG
12-10-28 METAR LIMC 280550Z 31004KT 9999 RA BKN030 BKN060 04/03 Q0993 NOSIG
12-10-28 METAR LIMC 280620Z 31006KT 9999 RA SCT030 BKN060 04/03 Q0993 NOSIG
12-10-28 METAR LIMC 280650Z 33006KT 300V360 9999 SCT030 BKN060 05/03 Q0994 RERA NOSIG
12-10-28 METAR LIMC 280720Z 35004KT 9999 BKN030 BKN060 06/03 Q0995 NOSIG
12-10-28 METAR LIMC 280750Z 01006KT 9999 BKN030 BKN060 06/01 Q0995 NOSIG
12-10-28 METAR LIMC 280820Z 36005KT 9999 BKN030 BKN060 06/01 Q0996 NOSIG
12-10-28 METAR LIMC 280850Z 36004KT 330V030 9999 BKN030 BKN060 07/01 Q0996 NOSIG
12-10-28 METAR LIMC 280920Z 01007KT 9999 BKN025 BKN060 07/M00 Q0996 NOSIG
12-10-28 METAR LIMC 280950Z 02007KT 350V050 9999 SCT025 OVC060 07/M01 Q0997 NOSIG
12-10-28 METAR LIMC 281020Z 03006KT 9999 -RA SCT025 OVC060 07/00 Q0997 NOSIG
12-10-28 METAR LIMC 281050Z 02007KT 9999 -RA SCT025 OVC060 06/02 Q0998 NOSIG
12-10-28 METAR LIMC 281120Z 02006KT 350V050 9999 -RA SCT025 OVC060 05/02 Q0998
12-10-28 METAR LIMC 281150Z 02006KT 9999 -RA OVC050 05/02 Q0998 NOSIG
12-10-28 METAR LIMC 281220Z 02005KT 9999 -RA OVC050 05/02 Q0999 NOSIG
12-10-28 METAR LIMC 281250Z 36004KT 9999 -RA OVC070 05/01 Q0998 NOSIG
12-10-28 METAR LIMC 281320Z 35004KT 9999 -RA OVC070 05/03 Q0999 NOSIG
12-10-28 METAR LIMC 281350Z VRB01KT 9999 OVC070 06/01 Q0998 NOSIG
12-10-28 METAR LIMC 281420Z 00000KT 9999 OVC070 06/02 Q0999 NOSIG
12-10-28 METAR LIMC 281450Z 36003KT 9999 FEW035 OVC070 07/02 Q0999 NOSIG
12-10-28 METAR LIMC 281520Z 04003KT 010V070 9999 FEW035 OVC070 06/01 Q0999 NOSIG
12-10-28 METAR LIMC 281550Z VRB02KT 9999 FEW035 OVC070 06/03 Q0999 NOSIG
12-10-28 METAR LIMC 281620Z VRB01KT 9999 FEW050 OVC080 06/03 Q1000 NOSIG
12-10-28 METAR LIMC 281650Z 10002KT 9999 FEW050 OVC080 05/03 Q1000 NOSIG
12-10-28 METAR LIMC 281720Z 00000KT 9999 OVC070 05/03 Q1001 NOSIG
12-10-28 METAR LIMC 281750Z VRB02KT 9999 OVC070 06/03 Q1001 NOSIG
12-10-28 METAR LIMC 281820Z VRB02KT 9999 OVC070 06/01 Q1001 NOSIG
12-10-28 METAR LIMC 281850Z VRB02KT 9999 OVC070 06/01 Q1002 NOSIG
12-10-28 METAR LIMC 281920Z VRB01KT 9999 OVC070 05/04 Q1003 NOSIG
12-10-28 METAR LIMC 281950Z VRB01KT 9999 OVC070 05/04 Q1003 NOSIG
12-10-28 METAR LIMC 282020Z 10002KT 9999 OVC070 05/04 Q1004 NOSIG
12-10-28 METAR LIMC 282050Z 12003KT 9999 OVC070 05/03 Q1004 NOSIG
12-10-28 METAR LIMC 282120Z 00000KT 9999 OVC070 06/03 Q1004 NOSIG
12-10-28 METAR LIMC 282150Z VRB02KT 9999 SCT040 BKN070 05/03 Q1004 NOSIG
12-10-28 METAR LIMC 282220Z 27003KT 230V340 9999 BKN066 05/04 Q1005 NOSIG
12-10-28 METAR LIMC 282250Z VRB02KT 9999 BKN060 05/04 Q1005 NOSIG
12-10-28 METAR LIMC 282320Z 25003KT 9999 BKN060 05/04 Q1006 NOSIG
12-10-28 METAR LIMC 282350Z VRB02KT 9999 BKN060 05/04 Q1006 NOSIG
12-10-29 METAR LIMC 290020Z 35003KT 260V360 9999 BKN065 05/04 Q1006 NOSIG
12-10-29 METAR LIMC 290050Z 00000KT 9999 BKN070 05/04 Q1006 NOSIG
12-10-29 METAR LIMC 290120Z VRB01KT 9999 BKN070 04/03 Q1006 NOSIG
12-10-29 METAR LIMC 290150Z VRB01KT 9999 SCT080 03/02 Q1006 NOSIG
12-10-29 METAR LIMC 290220Z VRB01KT 9999 SCT080 02/02 Q1006 NOSIG
12-10-29 METAR LIMC 290250Z 36004KT 9999 BKN080 01/01 Q1007 NOSIG
12-10-29 METAR LIMC 290320Z VRB02KT 9999 BKN070 01/01 Q1007 NOSIG
12-10-29 METAR LIMC 290350Z VRB01KT 9999 SCT070 02/02 Q1007 NOSIG
12-10-29 METAR LIMC 290420Z VRB02KT 9999 SCT070 02/02 Q1007 NOSIG
12-10-29 METAR LIMC 290450Z VRB02KT 9999 4000W VCFG NSC 01/01 Q1007 NOSIG
12-10-29 METAR LIMC 290550Z VRB01KT 2000 0750E R35L///// R35R/0400V1500D MIFG NSC M01/M01 Q1008 TEMPO 0800
12-10-29 METAR LIMC 290620Z VRB02KT 9999 MIFG NSC 01/00 Q1008 NOSIG
12-10-29 METAR LIMC 290650Z 01003KT 310V060 9999 MIFG NSC 01/01 Q1009 NOSIG
12-10-29 METAR LIMC 290720Z NIL
12-10-29 METAR LIMC 290720Z 02004KT 9999 MIFG NSC 03/02 Q1009 NOSIG
12-10-29 METAR LIMC 290750Z 00000KT 9999 MIFG NSC 05/04 Q1009 NOSIG
12-10-29 METAR LIMC 290820Z 00000KT 9999 VCFG NSC 07/03 Q1009 NOSIG
12-10-29 METAR LIMC 290850Z VRB02KT CAVOK 08/M00 Q1009 NOSIG
12-10-29 METAR LIMC 290920Z VRB02KT CAVOK 09/02 Q1009 NOSIG
12-10-29 METAR LIMC 290950Z VRB02KT CAVOK 10/00 Q1009 NOSIG
12-10-29 METAR LIMC 291020Z VRB02KT CAVOK 11/01 Q1009 NOSIG
12-10-29 METAR LIMC 291050Z 24003KT CAVOK 11/01 Q1009 NOSIG
12-10-29 METAR LIMC 291120Z 30003KT 260V350 CAVOK 12/M04 Q1009 NOSIG
12-10-29 METAR LIMC 291150Z VRB02KT CAVOK 13/M04 Q1008 NOSIG
12-10-29 METAR LIMC 291220Z VRB02KT CAVOK 13/M00 Q1008 NOSIG
12-10-29 METAR LIMC 291250Z 20004KT 170V240 CAVOK 13/M01 Q1008 NOSIG
12-10-29 METAR LIMC 291320Z 20004KT CAVOK 13/M01 Q1008 NOSIG
12-10-29 METAR LIMC 291350Z 19003KT 140V210 CAVOK 13/00 Q1008 NOSIG
12-10-29 METAR LIMC 291420Z 15003KT 120V200 CAVOK 13/00 Q1008 NOSIG
12-10-29 METAR LIMC 291450Z 13004KT CAVOK 12/01 Q1008 NOSIG
12-10-29 METAR LIMC 291520Z 13004KT CAVOK 11/01 Q1009 NOSIG
12-10-29 METAR LIMC 291550Z 13003KT CAVOK 10/01 Q1009 NOSIG
12-10-29 METAR LIMC 291620Z VRB02KT CAVOK 09/01 Q1009 NOSIG
12-10-29 METAR LIMC 291650Z 13003KT 090V160 CAVOK 09/00 Q1010 NOSIG
12-10-29 METAR LIMC 291720Z VRB02KT CAVOK 08/01 Q1010 NOSIG
12-10-29 METAR LIMC 291750Z 09003KT 070V160 CAVOK 06/01 Q1010 NOSIG
12-10-29 METAR LIMC 291820Z 08002KT CAVOK 05/01 Q1011 NOSIG
12-10-29 METAR LIMC 291850Z VRB02KT CAVOK 06/02 Q1011 NOSIG
12-10-29 METAR LIMC 291920Z VRB02KT CAVOK 06/02 Q1011 NOSIG
12-10-29 METAR LIMC 291950Z VRB01KT CAVOK 03/00 Q1012 NOSIG
12-10-29 METAR LIMC 292020Z VRB02KT CAVOK 05/02 Q1012 NOSIG
12-10-29 METAR LIMC 292050Z VRB01KT CAVOK 03/M00 Q1012 NOSIG
12-10-29 METAR LIMC 292120Z 07001KT CAVOK 01/M00 Q1012 NOSIG
12-10-29 METAR LIMC 292150Z VRB02KT CAVOK 05/02 Q1012 NOSIG
12-10-29 METAR LIMC 292220Z VRB02KT CAVOK 04/01 Q1012 NOSIG
12-10-29 METAR LIMC 292250Z 02004KT 240V050 CAVOK 02/00 Q1012 NOSIG
12-10-29 METAR LIMC 292320Z 02004KT CAVOK 01/00 Q1012 NOSIG
12-10-29 METAR LIMC 292350Z 36004KT CAVOK 01/M00 Q1012 NOSIG
12-10-30 METAR LIMC 300020Z 36001KT CAVOK M00/M01 Q1012 NOSIG
12-10-30 METAR LIMC 300050Z 36002KT CAVOK M00/M01 Q1012 NOSIG
12-10-30 METAR LIMC 300120Z 00000KT CAVOK M01/M01 Q1012 NOSIG
12-10-30 METAR LIMC 300150Z 35002KT CAVOK M01/M01 Q1012 NOSIG
12-10-30 METAR LIMC 300220Z VRB01KT CAVOK M01/M01 Q1012 NOSIG
12-10-30 METAR LIMC 300250Z 36002KT CAVOK M01/M01 Q1012 NOSIG
12-10-30 METAR LIMC 300320Z NIL
12-10-30 METAR LIMC 300320Z 36003KT CAVOK M00/M01 Q1011 NOSIG
12-10-30 METAR LIMC 300350Z 36001KT CAVOK M01/M01 Q1011 NOSIG
12-10-30 METAR LIMC 300420Z 36002KT CAVOK M01/M01 Q1011 NOSIG
12-10-30 METAR LIMC 300450Z 36001KT CAVOK M01/M02 Q1011 NOSIG
12-10-30 METAR LIMC 300520Z 36001KT CAVOK M01/M02 Q1011 NOSIG
12-10-30 METAR LIMC 300550Z 36002KT CAVOK M01/M02 Q1012 NOSIG
12-10-30 METAR LIMC 300620Z 01001KT CAVOK M01/M02 Q1012 NOSIG
12-10-30 METAR LIMC 300650Z 01003KT 330V040 CAVOK 01/M01 Q1012 NOSIG
12-10-30 METAR LIMC 300720Z 02004KT 340V050 9999 SCT080 02/00 Q1012 NOSIG
12-10-30 METAR LIMC 300750Z 01006KT 9999 SCT080 03/01 Q1012 NOSIG
12-10-30 METAR LIMC 300820Z 00000KT 9999 SCT060 04/02 Q1012 NOSIG
12-10-30 METAR LIMC 300850Z VRB01KT 9999 SCT080 06/01 Q1012 NOSIG
12-10-30 METAR LIMC 300920Z 00000KT 9999 SCT080 06/02 Q1012 NOSIG
12-10-30 METAR LIMC 300950Z 00000KT 9999 BKN045 07/02 Q1013 NOSIG
12-10-30 METAR LIMC 301020Z 00000KT 9999 BKN045 08/01 Q1012 NOSIG
12-10-30 METAR LIMC 301050Z 00000KT 9999 R35L/0550V1500D R35R/1500N BKN050 BKN070 08/01 Q1012 NOSIG
12-10-30 METAR LIMC 301120Z 00000KT 9999 BKN050 BKN070 08/01 Q1012 NOSIG
12-10-30 METAR LIMC 301150Z 00000KT 9999 BKN050 SCT070 08/01 Q1012 NOSIG
12-10-30 METAR LIMC 301220Z VRB01KT 9999 BKN050 SCT070 08/01 Q1012 NOSIG
12-10-30 METAR LIMC 301250Z VRB01KT 9999 BKN060 09/02 Q1011 NOSIG
12-10-30 METAR LIMC 301320Z VRB02KT 9999 BKN060 08/01 Q1011 NOSIG
12-10-30 METAR LIMC 301350Z VRB02KT 9999 BKN050 08/02 Q1011 NOSIG
12-10-30 METAR LIMC 301420Z VRB02KT 9999 BKN050 08/02 Q1011 NOSIG
12-10-30 METAR LIMC 301450Z VRB02KT 9999 BKN050 08/03 Q1011 NOSIG
12-10-30 METAR LIMC 301520Z 20002KT 9999 BKN050 08/03 Q1011 NOSIG
12-10-30 METAR LIMC 301550Z 21002KT 9999 BKN050 07/03 Q1011 NOSIG
12-10-30 METAR LIMC 301620Z 21001KT 9999 BKN062 07/02 Q1011 NOSIG
12-10-30 METAR LIMC 301650Z 00000KT 9999 BKN065 06/03 Q1011 NOSIG
12-10-30 METAR LIMC 301720Z 18001KT 9999 BKN065 06/03 Q1012 NOSIG
12-10-30 METAR LIMC 301750Z 00000KT 9999 BKN060 06/03 Q1012 NOSIG
12-10-30 METAR LIMC 301820Z 00000KT 9999 BKN060 06/03 Q1012 NOSIG
12-10-30 METAR LIMC 301850Z 00000KT 9999 BKN060 06/03 Q1012 NOSIG
12-10-30 METAR LIMC 301920Z 00000KT 9999 BKN050 05/04 Q1012 NOSIG
12-10-30 METAR LIMC 301950Z VRB02KT 9999 BKN050 06/03 Q1012 NOSIG
12-10-30 METAR LIMC 302020Z 00000KT 9999 BKN040 06/04 Q1012 NOSIG
12-10-30 METAR LIMC 302050Z 00000KT 9999 BKN040 06/03 Q1012 NOSIG
12-10-30 METAR LIMC 302120Z VRB02KT 9999 BKN040 06/04 Q1012 NOSIG
12-10-30 METAR LIMC 302150Z VRB01KT 9999 BKN040 06/03 Q1012 NOSIG
12-10-30 METAR LIMC 302220Z 36001KT 9999 BKN030 06/04 Q1012 NOSIG
12-10-30 METAR LIMC 302250Z 00000KT 9999 BKN030 06/04 Q1012 NOSIG
12-10-30 METAR LIMC 302320Z 35002KT 9999 BKN030 06/04 Q1012 NOSIG
12-10-30 METAR LIMC 302350Z 36001KT 9999 BKN030 06/04 Q1012 NOSIG
12-10-31 METAR LIMC 310020Z 00000KT 9999 BKN030 06/04 Q1012 NOSIG
12-10-31 METAR LIMC 310050Z 00000KT 9999 BKN030 06/05 Q1012 NOSIG
12-10-31 METAR LIMC 310120Z 00000KT 9999 BKN030 06/05 Q1011 NOSIG
12-10-31 METAR LIMC 310150Z 00000KT 9999 BKN030 05/05 Q1011 NOSIG
12-10-31 METAR LIMC 310220Z 00000KT 9999 BKN035 06/05 Q1011 NOSIG
12-10-31 METAR LIMC 310250Z 00000KT 9999 BKN035 06/05 Q1011 NOSIG
12-10-31 METAR LIMC 310320Z 00000KT 9999 BKN035 06/05 Q1011 NOSIG
12-10-31 METAR LIMC 310350Z 00000KT 9999 BKN035 06/05 Q1011 NOSIG
12-10-31 METAR LIMC 310420Z 00000KT 9999 -RA BKN035 06/05 Q1011 RERA NOSIG
12-10-31 METAR LIMC 310450Z 36002KT 9999 -RA BKN035 06/06 Q1010 NOSIG
12-10-31 METAR LIMC 310520Z 03001KT 9999 BKN035 06/06 Q1010 NOSIG
12-10-31 METAR LIMC 310550Z 00000KT 9000 SCT035 06/06 Q1010 NOSIG
12-10-31 METAR LIMC 310620Z VRB02KT 5000 BR BKN035 OVC050 06/06 Q1010 NOSIG
12-10-31 METAR LIMC 310650Z VRB01KT 5000 BR BKN035 OVC050 06/06 Q1011 NOSIG
12-10-31 METAR LIMC 310720Z 01002KT 5000 BR BKN035 OVC050 06/06 Q1010 NOSIG
12-10-31 METAR LIMC 310750Z 03002KT 5000 BR BKN035 OVC050 07/06 Q1010 NOSIG
12-10-31 METAR LIMC 310820Z 03002KT 5000 BR OVC040 07/05 Q1010 NOSIG
12-10-31 METAR LIMC 310850Z 36003KT 5000 BR OVC037 07/05 Q1010 NOSIG
12-10-31 METAR LIMC 310920Z 35003KT 6000 OVC037 07/06 Q1010 NOSIG
12-10-31 METAR LIMC 310950Z 35003KT 310V040 6000 OVC035 07/05 Q1010 NOSIG
12-10-31 METAR LIMC 311020Z 35004KT 8000 OVC035 08/06 Q1009 NOSIG
12-10-31 METAR LIMC 311050Z 36004KT 8000 BKN035 OVC050 08/05 Q1008 NOSIG
12-10-31 METAR LIMC 311120Z 34003KT 8000 BKN035 OVC050 08/04 Q1008 NOSIG
12-10-31 METAR LIMC 311150Z 35005KT 9000 BKN035 OVC050 08/05 Q1007 NOSIG
12-10-31 METAR LIMC 311220Z 34005KT 9999 BKN035 OVC050 08/04 Q1007 NOSIG
12-10-31 METAR LIMC 311250Z 34004KT 9999 BKN035 OVC050 08/05 Q1006 NOSIG
12-10-31 METAR LIMC 311520Z 34006KT 9999 -RA FEW030 OVC050 08/06 Q1003 NOSIG
12-10-31 METAR LIMC 311550Z 34006KT 9999 -RA FEW030 OVC050 08/06 Q1002 BECMG RA
12-10-31 METAR LIMC 311620Z 35005KT 9999 RA FEW030 OVC050 08/06 Q1002 NOSIG
12-10-31 METAR LIMC 311650Z 35005KT 9999 RA FEW030 OVC050 08/06 Q1001 NOSIG
12-10-31 METAR LIMC 311720Z 35004KT 9999 RA FEW030 OVC050 08/07 Q1001 NOSIG
12-10-31 METAR LIMC 311750Z 35004KT 9999 RA FEW030 OVC050 08/07 Q1001 NOSIG
12-10-31 METAR LIMC 311820Z 35004KT 9999 RA FEW030 OVC050 07/07 Q1000 NOSIG
12-10-31 METAR LIMC 311850Z 35004KT 9999 RA FEW030 OVC050 07/07 Q1000 NOSIG
12-10-31 METAR LIMC 311920Z 34004KT 9000 RA FEW030 OVC050 07/07 Q0999 NOSIG
12-10-31 METAR LIMC 311950Z 35005KT 9000 RA FEW030 OVC050 08/07 Q0998 NOSIG
12-10-31 METAR LIMC 312020Z 34008KT 9000 RA FEW030 OVC050 08/07 Q0997 NOSIG
12-10-31 METAR LIMC 312050Z 34007KT 9000 RA FEW030 OVC050 08/07 Q0996 NOSIG
12-10-31 METAR LIMC 312120Z 33009KT 9000 RA BKN030 OVC050 08/07 Q0995 NOSIG
12-10-31 METAR LIMC 312150Z 34009KT 9999 RA BKN030 OVC050 08/07 Q0994 NOSIG
12-10-31 METAR LIMC 312220Z 34007KT 9999 RA BKN030 BKN050 08/07 Q0994 NOSIG
12-10-31 METAR LIMC 312250Z 35006KT 9999 RA BKN030 BKN050 08/07 Q0994 NOSIG
12-10-31 METAR LIMC 312320Z 35006KT 9999 RA BKN025 BKN040 08/07 Q0993 NOSIG
12-10-31 METAR LIMC 312350Z 34007KT 9999 RA BKN025 BKN040 08/07 Q0993 NOSIG
12-11-01 METAR LIMC 010020Z 34006KT 9999 RA BKN025 BKN040 08/07 Q0992 NOSIG
12-11-01 METAR LIMC 010050Z 34004KT 9999 RA BKN025 BKN040 08/07 Q0992 NOSIG
12-11-01 METAR LIMC 010120Z 32005KT 9999 RA BKN025 BKN040 08/07 Q0992 NOSIG
12-11-01 METAR LIMC 010150Z VRB02KT 9999 -RA BKN025 BKN040 07/07 Q0992 RERA NOSIG
12-11-01 METAR LIMC 010220Z VRB02KT 9999 -RA FEW030 OVC050 07/07 Q0991 NOSIG
12-11-01 METAR LIMC 010250Z 05002KT 9999 -RA FEW030 OVC060 07/07 Q0991 NOSIG
12-11-01 METAR LIMC 010320Z VRB01KT 9999 -RA BKN060 07/07 Q0991 NOSIG
12-11-01 METAR LIMC 010450Z 23003KT 9999 4000W -RA VCFG FEW015 BKN060 07/07 Q0992
12-11-01 METAR LIMC 010520Z VRB01KT 8000 3500W VCFG FEW010 BKN070 07/07 Q0992 NOSIG
12-11-01 METAR LIMC 010650Z VRB02KT 1200 R35L/1500N R35R/1500N BCFG FEW010 BKN050 07/07 Q0993 NOSIG
12-11-01 METAR LIMC 010720Z 28002KT 5000 BR FEW010 BKN050 08/08 Q0993 NOSIG
12-11-01 METAR LIMC 010750Z 35003KT 320V050 9000 FEW020 BKN060 09/08 Q0994 NOSIG
12-11-01 METAR LIMC 010820Z VRB02KT 9999 SCT060 SCT080 10/08 Q0994 NOSIG
12-11-01 METAR LIMC 010850Z VRB01KT 9999 SCT015 10/08 Q0994 NOSIG
12-11-01 METAR LIMC 010920Z 00000KT 9999 SCT015 11/08 Q0995 NOSIG
12-11-01 METAR LIMC 010950Z 24002KT 9999 SCT015 SCT080 10/08 Q0995 NOSIG
12-11-01 METAR LIMC 011020Z 00000KT 9999 FEW015 SCT060 12/09 Q0995 NOSIG
12-11-01 METAR LIMC 011050Z VRB02KT 9999 SCT015 11/08 Q0995 NOSIG
12-11-01 METAR LIMC 011120Z VRB01KT 9999 2200NW FEW020 13/08 Q0995 NOSIG
12-11-01 METAR LIMC 011150Z VRB02KT 9999 FEW020 13/08 Q0995 NOSIG
12-11-01 METAR LIMC 011220Z VRB02KT 9999 FEW020 14/07 Q0995 NOSIG
12-11-01 METAR LIMC 011250Z VRB02KT 9999 6000NW FEW020 14/07 Q0995 NOSIG
12-11-01 METAR LIMC 011320Z VRB02KT 9999 FEW020 14/06 Q0995 NOSIG
12-11-01 METAR LIMC 011350Z VRB02KT 9999 FEW020 14/07 Q0996 NOSIG
12-11-01 METAR LIMC 011420Z VRB02KT 9999 FEW020 14/07 Q0996 NOSIG
12-11-01 METAR LIMC 011450Z VRB02KT 9999 FEW020 14/07 Q0996 NOSIG
12-11-01 METAR LIMC 011520Z VRB01KT 9999 2400NW FEW020 14/06 Q0996 NOSIG
12-11-01 METAR LIMC 011550Z VRB01KT 9999 4400NW FEW020 13/06 Q0997 NOSIG
12-11-01 METAR LIMC 011620Z VRB01KT 9999 SCT025 11/07 Q0997 NOSIG
12-11-01 METAR LIMC 011650Z VRB01KT 9999 SCT025 11/07 Q0998 NOSIG
12-11-01 METAR LIMC 011720Z 00000KT 9999 SCT025 11/07 Q0998 NOSIG
12-11-01 METAR LIMC 011750Z 00000KT 9999 SCT025 09/07 Q0998 NOSIG
12-11-01 METAR LIMC 011820Z 36004KT 9999 SCT030 10/07 Q0999 NOSIG
12-11-01 METAR LIMC 011850Z 00000KT 9999 4300NW SCT040 08/07 Q0999 NOSIG
12-11-01 METAR LIMC 011920Z VRB02KT 9999 8000NW SCT040 08/08 Q0999 NOSIG
12-11-01 METAR LIMC 011950Z 00000KT 9999 7000NW SCT040 09/08 Q1000 NOSIG
12-11-01 METAR LIMC 012020Z 00000KT 9999 BKN050 09/08 Q1000 NOSIG
12-11-01 METAR LIMC 012050Z VRB01KT 9999 BKN050 10/08 Q1000 NOSIG
12-11-01 METAR LIMC 012120Z 01002KT 9999 BKN050 09/08 Q1001 NOSIG
12-11-01 METAR LIMC 012150Z VRB01KT 9999 BKN050 09/08 Q1001 NOSIG
12-11-01 METAR LIMC 012220Z 35002KT 9999 BKN030 09/09 Q1001 NOSIG
12-11-01 METAR LIMC 012250Z 00000KT 9999 BKN040 09/09 Q1001 NOSIG
12-11-01 METAR LIMC 012320Z 00000KT 9999 BKN040 09/09 Q1002 NOSIG
12-11-01 METAR LIMC 012350Z 00000KT 9999 BKN040 09/09 Q1001 NOSIG
12-11-02 METAR LIMC 020020Z VRB02KT 9999 BKN040 09/09 Q1001 NOSIG
12-11-02 METAR LIMC 020050Z 02001KT 9999 BKN040 10/09 Q1002 NOSIG
12-11-02 METAR LIMC 020120Z 33002KT 9999 BKN040 09/09 Q1002 NOSIG
12-11-02 METAR LIMC 020150Z 35002KT 9999 BKN040 09/09 Q1003 NOSIG
12-11-02 METAR LIMC 020220Z 01002KT 9999 BKN040 08/08 Q1002 NOSIG
12-11-02 METAR LIMC 020250Z 00000KT 9999 BKN045 07/07 Q1003 NOSIG
12-11-02 METAR LIMC 020320Z 00000KT 9999 BKN045 07/07 Q1003 NOSIG
12-11-02 METAR LIMC 020350Z 00000KT 9999 BKN045 06/06 Q1003 NOSIG
12-11-02 METAR LIMC 020420Z VRB02KT 9999 BKN045 07/07 Q1003 NOSIG
12-11-02 METAR LIMC 020450Z VRB01KT 9999 BKN045 06/06 Q1003 NOSIG
12-11-02 METAR LIMC 020520Z 36002KT 9999 SCT045 07/07 Q1004 NOSIG
12-11-02 METAR LIMC 020550Z VRB02KT 9999 MIFG FEW045 07/07 Q1004 NOSIG
12-11-02 METAR LIMC 020620Z VRB01KT 8000 MIFG FEW035 07/07 Q1004 NOSIG
12-11-02 METAR LIMC 020650Z 00000KT 8000 MIFG SCT035 08/08 Q1005 NOSIG
12-11-02 METAR LIMC 020720Z 11002KT 6000 MIFG FEW008 SCT030 10/09 Q1005 NOSIG
12-11-02 METAR LIMC 020750Z 00000KT 7000 MIFG FEW015 SCT040 11/10 Q1006 NOSIG
12-11-02 METAR LIMC 020820Z 00000KT 5000 BR FEW025 12/09 Q1006 NOSIG
12-11-02 METAR LIMC 020850Z VRB01KT 5000 BR FEW025 13/09 Q1007 NOSIG
12-11-02 METAR LIMC 020920Z VRB01KT 5000 BR FEW025 13/09 Q1007 NOSIG
12-11-02 METAR LIMC 020950Z VRB01KT 7000 FEW025 14/09 Q1007 NOSIG
12-11-02 METAR LIMC 021020Z VRB01KT 7000 FEW025 14/09 Q1007 NOSIG
12-11-02 METAR LIMC 021050Z VRB02KT 8000 FEW025 14/09 Q1007 NOSIG
12-11-02 METAR LIMC 021120Z VRB01KT 8000 SCT025 16/10 Q1007 NOSIG
12-11-02 METAR LIMC 021150Z 15003KT 110V190 8000 SCT025 15/08 Q1007 NOSIG
12-11-02 METAR LIMC 021220Z 00000KT 8000 SCT025 14/09 Q1007 NOSIG
12-11-02 METAR LIMC 021250Z 16003KT 120V210 9999 SCT035 15/09 Q1007 NOSIG
12-11-02 METAR LIMC 021320Z 16003KT 130V240 9999 FEW030 15/09 Q1007 NOSIG
12-11-02 METAR LIMC 021350Z VRB02KT 9999 FEW030 15/09 Q1007 NOSIG
12-11-02 METAR LIMC 021420Z VRB02KT CAVOK 15/08 Q1008 NOSIG
12-11-02 METAR LIMC 021450Z 14003KT 090V180 CAVOK 15/08 Q1008 NOSIG
12-11-02 METAR LIMC 021520Z VRB02KT CAVOK 15/07 Q1008 NOSIG
12-11-02 METAR LIMC 021550Z VRB01KT CAVOK 14/07 Q1008 NOSIG
12-11-02 METAR LIMC 021620Z VRB01KT CAVOK 11/08 Q1008 NOSIG
12-11-02 METAR LIMC 021650Z 00000KT 9000 FEW040 10/07 Q1009 NOSIG
12-11-02 METAR LIMC 021720Z 00000KT 9000 FEW040 11/08 Q1009 NOSIG
12-11-02 METAR LIMC 021750Z 00000KT 9999 BKN040 11/09 Q1010 NOSIG
12-11-02 METAR LIMC 021820Z VRB02KT 9999 BKN040 12/09 Q1010 NOSIG
12-11-02 METAR LIMC 021850Z VRB02KT 9999 BKN040 12/09 Q1010 NOSIG
12-11-02 METAR LIMC 021920Z VRB02KT 9999 BKN040 12/09 Q1010 NOSIG
12-11-02 METAR LIMC 021950Z VRB02KT 9999 SCT040 09/08 Q1010 NOSIG
12-11-02 METAR LIMC 022020Z VRB02KT 9999 SCT040 08/07 Q1011 NOSIG
12-11-02 METAR LIMC 022050Z 00000KT 9999 SCT040 07/07 Q1011 NOSIG
12-11-02 METAR LIMC 022120Z 33002KT 9999 SCT040 08/08 Q1011 NOSIG
12-11-02 METAR LIMC 022150Z VRB02KT 8000 SCT040 10/10 Q1011 NOSIG
12-11-02 METAR LIMC 022220Z 35003KT 330V030 8000 SCT040 09/09 Q1012 NOSIG
12-11-02 METAR LIMC 022250Z 02002KT 8000 SCT040 10/09 Q1012 NOSIG
12-11-02 METAR LIMC 022320Z 34002KT 8000 SCT040 10/09 Q1012 NOSIG
12-11-02 METAR LIMC 022350Z 36002KT 8000 SCT040 10/09 Q1012 NOSIG
12-11-03 METAR LIMC 030020Z VRB01KT 8000 SCT040 10/09 Q1012 NOSIG
12-11-03 METAR LIMC 030050Z 01002KT 8000 SCT040 10/09 Q1013 NOSIG
12-11-03 METAR LIMC 030120Z 01002KT 8000 SCT040 10/09 Q1013 NOSIG
12-11-03 METAR LIMC 030150Z 36001KT 8000 SCT040 10/09 Q1013 NOSIG
12-11-03 METAR LIMC 030220Z 00000KT 8000 SCT040 10/09 Q1012 NOSIG
12-11-03 METAR LIMC 030250Z VRB02KT 8000 SCT040 10/09 Q1012 NOSIG
12-11-03 METAR LIMC 030320Z 01002KT 8000 SCT040 09/09 Q1012 NOSIG
12-11-03 METAR LIMC 030350Z VRB01KT 8000 SCT040 08/08 Q1012 NOSIG
12-11-03 METAR LIMC 030420Z 36003KT 8000 SCT040 07/07 Q1013 NOSIG
12-11-03 METAR LIMC 030450Z 36002KT 8000 SCT040 09/09 Q1013 NOSIG
12-11-03 METAR LIMC 030520Z 00000KT 9000 SCT040 09/08 Q1013 NOSIG
12-11-03 METAR LIMC 030550Z 00000KT 9999 BKN040 08/08 Q1013 NOSIG
12-11-03 METAR LIMC 030620Z 00000KT 9999 BKN050 09/08 Q1013 NOSIG
12-11-03 METAR LIMC 030650Z VRB01KT 9999 BKN050 10/09 Q1013 NOSIG
12-11-03 METAR LIMC 030720Z VRB02KT 9999 BKN050 11/08 Q1013 NOSIG
12-11-03 METAR LIMC 030750Z VRB01KT 9999 BKN050 11/09 Q1014 NOSIG
12-11-03 METAR LIMC 030820Z 00000KT 9999 BKN050 11/09 Q1014 NOSIG
12-11-03 METAR LIMC 030850Z VRB02KT 9999 BKN050 11/09 Q1014 NOSIG
12-11-03 METAR LIMC 030920Z VRB02KT 9999 BKN050 12/09 Q1014 NOSIG
12-11-03 METAR LIMC 030950Z 09003KT 050V130 9999 BKN050 13/08 Q1014 NOSIG
12-11-03 METAR LIMC 031020Z 09003KT 030V140 9999 BKN050 13/08 Q1014 NOSIG
12-11-03 METAR LIMC 031050Z VRB02KT 9999 BKN050 13/08 Q1014 NOSIG
12-11-03 METAR LIMC 031120Z 12004KT 070V190 9999 BKN050 13/08 Q1014 NOSIG
12-11-03 METAR LIMC 031150Z 09003KT 350V130 9999 BKN050 13/08 Q1014 NOSIG
12-11-03 METAR LIMC 031220Z 07003KT 040V160 9999 BKN050 13/08 Q1013 NOSIG
12-11-03 METAR LIMC 031250Z VRB02KT 9999 BKN050 14/08 Q1013 NOSIG
12-11-03 METAR LIMC 031320Z 15003KT 090V170 9999 SCT030 BKN050 13/09 Q1013 NOSIG
12-11-03 METAR LIMC 031350Z 14004KT 9999 BKN030 14/09 Q1013 NOSIG
12-11-03 METAR LIMC 031420Z 13003KT 9999 BKN030 13/09 Q1013 NOSIG
12-11-03 METAR LIMC 031450Z 13003KT 9999 BKN030 13/09 Q1013 NOSIG
12-11-03 METAR LIMC 031520Z VRB01KT 9999 BKN030 12/09 Q1013 NOSIG
12-11-03 METAR LIMC 031550Z VRB02KT 9999 BKN030 12/09 Q1014 NOSIG
12-11-03 METAR LIMC 031620Z 11002KT 8000 SCT030 12/09 Q1013 NOSIG
12-11-03 METAR LIMC 031650Z 00000KT 8000 SCT030 11/10 Q1014 NOSIG
12-11-03 METAR LIMC 031720Z 00000KT 8000 SCT030 12/10 Q1014 NOSIG
12-11-03 METAR LIMC 031750Z VRB02KT 8000 SCT030 12/10 Q1014 NOSIG
12-11-03 METAR LIMC 031820Z 00000KT 8000 BKN015 12/10 Q1014 NOSIG
12-11-03 METAR LIMC 031850Z VRB01KT 8000 BKN015 12/10 Q1014 NOSIG
12-11-03 METAR LIMC 031920Z VRB01KT 8000 BKN015 12/10 Q1014 NOSIG
12-11-03 METAR LIMC 031950Z 11002KT 8000 BKN015 12/10 Q1014 NOSIG
12-11-03 METAR LIMC 032020Z 00000KT 9000 BKN015 12/10 Q1014 NOSIG
12-11-03 METAR LIMC 032050Z 00000KT 9000 BKN015 11/10 Q1014 NOSIG
12-11-03 METAR LIMC 032120Z 00000KT 9000 BKN015 12/10 Q1014 NOSIG
12-11-03 METAR LIMC 032150Z 00000KT 8000 BKN015 11/10 Q1013 NOSIG
12-11-03 METAR LIMC 032250Z 05001KT 4000 RA BKN015 11/11 Q1013 NOSIG
12-11-03 METAR LIMC 032320Z 08001KT 3500 RA BR BKN015 11/11 Q1013 NOSIG
12-11-03 METAR LIMC 032350Z 00000KT 3500 RA BR BKN015 11/11 Q1013 NOSIG
12-11-04 METAR LIMC 040120Z 00000KT 2000 BR BKN015 11/11 Q1013 NOSIG
12-11-04 METAR LIMC 040150Z 00000KT 2000 DZ BR BKN015 11/11 Q1012 NOSIG
12-11-04 METAR LIMC 040220Z 35001KT 2000 DZ BR BKN015 11/11 Q1012 NOSIG
12-11-04 METAR LIMC 040250Z 36002KT 2000 DZ BR BKN015 11/11 Q1012 NOSIG
12-11-04 METAR LIMC 040320Z 03002KT 2000 DZ BR BKN015 11/11 Q1011 NOSIG
12-11-04 METAR LIMC 040350Z 04001KT 2000 DZ BR BKN015 11/11 Q1011 NOSIG
12-11-04 METAR LIMC 040420Z VRB01KT 2000 DZ BR BKN015 11/11 Q1011 NOSIG
12-11-04 METAR LIMC 040450Z 00000KT 2500 DZ BR BKN015 11/11 Q1011 NOSIG
12-11-04 METAR LIMC 040520Z 00000KT 2500 DZ BR BKN015 11/11 Q1011 NOSIG
12-11-04 METAR LIMC 040550Z 35002KT 2800 DZ BR BKN015 11/11 Q1011 NOSIG
12-11-04 METAR LIMC 040620Z 36003KT 320V030 2800 DZ BR BKN015 11/11 Q1011 NOSIG
12-11-04 METAR LIMC 040650Z 35002KT 2800 DZ BR BKN015 11/11 Q1011 NOSIG
12-11-04 METAR LIMC 040720Z 34001KT 2800 DZ BR BKN015 11/11 Q1011 NOSIG
12-11-04 METAR LIMC 040750Z 00000KT 2800 DZ BR OVC015 11/11 Q1012 NOSIG
12-11-04 METAR LIMC 040820Z 00000KT 2800 DZ BR OVC015 11/11 Q1011 NOSIG
12-11-04 METAR LIMC 040850Z 01001KT 2800 DZ BR OVC015 11/11 Q1011 NOSIG
12-11-04 METAR LIMC 040920Z 02002KT 2800 DZ BR OVC015 11/11 Q1011 NOSIG
12-11-04 METAR LIMC 040950Z NIL
12-11-04 METAR LIMC 040950Z 36002KT 2800 DZ BR OVC015 12/12 Q1011 NOSIG
12-11-04 METAR LIMC 041020Z 01002KT 2800 DZ BR OVC015 12/12 Q1011 NOSIG
12-11-04 METAR LIMC 041050Z 35003KT 320V020 2800 DZ BR OVC015 12/12 Q1010 NOSIG
12-11-04 METAR LIMC 041120Z 35002KT 2800 DZ BR OVC015 12/12 Q1010 NOSIG
12-11-04 METAR LIMC 041150Z 34003KT 2800 DZ BR OVC015 12/12 Q1010 NOSIG
12-11-04 METAR LIMC 041220Z VRB02KT 2800 DZ BR OVC015 12/12 Q1010 NOSIG
12-11-04 METAR LIMC 041250Z 35003KT 3500 DZ BR OVC015 12/12 Q1009 NOSIG
12-11-04 METAR LIMC 041320Z 01002KT 3000 DZ BR OVC015 12/12 Q1009 NOSIG
12-11-04 METAR LIMC 041350Z VRB02KT 3000 DZ BR SCT010 OVC015 12/12 Q1008 REDZ NOSIG
12-11-04 METAR LIMC 041550Z VRB02KT 1500 DZ BR SCT005 OVC010 12/12 Q1007 NOSIG
12-11-04 METAR LIMC 041620Z VRB01KT 1800 DZ BR SCT005 OVC010 12/12 Q1006 NOSIG
12-11-04 METAR LIMC 041650Z VRB02KT 1800 RA BR SCT003 OVC010 11/11 Q1006 REDZ NOSIG
12-11-04 METAR LIMC 041720Z VRB01KT 1800 RA BR SCT003 OVC010 11/11 Q1005 NOSIG
12-11-04 METAR LIMC 041750Z 00000KT 1800 RA BR BKN005 OVC010 11/11 Q1005 NOSIG
12-11-04 METAR LIMC 041820Z 00000KT 1800 RA BR BKN004 OVC010 11/11 Q1004 NOSIG
12-11-04 METAR LIMC 041850Z VRB01KT 2500 RA BR BKN004 OVC010 11/11 Q1003 NOSIG
12-11-04 METAR LIMC 041920Z VRB01KT 3000 RA BR SCT004 OVC015 11/11 Q1003 NOSIG
12-11-04 METAR LIMC 041950Z 00000KT 3000 RA BR SCT004 OVC015 11/11 Q1002 NOSIG
12-11-04 METAR LIMC 042020Z VRB02KT 3500 RA BR SCT004 OVC015 11/11 Q1002 NOSIG
12-11-04 METAR LIMC 042050Z 36002KT 3500 RA BR SCT005 OVC015 11/11 Q1001 NOSIG
12-11-04 METAR LIMC 042120Z 01002KT 6000 RA SCT005 OVC015 11/11 Q1000 NOSIG
12-11-04 METAR LIMC 042150Z 34002KT 4500 RA BR SCT005 OVC015 11/11 Q1000 NOSIG
12-11-04 METAR LIMC 042220Z 35002KT 4500 RA BR SCT005 OVC015 11/11 Q1000 NOSIG
12-11-04 METAR LIMC 042250Z 35003KT 330V030 4500 RA BR SCT005 OVC015 11/11 Q0999 NOSIG
12-11-04 METAR LIMC 042320Z 34003KT 7000 RA SCT007 OVC015 11/11 Q0999 NOSIG
12-11-04 METAR LIMC 042350Z 02002KT 9999 RA SCT007 OVC015 11/11 Q0999 NOSIG
12-11-05 METAR LIMC 050020Z 34002KT 9999 -RA SCT007 OVC015 11/11 Q0998 RERA NOSIG
12-11-05 METAR LIMC 050050Z VRB01KT 9999 SCT007 OVC020 11/11 Q0998 NOSIG
12-11-05 METAR LIMC 050120Z 00000KT 9999 OVC020 11/11 Q0998 NOSIG
12-11-05 METAR LIMC 050150Z 23002KT 9999 OVC020 11/11 Q0998 NOSIG
12-11-05 METAR LIMC 050220Z 27004KT 9999 OVC015 11/11 Q0997 NOSIG
12-11-05 METAR LIMC 050250Z 26003KT 9999 OVC015 11/11 Q0998 NOSIG
12-11-05 METAR LIMC 050320Z VRB02KT 9999 OVC015 11/11 Q0997 NOSIG
12-11-05 METAR LIMC 050350Z 25003KT 9999 OVC015 10/10 Q0997 NOSIG
12-11-05 METAR LIMC 050420Z 27003KT 9999 BKN050 10/10 Q0997 NOSIG
12-11-05 METAR LIMC 050450Z 33003KT 9999 BKN050 10/10 Q0997 NOSIG
12-11-05 METAR LIMC 050520Z 00000KT 9999 BKN050 10/10 Q0997 NOSIG
12-11-05 METAR LIMC 050550Z 23002KT 9999 BKN050 09/09 Q0998 NOSIG
12-11-05 METAR LIMC 050620Z 24002KT 8000 BKN040 10/10 Q0998 NOSIG
12-11-05 METAR LIMC 050650Z 24002KT 8000 BKN040 10/10 Q0998 NOSIG
12-11-05 METAR LIMC 050720Z VRB01KT 8000 BKN050 11/10 Q0999 NOSIG
12-11-05 METAR LIMC 050750Z VRB01KT 8000 FEW060 12/11 Q0999 NOSIG
12-11-05 METAR LIMC 050820Z 25003KT 230V290 9999 4000S VCFG FEW002 12/11 Q0999 NOSIG
12-11-05 METAR LIMC 050850Z VRB02KT 9999 VCFG FEW003 13/11 Q1000 NOSIG
12-11-05 METAR LIMC 050920Z VRB02KT 9999 VCFG SCT040 14/11 Q1000 NOSIG
12-11-05 METAR LIMC 050950Z VRB01KT 9999 VCFG SCT040 15/11 Q1000 NOSIG
12-11-05 METAR LIMC 051020Z 24003KT 200V260 CAVOK 15/12 Q1000 NOSIG
12-11-05 METAR LIMC 051050Z 24003KT 200V270 CAVOK 16/11 Q1000 NOSIG
12-11-05 METAR LIMC 051120Z 23004KT CAVOK 16/10 Q1000 NOSIG
12-11-05 METAR LIMC 051150Z 21004KT 190V260 CAVOK 16/09 Q1000 NOSIG
12-11-05 METAR LIMC 051220Z 22004KT CAVOK 17/09 Q1000 NOSIG
12-11-05 METAR LIMC 051250Z 22004KT CAVOK 17/10 Q1001 NOSIG
12-11-05 METAR LIMC 051320Z 20004KT 170V230 CAVOK 18/08 Q1001 NOSIG
12-11-05 METAR LIMC 051350Z 23004KT CAVOK 18/10 Q1001 NOSIG
12-11-05 METAR LIMC 051420Z 22004KT CAVOK 17/10 Q1002 NOSIG
12-11-05 METAR LIMC 051450Z 21003KT CAVOK 17/09 Q1002 NOSIG
12-11-05 METAR LIMC 051520Z 20002KT CAVOK 17/09 Q1002 NOSIG
12-11-05 METAR LIMC 051550Z NIL
12-11-05 METAR LIMC 051550Z VRB01KT CAVOK 15/08 Q1003 NOSIG
12-11-05 METAR LIMC 051620Z VRB02KT 9999 FEW060 14/08 Q1003 NOSIG
12-11-05 METAR LIMC 051650Z 36003KT 340V040 9999 FEW060 12/08 Q1004 NOSIG
12-11-05 METAR LIMC 051720Z VRB01KT CAVOK 12/08 Q1004 NOSIG
12-11-05 METAR LIMC 051750Z VRB02KT CAVOK 10/07 Q1005 NOSIG
12-11-05 METAR LIMC 051820Z VRB01KT CAVOK 08/05 Q1005 NOSIG
12-11-05 METAR LIMC 051850Z 36002KT CAVOK 09/04 Q1006 NOSIG
12-11-05 METAR LIMC 051920Z 36004KT CAVOK 11/04 Q1006 NOSIG
12-11-05 METAR LIMC 051950Z VRB02KT CAVOK 10/03 Q1007 NOSIG
12-11-05 METAR LIMC 052020Z 36002KT CAVOK 07/04 Q1007 NOSIG
12-11-05 METAR LIMC 052050Z VRB02KT CAVOK 08/03 Q1007 NOSIG
12-11-05 METAR LIMC 052120Z VRB02KT CAVOK 07/02 Q1008 NOSIG
12-11-05 METAR LIMC 052150Z VRB01KT CAVOK 04/02 Q1008 NOSIG
12-11-05 METAR LIMC 052220Z NIL
12-11-05 METAR LIMC 052250Z 00000KT CAVOK 04/02 Q1009 NOSIG
12-11-05 METAR LIMC 052320Z VRB01KT CAVOK 03/02 Q1009 NOSIG
12-11-05 METAR LIMC 052350Z VRB01KT CAVOK 02/01 Q1009 NOSIG
12-11-06 METAR LIMC 060020Z 36003KT CAVOK 03/01 Q1009 NOSIG
12-11-06 METAR LIMC 060050Z 36003KT CAVOK 03/01 Q1009 NOSIG
12-11-06 METAR LIMC 060120Z VRB02KT CAVOK 03/01 Q1009 NOSIG
12-11-06 METAR LIMC 060150Z 36003KT CAVOK 02/00 Q1009 NOSIG
12-11-06 METAR LIMC 060220Z 35004KT CAVOK 03/01 Q1009 NOSIG
12-11-06 METAR LIMC 060250Z 35004KT CAVOK 05/01 Q1009 NOSIG
12-11-06 METAR LIMC 060320Z VRB02KT CAVOK 03/01 Q1010 NOSIG
12-11-06 METAR LIMC 060350Z VRB01KT CAVOK 05/01 Q1010 NOSIG
12-11-06 METAR LIMC 060420Z 01003KT 320V020 CAVOK 02/00 Q1010 NOSIG
12-11-06 METAR LIMC 060450Z VRB01KT CAVOK 02/00 Q1010 NOSIG
12-11-06 METAR LIMC 060520Z 03003KT CAVOK 01/00 Q1011 NOSIG
12-11-06 METAR LIMC 060550Z 03003KT 310V070 CAVOK 01/01 Q1011 NOSIG
12-11-06 METAR LIMC 060620Z 01003KT 350V060 CAVOK 01/M00 Q1011 NOSIG
12-11-06 METAR LIMC 060650Z 36005KT CAVOK 02/01 Q1012 NOSIG
12-11-06 METAR LIMC 060720Z VRB02KT CAVOK 05/02 Q1012 NOSIG
12-11-06 METAR LIMC 060750Z VRB02KT CAVOK 07/04 Q1012 NOSIG
12-11-06 METAR LIMC 060820Z 34002KT CAVOK 10/02 Q1012 NOSIG
12-11-06 METAR LIMC 060850Z 33002KT CAVOK 11/03 Q1012 NOSIG
12-11-06 METAR LIMC 060920Z VRB02KT CAVOK 12/03 Q1013 NOSIG
12-11-06 METAR LIMC 060950Z VRB01KT CAVOK 14/03 Q1013 NOSIG
12-11-06 METAR LIMC 061020Z VRB01KT CAVOK 14/04 Q1013 NOSIG
12-11-06 METAR LIMC 061050Z VRB01KT CAVOK 15/04 Q1013 NOSIG
12-11-06 METAR LIMC 061120Z 00000KT CAVOK 15/04 Q1012 NOSIG
12-11-06 METAR LIMC 061150Z 00000KT CAVOK 16/03 Q1012 NOSIG
12-11-06 METAR LIMC 061220Z VRB01KT CAVOK 16/03 Q1013 NOSIG
12-11-06 METAR LIMC 061250Z VRB02KT CAVOK 16/02 Q1013 NOSIG
12-11-06 METAR LIMC 061320Z 00000KT CAVOK 17/02 Q1013 NOSIG
12-11-06 METAR LIMC 061350Z 20003KT CAVOK 16/04 Q1013 NOSIG
12-11-06 METAR LIMC 061420Z 24003KT CAVOK 16/02 Q1013 NOSIG
12-11-06 METAR LIMC 061450Z 24004KT CAVOK 15/03 Q1013 NOSIG
12-11-06 METAR LIMC 061520Z 24003KT CAVOK 15/05 Q1013 NOSIG
12-11-06 METAR LIMC 061550Z 27003KT CAVOK 13/04 Q1014 NOSIG
12-11-06 METAR LIMC 061620Z 31003KT CAVOK 11/04 Q1014 NOSIG
12-11-06 METAR LIMC 061650Z 35003KT CAVOK 11/03 Q1015 NOSIG
12-11-06 METAR LIMC 061720Z 35003KT CAVOK 09/02 Q1015 NOSIG
12-11-06 METAR LIMC 061750Z 36003KT 310V040 CAVOK 11/M05 Q1016 NOSIG
12-11-06 METAR LIMC 061820Z 01008KT CAVOK 12/M05 Q1016 NOSIG
12-11-06 METAR LIMC 061850Z 36008KT CAVOK 13/M06 Q1016 NOSIG
12-11-06 METAR LIMC 061920Z 36008KT CAVOK 12/M06 Q1017 NOSIG
12-11-06 METAR LIMC 061950Z 36007KT CAVOK 11/M05 Q1018 NOSIG
12-11-06 METAR LIMC 062020Z 36008KT CAVOK 12/M06 Q1018 NOSIG
12-11-06 METAR LIMC 062050Z 36006KT CAVOK 10/M05 Q1019 NOSIG
12-11-06 METAR LIMC 062120Z 36004KT CAVOK 10/M05 Q1019 NOSIG
12-11-06 METAR LIMC 062150Z 01004KT CAVOK 09/M05 Q1019 NOSIG
12-11-06 METAR LIMC 062220Z 01004KT CAVOK 09/M05 Q1019 NOSIG
12-11-06 METAR LIMC 062250Z 01005KT CAVOK 09/M06 Q1020 NOSIG
12-11-06 METAR LIMC 062320Z 01004KT CAVOK 09/M06 Q1020 NOSIG
12-11-06 METAR LIMC 062350Z 35005KT CAVOK 06/M04 Q1020 NOSIG
12-11-07 METAR LIMC 070020Z 35004KT CAVOK 05/M04 Q1021 NOSIG
12-11-07 METAR LIMC 070050Z 35004KT CAVOK 05/M04 Q1021 NOSIG
12-11-07 METAR LIMC 070120Z 36003KT CAVOK 05/M05 Q1022 NOSIG
12-11-07 METAR LIMC 070150Z 36004KT CAVOK 06/M05 Q1022 NOSIG
12-11-07 METAR LIMC 070220Z 01003KT CAVOK 04/M05 Q1022 NOSIG
12-11-07 METAR LIMC 070250Z VRB02KT CAVOK 02/M05 Q1022 NOSIG
12-11-07 METAR LIMC 070320Z 07003KT CAVOK 07/M06 Q1023 NOSIG
12-11-07 METAR LIMC 070350Z 05003KT CAVOK 06/M06 Q1023 NOSIG
12-11-07 METAR LIMC 070420Z 02003KT 310V100 CAVOK 06/M04 Q1024 NOSIG
12-11-07 METAR LIMC 070450Z 34003KT 280V350 CAVOK 03/M05 Q1024 NOSIG
12-11-07 METAR LIMC 070520Z 01002KT CAVOK 02/M03 Q1024 NOSIG
12-11-07 METAR LIMC 070550Z 02004KT CAVOK 01/M04 Q1024 NOSIG
12-11-07 METAR LIMC 070620Z 01004KT CAVOK 01/M03 Q1025 NOSIG
12-11-07 METAR LIMC 070650Z 36004KT CAVOK 03/M03 Q1025 NOSIG
12-11-07 METAR LIMC 070720Z 36002KT CAVOK 05/M03 Q1025 NOSIG
12-11-07 METAR LIMC 070750Z 35003KT CAVOK 07/M03 Q1025 NOSIG
12-11-07 METAR LIMC 070820Z 36002KT CAVOK 09/M01 Q1026 NOSIG
12-11-07 METAR LIMC 070850Z VRB01KT CAVOK 11/M01 Q1026 NOSIG
12-11-07 METAR LIMC 070920Z VRB02KT CAVOK 12/M00 Q1026 NOSIG
12-11-07 METAR LIMC 070950Z VRB01KT CAVOK 13/M01 Q1026 NOSIG
12-11-07 METAR LIMC 071020Z VRB02KT CAVOK 13/M04 Q1026 NOSIG
12-11-07 METAR LIMC 071050Z VRB02KT CAVOK 14/M03 Q1026 NOSIG
12-11-07 METAR LIMC 071120Z VRB02KT CAVOK 15/M02 Q1026 NOSIG
12-11-07 METAR LIMC 071150Z VRB02KT CAVOK 15/M02 Q1026 NOSIG
12-11-07 METAR LIMC 071220Z 23003KT 170V260 CAVOK 15/M01 Q1025 NOSIG
12-11-07 METAR LIMC 071250Z 25004KT CAVOK 15/M03 Q1025 NOSIG
12-11-07 METAR LIMC 071320Z 23004KT CAVOK 15/M02 Q1025 NOSIG
12-11-07 METAR LIMC 071350Z 23003KT 190V250 CAVOK 15/M03 Q1025 NOSIG
12-11-07 METAR LIMC 071420Z 23003KT CAVOK 15/M02 Q1025 NOSIG
12-11-07 METAR LIMC 071450Z 21004KT CAVOK 14/M02 Q1025 NOSIG
12-11-07 METAR LIMC 071520Z 20003KT CAVOK 13/01 Q1025 NOSIG
12-11-07 METAR LIMC 071550Z NIL
12-11-07 METAR LIMC 071620Z 18002KT CAVOK 12/01 Q1026 NOSIG
12-11-07 METAR LIMC 071650Z 13002KT CAVOK 09/02 Q1026 NOSIG
12-11-07 METAR LIMC 071720Z VRB01KT CAVOK 08/02 Q1026 NOSIG
12-11-07 METAR LIMC 071750Z VRB01KT CAVOK 05/02 Q1026 NOSIG
12-11-07 METAR LIMC 071820Z 00000KT CAVOK 05/02 Q1027 NOSIG
12-11-07 METAR LIMC 071850Z 00000KT CAVOK 05/02 Q1027 NOSIG
12-11-07 METAR LIMC 071920Z VRB01KT CAVOK 04/02 Q1027 NOSIG
12-11-07 METAR LIMC 071950Z VRB02KT CAVOK 05/02 Q1027 NOSIG
12-11-07 METAR LIMC 072020Z VRB01KT CAVOK 04/02 Q1028 NOSIG
12-11-07 METAR LIMC 072050Z VRB01KT CAVOK 03/01 Q1028 NOSIG
12-11-07 METAR LIMC 072120Z 34002KT CAVOK 03/01 Q1028 NOSIG
12-11-07 METAR LIMC 072150Z VRB02KT CAVOK 02/02 Q1028 NOSIG
12-11-07 METAR LIMC 072220Z 36004KT CAVOK 02/01 Q1028 NOSIG
12-11-07 METAR LIMC 072250Z 01004KT CAVOK 02/01 Q1028 NOSIG
12-11-07 METAR LIMC 072320Z 01004KT CAVOK 02/01 Q1028 NOSIG
12-11-07 METAR LIMC 072350Z 01004KT CAVOK 02/02 Q1028 NOSIG
12-11-08 METAR LIMC 080020Z 36002KT CAVOK 03/02 Q1028 NOSIG
12-11-08 METAR LIMC 080050Z VRB02KT CAVOK 02/01 Q1028 NOSIG
12-11-08 METAR LIMC 080120Z 02004KT CAVOK 00/M01 Q1028 NOSIG
12-11-08 METAR LIMC 080150Z 03001KT CAVOK 02/01 Q1028 NOSIG
12-11-08 METAR LIMC 080220Z 02002KT CAVOK 01/01 Q1027 NOSIG
12-11-08 METAR LIMC 080250Z 03004KT CAVOK 00/M00 Q1027 NOSIG
12-11-08 METAR LIMC 080320Z 02004KT CAVOK M00/M01 Q1027 NOSIG
12-11-08 METAR LIMC 080350Z 02004KT CAVOK 00/M00 Q1027 NOSIG
12-11-08 METAR LIMC 080420Z 01004KT 330V030 CAVOK 02/01 Q1027 NOSIG
12-11-08 METAR LIMC 080450Z 02003KT CAVOK M00/M01 Q1027 NOSIG
12-11-08 METAR LIMC 080520Z 02004KT CAVOK M01/M02 Q1027 NOSIG
12-11-08 METAR LIMC 080550Z 36004KT 330V030 CAVOK 00/M01 Q1027 NOSIG
12-11-08 METAR LIMC 080620Z VRB02KT CAVOK 00/M00 Q1027 NOSIG
12-11-08 METAR LIMC 080650Z 03003KT 340V090 CAVOK 01/M00 Q1027 NOSIG
12-11-08 METAR LIMC 080720Z 02004KT CAVOK 02/00 Q1027 NOSIG
12-11-08 METAR LIMC 080750Z 36002KT CAVOK 05/03 Q1027 NOSIG
12-11-08 METAR LIMC 080820Z VRB02KT CAVOK 07/04 Q1027 NOSIG
12-11-08 METAR LIMC 080850Z VRB01KT CAVOK 10/03 Q1027 NOSIG
12-11-08 METAR LIMC 080920Z 00000KT CAVOK 11/03 Q1027 NOSIG
12-11-08 METAR LIMC 080950Z VRB01KT CAVOK 12/03 Q1027 NOSIG
12-11-08 METAR LIMC 081020Z VRB02KT CAVOK 12/03 Q1026 NOSIG
12-11-08 METAR LIMC 081050Z VRB01KT CAVOK 13/03 Q1026 NOSIG
12-11-08 METAR LIMC 081120Z 00000KT CAVOK 14/03 Q1025 NOSIG
12-11-08 METAR LIMC 081150Z 23003KT CAVOK 13/03 Q1024 NOSIG
12-11-08 METAR LIMC 081220Z 22002KT 9999 SCT080 14/04 Q1024 NOSIG
12-11-08 METAR LIMC 081250Z 22003KT 9999 SCT080 13/03 Q1024 NOSIG
12-11-08 METAR LIMC 081320Z 21003KT 180V240 9999 SCT080 13/04 Q1023 NOSIG
12-11-08 METAR LIMC 081350Z 21002KT 9999 SCT080 12/03 Q1023 NOSIG
12-11-08 METAR LIMC 081420Z 24002KT 9999 SCT080 12/03 Q1023 NOSIG
12-11-08 METAR LIMC 081450Z VRB01KT CAVOK 13/03 Q1022 NOSIG
12-11-08 METAR LIMC 081520Z 00000KT CAVOK 12/03 Q1022 NOSIG
12-11-08 METAR LIMC 081550Z 00000KT CAVOK 11/04 Q1022 NOSIG
12-11-08 METAR LIMC 081620Z 00000KT CAVOK 09/03 Q1022 NOSIG
12-11-08 METAR LIMC 081650Z 00000KT CAVOK 09/03 Q1022 NOSIG
12-11-08 METAR LIMC 081720Z 00000KT CAVOK 08/04 Q1022 NOSIG
12-11-08 METAR LIMC 081750Z 00000KT CAVOK 10/03 Q1022 NOSIG
12-11-08 METAR LIMC 081820Z 00000KT CAVOK 09/04 Q1022 NOSIG
12-11-08 METAR LIMC 081920Z NIL
12-11-08 METAR LIMC 081950Z NIL
12-11-08 METAR LIMC 081920Z VRB02KT CAVOK 07/04 Q1021 NOSIG
12-11-08 METAR LIMC 081950Z 36002KT 9999 SCT040 07/04 Q1021 NOSIG
12-11-08 METAR LIMC 082020Z VRB01KT 9999 BKN070 07/04 Q1021 NOSIG
12-11-08 METAR LIMC 082050Z VRB02KT 9999 BKN070 07/04 Q1021 NOSIG
12-11-08 METAR LIMC 082120Z VRB01KT 9999 SCT080 06/03 Q1021 NOSIG
12-11-08 METAR LIMC 082150Z 36002KT CAVOK 06/04 Q1021 NOSIG
12-11-08 METAR LIMC 082220Z 01002KT CAVOK 04/02 Q1021 NOSIG
12-11-08 METAR LIMC 082250Z VRB02KT CAVOK 04/03 Q1021 NOSIG
12-11-08 METAR LIMC 082320Z 36002KT CAVOK 04/03 Q1021 NOSIG
12-11-08 METAR LIMC 082350Z 35003KT CAVOK 04/03 Q1021 NOSIG
12-11-09 METAR LIMC 090020Z 36004KT CAVOK 04/03 Q1020 NOSIG
12-11-09 METAR LIMC 090050Z 35004KT CAVOK 03/02 Q1020 NOSIG
12-11-09 METAR LIMC 090120Z 34002KT CAVOK 03/02 Q1020 NOSIG
12-11-09 METAR LIMC 090150Z 01003KT CAVOK 03/02 Q1020 NOSIG
12-11-09 METAR LIMC 090220Z VRB02KT CAVOK 04/03 Q1019 NOSIG
12-11-09 METAR LIMC 090250Z 01003KT CAVOK 02/02 Q1019 NOSIG
12-11-09 METAR LIMC 090320Z 36003KT 320V020 CAVOK 02/01 Q1019 NOSIG
12-11-09 METAR LIMC 090350Z 02003KT 340V050 CAVOK 02/01 Q1019 NOSIG
12-11-09 METAR LIMC 090420Z 36004KT CAVOK 03/02 Q1019 NOSIG
12-11-09 METAR LIMC 090450Z 01005KT CAVOK 02/01 Q1019 NOSIG
12-11-09 METAR LIMC 090520Z 01004KT CAVOK 03/02 Q1019 NOSIG
12-11-09 METAR LIMC 090550Z 01004KT CAVOK 03/02 Q1019 NOSIG
12-11-09 METAR LIMC 090620Z 36004KT CAVOK 03/03 Q1019 NOSIG
12-11-09 METAR LIMC 090650Z 36003KT CAVOK 04/04 Q1020 NOSIG
12-11-09 METAR LIMC 090720Z 35003KT CAVOK 04/03 Q1020 NOSIG
12-11-09 METAR LIMC 090750Z 35002KT CAVOK 07/05 Q1020 NOSIG
12-11-09 METAR LIMC 090820Z 35003KT CAVOK 08/05 Q1020 NOSIG
12-11-09 METAR LIMC 090850Z 34003KT CAVOK 09/05 Q1020 NOSIG
12-11-09 METAR LIMC 090920Z VRB01KT CAVOK 11/05 Q1020 NOSIG
12-11-09 METAR LIMC 090950Z VRB01KT CAVOK 12/04 Q1020 NOSIG
12-11-09 METAR LIMC 091020Z 00000KT CAVOK 12/04 Q1020 NOSIG
12-11-09 METAR LIMC 091050Z 00000KT CAVOK 13/04 Q1020 NOSIG
12-11-09 METAR LIMC 091120Z VRB01KT CAVOK 14/04 Q1019 NOSIG
12-11-09 METAR LIMC 091150Z VRB02KT CAVOK 15/04 Q1019 NOSIG
12-11-09 METAR LIMC 091220Z VRB02KT CAVOK 15/05 Q1019 NOSIG
12-11-09 METAR LIMC 091250Z VRB02KT CAVOK 15/04 Q1019 NOSIG
12-11-09 METAR LIMC 091320Z VRB01KT CAVOK 16/04 Q1019 NOSIG
12-11-09 METAR LIMC 091350Z VRB02KT CAVOK 15/05 Q1019 NOSIG
12-11-09 METAR LIMC 091420Z VRB02KT CAVOK 15/05 Q1019 NOSIG
12-11-09 METAR LIMC 091450Z 20002KT CAVOK 15/05 Q1019 NOSIG
12-11-09 METAR LIMC 091520Z 20002KT CAVOK 14/05 Q1019 NOSIG
12-11-09 METAR LIMC 091550Z 00000KT CAVOK 13/05 Q1019 NOSIG
12-11-09 METAR LIMC 091620Z 15001KT CAVOK 12/06 Q1019 NOSIG
12-11-09 METAR LIMC 091650Z 12002KT 9999 BKN035 12/06 Q1019 NOSIG
12-11-09 METAR LIMC 091720Z 16001KT 9999 BKN035 11/07 Q1019 NOSIG
12-11-09 METAR LIMC 091820Z NIL
12-11-09 METAR LIMC 091850Z NIL
12-11-09 METAR LIMC 091920Z NIL
12-11-09 METAR LIMC 091950Z VRB01KT 9999 BKN030 11/07 Q1019 NOSIG
12-11-09 METAR LIMC 092020Z 00000KT 9999 BKN030 11/07 Q1020 NOSIG
12-11-09 METAR LIMC 092050Z 00000KT 9000 BKN030 11/07 Q1020 NOSIG
12-11-09 METAR LIMC 092120Z 00000KT 8000 BKN030 11/08 Q1020 NOSIG
12-11-09 METAR LIMC 092150Z VRB01KT 8000 BKN030 10/08 Q1020 NOSIG
12-11-09 METAR LIMC 092250Z 00000KT 5000 BR BKN030 10/09 Q1019 NOSIG
12-11-09 METAR LIMC 092320Z VRB01KT 4000 -RA BR BKN030 10/10 Q1019 NOSIG
12-11-09 METAR LIMC 092350Z 36002KT 3500 -RA BR BKN030 10/09 Q1019 NOSIG
12-11-10 METAR LIMC 100020Z 36002KT 2000 -RA BR BKN030 10/09 Q1019 NOSIG
12-11-10 METAR LIMC 100050Z 01002KT 2000 -RA BR BKN030 09/09 Q1018 NOSIG
12-11-10 METAR LIMC 100120Z 03002KT 2000 -RA BR BKN030 09/09 Q1018 NOSIG
12-11-10 METAR LIMC 100150Z 03002KT 2000 RA BR BKN030 09/09 Q1018 NOSIG
12-11-10 METAR LIMC 100220Z 00000KT 2000 RA BR BKN030 09/09 Q1018 NOSIG
12-11-10 METAR LIMC 100250Z 00000KT 2000 RA BR BKN030 09/09 Q1018 NOSIG
12-11-10 METAR LIMC 100320Z 04001KT 2000 RA BR BKN030 09/09 Q1018 NOSIG
12-11-10 METAR LIMC 100350Z 07001KT 2000 RA BR BKN030 09/09 Q1017 NOSIG
12-11-10 METAR LIMC 100420Z 00000KT 2000 RA BR BKN025 09/09 Q1017 NOSIG
12-11-10 METAR LIMC 100450Z 17001KT 2000 RA BR BKN025 09/09 Q1018 NOSIG
12-11-10 METAR LIMC 100520Z VRB01KT 1500 R17L///// R35R/1200V1500N RA BR BKN010 BKN030 09/09 Q1018 NOSIG
12-11-10 METAR LIMC 100550Z 10002KT 1500 RA BR BKN010 BKN030 09/09 Q1018 NOSIG
12-11-10 METAR LIMC 100620Z VRB02KT 0900 R35L///// R35R///// -RA FG BKN010 BKN030 09/09 Q1018 RERA NOSIG
12-11-10 METAR LIMC 100650Z VRB01KT 0900 R35L/P1500 R35R/P1500 -RA FG BKN010 BKN030
12-11-10 METAR LIMC 100650Z VRB01KT 0900 R35L///// R35R/1500N -RA FG BKN010 BKN030
12-11-10 METAR LIMC 100720Z VRB02KT 1600 -RA BR BKN010 BKN030 09/09 Q1018 NOSIG
12-11-10 METAR LIMC 100850Z VRB01KT 1600 -RA BR BKN005 BKN030 09/09 Q1018 NOSIG
12-11-10 METAR LIMC 100950Z VRB02KT 1200 R35L/P1500 R35R/1300V1500U RA BR BKN005 BKN030 09/09 Q1017 NOSIG
12-11-10 METAR LIMC 101020Z 36002KT 1400 R35L///// R35R/1200V1500N -RA BR BKN005
12-11-10 METAR LIMC 101050Z VRB02KT 1400 R35L///// R35R/1500N -RA BR BKN005 BKN030
12-11-10 METAR LIMC 101120Z VRB02KT 1600 RA BR BKN005 BKN030 09/09 Q1017 NOSIG
12-11-10 METAR LIMC 101150Z VRB02KT 1600 RA BR BKN005 BKN030 09/09 Q1016 NOSIG
12-11-10 METAR LIMC 101220Z 03003KT 2000 RA BR BKN005 BKN030 09/09 Q1016 NOSIG
12-11-10 METAR LIMC 101250Z 02002KT 2500 RA BR BKN005 BKN030 09/09 Q1016 NOSIG
12-11-10 METAR LIMC 101320Z 35003KT 2500 RA BR BKN005 BKN030 09/09 Q1015 NOSIG
12-11-10 METAR LIMC 101350Z 36002KT 1800 RA BR BKN005 BKN030 09/09 Q1016 NOSIG
12-11-10 METAR LIMC 101420Z 01003KT 1500 RA BR SCT005 OVC015 09/09 Q1015 NOSIG
12-11-10 METAR LIMC 101450Z 36004KT 1600 RA BR SCT005 OVC015 09/09 Q1015 NOSIG
12-11-10 METAR LIMC 101520Z 01003KT 1800 RA BR SCT005 OVC015 09/09 Q1014 NOSIG
12-11-10 METAR LIMC 101550Z 01004KT 4500 RA BR SCT007 OVC020 09/09 Q1014 NOSIG
12-11-10 METAR LIMC 101620Z 36005KT 6000 RA SCT007 OVC020 08/08 Q1014 NOSIG
12-11-10 METAR LIMC 101650Z 36005KT 8000 RA SCT007 OVC020 08/08 Q1013 NOSIG
12-11-10 METAR LIMC 101720Z 01004KT 8000 RA SCT007 OVC020 08/08 Q1013 NOSIG
12-11-10 METAR LIMC 101750Z 36004KT 320V030 8000 RA SCT007 OVC020 08/08 Q1013 NOSIG
12-11-10 METAR LIMC 101820Z 36005KT 9999 RA SCT010 OVC025 09/08 Q1013 NOSIG
12-11-10 METAR LIMC 101850Z 36004KT 8000 RA BKN010 OVC025 08/08 Q1012 NOSIG
12-11-10 METAR LIMC 101920Z 36003KT 8000 RA BKN010 OVC025 08/08 Q1013 NOSIG
12-11-10 METAR LIMC 101950Z 35003KT 4500 RA BR BKN008 OVC025 08/08 Q1013 NOSIG
12-11-10 METAR LIMC 102020Z 36004KT 4500 RA BR BKN008 OVC025 08/08 Q1012 NOSIG
12-11-10 METAR LIMC 102050Z 35005KT 4500 RA BR BKN008 OVC025 08/08 Q1012 NOSIG
12-11-10 METAR LIMC 102120Z 35005KT 4500 -RA BR BKN008 OVC025 08/08 Q1012 RERA NOSIG
12-11-10 METAR LIMC 102150Z 34005KT 4500 RA BR BKN008 OVC025 08/08 Q1012 NOSIG
12-11-10 METAR LIMC 102220Z 34005KT 4500 RA BR BKN008 OVC025 08/08 Q1011 NOSIG
12-11-10 METAR LIMC 102250Z 33005KT 6000 RA BKN012 OVC025 08/08 Q1011 NOSIG
12-11-10 METAR LIMC 102320Z 34005KT 6000 RA BKN012 OVC025 08/08 Q1011 NOSIG
12-11-10 METAR LIMC 102350Z 36005KT 6000 RA BKN012 OVC025 08/08 Q1010 NOSIG