
11-12-15 METAR LIMC 150020Z 00000KT 9999 FEW060 M01/M01 Q1015 NOSIG
11-12-15 METAR LIMC 150120Z 00000KT 8000 NSC M01/M01 Q1015 NOSIG
11-12-15 METAR LIMC 150220Z 00000KT 8000 BCFG NSC M02/M02 Q1015 NOSIG
11-12-15 METAR LIMC 150320Z 00000KT 8000 BCFG NSC M03/M03 Q1015 NOSIG
11-12-15 METAR LIMC 150420Z VRB01KT 7000 BCFG NSC M02/M02 Q1014 NOSIG
11-12-15 METAR LIMC 150520Z 35003KT 320V020 7000 BCFG NSC M01/M01 Q1013 NOSIG
11-12-15 METAR LIMC 150620Z 00000KT 9000 R35L/0400V1500U R35R/1100V1500N MIFG NSC M00/M00 Q1013 NOSIG
11-12-15 METAR LIMC 150720Z 00000KT 4500 BCFG NSC M01/M01 Q1014 NOSIG
11-12-15 METAR LIMC 150820Z 00000KT 4000 BCFG NSC 00/00 Q1014 NOSIG
11-12-15 METAR LIMC 150920Z 00000KT 4500 BCFG FEW070 02/02 Q1014 NOSIG
11-12-15 METAR LIMC 151020Z VRB01KT 6000 NSC 06/04 Q1013 NOSIG
11-12-15 METAR LIMC 151120Z VRB02KT 9000 FEW070 08/04 Q1013 NOSIG
11-12-15 METAR LIMC 151220Z 00000KT 9000 FEW035 SCT070 09/04 Q1012 NOSIG
11-12-15 METAR LIMC 151320Z 22003KT 9999 FEW020 SCT050 07/04 Q1012 NOSIG
11-12-15 METAR LIMC 151420Z VRB02KT 9999 FEW033 08/03 Q1012 NOSIG
11-12-15 METAR LIMC 151520Z 21002KT 9999 SCT050 06/03 Q1013 NOSIG
11-12-15 METAR LIMC 151620Z VRB02KT 9000 SCT050 03/02 Q1014 NOSIG
11-12-15 METAR LIMC 151720Z VRB02KT 9000 SCT060 04/03 Q1014 NOSIG
11-12-15 METAR LIMC 151820Z VRB02KT 9000 SCT060 04/02 Q1014 NOSIG
11-12-15 METAR LIMC 151920Z 36003KT 330V040 9999 SCT080 04/02 Q1014 NOSIG
11-12-15 METAR LIMC 152020Z 18003KT 9999 SCT080 02/01 Q1015 NOSIG
11-12-15 METAR LIMC 152120Z 00000KT 0900 R35L/0750V1500D R35R/0400V1500D BCFG SCT080 00/00 Q1014 NOSIG
11-12-15 METAR LIMC 152220Z VRB02KT 4000 R35L/1400V1500N R35R/0400V1500U BCFG SCT080
11-12-15 METAR LIMC 152320Z 00000KT 9999 FEW080 M01/M01 Q1013 NOSIG
11-12-16 METAR LIMC 160020Z 00000KT 9999 FEW080 M03/M03 Q1012 NOSIG
11-12-16 METAR LIMC 160120Z 00000KT CAVOK M02/M02 Q1012 NOSIG
11-12-16 METAR LIMC 160220Z 35002KT CAVOK M02/M03 Q1011 NOSIG
11-12-16 METAR LIMC 160320Z 36002KT CAVOK M01/M02 Q1010 NOSIG
11-12-16 METAR LIMC 160420Z 35002KT CAVOK M01/M02 Q1009 NOSIG
11-12-16 METAR LIMC 160520Z VRB02KT 9999 SCT080 M01/M01 Q1008 NOSIG
11-12-16 METAR LIMC 160620Z VRB01KT 9999 BKN080 00/M00 Q1007 NOSIG
11-12-16 METAR LIMC 160720Z 08001KT 9999 SCT080 01/00 Q1007 NOSIG
11-12-16 METAR LIMC 160820Z 05002KT 9999 SCT060 BKN080 04/02 Q1006 NOSIG
11-12-16 METAR LIMC 160920Z 03004KT 340V060 9000 SCT050 BKN080 04/03 Q1005 NOSIG
11-12-16 METAR LIMC 161020Z VRB02KT 6000 SCT050 BKN080 05/03 Q1003 NOSIG
11-12-16 METAR LIMC 161120Z 35004KT 8000 SCT050 BKN080 07/02 Q1001 NOSIG
11-12-16 METAR LIMC 161220Z 35005KT 9999 SCT050 BKN080 07/02 Q0998 NOSIG
11-12-16 METAR LIMC 161320Z 35004KT 9999 SCT050 BKN080 07/02 Q0996 NOSIG
11-12-16 METAR LIMC 161420Z 36003KT 9999 OVC060 06/02 Q0995 NOSIG
11-12-16 METAR LIMC 161520Z 35004KT 9999 BKN025 OVC060 05/03 Q0994 NOSIG
11-12-16 METAR LIMC 161620Z 35003KT 9999 BKN025 OVC060 05/03 Q0992 NOSIG
11-12-16 METAR LIMC 161720Z VRB02KT 9999 BKN024 OVC060 05/03 Q0992 NOSIG
11-12-16 METAR LIMC 161820Z VRB01KT 9999 OVC022 04/03 Q0992 RERA NOSIG
11-12-16 METAR LIMC 161920Z 34003KT 300V030 9999 BKN050 04/03 Q0991 NOSIG
11-12-16 METAR LIMC 162020Z VRB02KT CAVOK 03/02 Q0992 NOSIG
11-12-16 METAR LIMC 162120Z VRB02KT 9999 SCT060 02/01 Q0992 NOSIG
11-12-16 METAR LIMC 162220Z 27003KT 240V320 9999 SCT060 02/02 Q0992 NOSIG
11-12-16 METAR LIMC 162320Z 23007KT 9999 SCT045 03/02 Q0993 NOSIG
11-12-17 METAR LIMC 170020Z VRB02KT 9999 SCT045 03/01 Q0993 NOSIG
11-12-17 METAR LIMC 170120Z 27004KT 9999 SCT045 04/M01 Q0994 NOSIG
11-12-17 METAR LIMC 170220Z 32005KT 9999 FEW040 BKN080 02/M03 Q0995 NOSIG
11-12-17 METAR LIMC 170320Z VRB02KT 9999 FEW040 SCT080 03/M05 Q0995 NOSIG
11-12-17 METAR LIMC 170420Z 27003KT 9999 FEW040 SCT080 05/M06 Q0997 NOSIG
11-12-17 METAR LIMC 170520Z 26003KT 230V310 9999 FEW040 SCT080 04/M05 Q0998 NOSIG
11-12-17 METAR LIMC 170620Z VRB02KT 9999 FEW040 01/M05 Q0998 NOSIG
11-12-17 METAR LIMC 170720Z VRB01KT CAVOK M02/M05 Q0999 NOSIG
11-12-17 METAR LIMC 170820Z VRB01KT CAVOK 02/M03 Q1000 NOSIG
11-12-17 METAR LIMC 170920Z VRB02KT CAVOK 06/M03 Q1001 NOSIG
11-12-17 METAR LIMC 171020Z VRB02KT 9999 FEW035 08/M05 Q1002 NOSIG
11-12-17 METAR LIMC 171120Z 33005KT 9999 FEW035 10/M02 Q1002 NOSIG
11-12-17 METAR LIMC 171220Z 31004KT CAVOK 10/M05 Q1002 NOSIG
11-12-17 METAR LIMC 171320Z 34005KT CAVOK 11/M07 Q1002 NOSIG
11-12-17 METAR LIMC 171420Z 33004KT 310V010 CAVOK 09/M06 Q1003 NOSIG
11-12-17 METAR LIMC 171520Z VRB01KT CAVOK 06/M06 Q1004 NOSIG
11-12-17 METAR LIMC 171620Z VRB02KT CAVOK 05/M05 Q1005 NOSIG
11-12-17 METAR LIMC 171720Z VRB02KT CAVOK 01/M05 Q1005 NOSIG
11-12-17 METAR LIMC 171820Z 01003KT CAVOK 03/M07 Q1006 NOSIG
11-12-17 METAR LIMC 171920Z 00000KT CAVOK 00/M06 Q1007 NOSIG
11-12-17 METAR LIMC 172020Z VRB01KT CAVOK 01/M07 Q1007 NOSIG
11-12-17 METAR LIMC 172120Z 34002KT CAVOK 00/M06 Q1008 NOSIG
11-12-17 METAR LIMC 172220Z 33003KT CAVOK M02/M07 Q1008 NOSIG
11-12-17 METAR LIMC 172320Z 33005KT CAVOK M01/M07 Q1008 NOSIG
11-12-18 METAR LIMC 180020Z 01002KT CAVOK M00/M08 Q1008 NOSIG
11-12-18 METAR LIMC 180120Z 36003KT CAVOK M02/M07 Q1008 NOSIG
11-12-18 METAR LIMC 180220Z 34004KT CAVOK 00/M06 Q1008 NOSIG
11-12-18 METAR LIMC 180320Z VRB02KT CAVOK 01/M06 Q1008 NOSIG
11-12-18 METAR LIMC 180420Z 33002KT CAVOK M01/M06 Q1008 NOSIG
11-12-18 METAR LIMC 180520Z 35003KT CAVOK M01/M06 Q1008 NOSIG
11-12-18 METAR LIMC 180620Z 36003KT CAVOK 01/M07 Q1009 NOSIG
11-12-18 METAR LIMC 180720Z VRB02KT 9999 BKN080 02/M07 Q1009 NOSIG
11-12-18 METAR LIMC 180820Z 34002KT 9999 BKN080 01/M05 Q1010 NOSIG
11-12-18 METAR LIMC 180920Z VRB01KT 9999 BKN080 04/M05 Q1010 NOSIG
11-12-18 METAR LIMC 181020Z VRB02KT 9999 SCT060 06/M07 Q1011 NOSIG
11-12-18 METAR LIMC 181120Z VRB02KT 9999 FEW080 07/M09 Q1010 NOSIG
11-12-18 METAR LIMC 181220Z VRB01KT 9999 FEW080 08/M08 Q1010 NOSIG
11-12-18 METAR LIMC 181320Z VRB01KT CAVOK 09/M07 Q1010 NOSIG
11-12-18 METAR LIMC 181420Z 14003KT 100V160 CAVOK 08/M08 Q1010 NOSIG
11-12-18 METAR LIMC 181520Z 20003KT CAVOK 06/M06 Q1011 NOSIG
11-12-18 METAR LIMC 181620Z 28002KT CAVOK 02/M05 Q1011 NOSIG
11-12-18 METAR LIMC 181720Z 00000KT CAVOK M00/M06 Q1012 NOSIG
11-12-18 METAR LIMC 181820Z 00000KT CAVOK M03/M06 Q1013 NOSIG
11-12-18 METAR LIMC 181920Z NIL
11-12-18 METAR LIMC 181920Z VRB02KT CAVOK M04/M07 Q1013 NOSIG
11-12-18 METAR LIMC 182020Z VRB01KT CAVOK M04/M06 Q1013 NOSIG
11-12-18 METAR LIMC 182120Z 36001KT CAVOK M04/M06 Q1014 NOSIG
11-12-18 METAR LIMC 182220Z 34004KT CAVOK M03/M06 Q1014 NOSIG
11-12-18 METAR LIMC 182320Z 06002KT CAVOK M02/M07 Q1014 NOSIG
11-12-19 METAR LIMC 190020Z 34003KT 310V010 CAVOK M04/M08 Q1014 NOSIG
11-12-19 METAR LIMC 190120Z 03003KT CAVOK M04/M08 Q1014 NOSIG
11-12-19 METAR LIMC 190220Z 33005KT CAVOK M03/M07 Q1014 NOSIG
11-12-19 METAR LIMC 190320Z 35004KT CAVOK M02/M08 Q1014 NOSIG
11-12-19 METAR LIMC 190420Z 35004KT 310V010 CAVOK M03/M08 Q1014 NOSIG
11-12-19 METAR LIMC 190520Z 35003KT CAVOK M02/M08 Q1014 NOSIG
11-12-19 METAR LIMC 190620Z 36004KT CAVOK 02/M10 Q1015 NOSIG
11-12-19 METAR LIMC 190720Z 34005KT 9999 FEW080 01/M09 Q1015 NOSIG
11-12-19 METAR LIMC 190820Z 34005KT 9999 FEW080 04/M09 Q1015 NOSIG
11-12-19 METAR LIMC 190920Z 34007KT 9999 SCT080 06/M11 Q1016 NOSIG
11-12-19 METAR LIMC 191020Z 32005KT 9999 SCT080 07/M11 Q1016 NOSIG
11-12-19 METAR LIMC 191120Z 35004KT 9999 FEW080 07/M13 Q1016 NOSIG
11-12-19 METAR LIMC 191220Z 33004KT CAVOK 08/M15 Q1015 NOSIG
11-12-19 METAR LIMC 191320Z 33003KT CAVOK 09/M14 Q1015 NOSIG
11-12-19 METAR LIMC 191420Z 32003KT CAVOK 08/M13 Q1015 NOSIG
11-12-19 METAR LIMC 191520Z 33003KT CAVOK 05/M12 Q1015 NOSIG
11-12-19 METAR LIMC 191620Z 31004KT CAVOK 05/M11 Q1016 NOSIG
11-12-19 METAR LIMC 191720Z 35004KT CAVOK 03/M10 Q1016 NOSIG
11-12-19 METAR LIMC 191820Z 33003KT CAVOK M00/M11 Q1017 NOSIG
11-12-19 METAR LIMC 191920Z 33005KT CAVOK 01/M12 Q1017 NOSIG
11-12-19 METAR LIMC 192020Z VRB02KT CAVOK 01/M11 Q1018 NOSIG
11-12-19 METAR LIMC 192120Z 36004KT CAVOK 01/M12 Q1018 NOSIG
11-12-19 METAR LIMC 192220Z 36003KT CAVOK M01/M12 Q1018 NOSIG
11-12-19 METAR LIMC 192320Z 36003KT CAVOK M04/M12 Q1017 NOSIG
11-12-20 METAR LIMC 200020Z 00000KT CAVOK M06/M11 Q1017 NOSIG
11-12-20 METAR LIMC 200120Z 01003KT CAVOK M02/M12 Q1017 NOSIG
11-12-20 METAR LIMC 200220Z VRB02KT CAVOK M07/M11 Q1017 NOSIG
11-12-20 METAR LIMC 200320Z 35003KT CAVOK M03/M10 Q1016 NOSIG
11-12-20 METAR LIMC 200420Z 00000KT CAVOK M07/M11 Q1016 NOSIG
11-12-20 METAR LIMC 200520Z 36001KT CAVOK M08/M11 Q1016 NOSIG
11-12-20 METAR LIMC 200620Z 36002KT CAVOK M02/M10 Q1016 NOSIG
11-12-20 METAR LIMC 200720Z 01002KT 9999 FEW050 M05/M09 Q1016 NOSIG
11-12-20 METAR LIMC 200820Z 34002KT 9999 BKN080 M00/M07 Q1016 NOSIG
11-12-20 METAR LIMC 200920Z VRB01KT 9999 BKN070 02/M09 Q1016 NOSIG
11-12-20 METAR LIMC 201020Z 34002KT 9999 BKN070 03/M09 Q1016 NOSIG
11-12-20 METAR LIMC 201120Z VRB02KT 9999 BKN070 05/M12 Q1014 NOSIG
11-12-20 METAR LIMC 201220Z VRB01KT 9999 SCT070 05/M12 Q1013 NOSIG
11-12-20 METAR LIMC 201320Z 27002KT 9999 SCT070 06/M11 Q1013 NOSIG
11-12-20 METAR LIMC 201420Z 36003KT 9999 SCT070 05/M11 Q1011 NOSIG
11-12-20 METAR LIMC 201520Z 32002KT 9999 FEW080 04/M11 Q1012 NOSIG
11-12-20 METAR LIMC 201620Z 00000KT CAVOK M00/M10 Q1012 NOSIG
11-12-20 METAR LIMC 201720Z 00000KT CAVOK M01/M09 Q1013 NOSIG
11-12-20 METAR LIMC 201820Z VRB01KT CAVOK M01/M08 Q1013 NOSIG
11-12-20 METAR LIMC 201920Z VRB01KT CAVOK M03/M09 Q1013 NOSIG
11-12-20 METAR LIMC 202020Z 35002KT CAVOK M04/M08 Q1013 NOSIG
11-12-20 METAR LIMC 202120Z 09003KT CAVOK M01/M07 Q1014 NOSIG
11-12-20 METAR LIMC 202220Z 00000KT CAVOK M03/M07 Q1014 NOSIG
11-12-20 METAR LIMC 202320Z 00000KT CAVOK M07/M09 Q1014 NOSIG
11-12-21 METAR LIMC 210020Z 00000KT CAVOK M07/M09 Q1014 NOSIG
11-12-21 METAR LIMC 210120Z 00000KT CAVOK M07/M09 Q1015 NOSIG
11-12-21 METAR LIMC 210220Z 00000KT CAVOK M07/M09 Q1015 NOSIG
11-12-21 METAR LIMC 210320Z 36002KT CAVOK M06/M07 Q1015 NOSIG
11-12-21 METAR LIMC 210420Z 00000KT CAVOK M08/M08 Q1015 NOSIG
11-12-21 METAR LIMC 210520Z VRB01KT CAVOK M07/M08 Q1015 NOSIG
11-12-21 METAR LIMC 210620Z 00000KT 9999 SCT070 M04/M05 Q1016 NOSIG
11-12-21 METAR LIMC 210720Z VRB02KT 9999 8000NE SCT080 M02/M04 Q1016 NOSIG
11-12-21 METAR LIMC 210820Z VRB01KT 9999 SCT080 M01/M04 Q1016 NOSIG
11-12-21 METAR LIMC 210920Z VRB01KT 9999 BKN080 02/M02 Q1017 NOSIG
11-12-21 METAR LIMC 211020Z VRB02KT 9999 SCT080 06/M02 Q1016 NOSIG
11-12-21 METAR LIMC 211120Z 27003KT 9999 SCT090 10/M05 Q1015 NOSIG
11-12-21 METAR LIMC 211220Z 30003KT 9999 SCT090 10/M04 Q1015 NOSIG
11-12-21 METAR LIMC 211320Z 29002KT 9999 SCT090 10/M04 Q1014 NOSIG
11-12-21 METAR LIMC 211420Z VRB02KT 9000 BKN070 05/M01 Q1014 NOSIG
11-12-21 METAR LIMC 211520Z VRB02KT 8000 BKN070 03/M01 Q1014 NOSIG
11-12-21 METAR LIMC 211620Z 00000KT 7000 SCT080 01/M02 Q1015 NOSIG
11-12-21 METAR LIMC 211720Z 00000KT 9999 FEW080 M00/M03 Q1015 NOSIG
11-12-21 METAR LIMC 211820Z VRB01KT 9999 SCT080 01/M02 Q1015 NOSIG
11-12-21 METAR LIMC 211920Z 00000KT 9999 SCT080 01/M03 Q1016 NOSIG
11-12-21 METAR LIMC 212220Z NIL
11-12-21 METAR LIMC 212220Z 01003KT 330V080 9999 FEW080 M04/M05 Q1016 NOSIG
11-12-21 METAR LIMC 212320Z 00000KT 9999 FEW080 M05/M06 Q1017 NOSIG
11-12-22 METAR LIMC 220020Z 00000KT 9999 FEW080 M05/M07 Q1017 NOSIG
11-12-22 METAR LIMC 220120Z 36002KT 9999 FEW080 M05/M07 Q1017 NOSIG
11-12-22 METAR LIMC 220220Z NIL
11-12-22 METAR LIMC 220320Z 00000KT 9999 FEW080 M05/M07 Q1018 NOSIG
11-12-22 METAR LIMC 220420Z VRB02KT 9999 FEW080 M05/M07 Q1019 NOSIG
11-12-22 METAR LIMC 220520Z 35002KT 9999 FEW080 M05/M07 Q1020 NOSIG
11-12-22 METAR LIMC 220620Z 35003KT CAVOK M04/M06 Q1020 NOSIG
11-12-22 METAR LIMC 220720Z NIL
11-12-22 METAR LIMC 220820Z VRB02KT CAVOK 00/M04 Q1022 NOSIG
11-12-22 METAR LIMC 220920Z VRB02KT CAVOK 04/M02 Q1022 NOSIG
11-12-22 METAR LIMC 221020Z VRB02KT CAVOK 07/M04 Q1022 NOSIG
11-12-22 METAR LIMC 221120Z VRB01KT CAVOK 07/M03 Q1022 NOSIG
11-12-22 METAR LIMC 221220Z VRB01KT CAVOK 08/M05 Q1021 NOSIG
11-12-22 METAR LIMC 221320Z VRB01KT CAVOK 09/M05 Q1021 NOSIG
11-12-22 METAR LIMC 221420Z VRB01KT CAVOK 09/M06 Q1021 NOSIG
11-12-22 METAR LIMC 221520Z 19002KT CAVOK 06/M04 Q1021 NOSIG
11-12-22 METAR LIMC 221620Z 20001KT CAVOK 03/M04 Q1022 NOSIG
11-12-22 METAR LIMC 221720Z 00000KT CAVOK 02/M03 Q1022 NOSIG
11-12-22 METAR LIMC 221820Z 00000KT CAVOK 01/M03 Q1022 NOSIG
11-12-22 METAR LIMC 221920Z 00000KT CAVOK M01/M04 Q1022 NOSIG
11-12-22 METAR LIMC 222020Z VRB02KT CAVOK 00/M03 Q1022 NOSIG
11-12-22 METAR LIMC 222120Z VRB02KT CAVOK M01/M03 Q1022 NOSIG
11-12-22 METAR LIMC 222220Z VRB02KT CAVOK M00/M03 Q1023 NOSIG
11-12-22 METAR LIMC 222320Z 06003KT CAVOK M03/M05 Q1023 NOSIG
11-12-23 METAR LIMC 230020Z VRB02KT CAVOK M05/M06 Q1023 NOSIG
11-12-23 METAR LIMC 230120Z VRB02KT CAVOK M05/M06 Q1023 NOSIG
11-12-23 METAR LIMC 230220Z VRB01KT CAVOK M05/M06 Q1023 NOSIG
11-12-23 METAR LIMC 230320Z 34002KT CAVOK M04/M06 Q1023 NOSIG
11-12-23 METAR LIMC 230420Z 35003KT CAVOK M05/M06 Q1023 NOSIG
11-12-23 METAR LIMC 230520Z 36003KT CAVOK M05/M06 Q1024 NOSIG
11-12-23 METAR LIMC 230620Z 35003KT CAVOK M04/M06 Q1024 NOSIG
11-12-23 METAR LIMC 230720Z VRB02KT CAVOK M02/M04 Q1025 NOSIG
11-12-23 METAR LIMC 230820Z VRB01KT CAVOK M00/M03 Q1025 NOSIG
11-12-23 METAR LIMC 230920Z VRB02KT CAVOK 04/M02 Q1025 NOSIG
11-12-23 METAR LIMC 231020Z VRB02KT CAVOK 06/M03 Q1025 NOSIG
11-12-23 METAR LIMC 231120Z VRB01KT 8000 NSC 07/M03 Q1025 NOSIG
11-12-23 METAR LIMC 231220Z VRB02KT 8000 NSC 08/M05 Q1024 NOSIG
11-12-23 METAR LIMC 231320Z VRB02KT 8000 NSC 08/M03 Q1023 NOSIG
11-12-23 METAR LIMC 231420Z VRB02KT 8000 NSC 07/M03 Q1023 NOSIG
11-12-23 METAR LIMC 231520Z VRB02KT 6000 NSC 06/M04 Q1023 NOSIG
11-12-23 METAR LIMC 231620Z 00000KT 6000 NSC 03/M03 Q1023 NOSIG
11-12-23 METAR LIMC 231720Z 00000KT 6000 NSC 01/M03 Q1023 NOSIG
11-12-23 METAR LIMC 231820Z VRB01KT 6000 NSC M02/M04 Q1023 NOSIG
11-12-23 METAR LIMC 231920Z VRB02KT 6000 NSC M02/M03 Q1023 NOSIG
11-12-23 METAR LIMC 232020Z VRB02KT 6000 NSC M02/M04 Q1022 NOSIG
11-12-23 METAR LIMC 232120Z 35003KT 320V070 6000 NSC M03/M05 Q1022 NOSIG
11-12-23 METAR LIMC 232220Z 01003KT 330V080 6000 NSC M04/M05 Q1022 NOSIG
11-12-23 METAR LIMC 232320Z 36001KT 6000 NSC M05/M06 Q1021 NOSIG
11-12-24 METAR LIMC 240020Z 00000KT 6000 NSC M05/M06 Q1020 NOSIG
11-12-24 METAR LIMC 240120Z 35002KT 6000 NSC M03/M04 Q1019 NOSIG
11-12-24 METAR LIMC 240220Z VRB02KT 6000 BKN050 M01/M03 Q1019 NOSIG
11-12-24 METAR LIMC 240320Z VRB02KT 6000 BKN050 M00/M01 Q1018 NOSIG
11-12-24 METAR LIMC 240420Z 07003KT 6000 BKN030 01/M01 Q1017 NOSIG
11-12-24 METAR LIMC 240520Z VRB02KT 6000 BKN030 01/M00 Q1016 NOSIG
11-12-24 METAR LIMC 240620Z VRB01KT 8000 BKN060 02/00 Q1016 NOSIG
11-12-24 METAR LIMC 240720Z VRB02KT 7000 BKN032 02/M00 Q1016 NOSIG
11-12-24 METAR LIMC 240820Z VRB02KT 8000 BKN032 02/00 Q1016 NOSIG
11-12-24 METAR LIMC 240920Z 25003KT 230V320 9999 BKN032 03/01 Q1017 NOSIG
11-12-24 METAR LIMC 241020Z 24003KT 9999 SCT060 SCT080 04/M00 Q1017 NOSIG
11-12-24 METAR LIMC 241120Z VRB02KT 9999 FEW080 09/M00 Q1017 NOSIG
11-12-24 METAR LIMC 241220Z 32011KT CAVOK 14/M09 Q1017 NOSIG
11-12-24 METAR LIMC 241320Z 33012KT CAVOK 13/M10 Q1017 NOSIG
11-12-24 METAR LIMC 241420Z 33011KT CAVOK 12/M10 Q1018 NOSIG
11-12-24 METAR LIMC 241520Z 33009KT CAVOK 11/M10 Q1020 NOSIG
11-12-24 METAR LIMC 241620Z 33008KT CAVOK 10/M11 Q1021 NOSIG
11-12-24 METAR LIMC 241720Z 35005KT CAVOK 09/M12 Q1022 NOSIG
11-12-24 METAR LIMC 241820Z 35005KT CAVOK 09/M12 Q1023 NOSIG
11-12-24 METAR LIMC 241920Z 36007KT CAVOK 08/M11 Q1023 NOSIG
11-12-24 METAR LIMC 242020Z 01005KT 320V030 CAVOK 09/M12 Q1024 NOSIG
11-12-24 METAR LIMC 242120Z 01008KT CAVOK 09/M12 Q1024 NOSIG
11-12-24 METAR LIMC 242220Z 01005KT CAVOK 09/M12 Q1025 NOSIG
11-12-24 METAR LIMC 242320Z 36006KT CAVOK 09/M13 Q1025 NOSIG
11-12-25 METAR LIMC 250020Z 02006KT CAVOK 09/M13 Q1025 NOSIG
11-12-25 METAR LIMC 250120Z 03008KT CAVOK 09/M14 Q1026 NOSIG
11-12-25 METAR LIMC 250220Z 02007KT CAVOK 09/M15 Q1026 NOSIG
11-12-25 METAR LIMC 250320Z 31005KT CAVOK 05/M12 Q1027 NOSIG
11-12-25 METAR LIMC 250420Z 35004KT 300V050 CAVOK 07/M13 Q1027 NOSIG
11-12-25 METAR LIMC 250520Z 33007KT CAVOK 05/M11 Q1028 NOSIG
11-12-25 METAR LIMC 250620Z 00000KT CAVOK 02/M11 Q1029 NOSIG
11-12-25 METAR LIMC 250720Z VRB01KT CAVOK M01/M09 Q1029 NOSIG
11-12-25 METAR LIMC 250820Z 35002KT CAVOK 03/M08 Q1030 NOSIG
11-12-25 METAR LIMC 250920Z 00000KT CAVOK 08/M09 Q1031 NOSIG
11-12-25 METAR LIMC 251020Z VRB02KT CAVOK 11/M14 Q1031 NOSIG
11-12-25 METAR LIMC 251120Z 00000KT CAVOK 12/M16 Q1031 NOSIG
11-12-25 METAR LIMC 251220Z 13003KT 090V160 CAVOK 12/M12 Q1031 NOSIG
11-12-25 METAR LIMC 251320Z 15003KT CAVOK 11/M08 Q1031 NOSIG
11-12-25 METAR LIMC 251420Z 14003KT 100V160 CAVOK 10/M07 Q1031 NOSIG
11-12-25 METAR LIMC 251520Z 12003KT CAVOK 08/M06 Q1032 NOSIG
11-12-25 METAR LIMC 251620Z 00000KT CAVOK 06/M06 Q1032 NOSIG
11-12-25 METAR LIMC 251720Z 00000KT CAVOK M00/M06 Q1033 NOSIG
11-12-25 METAR LIMC 251820Z VRB02KT CAVOK M01/M06 Q1034 NOSIG
11-12-25 METAR LIMC 251920Z VRB02KT CAVOK M02/M06 Q1034 NOSIG
11-12-25 METAR LIMC 252020Z VRB02KT CAVOK M03/M06 Q1035 NOSIG
11-12-25 METAR LIMC 252120Z VRB01KT CAVOK M03/M06 Q1035 NOSIG
11-12-25 METAR LIMC 252220Z 35003KT CAVOK M03/M06 Q1036 NOSIG
11-12-25 METAR LIMC 252320Z 34003KT CAVOK M04/M07 Q1036 NOSIG
11-12-26 METAR LIMC 260020Z 00000KT CAVOK M04/M07 Q1036 NOSIG
11-12-26 METAR LIMC 260120Z VRB02KT CAVOK M05/M07 Q1036 NOSIG
11-12-26 METAR LIMC 260220Z 00000KT CAVOK M05/M07 Q1036 NOSIG
11-12-26 METAR LIMC 260320Z 00000KT CAVOK M06/M08 Q1036 NOSIG
11-12-26 METAR LIMC 260420Z 35004KT CAVOK M05/M07 Q1036 NOSIG
11-12-26 METAR LIMC 260520Z 36002KT CAVOK M06/M08 Q1037 NOSIG
11-12-26 METAR LIMC 260620Z 02002KT CAVOK M05/M07 Q1037 NOSIG
11-12-26 METAR LIMC 260720Z 36002KT CAVOK M02/M05 Q1037 NOSIG
11-12-26 METAR LIMC 260820Z 33003KT 320V040 CAVOK 00/M03 Q1038 NOSIG
11-12-26 METAR LIMC 260920Z 34002KT CAVOK 05/M03 Q1038 NOSIG
11-12-26 METAR LIMC 261020Z 00000KT CAVOK 08/M04 Q1038 NOSIG
11-12-26 METAR LIMC 261120Z 25002KT CAVOK 08/M02 Q1037 NOSIG
11-12-26 METAR LIMC 261220Z 20002KT CAVOK 08/M04 Q1036 NOSIG
11-12-26 METAR LIMC 261320Z 24002KT CAVOK 08/M03 Q1035 NOSIG
11-12-26 METAR LIMC 261420Z 21002KT CAVOK 09/M04 Q1035 NOSIG
11-12-26 METAR LIMC 261520Z 23003KT CAVOK 07/M04 Q1035 NOSIG
11-12-26 METAR LIMC 261620Z 20001KT CAVOK 05/M04 Q1035 NOSIG
11-12-26 METAR LIMC 261720Z VRB02KT CAVOK 03/M04 Q1036 NOSIG
11-12-26 METAR LIMC 261820Z VRB01KT CAVOK 01/M03 Q1036 NOSIG
11-12-26 METAR LIMC 261920Z VRB01KT CAVOK 02/M03 Q1036 NOSIG
11-12-26 METAR LIMC 262020Z 00000KT CAVOK 02/M03 Q1036 NOSIG
11-12-26 METAR LIMC 262120Z 34002KT CAVOK M01/M04 Q1036 NOSIG
11-12-26 METAR LIMC 262220Z VRB01KT CAVOK 01/M03 Q1036 NOSIG
11-12-26 METAR LIMC 262320Z 00000KT CAVOK M03/M05 Q1037 NOSIG
11-12-27 METAR LIMC 270020Z VRB02KT CAVOK M04/M06 Q1037 NOSIG
11-12-27 METAR LIMC 270120Z 03003KT 340V080 CAVOK M03/M04 Q1037 NOSIG
11-12-27 METAR LIMC 270220Z VRB02KT CAVOK M03/M05 Q1038 NOSIG
11-12-27 METAR LIMC 270320Z VRB02KT CAVOK M01/M04 Q1038 NOSIG
11-12-27 METAR LIMC 270420Z 35003KT CAVOK M02/M04 Q1038 NOSIG
11-12-27 METAR LIMC 270520Z 34004KT CAVOK M02/M03 Q1038 NOSIG
11-12-27 METAR LIMC 270620Z 35003KT CAVOK M02/M05 Q1038 NOSIG
11-12-27 METAR LIMC 270720Z 35002KT CAVOK M02/M03 Q1038 NOSIG
11-12-27 METAR LIMC 270820Z VRB01KT CAVOK 01/M01 Q1038 NOSIG
11-12-27 METAR LIMC 270920Z VRB02KT CAVOK 06/M02 Q1038 NOSIG
11-12-27 METAR LIMC 271020Z VRB01KT CAVOK 08/M01 Q1038 NOSIG
11-12-27 METAR LIMC 271120Z VRB02KT CAVOK 09/M01 Q1037 NOSIG
11-12-27 METAR LIMC 271220Z VRB01KT CAVOK 10/M03 Q1036 NOSIG
11-12-27 METAR LIMC 271320Z VRB01KT CAVOK 10/M02 Q1035 NOSIG
11-12-27 METAR LIMC 271420Z VRB01KT CAVOK 10/M04 Q1035 NOSIG
11-12-27 METAR LIMC 271520Z 17001KT CAVOK 09/M03 Q1035 NOSIG
11-12-27 METAR LIMC 271620Z 19002KT CAVOK 05/M02 Q1035 NOSIG
11-12-27 METAR LIMC 271720Z 00000KT CAVOK 04/M02 Q1034 NOSIG
11-12-27 METAR LIMC 271820Z 00000KT CAVOK M01/M03 Q1034 NOSIG
11-12-27 METAR LIMC 271920Z VRB02KT CAVOK M01/M03 Q1034 NOSIG
11-12-27 METAR LIMC 272020Z 03003KT 310V080 CAVOK M00/M03 Q1034 NOSIG
11-12-27 METAR LIMC 272120Z VRB02KT CAVOK M01/M03 Q1034 NOSIG
11-12-27 METAR LIMC 272220Z VRB02KT CAVOK M03/M04 Q1034 NOSIG
11-12-27 METAR LIMC 272320Z VRB02KT CAVOK M04/M05 Q1034 NOSIG
11-12-28 METAR LIMC 280020Z 06003KT 340V070 CAVOK M03/M04 Q1033 NOSIG
11-12-28 METAR LIMC 280120Z VRB02KT CAVOK M04/M05 Q1033 NOSIG
11-12-28 METAR LIMC 280220Z VRB02KT CAVOK M04/M05 Q1033 NOSIG
11-12-28 METAR LIMC 280320Z 35002KT CAVOK M04/M05 Q1032 NOSIG
11-12-28 METAR LIMC 280420Z 35003KT 290V080 CAVOK M05/M06 Q1031 NOSIG
11-12-28 METAR LIMC 280520Z 35002KT CAVOK M05/M06 Q1031 NOSIG
11-12-28 METAR LIMC 280620Z VRB02KT CAVOK M00/M01 Q1031 NOSIG
11-12-28 METAR LIMC 280720Z VRB02KT CAVOK M02/M04 Q1031 NOSIG
11-12-28 METAR LIMC 280820Z 00000KT CAVOK 00/M01 Q1031 NOSIG
11-12-28 METAR LIMC 280920Z 06003KT 310V090 CAVOK 05/01 Q1031 NOSIG
11-12-28 METAR LIMC 281020Z 00000KT CAVOK 08/M00 Q1031 NOSIG
11-12-28 METAR LIMC 281120Z 00000KT CAVOK 10/M02 Q1029 NOSIG
11-12-28 METAR LIMC 281220Z VRB02KT CAVOK 10/M02 Q1028 NOSIG
11-12-28 METAR LIMC 281320Z VRB01KT CAVOK 11/M01 Q1028 NOSIG
11-12-28 METAR LIMC 281420Z VRB01KT CAVOK 11/M01 Q1027 NOSIG
11-12-28 METAR LIMC 281520Z 21002KT CAVOK 08/M00 Q1027 NOSIG
11-12-28 METAR LIMC 281620Z 00000KT CAVOK 05/M01 Q1026 NOSIG
11-12-28 METAR LIMC 281720Z 20001KT CAVOK 04/M00 Q1026 NOSIG
11-12-28 METAR LIMC 281820Z 00000KT CAVOK 00/M03 Q1026 NOSIG
11-12-28 METAR LIMC 281920Z VRB01KT CAVOK M01/M02 Q1026 NOSIG
11-12-28 METAR LIMC 282020Z VRB02KT CAVOK M01/M02 Q1025 NOSIG
11-12-28 METAR LIMC 282120Z VRB02KT CAVOK M02/M03 Q1025 NOSIG
11-12-28 METAR LIMC 282220Z VRB02KT CAVOK M02/M03 Q1025 NOSIG
11-12-28 METAR LIMC 282320Z 00000KT CAVOK M04/M05 Q1024 NOSIG
11-12-29 METAR LIMC 290020Z VRB02KT CAVOK M04/M05 Q1024 NOSIG
11-12-29 METAR LIMC 290120Z NIL
11-12-29 METAR LIMC 290220Z 00000KT CAVOK M05/M05 Q1023 NOSIG
11-12-29 METAR LIMC 290320Z VRB02KT CAVOK M05/M05 Q1023 NOSIG
11-12-29 METAR LIMC 290420Z 36002KT CAVOK M05/M05 Q1022 NOSIG
11-12-29 METAR LIMC 290520Z VRB02KT CAVOK M03/M04 Q1022 NOSIG
11-12-29 METAR LIMC 290620Z 05003KT 340V080 9999 SCT090 M01/M02 Q1022 NOSIG
11-12-29 METAR LIMC 290720Z 36003KT 340V070 8000 SCT090 M02/M03 Q1022 NOSIG
11-12-29 METAR LIMC 290820Z VRB02KT 6000 BKN080 01/M00 Q1023 NOSIG
11-12-29 METAR LIMC 290920Z VRB02KT 6000 BKN080 04/01 Q1023 NOSIG
11-12-29 METAR LIMC 291020Z VRB02KT 5000 BR BKN080 04/01 Q1022 NOSIG
11-12-29 METAR LIMC 291120Z VRB01KT 5000 BR SCT080 07/02 Q1021 NOSIG
11-12-29 METAR LIMC 291220Z 00000KT 6000 NSC 07/02 Q1021 NOSIG
11-12-29 METAR LIMC 291320Z VRB02KT 6000 FEW070 07/01 Q1020 NOSIG
11-12-29 METAR LIMC 291420Z NIL
11-12-29 METAR LIMC 291520Z VRB02KT 5000 BR NSC 06/M01 Q1020 NOSIG
11-12-29 METAR LIMC 291620Z 00000KT 5000 BR NSC 02/M02 Q1021 NOSIG
11-12-29 METAR LIMC 291720Z VRB01KT 5000 BR NSC M00/M03 Q1021 NOSIG
11-12-29 METAR LIMC 291820Z VRB02KT 4000 BR NSC M03/M04 Q1021 NOSIG
11-12-29 METAR LIMC 291920Z 04003KT 320V090 4000 BR NSC M01/M02 Q1021 NOSIG
11-12-29 METAR LIMC 292020Z 00000KT 4000 BR NSC M04/M04 Q1021 NOSIG
11-12-29 METAR LIMC 292120Z VRB01KT 4000 BR NSC M03/M03 Q1021 NOSIG
11-12-29 METAR LIMC 292220Z VRB02KT 4000 BR NSC M02/M02 Q1020 NOSIG
11-12-29 METAR LIMC 292320Z 01002KT 2500 BR NSC M04/M04 Q1020 NOSIG
11-12-30 METAR LIMC 300020Z 00000KT 0900 0500E FZFG NSC M06/M07 Q1019 NOSIG
11-12-30 METAR LIMC 300120Z VRB02KT 1200 BCFG NSC M05/M05 Q1019 NOSIG
11-12-30 METAR LIMC 300220Z VRB01KT 2000 BR NSC M05/M05 Q1018 NOSIG
11-12-30 METAR LIMC 300320Z 01002KT 2000 BR NSC M05/M06 Q1017 NOSIG
11-12-30 METAR LIMC 300420Z 00000KT 2000 BR NSC M05/M05 Q1016 NOSIG
11-12-30 METAR LIMC 300520Z 00000KT 2000 BR NSC M05/M06 Q1015 NOSIG
11-12-30 METAR LIMC 300620Z 00000KT 1800 BR FEW001 M05/M05 Q1014 NOSIG
11-12-30 METAR LIMC 300720Z VRB01KT 2500 1200S BR BKN080 M04/M04 Q1013 NOSIG
11-12-30 METAR LIMC 300820Z 03003KT 340V080 1500 BR SCT020 BKN070 M02/M02 Q1012 NOSIG
11-12-30 METAR LIMC 300920Z 35003KT 330V060 6000 2500S VCSH BKN035 BKN070 01/M00 Q1012 NOSIG
11-12-30 METAR LIMC 301020Z 33004KT 9999 BKN060 BKN090 03/M00 Q1012 NOSIG
11-12-30 METAR LIMC 301120Z 33004KT 9999 BKN060 06/M00 Q1011 NOSIG
11-12-30 METAR LIMC 301220Z 33005KT 300V360 9999 FEW060 10/M00 Q1011 NOSIG
11-12-30 METAR LIMC 301320Z 36005KT CAVOK 10/M02 Q1011 NOSIG
11-12-30 METAR LIMC 301420Z 01006KT CAVOK 10/M04 Q1011 NOSIG
11-12-30 METAR LIMC 301520Z 02006KT CAVOK 08/M04 Q1013 NOSIG
11-12-30 METAR LIMC 301620Z NIL
11-12-30 METAR LIMC 301620Z 03006KT CAVOK 07/M07 Q1013 NOSIG
11-12-30 METAR LIMC 301720Z 02006KT CAVOK 07/M09 Q1014 NOSIG
11-12-30 METAR LIMC 301820Z 01007KT CAVOK 07/M11 Q1015 NOSIG
11-12-30 METAR LIMC 301920Z 02006KT 350V050 CAVOK 07/M12 Q1016 NOSIG
11-12-30 METAR LIMC 302020Z 04003KT 360V060 CAVOK 06/M12 Q1016 NOSIG
11-12-30 METAR LIMC 302120Z 33004KT CAVOK 02/M10 Q1017 NOSIG
11-12-30 METAR LIMC 302220Z 00000KT CAVOK 01/M10 Q1017 NOSIG
11-12-30 METAR LIMC 302320Z VRB02KT CAVOK M02/M09 Q1017 NOSIG
11-12-31 METAR LIMC 310020Z VRB02KT CAVOK M04/M08 Q1017 NOSIG
11-12-31 METAR LIMC 310120Z 34003KT CAVOK M01/M05 Q1017 NOSIG
11-12-31 METAR LIMC 310220Z 34003KT CAVOK M03/M06 Q1017 NOSIG
11-12-31 METAR LIMC 310320Z VRB02KT CAVOK M05/M07 Q1017 NOSIG
11-12-31 METAR LIMC 310420Z VRB02KT CAVOK M05/M07 Q1017 NOSIG
11-12-31 METAR LIMC 310520Z VRB02KT CAVOK M04/M06 Q1017 NOSIG
11-12-31 METAR LIMC 310620Z 35004KT 330V040 CAVOK M02/M05 Q1018 NOSIG
11-12-31 METAR LIMC 310720Z VRB02KT CAVOK M02/M06 Q1018 NOSIG
11-12-31 METAR LIMC 310820Z 16002KT 9999 SCT080 01/M05 Q1019 NOSIG
11-12-31 METAR LIMC 310920Z 00000KT 9999 SCT080 03/M05 Q1019 NOSIG
11-12-31 METAR LIMC 311020Z VRB02KT 9999 FEW080 06/M05 Q1019 NOSIG
11-12-31 METAR LIMC 311120Z 34003KT 280V030 CAVOK 08/M05 Q1018 NOSIG
11-12-31 METAR LIMC 311220Z 00000KT CAVOK 10/M08 Q1017 NOSIG
11-12-31 METAR LIMC 311320Z VRB02KT CAVOK 10/M06 Q1017 NOSIG
11-12-31 METAR LIMC 311420Z 22003KT 180V240 CAVOK 09/M04 Q1017 NOSIG
11-12-31 METAR LIMC 311520Z 22003KT 180V240 CAVOK 07/M04 Q1017 NOSIG
11-12-31 METAR LIMC 311620Z 30002KT CAVOK 04/M05 Q1017 NOSIG
11-12-31 METAR LIMC 311720Z VRB02KT CAVOK 02/M05 Q1017 NOSIG
11-12-31 METAR LIMC 311820Z 36002KT CAVOK M01/M03 Q1018 NOSIG
11-12-31 METAR LIMC 311920Z VRB01KT CAVOK M02/M05 Q1018 NOSIG
11-12-31 METAR LIMC 312020Z VRB01KT CAVOK M02/M04 Q1018 NOSIG
11-12-31 METAR LIMC 312120Z VRB02KT CAVOK M03/M04 Q1018 NOSIG
11-12-31 METAR LIMC 312220Z 07003KT 020V080 CAVOK M03/M05 Q1018 NOSIG
11-12-31 METAR LIMC 312320Z VRB02KT CAVOK M03/M05 Q1019 NOSIG
12-01-01 METAR LIMC 010020Z 36002KT CAVOK M04/M05 Q1019 NOSIG
12-01-01 METAR LIMC 010120Z VRB02KT CAVOK M05/M06 Q1019 NOSIG
12-01-01 METAR LIMC 010220Z 34003KT 320V080 CAVOK M04/M05 Q1020 NOSIG
12-01-01 METAR LIMC 010320Z VRB02KT CAVOK M05/M05 Q1020 NOSIG
12-01-01 METAR LIMC 010420Z VRB02KT CAVOK M05/M06 Q1020 NOSIG
12-01-01 METAR LIMC 010520Z 01002KT CAVOK M05/M06 Q1021 NOSIG
12-01-01 METAR LIMC 010620Z VRB01KT CAVOK M05/M06 Q1021 NOSIG
12-01-01 METAR LIMC 010720Z VRB02KT CAVOK M05/M05 Q1022 NOSIG
12-01-01 METAR LIMC 010820Z VRB02KT CAVOK M01/M02 Q1022 NOSIG
12-01-01 METAR LIMC 010920Z 00000KT CAVOK 04/M00 Q1023 NOSIG
12-01-01 METAR LIMC 011020Z VRB02KT 9999 SCT060 06/M02 Q1022 NOSIG
12-01-01 METAR LIMC 011120Z VRB01KT 9999 BKN060 07/M02 Q1022 NOSIG
12-01-01 METAR LIMC 011220Z 00000KT 9999 BKN030 BKN070 07/M02 Q1021 NOSIG
12-01-01 METAR LIMC 011320Z 00000KT 9999 FEW030 SCT070 09/M03 Q1021 NOSIG
12-01-01 METAR LIMC 011420Z 00000KT 9999 FEW090 09/M04 Q1021 NOSIG
12-01-01 METAR LIMC 011520Z 00000KT CAVOK 09/M03 Q1021 NOSIG
12-01-01 METAR LIMC 011620Z VRB01KT CAVOK 05/M02 Q1022 NOSIG
12-01-01 METAR LIMC 011720Z VRB02KT 9999 BKN030 06/M01 Q1023 NOSIG
12-01-01 METAR LIMC 011820Z VRB01KT 9999 BKN030 05/M01 Q1024 NOSIG
12-01-01 METAR LIMC 011920Z VRB01KT 9999 BKN030 05/M00 Q1024 NOSIG
12-01-01 METAR LIMC 012020Z VRB02KT 9999 BKN030 05/M00 Q1024 NOSIG
12-01-01 METAR LIMC 012120Z 01004KT 310V070 9999 BKN030 06/M01 Q1024 NOSIG
12-01-01 METAR LIMC 012220Z VRB02KT 9999 BKN030 06/M01 Q1024 NOSIG
12-01-01 METAR LIMC 012320Z 00000KT 9999 BKN030 05/M01 Q1024 NOSIG
12-01-02 METAR LIMC 020020Z 33002KT 9999 BKN030 05/00 Q1023 NOSIG
12-01-02 METAR LIMC 020120Z 32002KT 9999 BKN030 04/02 Q1024 NOSIG
12-01-02 METAR LIMC 020220Z 35002KT 9999 BKN030 04/02 Q1023 NOSIG
12-01-02 METAR LIMC 020320Z 35002KT 7000 DZ BKN030 03/03 Q1023 NOSIG
12-01-02 METAR LIMC 020420Z 03001KT 5000 -RA BR BKN030 03/03 Q1022 REDZ NOSIG
12-01-02 METAR LIMC 020520Z VRB02KT 3500 DZ BR BKN030 03/03 Q1022 NOSIG
12-01-02 METAR LIMC 020620Z 05001KT 3000 RA BR BKN030 OVC070 03/03 Q1022 NOSIG
12-01-02 METAR LIMC 020720Z 00000KT 1500 RA BR BKN015 OVC050 03/03 Q1022 NOSIG
12-01-02 METAR LIMC 020820Z 00000KT 1500 DZ BR BKN015 OVC050 03/03 Q1022 RERA NOSIG
12-01-02 METAR LIMC 020920Z VRB02KT 1500 DZ BR BKN015 OVC050 04/03 Q1022 NOSIG
12-01-02 METAR LIMC 021020Z 00000KT 1500 DZ BR BKN003 OVC050 04/03 Q1022 NOSIG
12-01-02 METAR LIMC 021120Z VRB02KT 1500 DZ BR BKN003 OVC050 04/03 Q1020 NOSIG
12-01-02 METAR LIMC 021220Z VRB01KT 1000 R35L/1500N R35R/1500N -RA BCFG BKN003 OVC010 04/03 Q1020 REDZ NOSIG
12-01-02 METAR LIMC 021320Z VRB01KT 1300 R35L/1500N R35R/1500N -RA BCFG BKN004 OVC010 04/03 Q1019 NOSIG
12-01-02 METAR LIMC 021420Z VRB01KT 1000 R35L/1500N R35R/1500N RA VCFG BKN002 OVC010
12-01-02 METAR LIMC 021520Z VRB01KT 1500 0900SW RA VCFG SCT003 OVC015 03/03 Q1018 NOSIG
12-01-02 METAR LIMC 021620Z VRB01KT 4000 RA BR SCT010 OVC025 03/03 Q1018 NOSIG
12-01-02 METAR LIMC 021720Z 10003KT 4000 RA BR SCT010 OVC025 02/02 Q1018 NOSIG
12-01-02 METAR LIMC 021820Z 14001KT 6000 RA OVC020 02/02 Q1018 NOSIG
12-01-02 METAR LIMC 021920Z 25002KT 6000 -RA BKN015 OVC030 02/02 Q1018 RERA NOSIG
12-01-02 METAR LIMC 022020Z 00000KT 6000 DZ BKN015 OVC030 03/02 Q1019 NOSIG
12-01-02 METAR LIMC 022320Z 24002KT 9999 FEW015 SCT030 02/01 Q1018 NOSIG
12-01-03 METAR LIMC 030020Z 00000KT 9999 BKN030 01/01 Q1019 NOSIG
12-01-03 METAR LIMC 030120Z 00000KT 9999 BKN015 01/01 Q1019 NOSIG
12-01-03 METAR LIMC 030220Z 00000KT 4000 BR BKN010 01/01 Q1020 NOSIG
12-01-03 METAR LIMC 030320Z 25002KT 0800 R35L/0700V0800N FG BKN010 01/01 Q1020 NOSIG
12-01-03 METAR LIMC 030420Z VRB02KT 0300 R35L/0800V1500U R35R/0900V1500U FG BKN010 02/02 Q1021 NOSIG
12-01-03 METAR LIMC 030520Z 33003KT 0600 R35L/1500N R35R/1500N FG BKN040 03/03 Q1021
12-01-03 METAR LIMC 030620Z 00000KT CAVOK 01/01 Q1022 NOSIG
12-01-03 METAR LIMC 030720Z 14003KT 100V160 0050 R35L/0200V0250N R35R/0200V0250N FG NSC 00/00 Q1024 NOSIG
12-01-03 METAR LIMC 030820Z VRB02KT 0050 R35L/0250N R35R/0275N FG NSC 00/00 Q1025
12-01-03 METAR LIMC 030920Z VRB02KT 0100 R35L/0325V0450N R35R/0325N FG VV/// 00/00 Q1026 NOSIG
12-01-03 METAR LIMC 031020Z VRB02KT 0350 R35L/0375V0800D R35R/0350V0800U FG VV/// 01/01 Q1027 NOSIG
12-01-03 METAR LIMC 031120Z 00000KT 0300 R35L/0900V1200N R35R/0750V1100D FG VV/// 02/02 Q1027 NOSIG
12-01-03 METAR LIMC 031220Z VRB02KT 1500 0700SW PRFG NSC 04/04 Q1026 NOSIG
12-01-03 METAR LIMC 031320Z 22003KT 180V250 1500 0150SW R35L/0200N R35R/0200V0400U PRFG NSC 04/04 Q1026 NOSIG
12-01-03 METAR LIMC 031420Z VRB01KT 0300 R35L/0375V0900N R35R/0250V0400N FG NSC 04/04 Q1026 NOSIG
12-01-03 METAR LIMC 031520Z 00000KT 0100 R35L/0200V0250N R35R/0200V0250N FG NSC 03/03 Q1026 NOSIG
12-01-03 METAR LIMC 031620Z VRB01KT 0200 R35L/0550V0900N R35R/0300V0800U FG NSC
12-01-03 METAR LIMC 031720Z 00000KT 0400 R35L/0500V0900D R35R/0375V0800U FG NSC 02/02 Q1026 NOSIG
12-01-03 METAR LIMC 031820Z 00000KT 1500 0600E R35L/0350V0550N R35R/0350V0700U PRFG NSC 01/01 Q1026 NOSIG
12-01-03 METAR LIMC 031920Z VRB01KT 0700 R35L/1500N R35R/0750V1500D FG NSC 01/01
12-01-03 METAR LIMC 032020Z 00000KT 4500 1000SW R35L/1500N R35R/0800V1500N BCFG NSC M01/M01 Q1026 NOSIG
12-01-03 METAR LIMC 032120Z VRB02KT 0800 0300SW R35L/0250V0400N R35R/0250V0650N FZFG NSC M01/M01 Q1026 NOSIG
12-01-03 METAR LIMC 032220Z 34002KT 4000 R35L/0800V1500U R35R/0750V1500U BCFG NSC M02/M02 Q1025 NOSIG
12-01-03 METAR LIMC 032320Z VRB01KT 2000 0800SW R35L/0300V0400N R35R/0600V1500D BCFG NSC M02/M02 Q1024 NOSIG
12-01-04 METAR LIMC 040020Z 00000KT 1500 R35L/1100V1500N R35R/0900V1500N BCFG NSC M03/M03 Q1023 NOSIG
12-01-04 METAR LIMC 040120Z 00000KT 6000 NSC M03/M03 Q1023 NOSIG
12-01-04 METAR LIMC 040220Z 00000KT 6000 NSC M03/M03 Q1022 NOSIG
12-01-04 METAR LIMC 040320Z 00000KT CAVOK M04/M04 Q1021 NOSIG
12-01-04 METAR LIMC 040420Z VRB01KT 3500 R35L/0600V1500U R35R/0250V0450U BCFG NSC M04/M04 Q1021 NOSIG
12-01-04 METAR LIMC 040520Z 01002KT 5000 BR NSC M04/M04 Q1020 NOSIG
12-01-04 METAR LIMC 040620Z VRB01KT CAVOK M04/M04 Q1019 NOSIG
12-01-04 METAR LIMC 040720Z 33002KT CAVOK M02/M02 Q1019 NOSIG
12-01-04 METAR LIMC 040820Z VRB02KT CAVOK M01/M01 Q1019 NOSIG
12-01-04 METAR LIMC 040920Z 34003KT CAVOK 02/02 Q1019 NOSIG
12-01-04 METAR LIMC 041020Z VRB02KT 9999 SCT050 BKN070 04/03 Q1019 NOSIG
12-01-04 METAR LIMC 041120Z 19002KT 9999 SCT050 BKN070 02/02 Q1017 NOSIG
12-01-04 METAR LIMC 041220Z 21003KT 140V240 9999 4500S SCT090 03/02 Q1017 NOSIG
12-01-04 METAR LIMC 041320Z 24003KT CAVOK 06/03 Q1017 NOSIG
12-01-04 METAR LIMC 041420Z VRB02KT CAVOK 07/02 Q1017 NOSIG
12-01-04 METAR LIMC 041520Z 23002KT CAVOK 06/02 Q1018 NOSIG
12-01-04 METAR LIMC 041620Z 02003KT 350V070 CAVOK 07/M03 Q1019 NOSIG
12-01-04 METAR LIMC 041720Z 01005KT CAVOK 07/M05 Q1019 NOSIG
12-01-04 METAR LIMC 041820Z 09004KT 030V150 CAVOK 11/M13 Q1020 NOSIG
12-01-04 METAR LIMC 041920Z VRB03KT CAVOK 08/M11 Q1020 NOSIG
12-01-04 METAR LIMC 042120Z VRB02KT CAVOK 05/M10 Q1020 NOSIG
12-01-04 METAR LIMC 042220Z 00000KT CAVOK 01/M07 Q1019 NOSIG
12-01-04 METAR LIMC 042320Z 18002KT CAVOK M01/M06 Q1020 NOSIG
12-01-05 METAR LIMC 050020Z VRB02KT CAVOK M01/M04 Q1019 NOSIG
12-01-05 METAR LIMC 050120Z 07003KT CAVOK M02/M04 Q1019 NOSIG
12-01-05 METAR LIMC 050220Z VRB01KT CAVOK M03/M04 Q1018 NOSIG
12-01-05 METAR LIMC 050320Z VRB02KT CAVOK M04/M04 Q1016 NOSIG
12-01-05 METAR LIMC 050420Z 15002KT CAVOK M04/M05 Q1015 NOSIG
12-01-05 METAR LIMC 050520Z 35002KT CAVOK M04/M04 Q1014 NOSIG
12-01-05 METAR LIMC 050620Z 00000KT 9999 SCT090 M02/M04 Q1013 NOSIG
12-01-05 METAR LIMC 050720Z 36003KT CAVOK M02/M04 Q1011 NOSIG
12-01-05 METAR LIMC 050820Z 05003KT 360V070 CAVOK 00/M02 Q1011 NOSIG
12-01-05 METAR LIMC 050920Z VRB02KT CAVOK 04/M01 Q1009 NOSIG
12-01-05 METAR LIMC 051020Z VRB02KT CAVOK 06/M03 Q1007 NOSIG
12-01-05 METAR LIMC 051120Z 30002KT CAVOK 09/M04 Q1006 NOSIG
12-01-05 METAR LIMC 051220Z VRB02KT CAVOK 10/M05 Q1004 NOSIG
12-01-05 METAR LIMC 051320Z 23003KT 200V260 CAVOK 10/M05 Q1002 NOSIG
12-01-05 METAR LIMC 051420Z NIL
12-01-05 METAR LIMC 051520Z NIL
12-01-05 METAR LIMC 051620Z NIL
12-01-05 METAR LIMC 051720Z 04004KT 340V110 9999 FEW050 BKN080 06/M01 Q0995 NOSIG
12-01-05 METAR LIMC 051820Z 36003KT 290V050 9999 BKN070 07/M00 Q0995 NOSIG
12-01-05 METAR LIMC 051920Z 36006KT 330V060 9999 -RA BKN050 07/04 Q0998 RERA NOSIG
12-01-05 METAR LIMC 052020Z VRB02KT 9999 SCT050 06/03 Q0999 NOSIG
12-01-05 METAR LIMC 052120Z 02008KT CAVOK 08/01 Q0999 NOSIG
12-01-05 METAR LIMC 052220Z 01006KT CAVOK 07/00 Q0999 NOSIG
12-01-05 METAR LIMC 052320Z 33004KT 310V010 CAVOK 04/01 Q1000 NOSIG
12-01-06 METAR LIMC 060020Z 01005KT CAVOK 06/01 Q1000 NOSIG
12-01-06 METAR LIMC 060120Z 29005KT 260V330 CAVOK 04/01 Q1002 NOSIG
12-01-06 METAR LIMC 060220Z VRB02KT CAVOK 03/00 Q1002 NOSIG
12-01-06 METAR LIMC 060320Z 34011KT CAVOK 06/M02 Q1003 NOSIG
12-01-06 METAR LIMC 060420Z 33008KT CAVOK 06/M05 Q1006 NOSIG
12-01-06 METAR LIMC 060520Z 31011KT CAVOK 07/M07 Q1007 NOSIG
12-01-06 METAR LIMC 060620Z 34003KT CAVOK 03/M05 Q1008 NOSIG
12-01-06 METAR LIMC 060720Z 31006KT CAVOK 05/M06 Q1008 NOSIG
12-01-06 METAR LIMC 060820Z 35003KT 330V030 CAVOK 07/M07 Q1009 NOSIG
12-01-06 METAR LIMC 060920Z 32009KT CAVOK 09/M07 Q1010 NOSIG
12-01-06 METAR LIMC 061020Z NIL
12-01-06 METAR LIMC 061120Z 32006KT CAVOK 11/M08 Q1012 NOSIG
12-01-06 METAR LIMC 061220Z 32010KT CAVOK 11/M09 Q1012 NOSIG
12-01-06 METAR LIMC 061320Z 34009KT CAVOK 11/M08 Q1013 NOSIG
12-01-06 METAR LIMC 061420Z 33007KT CAVOK 10/M07 Q1014 NOSIG
12-01-06 METAR LIMC 061520Z 34008KT CAVOK 09/M08 Q1014 NOSIG
12-01-06 METAR LIMC 061620Z 34005KT CAVOK 08/M08 Q1015 NOSIG
12-01-06 METAR LIMC 061720Z 35005KT CAVOK 07/M08 Q1016 NOSIG
12-01-06 METAR LIMC 061820Z 31004KT CAVOK 06/M07 Q1016 NOSIG
12-01-06 METAR LIMC 061920Z VRB03KT CAVOK 09/M09 Q1016 NOSIG
12-01-06 METAR LIMC 062020Z 36004KT CAVOK 08/M09 Q1017 NOSIG
12-01-06 METAR LIMC 062120Z 27003KT 190V300 CAVOK 07/M09 Q1017 NOSIG
12-01-06 METAR LIMC 062220Z 00000KT CAVOK 03/M08 Q1018 NOSIG
12-01-06 METAR LIMC 062320Z 31002KT CAVOK M02/M07 Q1019 NOSIG
12-01-07 METAR LIMC 070020Z 00000KT CAVOK M03/M07 Q1019 NOSIG
12-01-07 METAR LIMC 070120Z VRB02KT CAVOK M03/M07 Q1019 NOSIG
12-01-07 METAR LIMC 070220Z 35004KT CAVOK M01/M07 Q1019 NOSIG
12-01-07 METAR LIMC 070320Z VRB02KT CAVOK M04/M07 Q1019 NOSIG
12-01-07 METAR LIMC 070420Z 00000KT CAVOK M04/M08 Q1019 NOSIG
12-01-07 METAR LIMC 070520Z 34004KT CAVOK M01/M07 Q1019 NOSIG
12-01-07 METAR LIMC 070620Z 34004KT CAVOK 00/M06 Q1019 NOSIG
12-01-07 METAR LIMC 070720Z 33004KT CAVOK M00/M06 Q1019 NOSIG
12-01-07 METAR LIMC 070820Z 33004KT CAVOK 03/M04 Q1020 NOSIG
12-01-07 METAR LIMC 070920Z 29003KT CAVOK 07/M05 Q1020 NOSIG
12-01-07 METAR LIMC 071020Z 27004KT 230V290 CAVOK 09/M05 Q1020 NOSIG
12-01-07 METAR LIMC 071120Z 26003KT 210V280 CAVOK 12/M07 Q1019 NOSIG
12-01-07 METAR LIMC 071220Z 23005KT CAVOK 12/M07 Q1019 NOSIG
12-01-07 METAR LIMC 071320Z 22004KT 190V250 CAVOK 10/M08 Q1018 NOSIG
12-01-07 METAR LIMC 071420Z 22004KT CAVOK 10/M08 Q1018 NOSIG
12-01-07 METAR LIMC 071520Z 22003KT CAVOK 09/M06 Q1017 NOSIG
12-01-07 METAR LIMC 071620Z VRB02KT CAVOK 06/M06 Q1017 NOSIG
12-01-07 METAR LIMC 071720Z 00000KT CAVOK 02/M06 Q1017 NOSIG
12-01-07 METAR LIMC 071820Z VRB02KT CAVOK 00/M06 Q1017 NOSIG
12-01-07 METAR LIMC 071920Z 35001KT CAVOK M01/M06 Q1017 NOSIG
12-01-07 METAR LIMC 072020Z 35003KT 310V060 CAVOK M01/M06 Q1016 NOSIG
12-01-07 METAR LIMC 072120Z VRB02KT CAVOK M02/M07 Q1016 NOSIG
12-01-07 METAR LIMC 072220Z VRB02KT CAVOK M04/M07 Q1016 NOSIG
12-01-07 METAR LIMC 072320Z VRB01KT CAVOK M04/M06 Q1016 NOSIG
12-01-08 METAR LIMC 080020Z VRB02KT CAVOK M04/M06 Q1016 NOSIG
12-01-08 METAR LIMC 080120Z 36002KT CAVOK M00/M02 Q1016 NOSIG
12-01-08 METAR LIMC 080220Z VRB01KT CAVOK M01/M03 Q1016 NOSIG
12-01-08 METAR LIMC 080320Z VRB02KT CAVOK M01/M03 Q1016 NOSIG
12-01-08 METAR LIMC 080420Z 03003KT 340V070 CAVOK M03/M04 Q1016 NOSIG
12-01-08 METAR LIMC 080520Z 29003KT CAVOK 04/M02 Q1016 NOSIG
12-01-08 METAR LIMC 080620Z 01005KT CAVOK 07/M02 Q1016 NOSIG
12-01-08 METAR LIMC 080720Z VRB01KT CAVOK 02/M02 Q1016 NOSIG
12-01-08 METAR LIMC 080820Z 32004KT 290V040 CAVOK 07/M01 Q1016 NOSIG
12-01-08 METAR LIMC 080920Z 01003KT 330V060 CAVOK 12/M02 Q1016 NOSIG
12-01-08 METAR LIMC 081020Z 03003KT 330V110 CAVOK 13/M03 Q1016 NOSIG
12-01-08 METAR LIMC 081120Z 35003KT 330V070 CAVOK 14/M02 Q1016 NOSIG
12-01-08 METAR LIMC 081220Z VRB02KT CAVOK 14/M03 Q1015 NOSIG
12-01-08 METAR LIMC 081320Z 21003KT CAVOK 14/M01 Q1015 NOSIG
12-01-08 METAR LIMC 081420Z VRB02KT CAVOK 14/M01 Q1015 NOSIG
12-01-08 METAR LIMC 081520Z 03004KT CAVOK 13/M03 Q1015 NOSIG
12-01-08 METAR LIMC 081620Z 02002KT CAVOK 10/M04 Q1016 NOSIG
12-01-08 METAR LIMC 081720Z 34004KT 320V020 CAVOK 10/M04 Q1016 NOSIG
12-01-08 METAR LIMC 081820Z 02007KT CAVOK 11/M06 Q1017 NOSIG
12-01-08 METAR LIMC 081920Z 03006KT 360V060 CAVOK 10/M07 Q1018 NOSIG
12-01-08 METAR LIMC 082020Z 01008KT CAVOK 11/M08 Q1018 NOSIG
12-01-08 METAR LIMC 082120Z 04004KT CAVOK 09/M07 Q1019 NOSIG
12-01-08 METAR LIMC 082220Z 02007KT CAVOK 09/M07 Q1020 NOSIG
12-01-08 METAR LIMC 082320Z 36004KT CAVOK 08/M07 Q1020 NOSIG
12-01-09 METAR LIMC 090020Z 00000KT CAVOK 02/M06 Q1021 NOSIG
12-01-09 METAR LIMC 090120Z 29004KT 280V350 CAVOK 04/M06 Q1021 NOSIG
12-01-09 METAR LIMC 090220Z VRB02KT CAVOK 03/M06 Q1021 NOSIG
12-01-09 METAR LIMC 090320Z VRB01KT CAVOK M01/M06 Q1021 NOSIG
12-01-09 METAR LIMC 090420Z 00000KT CAVOK M02/M06 Q1022 NOSIG
12-01-09 METAR LIMC 090520Z 35003KT 310V050 CAVOK M03/M06 Q1022 NOSIG
12-01-09 METAR LIMC 090620Z 34004KT CAVOK 02/M06 Q1023 NOSIG
12-01-09 METAR LIMC 090720Z 34003KT 310V010 CAVOK M03/M06 Q1024 NOSIG
12-01-09 METAR LIMC 090820Z 34004KT CAVOK 04/M04 Q1024 NOSIG
12-01-09 METAR LIMC 090920Z VRB02KT CAVOK 08/M04 Q1024 NOSIG
12-01-09 METAR LIMC 091020Z 31003KT CAVOK 11/M06 Q1024 NOSIG
12-01-09 METAR LIMC 091120Z NIL
12-01-09 METAR LIMC 091220Z VRB02KT CAVOK 13/M06 Q1024 NOSIG
12-01-09 METAR LIMC 091320Z NIL
12-01-09 METAR LIMC 091420Z VRB02KT CAVOK 13/M05 Q1024 NOSIG
12-01-09 METAR LIMC 091520Z NIL
12-01-09 METAR LIMC 091620Z VRB02KT CAVOK 07/M01 Q1025 NOSIG
12-01-09 METAR LIMC 091720Z NIL
12-01-09 METAR LIMC 091820Z 32002KT CAVOK 02/M03 Q1025 NOSIG
12-01-09 METAR LIMC 091920Z NIL
12-01-09 METAR LIMC 092020Z 33003KT 310V010 CAVOK 02/M03 Q1026 NOSIG
12-01-09 METAR LIMC 092120Z NIL
12-01-09 METAR LIMC 092220Z 32003KT CAVOK 01/M04 Q1026 NOSIG
12-01-09 METAR LIMC 092320Z NIL
12-01-10 METAR LIMC 100020Z VRB02KT CAVOK 01/M03 Q1026 NOSIG
12-01-10 METAR LIMC 100120Z NIL
12-01-10 METAR LIMC 100220Z 00000KT CAVOK M01/M04 Q1026 NOSIG
12-01-10 METAR LIMC 100320Z NIL
12-01-10 METAR LIMC 100420Z 00000KT CAVOK M02/M04 Q1026 NOSIG
12-01-10 METAR LIMC 100520Z NIL
12-01-10 METAR LIMC 100620Z 25001KT CAVOK M02/M04 Q1026 NOSIG
12-01-10 METAR LIMC 100720Z NIL
12-01-10 METAR LIMC 100820Z 33004KT CAVOK 05/M00 Q1027 NOSIG
12-01-10 METAR LIMC 100920Z NIL
12-01-10 METAR LIMC 101020Z NIL
12-01-10 METAR LIMC 101020Z 31004KT CAVOK 12/M03 Q1027 NOSIG
12-01-10 METAR LIMC 101120Z NIL
12-01-10 METAR LIMC 101220Z NIL
12-01-10 METAR LIMC 101220Z 24003KT CAVOK 15/M03 Q1025 NOSIG
12-01-10 METAR LIMC 101320Z NIL
12-01-10 METAR LIMC 101320Z 24004KT CAVOK 15/M03 Q1025 NOSIG
12-01-10 METAR LIMC 101420Z 23003KT CAVOK 15/M03 Q1025 NOSIG
12-01-10 METAR LIMC 101520Z NIL
12-01-10 METAR LIMC 101520Z 23003KT CAVOK 13/M03 Q1025 NOSIG
12-01-10 METAR LIMC 101620Z 28002KT CAVOK 10/M04 Q1026 NOSIG
12-01-10 METAR LIMC 101720Z VRB01KT CAVOK 08/M05 Q1026 NOSIG
12-01-10 METAR LIMC 101820Z VRB02KT CAVOK 04/M02 Q1028 NOSIG
12-01-10 METAR LIMC 101920Z 06003KT 310V090 CAVOK 06/M00 Q1029 NOSIG
12-01-10 METAR LIMC 102020Z VRB02KT CAVOK 05/M00 Q1031 NOSIG
12-01-10 METAR LIMC 102120Z VRB02KT CAVOK 05/M01 Q1031 NOSIG
12-01-10 METAR LIMC 102220Z 04003KT CAVOK 02/M01 Q1032 NOSIG
12-01-10 METAR LIMC 102320Z 06004KT CAVOK 05/M01 Q1031 NOSIG
12-01-11 METAR LIMC 110020Z 04003KT CAVOK 04/M02 Q1031 NOSIG
12-01-11 METAR LIMC 110120Z 00000KT CAVOK 01/M02 Q1032 NOSIG
12-01-11 METAR LIMC 110220Z VRB02KT CAVOK M02/M04 Q1032 NOSIG
12-01-11 METAR LIMC 110320Z VRB02KT CAVOK M04/M05 Q1032 NOSIG
12-01-11 METAR LIMC 110420Z 00000KT CAVOK M04/M05 Q1032 NOSIG
12-01-11 METAR LIMC 110520Z 01001KT CAVOK M03/M04 Q1032 NOSIG
12-01-11 METAR LIMC 110620Z 04003KT 340V070 CAVOK M02/M03 Q1032 NOSIG
12-01-11 METAR LIMC 110720Z VRB02KT CAVOK M03/M04 Q1032 NOSIG
12-01-11 METAR LIMC 110820Z 00000KT CAVOK 01/M01 Q1033 NOSIG
12-01-11 METAR LIMC 110920Z VRB02KT CAVOK 06/M00 Q1033 NOSIG
12-01-11 METAR LIMC 111020Z VRB01KT CAVOK 09/M01 Q1033 NOSIG
12-01-11 METAR LIMC 111120Z VRB02KT CAVOK 10/M02 Q1033 NOSIG
12-01-11 METAR LIMC 111220Z VRB02KT CAVOK 11/M03 Q1032 NOSIG
12-01-11 METAR LIMC 111320Z VRB01KT CAVOK 11/M03 Q1031 NOSIG
12-01-11 METAR LIMC 111420Z VRB01KT CAVOK 11/M02 Q1031 NOSIG
12-01-11 METAR LIMC 111520Z 18002KT CAVOK 09/M01 Q1031 NOSIG
12-01-11 METAR LIMC 111620Z 21002KT 7000 NSC 06/00 Q1031 NOSIG
12-01-11 METAR LIMC 111720Z 00000KT 7000 NSC 05/01 Q1031 NOSIG
12-01-11 METAR LIMC 111820Z 00000KT 8000 NSC 02/M00 Q1031 NOSIG
12-01-11 METAR LIMC 111920Z 00000KT CAVOK M01/M02 Q1031 NOSIG
12-01-11 METAR LIMC 112020Z VRB02KT CAVOK M02/M02 Q1031 NOSIG
12-01-11 METAR LIMC 112120Z VRB02KT CAVOK M02/M03 Q1031 NOSIG
12-01-11 METAR LIMC 112220Z 00000KT CAVOK M02/M03 Q1031 NOSIG
12-01-11 METAR LIMC 112320Z 04003KT 340V070 CAVOK M03/M04 Q1030 NOSIG
12-01-12 METAR LIMC 120020Z VRB02KT CAVOK M03/M04 Q1030 NOSIG
12-01-12 METAR LIMC 120120Z VRB02KT CAVOK M04/M04 Q1030 NOSIG
12-01-12 METAR LIMC 120220Z 36003KT 330V030 CAVOK M04/M05 Q1030 NOSIG
12-01-12 METAR LIMC 120320Z VRB01KT CAVOK M04/M05 Q1031 NOSIG
12-01-12 METAR LIMC 120420Z 01002KT CAVOK M04/M05 Q1030 NOSIG
12-01-12 METAR LIMC 120520Z 00000KT CAVOK M05/M05 Q1031 NOSIG
12-01-12 METAR LIMC 120620Z VRB02KT CAVOK M03/M04 Q1030 NOSIG
12-01-12 METAR LIMC 120720Z 36002KT 8000 NSC M03/M04 Q1030 NOSIG
12-01-12 METAR LIMC 120820Z VRB02KT 8000 NSC M02/M03 Q1031 NOSIG
12-01-12 METAR LIMC 120920Z VRB02KT 9000 NSC 05/01 Q1031 NOSIG
12-01-12 METAR LIMC 121020Z VRB01KT 9000 NSC 07/00 Q1030 NOSIG
12-01-12 METAR LIMC 121120Z VRB01KT 9000 NSC 08/00 Q1029 NOSIG
12-01-12 METAR LIMC 121220Z VRB01KT 8000 NSC 10/01 Q1028 NOSIG
12-01-12 METAR LIMC 121320Z VRB02KT 8000 NSC 10/02 Q1027 NOSIG
12-01-12 METAR LIMC 121420Z VRB02KT 8000 NSC 10/03 Q1026 NOSIG
12-01-12 METAR LIMC 121520Z 20003KT 8000 NSC 07/02 Q1026 NOSIG
12-01-12 METAR LIMC 121620Z 00000KT 7000 NSC 05/02 Q1026 NOSIG
12-01-12 METAR LIMC 121720Z 00000KT 7000 NSC 02/00 Q1025 NOSIG
12-01-12 METAR LIMC 121920Z 00000KT 7000 NSC M00/M01 Q1025 NOSIG
12-01-12 METAR LIMC 122020Z 34003KT 6000 NSC 01/00 Q1024 NOSIG
12-01-12 METAR LIMC 122120Z 34003KT 300V040 CAVOK M00/M01 Q1024 NOSIG
12-01-12 METAR LIMC 122220Z 02003KT 330V060 CAVOK M00/M01 Q1024 NOSIG
12-01-12 METAR LIMC 122320Z 34003KT CAVOK M02/M02 Q1023 NOSIG
12-01-13 METAR LIMC 130020Z 34003KT CAVOK M02/M03 Q1022 NOSIG
12-01-13 METAR LIMC 130120Z 35003KT 330V070 CAVOK M01/M02 Q1021 NOSIG
12-01-13 METAR LIMC 130220Z 34003KT 330V050 CAVOK M02/M03 Q1021 NOSIG
12-01-13 METAR LIMC 130320Z 34003KT CAVOK M02/M03 Q1020 NOSIG
12-01-13 METAR LIMC 130420Z 34003KT CAVOK M02/M03 Q1020 NOSIG
12-01-13 METAR LIMC 130520Z 33003KT CAVOK M02/M03 Q1019 NOSIG
12-01-13 METAR LIMC 130620Z 34004KT CAVOK M01/M02 Q1019 NOSIG
12-01-13 METAR LIMC 130720Z 34004KT CAVOK M01/M02 Q1018 NOSIG
12-01-13 METAR LIMC 130820Z 34003KT CAVOK 02/M00 Q1019 NOSIG
12-01-13 METAR LIMC 130920Z VRB02KT CAVOK 06/01 Q1018 NOSIG
12-01-13 METAR LIMC 131020Z VRB02KT CAVOK 10/03 Q1018 NOSIG
12-01-13 METAR LIMC 131120Z VRB02KT CAVOK 11/04 Q1018 NOSIG
12-01-13 METAR LIMC 131220Z 22003KT 180V260 CAVOK 12/04 Q1017 NOSIG
12-01-13 METAR LIMC 131320Z 20004KT CAVOK 12/04 Q1016 NOSIG
12-01-13 METAR LIMC 131420Z 21003KT CAVOK 10/04 Q1016 NOSIG
12-01-13 METAR LIMC 131520Z 22002KT CAVOK 09/04 Q1016 NOSIG
12-01-13 METAR LIMC 131620Z 00000KT CAVOK 05/03 Q1016 NOSIG
12-01-13 METAR LIMC 131720Z VRB02KT CAVOK 02/00 Q1016 NOSIG
12-01-13 METAR LIMC 131820Z VRB01KT CAVOK 00/M01 Q1017 NOSIG
12-01-13 METAR LIMC 131920Z VRB02KT CAVOK 03/02 Q1017 NOSIG
12-01-13 METAR LIMC 132020Z 06003KT 350V120 CAVOK 02/00 Q1018 NOSIG
12-01-13 METAR LIMC 132120Z 08003KT 050V110 7000 NSC 01/00 Q1019 NOSIG
12-01-13 METAR LIMC 132220Z 06003KT 280V080 3000 BR NSC 02/01 Q1020 NOSIG
12-01-13 METAR LIMC 132320Z 03003KT 350V080 3000 BR NSC 01/01 Q1020 NOSIG
12-01-14 METAR LIMC 140020Z 07003KT 010V080 3000 R35R/1000V1400U BR NSC M02/M02 Q1020 NOSIG
12-01-14 METAR LIMC 140120Z VRB02KT 2000 R35L/1500N R35R/0500V1500N BCFG NSC M03/M03 Q1021 NOSIG
12-01-14 METAR LIMC 140220Z 36003KT 2000 BCFG NSC M01/M01 Q1021 NOSIG
12-01-14 METAR LIMC 140320Z 34004KT 3000 BCFG NSC M03/M03 Q1020 NOSIG
12-01-14 METAR LIMC 140420Z 35003KT 3000 BCFG NSC M03/M03 Q1020 NOSIG
12-01-14 METAR LIMC 140520Z 35003KT 4000 BR NSC M05/M06 Q1020 NOSIG
12-01-14 METAR LIMC 140620Z 35003KT 330V050 7000 NSC M04/M06 Q1020 NOSIG
12-01-14 METAR LIMC 140720Z 35002KT 7000 NSC M02/M04 Q1020 NOSIG
12-01-14 METAR LIMC 140820Z VRB01KT 9000 NSC M00/M02 Q1021 NOSIG
12-01-14 METAR LIMC 140920Z 00000KT 9000 NSC 03/M00 Q1021 NOSIG
12-01-14 METAR LIMC 141020Z VRB02KT 9000 NSC 05/M03 Q1021 NOSIG
12-01-14 METAR LIMC 141120Z VRB01KT 9000 NSC 07/M02 Q1021 NOSIG
12-01-14 METAR LIMC 141220Z VRB02KT CAVOK 08/M04 Q1020 NOSIG
12-01-14 METAR LIMC 141320Z 17003KT 140V220 CAVOK 08/M03 Q1019 NOSIG
12-01-14 METAR LIMC 141420Z VRB02KT 9000 NSC 08/M02 Q1019 NOSIG
12-01-14 METAR LIMC 141520Z 15002KT 9000 NSC 06/M04 Q1019 NOSIG
12-01-14 METAR LIMC 141620Z 00000KT 8000 NSC 03/M03 Q1019 NOSIG
12-01-14 METAR LIMC 141720Z 00000KT 7000 NSC 01/M03 Q1019 NOSIG
12-01-14 METAR LIMC 141820Z VRB02KT CAVOK M04/M06 Q1019 NOSIG
12-01-14 METAR LIMC 141920Z VRB02KT CAVOK M04/M05 Q1020 NOSIG
12-01-14 METAR LIMC 142020Z VRB02KT CAVOK M04/M06 Q1020 NOSIG
12-01-14 METAR LIMC 142120Z 00000KT CAVOK M06/M08 Q1020 NOSIG
12-01-14 METAR LIMC 142220Z 35003KT CAVOK M05/M06 Q1020 NOSIG
12-01-14 METAR LIMC 142320Z 35003KT CAVOK M06/M07 Q1020 NOSIG
12-01-15 METAR LIMC 150020Z 35001KT CAVOK M06/M07 Q1020 NOSIG
12-01-15 METAR LIMC 150120Z 00000KT CAVOK M06/M07 Q1020 NOSIG
12-01-15 METAR LIMC 150220Z 00000KT CAVOK M06/M07 Q1019 NOSIG
12-01-15 METAR LIMC 150320Z 00000KT CAVOK M07/M08 Q1019 NOSIG
12-01-15 METAR LIMC 150420Z 00000KT CAVOK M08/M08 Q1019 NOSIG
12-01-15 METAR LIMC 150520Z 00000KT 7000 NSC M08/M09 Q1019 NOSIG
12-01-15 METAR LIMC 150620Z 00000KT 7000 NSC M08/M09 Q1020 NOSIG
12-01-15 METAR LIMC 150720Z 17001KT 7000 NSC M09/M10 Q1020 NOSIG
12-01-15 METAR LIMC 150820Z 00000KT 4000 BR NSC M05/M06 Q1020 NOSIG
12-01-15 METAR LIMC 150920Z VRB01KT 4000 BR NSC M02/M04 Q1020 NOSIG
12-01-15 METAR LIMC 151020Z 16002KT 5000 BR NSC 02/M03 Q1020 NOSIG
12-01-15 METAR LIMC 151120Z VRB02KT 5000 BR NSC 01/M03 Q1020 NOSIG
12-01-15 METAR LIMC 151220Z VRB02KT 5000 BR NSC 02/M02 Q1019 NOSIG
12-01-15 METAR LIMC 151320Z VRB02KT 5000 BR NSC 02/M02 Q1019 NOSIG
12-01-15 METAR LIMC 151420Z 21003KT 5000 BR NSC 01/M02 Q1019 NOSIG
12-01-15 METAR LIMC 151520Z 19001KT 0500 R35L/0450V0750D R35R/1400V1500N FZFG NSC M02/M02 Q1019 NOSIG
12-01-15 METAR LIMC 151620Z 00000KT 0200 R35L/0275N R35R/0200V0250N FZFG NSC M03/M03
12-01-15 METAR LIMC 151720Z 00000KT 0200 R35L/0300V0600N R35R/0250V0400N FZFG NSC M04/M04 Q1020 NOSIG
12-01-15 METAR LIMC 151820Z 00000KT 0200 R35L/0200N R35R/0275N FZFG NSC M04/M04
12-01-15 METAR LIMC 151920Z VRB01KT 0500 R35L/0250V0350N R35R/0700V1500N PRFG NSC M05/M05 Q1020 NOSIG
12-01-15 METAR LIMC 152020Z 00000KT 1500 0800SW R35L/0450V1500D R35R/0250V1400D BCFG NSC M06/M07 Q1020 NOSIG
12-01-15 METAR LIMC 152120Z 00000KT 1000 0400SW R35L/0200V0800D R35R/0300N BCFG NSC M07/M07 Q1021 NOSIG
12-01-15 METAR LIMC 152220Z 00000KT 0100 R35L/0450V1500U R35R/0200V0250N FZFG NSC M06/M06 Q1021 NOSIG
12-01-15 METAR LIMC 152320Z 00000KT 0600 R35L/0200V0275N R35R/0325V1500N FZFG NSC M08/M08 Q1021 NOSIG
12-01-16 METAR LIMC 160020Z 00000KT 0800 R35L/0225N R35R/0200N FZFG NSC M07/M07 Q1021 NOSIG
12-01-16 METAR LIMC 160120Z 00000KT 0800 R35L/0250N R35R/0250N FZFG NSC M07/M08
12-01-16 METAR LIMC 160220Z 00000KT 0800 R35L/0250N R35R/0250N FZFG NSC M08/M08
12-01-16 METAR LIMC 160320Z 21001KT 0400 R35L/0750V1500N R35R/1400V1500N FZFG NSC M09/M09 Q1021 NOSIG
12-01-16 METAR LIMC 160420Z VRB01KT 0200 R35L/0300V0400N R35R/0400V0500N FZFG NSC M08/M09 Q1021 NOSIG
12-01-16 METAR LIMC 160520Z VRB01KT 0050 R35L/0450V1200U R35R/0400V0500N FZFG NSC M07/M08 Q1022 NOSIG
12-01-16 METAR LIMC 160620Z VRB01KT 0200 R35L/0400V0500N R35R/1500N FZFG NSC M07/M07
12-01-16 METAR LIMC 160720Z 00000KT 0200 R35L/0300V0750N R35R/0350V0550N FZFG NSC M07/M07 Q1023 NOSIG
12-01-16 METAR LIMC 160820Z 00000KT 0300 R35L/0400V0600N R35R/0500V0800N FZFG NSC M07/M07 Q1024 NOSIG
12-01-16 METAR LIMC 160920Z 00000KT 1400 1000SW R35L/0550V0900N R35R/1300V1500N BR NSC M05/M06 Q1024 NOSIG
12-01-16 METAR LIMC 161020Z 00000KT 2000 BR NSC M03/M03 Q1025 NOSIG
12-01-16 METAR LIMC 161120Z 21002KT 1800 R35L/1100V1500D R35R/1200V1500N BR NSC M03/M03 Q1025 NOSIG
12-01-16 METAR LIMC 161220Z 20002KT 1500 0800S R35L/1000V1300N R35R/1500N BCFG SCT003 M02/M02 Q1024 NOSIG
12-01-16 METAR LIMC 161320Z 22002KT 0400 R35L/0900V1200U R35R/0900V1100N FZFG BKN003 M03/M03 Q1024 NOSIG
12-01-16 METAR LIMC 161420Z VRB02KT 0300 R35L/0375V0550N R35R/0700V1500U FZFG VV///
12-01-16 METAR LIMC 161520Z VRB01KT 0200 R35L/0250V0650U R35R/0300V0800D FZFG VV///
12-01-16 METAR LIMC 161620Z VRB02KT 0050 R35L/0250V0450N R35R/0250V0400N FZFG VV///
12-01-16 METAR LIMC 161720Z VRB01KT 0050 R35L/0450V0800D R35R/0450V1500D FZFG VV/// M04/M04 Q1025 NOSIG
12-01-16 METAR LIMC 161820Z VRB01KT 0050 R35L/0350V0550N R35R/0550V1500U FZFG VV/// M04/M05 Q1025 NOSIG
12-01-16 METAR LIMC 161920Z 00000KT 0050 R35L/0375V0800D R35R/0450V1500U FZFG VV/// M05/M05 Q1026 NOSIG
12-01-16 METAR LIMC 162020Z VRB01KT 0100 R35L/0450V0700D R35R/0400V1500U FZFG VV///
12-01-16 METAR LIMC 162120Z 00000KT 0150 R35L/0375N R35R/0400V0800D FZFG VV///
12-01-16 METAR LIMC 162220Z 00000KT 0150 R35L/0400V0500N R35R/0400V0500N FZFG VV/// M05/M05 Q1027 NOSIG
12-01-16 METAR LIMC 162320Z 00000KT 0150 R35L/0450V0550N R35R/0350V0500N FZFG VV///
12-01-17 METAR LIMC 170020Z VRB01KT 0150 R35L/0450V0550N R35R/0375V0450N FZFG VV/// M05/M05 Q1027 NOSIG
12-01-17 METAR LIMC 170120Z VRB01KT 0700 0300E R35L/0700V0800N R35R/0450N FZFG VV/// M06/M06 Q1027 NOSIG
12-01-17 METAR LIMC 170220Z VRB01KT 0500 0300E R35L/0600V0900D R35R/0400V0600U FZFG VV/// M06/M06 Q1027 NOSIG
12-01-17 METAR LIMC 170320Z 00000KT 0100 R35L/0450V0550N R35R/0375V0450N FZFG VV///
12-01-17 METAR LIMC 170420Z 00000KT 0100 R35L/0400V0500N R35R/0350V0500N FZFG VV/// M06/M07 Q1027 NOSIG
12-01-17 METAR LIMC 170520Z VRB01KT 0100 R35L/0450V0550N R35R/0350V0500U FZFG VV///
12-01-17 METAR LIMC 170620Z 00000KT 0100 R35L/0600V0750N R35R/0450V0600N FZFG VV/// M06/M07 Q1028 NOSIG
12-01-17 METAR LIMC 170720Z VRB01KT 0050 R35L/0450V1100N R35R/0300V0450N FZFG VV/// M06/M06 Q1028 NOSIG
12-01-17 METAR LIMC 170820Z 00000KT 0100 R35L/0375V0600U R35R/1500N FZFG VV/// M05/M05 Q1028 NOSIG
12-01-17 METAR LIMC 170920Z VRB01KT 0800 R35L/0225V0700U R35R/0325V0700D FZFG FEW003 M05/M06 Q1028 NOSIG
12-01-17 METAR LIMC 171020Z 00000KT 0300 R35L/1100V1400U R35R/1300V1400N FZFG VV/// M04/M04 Q1028 NOSIG
12-01-17 METAR LIMC 171120Z NIL
12-01-17 METAR LIMC 171120Z 00000KT 0500 0300S R35L/0650V0800N R35R/1200V1500N FZFG BKN002 M04/M04 Q1028 NOSIG
12-01-17 METAR LIMC 171220Z 00000KT 0600 0200S R35L/1000V1300U R35R/1000V1500N FZFG BKN002 M03/M03 Q1027 NOSIG
12-01-17 METAR LIMC 171320Z VRB01KT 2000 0600SW R35L/1500N R35R/1400V1500N BR BKN004 M02/M02 Q1026 NOSIG
12-01-17 METAR LIMC 171420Z 00000KT 2500 0800SW BR SCT004 SCT050 M00/M00 Q1026 NOSIG
12-01-17 METAR LIMC 171520Z 20001KT 3000 0800SW BR FEW050 M01/M01 Q1026 NOSIG
12-01-17 METAR LIMC 171620Z 20001KT 2000 0800SW BR FEW050 M02/M02 Q1026 NOSIG
12-01-17 METAR LIMC 171720Z 00000KT 1500 0400W R35L/0200V1100D R35R/1500N PRFG NSC M02/M02 Q1026 BECMG 0400
12-01-17 METAR LIMC 171820Z 00000KT 2000 1200S R35L/0225V0600N R35R/1500N BCFG NSC M04/M04 Q1027 NOSIG
12-01-17 METAR LIMC 171920Z 16002KT 3000 BCFG NSC M05/M05 Q1027 NOSIG
12-01-17 METAR LIMC 172020Z 00000KT 0200 R35L/0325V0400N R35R/0350V0500D FZFG NSC
12-01-17 METAR LIMC 172120Z VRB01KT 0200 R35L/0300V0400N R35R/0350V0600D FZFG VV///
12-01-17 METAR LIMC 172220Z 00000KT 0400 R35L/0375V1500U R35R/0400V1500U FZFG NSC M07/M07 Q1028 NOSIG
12-01-17 METAR LIMC 172320Z 00000KT 0800 R35L/1500N R35R/1500N FZFG NSC M07/M08 Q1029 NOSIG
12-01-18 METAR LIMC 180020Z 35001KT 0500 R17R/1500N R35L/1500N FZFG NSC M08/M08 Q1029 NOSIG
12-01-18 METAR LIMC 180120Z 34002KT 0600 R17R/1500N R35L/1500N FZFG NSC M08/M08
12-01-18 METAR LIMC 180220Z 00000KT 1200 0800SE R17R/1500N R35L/1500N BCFG NSC M08/M09 Q1029 NOSIG
12-01-18 METAR LIMC 180320Z VRB01KT 2000 BR NSC M09/M09 Q1029 NOSIG
12-01-18 METAR LIMC 180420Z 00000KT 1200 0800SE R17R/1500N R35L/1500N BCFG NSC M09/M09 Q1029 NOSIG
12-01-18 METAR LIMC 180520Z 00000KT 0000 R35L/0150V0275N R35R/0150V0200N FZFG VV/// M06/M06 Q1030 NOSIG
12-01-18 METAR LIMC 180620Z 00000KT 0050 R35L/0200V0800U R35R/0200V0250N FZFG VV/// M07/M07 Q1031 NOSIG
12-01-18 METAR LIMC 180720Z 00000KT 0050 R35L/0150V0200N R35R/0200V0325N FZFG VV///
12-01-18 METAR LIMC 180820Z 00000KT 0150 R35L/0150N R35R/0150V0250N FZFG VV/// M06/M06 Q1032 NOSIG
12-01-18 METAR LIMC 180920Z 00000KT 0200 R35L/0750N R35R/0225V0400N FZFG BKN002 M05/M05 Q1032 NOSIG
12-01-18 METAR LIMC 181020Z VRB01KT 0300 R35L/0750V1000N R35R/1100N FZFG BKN002 M04/M04 Q1033 NOSIG
12-01-18 METAR LIMC 181120Z VRB01KT 0100 R35L/0200V0300N R35R/0325V0750N FZFG VV/// M03/M03 Q1032 NOSIG
12-01-18 METAR LIMC 181220Z VRB01KT 0150 R35L/0750V0900N R35R/0900V1000N FZFG VV/// M02/M02 Q1032 NOSIG
12-01-18 METAR LIMC 181220Z NIL
12-01-18 METAR LIMC 181320Z VRB02KT 0600 R35L/0400V0900D R35R/0800V1100D FZFG VV/// M01/M01 Q1031 NOSIG
12-01-18 METAR LIMC 181420Z VRB01KT 0200 R35L/0225V0400N R35R/0750V1000U FZFG VV/// M02/M02 Q1031 NOSIG
12-01-18 METAR LIMC 181520Z 00000KT 0200 R35L/0150N R35R/0150V0200N FZFG VV///
12-01-18 METAR LIMC 181620Z 00000KT 0050 R35L/0150V0650U R35R/0150V0200N FZFG VV///
12-01-18 METAR LIMC 181720Z 00000KT 0050 R35L/0150N R35R/0175N FZFG VV/// M04/M04
12-01-18 METAR LIMC 181820Z 00000KT 0050 R35L/0450V1000D R35R/0200V0250N FZFG VV///
12-01-18 METAR LIMC 181920Z 00000KT 0050 R35L/0250V0400U R35R/0225N FZFG VV///
12-01-18 METAR LIMC 182020Z 00000KT 0050 R35L/0400V1400U R35R/0250N FZFG VV///
12-01-18 METAR LIMC 182120Z VRB01KT 0050 R35L/0200N R35R/0200N FZFG VV/// M04/M04
12-01-18 METAR LIMC 182220Z 00000KT 0050 R35L/0250V0450U FZFG VV/// M05/M05 Q1033
12-01-18 METAR LIMC 182320Z 00000KT 0050 R35L/0300V0400N FZFG VV/// M05/M05 Q1032
12-01-19 METAR LIMC 190020Z 00000KT 0050 R35L/0250N FZFG VV/// M05/M05 Q1033 NOSIG
12-01-19 METAR LIMC 190120Z 00000KT 0050 R35L/0250V0800D R35R/0200V0250N FZFG VV/// M05/M05 Q1032 NOSIG
12-01-19 METAR LIMC 190220Z 00000KT 0600 0300SW R35L/0800V1500N R35R/0225V0550D FZFG NSC M06/M06 Q1032 NOSIG
12-01-19 METAR LIMC 190320Z 00000KT 0900 0400SW R35L/1500N R35R/1500N FZFG NSC M07/M07 Q1031 NOSIG
12-01-19 METAR LIMC 190420Z VRB01KT 1100 R35L/1500N R35R/1100V1500U BR NSC M06/M06
12-01-19 METAR LIMC 190520Z 00000KT 1100 R35L/1500N R35R/1500N BR NSC M06/M07 Q1030
12-01-19 METAR LIMC 190620Z 00000KT 1300 R35L/1500N R35R/1500N BR NSC M06/M06 Q1030
12-01-19 METAR LIMC 190720Z 00000KT 0900 R35L/1500N R35R/1500N FZFG SCT090 M06/M06 Q1030 NOSIG
12-01-19 METAR LIMC 190820Z 00000KT 1000 R35L/1400V1500N R35R/1300V1500N BCFG SCT090 M04/M04 Q1030 NOSIG
12-01-19 METAR LIMC 190920Z VRB01KT 1500 R35L/1500N R35R/1400V1500N BCFG BKN080 M01/M01 Q1030 NOSIG
12-01-19 METAR LIMC 191020Z 00000KT 1800 R35L/1500N R35R/1200V1500U BCFG BKN080 M00/M00 Q1029 NOSIG
12-01-19 METAR LIMC 191120Z 00000KT 4000 BR BKN080 02/02 Q1028 NOSIG
12-01-19 METAR LIMC 191220Z 24002KT 4000 BR SCT080 04/04 Q1027 NOSIG
12-01-19 METAR LIMC 191320Z VRB01KT 4000 BR SCT080 06/03 Q1026 NOSIG
12-01-19 METAR LIMC 191420Z 00000KT 4000 BR SCT080 05/03 Q1026 NOSIG
12-01-19 METAR LIMC 191520Z 00000KT 6000 SCT080 06/03 Q1025 NOSIG
12-01-19 METAR LIMC 191620Z 00000KT 4000 BR SCT080 03/02 Q1025 NOSIG
12-01-19 METAR LIMC 191720Z 00000KT 6000 R35L/1500N R35R/0800V1500N SCT080 M01/M01 Q1025 NOSIG
12-01-19 METAR LIMC 191820Z VRB02KT 6000 SCT080 M00/M01 Q1024 NOSIG
12-01-19 METAR LIMC 191920Z VRB02KT 6000 NSC 01/M01 Q1024 NOSIG
12-01-19 METAR LIMC 192020Z 03003KT 320V070 6000 NSC M01/M02 Q1023 NOSIG
12-01-19 METAR LIMC 192120Z 01003KT 330V060 8000 NSC 01/M01 Q1022 NOSIG
12-01-19 METAR LIMC 192220Z 34003KT 330V030 8000 NSC 00/M01 Q1022 NOSIG
12-01-19 METAR LIMC 192320Z 34003KT 8000 NSC M01/M02 Q1021 NOSIG
12-01-20 METAR LIMC 200020Z 34003KT 8000 NSC M01/M02 Q1020 NOSIG
12-01-20 METAR LIMC 200120Z 34004KT 8000 NSC M00/M02 Q1020 NOSIG
12-01-20 METAR LIMC 200220Z VRB02KT 8000 NSC M01/M02 Q1019 NOSIG
12-01-20 METAR LIMC 200320Z 34004KT 330V050 CAVOK M01/M02 Q1018 NOSIG
12-01-20 METAR LIMC 200420Z 35003KT 330V040 CAVOK M02/M03 Q1017 NOSIG
12-01-20 METAR LIMC 200520Z VRB01KT CAVOK M03/M04 Q1016 NOSIG
12-01-20 METAR LIMC 200620Z VRB02KT CAVOK M02/M02 Q1016 NOSIG
12-01-20 METAR LIMC 200720Z VRB02KT 8000 NSC M03/M04 Q1016 NOSIG
12-01-20 METAR LIMC 200820Z VRB02KT CAVOK 01/M00 Q1015 NOSIG
12-01-20 METAR LIMC 200920Z VRB02KT 9999 SCT040 05/01 Q1014 NOSIG
12-01-20 METAR LIMC 201020Z VRB02KT 9999 BKN040 08/00 Q1013 NOSIG
12-01-20 METAR LIMC 201120Z 35003KT 310V030 9999 BKN040 08/M00 Q1013 NOSIG
12-01-20 METAR LIMC 201220Z 35003KT 320V020 9999 FEW040 12/M00 Q1012 NOSIG
12-01-20 METAR LIMC 201320Z 36004KT 330V040 9999 FEW040 13/M01 Q1012 NOSIG
12-01-20 METAR LIMC 201420Z 01006KT 340V050 9999 FEW040 SCT085 12/M02 Q1013 NOSIG
12-01-20 METAR LIMC 201520Z 34005KT 9999 FEW030 BKN080 10/M03 Q1014 NOSIG
12-01-20 METAR LIMC 201620Z 35003KT 310V040 9999 FEW030 BKN060 09/M03 Q1014 NOSIG
12-01-20 METAR LIMC 201720Z 34003KT 300V040 9999 SCT040 BKN080 08/M03 Q1014 NOSIG
12-01-20 METAR LIMC 201820Z NIL
12-01-20 METAR LIMC 201820Z VRB02KT 9999 SCT040 SCT080 06/M03 Q1015 NOSIG
12-01-20 METAR LIMC 201920Z VRB02KT 9999 SCT070 05/M03 Q1015 NOSIG
12-01-20 METAR LIMC 202020Z 00000KT 9999 SCT070 03/M03 Q1014 NOSIG
12-01-20 METAR LIMC 202120Z 00000KT 9999 SCT070 01/M03 Q1014 NOSIG
12-01-20 METAR LIMC 202220Z 34002KT 9999 SCT070 02/M02 Q1014 NOSIG
12-01-20 METAR LIMC 202320Z 35003KT 9999 SCT070 02/M02 Q1014 NOSIG
12-01-21 METAR LIMC 210020Z 35002KT 9999 SCT070 01/M02 Q1014 NOSIG
12-01-21 METAR LIMC 210120Z 34003KT 9999 SCT070 02/M01 Q1014 NOSIG
12-01-21 METAR LIMC 210220Z 34003KT CAVOK 02/M00 Q1014 NOSIG
12-01-21 METAR LIMC 210320Z 32003KT CAVOK 03/01 Q1014 NOSIG
12-01-21 METAR LIMC 210420Z 00000KT CAVOK 02/00 Q1013 NOSIG
12-01-21 METAR LIMC 210520Z 31003KT CAVOK 02/M01 Q1014 NOSIG
12-01-21 METAR LIMC 210620Z NIL
12-01-21 METAR LIMC 210620Z VRB03KT CAVOK 03/M01 Q1014 NOSIG
12-01-21 METAR LIMC 210720Z VRB01KT CAVOK 00/M01 Q1015 NOSIG
12-01-21 METAR LIMC 210820Z 07004KT CAVOK 06/01 Q1016 NOSIG
12-01-21 METAR LIMC 210920Z VRB02KT CAVOK 06/00 Q1017 NOSIG
12-01-21 METAR LIMC 211020Z 10004KT 070V130 6000 NSC 06/M00 Q1018 NOSIG
12-01-21 METAR LIMC 211120Z 07004KT 030V090 6000 NSC 08/M00 Q1017 NOSIG
12-01-21 METAR LIMC 211220Z VRB02KT 6000 NSC 09/M00 Q1017 NOSIG
12-01-21 METAR LIMC 211320Z VRB02KT 8000 NSC 09/M01 Q1016 NOSIG
12-01-21 METAR LIMC 211420Z VRB02KT 7000 NSC 08/M00 Q1016 NOSIG
12-01-21 METAR LIMC 211520Z 00000KT 6000 NSC 06/00 Q1016 NOSIG
12-01-21 METAR LIMC 211620Z 00000KT 6000 NSC 03/M01 Q1015 NOSIG
12-01-21 METAR LIMC 211720Z 00000KT 8000 NSC 00/M02 Q1015 NOSIG
12-01-21 METAR LIMC 211820Z VRB01KT 8000 NSC 01/M02 Q1015 NOSIG
12-01-21 METAR LIMC 211920Z 00000KT 8000 NSC 00/M02 Q1015 NOSIG
12-01-21 METAR LIMC 212020Z 00000KT 8000 NSC M02/M03 Q1014 NOSIG
12-01-21 METAR LIMC 212120Z VRB02KT 8000 NSC M02/M03 Q1013 NOSIG
12-01-21 METAR LIMC 212220Z 00000KT 8000 NSC M02/M03 Q1013 NOSIG
12-01-21 METAR LIMC 212320Z 03003KT 340V070 8000 NSC M03/M03 Q1012 NOSIG
12-01-22 METAR LIMC 220020Z 34005KT 8000 NSC M01/M02 Q1011 NOSIG
12-01-22 METAR LIMC 220120Z 34004KT 8000 NSC 00/M01 Q1010 NOSIG
12-01-22 METAR LIMC 220220Z 00000KT 8000 NSC M01/M02 Q1010 NOSIG
12-01-22 METAR LIMC 220320Z 02003KT 330V140 8000 NSC M02/M02 Q1010 NOSIG
12-01-22 METAR LIMC 220420Z 34003KT 330V050 8000 NSC M01/M01 Q1009 NOSIG
12-01-22 METAR LIMC 220520Z VRB02KT CAVOK M01/M02 Q1009 NOSIG
12-01-22 METAR LIMC 220620Z VRB02KT CAVOK M01/M02 Q1009 NOSIG
12-01-22 METAR LIMC 220720Z 02003KT 340V070 9999 SCT070 01/01 Q1010 NOSIG
12-01-22 METAR LIMC 220820Z NIL
12-01-22 METAR LIMC 220920Z VRB02KT CAVOK 06/04 Q1010 NOSIG
12-01-22 METAR LIMC 221020Z VRB02KT CAVOK 10/03 Q1011 NOSIG
12-01-22 METAR LIMC 221120Z VRB01KT CAVOK 12/03 Q1011 NOSIG
12-01-22 METAR LIMC 221220Z 18003KT 130V230 CAVOK 14/03 Q1010 NOSIG
12-01-22 METAR LIMC 221320Z 20003KT 180V260 CAVOK 15/03 Q1010 NOSIG
12-01-22 METAR LIMC 221420Z 22003KT CAVOK 15/04 Q1010 NOSIG
12-01-22 METAR LIMC 221520Z 22002KT CAVOK 13/06 Q1010 NOSIG
12-01-22 METAR LIMC 221620Z 00000KT CAVOK 11/05 Q1010 NOSIG
12-01-22 METAR LIMC 221720Z 13002KT CAVOK 09/06 Q1010 NOSIG
12-01-22 METAR LIMC 221820Z VRB01KT CAVOK 05/04 Q1011 NOSIG
12-01-22 METAR LIMC 221920Z 00000KT 7000 NSC 05/03 Q1011 NOSIG
12-01-22 METAR LIMC 222020Z 00000KT 7000 NSC 01/01 Q1011 NOSIG
12-01-22 METAR LIMC 222120Z VRB02KT 6000 NSC 04/02 Q1011 NOSIG
12-01-22 METAR LIMC 222220Z VRB02KT 4000 BR NSC 02/02 Q1011 NOSIG
12-01-22 METAR LIMC 222320Z 00000KT 4000 BR NSC M01/M01 Q1011 NOSIG
12-01-23 METAR LIMC 230020Z 00000KT 4000 BR NSC M01/M01 Q1011 NOSIG
12-01-23 METAR LIMC 230120Z 00000KT 4000 BR NSC M01/M01 Q1011 NOSIG
12-01-23 METAR LIMC 230220Z VRB02KT 4000 BR NSC M01/M02 Q1011 NOSIG
12-01-23 METAR LIMC 230320Z 00000KT 3000 BR NSC M01/M01 Q1011 NOSIG
12-01-23 METAR LIMC 230420Z VRB02KT 4000 BR NSC M02/M02 Q1012 NOSIG
12-01-23 METAR LIMC 230520Z VRB01KT 4000 BR NSC M03/M03 Q1012 NOSIG
12-01-23 METAR LIMC 230620Z VRB02KT 3500 R35L/1500N R35R/1200V1500N BR NSC M01/M01 Q1012 NOSIG
12-01-23 METAR LIMC 230720Z VRB02KT 1000 R35L/1500N R35R/1400V1500N BCFG NSC 00/M00 Q1013 NOSIG
12-01-23 METAR LIMC 230820Z 07003KT 020V100 1000 0700SE R35L/1400V1500N R35R/1300V1400N BCFG NSC 02/02 Q1014 NOSIG
12-01-23 METAR LIMC 230920Z VRB02KT 1300 1000SE R35L/1300V1400N R35R/1300V1400N BR NSC 04/03 Q1015 NOSIG
12-01-23 METAR LIMC 231020Z 09003KT 020V150 1300 1000SE R35L/1500N R35R/1500N BR NSC 07/03 Q1015 NOSIG
12-01-23 METAR LIMC 231120Z VRB02KT 2500 BR NSC 07/03 Q1015 NOSIG
12-01-23 METAR LIMC 231220Z VRB02KT 3000 BR FEW070 08/03 Q1014 NOSIG
12-01-23 METAR LIMC 231320Z VRB01KT 3000 BR NSC 08/03 Q1014 NOSIG
12-01-23 METAR LIMC 231420Z VRB01KT 3500 BR NSC 08/04 Q1013 NOSIG
12-01-23 METAR LIMC 231520Z 00000KT 3000 BR NSC 08/04 Q1013 NOSIG
12-01-23 METAR LIMC 231620Z 00000KT 3000 BR NSC 06/03 Q1013 NOSIG
12-01-23 METAR LIMC 231720Z 00000KT 2500 BR NSC 03/02 Q1014 NOSIG
12-01-23 METAR LIMC 231820Z VRB01KT 3000 BR NSC 00/M01 Q1014 NOSIG
12-01-23 METAR LIMC 231920Z VRB01KT 2900 1300E R35L/1500N R35R/0225V1500D BCFG NSC 01/01 Q1014 NOSIG
12-01-23 METAR LIMC 232020Z VRB02KT 2900 1300E R35L/1500N R35R/0650V1500U BCFG NSC M01/M01 Q1014 NOSIG
12-01-23 METAR LIMC 232120Z VRB02KT 2900 1300E R35L/1500N R35R/0225V1500U BCFG NSC M02/M02 Q1014 NOSIG
12-01-23 METAR LIMC 232220Z VRB01KT 2500 1200E R35L/1500N R35R/1200V1500N BCFG NSC M03/M04 Q1014 NOSIG
12-01-23 METAR LIMC 232320Z 01003KT 290V070 2000 BCFG NSC M04/M04 Q1014 NOSIG
12-01-24 METAR LIMC 240020Z VRB02KT 1800 BCFG NSC M04/M04 Q1014 NOSIG
12-01-24 METAR LIMC 240120Z 00000KT 1600 BCFG NSC M04/M05 Q1013 NOSIG
12-01-24 METAR LIMC 240220Z VRB02KT 1400 R35R/1500N BCFG NSC M04/M04 Q1013 NOSIG
12-01-24 METAR LIMC 240320Z 36003KT 340V070 2500 1200E MIFG NSC M04/M04 Q1013 NOSIG
12-01-24 METAR LIMC 240420Z 33002KT 2500 MIFG NSC M03/M04 Q1013 NOSIG
12-01-24 METAR LIMC 240520Z 34003KT 270V360 1500 R35L/1500N R35R/0700V1500N BR NSC M04/M05 Q1013 NOSIG
12-01-24 METAR LIMC 240620Z 00000KT 1200 0500W R35L/0400V1500U R35R/0150V1300U BCFG NSC M05/M05 Q1013 NOSIG
12-01-24 METAR LIMC 240720Z VRB02KT 1200 0900S R35L/1100V1500D R35R/1500N PRFG NSC M06/M06 Q1014 NOSIG
12-01-24 METAR LIMC 240820Z 18001KT 2500 1400S R35L/1500N R35R/1300V1500N BR NSC M01/M01 Q1014 NOSIG
12-01-24 METAR LIMC 240920Z 24003KT 0250 R35L/0350V1300U R35R/0200V0550U FG NSC 00/00 Q1014 NOSIG
12-01-24 METAR LIMC 241020Z 21002KT 0400 R35L/0325V1400U R35R/0550V1400N FG NSC 02/02 Q1015 NOSIG
12-01-24 METAR LIMC 241120Z 21003KT 3000 0800S R35L/0900V1500D R35R/1400V1500N PRFG NSC 03/02 Q1015 NOSIG
12-01-24 METAR LIMC 241220Z 20004KT 6000 2000S R35L/1400V1500N R35R/1500N NSC 04/03
12-01-24 METAR LIMC 241320Z 22003KT 180V240 8000 NSC 09/03 Q1014 NOSIG
12-01-24 METAR LIMC 241420Z 02007KT 340V060 CAVOK 12/M10 Q1014 NOSIG
12-01-24 METAR LIMC 241520Z 02006KT 360V060 CAVOK 12/M12 Q1014 NOSIG
12-01-24 METAR LIMC 241620Z NIL
12-01-24 METAR LIMC 241620Z 02005KT 340V050 CAVOK 11/M15 Q1015 NOSIG
12-01-24 METAR LIMC 241720Z 03004KT 360V070 CAVOK 09/M14 Q1016 NOSIG
12-01-24 METAR LIMC 241820Z VRB01KT CAVOK 05/M12 Q1017 NOSIG
12-01-24 METAR LIMC 241920Z 01004KT 340V040 CAVOK 07/M13 Q1017 NOSIG
12-01-24 METAR LIMC 242020Z VRB02KT CAVOK 04/M05 Q1018 NOSIG
12-01-24 METAR LIMC 242120Z VRB01KT CAVOK 03/M06 Q1018 NOSIG
12-01-24 METAR LIMC 242220Z 00000KT CAVOK M01/M07 Q1018 NOSIG
12-01-24 METAR LIMC 242320Z 35003KT CAVOK M02/M08 Q1019 NOSIG
12-01-25 METAR LIMC 250020Z 35002KT CAVOK M03/M08 Q1018 NOSIG
12-01-25 METAR LIMC 250120Z VRB02KT CAVOK M03/M07 Q1018 NOSIG
12-01-25 METAR LIMC 250220Z VRB01KT CAVOK M02/M07 Q1018 NOSIG
12-01-25 METAR LIMC 250320Z 36003KT 330V030 CAVOK M04/M07 Q1018 NOSIG
12-01-25 METAR LIMC 250420Z 00000KT CAVOK M06/M08 Q1018 NOSIG
12-01-25 METAR LIMC 250520Z 35003KT 330V080 CAVOK M05/M08 Q1019 NOSIG
12-01-25 METAR LIMC 250620Z 04003KT 330V080 CAVOK M02/M08 Q1019 NOSIG
12-01-25 METAR LIMC 250720Z 35003KT CAVOK M03/M08 Q1020 NOSIG
12-01-25 METAR LIMC 250820Z VRB02KT CAVOK 02/M06 Q1020 NOSIG
12-01-25 METAR LIMC 250920Z VRB02KT CAVOK 06/M08 Q1020 NOSIG
12-01-25 METAR LIMC 251020Z 00000KT CAVOK 08/M10 Q1020 NOSIG
12-01-25 METAR LIMC 251120Z 00000KT CAVOK 09/M10 Q1020 NOSIG
12-01-25 METAR LIMC 251420Z NIL
12-01-25 METAR LIMC 251420Z VRB02KT CAVOK 09/M10 Q1018 NOSIG
12-01-25 METAR LIMC 251520Z VRB02KT CAVOK 09/M09 Q1018 NOSIG
12-01-25 METAR LIMC 251620Z 14002KT CAVOK 06/M09 Q1018 NOSIG
12-01-25 METAR LIMC 251720Z 00000KT CAVOK 05/M07 Q1018 NOSIG
12-01-25 METAR LIMC 251820Z VRB01KT CAVOK M00/M08 Q1018 NOSIG
12-01-25 METAR LIMC 251920Z VRB01KT CAVOK M02/M07 Q1019 NOSIG
12-01-25 METAR LIMC 252020Z 06003KT 010V080 CAVOK M02/M07 Q1019 NOSIG
12-01-25 METAR LIMC 252120Z 35002KT CAVOK M04/M07 Q1019 NOSIG
12-01-25 METAR LIMC 252220Z VRB02KT CAVOK M04/M07 Q1019 NOSIG
12-01-25 METAR LIMC 252320Z 34004KT CAVOK M05/M08 Q1019 NOSIG
12-01-26 METAR LIMC 260020Z 35002KT CAVOK M05/M08 Q1019 NOSIG
12-01-26 METAR LIMC 260120Z 35003KT CAVOK M03/M08 Q1019 NOSIG
12-01-26 METAR LIMC 260220Z VRB02KT CAVOK M05/M08 Q1019 NOSIG
12-01-26 METAR LIMC 260320Z 35002KT CAVOK M06/M08 Q1019 NOSIG
12-01-26 METAR LIMC 260420Z 36003KT CAVOK M05/M07 Q1019 NOSIG
12-01-26 METAR LIMC 260520Z 35003KT CAVOK M03/M06 Q1019 NOSIG
12-01-26 METAR LIMC 260620Z 00000KT CAVOK M05/M08 Q1019 NOSIG
12-01-26 METAR LIMC 260720Z 34003KT 300V050 CAVOK M03/M06 Q1020 NOSIG
12-01-26 METAR LIMC 260820Z 35003KT 340V050 9999 SCT050 M01/M05 Q1020 NOSIG
12-01-26 METAR LIMC 260920Z VRB01KT 9999 SCT040 03/M06 Q1020 NOSIG
12-01-26 METAR LIMC 261020Z VRB03KT 9999 FEW060 05/M07 Q1021 NOSIG
12-01-26 METAR LIMC 261120Z 13003KT 070V190 9999 FEW080 06/M07 Q1020 NOSIG
12-01-26 METAR LIMC 261220Z 11003KT 360V160 9999 FEW080 07/M07 Q1020 NOSIG
12-01-26 METAR LIMC 261320Z VRB02KT CAVOK 07/M08 Q1019 NOSIG
12-01-26 METAR LIMC 261420Z 17002KT CAVOK 07/M07 Q1019 NOSIG
12-01-26 METAR LIMC 261520Z 18002KT CAVOK 06/M07 Q1019 NOSIG
12-01-26 METAR LIMC 261620Z 15002KT CAVOK 04/M07 Q1019 NOSIG
12-01-26 METAR LIMC 261720Z 00000KT CAVOK 02/M06 Q1019 NOSIG
12-01-26 METAR LIMC 261820Z VRB02KT CAVOK M03/M07 Q1020 NOSIG
12-01-26 METAR LIMC 261920Z VRB02KT CAVOK M01/M06 Q1020 NOSIG
12-01-26 METAR LIMC 262020Z VRB01KT CAVOK M04/M07 Q1021 NOSIG
12-01-26 METAR LIMC 262120Z VRB03KT CAVOK 00/M05 Q1021 NOSIG
12-01-26 METAR LIMC 262220Z 35003KT 330V090 CAVOK M04/M07 Q1022 NOSIG
12-01-26 METAR LIMC 262320Z 35003KT CAVOK M04/M07 Q1022 NOSIG
12-01-27 METAR LIMC 270020Z 35004KT CAVOK M03/M07 Q1022 NOSIG
12-01-27 METAR LIMC 270120Z 34003KT CAVOK M05/M07 Q1022 NOSIG
12-01-27 METAR LIMC 270220Z 35003KT CAVOK M03/M06 Q1023 NOSIG
12-01-27 METAR LIMC 270320Z 35003KT CAVOK M04/M06 Q1023 NOSIG
12-01-27 METAR LIMC 270420Z 34003KT 330V070 9999 SCT050 M04/M06 Q1023 NOSIG
12-01-27 METAR LIMC 270520Z 34003KT 9999 BKN050 M02/M04 Q1024 NOSIG
12-01-27 METAR LIMC 270620Z 34002KT 9999 BKN060 M00/M04 Q1024 NOSIG
12-01-27 METAR LIMC 270720Z VRB02KT 8000 BKN060 M00/M03 Q1025 NOSIG
12-01-27 METAR LIMC 270820Z 06003KT 320V080 8000 BKN050 01/M03 Q1025 NOSIG
12-01-27 METAR LIMC 270920Z VRB01KT 8000 BKN050 02/M03 Q1025 NOSIG
12-01-27 METAR LIMC 271020Z 00000KT 8000 BKN050 04/M04 Q1026 NOSIG
12-01-27 METAR LIMC 271120Z 00000KT 8000 BKN050 05/M03 Q1025 NOSIG
12-01-27 METAR LIMC 271220Z VRB01KT 8000 BKN060 05/M03 Q1025 NOSIG
12-01-27 METAR LIMC 271320Z VRB01KT 9999 BKN060 05/M03 Q1024 NOSIG
12-01-27 METAR LIMC 271420Z VRB01KT 9999 BKN060 05/M03 Q1024 NOSIG
12-01-27 METAR LIMC 271520Z 15002KT 9999 BKN060 05/M02 Q1024 NOSIG
12-01-27 METAR LIMC 271620Z 15001KT 9999 BKN060 04/M02 Q1024 NOSIG
12-01-27 METAR LIMC 271720Z 00000KT 9999 BKN060 04/M02 Q1025 NOSIG
12-01-27 METAR LIMC 271820Z 00000KT 9999 BKN060 03/M02 Q1025 NOSIG
12-01-27 METAR LIMC 271920Z 00000KT 9999 BKN070 03/M02 Q1025 NOSIG
12-01-27 METAR LIMC 272020Z 00000KT 9999 BKN070 03/M02 Q1025 NOSIG
12-01-27 METAR LIMC 272120Z VRB02KT 9999 BKN060 02/M02 Q1026 NOSIG
12-01-27 METAR LIMC 272220Z VRB02KT 9999 BKN060 02/M02 Q1026 NOSIG
12-01-27 METAR LIMC 272320Z 36003KT 330V060 9999 BKN050 02/M01 Q1026 NOSIG
12-01-28 METAR LIMC 280020Z 34001KT 9999 BKN050 02/M01 Q1025 NOSIG
12-01-28 METAR LIMC 280120Z 34001KT 9999 BKN050 02/M01 Q1026 NOSIG
12-01-28 METAR LIMC 280220Z 34001KT 9999 BKN050 02/M01 Q1025 NOSIG
12-01-28 METAR LIMC 280320Z VRB02KT 9999 BKN050 02/M01 Q1025 NOSIG
12-01-28 METAR LIMC 280420Z VRB02KT 9999 BKN050 02/M01 Q1025 NOSIG
12-01-28 METAR LIMC 280520Z 34002KT 9999 BKN050 02/M01 Q1025 NOSIG
12-01-28 METAR LIMC 280620Z VRB02KT 9999 OVC034 02/M01 Q1025 NOSIG
12-01-28 METAR LIMC 280720Z VRB02KT 6000 DZ OVC034 03/00 Q1025 NOSIG
12-01-28 METAR LIMC 280820Z 01003KT 340V060 4000 DZ OVC022 03/01 Q1025 NOSIG
12-01-28 METAR LIMC 280920Z 03003KT 340V060 2500 -RA OVC022 03/02 Q1026 REDZ NOSIG
12-01-28 METAR LIMC 281020Z VRB02KT 2900 -RA SCT006 OVC020 03/02 Q1026 RERA NOSIG
12-01-28 METAR LIMC 281120Z 02002KT 2500 -RA BR SCT006 OVC013 03/02 Q1025 NOSIG
12-01-28 METAR LIMC 281220Z VRB01KT 2500 DZ BR SCT006 OVC013 03/02 Q1024 NOSIG
12-01-28 METAR LIMC 281320Z VRB02KT 2500 DZ BR SCT006 OVC013 03/02 Q1024 NOSIG
12-01-28 METAR LIMC 281420Z 05003KT 300V090 2000 DZ BR BKN005 OVC013 02/01 Q1024 NOSIG
12-01-28 METAR LIMC 281520Z VRB02KT 1500 RA BR BKN005 OVC013 02/01 Q1023 NOSIG
12-01-28 METAR LIMC 281620Z 06003KT 1000 R35L/1500N R35R/1500N RASN BKN003 OVC010 01/01 Q1023 NOSIG
12-01-28 METAR LIMC 281720Z 35002KT 0800 R35L/1500N R35R/1200V1300N SG BKN002 OVC010 00/00 Q1023 RERASN NOSIG
12-01-28 METAR LIMC 281820Z 02003KT 1200 R35L/1500N R35R/1500N SN BKN003 OVC010 01/01 Q1023 RESG NOSIG
12-01-28 METAR LIMC 281920Z 03003KT 1100 R35L/1500N R35R/1500N +SN BKN003 OVC010 01/00 Q1023 NOSIG
12-01-28 METAR LIMC 282020Z 01003KT 1100 R35R/1500N SN BKN002 OVC010 01/00 Q1023
12-01-28 METAR LIMC 282120Z 36004KT 1100 R35R/1500N SN BKN002 OVC010 01/01 Q1023
12-01-28 METAR LIMC 282220Z 34003KT 0900 R35L/1500N SN BKN002 OVC010 00/00 Q1023
12-01-28 METAR LIMC 282320Z 35003KT 1500 SN BKN002 OVC010 00/00 Q1023 NOSIG
12-01-29 METAR LIMC 290020Z 34003KT 2500 -SN BKN002 OVC010 00/00 Q1022 8529//99 NOSIG
12-01-29 METAR LIMC 290120Z 35003KT 330V040 3000 -SNRA BKN003 OVC010 01/01 Q1022 3529//95 8529//95 NOSIG
12-01-29 METAR LIMC 290220Z 34004KT 4000 -RASN BKN004 OVC010 01/00 Q1022 3529//95
12-01-29 METAR LIMC 290320Z 33004KT 5000 -RASN BKN012 OVC020 01/01 Q1021 3529//95
12-01-29 METAR LIMC 290420Z 34005KT 6000 BKN025 OVC040 01/01 Q1021 3529//95 8529//95
12-01-29 METAR LIMC 290520Z 32006KT 7000 DZ BKN025 OVC040 01/01 Q1021 3529//95
12-01-29 METAR LIMC 290620Z 32004KT 9000 -RA BKN020 OVC040 01/01 Q1022 3529//95
12-01-29 METAR LIMC 290720Z 34003KT 310V050 9000 -RA BKN020 OVC040 01/01 Q1022
12-01-29 METAR LIMC 290820Z 33004KT 320V020 9000 -RA BKN020 OVC040 01/01 Q1022
12-01-29 METAR LIMC 290920Z 31004KT 9000 BKN020 OVC040 01/01 Q1022 1719//77 6719//95
12-01-29 METAR LIMC 291020Z 33003KT 310V050 9000 BKN020 OVC040 01/01 Q1022 NOSIG
12-01-29 METAR LIMC 291120Z VRB01KT 9000 BKN020 OVC040 02/01 Q1022 NOSIG
12-01-29 METAR LIMC 291220Z 00000KT 9000 SCT025 OVC050 03/01 Q1022 NOSIG
12-01-29 METAR LIMC 291320Z 31002KT 9999 BKN020 OVC050 03/01 Q1021 NOSIG
12-01-29 METAR LIMC 291420Z 32001KT 9000 FEW020 OVC050 03/02 Q1021 NOSIG
12-01-29 METAR LIMC 291520Z VRB02KT 8000 FEW020 OVC050 02/02 Q1022 NOSIG
12-01-29 METAR LIMC 291620Z 00000KT 4500 BR FEW020 OVC050 02/01 Q1022 NOSIG
12-01-29 METAR LIMC 291720Z 21001KT 4000 BR SCT020 BKN050 01/01 Q1022 NOSIG
12-01-29 METAR LIMC 291820Z 00000KT 5000 BR BKN050 01/01 Q1023 NOSIG
12-01-29 METAR LIMC 291920Z 06003KT 330V070 4000 R35L/0650V1500D R35R/1200V1500D BCFG BKN060 01/00 Q1023 NOSIG
12-01-29 METAR LIMC 292020Z VRB02KT 2000 BCFG SCT050 M01/M01 Q1023 NOSIG
12-01-29 METAR LIMC 292120Z VRB02KT 9999 SCT050 01/M01 Q1023 NOSIG
12-01-29 METAR LIMC 292220Z VRB02KT 9999 SCT050 01/M01 Q1024 NOSIG
12-01-29 METAR LIMC 292320Z VRB02KT 9999 SCT050 00/M01 Q1024 NOSIG
12-01-30 METAR LIMC 300020Z VRB02KT 9999 SCT050 00/M01 Q1025 NOSIG
12-01-30 METAR LIMC 300120Z 05001KT 9999 SCT050 M00/M01 Q1025 NOSIG
12-01-30 METAR LIMC 300220Z 07001KT 9999 SCT050 M00/M02 Q1025 NOSIG
12-01-30 METAR LIMC 300320Z 00000KT 9999 SCT050 M00/M02 Q1025 NOSIG
12-01-30 METAR LIMC 300420Z VRB02KT 9999 SCT050 M01/M02 Q1025 NOSIG
12-01-30 METAR LIMC 300520Z 00000KT 9999 SCT050 M01/M02 Q1025 NOSIG
12-01-30 METAR LIMC 300620Z 34003KT 310V040 9999 SCT050 M01/M02 Q1025 NOSIG
12-01-30 METAR LIMC 300720Z 00000KT 9999 BKN050 M00/M04 Q1025 NOSIG
12-01-30 METAR LIMC 300820Z 00000KT 9999 BKN050 01/M04 Q1025 NOSIG
12-01-30 METAR LIMC 300920Z VRB01KT 9999 BKN050 02/M06 Q1025 NOSIG
12-01-30 METAR LIMC 301020Z VRB02KT CAVOK 02/M05 Q1025 NOSIG
12-01-30 METAR LIMC 301120Z VRB02KT CAVOK 02/M05 Q1025 NOSIG
12-01-30 METAR LIMC 301220Z VRB01KT CAVOK 03/M06 Q1024 NOSIG
12-01-30 METAR LIMC 301320Z VRB02KT CAVOK 03/M05 Q1024 NOSIG
12-01-30 METAR LIMC 301420Z VRB02KT CAVOK 02/M05 Q1023 NOSIG
12-01-30 METAR LIMC 301520Z 25003KT 9999 BKN080 02/M05 Q1023 NOSIG
12-01-30 METAR LIMC 301620Z 22002KT 9999 BKN080 02/M04 Q1023 NOSIG
12-01-30 METAR LIMC 301720Z 25002KT 7000 BKN080 01/M05 Q1023 NOSIG
12-01-30 METAR LIMC 301820Z 22002KT 9999 BKN080 01/M04 Q1024 NOSIG
12-01-30 METAR LIMC 301920Z 25002KT 9999 BKN080 01/M04 Q1024 NOSIG
12-01-30 METAR LIMC 302020Z VRB01KT 9999 BKN060 01/M04 Q1024 NOSIG
12-01-30 METAR LIMC 302120Z 34004KT 320V020 9999 SG OVC030 00/M02 Q1024 NOSIG
12-01-30 METAR LIMC 302220Z NIL
12-01-30 METAR LIMC 302220Z 33005KT 1500 +SN OVC020 M00/M01 Q1023 NOSIG
12-01-30 METAR LIMC 302320Z 33005KT 300V360 5000 -SG OVC040 00/M01 Q1023 NOSIG
12-01-31 METAR LIMC 310020Z 34005KT 7000 OVC050 M00/M01 Q1023 NOSIG
12-01-31 METAR LIMC 310120Z 36003KT 9999 BKN050 M00/M02 Q1022 NOSIG
12-01-31 METAR LIMC 310220Z 34003KT 9999 OVC050 M01/M02 Q1022 NOSIG
12-01-31 METAR LIMC 310320Z 35002KT 9999 OVC050 M01/M02 Q1021 NOSIG
12-01-31 METAR LIMC 310420Z 00000KT 9999 OVC050 M01/M02 Q1021 NOSIG
12-01-31 METAR LIMC 310520Z VRB02KT 9999 BKN040 M01/M02 Q1021 NOSIG
12-01-31 METAR LIMC 310620Z VRB02KT 9999 BKN040 M00/M03 Q1021 NOSIG
12-01-31 METAR LIMC 310720Z VRB02KT 9999 BKN050 M01/M06 Q1021 NOSIG
12-01-31 METAR LIMC 310820Z 04003KT 310V080 9999 BKN070 M00/M07 Q1021 NOSIG
12-01-31 METAR LIMC 310920Z VRB02KT 3000 SN BR OVC060 M02/M04 Q1021 NOSIG
12-01-31 METAR LIMC 311020Z VRB02KT 3000 SN BR OVC060 M02/M03 Q1021 NOSIG
12-01-31 METAR LIMC 311120Z 02005KT 340V050 3000 -SN BR OVC060 M01/M03 Q1021 NOSIG
12-01-31 METAR LIMC 311220Z 04004KT 350V080 6000 -SN OVC060 M01/M03 Q1020 NOSIG
12-01-31 METAR LIMC 311320Z 07004KT 010V100 4000 -SN BR BKN025 OVC060 M01/M05 Q1020 NOSIG
12-01-31 METAR LIMC 311420Z 08005KT 040V100 6000 SCT025 OVC050 M01/M05 Q1020 NOSIG
12-01-31 METAR LIMC 311520Z VRB02KT 7000 SCT025 OVC050 M01/M05 Q1019 NOSIG
12-01-31 METAR LIMC 311620Z 31001KT 1500 SN BKN015 OVC050 M02/M03 Q1020 NOSIG
12-01-31 METAR LIMC 311720Z VRB01KT 1500 SN SCT006 OVC030 M02/M03 Q1020 NOSIG
12-01-31 METAR LIMC 311820Z 15002KT 2500 -SN SCT015 OVC025 M03/M03 Q1020 NOSIG
12-01-31 METAR LIMC 311920Z 00000KT 2000 SN SCT015 OVC025 M03/M03 Q1020 R35R/290395 R35L/SNOCLO NOSIG
12-01-31 METAR LIMC 312020Z 00000KT 2000 SN SCT015 OVC025 M03/M03 Q1020 8529//95 3529//95 NOSIG
12-01-31 METAR LIMC 312120Z VRB01KT 2000 -SN SCT015 OVC025 M03/M03 Q1020 8529//95
12-01-31 METAR LIMC 312220Z 00000KT 4000 -SN BR SCT020 OVC060 M03/M03 Q1020 8529//95
12-01-31 METAR LIMC 312320Z 00000KT 4000 -SN BR SCT020 OVC060 M03/M04 Q1019
12-02-01 METAR LIMC 010020Z 23002KT 4000 BR SCT020 OVC060 M03/M03 Q1018 8529//95 3529//95 NOSIG
12-02-01 METAR LIMC 010120Z 22001KT 4000 BR SCT020 OVC060 M03/M03 Q1018 8529//95
12-02-01 METAR LIMC 010220Z 21001KT 4000 BR SCT020 OVC060 M03/M03 Q1018 8529//95
12-02-01 METAR LIMC 010320Z 18002KT 3500 BR SCT020 OVC060 M03/M03 Q1017 8529//95
12-02-01 METAR LIMC 010420Z 20002KT 4000 BR SCT020 OVC060 M04/M04 Q1017 8529//95
12-02-01 METAR LIMC 010520Z 18002KT 4000 BR SCT020 OVC060 M04/M04 Q1017 8529//95
12-02-01 METAR LIMC 010620Z 21003KT 4000 BR BKN008 OVC060 M04/M04 Q1017 8529//95
12-02-01 METAR LIMC 010720Z 20003KT 2500 -SN BR BKN008 OVC060 M04/M05 Q1017 8529//95
12-02-01 METAR LIMC 010820Z 23004KT 2000 BR BKN008 OVC060 M04/M05 Q1017 8529//95
12-02-01 METAR LIMC 010920Z 22002KT 3000 BR BKN008 OVC060 M03/M04 Q1017 8529//95
12-02-01 METAR LIMC 011020Z 23003KT 3000 BR BKN008 OVC060 M03/M04 Q1017 8529//95
12-02-01 METAR LIMC 011120Z 23004KT 3000 BR BKN008 OVC060 M03/M05 Q1016 8529//95
12-02-01 METAR LIMC 011220Z 22002KT 4000 BR BKN008 OVC060 M03/M04 Q1016 3529//95 8529//95 NOSIG
12-02-01 METAR LIMC 011320Z NIL
12-02-01 METAR LIMC 011320Z VRB02KT 2000 -SN BR BKN008 OVC040 M03/M04 Q1015 3529//95
12-02-01 METAR LIMC 011420Z 00000KT 2000 -RASN BR BKN008 OVC040 M02/M03 Q1015 3529//95 8529//95 NOSIG
12-02-01 METAR LIMC 011520Z 15001KT 1500 -RASN BR BKN008 OVC040 M02/M03 Q1015
12-02-01 METAR LIMC 011620Z 00000KT 1500 -SN BR BKN008 OVC040 M02/M03 Q1015 3529//95
12-02-01 METAR LIMC 011720Z 00000KT 1500 SN BR BKN008 OVC040 M03/M03 Q1015 3529//95
12-02-01 METAR LIMC 011820Z 00000KT 1300 R35L/1500N SG BR SCT006 OVC020 M03/M03 Q1015 RESN 3529//95 8529//95 NOSIG
12-02-01 METAR LIMC 011920Z 00000KT 1200 R35R/1500N SN BR SCT006 OVC020 M03/M03 Q1016 R35R/590295 R35L/SNOCLO NOSIG
12-02-01 METAR LIMC 012020Z 22001KT 1200 R35L/1500N R35R/1500N SN BR SCT006 OVC020 M03/M03 Q1016 35590193 85590395 NOSIG
12-02-01 METAR LIMC 012120Z 34002KT 1200 R35L/1500N R35R/1500N SN BR BKN004 OVC020
12-02-01 METAR LIMC 012220Z 33003KT 1200 R35L/1500N R35R/1500N SN BR BKN004 OVC020
12-02-01 METAR LIMC 012320Z 34002KT 1200 R35L/1500N R35R/1500N SN BR BKN004 OVC020 M03/M03 Q1017 35590291 85590192 NOSIG
12-02-02 METAR LIMC 020020Z VRB01KT 1200 R35L/1500N R35R/1500N SN BR BKN004 OVC020 M02/M03 Q1017 35590291 85590192 NOSIG
12-02-02 METAR LIMC 020120Z 00000KT 1200 R35L/1500N SN BR BKN004 OVC020 M02/M02 Q1017 3529//95 8529//95 NOSIG
12-02-02 METAR LIMC 020220Z 18003KT 0900 R35L/1500N SN FG BKN004 OVC020 M03/M03
12-02-02 METAR LIMC 020320Z 16003KT 0900 R35L/1500N SN FG BKN004 OVC020 M03/M03
12-02-02 METAR LIMC 020420Z 00000KT 1600 SN BR BKN004 OVC020 M04/M04 Q1017 3529//95 8529//95 NOSIG
12-02-02 METAR LIMC 020720Z 36002KT 1500 -SN BR BKN006 OVC020 M04/M04 Q1018 3529//95 85590195 NOSIG
12-02-02 METAR LIMC 020820Z 34002KT 1500 R35L/1500N R35R/1300V1500U -SN BR BKN006 OVC020 M03/M03 Q1018 3529//95 85590195 NOSIG
12-02-02 METAR LIMC 020920Z 00000KT 1400 R35L/1300V1500U R35R/1400V1500N SN BR BKN006 OVC020 M03/M03 Q1019 3529//95 85590195 NOSIG
12-02-02 METAR LIMC 021020Z 00000KT 1800 R35L/1500N R35R/0900V1400U -SN BR BKN006 OVC020 M02/M02 Q1019 RESN 3519//95 8529//94 NOSIG
12-02-02 METAR LIMC 021120Z 00000KT 1800 R35L/1300V1500N R35R/1000V1500D -SN BR BKN006 OVC020 M02/M02 Q1019 3519//95 8529//94 NOSIG
12-02-02 METAR LIMC 021220Z 00000KT 1800 R35L/1500N R35R/1000V1500D SN BR BKN006
12-02-02 METAR LIMC 021320Z VRB01KT 1500 R35R/1000V1500N SN BR BKN006 OVC020 M01/M02 Q1019 3519//95 8529//94 NOSIG
12-02-02 METAR LIMC 021420Z 00000KT 3800 -SN BR SCT014 OVC030 M01/M02 Q1019
12-02-02 METAR LIMC 021520Z 00000KT 3500 BR FEW004 SCT014 OVC045 M02/M03 Q1019
12-02-02 METAR LIMC 021620Z 34002KT 2000 -SN SCT010 OVC045 M02/M03 Q1019 3529//95
12-02-02 METAR LIMC 021720Z VRB01KT 3000 -SN SCT010 OVC045 M02/M03 Q1019 3529//95
12-02-02 METAR LIMC 021820Z 00000KT 4000 -SN SCT011 OVC045 M03/M04 Q1020 3529//95
12-02-02 METAR LIMC 021920Z 00000KT 6000 -SN SCT011 OVC045 M03/M04 Q1020 3529//95
12-02-02 METAR LIMC 022120Z VRB02KT 9000 SCT015 BKN050 M03/M05 Q1020 NOSIG
12-02-02 METAR LIMC 022220Z 35003KT 9000 FEW015 BKN050 M04/M05 Q1020 NOSIG
12-02-02 METAR LIMC 022320Z 34003KT 9999 SCT015 BKN050 M04/M05 Q1020 NOSIG
12-02-03 METAR LIMC 030020Z 35001KT 9999 SCT015 BKN050 M04/M06 Q1020 NOSIG
12-02-03 METAR LIMC 030120Z 36002KT 9999 SCT015 BKN050 M04/M06 Q1020 NOSIG
12-02-03 METAR LIMC 030220Z 00000KT 9999 FEW015 BKN050 M06/M06 Q1019 NOSIG
12-02-03 METAR LIMC 030320Z 00000KT 9999 FEW015 BKN050 M06/M06 Q1019 NOSIG
12-02-03 METAR LIMC 030420Z 00000KT 9999 FEW015 BKN050 M06/M06 Q1018 NOSIG
12-02-03 METAR LIMC 030520Z 00000KT 9999 FEW015 BKN050 M06/M06 Q1018 NOSIG
12-02-03 METAR LIMC 030620Z VRB02KT 8000 BKN055 M04/M07 Q1019 NOSIG
12-02-03 METAR LIMC 030720Z VRB02KT 8000 BKN055 M05/M10 Q1019 NOSIG
12-02-03 METAR LIMC 030820Z VRB02KT 9999 SCT025 BKN045 M04/M11 Q1019 NOSIG
12-02-03 METAR LIMC 030920Z VRB01KT CAVOK M03/M12 Q1020 NOSIG
12-02-03 METAR LIMC 031020Z VRB02KT CAVOK M03/M14 Q1020 NOSIG
12-02-03 METAR LIMC 031120Z 00000KT CAVOK M01/M13 Q1019 NOSIG
12-02-03 METAR LIMC 031220Z VRB01KT CAVOK M02/M13 Q1018 NOSIG
12-02-03 METAR LIMC 031320Z 15003KT CAVOK M03/M13 Q1018 NOSIG
12-02-03 METAR LIMC 031420Z 15002KT CAVOK M03/M13 Q1018 NOSIG
12-02-03 METAR LIMC 031520Z 16003KT CAVOK M04/M13 Q1018 NOSIG
12-02-03 METAR LIMC 031620Z 17002KT CAVOK M04/M13 Q1018 NOSIG
12-02-03 METAR LIMC 031720Z 00000KT CAVOK M06/M12 Q1019 NOSIG
12-02-03 METAR LIMC 031820Z 00000KT CAVOK M09/M12 Q1020 NOSIG
12-02-03 METAR LIMC 031920Z 00000KT CAVOK M07/M12 Q1020 NOSIG
12-02-03 METAR LIMC 032020Z VRB01KT CAVOK M10/M12 Q1020 NOSIG
12-02-03 METAR LIMC 032120Z VRB02KT CAVOK M10/M12 Q1021 NOSIG
12-02-03 METAR LIMC 032220Z VRB02KT 9999 SCT040 M10/M12 Q1020 NOSIG
12-02-03 METAR LIMC 032320Z 35002KT 9999 SCT040 M11/M14 Q1020 NOSIG
12-02-04 METAR LIMC 040020Z VRB02KT 9999 SCT040 M14/M16 Q1020 NOSIG
12-02-04 METAR LIMC 040120Z 00000KT 9999 SCT040 M14/M16 Q1020 NOSIG
12-02-04 METAR LIMC 040220Z 00000KT 9999 FEW040 M15/M16 Q1019 NOSIG
12-02-04 METAR LIMC 040320Z 00000KT CAVOK M16/M17 Q1019 NOSIG
12-02-04 METAR LIMC 040420Z VRB01KT CAVOK M14/M15 Q1019 NOSIG
12-02-04 METAR LIMC 040520Z 03001KT CAVOK M16/M17 Q1018 NOSIG
12-02-04 METAR LIMC 040620Z 35002KT CAVOK M13/M14 Q1019 NOSIG
12-02-04 METAR LIMC 040720Z VRB01KT 9000 BKN080 M12/M13 Q1020 NOSIG
12-02-04 METAR LIMC 040820Z 00000KT 7000 SCT080 M11/M13 Q1020 NOSIG
12-02-04 METAR LIMC 040920Z 00000KT 7000 FEW080 M07/M11 Q1021 NOSIG
12-02-04 METAR LIMC 041020Z 00000KT 7000 NSC M00/M09 Q1021 NOSIG
12-02-04 METAR LIMC 041120Z VRB01KT 9000 SCT080 M03/M08 Q1021 NOSIG
12-02-04 METAR LIMC 041220Z 22002KT 9999 FEW090 M03/M10 Q1020 NOSIG
12-02-04 METAR LIMC 041320Z 21003KT CAVOK M03/M10 Q1020 NOSIG
12-02-04 METAR LIMC 041420Z VRB02KT CAVOK M03/M11 Q1020 NOSIG
12-02-04 METAR LIMC 041520Z 21002KT CAVOK M03/M11 Q1020 NOSIG
12-02-04 METAR LIMC 041620Z 23002KT CAVOK M04/M11 Q1021 NOSIG
12-02-04 METAR LIMC 041720Z VRB01KT CAVOK M05/M12 Q1021 NOSIG
12-02-04 METAR LIMC 041820Z 15001KT CAVOK M07/M12 Q1022 NOSIG
12-02-04 METAR LIMC 041920Z VRB02KT CAVOK M11/M13 Q1023 NOSIG
12-02-04 METAR LIMC 042020Z 00000KT CAVOK M11/M14 Q1024 NOSIG
12-02-04 METAR LIMC 042120Z 00000KT 7000 NSC M12/M14 Q1025 NOSIG
12-02-04 METAR LIMC 042220Z 35003KT CAVOK M12/M14 Q1025 NOSIG
12-02-04 METAR LIMC 042320Z 36002KT CAVOK M14/M16 Q1026 NOSIG
12-02-05 METAR LIMC 050020Z 36001KT CAVOK M14/M15 Q1026 NOSIG
12-02-05 METAR LIMC 050120Z 00000KT CAVOK M14/M15 Q1026 NOSIG
12-02-05 METAR LIMC 050220Z 00000KT CAVOK M16/M18 Q1025 NOSIG
12-02-05 METAR LIMC 050320Z 00000KT CAVOK M16/M18 Q1025 NOSIG
12-02-05 METAR LIMC 050420Z 34002KT CAVOK M14/M15 Q1025 NOSIG
12-02-05 METAR LIMC 050520Z 00000KT CAVOK M16/M17 Q1025 NOSIG
12-02-05 METAR LIMC 050620Z VRB01KT CAVOK M17/M19 Q1025 NOSIG
12-02-05 METAR LIMC 050720Z 36001KT 7000 BKN050 M12/M13 Q1026 NOSIG
12-02-05 METAR LIMC 050820Z VRB02KT 5000 BR BKN050 M08/M10 Q1026 NOSIG
12-02-05 METAR LIMC 050920Z VRB01KT 5000 BR SCT060 M05/M09 Q1025 NOSIG
12-02-05 METAR LIMC 051020Z 00000KT 5000 BR NSC M02/M09 Q1025 NOSIG
12-02-05 METAR LIMC 051120Z 00000KT 8000 FEW025 M02/M09 Q1024 NOSIG
12-02-05 METAR LIMC 051220Z 26002KT 9999 FEW030 M03/M10 Q1024 NOSIG
12-02-05 METAR LIMC 051320Z 00000KT 9999 FEW030 M03/M09 Q1024 NOSIG
12-02-05 METAR LIMC 051420Z 25002KT 9999 FEW030 M03/M10 Q1023 NOSIG
12-02-05 METAR LIMC 051520Z VRB02KT 9999 FEW030 M03/M10 Q1023 NOSIG
12-02-05 METAR LIMC 051620Z 16002KT CAVOK M05/M09 Q1023 NOSIG
12-02-05 METAR LIMC 051720Z 21002KT CAVOK M06/M09 Q1023 NOSIG
12-02-05 METAR LIMC 051820Z VRB01KT CAVOK M07/M10 Q1023 NOSIG
12-02-05 METAR LIMC 051920Z 00000KT CAVOK M07/M10 Q1024 NOSIG
12-02-05 METAR LIMC 052020Z 00000KT CAVOK M11/M12 Q1024 NOSIG
12-02-05 METAR LIMC 052120Z 00000KT CAVOK M12/M13 Q1024 NOSIG
12-02-05 METAR LIMC 052220Z 00000KT 8000 NSC M13/M14 Q1023 NOSIG
12-02-05 METAR LIMC 052320Z 00000KT 6000 NSC M14/M15 Q1023 NOSIG
12-02-06 METAR LIMC 060020Z 36001KT 5000 BR NSC M14/M15 Q1023 NOSIG
12-02-06 METAR LIMC 060120Z 35003KT 5000 BR NSC M14/M16 Q1023 NOSIG
12-02-06 METAR LIMC 060220Z 35002KT 5000 BR NSC M16/M17 Q1022 NOSIG
12-02-06 METAR LIMC 060320Z 03001KT 6000 NSC M17/M19 Q1022 NOSIG
12-02-06 METAR LIMC 060420Z 00000KT 6000 NSC M16/M17 Q1021 NOSIG
12-02-06 METAR LIMC 060520Z 00000KT 7000 NSC M18/M19 Q1021 NOSIG
12-02-06 METAR LIMC 060620Z 34003KT 8000 NSC M12/M13 Q1021 NOSIG
12-02-06 METAR LIMC 060720Z 34003KT 8000 NSC M13/M14 Q1021 NOSIG
12-02-06 METAR LIMC 060820Z 34003KT 8000 NSC M10/M11 Q1020 NOSIG
12-02-06 METAR LIMC 060920Z 00000KT 8000 NSC M05/M09 Q1020 NOSIG
12-02-06 METAR LIMC 061020Z VRB01KT CAVOK M04/M08 Q1020 NOSIG
12-02-06 METAR LIMC 061120Z 14002KT 8000 NSC M03/M08 Q1020 NOSIG
12-02-06 METAR LIMC 061220Z 15003KT 110V170 8000 NSC M03/M09 Q1019 NOSIG
12-02-06 METAR LIMC 061320Z 15003KT 8000 NSC M03/M08 Q1018 NOSIG
12-02-06 METAR LIMC 061420Z 14002KT 7000 NSC M03/M09 Q1017 NOSIG
12-02-06 METAR LIMC 061520Z VRB02KT 7000 NSC M04/M09 Q1017 NOSIG
12-02-06 METAR LIMC 061620Z 13003KT 080V150 7000 NSC M04/M09 Q1017 NOSIG
12-02-06 METAR LIMC 061720Z 00000KT 6000 NSC M07/M10 Q1017 NOSIG
12-02-06 METAR LIMC 061820Z 00000KT 6000 NSC M08/M10 Q1017 NOSIG
12-02-06 METAR LIMC 061920Z 35002KT 6000 NSC M09/M10 Q1016 NOSIG
12-02-06 METAR LIMC 062020Z 00000KT 8000 NSC M14/M15 Q1016 NOSIG
12-02-06 METAR LIMC 062120Z VRB01KT 8000 NSC M13/M14 Q1015 NOSIG
12-02-06 METAR LIMC 062220Z 00000KT 8000 NSC M14/M15 Q1015 NOSIG
12-02-06 METAR LIMC 062320Z 00000KT 6000 NSC M15/M16 Q1015 NOSIG
12-02-07 METAR LIMC 070020Z 00000KT 6000 NSC M16/M18 Q1014 NOSIG
12-02-07 METAR LIMC 070120Z 01001KT 6000 NSC M16/M17 Q1014 NOSIG
12-02-07 METAR LIMC 070220Z 00000KT 6000 NSC M17/M19 Q1013 NOSIG
12-02-07 METAR LIMC 070320Z 00000KT 5000 BR NSC M17/M18 Q1013 NOSIG
12-02-07 METAR LIMC 070420Z VRB02KT 4000 BR NSC M14/M16 Q1013 NOSIG
12-02-07 METAR LIMC 070520Z VRB01KT 4000 BR NSC M11/M13 Q1014 NOSIG
12-02-07 METAR LIMC 070620Z 34002KT 4000 BR BKN060 M10/M12 Q1014 NOSIG
12-02-07 METAR LIMC 070720Z 34003KT 4000 BR BKN070 M08/M10 Q1014 NOSIG
12-02-07 METAR LIMC 070820Z 34003KT 6000 SCT070 M07/M09 Q1014 NOSIG
12-02-07 METAR LIMC 070920Z VRB02KT 6000 BKN060 M04/M08 Q1014 NOSIG
12-02-07 METAR LIMC 071020Z VRB02KT 6000 BKN050 M02/M07 Q1014 NOSIG
12-02-07 METAR LIMC 071120Z VRB02KT 6000 BKN050 M02/M09 Q1015 NOSIG
12-02-07 METAR LIMC 071220Z VRB02KT 9000 SCT040 OVC070 M02/M07 Q1015 NOSIG
12-02-07 METAR LIMC 071320Z 23003KT 9000 BKN060 M02/M08 Q1014 NOSIG
12-02-07 METAR LIMC 071420Z 22002KT 9000 BKN060 M02/M07 Q1014 NOSIG
12-02-07 METAR LIMC 071520Z 19002KT 9000 BKN060 M02/M07 Q1014 NOSIG
12-02-07 METAR LIMC 071620Z VRB02KT 8000 SCT040 BKN080 M02/M08 Q1014 NOSIG
12-02-07 METAR LIMC 071720Z 13003KT 8000 SCT040 BKN080 M03/M08 Q1015 NOSIG
12-02-07 METAR LIMC 071820Z VRB02KT 8000 BKN070 M03/M07 Q1017 NOSIG
12-02-07 METAR LIMC 071920Z 35003KT 8000 BKN050 M03/M07 Q1018 NOSIG
12-02-07 METAR LIMC 072020Z 34003KT 8000 BKN050 M03/M06 Q1018 NOSIG
12-02-07 METAR LIMC 072120Z VRB02KT 8000 BKN050 M02/M07 Q1019 NOSIG
12-02-07 METAR LIMC 072220Z 34003KT 7000 BKN050 M03/M06 Q1019 NOSIG
12-02-07 METAR LIMC 072320Z 34004KT 7000 BKN050 M03/M06 Q1020 NOSIG
12-02-08 METAR LIMC 080020Z 34003KT 7000 BKN050 M02/M06 Q1021 NOSIG
12-02-08 METAR LIMC 080120Z 34003KT 320V020 7000 BKN050 M02/M05 Q1022 NOSIG
12-02-08 METAR LIMC 080220Z 34003KT 7000 BKN050 M02/M05 Q1022 NOSIG
12-02-08 METAR LIMC 080320Z 33003KT 7000 BKN050 M02/M05 Q1022 NOSIG
12-02-08 METAR LIMC 080420Z 00000KT 7000 BKN050 M01/M06 Q1023 NOSIG
12-02-08 METAR LIMC 080520Z 00000KT 7000 BKN050 M03/M05 Q1024 NOSIG
12-02-08 METAR LIMC 080620Z VRB02KT 8000 SCT080 M03/M05 Q1024 NOSIG
12-02-08 METAR LIMC 080720Z VRB01KT 8000 FEW080 M04/M06 Q1025 NOSIG
12-02-08 METAR LIMC 080820Z 36003KT 300V080 8000 NSC M04/M07 Q1025 NOSIG
12-02-08 METAR LIMC 080920Z 00000KT CAVOK M01/M06 Q1026 NOSIG
12-02-08 METAR LIMC 081020Z 00000KT CAVOK 05/M05 Q1026 NOSIG
12-02-08 METAR LIMC 081120Z 23003KT CAVOK 02/M04 Q1026 NOSIG
12-02-08 METAR LIMC 081220Z VRB02KT CAVOK 03/M05 Q1026 NOSIG
12-02-08 METAR LIMC 081320Z 22002KT CAVOK 03/M05 Q1025 NOSIG
12-02-08 METAR LIMC 081420Z VRB02KT CAVOK 03/M05 Q1025 NOSIG
12-02-08 METAR LIMC 081520Z 22003KT CAVOK 02/M04 Q1025 NOSIG
12-02-08 METAR LIMC 081620Z 21001KT CAVOK 00/M05 Q1025 NOSIG
12-02-08 METAR LIMC 081720Z 00000KT CAVOK M01/M05 Q1025 NOSIG
12-02-08 METAR LIMC 081820Z VRB01KT CAVOK M03/M06 Q1026 NOSIG
12-02-08 METAR LIMC 081920Z 00000KT CAVOK M04/M06 Q1026 NOSIG
12-02-08 METAR LIMC 082020Z 00000KT CAVOK M06/M07 Q1026 NOSIG
12-02-08 METAR LIMC 082120Z 00000KT CAVOK M06/M07 Q1026 NOSIG
12-02-08 METAR LIMC 082220Z 35002KT CAVOK M09/M10 Q1027 NOSIG
12-02-08 METAR LIMC 082320Z VRB01KT CAVOK M08/M09 Q1027 NOSIG
12-02-09 METAR LIMC 090020Z VRB02KT CAVOK M07/M07 Q1026 NOSIG
12-02-09 METAR LIMC 090120Z 35003KT CAVOK M10/M11 Q1026 NOSIG
12-02-09 METAR LIMC 090220Z VRB01KT CAVOK M10/M10 Q1025 NOSIG
12-02-09 METAR LIMC 090320Z VRB01KT CAVOK M09/M10 Q1025 NOSIG
12-02-09 METAR LIMC 090420Z VRB01KT CAVOK M10/M11 Q1024 NOSIG
12-02-09 METAR LIMC 090520Z 35002KT 9000 FEW060 M08/M09 Q1024 NOSIG
12-02-09 METAR LIMC 090620Z 36002KT 8000 NSC M09/M09 Q1024 NOSIG
12-02-09 METAR LIMC 090720Z 35002KT 9000 NSC M08/M09 Q1024 NOSIG
12-02-09 METAR LIMC 090820Z 00000KT 8000 NSC M07/M08 Q1023 NOSIG
12-02-09 METAR LIMC 090920Z 00000KT 8000 NSC 01/M03 Q1023 NOSIG
12-02-09 METAR LIMC 091020Z 00000KT 8000 NSC 04/M04 Q1023 NOSIG
12-02-09 METAR LIMC 091120Z 24002KT 9000 NSC 02/M03 Q1021 NOSIG
12-02-09 METAR LIMC 091220Z 23002KT 9000 NSC 03/M04 Q1020 NOSIG
12-02-09 METAR LIMC 091320Z 22002KT CAVOK 03/M05 Q1019 NOSIG
12-02-09 METAR LIMC 091420Z VRB02KT CAVOK 03/M04 Q1018 NOSIG
12-02-09 METAR LIMC 091520Z VRB02KT CAVOK 03/M04 Q1017 NOSIG
12-02-09 METAR LIMC 091620Z 14002KT 8000 NSC 01/M04 Q1017 R35L/CLRD// R35R/CLRD// NOSIG
12-02-09 METAR LIMC 091720Z 00000KT 7000 NSC M01/M04 Q1017 NOSIG
12-02-09 METAR LIMC 091820Z 05003KT 330V090 6000 NSC M03/M04 Q1017 NOSIG
12-02-09 METAR LIMC 091920Z VRB01KT 7000 FEW060 M03/M05 Q1017 NOSIG
12-02-09 METAR LIMC 092020Z VRB02KT 7000 NSC M05/M05 Q1017 NOSIG
12-02-09 METAR LIMC 092120Z VRB01KT 6000 NSC M06/M06 Q1018 NOSIG
12-02-09 METAR LIMC 092220Z VRB02KT 6000 NSC M08/M08 Q1019 NOSIG
12-02-09 METAR LIMC 092320Z 05003KT 360V070 6000 NSC M01/M07 Q1020 NOSIG
12-02-10 METAR LIMC 100020Z 02009KT CAVOK 01/M17 Q1021 NOSIG
12-02-10 METAR LIMC 100120Z 01006KT 9999 FEW060 M00/M18 Q1022 NOSIG
12-02-10 METAR LIMC 100220Z 36005KT 9999 FEW060 M01/M19 Q1022 NOSIG
12-02-10 METAR LIMC 100320Z 12003KT 030V160 9999 SCT050 M03/M05 Q1022 NOSIG
12-02-10 METAR LIMC 100420Z 11003KT 8000 FEW050 M04/M05 Q1023 NOSIG
12-02-10 METAR LIMC 100520Z 12003KT 090V150 6000 BKN020 M03/M05 Q1024 NOSIG
12-02-10 METAR LIMC 100620Z VRB02KT 7000 SCT034 M04/M05 Q1024 NOSIG
12-02-10 METAR LIMC 100720Z 29002KT 7000 BKN034 M04/M06 Q1025 NOSIG
12-02-10 METAR LIMC 100820Z 34003KT 7000 SCT040 M03/M06 Q1025 NOSIG
12-02-10 METAR LIMC 100920Z VRB02KT 9999 FEW035 M02/M06 Q1024 NOSIG
12-02-10 METAR LIMC 101020Z 06003KT 360V160 9999 SCT030 M01/M08 Q1024 NOSIG
12-02-10 METAR LIMC 101120Z 11003KT 010V160 9999 FEW030 M01/M10 Q1024 NOSIG
12-02-10 METAR LIMC 101220Z VRB02KT 9000 SCT030 M01/M10 Q1023 NOSIG
12-02-10 METAR LIMC 101320Z NIL
12-02-10 METAR LIMC 101320Z 24003KT 210V270 9000 NSC M01/M09 Q1023 NOSIG
12-02-10 METAR LIMC 101420Z 22003KT 9000 NSC M02/M10 Q1022 NOSIG
12-02-10 METAR LIMC 101520Z 18004KT 9000 BKN090 M02/M09 Q1022 NOSIG
12-02-10 METAR LIMC 101620Z 14004KT 110V180 7000 BKN090 M03/M10 Q1021 NOSIG
12-02-10 METAR LIMC 101720Z 14002KT 8000 BKN090 M03/M10 Q1021 NOSIG
12-02-10 METAR LIMC 101820Z 15003KT 110V170 9999 BKN090 M03/M09 Q1021 NOSIG
12-02-10 METAR LIMC 101920Z 15004KT 9999 OVC090 M04/M07 Q1021 NOSIG
12-02-10 METAR LIMC 102020Z 15002KT 9999 OVC090 M05/M07 Q1021 NOSIG
12-02-10 METAR LIMC 102120Z 00000KT 5000 BR OVC090 M05/M07 Q1021 NOSIG
12-02-10 METAR LIMC 102220Z 29002KT 5000 BR OVC090 M05/M07 Q1020 NOSIG
12-02-10 METAR LIMC 102320Z 30003KT 280V340 5000 BR OVC090 M05/M07 Q1019 NOSIG
12-02-11 METAR LIMC 110020Z 29002KT 5000 BR OVC090 M06/M07 Q1019 NOSIG
12-02-11 METAR LIMC 110120Z 34001KT 5000 BR OVC090 M07/M08 Q1019 NOSIG
12-02-11 METAR LIMC 110220Z 01002KT 5000 BR BKN090 M08/M09 Q1018 NOSIG
12-02-11 METAR LIMC 110320Z 00000KT 7000 NSC M08/M09 Q1018 NOSIG
12-02-11 METAR LIMC 110420Z 00000KT 7000 NSC M08/M09 Q1018 NOSIG
12-02-11 METAR LIMC 110520Z 35001KT 7000 NSC M07/M08 Q1018 NOSIG
12-02-11 METAR LIMC 110620Z 00000KT 7000 NSC M06/M08 Q1018 NOSIG
12-02-11 METAR LIMC 110720Z 15001KT 6000 SCT070 M07/M09 Q1018 NOSIG
12-02-11 METAR LIMC 110820Z 14002KT 5000 BR BKN070 M05/M07 Q1019 NOSIG
12-02-11 METAR LIMC 110920Z VRB01KT 3000 BR BKN070 M04/M06 Q1020 NOSIG
12-02-11 METAR LIMC 111020Z VRB01KT 3000 BR BKN070 M03/M07 Q1020 NOSIG
12-02-11 METAR LIMC 111120Z 00000KT 4000 BR SCT090 M02/M08 Q1020 NOSIG
12-02-11 METAR LIMC 111220Z VRB02KT 5000 BR SCT090 M02/M07 Q1019 NOSIG
12-02-11 METAR LIMC 111320Z 22003KT 5000 BR SCT090 M02/M09 Q1019 NOSIG
12-02-11 METAR LIMC 111420Z 22002KT 5000 BR NSC M02/M10 Q1019 NOSIG
12-02-11 METAR LIMC 111520Z 20002KT 5000 BR SCT080 M02/M08 Q1019 NOSIG
12-02-11 METAR LIMC 111620Z VRB02KT 5000 BR BKN080 M03/M08 Q1020 NOSIG
12-02-11 METAR LIMC 111720Z 15002KT 5000 BR BKN090 M04/M08 Q1021 NOSIG
12-02-11 METAR LIMC 111820Z 17001KT 7000 BKN090 M04/M07 Q1021 NOSIG
12-02-11 METAR LIMC 111920Z 15002KT 8000 BKN090 M04/M07 Q1021 NOSIG
12-02-11 METAR LIMC 112020Z 00000KT 7000 BKN090 M04/M07 Q1022 NOSIG
12-02-11 METAR LIMC 112120Z 00000KT 7000 BKN070 M04/M07 Q1022 NOSIG
12-02-11 METAR LIMC 112220Z 00000KT 7000 BKN060 M05/M07 Q1022 NOSIG
12-02-11 METAR LIMC 112320Z 24002KT 6000 BKN050 M05/M07 Q1022 NOSIG
12-02-12 METAR LIMC 120020Z 29002KT 6000 FEW050 M06/M07 Q1021 NOSIG
12-02-12 METAR LIMC 120120Z 00000KT 6000 NSC M08/M09 Q1021 NOSIG
12-02-12 METAR LIMC 120220Z 00000KT 5000 BR NSC M10/M10 Q1021 NOSIG
12-02-12 METAR LIMC 120320Z 00000KT 5000 BR FEW060 M10/M11 Q1020 NOSIG
12-02-12 METAR LIMC 120420Z 00000KT 5000 BR FEW090 M09/M10 Q1021 NOSIG
12-02-12 METAR LIMC 120520Z 33001KT 5000 BR NSC M10/M11 Q1021 NOSIG
12-02-12 METAR LIMC 120620Z 35003KT 5000 BR NSC M10/M12 Q1020 NOSIG
12-02-12 METAR LIMC 120720Z 00000KT 5000 BR NSC M10/M12 Q1020 NOSIG
12-02-12 METAR LIMC 120820Z 09001KT 4000 BR NSC M07/M08 Q1020 NOSIG
12-02-12 METAR LIMC 120920Z 00000KT 4000 BR NSC M05/M07 Q1020 NOSIG
12-02-12 METAR LIMC 121020Z 00000KT 5000 BR SCT080 M03/M06 Q1021 NOSIG
12-02-12 METAR LIMC 121120Z VRB02KT 5000 BR SCT080 M02/M06 Q1020 NOSIG
12-02-12 METAR LIMC 121220Z VRB02KT 4000 BR SCT080 M02/M06 Q1020 NOSIG
12-02-12 METAR LIMC 121320Z 10003KT 4000 BR BKN080 M02/M06 Q1020 NOSIG
12-02-12 METAR LIMC 121420Z 10003KT 340V140 4000 BR BKN080 M02/M07 Q1020 NOSIG
12-02-12 METAR LIMC 121520Z 00000KT 4000 BR SCT070 M02/M07 Q1021 NOSIG
12-02-12 METAR LIMC 121620Z 21002KT 6000 BKN060 M02/M07 Q1021 NOSIG
12-02-12 METAR LIMC 121720Z 17001KT 4000 BR SCT070 M03/M07 Q1021 NOSIG
12-02-12 METAR LIMC 121820Z 19002KT 8000 FEW070 M04/M08 Q1022 NOSIG
12-02-12 METAR LIMC 121920Z 25003KT 8000 FEW070 M06/M09 Q1022 NOSIG
12-02-12 METAR LIMC 122020Z 00000KT 8000 FEW070 M07/M08 Q1022 NOSIG
12-02-12 METAR LIMC 122120Z 00000KT 8000 NSC M09/M11 Q1022 NOSIG
12-02-12 METAR LIMC 122220Z 00000KT 8000 NSC M09/M09 Q1023 NOSIG
12-02-12 METAR LIMC 122320Z 00000KT 6000 NSC M11/M12 Q1023 NOSIG
12-02-13 METAR LIMC 130020Z VRB01KT 6000 NSC M11/M12 Q1023 NOSIG
12-02-13 METAR LIMC 130120Z VRB02KT 6000 NSC M11/M13 Q1023 NOSIG
12-02-13 METAR LIMC 130220Z VRB01KT 6000 NSC M13/M14 Q1022 NOSIG
12-02-13 METAR LIMC 130320Z 35001KT 6000 NSC M13/M14 Q1021 NOSIG
12-02-13 METAR LIMC 130420Z VRB02KT 6000 NSC M13/M14 Q1021 NOSIG
12-02-13 METAR LIMC 130520Z 00000KT 6000 NSC M12/M13 Q1020 NOSIG
12-02-13 METAR LIMC 130620Z 35002KT 6000 NSC M11/M12 Q1020 NOSIG
12-02-13 METAR LIMC 130720Z VRB02KT 3500 BR NSC M11/M12 Q1020 NOSIG
12-02-13 METAR LIMC 130820Z 00000KT 3500 BR NSC M06/M08 Q1020 NOSIG
12-02-13 METAR LIMC 130920Z VRB02KT 3500 BR NSC M02/M06 Q1019 NOSIG
12-02-13 METAR LIMC 131020Z VRB01KT 4500 R35L/1500N R35R/1400V1500N BR NSC M01/M06 Q1019 NOSIG
12-02-13 METAR LIMC 131120Z 00000KT 8000 NSC 02/M07 Q1019 NOSIG
12-02-13 METAR LIMC 131220Z 00000KT CAVOK 02/M07 Q1018 NOSIG
12-02-13 METAR LIMC 131320Z 00000KT CAVOK 03/M07 Q1017 NOSIG
12-02-13 METAR LIMC 131420Z VRB01KT CAVOK 02/M07 Q1016 NOSIG
12-02-13 METAR LIMC 131520Z 23003KT 8000 NSC 01/M05 Q1016 NOSIG
12-02-13 METAR LIMC 131620Z 23002KT 7000 NSC M01/M05 Q1016 NOSIG
12-02-13 METAR LIMC 131720Z 22002KT 7000 NSC M01/M06 Q1016 NOSIG
12-02-13 METAR LIMC 131820Z 21001KT 7000 NSC M02/M05 Q1016 NOSIG
12-02-13 METAR LIMC 131920Z VRB02KT 7000 NSC M02/M06 Q1016 NOSIG
12-02-13 METAR LIMC 132020Z 00000KT 8000 NSC M03/M06 Q1016 NOSIG
12-02-13 METAR LIMC 132120Z 00000KT 8000 NSC M03/M06 Q1016 NOSIG
12-02-13 METAR LIMC 132220Z 00000KT 8000 NSC M03/M06 Q1016 NOSIG
12-02-13 METAR LIMC 132320Z 00000KT 8000 NSC M04/M06 Q1016 NOSIG
12-02-14 METAR LIMC 140020Z 00000KT 7000 NSC M04/M06 Q1016 NOSIG
12-02-14 METAR LIMC 140120Z 00000KT 7000 NSC M04/M06 Q1015 NOSIG
12-02-14 METAR LIMC 140220Z 02001KT 6000 R17R/0050V1500N R35L/1500N NSC M05/M06 Q1015 NOSIG
12-02-14 METAR LIMC 140320Z 00000KT 6000 NSC M06/M07 Q1015 NOSIG
12-02-14 METAR LIMC 140420Z 00000KT 4000 BR NSC M07/M08 Q1015 NOSIG
12-02-14 METAR LIMC 140520Z 00000KT 3500 BR NSC M08/M09 Q1014 NOSIG
12-02-14 METAR LIMC 140620Z 00000KT 3000 BR NSC M06/M07 Q1014 NOSIG
12-02-14 METAR LIMC 140720Z 00000KT 3000 BR NSC M05/M06 Q1015 NOSIG
12-02-14 METAR LIMC 140820Z 16001KT 3000 BR NSC M03/M06 Q1015 NOSIG
12-02-14 METAR LIMC 141220Z 13003KT 100V170 6000 NSC 02/M07 Q1014 NOSIG
12-02-14 METAR LIMC 141320Z VRB02KT 8000 NSC 03/M07 Q1014 NOSIG
12-02-14 METAR LIMC 141420Z 13003KT 050V160 CAVOK 03/M10 Q1014 NOSIG
12-02-14 METAR LIMC 141520Z VRB02KT CAVOK 03/M09 Q1014 NOSIG
12-02-14 METAR LIMC 141620Z 22002KT CAVOK 02/M07 Q1014 NOSIG
12-02-14 METAR LIMC 141720Z 23001KT 8000 NSC M01/M07 Q1014 NOSIG
12-02-14 METAR LIMC 141820Z VRB02KT CAVOK M02/M07 Q1015 NOSIG
12-02-14 METAR LIMC 141920Z VRB02KT CAVOK M04/M07 Q1015 NOSIG
12-02-14 METAR LIMC 142020Z 35001KT CAVOK M05/M07 Q1015 NOSIG
12-02-14 METAR LIMC 142120Z 00000KT CAVOK M07/M09 Q1015 NOSIG
12-02-14 METAR LIMC 142220Z 34002KT CAVOK M07/M09 Q1015 NOSIG
12-02-14 METAR LIMC 142320Z 00000KT CAVOK M08/M09 Q1015 NOSIG
12-02-15 METAR LIMC 150020Z 35001KT CAVOK M08/M09 Q1014 NOSIG
12-02-15 METAR LIMC 150120Z 35002KT CAVOK M06/M08 Q1014 NOSIG
12-02-15 METAR LIMC 150220Z 00000KT CAVOK M06/M08 Q1013 NOSIG
12-02-15 METAR LIMC 150320Z VRB02KT 9999 SCT070 M04/M06 Q1013 NOSIG
12-02-15 METAR LIMC 150420Z 30001KT 9999 SCT070 M04/M06 Q1012 NOSIG
12-02-15 METAR LIMC 150520Z VRB01KT 9999 SCT070 M05/M07 Q1011 NOSIG
12-02-15 METAR LIMC 150620Z 01001KT 7000 SCT090 M05/M06 Q1011 NOSIG
12-02-15 METAR LIMC 150720Z 00000KT 6000 NSC M06/M06 Q1011 NOSIG
12-02-15 METAR LIMC 150820Z 20001KT 8000 NSC M03/M05 Q1010 NOSIG
12-02-15 METAR LIMC 150920Z 24002KT 9000 NSC 01/M03 Q1010 NOSIG
12-02-15 METAR LIMC 151020Z 23003KT CAVOK 04/M06 Q1009 NOSIG
12-02-15 METAR LIMC 151120Z 21003KT 170V250 CAVOK 06/M07 Q1008 NOSIG
12-02-15 METAR LIMC 151220Z 24003KT 190V260 CAVOK 07/M08 Q1007 NOSIG
12-02-15 METAR LIMC 151320Z VRB02KT CAVOK 08/M08 Q1007 NOSIG
12-02-15 METAR LIMC 151420Z 23003KT CAVOK 08/M09 Q1006 NOSIG
12-02-15 METAR LIMC 151520Z 20003KT CAVOK 07/M07 Q1005 NOSIG
12-02-15 METAR LIMC 151620Z 27003KT 210V300 CAVOK 06/M09 Q1005 NOSIG
12-02-15 METAR LIMC 151720Z 20002KT CAVOK 04/M08 Q1005 NOSIG
12-02-15 METAR LIMC 151820Z 00000KT CAVOK 03/M07 Q1006 NOSIG
12-02-15 METAR LIMC 151920Z VRB01KT CAVOK M01/M06 Q1006 NOSIG
12-02-15 METAR LIMC 152020Z VRB02KT CAVOK M01/M07 Q1007 NOSIG
12-02-15 METAR LIMC 152120Z VRB01KT CAVOK M01/M07 Q1008 NOSIG
12-02-15 METAR LIMC 152220Z 33004KT CAVOK 00/M06 Q1008 NOSIG
12-02-15 METAR LIMC 152320Z VRB02KT CAVOK M01/M07 Q1008 NOSIG
12-02-16 METAR LIMC 160020Z VRB01KT CAVOK M02/M06 Q1008 NOSIG
12-02-16 METAR LIMC 160120Z VRB02KT CAVOK M04/M07 Q1008 NOSIG
12-02-16 METAR LIMC 160220Z VRB01KT CAVOK M05/M07 Q1008 NOSIG
12-02-16 METAR LIMC 160320Z VRB02KT CAVOK M04/M07 Q1008 NOSIG
12-02-16 METAR LIMC 160420Z VRB02KT CAVOK M03/M07 Q1009 NOSIG
12-02-16 METAR LIMC 160520Z VRB02KT CAVOK M04/M07 Q1009 NOSIG
12-02-16 METAR LIMC 160620Z VRB02KT CAVOK M00/M07 Q1010 NOSIG
12-02-16 METAR LIMC 160720Z VRB02KT CAVOK 04/M05 Q1011 NOSIG
12-02-16 METAR LIMC 160820Z 35003KT 310V050 CAVOK 07/M03 Q1012 NOSIG
12-02-16 METAR LIMC 160920Z VRB03KT CAVOK 09/M04 Q1013 NOSIG
12-02-16 METAR LIMC 161020Z 10005KT 5000 HZ NSC 06/M03 Q1014 NOSIG
12-02-16 METAR LIMC 161120Z 09004KT 070V130 5000 HZ NSC 06/M03 Q1015 NOSIG
12-02-16 METAR LIMC 161220Z 11004KT 060V140 5000 HZ NSC 06/M03 Q1015 NOSIG
12-02-16 METAR LIMC 161320Z 11003KT 060V150 4500 HZ NSC 07/M02 Q1015 NOSIG
12-02-16 METAR LIMC 161420Z 11003KT 070V130 4500 HZ NSC 08/M03 Q1015 NOSIG
12-02-16 METAR LIMC 161520Z VRB03KT 4500 HZ NSC 08/M04 Q1016 NOSIG
12-02-16 METAR LIMC 161620Z VRB02KT 4000 HZ NSC 07/M03 Q1016 NOSIG
12-02-16 METAR LIMC 161720Z VRB01KT 3500 BR NSC 06/M03 Q1017 NOSIG
12-02-16 METAR LIMC 161820Z VRB02KT 4500 BR NSC 04/M03 Q1018 NOSIG
12-02-16 METAR LIMC 161920Z 00000KT 5000 BR NSC 01/M03 Q1019 NOSIG
12-02-16 METAR LIMC 162020Z 00000KT 5000 BR NSC M02/M04 Q1020 NOSIG
12-02-16 METAR LIMC 162120Z VRB01KT 5000 BR NSC M01/M03 Q1021 NOSIG
12-02-16 METAR LIMC 162220Z VRB02KT 5000 BR NSC M01/M04 Q1021 NOSIG
12-02-16 METAR LIMC 162320Z 04004KT 5000 BR NSC 02/M02 Q1021 NOSIG
12-02-17 METAR LIMC 170020Z VRB02KT 5000 BR NSC M01/M03 Q1022 NOSIG
12-02-17 METAR LIMC 170120Z 35003KT 5000 BR NSC M01/M03 Q1022 NOSIG
12-02-17 METAR LIMC 170220Z 07003KT 330V090 5000 BR NSC M02/M04 Q1022 NOSIG
12-02-17 METAR LIMC 170320Z 02003KT 350V060 6000 NSC M02/M03 Q1022 NOSIG
12-02-17 METAR LIMC 170420Z 05003KT 6000 NSC M02/M03 Q1022 NOSIG
12-02-17 METAR LIMC 170520Z 35003KT 330V030 5000 BR NSC M03/M04 Q1022 NOSIG
12-02-17 METAR LIMC 170620Z 36002KT 3500 BR NSC M03/M04 Q1022 NOSIG
12-02-17 METAR LIMC 170720Z VRB02KT 3000 BR NSC M01/M02 Q1023 NOSIG
12-02-17 METAR LIMC 170820Z 00000KT 3000 BR NSC 03/M00 Q1023 NOSIG
12-02-17 METAR LIMC 170920Z VRB02KT 3000 BR NSC 05/M00 Q1023 NOSIG
12-02-17 METAR LIMC 171020Z VRB01KT 3500 BR NSC 07/M01 Q1023 NOSIG
12-02-17 METAR LIMC 171120Z VRB02KT 5000 BR NSC 08/M03 Q1022 NOSIG
12-02-17 METAR LIMC 171220Z 23003KT 190V270 6000 NSC 08/M03 Q1021 NOSIG
12-02-17 METAR LIMC 171320Z 22003KT 200V270 8000 NSC 09/M03 Q1020 NOSIG
12-02-17 METAR LIMC 171420Z 22003KT 180V250 CAVOK 09/M03 Q1019 NOSIG
12-02-17 METAR LIMC 171520Z 21003KT 190V250 CAVOK 09/M03 Q1019 NOSIG
12-02-17 METAR LIMC 171620Z 23003KT CAVOK 07/M03 Q1019 NOSIG
12-02-17 METAR LIMC 171720Z 00000KT 5000 BR NSC 05/M01 Q1020 NOSIG
12-02-17 METAR LIMC 171820Z 00000KT 7000 NSC 03/M02 Q1020 NOSIG
12-02-17 METAR LIMC 171920Z 00000KT 6000 NSC 02/M02 Q1020 NOSIG
12-02-17 METAR LIMC 172020Z VRB01KT 6000 NSC 01/M03 Q1020 NOSIG
12-02-17 METAR LIMC 172120Z VRB02KT 6000 NSC M01/M03 Q1021 NOSIG
12-02-17 METAR LIMC 172220Z 00000KT 6000 NSC M01/M03 Q1021 NOSIG
12-02-17 METAR LIMC 172320Z 06003KT 010V080 6000 NSC M02/M04 Q1021 NOSIG
12-02-18 METAR LIMC 180020Z 00000KT 6000 NSC M03/M04 Q1021 NOSIG
12-02-18 METAR LIMC 180120Z 00000KT 6000 NSC M02/M03 Q1021 NOSIG
12-02-18 METAR LIMC 180220Z 35002KT 6000 NSC M02/M03 Q1020 NOSIG
12-02-18 METAR LIMC 180320Z VRB01KT 6000 NSC M03/M03 Q1020 NOSIG
12-02-18 METAR LIMC 180420Z VRB02KT 6000 NSC M02/M03 Q1020 NOSIG
12-02-18 METAR LIMC 180520Z 35002KT 6000 NSC M03/M03 Q1020 NOSIG
12-02-18 METAR LIMC 180620Z 06003KT 310V080 6000 BKN030 M00/M02 Q1021 NOSIG
12-02-18 METAR LIMC 180720Z 34003KT 5000 BR BKN030 02/M00 Q1021 NOSIG
12-02-18 METAR LIMC 180820Z 00000KT 5000 BR BKN030 03/01 Q1022 NOSIG
12-02-18 METAR LIMC 180920Z VRB02KT 5000 BR BKN030 05/00 Q1022 NOSIG
12-02-18 METAR LIMC 181020Z VRB02KT 5000 BR BKN030 07/00 Q1022 NOSIG
12-02-18 METAR LIMC 181120Z VRB01KT 5000 BR BKN030 07/00 Q1021 NOSIG
12-02-18 METAR LIMC 181220Z VRB02KT 4000 BR BKN030 08/01 Q1021 NOSIG
12-02-18 METAR LIMC 181320Z 19002KT 3500 BR SCT030 BKN060 08/01 Q1020 NOSIG
12-02-18 METAR LIMC 181420Z 19002KT 4500 BR BKN040 08/02 Q1020 NOSIG
12-02-18 METAR LIMC 181520Z VRB02KT 4500 BR SCT060 08/02 Q1019 NOSIG
12-02-18 METAR LIMC 181620Z 20002KT 3500 BR SCT060 07/02 Q1019 NOSIG
12-02-18 METAR LIMC 181720Z 20001KT 2500 BR SCT060 05/02 Q1019 NOSIG
12-02-18 METAR LIMC 181820Z 00000KT 2500 BR SCT060 04/01 Q1020 NOSIG
12-02-18 METAR LIMC 181920Z 00000KT 5000 BR SCT060 02/00 Q1019 NOSIG
12-02-18 METAR LIMC 182020Z 00000KT 4000 BR SCT060 01/00 Q1020 NOSIG
12-02-18 METAR LIMC 182120Z 00000KT 5000 BR SCT060 02/01 Q1020 NOSIG
12-02-18 METAR LIMC 182220Z 00000KT 4000 BR SCT060 03/01 Q1020 NOSIG
12-02-18 METAR LIMC 182320Z 00000KT 4000 BR SCT060 02/01 Q1019 NOSIG
12-02-19 METAR LIMC 190020Z 00000KT 4000 BR SCT060 02/01 Q1019 NOSIG
12-02-19 METAR LIMC 190120Z 00000KT 4000 BR SCT060 02/01 Q1019 NOSIG
12-02-19 METAR LIMC 190220Z 00000KT 4000 BR SCT060 02/01 Q1018 NOSIG
12-02-19 METAR LIMC 190320Z 00000KT 4000 BR SCT060 02/01 Q1018 NOSIG
12-02-19 METAR LIMC 190420Z 00000KT 3000 BR SCT060 02/01 Q1018 NOSIG
12-02-19 METAR LIMC 190520Z 00000KT 2500 BR SCT060 02/01 Q1018 NOSIG
12-02-19 METAR LIMC 190620Z 00000KT 2500 BR SCT060 04/02 Q1018 NOSIG
12-02-19 METAR LIMC 190720Z 00000KT 1500 BR SCT060 03/02 Q1018 NOSIG
12-02-19 METAR LIMC 190820Z 00000KT 2000 BR SCT070 05/03 Q1018 NOSIG
12-02-19 METAR LIMC 190920Z VRB02KT 2000 BR BKN070 06/03 Q1018 NOSIG
12-02-19 METAR LIMC 191020Z VRB01KT 1800 BR BKN070 07/03 Q1018 NOSIG
12-02-19 METAR LIMC 191120Z VRB02KT 1800 BR BKN070 08/03 Q1018 NOSIG
12-02-19 METAR LIMC 191220Z VRB01KT 2000 BR SCT070 09/04 Q1017 NOSIG
12-02-19 METAR LIMC 191320Z VRB01KT 2500 BR SCT070 10/04 Q1017 NOSIG
12-02-19 METAR LIMC 191420Z 15003KT 120V190 2500 BR NSC 10/04 Q1017 NOSIG
12-02-19 METAR LIMC 191520Z 18003KT 140V230 2500 BR SCT080 09/04 Q1017 NOSIG
12-02-19 METAR LIMC 191620Z 17003KT 2500 BR NSC 08/04 Q1017 NOSIG
12-02-19 METAR LIMC 191720Z 00000KT 2500 BR NSC 06/03 Q1017 NOSIG
12-02-19 METAR LIMC 191820Z 00000KT 2500 BR NSC 04/02 Q1018 NOSIG
12-02-19 METAR LIMC 191920Z VRB01KT 2500 BR NSC 04/03 Q1019 NOSIG
12-02-19 METAR LIMC 192020Z 00000KT 2500 BR NSC 04/03 Q1019 NOSIG
12-02-19 METAR LIMC 192120Z 00000KT 1100 R35L/1500N R35R/1500N BR BKN006 04/03 Q1020
12-02-19 METAR LIMC 192220Z 00000KT 1100 R35L/1500N BR BKN006 04/03 Q1020 NOSIG
12-02-19 METAR LIMC 192320Z 00000KT 0900 R35L/1500N FG BKN005 03/03 Q1020 RERA
12-02-20 METAR LIMC 200020Z 00000KT 0900 R35L/1500N FG BKN005 04/03 Q1020 NOSIG
12-02-20 METAR LIMC 200120Z 06002KT 1100 R35L/1500N BR BKN005 04/02 Q1020 NOSIG
12-02-20 METAR LIMC 200220Z 00000KT 1100 R35L/1500N BR OVC005 03/02 Q1020 NOSIG
12-02-20 METAR LIMC 200320Z 00000KT 1100 R35L/1500N BR OVC005 03/02 Q1021 NOSIG
12-02-20 METAR LIMC 200420Z VRB01KT 1100 R35L/1500N BR OVC005 03/02 Q1021 NOSIG
12-02-20 METAR LIMC 200520Z VRB01KT 1300 R35L/1500N R35R/1500N BR BKN008 03/02 Q1022 NOSIG
12-02-20 METAR LIMC 200620Z VRB02KT 1100 R35L/1400V1500N R35R/1000V1200N BR SCT080 01/00 Q1022 NOSIG
12-02-20 METAR LIMC 200720Z VRB02KT 0900 R35L/0900V1100U R35R/0700V1100U FG FEW010 00/M00 Q1023 NOSIG
12-02-20 METAR LIMC 200820Z 00000KT 0900 R35L/1000V1100N R35R/1100V1200N FG SCT050 03/03 Q1024 NOSIG
12-02-20 METAR LIMC 200920Z 00000KT 0900 R35L/1300V1500U R35R/1500N FG SCT005 SCT040 OVC070 04/03 Q1025 NOSIG
12-02-20 METAR LIMC 201020Z 15003KT 130V190 1300 R35L/1500N R35R/1500N BR SCT007 OVC050 04/03 Q1026 NOSIG
12-02-20 METAR LIMC 201120Z 20001KT 3000 BR SCT012 OVC045 04/02 Q1027 NOSIG
12-02-20 METAR LIMC 201220Z 19002KT 4500 2000SW BR SCT012 OVC045 04/02 Q1027 NOSIG
12-02-20 METAR LIMC 201320Z VRB02KT 3500 BR SCT012 OVC045 04/02 Q1027 NOSIG
12-02-20 METAR LIMC 201420Z 15004KT 4500 BR SCT010 OVC045 03/02 Q1028 NOSIG
12-02-20 METAR LIMC 201520Z 16003KT 7000 SCT010 OVC045 03/02 Q1028 NOSIG
12-02-20 METAR LIMC 201620Z 18002KT 7000 SCT015 OVC050 02/01 Q1029 NOSIG
12-02-20 METAR LIMC 201720Z VRB01KT 9000 SCT015 OVC050 02/01 Q1029 NOSIG
12-02-20 METAR LIMC 201820Z 00000KT 9000 SCT015 OVC050 02/01 Q1030 NOSIG
12-02-20 METAR LIMC 201920Z 00000KT 9000 SCT015 OVC050 02/01 Q1031 NOSIG
12-02-20 METAR LIMC 202020Z VRB01KT 9000 SCT015 OVC050 02/01 Q1031 NOSIG
12-02-20 METAR LIMC 202120Z VRB01KT 9000 BKN015 02/01 Q1032 NOSIG
12-02-20 METAR LIMC 202220Z 26002KT 9000 BKN015 02/01 Q1032 NOSIG
12-02-20 METAR LIMC 202320Z 06003KT 360V080 9000 BKN015 02/01 Q1032 NOSIG
12-02-21 METAR LIMC 210020Z 34003KT 9000 BKN030 M01/M01 Q1032 NOSIG
12-02-21 METAR LIMC 210120Z 34003KT 340V060 9000 BKN030 01/00 Q1032 NOSIG
12-02-21 METAR LIMC 210220Z 04003KT 340V060 9000 BKN030 01/00 Q1032 NOSIG
12-02-21 METAR LIMC 210320Z 07003KT 360V070 9000 SCT030 BKN080 02/01 Q1031 NOSIG
12-02-21 METAR LIMC 210420Z 03003KT 340V060 9000 SCT030 BKN080 01/01 Q1031 NOSIG
12-02-21 METAR LIMC 210520Z 07003KT 8000 SCT030 BKN080 01/00 Q1031 NOSIG
12-02-21 METAR LIMC 210620Z VRB02KT 6000 BKN075 01/M00 Q1031 NOSIG
12-02-21 METAR LIMC 210720Z 05003KT 330V070 5000 MIFG SCT075 02/00 Q1031 NOSIG
12-02-21 METAR LIMC 210820Z VRB02KT 5000 BR NSC 04/01 Q1032 NOSIG
12-02-21 METAR LIMC 210920Z VRB02KT 7000 NSC 06/00 Q1032 NOSIG
12-02-21 METAR LIMC 211020Z VRB02KT 9000 NSC 07/M01 Q1031 NOSIG
12-02-21 METAR LIMC 211120Z 27003KT 220V320 CAVOK 08/M02 Q1031 NOSIG
12-02-21 METAR LIMC 211220Z 22004KT 180V280 CAVOK 09/M01 Q1030 NOSIG
12-02-21 METAR LIMC 211320Z 24003KT 180V300 CAVOK 09/M01 Q1029 NOSIG
12-02-21 METAR LIMC 211420Z 22003KT 160V260 CAVOK 09/M01 Q1028 NOSIG
12-02-21 METAR LIMC 211520Z 21003KT CAVOK 09/00 Q1028 NOSIG
12-02-21 METAR LIMC 211620Z 22003KT CAVOK 08/01 Q1028 NOSIG
12-02-21 METAR LIMC 211720Z 24003KT 200V270 CAVOK 05/00 Q1028 NOSIG
12-02-21 METAR LIMC 211820Z 00000KT CAVOK 04/M00 Q1028 NOSIG
12-02-21 METAR LIMC 211920Z 00000KT CAVOK 02/M01 Q1028 NOSIG
12-02-21 METAR LIMC 212020Z 00000KT CAVOK 01/M01 Q1028 NOSIG
12-02-21 METAR LIMC 212120Z 00000KT CAVOK M01/M03 Q1029 NOSIG
12-02-21 METAR LIMC 212220Z VRB01KT CAVOK M02/M03 Q1029 NOSIG
12-02-21 METAR LIMC 212320Z 34004KT 330V050 CAVOK M03/M04 Q1029 NOSIG
12-02-22 METAR LIMC 220020Z 34003KT CAVOK M03/M04 Q1030 NOSIG
12-02-22 METAR LIMC 220120Z 35003KT CAVOK M03/M03 Q1029 NOSIG
12-02-22 METAR LIMC 220220Z VRB02KT CAVOK M03/M04 Q1029 NOSIG
12-02-22 METAR LIMC 220320Z 36002KT CAVOK M04/M04 Q1029 NOSIG
12-02-22 METAR LIMC 220420Z 35003KT CAVOK M03/M04 Q1029 NOSIG
12-02-22 METAR LIMC 220520Z 35003KT CAVOK M03/M04 Q1029 NOSIG
12-02-22 METAR LIMC 220620Z VRB02KT CAVOK M02/M03 Q1029 NOSIG
12-02-22 METAR LIMC 220720Z VRB02KT CAVOK M01/M02 Q1030 NOSIG
12-02-22 METAR LIMC 220920Z NIL
12-02-22 METAR LIMC 221020Z NIL
12-02-22 METAR LIMC 221020Z 00000KT CAVOK 09/M02 Q1030 NOSIG
12-02-22 METAR LIMC 221120Z VRB01KT CAVOK 11/M03 Q1029 NOSIG
12-02-22 METAR LIMC 221220Z VRB01KT CAVOK 12/M03 Q1028 NOSIG
12-02-22 METAR LIMC 221320Z 21003KT 150V270 CAVOK 13/M01 Q1027 NOSIG
12-02-22 METAR LIMC 221420Z 21004KT 190V250 CAVOK 12/M01 Q1027 NOSIG
12-02-22 METAR LIMC 221520Z 20003KT CAVOK 12/01 Q1026 NOSIG
12-02-22 METAR LIMC 221620Z 21003KT CAVOK 10/02 Q1026 NOSIG
12-02-22 METAR LIMC 221720Z 20002KT 7000 NSC 08/02 Q1026 NOSIG
12-02-22 METAR LIMC 221820Z VRB01KT 8000 NSC 04/00 Q1026 NOSIG
12-02-22 METAR LIMC 221920Z 00000KT CAVOK 02/M01 Q1026 NOSIG
12-02-22 METAR LIMC 222020Z 02001KT CAVOK 01/M01 Q1026 NOSIG
12-02-22 METAR LIMC 222120Z 00000KT CAVOK 00/M00 Q1026 NOSIG
12-02-22 METAR LIMC 222220Z 00000KT CAVOK M01/M02 Q1026 NOSIG
12-02-22 METAR LIMC 222320Z 01003KT 340V050 CAVOK M02/M02 Q1026 NOSIG
12-02-23 METAR LIMC 230020Z 35003KT 340V050 CAVOK M01/M02 Q1026 NOSIG
12-02-23 METAR LIMC 230120Z VRB02KT CAVOK M03/M04 Q1026 NOSIG
12-02-23 METAR LIMC 230220Z 33003KT 300V030 CAVOK M01/M03 Q1025 NOSIG
12-02-23 METAR LIMC 230320Z 01003KT 340V060 CAVOK M01/M03 Q1025 NOSIG
12-02-23 METAR LIMC 230420Z 34003KT CAVOK M02/M04 Q1025 NOSIG
12-02-23 METAR LIMC 230520Z 07003KT 350V080 CAVOK M02/M04 Q1024 NOSIG
12-02-23 METAR LIMC 230620Z 35003KT 340V050 CAVOK M01/M03 Q1025 NOSIG
12-02-23 METAR LIMC 230720Z 01003KT 330V050 CAVOK 01/M02 Q1025 NOSIG
12-02-23 METAR LIMC 230820Z 33002KT CAVOK 05/M00 Q1025 NOSIG
12-02-23 METAR LIMC 230920Z 30003KT 9999 SCT090 07/M02 Q1025 NOSIG
12-02-23 METAR LIMC 231020Z 30003KT 270V340 9999 FEW090 11/M03 Q1025 NOSIG
12-02-23 METAR LIMC 231120Z 23003KT 190V260 9999 SCT090 11/M01 Q1024 NOSIG
12-02-23 METAR LIMC 231220Z VRB02KT 9999 SCT090 12/M02 Q1023 NOSIG
12-02-23 METAR LIMC 231320Z VRB02KT 9999 SCT090 13/M02 Q1023 NOSIG
12-02-23 METAR LIMC 231420Z VRB02KT 9999 SCT090 13/M03 Q1022 NOSIG
12-02-23 METAR LIMC 231520Z 20002KT 9999 BKN070 12/M01 Q1022 NOSIG
12-02-23 METAR LIMC 231620Z 32002KT 9999 BKN080 11/M01 Q1022 NOSIG
12-02-23 METAR LIMC 231720Z 33002KT 9999 BKN080 09/M01 Q1022 NOSIG
12-02-23 METAR LIMC 231820Z VRB02KT 9999 BKN080 08/M01 Q1023 NOSIG
12-02-23 METAR LIMC 231920Z 33004KT 9999 BKN080 07/M02 Q1023 NOSIG
12-02-23 METAR LIMC 232020Z VRB01KT 9999 BKN080 07/M03 Q1023 NOSIG
12-02-23 METAR LIMC 232120Z VRB02KT 9999 BKN080 07/M02 Q1023 NOSIG
12-02-23 METAR LIMC 232220Z 34002KT 9999 SCT090 06/M02 Q1023 NOSIG
12-02-23 METAR LIMC 232320Z VRB01KT 9999 SCT090 03/M02 Q1023 NOSIG
12-02-24 METAR LIMC 240020Z 33001KT 9999 SCT090 03/M02 Q1023 NOSIG
12-02-24 METAR LIMC 240120Z 00000KT CAVOK 01/M02 Q1023 NOSIG
12-02-24 METAR LIMC 240220Z VRB02KT CAVOK 01/M03 Q1023 NOSIG
12-02-24 METAR LIMC 240320Z VRB01KT CAVOK M01/M03 Q1023 NOSIG
12-02-24 METAR LIMC 240420Z VRB01KT CAVOK M01/M03 Q1023 NOSIG
12-02-24 METAR LIMC 240520Z 00000KT CAVOK M00/M02 Q1023 NOSIG
12-02-24 METAR LIMC 240620Z VRB02KT CAVOK 01/M02 Q1024 NOSIG
12-02-24 METAR LIMC 240720Z 00000KT CAVOK 03/M00 Q1025 NOSIG
12-02-24 METAR LIMC 240820Z 00000KT CAVOK 10/M01 Q1025 NOSIG
12-02-24 METAR LIMC 240920Z VRB02KT CAVOK 12/M01 Q1025 NOSIG
12-02-24 METAR LIMC 241020Z VRB01KT CAVOK 14/M01 Q1026 NOSIG
12-02-24 METAR LIMC 241120Z 00000KT CAVOK 16/M01 Q1025 NOSIG
12-02-24 METAR LIMC 241220Z VRB02KT CAVOK 17/M01 Q1024 NOSIG
12-02-24 METAR LIMC 241320Z 19003KT 160V250 CAVOK 18/M00 Q1024 NOSIG
12-02-24 METAR LIMC 241520Z VRB02KT CAVOK 18/01 Q1023 NOSIG
12-02-24 METAR LIMC 241620Z 24002KT CAVOK 17/02 Q1023 NOSIG
12-02-24 METAR LIMC 241720Z 20001KT CAVOK 14/01 Q1023 NOSIG
12-02-24 METAR LIMC 241820Z 00000KT CAVOK 09/02 Q1023 NOSIG
12-02-24 METAR LIMC 241920Z 00000KT CAVOK 08/02 Q1023 NOSIG
12-02-24 METAR LIMC 242020Z 00000KT CAVOK 06/02 Q1023 NOSIG
12-02-24 METAR LIMC 242120Z 15002KT CAVOK 05/02 Q1023 NOSIG
12-02-24 METAR LIMC 242220Z VRB01KT CAVOK 04/01 Q1022 NOSIG
12-02-24 METAR LIMC 242320Z 00000KT CAVOK 02/01 Q1022 NOSIG
12-02-25 METAR LIMC 250020Z VRB01KT CAVOK 01/M01 Q1022 NOSIG
12-02-25 METAR LIMC 250120Z 00000KT CAVOK 01/M01 Q1021 NOSIG
12-02-25 METAR LIMC 250220Z 00000KT CAVOK 00/M02 Q1021 NOSIG
12-02-25 METAR LIMC 250320Z 04001KT CAVOK 01/00 Q1020 NOSIG
12-02-25 METAR LIMC 250420Z 00000KT CAVOK 00/M01 Q1020 NOSIG
12-02-25 METAR LIMC 250520Z 00000KT CAVOK M00/M01 Q1019 NOSIG
12-02-25 METAR LIMC 250620Z 00000KT CAVOK M00/M01 Q1019 NOSIG
12-02-25 METAR LIMC 250720Z 00000KT CAVOK 04/02 Q1019 NOSIG
12-02-25 METAR LIMC 250820Z VRB01KT CAVOK 09/04 Q1019 NOSIG
12-02-25 METAR LIMC 250920Z 23002KT CAVOK 13/01 Q1018 NOSIG
12-02-25 METAR LIMC 251020Z 22003KT 190V250 CAVOK 15/02 Q1018 NOSIG
12-02-25 METAR LIMC 251120Z 22002KT CAVOK 17/02 Q1017 NOSIG
12-02-25 METAR LIMC 251220Z 20003KT 170V250 CAVOK 18/04 Q1016 NOSIG
12-02-25 METAR LIMC 251320Z 21003KT 180V250 CAVOK 19/06 Q1015 NOSIG
12-02-25 METAR LIMC 251420Z 23003KT 200V270 CAVOK 19/05 Q1014 NOSIG
12-02-25 METAR LIMC 251520Z 20003KT 170V230 CAVOK 19/06 Q1014 NOSIG
12-02-25 METAR LIMC 251620Z 23002KT CAVOK 18/07 Q1014 NOSIG
12-02-25 METAR LIMC 251720Z 20002KT CAVOK 15/07 Q1014 NOSIG
12-02-25 METAR LIMC 251820Z 20002KT CAVOK 13/09 Q1014 NOSIG
12-02-25 METAR LIMC 251920Z 20003KT CAVOK 11/07 Q1014 NOSIG
12-02-25 METAR LIMC 252020Z 16002KT CAVOK 10/06 Q1014 NOSIG
12-02-25 METAR LIMC 252120Z 17002KT CAVOK 08/05 Q1014 NOSIG
12-02-25 METAR LIMC 252220Z VRB01KT CAVOK 06/05 Q1014 NOSIG
12-02-25 METAR LIMC 252320Z 00000KT CAVOK 03/02 Q1014 NOSIG
12-02-26 METAR LIMC 260020Z 00000KT CAVOK 00/M01 Q1013 NOSIG
12-02-26 METAR LIMC 260120Z 00000KT CAVOK 00/M00 Q1013 NOSIG
12-02-26 METAR LIMC 260220Z 00000KT CAVOK M00/M01 Q1012 NOSIG
12-02-26 METAR LIMC 260320Z 00000KT CAVOK M01/M01 Q1011 NOSIG
12-02-26 METAR LIMC 260420Z 00000KT CAVOK M02/M02 Q1011 NOSIG
12-02-26 METAR LIMC 260520Z VRB01KT CAVOK M02/M02 Q1011 NOSIG
12-02-26 METAR LIMC 260620Z VRB02KT 9999 R35R/0275V1500N MIFG NSC M01/M01 Q1011 NOSIG
12-02-26 METAR LIMC 260720Z VRB01KT 9999 MIFG NSC 04/03 Q1011 NOSIG
12-02-26 METAR LIMC 260820Z VRB01KT CAVOK 12/06 Q1011 NOSIG
12-02-26 METAR LIMC 260920Z 22003KT CAVOK 14/04 Q1011 NOSIG
12-02-26 METAR LIMC 261020Z 02007KT 350V050 CAVOK 19/M07 Q1011 NOSIG
12-02-26 METAR LIMC 261120Z 04008KT 010V070 CAVOK 19/M08 Q1012 NOSIG
12-02-26 METAR LIMC 261220Z 02013KT CAVOK 19/M09 Q1012 NOSIG
12-02-26 METAR LIMC 261320Z 03012KT CAVOK 17/M11 Q1012 NOSIG
12-02-26 METAR LIMC 261420Z 01011KT CAVOK 16/M11 Q1013 NOSIG
12-02-26 METAR LIMC 261520Z 02012KT 350V050 CAVOK 15/M11 Q1014 NOSIG
12-02-26 METAR LIMC 261620Z 01008KT CAVOK 14/M10 Q1015 NOSIG
12-02-26 METAR LIMC 261720Z 04005KT 360V070 CAVOK 12/M09 Q1016 NOSIG
12-02-26 METAR LIMC 261820Z 04006KT 010V080 CAVOK 12/M10 Q1018 NOSIG
12-02-26 METAR LIMC 261920Z 04007KT 360V060 CAVOK 11/M10 Q1018 NOSIG
12-02-26 METAR LIMC 262020Z 03006KT 360V060 CAVOK 11/M11 Q1019 NOSIG
12-02-26 METAR LIMC 262120Z 06006KT 340V080 CAVOK 10/M12 Q1019 NOSIG
12-02-26 METAR LIMC 262220Z 02010KT CAVOK 11/M13 Q1019 NOSIG
12-02-26 METAR LIMC 262320Z 03005KT 350V060 CAVOK 11/M13 Q1020 NOSIG
12-02-27 METAR LIMC 270020Z 01006KT CAVOK 10/M13 Q1020 NOSIG
12-02-27 METAR LIMC 270120Z VRB01KT CAVOK 06/M11 Q1021 NOSIG
12-02-27 METAR LIMC 270220Z 35004KT CAVOK 04/M10 Q1020 NOSIG
12-02-27 METAR LIMC 270320Z 34004KT CAVOK 01/M09 Q1020 NOSIG
12-02-27 METAR LIMC 270420Z 00000KT CAVOK 01/M09 Q1020 NOSIG
12-02-27 METAR LIMC 270520Z 00000KT CAVOK M01/M09 Q1020 NOSIG
12-02-27 METAR LIMC 270620Z VRB01KT CAVOK 01/M08 Q1020 NOSIG
12-02-27 METAR LIMC 270720Z 00000KT CAVOK 04/M05 Q1021 NOSIG
12-02-27 METAR LIMC 270820Z 31004KT CAVOK 09/M08 Q1021 NOSIG
12-02-27 METAR LIMC 270920Z VRB01KT CAVOK 11/M09 Q1021 NOSIG
12-02-27 METAR LIMC 271020Z VRB03KT CAVOK 13/M07 Q1021 NOSIG
12-02-27 METAR LIMC 271120Z 23004KT 190V260 CAVOK 13/M08 Q1021 NOSIG
12-02-27 METAR LIMC 271220Z 21004KT 160V270 CAVOK 14/M08 Q1020 NOSIG
12-02-27 METAR LIMC 271320Z 23003KT 200V260 CAVOK 14/M08 Q1020 NOSIG
12-02-27 METAR LIMC 271420Z 22003KT 170V250 CAVOK 15/M08 Q1019 NOSIG
12-02-27 METAR LIMC 271520Z 23003KT CAVOK 14/M08 Q1019 NOSIG
12-02-27 METAR LIMC 271620Z VRB02KT CAVOK 14/M08 Q1019 NOSIG
12-02-27 METAR LIMC 271720Z 00000KT CAVOK 12/M08 Q1020 NOSIG
12-02-27 METAR LIMC 271820Z VRB02KT CAVOK 10/M06 Q1020 NOSIG
12-02-27 METAR LIMC 271920Z VRB02KT CAVOK 08/M07 Q1021 NOSIG
12-02-27 METAR LIMC 272020Z 06003KT CAVOK 08/M06 Q1021 NOSIG
12-02-27 METAR LIMC 272120Z VRB01KT CAVOK 05/M05 Q1022 NOSIG
12-02-27 METAR LIMC 272220Z 08005KT CAVOK 06/M04 Q1022 NOSIG
12-02-27 METAR LIMC 272320Z 05003KT CAVOK 05/M02 Q1022 NOSIG
12-02-28 METAR LIMC 280020Z 06003KT CAVOK 05/M01 Q1023 NOSIG
12-02-28 METAR LIMC 280120Z 06002KT CAVOK 04/M00 Q1023 NOSIG
12-02-28 METAR LIMC 280220Z 05003KT CAVOK 03/M00 Q1023 NOSIG
12-02-28 METAR LIMC 280320Z 34001KT CAVOK 00/M02 Q1023 NOSIG
12-02-28 METAR LIMC 280420Z VRB01KT CAVOK M02/M04 Q1023 NOSIG
12-02-28 METAR LIMC 280520Z 03003KT 340V080 CAVOK M02/M03 Q1023 NOSIG
12-02-28 METAR LIMC 280620Z VRB02KT CAVOK M01/M02 Q1023 NOSIG
12-02-28 METAR LIMC 280720Z VRB02KT CAVOK M00/M02 Q1024 NOSIG
12-02-28 METAR LIMC 280820Z 00000KT CAVOK 05/01 Q1024 NOSIG
12-02-28 METAR LIMC 280920Z VRB02KT CAVOK 08/00 Q1024 NOSIG
12-02-28 METAR LIMC 281020Z VRB02KT CAVOK 09/M00 Q1024 NOSIG
12-02-28 METAR LIMC 281120Z VRB02KT 9999 BKN070 09/M01 Q1023 NOSIG
12-02-28 METAR LIMC 281220Z VRB01KT 9999 BKN070 10/M01 Q1022 NOSIG
12-02-28 METAR LIMC 281320Z VRB01KT 9999 BKN080 11/M01 Q1022 NOSIG
12-02-28 METAR LIMC 281420Z VRB01KT 9999 BKN080 11/M01 Q1021 NOSIG
12-02-28 METAR LIMC 281520Z VRB02KT 9999 SCT030 BKN080 10/M01 Q1021 NOSIG
12-02-28 METAR LIMC 281620Z 25001KT 9999 BKN080 10/M01 Q1021 NOSIG
12-02-28 METAR LIMC 281720Z 00000KT 9999 BKN080 09/M01 Q1021 NOSIG
12-02-28 METAR LIMC 281820Z 00000KT 9999 BKN080 06/M01 Q1021 NOSIG
12-02-28 METAR LIMC 281920Z 33001KT 9999 BKN080 04/M01 Q1020 NOSIG
12-02-28 METAR LIMC 282020Z VRB02KT CAVOK 03/M01 Q1021 NOSIG
12-02-28 METAR LIMC 282120Z 33001KT CAVOK 01/M02 Q1021 NOSIG
12-02-28 METAR LIMC 282220Z 00000KT CAVOK 01/M02 Q1020 NOSIG
12-02-28 METAR LIMC 282320Z 00000KT CAVOK 00/M02 Q1020 NOSIG
12-02-29 METAR LIMC 290020Z VRB02KT CAVOK 00/M02 Q1020 NOSIG
12-02-29 METAR LIMC 290120Z VRB01KT 9999 SCT080 01/M02 Q1020 NOSIG
12-02-29 METAR LIMC 290220Z 00000KT 9999 BKN070 01/M01 Q1019 NOSIG
12-02-29 METAR LIMC 290320Z 34002KT 9999 SCT080 00/M01 Q1019 NOSIG
12-02-29 METAR LIMC 290420Z VRB02KT CAVOK 01/M01 Q1019 NOSIG
12-02-29 METAR LIMC 290520Z 36002KT CAVOK 01/M00 Q1018 NOSIG
12-02-29 METAR LIMC 290620Z 00000KT 9000 BKN080 00/M01 Q1018 NOSIG
12-02-29 METAR LIMC 290720Z VRB02KT 9000 BKN060 03/01 Q1018 NOSIG
12-02-29 METAR LIMC 290820Z 00000KT 9000 BKN060 07/02 Q1018 NOSIG
12-02-29 METAR LIMC 290920Z VRB01KT 9999 BKN060 10/01 Q1018 NOSIG
12-02-29 METAR LIMC 291020Z 00000KT 9000 SCT040 BKN060 12/02 Q1018 NOSIG
12-02-29 METAR LIMC 291120Z VRB02KT 9000 FEW040 BKN060 14/M01 Q1017 NOSIG
12-02-29 METAR LIMC 291220Z VRB02KT 9999 BKN060 16/02 Q1016 NOSIG
12-02-29 METAR LIMC 291320Z VRB01KT 9999 BKN060 17/01 Q1016 NOSIG
12-02-29 METAR LIMC 291420Z 17002KT 9999 BKN060 18/01 Q1016 NOSIG
12-02-29 METAR LIMC 291520Z VRB02KT 9999 SCT080 19/01 Q1016 NOSIG
12-02-29 METAR LIMC 291620Z 14002KT 9999 FEW090 18/02 Q1016 NOSIG
12-02-29 METAR LIMC 291720Z 00000KT 9999 FEW090 14/03 Q1016 NOSIG
12-02-29 METAR LIMC 291820Z 00000KT CAVOK 12/03 Q1017 NOSIG
12-02-29 METAR LIMC 291920Z 09002KT CAVOK 09/02 Q1018 NOSIG
12-02-29 METAR LIMC 292020Z VRB01KT CAVOK 09/03 Q1019 NOSIG
12-02-29 METAR LIMC 292120Z VRB02KT 9000 NSC 07/02 Q1019 NOSIG
12-02-29 METAR LIMC 292220Z 36003KT 340V050 9000 NSC 06/01 Q1020 NOSIG
12-02-29 METAR LIMC 292320Z 34002KT 9000 NSC 04/02 Q1021 NOSIG
12-03-01 METAR LIMC 010020Z VRB02KT 9000 NSC 04/01 Q1021 NOSIG
12-03-01 METAR LIMC 010120Z 35003KT 9000 NSC 03/01 Q1021 NOSIG
12-03-01 METAR LIMC 010220Z 00000KT 9000 NSC 02/M00 Q1021 NOSIG
12-03-01 METAR LIMC 010320Z 36001KT 9000 NSC 01/M00 Q1022 NOSIG
12-03-01 METAR LIMC 010420Z 35004KT 9000 NSC 02/01 Q1022 NOSIG
12-03-01 METAR LIMC 010520Z 00000KT 9000 NSC 01/M01 Q1022 NOSIG
12-03-01 METAR LIMC 010620Z VRB02KT 8000 NSC 03/00 Q1023 NOSIG
12-03-01 METAR LIMC 010720Z 36002KT 6000 NSC 05/03 Q1024 NOSIG
12-03-01 METAR LIMC 010820Z VRB02KT 6000 NSC 12/04 Q1024 NOSIG
12-03-01 METAR LIMC 010920Z VRB02KT 7000 NSC 14/05 Q1025 NOSIG
12-03-01 METAR LIMC 011020Z NIL
12-03-01 METAR LIMC 011020Z VRB02KT 5000 BR NSC 15/05 Q1025 NOSIG
12-03-01 METAR LIMC 011120Z 14003KT 110V170 5000 BR NSC 17/04 Q1025 NOSIG
12-03-01 METAR LIMC 011220Z VRB02KT 4500 BR NSC 18/04 Q1024 NOSIG
12-03-01 METAR LIMC 011320Z 15003KT 100V260 5000 BR NSC 19/04 Q1024 NOSIG
12-03-01 METAR LIMC 011420Z VRB02KT 6000 NSC 19/04 Q1023 NOSIG
12-03-01 METAR LIMC 011520Z VRB02KT 6000 NSC 19/05 Q1023 NOSIG
12-03-01 METAR LIMC 011620Z VRB01KT 6000 NSC 19/04 Q1023 NOSIG
12-03-01 METAR LIMC 011720Z 00000KT 5000 BR NSC 15/04 Q1023 NOSIG
12-03-01 METAR LIMC 011820Z 00000KT 5000 BR NSC 11/04 Q1024 NOSIG
12-03-01 METAR LIMC 011920Z 00000KT 6000 NSC 09/03 Q1024 NOSIG
12-03-01 METAR LIMC 012020Z 00000KT 7000 NSC 07/03 Q1025 NOSIG
12-03-01 METAR LIMC 012120Z VRB01KT 6000 NSC 05/03 Q1025 NOSIG
12-03-01 METAR LIMC 012220Z VRB02KT 6000 NSC 05/03 Q1025 NOSIG
12-03-01 METAR LIMC 012320Z 35002KT 6000 NSC 05/03 Q1025 NOSIG
12-03-02 METAR LIMC 020020Z 00000KT 6000 NSC 04/02 Q1025 NOSIG
12-03-02 METAR LIMC 020120Z 36002KT 6000 NSC 03/02 Q1025 NOSIG
12-03-02 METAR LIMC 020220Z 35002KT 6000 NSC 03/02 Q1024 NOSIG
12-03-02 METAR LIMC 020320Z 36002KT 6000 NSC 03/01 Q1024 NOSIG
12-03-02 METAR LIMC 020420Z 36002KT 6000 NSC 02/01 Q1024 NOSIG
12-03-02 METAR LIMC 020520Z 35003KT 6000 NSC 04/02 Q1024 NOSIG
12-03-02 METAR LIMC 020620Z 35002KT 5000 BR NSC 03/02 Q1024 NOSIG
12-03-02 METAR LIMC 020720Z VRB02KT 5000 BR NSC 07/05 Q1024 NOSIG
12-03-02 METAR LIMC 020820Z VRB02KT 8000 NSC 12/06 Q1024 NOSIG
12-03-02 METAR LIMC 020920Z VRB01KT 8000 NSC 16/05 Q1024 NOSIG
12-03-02 METAR LIMC 021020Z VRB02KT 9000 NSC 17/05 Q1023 NOSIG
12-03-02 METAR LIMC 021120Z 22003KT 170V260 7000 NSC 19/06 Q1023 NOSIG
12-03-02 METAR LIMC 021220Z 19004KT 160V220 7000 NSC 20/06 Q1022 NOSIG
12-03-02 METAR LIMC 021320Z 23004KT 200V270 7000 NSC 20/03 Q1022 NOSIG
12-03-02 METAR LIMC 021420Z 22003KT 180V280 7000 NSC 21/03 Q1021 NOSIG
12-03-02 METAR LIMC 021520Z 19003KT 120V230 7000 NSC 21/04 Q1021 NOSIG
12-03-02 METAR LIMC 021620Z 20002KT CAVOK 20/04 Q1021 NOSIG
12-03-02 METAR LIMC 021720Z 15001KT CAVOK 17/05 Q1021 NOSIG
12-03-02 METAR LIMC 021820Z 18003KT CAVOK 15/08 Q1021 NOSIG
12-03-02 METAR LIMC 021920Z 19003KT CAVOK 13/08 Q1022 NOSIG
12-03-02 METAR LIMC 022020Z 18003KT CAVOK 11/08 Q1022 NOSIG
12-03-02 METAR LIMC 022120Z VRB02KT CAVOK 10/07 Q1022 NOSIG
12-03-02 METAR LIMC 022220Z 11001KT CAVOK 07/06 Q1022 NOSIG
12-03-02 METAR LIMC 022320Z 00000KT CAVOK 06/05 Q1022 NOSIG
12-03-03 METAR LIMC 030020Z 00000KT CAVOK 03/02 Q1022 NOSIG
12-03-03 METAR LIMC 030120Z 00000KT 7000 NSC 03/02 Q1022 NOSIG
12-03-03 METAR LIMC 030220Z 00000KT 6000 NSC 02/01 Q1022 NOSIG
12-03-03 METAR LIMC 030320Z 00000KT 4000 BR NSC 01/00 Q1022 NOSIG
12-03-03 METAR LIMC 030420Z 00000KT 4000 BR NSC 02/01 Q1022 NOSIG
12-03-03 METAR LIMC 030520Z 34002KT 4000 R35L/1500N R35R/0250V0325N BR NSC 01/01 Q1022 NOSIG
12-03-03 METAR LIMC 030620Z VRB02KT 2500 1000SE R35L/0250V1500U R35R/1100V1500N BCFG NSC 04/04 Q1022 NOSIG
12-03-03 METAR LIMC 030720Z 00000KT 3000 BCFG NSC 05/05 Q1022 NOSIG
12-03-03 METAR LIMC 030820Z VRB02KT 6000 NSC 11/08 Q1022 NOSIG
12-03-03 METAR LIMC 030920Z VRB02KT 8000 NSC 13/08 Q1022 NOSIG
12-03-03 METAR LIMC 031020Z 17004KT 110V220 CAVOK 13/08 Q1022 NOSIG
12-03-03 METAR LIMC 031120Z 14003KT 060V190 CAVOK 15/08 Q1022 NOSIG
12-03-03 METAR LIMC 031220Z VRB02KT CAVOK 16/08 Q1021 NOSIG
12-03-03 METAR LIMC 031320Z 19003KT 150V250 CAVOK 16/08 Q1020 NOSIG
12-03-03 METAR LIMC 031420Z 17003KT 120V230 CAVOK 16/08 Q1020 NOSIG
12-03-03 METAR LIMC 031520Z VRB01KT 9999 FEW080 16/08 Q1019 NOSIG
12-03-03 METAR LIMC 031620Z 24002KT 9999 FEW080 15/08 Q1020 NOSIG
12-03-03 METAR LIMC 031720Z 00000KT 9999 FEW060 14/08 Q1020 NOSIG
12-03-03 METAR LIMC 031820Z 17003KT 9999 SCT060 13/06 Q1021 NOSIG
12-03-03 METAR LIMC 031920Z 19002KT 9999 SCT060 11/06 Q1021 NOSIG
12-03-03 METAR LIMC 032020Z 00000KT 9999 SCT060 11/06 Q1022 NOSIG
12-03-03 METAR LIMC 032120Z VRB01KT 9999 FEW020 SCT060 10/06 Q1022 NOSIG
12-03-03 METAR LIMC 032220Z 25002KT 9999 FEW030 SCT060 10/07 Q1022 NOSIG
12-03-03 METAR LIMC 032320Z VRB01KT 9999 FEW025 SCT060 10/07 Q1022 NOSIG
12-03-04 METAR LIMC 040020Z 01002KT 9999 FEW025 SCT060 09/08 Q1022 NOSIG
12-03-04 METAR LIMC 040120Z 00000KT 9999 FEW025 SCT060 09/07 Q1022 NOSIG
12-03-04 METAR LIMC 040220Z 00000KT 9999 SCT060 08/07 Q1021 NOSIG
12-03-04 METAR LIMC 040320Z VRB02KT 9999 SCT060 08/08 Q1021 NOSIG
12-03-04 METAR LIMC 040420Z VRB01KT 9999 SCT060 07/07 Q1021 NOSIG
12-03-04 METAR LIMC 040520Z VRB02KT 9999 SCT060 08/07 Q1020 NOSIG
12-03-04 METAR LIMC 040620Z VRB02KT 5000 BR BKN045 09/08 Q1020 NOSIG
12-03-04 METAR LIMC 040720Z 33001KT 6000 BKN045 09/08 Q1020 NOSIG
12-03-04 METAR LIMC 040820Z 00000KT 7000 SCT035 BKN050 10/08 Q1020 NOSIG
12-03-04 METAR LIMC 040920Z VRB02KT 6000 -RA SCT035 BKN050 10/08 Q1020 NOSIG
12-03-04 METAR LIMC 041020Z VRB02KT 5000 -RA SCT030 BKN050 11/09 Q1020 NOSIG
12-03-04 METAR LIMC 041120Z VRB01KT 4000 -RA SCT030 BKN050 11/10 Q1020 NOSIG
12-03-04 METAR LIMC 041220Z VRB01KT 3800 BR SCT025 BKN050 12/10 Q1019 NOSIG
12-03-04 METAR LIMC 041320Z VRB01KT 6000 FEW025 BKN050 13/10 Q1018 NOSIG
12-03-04 METAR LIMC 041420Z 00000KT 7000 BKN050 13/09 Q1017 NOSIG
12-03-04 METAR LIMC 041520Z 00000KT 7000 BKN050 13/10 Q1017 NOSIG
12-03-04 METAR LIMC 041620Z 36001KT 7000 SCT035 BKN050 13/10 Q1017 NOSIG
12-03-04 METAR LIMC 041720Z 00000KT 6000 SCT035 BKN050 12/10 Q1017 NOSIG
12-03-04 METAR LIMC 041820Z VRB01KT 8000 FEW040 BKN060 12/09 Q1017 NOSIG
12-03-04 METAR LIMC 041920Z 00000KT 9999 FEW040 BKN060 11/09 Q1016 NOSIG
12-03-04 METAR LIMC 042020Z 15003KT 9999 FEW035 BKN060 11/09 Q1016 NOSIG
12-03-04 METAR LIMC 042120Z VRB01KT 8000 -RA SCT035 BKN060 11/08 Q1016 NOSIG
12-03-04 METAR LIMC 042220Z VRB02KT 8000 -RA SCT035 BKN060 11/09 Q1016 NOSIG
12-03-04 METAR LIMC 042320Z 19001KT 8000 -RA SCT035 BKN060 10/09 Q1016 NOSIG
12-03-05 METAR LIMC 050020Z 00000KT 8000 -RA SCT035 BKN060 09/08 Q1015 NOSIG
12-03-05 METAR LIMC 050120Z 07002KT 7000 RA SCT035 BKN060 09/08 Q1015 NOSIG
12-03-05 METAR LIMC 050220Z 05002KT 7000 RA SCT030 BKN060 09/08 Q1014 NOSIG
12-03-05 METAR LIMC 050320Z 07002KT 6000 RA SCT025 BKN050 09/08 Q1014 NOSIG
12-03-05 METAR LIMC 050420Z 00000KT 6000 RA SCT025 BKN050 09/08 Q1014 NOSIG
12-03-05 METAR LIMC 050520Z 08002KT 6000 -RA SCT020 BKN050 09/08 Q1014 NOSIG
12-03-05 METAR LIMC 050620Z 00000KT 2400 0750SE -RA BR BKN015 OVC030 09/08 Q1014 NOSIG
12-03-05 METAR LIMC 050720Z VRB03KT 2500 1100S RA BR BKN005 OVC015 09/08 Q1014
12-03-05 METAR LIMC 050820Z 01004KT 330V070 3000 RA BR BKN007 OVC015 09/08 Q1014
12-03-05 METAR LIMC 050920Z 36005KT 3000 RA BR BKN007 OVC015 08/07 Q1015 NOSIG
12-03-05 METAR LIMC 051020Z 36007KT 6000 RA BKN020 OVC030 07/05 Q1015 NOSIG
12-03-05 METAR LIMC 051120Z 34008KT 7000 RA BKN020 OVC030 06/05 Q1015 NOSIG
12-03-05 METAR LIMC 051220Z 35009KT 5000 RA BKN020 OVC030 06/04 Q1015 NOSIG
12-03-05 METAR LIMC 051320Z 34009KT 4000 RA BKN020 OVC030 06/04 Q1015 NOSIG
12-03-05 METAR LIMC 051420Z 33011KT 4000 R35L/1000V1300N R35R/0800V1000N RA OVC025 05/03 Q1014 NOSIG
12-03-05 METAR LIMC 051520Z 32008KT 6000 RA OVC025 04/02 Q1015 NOSIG
12-03-05 METAR LIMC 051620Z 35006KT 310V040 4000 R35L/1200V1500U R35R/1500N RA OVC025 04/02 Q1016 NOSIG
12-03-05 METAR LIMC 051720Z 33011KT 5000 R35L/0900V1000N R35R/0900V1100N RA BKN020 OVC030 03/02 Q1015 NOSIG
12-03-05 METAR LIMC 051820Z 33012KT 9999 RA SCT020 OVC030 03/02 Q1015 NOSIG
12-03-05 METAR LIMC 051920Z 33012KT 9999 -RA FEW015 OVC030 03/02 Q1016 NOSIG
12-03-05 METAR LIMC 052120Z 35008KT 9999 RA BKN015 OVC030 03/02 Q1018 NOSIG
12-03-05 METAR LIMC 052220Z 33008KT 9999 RA BKN015 OVC030 03/02 Q1017 NOSIG
12-03-05 METAR LIMC 052320Z 34008KT 9999 RA BKN015 OVC030 03/02 Q1018 NOSIG
12-03-06 METAR LIMC 060020Z 33010KT 9999 RA BKN015 OVC030 02/01 Q1017 NOSIG
12-03-06 METAR LIMC 060120Z 34009KT 9999 RA BKN015 OVC030 02/01 Q1017 NOSIG
12-03-06 METAR LIMC 060220Z 35007KT 9999 RA BKN015 OVC030 03/02 Q1017 NOSIG
12-03-06 METAR LIMC 060320Z 33008KT 9999 RA BKN015 OVC030 03/02 Q1017 NOSIG
12-03-06 METAR LIMC 060420Z 32006KT 9999 DZ BKN015 OVC027 03/02 Q1017 RERA NOSIG
12-03-06 METAR LIMC 060520Z 33006KT 9999 DZ BKN015 OVC027 03/02 Q1017 NOSIG
12-03-06 METAR LIMC 060620Z 34006KT 9999 RA SCT020 OVC035 03/02 Q1018 NOSIG
12-03-06 METAR LIMC 060720Z 35007KT 9999 RA FEW015 OVC030 04/02 Q1019 NOSIG
12-03-06 METAR LIMC 060820Z 35006KT 9999 R35L/1500N R35R/1400V1500N SCT015 OVC030 04/03 Q1019 NOSIG
12-03-06 METAR LIMC 060920Z 34007KT 9999 R35L/1500N R35R/1300N SCT015 OVC030 05/03
12-03-06 METAR LIMC 061120Z 33007KT 9999 FEW030 OVC045 06/04 Q1020 NOSIG
12-03-06 METAR LIMC 061220Z 32006KT 9999 BKN050 07/04 Q1020 NOSIG
12-03-06 METAR LIMC 061320Z 32006KT 9999 BKN050 07/04 Q1020 NOSIG
12-03-06 METAR LIMC 061420Z 31004KT 9999 BKN050 08/04 Q1020 NOSIG
12-03-06 METAR LIMC 061520Z 30003KT 9999 BKN060 08/03 Q1020 NOSIG
12-03-06 METAR LIMC 061620Z 25003KT 9999 SCT080 08/02 Q1021 NOSIG
12-03-06 METAR LIMC 061720Z 26003KT 9999 SCT080 07/03 Q1021 NOSIG
12-03-06 METAR LIMC 061820Z 25002KT 9999 SCT080 06/02 Q1022 NOSIG
12-03-06 METAR LIMC 061920Z 28004KT 9999 SCT080 06/03 Q1023 NOSIG
12-03-06 METAR LIMC 062020Z 32002KT 9999 SCT080 06/02 Q1023 NOSIG
12-03-06 METAR LIMC 062120Z 00000KT 9999 SCT080 05/02 Q1024 NOSIG
12-03-06 METAR LIMC 062220Z 00000KT 9999 SCT080 03/02 Q1024 NOSIG
12-03-06 METAR LIMC 062320Z 35001KT 9999 SCT070 03/02 Q1025 NOSIG
12-03-07 METAR LIMC 070020Z 34003KT 9999 SCT070 02/01 Q1025 NOSIG
12-03-07 METAR LIMC 070120Z 01002KT 9999 SCT070 01/00 Q1025 NOSIG
12-03-07 METAR LIMC 070220Z 34004KT 9999 SCT070 01/01 Q1025 NOSIG
12-03-07 METAR LIMC 070320Z 00000KT 9999 SCT080 02/01 Q1025 NOSIG
12-03-07 METAR LIMC 070420Z 35003KT 340V040 9999 SCT080 01/01 Q1025 NOSIG
12-03-07 METAR LIMC 070520Z 00000KT 9999 SCT080 M01/M01 Q1026 NOSIG
12-03-07 METAR LIMC 070620Z VRB02KT CAVOK 01/M00 Q1026 NOSIG
12-03-07 METAR LIMC 070720Z 34001KT CAVOK 03/02 Q1027 NOSIG
12-03-07 METAR LIMC 070820Z VRB01KT CAVOK 08/03 Q1027 NOSIG
12-03-07 METAR LIMC 070920Z VRB02KT CAVOK 09/02 Q1027 NOSIG
12-03-07 METAR LIMC 071020Z 15003KT 130V190 CAVOK 10/01 Q1027 NOSIG
12-03-07 METAR LIMC 071120Z VRB02KT CAVOK 11/M01 Q1026 NOSIG
12-03-07 METAR LIMC 071220Z VRB02KT 9999 FEW040 11/M00 Q1025 NOSIG
12-03-07 METAR LIMC 071320Z 13003KT 090V170 9999 SCT040 11/M00 Q1024 NOSIG
12-03-07 METAR LIMC 071420Z VRB02KT 9999 SCT040 12/01 Q1023 NOSIG
12-03-07 METAR LIMC 071520Z VRB02KT 9999 FEW040 12/00 Q1022 NOSIG
12-03-07 METAR LIMC 071620Z 20003KT CAVOK 11/01 Q1022 NOSIG
12-03-07 METAR LIMC 071720Z 21002KT CAVOK 09/01 Q1021 NOSIG
12-03-07 METAR LIMC 071820Z 21002KT CAVOK 07/01 Q1021 NOSIG
12-03-07 METAR LIMC 071920Z 00000KT CAVOK 07/01 Q1021 NOSIG
12-03-07 METAR LIMC 072120Z 00000KT CAVOK 04/01 Q1020 NOSIG
12-03-07 METAR LIMC 072220Z VRB01KT CAVOK 04/02 Q1020 NOSIG
12-03-07 METAR LIMC 072320Z 00000KT CAVOK 03/01 Q1020 NOSIG
12-03-08 METAR LIMC 080020Z 00000KT CAVOK 03/02 Q1018 NOSIG
12-03-08 METAR LIMC 080120Z 00000KT CAVOK 03/02 Q1018 NOSIG
12-03-08 METAR LIMC 080220Z 00000KT 8000 NSC 04/02 Q1017 NOSIG
12-03-08 METAR LIMC 080320Z VRB01KT 8000 SCT080 04/02 Q1017 NOSIG
12-03-08 METAR LIMC 080420Z VRB01KT 8000 SCT080 03/01 Q1017 NOSIG
12-03-08 METAR LIMC 080520Z 33003KT 6000 SCT080 04/02 Q1018 NOSIG
12-03-08 METAR LIMC 080620Z 03001KT 5000 BR BKN080 03/01 Q1018 NOSIG
12-03-08 METAR LIMC 080720Z VRB02KT 6000 SCT080 07/01 Q1018 NOSIG
12-03-08 METAR LIMC 080820Z VRB02KT 7000 FEW080 08/01 Q1019 NOSIG
12-03-08 METAR LIMC 080920Z VRB01KT 8000 NSC 10/00 Q1019 NOSIG
12-03-08 METAR LIMC 081020Z VRB01KT 9000 NSC 11/00 Q1019 NOSIG
12-03-08 METAR LIMC 081120Z VRB02KT 9000 NSC 12/00 Q1019 NOSIG
12-03-08 METAR LIMC 081220Z VRB03KT 7000 NSC 12/01 Q1019 NOSIG
12-03-08 METAR LIMC 081320Z VRB01KT 7000 NSC 13/01 Q1019 NOSIG
12-03-08 METAR LIMC 081420Z VRB01KT 9000 NSC 14/01 Q1019 NOSIG
12-03-08 METAR LIMC 081520Z 15003KT 110V180 9000 NSC 13/02 Q1019 NOSIG
12-03-08 METAR LIMC 081620Z VRB02KT 9000 NSC 14/03 Q1020 NOSIG
12-03-08 METAR LIMC 081720Z 35006KT 9000 SCT070 14/M08 Q1021 NOSIG
12-03-08 METAR LIMC 081820Z 35005KT 9999 SCT075 12/M09 Q1022 NOSIG
12-03-08 METAR LIMC 081920Z 36006KT 9999 SCT070 12/M10 Q1023 NOSIG
12-03-08 METAR LIMC 082020Z 35006KT 9999 SCT070 11/M10 Q1024 NOSIG
12-03-08 METAR LIMC 082120Z 36006KT 9999 SCT070 10/M10 Q1025 NOSIG
12-03-08 METAR LIMC 082220Z 36005KT 9999 FEW070 10/M10 Q1026 NOSIG
12-03-08 METAR LIMC 082320Z 36005KT 9999 FEW070 10/M11 Q1026 NOSIG
12-03-09 METAR LIMC 090020Z 01005KT 9999 BKN070 10/M09 Q1027 NOSIG
12-03-09 METAR LIMC 090120Z 36005KT 9999 BKN070 10/M07 Q1028 NOSIG
12-03-09 METAR LIMC 090220Z 36004KT 330V030 9999 BKN070 10/M06 Q1028 NOSIG
12-03-09 METAR LIMC 090320Z NIL
12-03-09 METAR LIMC 090420Z NIL
12-03-09 METAR LIMC 090520Z NIL
12-03-09 METAR LIMC 090620Z 36006KT 9999 SCT040 BKN070 08/M01 Q1031 NOSIG
12-03-09 METAR LIMC 090720Z 01004KT 9999 BKN070 08/M02 Q1032 NOSIG
12-03-09 METAR LIMC 090820Z 36006KT 9999 BKN060 09/M02 Q1033 NOSIG
12-03-09 METAR LIMC 090920Z 35004KT 320V030 9999 SCT070 10/M01 Q1033 NOSIG
12-03-09 METAR LIMC 091020Z 33005KT 300V360 9999 FEW080 11/M02 Q1033 NOSIG
12-03-09 METAR LIMC 091120Z 36004KT 310V060 9999 FEW040 12/M03 Q1033 NOSIG
12-03-09 METAR LIMC 091220Z 30004KT 270V350 9999 FEW040 13/M04 Q1033 NOSIG
12-03-09 METAR LIMC 091320Z VRB03KT 9999 FEW035 13/M04 Q1033 NOSIG
12-03-09 METAR LIMC 091420Z VRB02KT 9999 FEW035 13/M05 Q1032 NOSIG
12-03-09 METAR LIMC 091520Z VRB02KT CAVOK 14/M05 Q1032 NOSIG
12-03-09 METAR LIMC 091620Z 24003KT 210V290 CAVOK 13/M05 Q1032 NOSIG
12-03-09 METAR LIMC 091720Z 24004KT CAVOK 11/M03 Q1032 NOSIG
12-03-09 METAR LIMC 091820Z 25003KT CAVOK 10/M02 Q1033 NOSIG
12-03-09 METAR LIMC 091920Z 23002KT CAVOK 07/M01 Q1033 NOSIG
12-03-09 METAR LIMC 092020Z 00000KT CAVOK 04/M02 Q1033 NOSIG
12-03-09 METAR LIMC 092120Z 00000KT CAVOK 02/M03 Q1034 NOSIG
12-03-09 METAR LIMC 092220Z 00000KT CAVOK 01/M03 Q1034 NOSIG
12-03-09 METAR LIMC 092320Z 35003KT CAVOK 02/M03 Q1034 NOSIG
12-03-10 METAR LIMC 100020Z 35002KT CAVOK 01/M03 Q1034 NOSIG
12-03-10 METAR LIMC 100120Z 35003KT CAVOK 00/M02 Q1034 NOSIG
12-03-10 METAR LIMC 100220Z VRB02KT CAVOK 01/M03 Q1033 NOSIG
12-03-10 METAR LIMC 100320Z 35004KT 330V070 CAVOK M00/M03 Q1033 NOSIG
12-03-10 METAR LIMC 100420Z 01003KT 350V070 CAVOK 00/M03 Q1033 NOSIG
12-03-10 METAR LIMC 100520Z VRB01KT CAVOK M01/M04 Q1033 NOSIG
12-03-10 METAR LIMC 100620Z 35003KT 330V050 CAVOK 00/M03 Q1033 NOSIG
12-03-10 METAR LIMC 100720Z 34002KT CAVOK 04/M01 Q1033 NOSIG
12-03-10 METAR LIMC 100820Z VRB02KT CAVOK 09/M03 Q1033 NOSIG
12-03-10 METAR LIMC 100920Z 12003KT 080V170 CAVOK 10/M05 Q1033 NOSIG
12-03-10 METAR LIMC 101020Z VRB03KT CAVOK 11/M04 Q1032 NOSIG
12-03-10 METAR LIMC 101120Z VRB03KT CAVOK 11/M05 Q1032 NOSIG
12-03-10 METAR LIMC 101220Z VRB02KT CAVOK 12/M05 Q1031 NOSIG
12-03-10 METAR LIMC 101320Z VRB01KT CAVOK 13/M05 Q1030 NOSIG
12-03-10 METAR LIMC 101420Z VRB02KT CAVOK 13/M04 Q1029 NOSIG
12-03-10 METAR LIMC 101520Z 17003KT 110V200 CAVOK 13/M04 Q1028 NOSIG
12-03-10 METAR LIMC 101620Z 16003KT 130V200 CAVOK 12/M03 Q1028 NOSIG
12-03-10 METAR LIMC 101720Z 20002KT CAVOK 10/M02 Q1028 NOSIG
12-03-10 METAR LIMC 101820Z 17002KT CAVOK 08/M02 Q1028 NOSIG
12-03-10 METAR LIMC 101920Z 00000KT CAVOK 07/M01 Q1028 NOSIG
12-03-10 METAR LIMC 102020Z VRB01KT CAVOK 03/M01 Q1029 NOSIG
12-03-10 METAR LIMC 102120Z VRB01KT CAVOK 02/M02 Q1029 NOSIG
12-03-10 METAR LIMC 102220Z 00000KT CAVOK 00/M02 Q1028 NOSIG
12-03-10 METAR LIMC 102320Z VRB02KT CAVOK 00/M02 Q1028 NOSIG
12-03-11 METAR LIMC 110020Z 07003KT 360V090 CAVOK M00/M02 Q1027 NOSIG
12-03-11 METAR LIMC 110120Z VRB02KT CAVOK M01/M03 Q1026 NOSIG
12-03-11 METAR LIMC 110220Z 06003KT 010V080 CAVOK M01/M03 Q1026 NOSIG
12-03-11 METAR LIMC 110320Z 06003KT 340V080 CAVOK M02/M04 Q1025 NOSIG
12-03-11 METAR LIMC 110420Z VRB02KT CAVOK M00/M03 Q1025 NOSIG
12-03-11 METAR LIMC 110520Z 00000KT CAVOK M00/M02 Q1025 NOSIG
12-03-11 METAR LIMC 110620Z 34002KT 9999 BKN090 02/M01 Q1025 NOSIG
12-03-11 METAR LIMC 110720Z 34003KT 9999 BKN070 04/01 Q1025 NOSIG
12-03-11 METAR LIMC 110820Z 00000KT CAVOK 09/M00 Q1025 NOSIG
12-03-11 METAR LIMC 110920Z VRB02KT 9999 FEW090 11/M01 Q1025 NOSIG
12-03-11 METAR LIMC 111020Z VRB01KT CAVOK 12/M01 Q1025 NOSIG
12-03-11 METAR LIMC 111120Z 22003KT 180V260 CAVOK 13/M01 Q1024 NOSIG
12-03-11 METAR LIMC 111220Z 23003KT CAVOK 13/M00 Q1022 NOSIG
12-03-11 METAR LIMC 111320Z 24004KT 200V260 CAVOK 14/01 Q1021 NOSIG
12-03-11 METAR LIMC 111420Z 21004KT 190V250 CAVOK 15/00 Q1020 NOSIG
12-03-11 METAR LIMC 111520Z 22004KT CAVOK 15/02 Q1019 NOSIG
12-03-11 METAR LIMC 111620Z 23004KT CAVOK 15/02 Q1019 NOSIG
12-03-11 METAR LIMC 111720Z 26003KT CAVOK 13/03 Q1019 NOSIG
12-03-11 METAR LIMC 111820Z 26003KT CAVOK 12/03 Q1019 NOSIG
12-03-11 METAR LIMC 111920Z 21003KT 110V260 CAVOK 10/03 Q1019 NOSIG
12-03-11 METAR LIMC 112020Z VRB01KT CAVOK 11/M01 Q1019 NOSIG
12-03-11 METAR LIMC 112120Z VRB02KT CAVOK 10/M00 Q1019 NOSIG
12-03-11 METAR LIMC 112220Z 01005KT CAVOK 15/M03 Q1019 NOSIG
12-03-11 METAR LIMC 112320Z 36005KT CAVOK 17/M04 Q1018 NOSIG
12-03-12 METAR LIMC 120020Z 16003KT 130V190 CAVOK 08/02 Q1019 NOSIG
12-03-12 METAR LIMC 120120Z VRB01KT CAVOK 06/01 Q1020 NOSIG
12-03-12 METAR LIMC 120220Z 35003KT CAVOK 04/M00 Q1020 NOSIG
12-03-12 METAR LIMC 120320Z 20004KT 150V230 CAVOK 04/01 Q1020 NOSIG
12-03-12 METAR LIMC 120420Z 00000KT CAVOK 04/00 Q1020 NOSIG
12-03-12 METAR LIMC 120520Z 00000KT CAVOK 02/00 Q1020 NOSIG
12-03-12 METAR LIMC 120620Z 00000KT 9000 NSC 02/M00 Q1021 NOSIG
12-03-12 METAR LIMC 120720Z VRB02KT 9000 BKN090 07/02 Q1021 NOSIG
12-03-12 METAR LIMC 120820Z 00000KT 9000 BKN090 10/03 Q1021 NOSIG
12-03-12 METAR LIMC 120920Z 00000KT 9000 BKN090 13/03 Q1021 NOSIG
12-03-12 METAR LIMC 121020Z 00000KT 9000 BKN090 16/01 Q1021 NOSIG
12-03-12 METAR LIMC 121120Z VRB02KT 9999 SCT090 17/01 Q1021 NOSIG
12-03-12 METAR LIMC 121220Z VRB02KT 9999 SCT090 18/03 Q1020 NOSIG
12-03-12 METAR LIMC 121320Z 24003KT 220V310 9999 SCT080 18/01 Q1019 NOSIG
12-03-12 METAR LIMC 121420Z 24002KT 9999 SCT080 19/02 Q1019 NOSIG
12-03-12 METAR LIMC 121520Z 00000KT 9999 SCT080 19/03 Q1019 NOSIG
12-03-12 METAR LIMC 121620Z 22001KT 9999 SCT080 17/05 Q1019 NOSIG
12-03-12 METAR LIMC 121720Z VRB02KT 9999 SCT080 16/06 Q1019 NOSIG
12-03-12 METAR LIMC 121820Z 35005KT 320V030 9999 SCT080 18/M06 Q1019 NOSIG
12-03-12 METAR LIMC 121920Z 03005KT 350V060 9999 BKN080 20/M06 Q1019 NOSIG
12-03-12 METAR LIMC 122020Z 35005KT 9999 SCT080 19/M06 Q1019 NOSIG
12-03-12 METAR LIMC 122120Z VRB02KT 9999 SCT080 16/M06 Q1020 NOSIG
12-03-12 METAR LIMC 122220Z VRB02KT 9999 FEW080 13/02 Q1021 NOSIG
12-03-12 METAR LIMC 122320Z 08004KT 040V110 9999 FEW080 12/02 Q1022 NOSIG
12-03-13 METAR LIMC 130020Z 06004KT CAVOK 10/03 Q1023 NOSIG
12-03-13 METAR LIMC 130120Z 05003KT CAVOK 09/02 Q1024 NOSIG
12-03-13 METAR LIMC 130220Z VRB02KT CAVOK 07/00 Q1025 NOSIG
12-03-13 METAR LIMC 130320Z 36003KT CAVOK 03/M01 Q1025 NOSIG
12-03-13 METAR LIMC 130420Z 35003KT CAVOK 03/M01 Q1025 NOSIG
12-03-13 METAR LIMC 130520Z 35003KT CAVOK 02/M01 Q1025 NOSIG
12-03-13 METAR LIMC 130620Z VRB02KT CAVOK 04/00 Q1026 NOSIG
12-03-13 METAR LIMC 130720Z VRB01KT CAVOK 09/02 Q1026 NOSIG
12-03-13 METAR LIMC 130820Z VRB01KT CAVOK 13/01 Q1026 NOSIG
12-03-13 METAR LIMC 130920Z VRB02KT CAVOK 14/01 Q1025 NOSIG
12-03-13 METAR LIMC 131020Z 12004KT CAVOK 14/02 Q1025 NOSIG
12-03-13 METAR LIMC 131120Z 14003KT 080V180 CAVOK 15/02 Q1025 NOSIG
12-03-13 METAR LIMC 131220Z VRB02KT CAVOK 16/03 Q1024 NOSIG
12-03-13 METAR LIMC 131320Z 14003KT 070V210 CAVOK 17/03 Q1024 NOSIG
12-03-13 METAR LIMC 131420Z 12003KT 070V170 CAVOK 17/03 Q1023 NOSIG
12-03-13 METAR LIMC 131520Z 13003KT 090V160 CAVOK 17/03 Q1023 NOSIG
12-03-13 METAR LIMC 131620Z VRB02KT CAVOK 16/03 Q1023 NOSIG
12-03-13 METAR LIMC 131720Z VRB02KT CAVOK 15/02 Q1024 NOSIG
12-03-13 METAR LIMC 131820Z VRB01KT CAVOK 14/03 Q1025 NOSIG
12-03-13 METAR LIMC 131920Z VRB03KT CAVOK 12/03 Q1025 NOSIG
12-03-13 METAR LIMC 132020Z VRB02KT CAVOK 11/04 Q1026 NOSIG
12-03-13 METAR LIMC 132120Z VRB02KT CAVOK 07/03 Q1026 NOSIG
12-03-13 METAR LIMC 132220Z VRB02KT CAVOK 06/02 Q1026 NOSIG
12-03-13 METAR LIMC 132320Z 35003KT CAVOK 03/01 Q1026 NOSIG
12-03-14 METAR LIMC 140020Z VRB02KT CAVOK 03/01 Q1026 NOSIG
12-03-14 METAR LIMC 140120Z 36002KT CAVOK 03/01 Q1026 NOSIG
12-03-14 METAR LIMC 140220Z 36003KT CAVOK 03/02 Q1026 NOSIG
12-03-14 METAR LIMC 140320Z VRB01KT CAVOK 01/M00 Q1026 NOSIG
12-03-14 METAR LIMC 140420Z 36001KT 7000 NSC 02/01 Q1026 NOSIG
12-03-14 METAR LIMC 140520Z 35002KT 7000 NSC 01/M00 Q1026 NOSIG
12-03-14 METAR LIMC 140620Z 35002KT 4000 MIFG NSC 02/01 Q1026 NOSIG
12-03-14 METAR LIMC 140720Z VRB02KT 4000 MIFG NSC 08/05 Q1027 NOSIG
12-03-14 METAR LIMC 140820Z VRB01KT 4000 BR NSC 12/04 Q1027 NOSIG
12-03-14 METAR LIMC 140920Z VRB01KT 8000 NSC 14/04 Q1027 NOSIG
12-03-14 METAR LIMC 141020Z 00000KT 9000 NSC 16/04 Q1027 NOSIG
12-03-14 METAR LIMC 141120Z 12003KT 040V160 CAVOK 16/03 Q1027 NOSIG
12-03-14 METAR LIMC 141220Z VRB01KT CAVOK 18/04 Q1026 NOSIG
12-03-14 METAR LIMC 141320Z VRB02KT CAVOK 18/03 Q1025 NOSIG
12-03-14 METAR LIMC 141420Z 25004KT 210V290 CAVOK 18/04 Q1025 NOSIG
12-03-14 METAR LIMC 141520Z 23003KT 160V260 CAVOK 18/04 Q1024 NOSIG
12-03-14 METAR LIMC 141620Z 19003KT CAVOK 18/05 Q1024 NOSIG
12-03-14 METAR LIMC 141720Z 22002KT CAVOK 15/05 Q1025 NOSIG
12-03-14 METAR LIMC 141820Z 00000KT 9000 NSC 13/05 Q1025 NOSIG
12-03-14 METAR LIMC 141920Z 00000KT CAVOK 09/04 Q1025 NOSIG
12-03-14 METAR LIMC 142020Z VRB02KT CAVOK 08/04 Q1026 NOSIG
12-03-14 METAR LIMC 142120Z VRB01KT CAVOK 09/05 Q1026 NOSIG
12-03-14 METAR LIMC 142220Z 36001KT CAVOK 05/04 Q1026 NOSIG
12-03-14 METAR LIMC 142320Z 33001KT CAVOK 04/02 Q1026 NOSIG
12-03-15 METAR LIMC 150020Z 36003KT CAVOK 04/02 Q1026 NOSIG
12-03-15 METAR LIMC 150120Z 34001KT CAVOK 03/01 Q1026 NOSIG
12-03-15 METAR LIMC 150220Z 35002KT CAVOK 03/02 Q1026 NOSIG
12-03-15 METAR LIMC 150320Z 35002KT CAVOK 04/03 Q1025 NOSIG
12-03-15 METAR LIMC 150420Z 00000KT CAVOK 02/01 Q1026 NOSIG
12-03-15 METAR LIMC 150520Z 02001KT 9999 MIFG NSC 02/01 Q1026 NOSIG
12-03-15 METAR LIMC 150620Z VRB02KT 9999 MIFG NSC 04/02 Q1026 NOSIG
12-03-15 METAR LIMC 150720Z VRB02KT 9000 NSC 09/04 Q1027 NOSIG
12-03-15 METAR LIMC 150820Z VRB02KT CAVOK 13/04 Q1027 NOSIG
12-03-15 METAR LIMC 150920Z VRB02KT 8000 NSC 15/05 Q1027 NOSIG
12-03-15 METAR LIMC 151020Z VRB03KT 8000 NSC 17/05 Q1027 NOSIG
12-03-15 METAR LIMC 151120Z VRB02KT 7000 NSC 18/06 Q1027 NOSIG
12-03-15 METAR LIMC 151220Z VRB02KT 6000 NSC 19/06 Q1026 NOSIG
12-03-15 METAR LIMC 151320Z 17003KT 090V210 6000 NSC 19/06 Q1026 NOSIG
12-03-15 METAR LIMC 151420Z VRB02KT 7000 NSC 20/04 Q1025 NOSIG
12-03-15 METAR LIMC 151620Z VRB02KT 7000 NSC 19/06 Q1025 NOSIG
12-03-15 METAR LIMC 151720Z VRB02KT 7000 NSC 18/05 Q1025 NOSIG
12-03-15 METAR LIMC 152120Z VRB01KT 8000 NSC 08/04 Q1028 NOSIG
12-03-15 METAR LIMC 152220Z 00000KT 8000 NSC 08/04 Q1028 NOSIG
12-03-15 METAR LIMC 152320Z 06001KT 8000 NSC 06/04 Q1028 NOSIG
12-03-16 METAR LIMC 160020Z 06002KT 8000 NSC 06/04 Q1029 NOSIG
12-03-16 METAR LIMC 160120Z 00000KT 8000 NSC 06/03 Q1028 NOSIG
12-03-16 METAR LIMC 160220Z VRB01KT 8000 NSC 07/05 Q1028 NOSIG
12-03-16 METAR LIMC 160320Z 36003KT 8000 NSC 05/03 Q1028 NOSIG
12-03-16 METAR LIMC 160420Z 01001KT 8000 NSC 04/03 Q1028 NOSIG
12-03-16 METAR LIMC 160520Z 36003KT 8000 NSC 03/02 Q1028 NOSIG
12-03-16 METAR LIMC 160620Z 00000KT 5000 BR NSC 04/03 Q1029 NOSIG
12-03-16 METAR LIMC 160720Z 00000KT 5000 BR NSC 08/06 Q1029 NOSIG
12-03-16 METAR LIMC 160820Z 00000KT 4000 BR NSC 13/05 Q1029 NOSIG
12-03-16 METAR LIMC 160920Z VRB02KT 6000 NSC 14/05 Q1029 NOSIG
12-03-16 METAR LIMC 161020Z VRB02KT 6000 NSC 16/06 Q1029 NOSIG
12-03-16 METAR LIMC 161120Z VRB02KT 6000 NSC 17/06 Q1028 NOSIG
12-03-16 METAR LIMC 161220Z VRB03KT 6000 NSC 17/06 Q1027 NOSIG
12-03-16 METAR LIMC 161320Z 12003KT 090V150 6000 NSC 18/06 Q1027 NOSIG
12-03-16 METAR LIMC 161420Z VRB02KT 6000 NSC 18/07 Q1026 NOSIG
12-03-16 METAR LIMC 161520Z 15003KT 090V250 5000 HZ NSC 18/07 Q1026 NOSIG
12-03-16 METAR LIMC 161620Z 20002KT 5000 HZ NSC 18/07 Q1026 NOSIG
12-03-16 METAR LIMC 161720Z 20002KT 5000 HZ NSC 15/07 Q1026 NOSIG
12-03-16 METAR LIMC 161820Z 00000KT 5000 BR NSC 12/07 Q1026 NOSIG
12-03-16 METAR LIMC 161920Z 00000KT 5000 BR NSC 11/06 Q1026 NOSIG
12-03-16 METAR LIMC 162020Z 00000KT 5000 BR NSC 09/05 Q1027 NOSIG
12-03-16 METAR LIMC 162120Z 00000KT 7000 NSC 10/07 Q1027 NOSIG
12-03-16 METAR LIMC 162220Z 00000KT 6000 NSC 07/06 Q1027 NOSIG
12-03-16 METAR LIMC 162320Z 00000KT 6000 NSC 06/05 Q1027 NOSIG
12-03-17 METAR LIMC 170020Z 00000KT 6000 NSC 04/03 Q1028 NOSIG
12-03-17 METAR LIMC 170120Z 00000KT 7000 NSC 04/03 Q1027 NOSIG
12-03-17 METAR LIMC 170220Z 36002KT 7000 NSC 04/03 Q1027 NOSIG
12-03-17 METAR LIMC 170320Z VRB02KT 5000 BR NSC 04/03 Q1026 NOSIG
12-03-17 METAR LIMC 170420Z 35002KT 5000 BR NSC 04/03 Q1026 NOSIG
12-03-17 METAR LIMC 170520Z 00000KT 3000 R35L/1500N R35R/1100V1500D BR NSC 03/03 Q1026 NOSIG
12-03-17 METAR LIMC 170620Z 00000KT 2000 R35L/1500N R35R/1300V1500N BR BKN040 06/05 Q1027 NOSIG
12-03-17 METAR LIMC 170720Z VRB01KT 2500 1300S BR SCT070 09/07 Q1027 NOSIG
12-03-17 METAR LIMC 170820Z VRB01KT 2500 BR NSC 12/07 Q1027 NOSIG
12-03-17 METAR LIMC 170920Z VRB01KT 4000 BR NSC 12/06 Q1027 NOSIG
12-03-17 METAR LIMC 171020Z 19004KT 160V220 9000 BKN080 13/06 Q1027 NOSIG
12-03-17 METAR LIMC 171120Z VRB02KT 8000 NSC 14/06 Q1027 NOSIG
12-03-17 METAR LIMC 171220Z VRB02KT 9000 SCT080 15/06 Q1026 NOSIG
12-03-17 METAR LIMC 171320Z VRB02KT 9999 SCT080 15/06 Q1025 NOSIG
12-03-17 METAR LIMC 171420Z 20003KT 150V260 9000 SCT070 16/06 Q1024 NOSIG
12-03-17 METAR LIMC 171520Z 17003KT 130V210 9000 SCT040 BKN060 15/06 Q1024 NOSIG
12-03-17 METAR LIMC 171620Z VRB01KT 9000 SCT040 BKN060 15/06 Q1024 NOSIG
12-03-17 METAR LIMC 171720Z VRB01KT 9000 BKN060 14/06 Q1024 NOSIG
12-03-17 METAR LIMC 171820Z 00000KT 9999 BKN060 11/06 Q1024 NOSIG
12-03-17 METAR LIMC 171920Z 17002KT CAVOK 11/06 Q1025 NOSIG
12-03-17 METAR LIMC 172020Z 00000KT 9999 SCT030 09/06 Q1025 NOSIG
12-03-17 METAR LIMC 172120Z 00000KT 9999 BKN040 09/06 Q1025 NOSIG
12-03-17 METAR LIMC 172220Z 00000KT 9999 BKN060 10/06 Q1025 NOSIG
12-03-17 METAR LIMC 172320Z 00000KT 9999 BKN048 10/06 Q1025 NOSIG
12-03-18 METAR LIMC 180020Z VRB01KT 9999 BKN048 09/07 Q1024 NOSIG
12-03-18 METAR LIMC 180120Z 06002KT 8000 DZ BKN048 10/07 Q1024 NOSIG
12-03-18 METAR LIMC 180220Z 31001KT 5000 RA BKN025 OVC050 10/08 Q1023 NOSIG
12-03-18 METAR LIMC 180320Z 02002KT 6000 -RA BKN025 OVC050 09/08 Q1023 RERA NOSIG
12-03-18 METAR LIMC 180420Z 05002KT 6000 -RA BKN025 OVC050 09/09 Q1023 NOSIG
12-03-18 METAR LIMC 180520Z 02001KT 7000 SCT030 OVC050 09/09 Q1022 NOSIG
12-03-18 METAR LIMC 180620Z VRB01KT 5000 BR SCT030 BKN050 10/08 Q1022 NOSIG
12-03-18 METAR LIMC 180720Z 07003KT 030V110 2300 BR BKN035 09/08 Q1023 REDZ NOSIG
12-03-18 METAR LIMC 180820Z 09003KT 060V120 2300 BR OVC030 09/08 Q1023 NOSIG
12-03-18 METAR LIMC 180920Z 09004KT 040V140 2300 BR SCT015 BKN040 10/08 Q1023 NOSIG
12-03-18 METAR LIMC 181020Z 09004KT 050V140 3000 BR BKN010 BKN040 11/08 Q1022 NOSIG
12-03-18 METAR LIMC 181120Z 09004KT 060V190 3000 BR SCT015 BKN040 11/08 Q1022 NOSIG
12-03-18 METAR LIMC 181220Z 08004KT 040V100 4000 BR SCT020 BKN040 11/08 Q1021 NOSIG
12-03-18 METAR LIMC 181320Z 09004KT 050V210 5000 BR RA SCT020 BKN040 12/08 Q1020 NOSIG
12-03-18 METAR LIMC 181420Z 10004KT 5000 BR SCT020 BKN040 13/08 Q1019 NOSIG
12-03-18 METAR LIMC 181520Z 09004KT 5000 BR SCT020 BKN040 13/08 Q1018 NOSIG
12-03-18 METAR LIMC 181620Z 11004KT 070V140 6000 SCT020 BKN040 13/09 Q1018 NOSIG
12-03-18 METAR LIMC 181720Z VRB02KT 4000 BR SCT020 BKN040 13/09 Q1018 NOSIG
12-03-18 METAR LIMC 181820Z 17003KT 6000 SCT040 BKN070 12/07 Q1018 NOSIG
12-03-18 METAR LIMC 181920Z 18006KT 150V210 9999 SCT040 BKN070 12/06 Q1019 NOSIG
12-03-18 METAR LIMC 182020Z 18006KT 9999 BKN025 BKN050 12/07 Q1019 NOSIG
12-03-18 METAR LIMC 182120Z 15004KT 9999 BKN030 BKN050 12/07 Q1019 NOSIG
12-03-18 METAR LIMC 182220Z 15005KT 9999 BKN030 BKN050 12/07 Q1019 NOSIG
12-03-18 METAR LIMC 182320Z 16005KT 120V180 9999 BKN030 BKN050 12/07 Q1019 NOSIG
12-03-19 METAR LIMC 190020Z 13003KT 9999 BKN030 BKN050 12/06 Q1019 NOSIG
12-03-19 METAR LIMC 190120Z 07002KT 9999 BKN030 BKN050 11/07 Q1019 NOSIG
12-03-19 METAR LIMC 190220Z 35004KT 330V030 9999 BKN030 09/07 Q1019 NOSIG
12-03-19 METAR LIMC 190320Z 35005KT 9999 RA BKN030 08/06 Q1019 NOSIG
12-03-19 METAR LIMC 190420Z VRB02KT 4500 RA SCT008 OVC030 08/07 Q1019 NOSIG
12-03-19 METAR LIMC 190520Z 32004KT 4500 RA SCT008 BKN030 07/07 Q1019 NOSIG
12-03-19 METAR LIMC 190620Z 33006KT 4500 RA BR BKN020 BKN050 07/07 Q1020 NOSIG
12-03-19 METAR LIMC 190720Z 34006KT 6000 RA BKN020 BKN050 07/06 Q1021 NOSIG
12-03-19 METAR LIMC 190820Z 35007KT 9999 -RA BKN025 BKN050 07/05 Q1021 NOSIG
12-03-19 METAR LIMC 190920Z 35006KT 9999 RA BKN030 BKN050 07/05 Q1022 NOSIG
12-03-19 METAR LIMC 191020Z NIL
12-03-19 METAR LIMC 191020Z 36005KT 9999 SCT040 BKN070 08/05 Q1022 NOSIG
12-03-19 METAR LIMC 191120Z 02007KT 350V050 9999 FEW030 BKN060 10/05 Q1023 NOSIG
12-03-19 METAR LIMC 191220Z 01006KT 330V030 9999 FEW030 SCT060 11/05 Q1023 NOSIG
12-03-19 METAR LIMC 191320Z 34006KT 9999 SCT060 12/05 Q1023 NOSIG
12-03-19 METAR LIMC 191420Z 36005KT CAVOK 12/03 Q1023 NOSIG
12-03-19 METAR LIMC 191520Z 02004KT 320V050 CAVOK 12/04 Q1023 NOSIG
12-03-19 METAR LIMC 191620Z 02004KT 350V060 CAVOK 12/03 Q1024 NOSIG
12-03-19 METAR LIMC 191720Z 35003KT 9999 FEW060 10/04 Q1025 NOSIG
12-03-19 METAR LIMC 191820Z VRB02KT 9999 FEW080 09/03 Q1026 NOSIG
12-03-19 METAR LIMC 191920Z 36003KT 340V040 CAVOK 09/03 Q1027 NOSIG
12-03-19 METAR LIMC 192020Z VRB02KT 9999 FEW030 08/04 Q1028 NOSIG
12-03-19 METAR LIMC 192120Z VRB02KT 9999 SCT040 09/04 Q1029 NOSIG
12-03-19 METAR LIMC 192220Z NIL
12-03-19 METAR LIMC 192220Z 30003KT 9999 SCT040 08/04 Q1030 NOSIG
12-03-19 METAR LIMC 192320Z 34004KT 9999 SCT040 07/05 Q1030 NOSIG
12-03-20 METAR LIMC 200020Z 35003KT 9999 SCT040 06/04 Q1031 NOSIG
12-03-20 METAR LIMC 200120Z 35003KT 9999 SCT040 07/04 Q1031 NOSIG
12-03-20 METAR LIMC 200220Z 36004KT 9999 SCT040 07/04 Q1031 NOSIG
12-03-20 METAR LIMC 200320Z 34003KT 9999 SCT040 05/04 Q1031 NOSIG
12-03-20 METAR LIMC 200420Z 36002KT 9999 FEW040 04/02 Q1032 NOSIG
12-03-20 METAR LIMC 200520Z 36003KT CAVOK 04/02 Q1032 NOSIG
12-03-20 METAR LIMC 200620Z 35003KT CAVOK 05/03 Q1033 NOSIG
12-03-20 METAR LIMC 200720Z 35003KT 310V030 9999 BKN050 08/03 Q1034 NOSIG
12-03-20 METAR LIMC 200820Z 34003KT CAVOK 11/04 Q1034 NOSIG
12-03-20 METAR LIMC 200920Z VRB02KT CAVOK 12/04 Q1035 NOSIG
12-03-20 METAR LIMC 201020Z VRB01KT 9999 FEW030 14/04 Q1035 NOSIG
12-03-20 METAR LIMC 201120Z VRB01KT 9999 R35L/1500N R35R/1400V1500N SCT030 15/02 Q1034 NOSIG
12-03-20 METAR LIMC 201220Z VRB02KT 9999 SCT030 16/01 Q1034 NOSIG
12-03-20 METAR LIMC 201320Z VRB03KT 9999 R35L/1500N R35R/1400V1500N SCT030 16/M00 Q1033 NOSIG
12-03-20 METAR LIMC 201420Z VRB02KT 9999 FEW030 16/M02 Q1033 NOSIG
12-03-20 METAR LIMC 201520Z NIL
12-03-20 METAR LIMC 201520Z 11003KT 080V140 CAVOK 16/M03 Q1032 NOSIG
12-03-20 METAR LIMC 201620Z VRB01KT CAVOK 16/M03 Q1032 NOSIG
12-03-20 METAR LIMC 201720Z 19002KT CAVOK 13/01 Q1033 NOSIG
12-03-20 METAR LIMC 201820Z 00000KT CAVOK 12/02 Q1033 NOSIG
12-03-20 METAR LIMC 201920Z 00000KT CAVOK 11/03 Q1033 NOSIG
12-03-20 METAR LIMC 202020Z VRB01KT CAVOK 10/02 Q1034 NOSIG
12-03-20 METAR LIMC 202120Z 33003KT CAVOK 09/01 Q1034 NOSIG
12-03-20 METAR LIMC 202220Z VRB01KT CAVOK 09/00 Q1034 NOSIG
12-03-20 METAR LIMC 202320Z 33003KT 310V050 CAVOK 07/03 Q1034 NOSIG
12-03-21 METAR LIMC 210020Z 36003KT 340V050 9999 R17R/0050V1500N R35L/1500N SCT080 08/02 Q1034 NOSIG
12-03-21 METAR LIMC 210120Z 34004KT 9999 BKN080 09/02 Q1034 NOSIG
12-03-21 METAR LIMC 210220Z 35003KT 310V040 9999 BKN080 09/02 Q1034 NOSIG
12-03-21 METAR LIMC 210320Z 36002KT 9999 BKN080 09/01 Q1034 NOSIG
12-03-21 METAR LIMC 210420Z 34003KT 9999 BKN080 09/01 Q1034 NOSIG
12-03-21 METAR LIMC 210520Z 36003KT 9999 BKN050 09/01 Q1034 NOSIG
12-03-21 METAR LIMC 210620Z 00000KT 9999 BKN060 09/01 Q1034 NOSIG
12-03-21 METAR LIMC 210720Z VRB01KT 9999 SCT060 12/00 Q1034 NOSIG
12-03-21 METAR LIMC 210820Z 31003KT CAVOK 14/00 Q1034 NOSIG
12-03-21 METAR LIMC 210920Z VRB02KT CAVOK 15/M00 Q1034 NOSIG
12-03-21 METAR LIMC 211020Z VRB02KT CAVOK 18/00 Q1034 NOSIG
12-03-21 METAR LIMC 211120Z VRB02KT CAVOK 19/M00 Q1034 NOSIG
12-03-21 METAR LIMC 211220Z VRB01KT CAVOK 20/02 Q1033 NOSIG
12-03-21 METAR LIMC 211320Z VRB02KT CAVOK 20/01 Q1032 NOSIG
12-03-21 METAR LIMC 211420Z VRB02KT CAVOK 21/01 Q1031 NOSIG
12-03-21 METAR LIMC 211520Z VRB02KT CAVOK 20/01 Q1031 NOSIG
12-03-21 METAR LIMC 211620Z 21003KT 180V240 CAVOK 19/03 Q1031 NOSIG
12-03-21 METAR LIMC 211720Z NIL
12-03-21 METAR LIMC 211720Z VRB02KT 9999 FEW080 17/03 Q1031 NOSIG
12-03-21 METAR LIMC 211820Z 25001KT 9999 FEW080 14/04 Q1031 NOSIG
12-03-21 METAR LIMC 211920Z 00000KT 9999 FEW080 13/05 Q1031 NOSIG
12-03-21 METAR LIMC 212020Z 00000KT 9999 FEW080 09/04 Q1031 NOSIG
12-03-21 METAR LIMC 212120Z VRB01KT 9999 FEW080 11/05 Q1031 NOSIG
12-03-21 METAR LIMC 212220Z 01001KT CAVOK 08/03 Q1031 NOSIG
12-03-21 METAR LIMC 212320Z VRB01KT CAVOK 07/04 Q1031 NOSIG
12-03-22 METAR LIMC 220020Z 36002KT CAVOK 05/03 Q1031 NOSIG
12-03-22 METAR LIMC 220120Z 36002KT CAVOK 05/03 Q1031 NOSIG
12-03-22 METAR LIMC 220220Z 01003KT 350V060 CAVOK 06/03 Q1030 NOSIG
12-03-22 METAR LIMC 220320Z 01001KT CAVOK 05/02 Q1030 NOSIG
12-03-22 METAR LIMC 220420Z NIL
12-03-22 METAR LIMC 220520Z 35003KT CAVOK 04/02 Q1031 NOSIG
12-03-22 METAR LIMC 220620Z 03003KT 340V050 CAVOK 08/04 Q1031 NOSIG
12-03-22 METAR LIMC 220720Z VRB02KT CAVOK 12/05 Q1031 NOSIG
12-03-22 METAR LIMC 220820Z VRB02KT CAVOK 15/04 Q1031 NOSIG
12-03-22 METAR LIMC 220920Z VRB01KT CAVOK 17/05 Q1031 NOSIG
12-03-22 METAR LIMC 221020Z VRB02KT CAVOK 18/04 Q1031 NOSIG
12-03-22 METAR LIMC 221120Z VRB02KT CAVOK 19/04 Q1030 NOSIG
12-03-22 METAR LIMC 221220Z VRB02KT 9999 FEW040 20/04 Q1029 NOSIG
12-03-22 METAR LIMC 221320Z NIL
12-03-22 METAR LIMC 221420Z 16006KT CAVOK 20/00 Q1028 NOSIG
12-03-22 METAR LIMC 221520Z VRB02KT CAVOK 20/M01 Q1027 NOSIG
12-03-22 METAR LIMC 221620Z 15003KT 110V190 CAVOK 20/01 Q1027 NOSIG
12-03-22 METAR LIMC 221720Z 16002KT CAVOK 18/00 Q1027 NOSIG
12-03-22 METAR LIMC 221820Z 16001KT CAVOK 14/03 Q1027 NOSIG
12-03-22 METAR LIMC 221920Z 00000KT CAVOK 12/03 Q1028 NOSIG
12-03-22 METAR LIMC 222020Z 00000KT CAVOK 10/03 Q1028 NOSIG
12-03-22 METAR LIMC 222120Z 00000KT CAVOK 08/02 Q1028 NOSIG
12-03-22 METAR LIMC 222220Z 00000KT CAVOK 06/02 Q1028 NOSIG
12-03-22 METAR LIMC 222320Z 35003KT CAVOK 07/02 Q1028 NOSIG
12-03-23 METAR LIMC 230020Z 35004KT CAVOK 07/02 Q1027 NOSIG
12-03-23 METAR LIMC 230120Z 36003KT CAVOK 07/02 Q1027 NOSIG
12-03-23 METAR LIMC 230220Z 36003KT CAVOK 06/02 Q1026 NOSIG
12-03-23 METAR LIMC 230320Z 36002KT CAVOK 05/01 Q1026 NOSIG
12-03-23 METAR LIMC 230420Z 01003KT 350V060 CAVOK 05/01 Q1026 NOSIG
12-03-23 METAR LIMC 230520Z 35003KT CAVOK 05/02 Q1026 NOSIG
12-03-23 METAR LIMC 230620Z VRB02KT 9999 FEW090 08/03 Q1027 NOSIG
12-03-23 METAR LIMC 230720Z NIL
12-03-23 METAR LIMC 230720Z VRB01KT 9999 FEW090 09/05 Q1027 NOSIG
12-03-23 METAR LIMC 230820Z VRB02KT 9999 FEW090 14/03 Q1027 NOSIG
12-03-23 METAR LIMC 230920Z VRB02KT CAVOK 17/02 Q1027 NOSIG
12-03-23 METAR LIMC 231020Z VRB02KT CAVOK 18/02 Q1026 NOSIG
12-03-23 METAR LIMC 231120Z VRB02KT CAVOK 19/02 Q1026 NOSIG
12-03-23 METAR LIMC 231220Z VRB02KT CAVOK 20/03 Q1025 NOSIG
12-03-23 METAR LIMC 231320Z 21003KT 120V270 CAVOK 20/03 Q1024 NOSIG
12-03-23 METAR LIMC 231420Z 16003KT 090V220 CAVOK 21/02 Q1024 NOSIG
12-03-23 METAR LIMC 231520Z VRB02KT CAVOK 20/02 Q1023 NOSIG
12-03-23 METAR LIMC 231620Z 23003KT CAVOK 19/02 Q1023 NOSIG
12-03-23 METAR LIMC 231720Z 20003KT CAVOK 17/05 Q1023 NOSIG
12-03-23 METAR LIMC 231820Z 18002KT CAVOK 15/05 Q1023 NOSIG
12-03-23 METAR LIMC 231920Z 19001KT CAVOK 14/04 Q1024 NOSIG
12-03-23 METAR LIMC 232020Z 00000KT CAVOK 12/05 Q1024 NOSIG
12-03-23 METAR LIMC 232120Z 00000KT CAVOK 09/04 Q1024 NOSIG
12-03-23 METAR LIMC 232220Z 00000KT CAVOK 07/04 Q1024 NOSIG
12-03-23 METAR LIMC 232320Z 36003KT 340V040 CAVOK 06/03 Q1024 NOSIG
12-03-24 METAR LIMC 240020Z 03001KT CAVOK 05/03 Q1023 NOSIG
12-03-24 METAR LIMC 240120Z 36003KT CAVOK 07/04 Q1023 NOSIG
12-03-24 METAR LIMC 240220Z 35001KT CAVOK 05/03 Q1023 NOSIG
12-03-24 METAR LIMC 240320Z 36002KT CAVOK 04/03 Q1023 NOSIG
12-03-24 METAR LIMC 240420Z 35003KT CAVOK 05/03 Q1023 NOSIG
12-03-24 METAR LIMC 240520Z 01001KT CAVOK 04/02 Q1024 NOSIG
12-03-24 METAR LIMC 240620Z VRB02KT CAVOK 07/03 Q1024 NOSIG
12-03-24 METAR LIMC 240720Z VRB02KT CAVOK 12/06 Q1024 NOSIG
12-03-24 METAR LIMC 240820Z 04003KT 290V090 CAVOK 14/04 Q1024 NOSIG
12-03-24 METAR LIMC 240920Z 05003KT 020V110 CAVOK 16/04 Q1024 NOSIG
12-03-24 METAR LIMC 241020Z 10003KT 040V150 CAVOK 18/04 Q1024 NOSIG
12-03-24 METAR LIMC 241120Z 14003KT 070V180 CAVOK 19/05 Q1023 NOSIG
12-03-24 METAR LIMC 241220Z VRB02KT CAVOK 20/03 Q1023 NOSIG
12-03-24 METAR LIMC 241320Z VRB03KT CAVOK 20/03 Q1022 NOSIG
12-03-24 METAR LIMC 241420Z 23003KT 180V270 CAVOK 20/03 Q1022 NOSIG
12-03-24 METAR LIMC 241520Z 24004KT 210V270 CAVOK 20/02 Q1021 NOSIG
12-03-24 METAR LIMC 241620Z 22004KT 190V250 CAVOK 20/02 Q1021 NOSIG
12-03-24 METAR LIMC 241720Z 19002KT CAVOK 18/01 Q1021 NOSIG
12-03-24 METAR LIMC 241820Z 00000KT CAVOK 15/02 Q1021 NOSIG
12-03-24 METAR LIMC 241920Z 09002KT CAVOK 15/03 Q1022 NOSIG
12-03-24 METAR LIMC 242020Z 09004KT 060V120 CAVOK 15/04 Q1023 NOSIG
12-03-24 METAR LIMC 242120Z 05002KT CAVOK 12/04 Q1023 NOSIG
12-03-24 METAR LIMC 242220Z 34003KT CAVOK 10/04 Q1023 NOSIG
12-03-24 METAR LIMC 242320Z 34004KT CAVOK 11/04 Q1023 NOSIG
12-03-25 METAR LIMC 250020Z 34003KT CAVOK 10/03 Q1024 NOSIG
12-03-25 METAR LIMC 250120Z VRB01KT CAVOK 06/03 Q1023 NOSIG
12-03-25 METAR LIMC 250220Z 00000KT CAVOK 06/03 Q1023 NOSIG
12-03-25 METAR LIMC 250320Z 00000KT CAVOK 04/03 Q1023 NOSIG
12-03-25 METAR LIMC 250420Z 00000KT CAVOK 05/03 Q1023 NOSIG
12-03-25 METAR LIMC 250520Z VRB02KT CAVOK 07/03 Q1024 NOSIG
12-03-25 METAR LIMC 250620Z 01003KT 340V070 CAVOK 07/04 Q1025 NOSIG
12-03-25 METAR LIMC 250720Z 34002KT CAVOK 12/04 Q1025 NOSIG
12-03-25 METAR LIMC 250820Z 07002KT 9999 FEW080 14/04 Q1025 NOSIG
12-03-25 METAR LIMC 250920Z VRB02KT 9999 FEW080 16/05 Q1026 NOSIG
12-03-25 METAR LIMC 251020Z VRB02KT CAVOK 17/05 Q1026 NOSIG
12-03-25 METAR LIMC 251120Z VRB01KT 9999 FEW030 19/04 Q1026 NOSIG
12-03-25 METAR LIMC 251220Z 07003KT 010V130 CAVOK 19/03 Q1025 NOSIG
12-03-25 METAR LIMC 251320Z VRB01KT 9999 FEW030 20/04 Q1025 NOSIG
12-03-25 METAR LIMC 251420Z 12003KT 070V170 9999 FEW030 21/02 Q1025 NOSIG
12-03-25 METAR LIMC 251520Z 36005KT 9999 BKN025TCU 18/04 Q1025 NOSIG
12-03-25 METAR LIMC 251620Z VRB02KT 9999 SCT060 18/04 Q1025 NOSIG
12-03-25 METAR LIMC 251720Z 34002KT CAVOK 17/03 Q1025 NOSIG
12-03-25 METAR LIMC 251820Z 01002KT CAVOK 13/03 Q1026 NOSIG
12-03-25 METAR LIMC 251920Z VRB01KT CAVOK 12/03 Q1026 NOSIG
12-03-25 METAR LIMC 252020Z 36001KT CAVOK 09/04 Q1026 NOSIG
12-03-25 METAR LIMC 252120Z 36002KT CAVOK 10/03 Q1026 NOSIG
12-03-25 METAR LIMC 252220Z 35003KT CAVOK 07/03 Q1027 NOSIG
12-03-25 METAR LIMC 252320Z 34003KT CAVOK 08/03 Q1027 NOSIG
12-03-26 METAR LIMC 260020Z 34004KT CAVOK 07/03 Q1027 NOSIG
12-03-26 METAR LIMC 260120Z VRB01KT CAVOK 06/02 Q1027 NOSIG
12-03-26 METAR LIMC 260220Z 01001KT CAVOK 05/01 Q1027 NOSIG
12-03-26 METAR LIMC 260320Z 01001KT CAVOK 05/02 Q1027 NOSIG
12-03-26 METAR LIMC 260420Z 35003KT CAVOK 04/01 Q1027 NOSIG
12-03-26 METAR LIMC 260520Z VRB02KT CAVOK 06/02 Q1027 NOSIG
12-03-26 METAR LIMC 260620Z VRB02KT CAVOK 08/03 Q1027 NOSIG
12-03-26 METAR LIMC 260720Z 32003KT CAVOK 13/03 Q1027 NOSIG
12-03-26 METAR LIMC 260820Z VRB01KT CAVOK 17/03 Q1028 NOSIG
12-03-26 METAR LIMC 260920Z VRB01KT CAVOK 19/01 Q1028 NOSIG
12-03-26 METAR LIMC 261020Z VRB01KT CAVOK 20/00 Q1028 NOSIG
12-03-26 METAR LIMC 261120Z 18002KT CAVOK 21/01 Q1027 NOSIG
12-03-26 METAR LIMC 261220Z 26003KT 190V290 CAVOK 21/02 Q1027 NOSIG
12-03-26 METAR LIMC 261320Z 24003KT 200V280 CAVOK 22/00 Q1026 NOSIG
12-03-26 METAR LIMC 261420Z 23004KT 150V280 CAVOK 22/M01 Q1026 NOSIG
12-03-26 METAR LIMC 261520Z 21003KT 170V230 CAVOK 22/M01 Q1025 NOSIG
12-03-26 METAR LIMC 261620Z 19003KT 160V220 CAVOK 21/00 Q1025 NOSIG
12-03-26 METAR LIMC 261720Z 23003KT CAVOK 20/M00 Q1025 NOSIG
12-03-26 METAR LIMC 261820Z 00000KT CAVOK 16/01 Q1026 NOSIG
12-03-26 METAR LIMC 261920Z 00000KT CAVOK 13/02 Q1026 NOSIG
12-03-26 METAR LIMC 262020Z VRB01KT CAVOK 11/01 Q1027 NOSIG
12-03-26 METAR LIMC 262120Z 35002KT CAVOK 09/02 Q1027 NOSIG
12-03-26 METAR LIMC 262220Z 00000KT CAVOK 07/02 Q1027 NOSIG
12-03-26 METAR LIMC 262320Z VRB01KT CAVOK 06/02 Q1028 NOSIG
12-03-27 METAR LIMC 270020Z 00000KT CAVOK 06/02 Q1028 NOSIG
12-03-27 METAR LIMC 270120Z 36002KT CAVOK 06/01 Q1028 NOSIG
12-03-27 METAR LIMC 270220Z 35003KT CAVOK 06/01 Q1028 NOSIG
12-03-27 METAR LIMC 270320Z 35002KT CAVOK 06/02 Q1028 NOSIG
12-03-27 METAR LIMC 270420Z 35003KT CAVOK 06/02 Q1028 NOSIG
12-03-27 METAR LIMC 270520Z 35004KT 340V040 CAVOK 09/01 Q1028 NOSIG
12-03-27 METAR LIMC 270620Z 36002KT CAVOK 10/02 Q1028 NOSIG
12-03-27 METAR LIMC 270720Z 33002KT CAVOK 14/02 Q1029 NOSIG
12-03-27 METAR LIMC 270820Z VRB02KT CAVOK 17/02 Q1029 NOSIG
12-03-27 METAR LIMC 270920Z VRB02KT CAVOK 18/04 Q1029 NOSIG
12-03-27 METAR LIMC 271020Z VRB02KT CAVOK 18/04 Q1028 NOSIG
12-03-27 METAR LIMC 271120Z VRB02KT CAVOK 20/03 Q1027 NOSIG
12-03-27 METAR LIMC 271220Z 15003KT 090V240 CAVOK 21/02 Q1026 NOSIG
12-03-27 METAR LIMC 271320Z 20003KT 090V260 CAVOK 22/03 Q1025 NOSIG
12-03-27 METAR LIMC 271420Z 23004KT 180V260 CAVOK 22/02 Q1025 NOSIG
12-03-27 METAR LIMC 271520Z 23003KT CAVOK 21/02 Q1024 NOSIG
12-03-27 METAR LIMC 271620Z 24003KT 210V270 CAVOK 21/02 Q1024 NOSIG
12-03-27 METAR LIMC 271720Z NIL
12-03-27 METAR LIMC 271720Z 22002KT CAVOK 19/02 Q1024 NOSIG
12-03-27 METAR LIMC 271820Z 15001KT CAVOK 18/02 Q1024 NOSIG
12-03-27 METAR LIMC 271920Z 00000KT CAVOK 12/03 Q1024 NOSIG
12-03-27 METAR LIMC 272020Z 00000KT CAVOK 12/03 Q1025 NOSIG
12-03-27 METAR LIMC 272120Z VRB01KT CAVOK 11/03 Q1025 NOSIG
12-03-27 METAR LIMC 272220Z VRB01KT CAVOK 08/04 Q1025 NOSIG
12-03-27 METAR LIMC 272320Z 36001KT CAVOK 06/03 Q1025 NOSIG
12-03-28 METAR LIMC 280020Z 01002KT CAVOK 07/03 Q1025 NOSIG
12-03-28 METAR LIMC 280120Z VRB01KT CAVOK 05/02 Q1025 NOSIG
12-03-28 METAR LIMC 280220Z 36003KT 350V050 CAVOK 05/02 Q1025 NOSIG
12-03-28 METAR LIMC 280320Z VRB02KT CAVOK 06/03 Q1026 NOSIG
12-03-28 METAR LIMC 280420Z 35004KT 330V050 CAVOK 07/03 Q1026 NOSIG
12-03-28 METAR LIMC 280520Z 34004KT CAVOK 07/03 Q1026 NOSIG
12-03-28 METAR LIMC 280620Z 35003KT CAVOK 11/03 Q1027 NOSIG
12-03-28 METAR LIMC 280720Z VRB02KT CAVOK 14/02 Q1027 NOSIG
12-03-28 METAR LIMC 280820Z VRB02KT CAVOK 17/02 Q1027 NOSIG
12-03-28 METAR LIMC 280920Z VRB02KT CAVOK 19/02 Q1027 NOSIG
12-03-28 METAR LIMC 281020Z VRB02KT CAVOK 21/01 Q1027 NOSIG
12-03-28 METAR LIMC 281120Z 25003KT 210V290 CAVOK 22/01 Q1026 NOSIG
12-03-28 METAR LIMC 281220Z 23004KT 210V270 CAVOK 22/02 Q1025 NOSIG
12-03-28 METAR LIMC 281320Z VRB03KT CAVOK 23/01 Q1024 NOSIG
12-03-28 METAR LIMC 281420Z 26003KT 210V300 CAVOK 23/00 Q1023 NOSIG
12-03-28 METAR LIMC 281520Z 23004KT CAVOK 23/01 Q1023 NOSIG
12-03-28 METAR LIMC 281620Z 23004KT CAVOK 22/01 Q1022 NOSIG
12-03-28 METAR LIMC 281720Z 22003KT CAVOK 21/02 Q1022 NOSIG
12-03-28 METAR LIMC 281820Z 22002KT CAVOK 18/02 Q1022 NOSIG
12-03-28 METAR LIMC 281920Z 00000KT CAVOK 17/02 Q1022 NOSIG
12-03-28 METAR LIMC 282020Z 36001KT CAVOK 11/03 Q1022 NOSIG
12-03-28 METAR LIMC 282120Z 00000KT CAVOK 08/03 Q1021 NOSIG
12-03-28 METAR LIMC 282220Z 36001KT CAVOK 09/03 Q1021 NOSIG
12-03-28 METAR LIMC 282320Z 36001KT CAVOK 07/03 Q1021 NOSIG
12-03-29 METAR LIMC 290020Z 36002KT CAVOK 06/02 Q1021 NOSIG
12-03-29 METAR LIMC 290120Z 34002KT CAVOK 07/02 Q1020 NOSIG
12-03-29 METAR LIMC 290220Z 35003KT CAVOK 06/02 Q1020 NOSIG
12-03-29 METAR LIMC 290320Z 34004KT CAVOK 07/02 Q1019 NOSIG
12-03-29 METAR LIMC 290420Z 35004KT CAVOK 08/02 Q1019 NOSIG
12-03-29 METAR LIMC 290520Z 34004KT CAVOK 09/02 Q1018 NOSIG
12-03-29 METAR LIMC 290620Z 34003KT CAVOK 10/04 Q1018 NOSIG
12-03-29 METAR LIMC 290720Z 33002KT CAVOK 15/03 Q1018 NOSIG
12-03-29 METAR LIMC 290820Z VRB02KT CAVOK 18/03 Q1018 NOSIG
12-03-29 METAR LIMC 290920Z VRB02KT CAVOK 21/03 Q1017 NOSIG
12-03-29 METAR LIMC 291020Z 24003KT 190V270 CAVOK 23/02 Q1017 NOSIG
12-03-29 METAR LIMC 291120Z 21004KT 180V240 CAVOK 23/01 Q1016 NOSIG
12-03-29 METAR LIMC 291220Z 22004KT 180V280 CAVOK 24/02 Q1015 NOSIG
12-03-29 METAR LIMC 291320Z 23005KT CAVOK 25/00 Q1014 NOSIG
12-03-29 METAR LIMC 291420Z 22005KT 170V250 CAVOK 25/M01 Q1013 NOSIG
12-03-29 METAR LIMC 291520Z 22004KT CAVOK 25/M01 Q1012 NOSIG
12-03-29 METAR LIMC 291620Z 23004KT 190V250 CAVOK 24/00 Q1011 NOSIG
12-03-29 METAR LIMC 291720Z 21002KT CAVOK 23/M01 Q1012 NOSIG
12-03-29 METAR LIMC 291820Z 17003KT CAVOK 19/03 Q1012 NOSIG
12-03-29 METAR LIMC 291920Z 17003KT 120V190 CAVOK 17/04 Q1012 NOSIG
12-03-29 METAR LIMC 292020Z 16002KT CAVOK 16/03 Q1012 NOSIG
12-03-29 METAR LIMC 292120Z 00000KT CAVOK 13/04 Q1012 NOSIG
12-03-29 METAR LIMC 292220Z VRB02KT CAVOK 12/03 Q1012 NOSIG
12-03-29 METAR LIMC 292320Z 00000KT CAVOK 08/03 Q1012 NOSIG
12-03-30 METAR LIMC 300020Z 00000KT CAVOK 07/03 Q1011 NOSIG
12-03-30 METAR LIMC 300120Z 35003KT 300V070 CAVOK 07/04 Q1011 NOSIG
12-03-30 METAR LIMC 300220Z 35002KT CAVOK 07/04 Q1010 NOSIG
12-03-30 METAR LIMC 300320Z VRB02KT CAVOK 07/02 Q1010 NOSIG
12-03-30 METAR LIMC 300420Z 33003KT CAVOK 08/02 Q1010 NOSIG
12-03-30 METAR LIMC 300520Z 32004KT CAVOK 09/01 Q1009 NOSIG
12-03-30 METAR LIMC 300620Z 33003KT CAVOK 13/03 Q1010 NOSIG
12-03-30 METAR LIMC 300720Z 31003KT CAVOK 18/02 Q1010 NOSIG
12-03-30 METAR LIMC 300820Z NIL
12-03-30 METAR LIMC 300820Z VRB02KT CAVOK 21/02 Q1009 NOSIG
12-03-30 METAR LIMC 300920Z NIL
12-03-30 METAR LIMC 301020Z 35004KT 290V040 CAVOK 25/M01 Q1009 NOSIG
12-03-30 METAR LIMC 301120Z 01007KT 330V060 CAVOK 25/M01 Q1008 NOSIG
12-03-30 METAR LIMC 301220Z 01007KT 330V050 CAVOK 26/M02 Q1008 NOSIG
12-03-30 METAR LIMC 301320Z NIL
12-03-30 METAR LIMC 301320Z 02006KT 340V060 CAVOK 26/M02 Q1008 NOSIG
12-03-30 METAR LIMC 301420Z 02007KT 340V050 CAVOK 26/M02 Q1008 NOSIG
12-03-30 METAR LIMC 301520Z 02008KT 340V050 CAVOK 25/M03 Q1007 NOSIG
12-03-30 METAR LIMC 301620Z 01008KT CAVOK 24/M03 Q1007 NOSIG
12-03-30 METAR LIMC 301720Z 02008KT CAVOK 22/M04 Q1008 NOSIG
12-03-30 METAR LIMC 301820Z 02006KT CAVOK 21/M04 Q1008 NOSIG
12-03-30 METAR LIMC 301920Z 05005KT CAVOK 20/M04 Q1009 NOSIG
12-03-30 METAR LIMC 302020Z 02006KT 340V040 CAVOK 20/M05 Q1009 NOSIG
12-03-30 METAR LIMC 302120Z 02006KT 350V050 9999 SCT080 20/M05 Q1009 NOSIG
12-03-30 METAR LIMC 302220Z 01006KT 9999 SCT080 19/M05 Q1009 NOSIG
12-03-30 METAR LIMC 302320Z 36007KT 9999 SCT080 19/M05 Q1009 NOSIG
12-03-31 METAR LIMC 310020Z 01006KT CAVOK 18/M05 Q1008 NOSIG
12-03-31 METAR LIMC 310120Z 32003KT 300V020 CAVOK 15/M04 Q1008 NOSIG
12-03-31 METAR LIMC 310220Z 33004KT CAVOK 11/M03 Q1008 NOSIG
12-03-31 METAR LIMC 310320Z 34002KT CAVOK 10/M02 Q1008 NOSIG
12-03-31 METAR LIMC 310420Z VRB02KT CAVOK 08/M02 Q1008 NOSIG
12-03-31 METAR LIMC 310520Z 33003KT CAVOK 09/M01 Q1008 NOSIG
12-03-31 METAR LIMC 310620Z VRB02KT CAVOK 12/M01 Q1008 NOSIG
12-03-31 METAR LIMC 310720Z 00000KT CAVOK 17/M03 Q1008 NOSIG
12-03-31 METAR LIMC 310820Z VRB01KT CAVOK 19/M01 Q1008 NOSIG
12-03-31 METAR LIMC 310920Z VRB01KT CAVOK 20/M02 Q1007 NOSIG
12-03-31 METAR LIMC 311020Z VRB02KT CAVOK 22/M02 Q1006 NOSIG
12-03-31 METAR LIMC 311120Z 23004KT 190V280 CAVOK 23/M01 Q1005 NOSIG
12-03-31 METAR LIMC 311220Z 23004KT 180V270 CAVOK 24/M00 Q1004 NOSIG
12-03-31 METAR LIMC 311320Z 23005KT 190V250 9999 SCT090 24/M02 Q1003 NOSIG
12-03-31 METAR LIMC 311420Z 20005KT 9999 BKN090 22/02 Q1003 NOSIG
12-03-31 METAR LIMC 311520Z 22005KT 9999 SCT090 23/02 Q1002 NOSIG
12-03-31 METAR LIMC 311620Z 20004KT 9999 SCT090 22/08 Q1002 NOSIG
12-03-31 METAR LIMC 311720Z 18004KT CAVOK 20/10 Q1002 NOSIG
12-03-31 METAR LIMC 311820Z 18003KT CAVOK 16/10 Q1003 NOSIG
12-03-31 METAR LIMC 311920Z 18002KT CAVOK 14/09 Q1004 NOSIG
12-03-31 METAR LIMC 312020Z 24003KT CAVOK 12/09 Q1004 NOSIG
12-03-31 METAR LIMC 312120Z VRB01KT CAVOK 12/08 Q1004 NOSIG
12-03-31 METAR LIMC 312220Z 21002KT CAVOK 11/07 Q1004 NOSIG
12-03-31 METAR LIMC 312320Z VRB02KT CAVOK 10/07 Q1004 NOSIG
12-04-01 METAR LIMC 010020Z VRB02KT CAVOK 07/06 Q1004 NOSIG
12-04-01 METAR LIMC 010120Z VRB02KT CAVOK 07/06 Q1004 NOSIG
12-04-01 METAR LIMC 010220Z VRB01KT CAVOK 06/05 Q1004 NOSIG
12-04-01 METAR LIMC 010320Z 33002KT CAVOK 05/04 Q1004 NOSIG
12-04-01 METAR LIMC 010420Z 00000KT CAVOK 03/02 Q1004 NOSIG
12-04-01 METAR LIMC 010520Z 00000KT 8000 MIFG NSC 02/02 Q1004 NOSIG
12-04-01 METAR LIMC 010620Z VRB01KT 9999 MIFG NSC 08/06 Q1005 NOSIG
12-04-01 METAR LIMC 010720Z 00000KT CAVOK 14/05 Q1005 NOSIG
12-04-01 METAR LIMC 010820Z VRB01KT CAVOK 18/M01 Q1006 NOSIG
12-04-01 METAR LIMC 010920Z 12004KT 090V160 CAVOK 19/04 Q1007 NOSIG
12-04-01 METAR LIMC 011020Z 11005KT 080V150 CAVOK 19/01 Q1007 NOSIG
12-04-01 METAR LIMC 011120Z 10006KT 070V130 CAVOK 18/07 Q1008 NOSIG
12-04-01 METAR LIMC 011220Z 09006KT 060V130 CAVOK 18/08 Q1008 NOSIG
12-04-01 METAR LIMC 011320Z 09006KT 050V130 CAVOK 17/08 Q1008 NOSIG
12-04-01 METAR LIMC 011420Z 09006KT 060V120 9999 SCT030 17/07 Q1008 NOSIG
12-04-01 METAR LIMC 011520Z 09006KT 060V130 9999 FEW030 16/06 Q1008 NOSIG
12-04-01 METAR LIMC 011620Z 10006KT 070V130 CAVOK 15/05 Q1009 NOSIG
12-04-01 METAR LIMC 011720Z 10005KT 070V130 CAVOK 14/05 Q1010 NOSIG
12-04-01 METAR LIMC 011820Z 09004KT 070V130 CAVOK 13/04 Q1010 NOSIG
12-04-01 METAR LIMC 011920Z 10004KT 060V130 CAVOK 12/03 Q1012 NOSIG
12-04-01 METAR LIMC 012020Z 09004KT 060V130 9999 BKN050 12/01 Q1013 NOSIG
12-04-01 METAR LIMC 012120Z VRB02KT 9999 BKN050 11/00 Q1014 NOSIG
12-04-01 METAR LIMC 012220Z VRB02KT 9999 BKN050 11/M02 Q1014 NOSIG
12-04-01 METAR LIMC 012320Z 04003KT 010V080 9999 BKN050 11/M01 Q1014 NOSIG
12-04-02 METAR LIMC 020020Z 07002KT 9999 BKN050 11/M01 Q1015 NOSIG
12-04-02 METAR LIMC 020120Z 02002KT 9999 BKN070 10/M00 Q1014 NOSIG
12-04-02 METAR LIMC 020220Z 03003KT 9999 BKN048 10/M01 Q1014 NOSIG
12-04-02 METAR LIMC 020320Z 00000KT 9999 BKN048 09/02 Q1014 NOSIG
12-04-02 METAR LIMC 020420Z 03002KT 9999 BKN048 10/M00 Q1014 NOSIG
12-04-02 METAR LIMC 020520Z 00000KT 9999 BKN050 09/00 Q1014 NOSIG
12-04-02 METAR LIMC 020620Z VRB01KT 9999 BKN055 09/M01 Q1014 NOSIG
12-04-02 METAR LIMC 020720Z 13002KT 9999 BKN060 10/M02 Q1014 NOSIG
12-04-02 METAR LIMC 020820Z 00000KT 9999 BKN060 OVC095 11/01 Q1015 NOSIG
12-04-02 METAR LIMC 020920Z VRB01KT 9999 BKN065 OVC090 12/M02 Q1015 NOSIG
12-04-02 METAR LIMC 021020Z VRB02KT 9999 BKN060 12/M01 Q1014 NOSIG
12-04-02 METAR LIMC 021120Z VRB02KT 9999 SCT030 BKN050 13/M02 Q1014 NOSIG
12-04-02 METAR LIMC 021220Z VRB02KT 9999 SCT030 BKN050 15/M01 Q1013 NOSIG
12-04-02 METAR LIMC 021320Z VRB02KT 9999 BKN050 15/M02 Q1013 NOSIG
12-04-02 METAR LIMC 021420Z VRB01KT 9999 BKN050 15/M02 Q1012 NOSIG
12-04-02 METAR LIMC 021520Z 00000KT 9999 SCT040 BKN060 15/M01 Q1011 NOSIG
12-04-02 METAR LIMC 021620Z 20002KT 9999 SCT040 BKN060 14/01 Q1011 NOSIG
12-04-02 METAR LIMC 021720Z 21002KT 9999 SCT050 BKN070 13/02 Q1011 NOSIG
12-04-02 METAR LIMC 021820Z VRB01KT 9999 BKN050 BKN070 13/02 Q1011 NOSIG
12-04-02 METAR LIMC 021920Z 00000KT 9999 BKN050 12/01 Q1011 NOSIG
12-04-02 METAR LIMC 022020Z 00000KT 9999 BKN045 12/02 Q1011 NOSIG
12-04-02 METAR LIMC 022120Z 00000KT 9999 BKN045 12/03 Q1011 NOSIG
12-04-02 METAR LIMC 022220Z VRB01KT 9999 BKN045 11/03 Q1011 NOSIG
12-04-02 METAR LIMC 022320Z 35002KT 9999 BKN045 11/03 Q1011 NOSIG
12-04-03 METAR LIMC 030020Z 00000KT 9999 BKN045 11/04 Q1011 NOSIG
12-04-03 METAR LIMC 030120Z 34003KT 9999 BKN055 10/04 Q1011 NOSIG
12-04-03 METAR LIMC 030220Z 35002KT 9999 BKN055 10/04 Q1010 NOSIG
12-04-03 METAR LIMC 030320Z 00000KT 9999 BKN055 10/04 Q1010 NOSIG
12-04-03 METAR LIMC 030420Z 03001KT 9999 BKN055 10/04 Q1010 NOSIG
12-04-03 METAR LIMC 030520Z 06003KT 9999 BKN045 11/04 Q1010 NOSIG
12-04-03 METAR LIMC 030620Z 04003KT 300V110 9999 SCT030 BKN040 11/05 Q1010 NOSIG
12-04-03 METAR LIMC 030720Z VRB02KT 9999 SCT030 BKN040 12/06 Q1011 NOSIG
12-04-03 METAR LIMC 030820Z 04003KT 020V080 9999 BKN040 12/06 Q1011 NOSIG
12-04-03 METAR LIMC 030920Z 10003KT 060V140 9999 BKN040 14/06 Q1011 NOSIG
12-04-03 METAR LIMC 031020Z VRB02KT 9999 SCT035 BKN045 13/05 Q1011 NOSIG
12-04-03 METAR LIMC 031120Z 00000KT 9999 BKN035 14/05 Q1011 NOSIG
12-04-03 METAR LIMC 031220Z VRB02KT 9999 SCT035 BKN060 15/05 Q1011 NOSIG
12-04-03 METAR LIMC 031320Z VRB02KT 9999 SCT035 BKN060 15/06 Q1010 NOSIG
12-04-03 METAR LIMC 031420Z VRB02KT 9999 FEW035 BKN060 15/05 Q1010 NOSIG
12-04-03 METAR LIMC 031520Z 34003KT 320V020 9999 BKN080 15/05 Q1009 NOSIG
12-04-03 METAR LIMC 031620Z 32002KT 9999 BKN080 15/06 Q1009 NOSIG
12-04-03 METAR LIMC 031720Z 32003KT 9999 BKN080 14/05 Q1009 NOSIG
12-04-03 METAR LIMC 031820Z 33004KT 9999 FEW030 SCT080 12/05 Q1009 NOSIG
12-04-03 METAR LIMC 031920Z 35003KT 9999 BKN030 13/05 Q1010 NOSIG
12-04-03 METAR LIMC 032020Z 34002KT 9999 BKN030 12/06 Q1010 NOSIG
12-04-03 METAR LIMC 032120Z 00000KT 8000 -RA SCT015 BKN025 13/06 Q1010 NOSIG
12-04-03 METAR LIMC 032220Z 33003KT 8000 -RA SCT015 BKN025 11/08 Q1010 NOSIG
12-04-03 METAR LIMC 032320Z 34004KT 8000 -RA SCT015 BKN025 10/09 Q1010 NOSIG
12-04-04 METAR LIMC 040020Z 35004KT 8000 -RA SCT015 BKN025 10/09 Q1009 NOSIG
12-04-04 METAR LIMC 040120Z 34003KT 6000 -RA SCT015 BKN025 10/09 Q1009 NOSIG
12-04-04 METAR LIMC 040220Z 34003KT 4000 -RA BKN010 BKN025 10/09 Q1009 NOSIG
12-04-04 METAR LIMC 040320Z 33003KT 4000 -RA BKN010 BKN025 10/09 Q1009 NOSIG
12-04-04 METAR LIMC 040420Z 33003KT 5000 BR BKN010 BKN025 10/09 Q1009 NOSIG
12-04-04 METAR LIMC 040520Z 36003KT 330V060 2500 DZ SCT007 OVC025 10/09 Q1009 RERA NOSIG
12-04-04 METAR LIMC 040620Z 36002KT 2500 -RA OVC005 10/10 Q1009 RERA NOSIG
12-04-04 METAR LIMC 040720Z 00000KT 2000 -RA OVC005 11/10 Q1009 NOSIG
12-04-04 METAR LIMC 040820Z 13002KT 2500 BR BKN010 OVC015 12/11 Q1010 NOSIG
12-04-04 METAR LIMC 040920Z VRB02KT 1500 DZ BKN004 OVC010 12/11 Q1010 NOSIG
12-04-04 METAR LIMC 041020Z VRB02KT 2500 BR BKN008 OVC025 13/12 Q1010 NOSIG
12-04-04 METAR LIMC 041120Z 00000KT 2500 1000SW DZ BKN010 OVC025 13/11 Q1010 NOSIG
12-04-04 METAR LIMC 041320Z 33003KT 2500 -RA BR SCT010 OVC025 12/11 Q1009 NOSIG
12-04-04 METAR LIMC 041420Z 32003KT 2000 RA BR BKN008 OVC025 11/11 Q1009 NOSIG
12-04-04 METAR LIMC 041520Z 31004KT 2000 RA BR FEW004 BKN010 OVC025 11/10 Q1009
12-04-04 METAR LIMC 041620Z 34004KT 2500 RA BR FEW004 BKN012 OVC025 11/10 Q1008
12-04-04 METAR LIMC 041720Z VRB02KT 3500 -RA BR FEW004 BKN012 OVC025 11/10 Q1009 RERA NOSIG
12-04-04 METAR LIMC 041820Z 35004KT 9999 BKN015 OVC035 11/10 Q1009 NOSIG
12-04-04 METAR LIMC 041920Z 35003KT 9999 BKN015 OVC040 11/10 Q1009 NOSIG
12-04-04 METAR LIMC 042020Z 35004KT 8000 -RA BKN010 OVC040 11/10 Q1009 NOSIG
12-04-04 METAR LIMC 042120Z 35004KT 7000 RA BKN015 OVC040 11/10 Q1009 NOSIG
12-04-04 METAR LIMC 042220Z 36003KT 4000 RA BR BKN010 OVC040 11/10 Q1009 NOSIG
12-04-04 METAR LIMC 042320Z 35004KT 6000 -RA BKN015 OVC040 11/10 Q1009 RERA NOSIG
12-04-05 METAR LIMC 050020Z 34005KT 4000 RA BR BKN015 OVC030 10/10 Q1008 NOSIG
12-04-05 METAR LIMC 050120Z 34004KT 7000 -RA BKN020 OVC040 10/10 Q1008 RERA NOSIG
12-04-05 METAR LIMC 050220Z 33004KT 7000 RA BKN020 OVC040 10/09 Q1008 NOSIG
12-04-05 METAR LIMC 050320Z 34005KT 8000 +RA BKN020 OVC040 10/09 Q1007 NOSIG
12-04-05 METAR LIMC 050420Z 35005KT 8000 RA BKN020 OVC040 10/09 Q1007 NOSIG
12-04-05 METAR LIMC 050520Z 35004KT 9999 DZ BKN020 OVC040 10/09 Q1008 NOSIG
12-04-05 METAR LIMC 050820Z 36004KT 9999 SCT012 OVC040 11/10 Q1009 NOSIG
12-04-05 METAR LIMC 050920Z 35003KT 330V050 9999 SCT014 OVC040 11/10 Q1009 NOSIG
12-04-05 METAR LIMC 051020Z VRB02KT 9999 SCT014 OVC040 12/10 Q1009 NOSIG
12-04-05 METAR LIMC 051120Z VRB01KT 9999 SCT010 OVC040 13/10 Q1009 NOSIG
12-04-05 METAR LIMC 051220Z 00000KT 4000 RA BR SCT010 OVC040 12/11 Q1009 NOSIG
12-04-05 METAR LIMC 051320Z 01003KT 330V040 7000 -RA SCT010 OVC040 12/11 Q1009 RERA NOSIG
12-04-05 METAR LIMC 051420Z 03003KT 360V060 8000 SCT020 OVC040 14/12 Q1008 NOSIG
12-04-05 METAR LIMC 051520Z VRB02KT 9000 SCT020 BKN050 14/11 Q1008 NOSIG
12-04-05 METAR LIMC 051620Z VRB02KT 9999 SCT025 BKN050 14/11 Q1008 NOSIG
12-04-05 METAR LIMC 051720Z 07002KT 9999 FEW020 SCT050 14/11 Q1008 NOSIG
12-04-05 METAR LIMC 051820Z 00000KT 9999 R35L/1500N R35R/0500V1500U MIFG FEW070 11/10 Q1008 NOSIG
12-04-05 METAR LIMC 051920Z 01002KT 9999 R35L/1500N R35R/1300V1500N MIFG FEW070 10/09 Q1009 NOSIG
12-04-05 METAR LIMC 052020Z 36001KT 9999 R35L/1500N R35R/1100V1500U MIFG FEW090
12-04-05 METAR LIMC 052120Z 00000KT 9999 MIFG SCT060 09/09 Q1009 NOSIG
12-04-05 METAR LIMC 052220Z 34002KT 9999 SCT060 10/09 Q1009 NOSIG
12-04-05 METAR LIMC 052320Z 36002KT 9999 SCT060 09/08 Q1009 NOSIG
12-04-06 METAR LIMC 060020Z 33003KT 9999 SCT060 08/07 Q1009 NOSIG
12-04-06 METAR LIMC 060120Z 01002KT 9999 SCT060 09/08 Q1009 NOSIG
12-04-06 METAR LIMC 060220Z 35002KT 9999 SCT070 08/07 Q1009 NOSIG
12-04-06 METAR LIMC 060320Z 00000KT 9999 MIFG SCT070 06/06 Q1008 NOSIG
12-04-06 METAR LIMC 060420Z VRB01KT 8000 MIFG BKN025 06/05 Q1008 NOSIG
12-04-06 METAR LIMC 060520Z 03003KT 340V070 9000 MIFG FEW020 BKN040 08/08 Q1008 NOSIG
12-04-06 METAR LIMC 060620Z VRB01KT CAVOK 10/09 Q1008 NOSIG
12-04-06 METAR LIMC 060720Z VRB02KT 9999 BKN050 11/10 Q1009 NOSIG
12-04-06 METAR LIMC 060820Z VRB02KT 9999 BKN050 13/11 Q1009 NOSIG
12-04-06 METAR LIMC 060920Z VRB01KT 9999 BKN050 15/10 Q1009 NOSIG
12-04-06 METAR LIMC 061020Z VRB01KT 9999 SCT050 17/10 Q1008 NOSIG
12-04-06 METAR LIMC 061120Z 16003KT 130V190 9999 SCT025 17/09 Q1008 NOSIG
12-04-06 METAR LIMC 061220Z 18005KT 130V250 9999 BKN030 18/11 Q1007 NOSIG
12-04-06 METAR LIMC 061320Z 19004KT 160V230 9999 SCT035 19/09 Q1007 NOSIG
12-04-06 METAR LIMC 061420Z 21005KT 9999 SCT035 19/09 Q1006 NOSIG
12-04-06 METAR LIMC 061520Z 17004KT 140V220 9999 FEW035TCU SCT040 19/10 Q1005 NOSIG
12-04-06 METAR LIMC 061620Z 19005KT 9999 SCT040 17/09 Q1005 NOSIG
12-04-06 METAR LIMC 061720Z 18002KT 9999 FEW035CB SCT040 16/09 Q1005 NOSIG
12-04-06 METAR LIMC 061820Z 18003KT 9999 VCTS SCT040CB SCT070 15/10 Q1006 NOSIG
12-04-06 METAR LIMC 061920Z 17002KT 9999 SCT050 14/10 Q1006 NOSIG
12-04-06 METAR LIMC 062020Z 16002KT 9999 BKN050 14/09 Q1006 NOSIG
12-04-06 METAR LIMC 062120Z NIL
12-04-06 METAR LIMC 062120Z VRB02KT 9999 BKN050 14/09 Q1006 NOSIG
12-04-06 METAR LIMC 062220Z 09002KT 9999 BKN050 13/09 Q1006 NOSIG
12-04-06 METAR LIMC 062320Z 00000KT 9999 BKN050 12/10 Q1006 NOSIG
12-04-07 METAR LIMC 070020Z 05002KT 9999 BKN050 12/10 Q1005 NOSIG
12-04-07 METAR LIMC 070120Z 06002KT 9999 BKN040 11/09 Q1005 NOSIG
12-04-07 METAR LIMC 070220Z 04002KT 9999 BKN040 11/09 Q1004 NOSIG
12-04-07 METAR LIMC 070320Z 06002KT 9999 BKN040 11/09 Q1004 NOSIG
12-04-07 METAR LIMC 070420Z 04002KT 9999 BKN040 11/09 Q1003 NOSIG
12-04-07 METAR LIMC 070520Z 35002KT 9999 BKN040 11/09 Q1003 NOSIG
12-04-07 METAR LIMC 070620Z VRB02KT 9999 BKN040 12/10 Q1003 NOSIG
12-04-07 METAR LIMC 070720Z VRB01KT 9999 BKN040 13/10 Q1003 NOSIG
12-04-07 METAR LIMC 070820Z VRB02KT 9999 FEW025 SCT060 15/10 Q1002 NOSIG
12-04-07 METAR LIMC 070920Z VRB02KT 9999 BKN025 15/10 Q1002 NOSIG
12-04-07 METAR LIMC 071020Z 16003KT 090V240 9999 BKN025 16/10 Q1002 NOSIG
12-04-07 METAR LIMC 071120Z 16003KT 110V200 9999 BKN025 17/09 Q1001 TEMPO TS
12-04-07 METAR LIMC 071320Z 20003KT 170V230 9999 SCT025 BKN050 17/09 Q0999 TEMPO TS
12-04-07 METAR LIMC 071420Z 33004KT 270V350 9999 FEW025CB BKN040 15/12 Q0998 RETS NOSIG
12-04-07 METAR LIMC 071520Z 20004KT 160V230 9999 BKN040 BKN060 15/08 Q0998 NOSIG
12-04-07 METAR LIMC 071620Z 18004KT 9999 FEW015 SCT040 BKN060 15/07 Q0999 NOSIG
12-04-07 METAR LIMC 071720Z 10003KT 9999 FEW015CB BKN040 14/07 Q0999 NOSIG
12-04-07 METAR LIMC 071820Z 07002KT 9999 RA SCT015CB BKN030 11/09 Q1000 NOSIG
12-04-07 METAR LIMC 071920Z VRB01KT 9999 SCT030 11/09 Q1000 NOSIG
12-04-07 METAR LIMC 072020Z 00000KT 9999 SCT030 09/09 Q1000 RERA NOSIG
12-04-07 METAR LIMC 072120Z 34003KT CAVOK 08/07 Q1000 NOSIG
12-04-07 METAR LIMC 072220Z 34002KT CAVOK 07/06 Q1000 NOSIG
12-04-07 METAR LIMC 072320Z 33001KT 9999 SCT035 06/06 Q1000 NOSIG
12-04-08 METAR LIMC 080020Z 33003KT 280V360 CAVOK 07/07 Q1000 NOSIG
12-04-08 METAR LIMC 080120Z VRB02KT 9999 SCT070 06/06 Q0999 NOSIG
12-04-08 METAR LIMC 080220Z 28002KT 9999 SCT070 08/07 Q0999 NOSIG
12-04-08 METAR LIMC 080320Z 32003KT 9999 BKN070 07/07 Q0999 NOSIG
12-04-08 METAR LIMC 080420Z 35003KT 9999 BKN070 08/07 Q0999 NOSIG
12-04-08 METAR LIMC 080520Z 35003KT 9999 MIFG SCT060 07/06 Q0999 NOSIG
12-04-08 METAR LIMC 080620Z 35002KT 9999 SCT050 10/08 Q1000 NOSIG
12-04-08 METAR LIMC 080720Z 32003KT 9999 SCT050 12/06 Q1000 NOSIG
12-04-08 METAR LIMC 080820Z 08004KT 050V120 9999 SCT050 12/08 Q1001 NOSIG
12-04-08 METAR LIMC 080920Z 07003KT 030V120 9999 FEW050 14/06 Q1002 NOSIG
12-04-08 METAR LIMC 081020Z 04008KT 360V080 9999 SCT040 16/M05 Q1002 NOSIG
12-04-08 METAR LIMC 081120Z 01008KT 340V040 9999 FEW035 16/M06 Q1002 NOSIG
12-04-08 METAR LIMC 081220Z 01009KT 330V040 9999 FEW035 16/M08 Q1003 NOSIG
12-04-08 METAR LIMC 081320Z 01011KT 9999 FEW035 15/M09 Q1003 WS RWY 35L NOSIG
12-04-08 METAR LIMC 081420Z 02009KT 330V060 9999 FEW035 15/M11 Q1004 NOSIG
12-04-08 METAR LIMC 081520Z 03009KT 360V060 CAVOK 14/M11 Q1005 NOSIG
12-04-08 METAR LIMC 081620Z 04010KT 010V070 CAVOK 13/M12 Q1005 NOSIG
12-04-08 METAR LIMC 081720Z 04009KT CAVOK 12/M11 Q1006 NOSIG
12-04-08 METAR LIMC 081820Z 04008KT 360V060 CAVOK 10/M11 Q1007 NOSIG
12-04-08 METAR LIMC 081920Z 04007KT 360V070 CAVOK 09/M12 Q1008 NOSIG
12-04-08 METAR LIMC 082020Z 04007KT 350V060 CAVOK 09/M13 Q1009 NOSIG
12-04-08 METAR LIMC 082120Z 14002KT CAVOK 07/M02 Q1011 NOSIG
12-04-08 METAR LIMC 082220Z VRB02KT CAVOK 06/03 Q1011 NOSIG
12-04-08 METAR LIMC 082320Z VRB01KT CAVOK 02/01 Q1012 NOSIG
12-04-09 METAR LIMC 090020Z 02002KT CAVOK 03/02 Q1012 NOSIG
12-04-09 METAR LIMC 090120Z 36001KT CAVOK 01/01 Q1012 NOSIG
12-04-09 METAR LIMC 090220Z 00000KT CAVOK 00/M00 Q1012 NOSIG
12-04-09 METAR LIMC 090320Z 00000KT CAVOK 00/M00 Q1012 NOSIG
12-04-09 METAR LIMC 090420Z 00000KT 9999 SCT080 01/00 Q1012 NOSIG
12-04-09 METAR LIMC 090520Z 00000KT CAVOK 01/00 Q1013 NOSIG
12-04-09 METAR LIMC 090620Z VRB01KT CAVOK 05/03 Q1013 NOSIG
12-04-09 METAR LIMC 090720Z VRB02KT 9999 SCT070 07/02 Q1013 NOSIG
12-04-09 METAR LIMC 090820Z 14003KT 090V180 9999 BKN070 08/M00 Q1013 NOSIG
12-04-09 METAR LIMC 090920Z VRB02KT 9999 BKN070 10/01 Q1013 NOSIG
12-04-09 METAR LIMC 091020Z 17003KT 100V260 9999 FEW030 BKN080 10/00 Q1013 NOSIG
12-04-09 METAR LIMC 091120Z VRB02KT 9999 BKN040 11/M00 Q1012 NOSIG
12-04-09 METAR LIMC 091220Z VRB02KT 9999 SCT025 12/00 Q1012 NOSIG
12-04-09 METAR LIMC 091320Z 17004KT 130V220 9999 SCT028 13/01 Q1011 NOSIG
12-04-09 METAR LIMC 091420Z 23004KT 190V250 9999 FEW028 13/01 Q1011 NOSIG
12-04-09 METAR LIMC 091520Z VRB02KT CAVOK 13/01 Q1010 NOSIG
12-04-09 METAR LIMC 091620Z 22004KT 190V250 CAVOK 12/M01 Q1010 NOSIG
12-04-09 METAR LIMC 091720Z 23003KT 9999 SCT090 12/M00 Q1010 NOSIG
12-04-09 METAR LIMC 091820Z 19001KT 9999 SCT090 10/01 Q1010 NOSIG
12-04-09 METAR LIMC 091920Z 00000KT 9999 SCT090 10/01 Q1011 NOSIG
12-04-09 METAR LIMC 092020Z 09001KT 9999 SCT090 08/03 Q1011 NOSIG
12-04-09 METAR LIMC 092120Z 10002KT 9999 SCT090 09/02 Q1011 NOSIG
12-04-09 METAR LIMC 092220Z 09002KT 9999 SCT090 08/01 Q1011 NOSIG
12-04-09 METAR LIMC 092320Z 07001KT 9999 SCT090 07/02 Q1012 NOSIG
12-04-10 METAR LIMC 100020Z 07002KT 9999 SCT090 06/01 Q1012 NOSIG
12-04-10 METAR LIMC 100120Z 06002KT 9999 SCT090 07/02 Q1012 NOSIG
12-04-10 METAR LIMC 100220Z 05002KT 9999 SCT090 07/02 Q1012 NOSIG
12-04-10 METAR LIMC 100320Z 06002KT 9999 SCT080 07/02 Q1012 NOSIG
12-04-10 METAR LIMC 100420Z 02002KT 9999 SCT080 06/02 Q1012 NOSIG
12-04-10 METAR LIMC 100520Z 04002KT 9999 FEW070 BKN090 06/02 Q1012 NOSIG
12-04-10 METAR LIMC 100620Z 07002KT 9999 BKN040 07/01 Q1012 NOSIG
12-04-10 METAR LIMC 100720Z 07003KT 040V100 9999 BKN040 08/01 Q1012 NOSIG
12-04-10 METAR LIMC 100820Z VRB02KT 9999 SCT040 BKN080 09/M01 Q1012 NOSIG
12-04-10 METAR LIMC 100920Z VRB02KT 9999 BKN065 11/00 Q1012 NOSIG
12-04-10 METAR LIMC 101020Z 10003KT 010V170 9999 BKN065 12/00 Q1011 NOSIG
12-04-10 METAR LIMC 101120Z VRB02KT 9999 FEW030 SCT070 12/02 Q1011 NOSIG
12-04-10 METAR LIMC 101220Z 14004KT 9999 SCT030 SCT070 11/02 Q1011 NOSIG
12-04-10 METAR LIMC 101320Z 16004KT 120V190 9999 FEW030 BKN070 11/02 Q1011 NOSIG
12-04-10 METAR LIMC 101420Z 12003KT 090V150 9999 FEW035 BKN060 11/01 Q1010 NOSIG
12-04-10 METAR LIMC 101620Z 17002KT 9000 OVC050 09/05 Q1009 NOSIG
12-04-10 METAR LIMC 101720Z 00000KT 4000 RA OVC040 08/06 Q1009 NOSIG
12-04-10 METAR LIMC 101820Z 29003KT 4000 RA BKN008 OVC015 08/06 Q1009 NOSIG
12-04-10 METAR LIMC 101920Z VRB02KT 4000 RA BKN008 OVC015 07/06 Q1009 NOSIG
12-04-10 METAR LIMC 102020Z 36003KT 4000 RA BKN008 OVC015 07/06 Q1009 NOSIG
12-04-10 METAR LIMC 102120Z 36003KT 3000 RA BR BKN008 OVC015 07/06 Q1008 NOSIG
12-04-10 METAR LIMC 102220Z 36003KT 320V030 3000 RA BR BKN008 OVC015 07/06 Q1007 NOSIG
12-04-10 METAR LIMC 102320Z 34004KT 3000 RA BR BKN008 OVC015 06/05 Q1007 NOSIG
12-04-11 METAR LIMC 110020Z 36003KT 320V020 3000 RA BR OVC008 06/06 Q1006 NOSIG
12-04-11 METAR LIMC 110120Z 35003KT 3000 RA BR OVC008 06/05 Q1004 NOSIG
12-04-11 METAR LIMC 110220Z 34004KT 3000 RA BR BKN008 OVC012 06/05 Q1003 NOSIG
12-04-11 METAR LIMC 110320Z 33004KT 3000 RA BR BKN008 OVC012 06/05 Q1003 NOSIG
12-04-11 METAR LIMC 110420Z 35005KT 8000 RA BKN008 OVC012 06/05 Q1002 NOSIG
12-04-11 METAR LIMC 110520Z 36005KT 3500 RA BKN008 OVC015 06/05 Q1001 NOSIG
12-04-11 METAR LIMC 110620Z 34004KT 3000 RA BKN008 OVC015 06/05 Q1001 NOSIG
12-04-11 METAR LIMC 110720Z 33009KT 3000 RA BKN008 OVC015 05/04 Q1000 NOSIG
12-04-11 METAR LIMC 110820Z 35005KT 3500 RA BKN008 OVC025 05/04 Q1000 NOSIG
12-04-11 METAR LIMC 110920Z 36004KT 4000 RA BKN010 OVC020 05/04 Q1000 NOSIG
12-04-11 METAR LIMC 111020Z 01003KT 330V050 4000 RA BKN010 OVC020 06/05 Q1000 NOSIG
12-04-11 METAR LIMC 111120Z 01004KT 330V060 9999 RA BKN010 OVC020 06/05 Q0999 NOSIG
12-04-11 METAR LIMC 111220Z 36005KT 8000 RA BKN010 OVC020 06/05 Q1000 NOSIG
12-04-11 METAR LIMC 111320Z 01004KT 340V060 9999 RA BKN010 OVC030 07/05 Q1000 NOSIG
12-04-11 METAR LIMC 111420Z 36004KT 9999 -RA SCT030 BKN060 08/05 Q0999 RERA NOSIG
12-04-11 METAR LIMC 111520Z 26004KT 9999 SCT030 BKN070 09/06 Q1000 NOSIG
12-04-11 METAR LIMC 111620Z 22004KT 200V260 9999 FEW030 SCT070 10/07 Q1000 NOSIG
12-04-11 METAR LIMC 111720Z 24003KT 9999 FEW040 10/07 Q1000 NOSIG
12-04-11 METAR LIMC 111820Z VRB01KT CAVOK 08/07 Q1001 NOSIG
12-04-11 METAR LIMC 111920Z 00000KT CAVOK 07/06 Q1002 NOSIG
12-04-11 METAR LIMC 112020Z 00000KT CAVOK 05/04 Q1002 NOSIG
12-04-11 METAR LIMC 112120Z 01003KT CAVOK 03/03 Q1002 NOSIG
12-04-11 METAR LIMC 112120Z /////KT CAVOK ///// Q//// NOSIG
12-04-11 METAR LIMC 112220Z 35002KT CAVOK 03/02 Q1002 NOSIG
12-04-11 METAR LIMC 112320Z 33002KT CAVOK 03/03 Q1002 NOSIG
12-04-12 METAR LIMC 120020Z 35002KT 9999 MIFG NSC 01/01 Q1002 NOSIG
12-04-12 METAR LIMC 120120Z 36003KT 9999 MIFG NSC 02/02 Q1002 NOSIG
12-04-12 METAR LIMC 120220Z VRB01KT 9999 MIFG NSC 01/01 Q1003 NOSIG
12-04-12 METAR LIMC 120320Z VRB02KT 9999 MIFG NSC M00/M00 Q1002 NOSIG
12-04-12 METAR LIMC 120420Z VRB02KT 9999 R35L/1500N R35R/0900V1500N MIFG NSC M01/M01 Q1003 NOSIG
12-04-12 METAR LIMC 120520Z 34003KT CAVOK 02/02 Q1003 NOSIG
12-04-12 METAR LIMC 120620Z 00000KT CAVOK 05/03 Q1003 NOSIG
12-04-12 METAR LIMC 120720Z VRB02KT CAVOK 08/03 Q1004 NOSIG
12-04-12 METAR LIMC 120820Z VRB01KT CAVOK 11/01 Q1004 NOSIG
12-04-12 METAR LIMC 120920Z NIL
12-04-12 METAR LIMC 121020Z NIL
12-04-12 METAR LIMC 121120Z VRB02KT CAVOK 16/02 Q1004 NOSIG
12-04-12 METAR LIMC 121220Z 14003KT 060V190 CAVOK 16/01 Q1003 NOSIG
12-04-12 METAR LIMC 121320Z 18003KT 130V270 CAVOK 16/03 Q1003 NOSIG
12-04-12 METAR LIMC 121420Z 14003KT 090V190 CAVOK 17/05 Q1003 NOSIG
12-04-12 METAR LIMC 121520Z 13003KT 080V180 9999 FEW020 17/02 Q1003 NOSIG
12-04-12 METAR LIMC 121620Z 16004KT 100V220 9999 FEW020 16/05 Q1003 NOSIG
12-04-12 METAR LIMC 121720Z VRB02KT 9999 SCT020TCU 16/05 Q1003 NOSIG
12-04-12 METAR LIMC 121820Z 17006KT 130V200 6000 TSRA SCT015CB BKN025 10/07 Q1004
12-04-12 METAR LIMC 121920Z 27002KT 7000 RA FEW020 BKN040 10/09 Q1005 RETS NOSIG
12-04-12 METAR LIMC 122020Z 33004KT 9999 RA FEW020 BKN040 10/08 Q1004 NOSIG
12-04-12 METAR LIMC 122120Z VRB02KT 9999 FEW020 BKN050 10/07 Q1004 NOSIG
12-04-12 METAR LIMC 122220Z 34004KT 9999 FEW030 SCT050 10/08 Q1004 NOSIG
12-04-12 METAR LIMC 122320Z 34003KT 9999 -RA FEW030 SCT050 09/09 Q1004 RERA NOSIG
12-04-13 METAR LIMC 130020Z 34004KT 9999 -RA FEW010 SCT030 09/08 Q1003 NOSIG
12-04-13 METAR LIMC 130120Z 34003KT 310V070 9999 FEW010 SCT030 09/08 Q1003 NOSIG
12-04-13 METAR LIMC 130220Z 34004KT 300V020 8000 RA FEW010 BKN025 09/07 Q1003 NOSIG
12-04-13 METAR LIMC 130320Z 36003KT 9000 DZ FEW015 BKN030 08/07 Q1003 RERA NOSIG
12-04-13 METAR LIMC 130420Z 36003KT 9000 DZ FEW015 BKN030 08/07 Q1003 NOSIG
12-04-13 METAR LIMC 130520Z 35004KT 9000 SCT015 OVC025 08/07 Q1003 NOSIG
12-04-13 METAR LIMC 130620Z 35004KT 9000 SCT015 OVC025 08/07 Q1003 NOSIG
12-04-13 METAR LIMC 130720Z 36004KT 330V030 9000 SCT015 BKN025 09/08 Q1003 NOSIG
12-04-13 METAR LIMC 130820Z 35005KT 9000 SCT015 BKN025 09/07 Q1003 NOSIG
12-04-13 METAR LIMC 130920Z 35003KT 300V010 9999 SCT020 BKN030 10/07 Q1003 NOSIG
12-04-13 METAR LIMC 131020Z 33004KT 9999 SCT020 BKN030 10/07 Q1003 NOSIG
12-04-13 METAR LIMC 131120Z 33004KT 9999 SCT020 BKN050 11/08 Q1002 NOSIG
12-04-13 METAR LIMC 131220Z 32004KT 290V350 9999 FEW030 BKN060 13/08 Q1001 NOSIG
12-04-13 METAR LIMC 131320Z NIL
12-04-13 METAR LIMC 131320Z 30004KT 260V330 9999 SCT020 15/07 Q1000 NOSIG
12-04-13 METAR LIMC 131420Z VRB02KT 9999 SCT020 15/05 Q0999 NOSIG
12-04-13 METAR LIMC 131520Z 32003KT 280V020 9999 BKN030 14/05 Q0999 NOSIG
12-04-13 METAR LIMC 131620Z 29001KT 9999 BKN030 14/04 Q0999 NOSIG
12-04-13 METAR LIMC 131720Z 11005KT 080V150 4000 BR FEW008 BKN020 BKN050 11/09 Q0999 NOSIG
12-04-13 METAR LIMC 131820Z 08003KT 050V120 9999 FEW008 SCT020 BKN070 10/09 Q1000
12-04-13 METAR LIMC 131920Z 09003KT 9999 -RA SCT010 BKN030 10/08 Q1000 NOSIG
12-04-13 METAR LIMC 132020Z 00000KT 9999 -RA SCT010 BKN030 10/09 Q1000 NOSIG
12-04-13 METAR LIMC 132120Z 05003KT 340V070 8000 -RA BKN010 BKN030 09/08 Q1000
12-04-13 METAR LIMC 132220Z VRB02KT 8000 -RA SCT008 BKN030 09/08 Q1000 NOSIG
12-04-13 METAR LIMC 132320Z VRB01KT 8000 -RA SCT008 BKN030 09/08 Q1000 NOSIG
12-04-14 METAR LIMC 140020Z 34002KT 8000 -RA SCT008 BKN030 09/08 Q0999 NOSIG
12-04-14 METAR LIMC 140120Z 35001KT 8000 -RA SCT008 BKN030 09/08 Q0998 NOSIG
12-04-14 METAR LIMC 140220Z 33002KT 8000 -RA SCT008 BKN030 08/08 Q0998 NOSIG
12-04-14 METAR LIMC 140320Z 33002KT 8000 -RA BKN040 08/08 Q0997 NOSIG
12-04-14 METAR LIMC 140520Z 30003KT 4000 BCFG BKN050 BKN080 09/08 Q0996 NOSIG
12-04-14 METAR LIMC 140620Z VRB02KT 9999 BCFG BKN050 BKN080 09/08 Q0996 NOSIG
12-04-14 METAR LIMC 140720Z VRB02KT 9999 BCFG BKN050 BKN080 10/09 Q0996 NOSIG
12-04-14 METAR LIMC 140920Z VRB02KT 9999 FEW010 BKN050 12/10 Q0996 NOSIG
12-04-14 METAR LIMC 141020Z VRB02KT 9999 FEW015 BKN060 13/09 Q0996 NOSIG
12-04-14 METAR LIMC 141120Z 19004KT 9999 SCT020 BKN070 13/09 Q0996 NOSIG
12-04-14 METAR LIMC 141220Z 20005KT 160V230 9999 SCT025 BKN070 14/08 Q0996 NOSIG
12-04-14 METAR LIMC 141320Z 19005KT 140V230 9999 SCT025 BKN080 13/07 Q0996 NOSIG
12-04-14 METAR LIMC 141420Z 16004KT 120V190 9999 SCT025 SCT060 BKN080 13/08 Q0996 NOSIG
12-04-14 METAR LIMC 141620Z VRB02KT 9999 FEW020 SCT045 BKN080 12/09 Q0996 NOSIG
12-04-14 METAR LIMC 141720Z 35003KT 9999 FEW012 SCT045 BKN080 11/09 Q0996 NOSIG
12-04-14 METAR LIMC 141920Z 36003KT 330V040 9999 RA FEW010 BKN035 BKN060 10/08 Q0997
12-04-14 METAR LIMC 142020Z VRB02KT 9999 RA FEW010 BKN035 BKN060 09/08 Q0997 NOSIG
12-04-14 METAR LIMC 142120Z 30003KT 9999 RA FEW010 BKN035 BKN060 09/08 Q0997 NOSIG
12-04-14 METAR LIMC 142220Z 36003KT 320V070 9999 RA BKN020 BKN060 09/08 Q0997 NOSIG
12-04-14 METAR LIMC 142320Z 34004KT 330V040 9999 RA BKN020 BKN060 09/08 Q0997 NOSIG
12-04-15 METAR LIMC 150020Z 35005KT 9999 RA BKN020 BKN060 09/07 Q0996 NOSIG
12-04-15 METAR LIMC 150120Z 35004KT 9999 RA BKN020 BKN060 08/07 Q0996 NOSIG
12-04-15 METAR LIMC 150220Z 34004KT 9999 RA BKN020 BKN060 08/08 Q0996 NOSIG
12-04-15 METAR LIMC 150320Z 36003KT 340V040 9999 RA BKN020 BKN060 08/08 Q0996 NOSIG
12-04-15 METAR LIMC 150420Z NIL
12-04-15 METAR LIMC 150420Z 01003KT 350V070 9999 RA BKN020 BKN060 08/07 Q0996 NOSIG
12-04-15 METAR LIMC 150520Z 05003KT 350V070 9999 RA BKN020 OVC040 09/08 Q0997 NOSIG
12-04-15 METAR LIMC 150620Z 35004KT 330V040 8000 RA SCT020 OVC040 09/08 Q0997 NOSIG
12-04-15 METAR LIMC 150720Z 35003KT 330V060 8000 RA SCT020 OVC040 09/08 Q0997 NOSIG
12-04-15 METAR LIMC 150820Z 03004KT 350V060 9000 RA SCT020 OVC040 09/08 Q0998 NOSIG
12-04-15 METAR LIMC 150920Z 35004KT 330V060 9000 RA SCT020 OVC040 09/08 Q0998 NOSIG
12-04-15 METAR LIMC 151020Z VRB02KT 9000 RA SCT020 OVC040 10/08 Q0998 NOSIG
12-04-15 METAR LIMC 151120Z 36003KT 330V040 9000 RA SCT020 OVC040 10/09 Q0998 NOSIG
12-04-15 METAR LIMC 151220Z 35004KT 330V030 9000 RA SCT015 OVC040 10/09 Q0999 NOSIG
12-04-15 METAR LIMC 151320Z VRB03KT 9000 -RA SCT020 OVC040 11/09 Q0999 RERA NOSIG
12-04-15 METAR LIMC 151420Z 06004KT 6000 RA SCT010 OVC035 10/08 Q0999 NOSIG
12-04-15 METAR LIMC 151520Z 08003KT 030V110 8000 RA SCT010 OVC035 10/08 Q1000 NOSIG
12-04-15 METAR LIMC 151620Z VRB02KT 8000 RA SCT008 OVC035 10/09 Q1000 NOSIG
12-04-15 METAR LIMC 151720Z 02003KT 350V050 9999 SCT015 OVC040 10/08 Q1000 NOSIG
12-04-15 METAR LIMC 151820Z 35004KT 9999 SCT025 OVC050 10/09 Q1001 NOSIG
12-04-15 METAR LIMC 151920Z 35004KT 9999 -RA SCT025 OVC050 09/08 Q1002 NOSIG
12-04-15 METAR LIMC 152020Z 35003KT 330V060 9999 SCT025 OVC050 09/08 Q1002 NOSIG
12-04-15 METAR LIMC 152120Z 35003KT 340V060 9999 SCT030 BKN050 09/08 Q1003 NOSIG
12-04-15 METAR LIMC 152220Z VRB02KT 9999 SCT030 BKN050 09/08 Q1003 NOSIG
12-04-15 METAR LIMC 152320Z VRB02KT 9999 RA SCT030 BKN050 09/08 Q1003 NOSIG
12-04-16 METAR LIMC 160020Z 34001KT 9999 RA SCT030 BKN050 08/08 Q1003 NOSIG
12-04-16 METAR LIMC 160120Z 34001KT 9999 -RA SCT030 BKN050 08/08 Q1003 RERA NOSIG
12-04-16 METAR LIMC 160220Z 36003KT 9999 -RA SCT030 BKN050 08/08 Q1003 NOSIG
12-04-16 METAR LIMC 160320Z NIL
12-04-16 METAR LIMC 160420Z 35002KT 9999 SCT030 BKN060 07/07 Q1003 NOSIG
12-04-16 METAR LIMC 160520Z VRB01KT 9999 SCT030 BKN060 08/07 Q1004 NOSIG
12-04-16 METAR LIMC 160620Z 32002KT 9000 SCT030 BKN060 09/08 Q1004 NOSIG
12-04-16 METAR LIMC 160720Z 33002KT 9000 SCT030 BKN060 10/09 Q1005 NOSIG
12-04-16 METAR LIMC 160820Z VRB02KT 9000 SCT015 BKN050 11/09 Q1005 NOSIG
12-04-16 METAR LIMC 160920Z VRB02KT 9999 SCT015 BKN050 11/09 Q1006 NOSIG
12-04-16 METAR LIMC 161020Z VRB01KT 9999 SCT015 BKN050 12/08 Q1006 NOSIG
12-04-16 METAR LIMC 161120Z VRB02KT 9999 SCT015 BKN060 13/10 Q1006 NOSIG
12-04-16 METAR LIMC 161220Z 26003KT 220V300 9999 SCT015 BKN060 13/08 Q1005 NOSIG
12-04-16 METAR LIMC 161320Z 25003KT 210V290 9999 SCT015 OVC060 14/08 Q1005 NOSIG
12-04-16 METAR LIMC 161420Z 23003KT 200V260 9999 FEW015 BKN060 14/07 Q1005 NOSIG
12-04-16 METAR LIMC 161520Z 20003KT 150V250 9999 FEW015 BKN060 14/07 Q1005 NOSIG
12-04-16 METAR LIMC 161620Z VRB02KT 9999 FEW015 BKN060 14/07 Q1005 NOSIG
12-04-16 METAR LIMC 161720Z 16001KT 9999 SCT015 BKN060 13/08 Q1006 NOSIG
12-04-16 METAR LIMC 161820Z 21003KT 9999 SCT040 BKN080 12/09 Q1006 NOSIG
12-04-16 METAR LIMC 161920Z 10001KT 9999 BKN080 13/07 Q1007 NOSIG
12-04-16 METAR LIMC 162020Z 34002KT 9999 BKN080 12/08 Q1008 NOSIG
12-04-16 METAR LIMC 162120Z 32002KT 9999 FEW080 09/07 Q1008 NOSIG
12-04-16 METAR LIMC 162220Z VRB02KT 9999 SCT080 08/06 Q1008 NOSIG
12-04-16 METAR LIMC 162320Z 36002KT 9999 SCT080 09/03 Q1008 NOSIG
12-04-17 METAR LIMC 170020Z 01003KT 9999 SCT080 11/M02 Q1008 NOSIG
12-04-17 METAR LIMC 170120Z 04003KT 9999 SCT080 12/M04 Q1008 NOSIG
12-04-17 METAR LIMC 170220Z 05004KT 9999 SCT080 10/03 Q1008 NOSIG
12-04-17 METAR LIMC 170320Z 06003KT 9999 SCT080 09/07 Q1008 NOSIG
12-04-17 METAR LIMC 170420Z 03003KT 350V070 9999 MIFG NSC 08/07 Q1008 NOSIG
12-04-17 METAR LIMC 170520Z 35003KT 9999 SCT070 07/02 Q1008 NOSIG
12-04-17 METAR LIMC 170620Z 01003KT 340V090 CAVOK 11/M01 Q1008 NOSIG
12-04-17 METAR LIMC 170720Z 03003KT 360V080 CAVOK 14/M02 Q1008 NOSIG
12-04-17 METAR LIMC 170820Z 06003KT 010V090 CAVOK 15/M02 Q1009 NOSIG
12-04-17 METAR LIMC 170920Z 09003KT 040V160 CAVOK 14/00 Q1009 NOSIG
12-04-17 METAR LIMC 171020Z 13004KT 090V170 9999 FEW020 SCT080 15/03 Q1008 NOSIG
12-04-17 METAR LIMC 171120Z 14004KT 080V190 9999 SCT040 15/07 Q1008 NOSIG
12-04-17 METAR LIMC 171220Z VRB03KT 9999 SCT040 16/06 Q1007 NOSIG
12-04-17 METAR LIMC 171320Z VRB02KT 9999 SCT040 16/03 Q1006 NOSIG
12-04-17 METAR LIMC 171420Z VRB02KT 9999 SCT040 17/03 Q1005 NOSIG
12-04-17 METAR LIMC 171520Z VRB02KT 9999 FEW040 17/03 Q1004 NOSIG
12-04-17 METAR LIMC 171620Z 16003KT 9999 FEW040 16/04 Q1004 NOSIG
12-04-17 METAR LIMC 171720Z 18002KT 9999 FEW040 15/04 Q1004 NOSIG
12-04-17 METAR LIMC 171820Z 00000KT 9999 SCT090 13/05 Q1004 NOSIG
12-04-17 METAR LIMC 171920Z VRB02KT 9999 SCT090 11/05 Q1004 NOSIG
12-04-17 METAR LIMC 172020Z VRB02KT 9999 SCT090 09/06 Q1004 NOSIG
12-04-17 METAR LIMC 172120Z VRB02KT 9999 SCT070 11/05 Q1005 NOSIG
12-04-17 METAR LIMC 172220Z 05004KT 9999 SCT070 10/06 Q1004 NOSIG
12-04-17 METAR LIMC 172320Z 05003KT 9999 SCT070 10/06 Q1004 NOSIG
12-04-18 METAR LIMC 180020Z 00000KT 9999 SCT070 08/06 Q1003 NOSIG
12-04-18 METAR LIMC 180120Z 05002KT 9999 SCT070 09/06 Q1002 NOSIG
12-04-18 METAR LIMC 180220Z 06003KT 9999 SCT070 10/05 Q1002 NOSIG
12-04-18 METAR LIMC 180320Z 06003KT 9999 SCT070 10/05 Q1001 NOSIG
12-04-18 METAR LIMC 180420Z 07003KT 9999 BKN070 10/04 Q1001 NOSIG
12-04-18 METAR LIMC 180620Z VRB01KT 9999 SCT020 BKN040 10/04 Q1000 NOSIG
12-04-18 METAR LIMC 180720Z 34004KT 9999 RA SCT020 BKN040 09/07 Q1000 NOSIG
12-04-18 METAR LIMC 180820Z VRB02KT 9999 -RA SCT020 BKN040 10/06 Q1000 NOSIG
12-04-18 METAR LIMC 180920Z 33005KT 9999 SCT030 BKN050 09/07 Q1000 NOSIG
12-04-18 METAR LIMC 181020Z 34007KT 9999 SCT030 BKN050 08/05 Q0999 NOSIG
12-04-18 METAR LIMC 181120Z 33006KT 9999 -RA SCT035 BKN050 08/06 Q0999 NOSIG
12-04-18 METAR LIMC 181220Z 34007KT 9999 SCT030 BKN050 08/06 Q0998 NOSIG
12-04-18 METAR LIMC 181320Z 31007KT 9999 -RA SCT035 BKN060 07/05 Q0998 NOSIG
12-04-18 METAR LIMC 181420Z 33004KT 6000 -RA SCT025 BKN060 07/06 Q0997 RERA NOSIG
12-04-18 METAR LIMC 181520Z 34007KT 9999 SCT040 BKN065 09/07 Q0996 NOSIG
12-04-18 METAR LIMC 181620Z 36005KT 320V030 9999 FEW010 SCT040 09/06 Q0996 NOSIG
12-04-18 METAR LIMC 181720Z 02004KT 9999 FEW010 SCT050 09/05 Q0996 NOSIG
12-04-18 METAR LIMC 181920Z 33003KT 320V030 9999 SCT030 BKN060 08/06 Q0997 NOSIG
12-04-18 METAR LIMC 182020Z 36004KT 9999 SCT040 08/05 Q0997 NOSIG
12-04-18 METAR LIMC 182120Z 01003KT 9999 SCT020 08/06 Q0997 NOSIG
12-04-18 METAR LIMC 182220Z 32002KT 9999 FEW020 06/05 Q0997 NOSIG
12-04-18 METAR LIMC 182320Z NIL
12-04-18 METAR LIMC 182320Z 35002KT 9999 SCT030 06/05 Q0997 NOSIG
12-04-19 METAR LIMC 190020Z 03002KT 9999 SCT030 05/04 Q0996 NOSIG
12-04-19 METAR LIMC 190120Z VRB02KT 9999 SCT030 06/05 Q0997 NOSIG
12-04-19 METAR LIMC 190220Z 32002KT 9999 SCT030 06/05 Q0996 NOSIG
12-04-19 METAR LIMC 190320Z 33003KT 9999 SCT030 06/05 Q0996 NOSIG
12-04-19 METAR LIMC 190420Z 33003KT 9999 SCT040 06/05 Q0996 NOSIG
12-04-19 METAR LIMC 190520Z 36004KT 330V040 9999 SCT016 OVC050 06/05 Q0997 NOSIG
12-04-19 METAR LIMC 190620Z 36004KT 9999 BKN018 OVC050 07/05 Q0997 NOSIG
12-04-19 METAR LIMC 190720Z 34003KT 9999 BKN020 OVC050 08/06 Q0997 NOSIG
12-04-19 METAR LIMC 190820Z 03003KT 340V070 9999 SCT030 BKN060 09/06 Q0997 NOSIG
12-04-19 METAR LIMC 191020Z 34003KT 320V060 9999 SCT030 BKN060 09/07 Q0997 NOSIG
12-04-19 METAR LIMC 191120Z 34004KT 9999 BKN030 BKN060 09/07 Q0997 NOSIG
12-04-19 METAR LIMC 191320Z NIL
12-04-19 METAR LIMC 191420Z 33004KT 9999 BKN030 BKN060 11/07 Q0996 NOSIG
12-04-19 METAR LIMC 191520Z 30004KT 9999 FEW015CB BKN030 11/07 Q0995 NOSIG
12-04-19 METAR LIMC 191620Z 33004KT 9999 SCT015 BKN030 10/07 Q0996 NOSIG
12-04-19 METAR LIMC 191720Z 35003KT 9999 SCT015 BKN030 10/07 Q0996 NOSIG
12-04-19 METAR LIMC 191820Z 01003KT 330V040 9999 SCT015 BKN035 10/07 Q0996 NOSIG
12-04-19 METAR LIMC 191920Z VRB02KT 9999 SCT020 BKN035 10/07 Q0997 NOSIG
12-04-19 METAR LIMC 192020Z 34003KT 310V020 9999 BKN015 09/08 Q0997 NOSIG
12-04-19 METAR LIMC 192120Z 06003KT 7000 BKN008 BKN025 09/08 Q0997 NOSIG
12-04-19 METAR LIMC 192220Z 07005KT 7000 SCT008 BKN030 08/08 Q0997 NOSIG
12-04-19 METAR LIMC 192320Z 05003KT 010V080 7000 SCT015 BKN040 08/07 Q0997 NOSIG
12-04-20 METAR LIMC 200020Z VRB02KT 9999 SCT015 BKN040 08/07 Q0997 NOSIG
12-04-20 METAR LIMC 200120Z VRB02KT 5000 RA BKN010 BKN040 08/07 Q0997 NOSIG
12-04-20 METAR LIMC 200220Z 00000KT 9999 -RA SCT015 BKN040 08/07 Q0997 RERA NOSIG
12-04-20 METAR LIMC 200320Z 06003KT 020V170 9999 SCT015 BKN040 07/07 Q0997 NOSIG
12-04-20 METAR LIMC 200420Z 00000KT 9999 SCT010 BKN040 07/07 Q0997 NOSIG
12-04-20 METAR LIMC 200520Z VRB02KT 9999 OVC020 08/07 Q0997 NOSIG
12-04-20 METAR LIMC 200620Z VRB01KT 9999 OVC020 08/07 Q0998 NOSIG
12-04-20 METAR LIMC 200720Z VRB02KT 9999 SCT015 OVC030 09/07 Q0998 NOSIG
12-04-20 METAR LIMC 200820Z VRB01KT 9999 SCT015 BKN030 10/07 Q0999 NOSIG
12-04-20 METAR LIMC 200920Z VRB01KT 9999 FEW015TCU SCT030 11/07 Q0999 NOSIG
12-04-20 METAR LIMC 201020Z VRB02KT 9999 FEW015TCU SCT020 12/06 Q0999 NOSIG
12-04-20 METAR LIMC 201120Z VRB02KT 9999 FEW015TCU SCT025 13/07 Q0999 NOSIG
12-04-20 METAR LIMC 201220Z VRB02KT 9999 FEW015TCU SCT025 14/06 Q0998 NOSIG
12-04-20 METAR LIMC 201320Z 17003KT 090V260 9999 FEW015TCU SCT025 14/06 Q0998 NOSIG
12-04-20 METAR LIMC 201420Z 28003KT 170V340 9999 SCT015TCU SCT025 13/04 Q0998 NOSIG
12-04-20 METAR LIMC 201420Z 28003KT 170V340 9999 RA SCT015TCU SCT025 13/04 Q0998 NOSIG
12-04-20 METAR LIMC 201520Z VRB02KT 9999 TS FEW015CB SCT025 12/08 Q0999 RERA NOSIG
12-04-20 METAR LIMC 201620Z 02004KT 9999 FEW040 13/05 Q0999 RETS NOSIG
12-04-20 METAR LIMC 201720Z VRB02KT 9999 FEW060 13/05 Q1000 NOSIG
12-04-20 METAR LIMC 201820Z VRB02KT 9999 FEW030 SCT070 12/05 Q1000 NOSIG
12-04-20 METAR LIMC 201920Z VRB03KT 9999 FEW030 SCT070 10/06 Q1001 NOSIG
12-04-20 METAR LIMC 202020Z VRB01KT 9999 FEW060 10/05 Q1002 NOSIG
12-04-20 METAR LIMC 202120Z VRB01KT 9999 SCT040 08/06 Q1002 NOSIG
12-04-20 METAR LIMC 202220Z 00000KT CAVOK 06/05 Q1003 NOSIG
12-04-20 METAR LIMC 202320Z 36002KT CAVOK 05/04 Q1003 NOSIG
12-04-21 METAR LIMC 210020Z 00000KT CAVOK 04/03 Q1003 NOSIG
12-04-21 METAR LIMC 210120Z 34003KT 320V020 CAVOK 04/03 Q1003 NOSIG
12-04-21 METAR LIMC 210220Z 33002KT CAVOK 04/02 Q1003 NOSIG
12-04-21 METAR LIMC 210320Z VRB01KT CAVOK 03/03 Q1003 NOSIG
12-04-21 METAR LIMC 210420Z VRB01KT CAVOK 03/02 Q1004 NOSIG
12-04-21 METAR LIMC 210520Z 00000KT CAVOK 05/02 Q1005 NOSIG
12-04-21 METAR LIMC 210620Z VRB02KT CAVOK 08/04 Q1006 NOSIG
12-04-21 METAR LIMC 210720Z 06003KT 030V090 CAVOK 11/04 Q1006 NOSIG
12-04-21 METAR LIMC 210820Z VRB03KT CAVOK 13/05 Q1007 NOSIG
12-04-21 METAR LIMC 210920Z 12003KT 050V210 CAVOK 14/05 Q1007 NOSIG
12-04-21 METAR LIMC 211020Z 11003KT 050V200 CAVOK 16/07 Q1007 NOSIG
12-04-21 METAR LIMC 211120Z VRB03KT 9999 FEW030 17/06 Q1007 NOSIG
12-04-21 METAR LIMC 211220Z 18005KT 120V220 9999 FEW030 17/04 Q1007 NOSIG
12-04-21 METAR LIMC 211320Z 19003KT 140V240 9999 FEW030 17/06 Q1006 NOSIG
12-04-21 METAR LIMC 211420Z 18004KT 150V220 9999 SCT030 18/06 Q1006 NOSIG
12-04-21 METAR LIMC 211520Z 15004KT 110V190 9999 SCT030 17/05 Q1006 NOSIG
12-04-21 METAR LIMC 211620Z 15003KT 9999 BKN030 16/06 Q1005 NOSIG
12-04-21 METAR LIMC 211720Z 17003KT 120V200 9999 TS FEW020CB BKN050 16/07 Q1005 NOSIG
12-04-21 METAR LIMC 211820Z 32003KT 9999 -TSRA FEW020CB SCT030 BKN060 12/09 Q1007
12-04-21 METAR LIMC 211920Z 33004KT 9999 SCT030 SCT060 10/09 Q1007 NOSIG
12-04-21 METAR LIMC 212020Z 04004KT 350V060 9999 SCT030 SCT060 11/09 Q1007 NOSIG
12-04-21 METAR LIMC 212120Z 05003KT 9999 BKN030 11/08 Q1007 NOSIG
12-04-21 METAR LIMC 212220Z 03002KT 9999 BKN030 11/08 Q1007 NOSIG
12-04-21 METAR LIMC 212320Z 34003KT 9999 BKN025 10/09 Q1007 NOSIG
12-04-22 METAR LIMC 220020Z 34004KT 9999 BKN025 10/09 Q1006 NOSIG
12-04-22 METAR LIMC 220120Z 35003KT 9999 BKN025 11/09 Q1006 NOSIG
12-04-22 METAR LIMC 220220Z VRB02KT 9999 BKN025 10/09 Q1006 NOSIG
12-04-22 METAR LIMC 220320Z 35003KT 9999 BKN025 10/09 Q1006 NOSIG
12-04-22 METAR LIMC 220420Z 36003KT 9999 BKN025 10/08 Q1006 NOSIG
12-04-22 METAR LIMC 220520Z 34003KT 9999 BKN030 10/08 Q1006 NOSIG
12-04-22 METAR LIMC 220620Z 32003KT 9999 BKN030 10/09 Q1006 NOSIG
12-04-22 METAR LIMC 220720Z 35003KT 310V010 9999 FEW030TCU SCT035 12/09 Q1006 NOSIG
12-04-22 METAR LIMC 220820Z VRB01KT 9999 FEW030 SCT060 14/09 Q1006 NOSIG
12-04-22 METAR LIMC 220920Z VRB01KT 9999 FEW030 15/07 Q1006 NOSIG
12-04-22 METAR LIMC 221020Z 28005KT 260V320 9999 VCTS FEW025CB BKN030 16/04 Q1007 NOSIG
12-04-22 METAR LIMC 221120Z 20007KT 9999 SCT030CB SCT035TCU 15/03 Q1007 WS ALL RWY
12-04-22 METAR LIMC 221220Z VRB02KT 9999 SCT020 SCT060 17/00 Q1006 NOSIG
12-04-22 METAR LIMC 221320Z 24003KT 200V290 9999 SCT020 18/M03 Q1006 NOSIG
12-04-22 METAR LIMC 221420Z 23004KT 160V290 9999 SCT020 19/M01 Q1006 NOSIG
12-04-22 METAR LIMC 221520Z VRB02KT 9999 FEW025 19/M03 Q1006 NOSIG
12-04-22 METAR LIMC 221620Z VRB02KT 9999 FEW025 19/M06 Q1006 NOSIG
12-04-22 METAR LIMC 221720Z VRB02KT 9999 FEW025 17/M01 Q1006 NOSIG
12-04-22 METAR LIMC 221820Z VRB02KT 9999 FEW090 16/M01 Q1007 NOSIG
12-04-22 METAR LIMC 221920Z VRB02KT 9999 SCT040TCU SCT080 14/06 Q1008 NOSIG
12-04-22 METAR LIMC 222020Z VRB02KT 9999 SCT060 13/06 Q1009 NOSIG
12-04-22 METAR LIMC 222120Z 05004KT 350V080 9999 BKN060 13/03 Q1009 NOSIG
12-04-22 METAR LIMC 222220Z 07003KT 9999 FEW035 BKN080 12/06 Q1009 NOSIG
12-04-22 METAR LIMC 222320Z 12003KT 090V150 9999 SCT040 BKN090 12/06 Q1009 NOSIG
12-04-23 METAR LIMC 230020Z VRB02KT 9999 SCT060 11/06 Q1009 NOSIG
12-04-23 METAR LIMC 230120Z 06002KT 9999 SCT040 10/05 Q1009 NOSIG
12-04-23 METAR LIMC 230220Z 00000KT 9999 -RA BKN040 09/07 Q1009 NOSIG
12-04-23 METAR LIMC 230320Z 12004KT 100V170 9999 RA BKN025 09/07 Q1010 NOSIG
12-04-23 METAR LIMC 230420Z 04005KT 360V080 9999 RA BKN025 08/07 Q1009 NOSIG
12-04-23 METAR LIMC 230520Z 34004KT 9999 3000N RA OVC025 08/07 Q1009 NOSIG
12-04-23 METAR LIMC 230620Z 36006KT 9999 3000NE RA OVC025 08/06 Q1009 NOSIG
12-04-23 METAR LIMC 230720Z 02004KT 340V040 9999 SCT025 BKN060 09/06 Q1009 RERA NOSIG
12-04-23 METAR LIMC 230820Z 35003KT 310V050 9999 SCT030 BKN060 09/07 Q1010 NOSIG
12-04-23 METAR LIMC 230920Z 01004KT 340V050 9999 BKN050 09/06 Q1009 NOSIG
12-04-23 METAR LIMC 231020Z 36003KT 330V030 9999 BKN030 BKN060 10/06 Q1009 NOSIG
12-04-23 METAR LIMC 231120Z 01004KT 320V050 9999 BKN030 12/06 Q1009 NOSIG
12-04-23 METAR LIMC 231220Z 02003KT 330V060 9999 SCT030 13/07 Q1008 NOSIG
12-04-23 METAR LIMC 231320Z VRB02KT 9999 SCT020 SCT040 14/08 Q1007 NOSIG
12-04-23 METAR LIMC 231420Z VRB02KT 9999 SCT020 BKN040 15/06 Q1006 NOSIG
12-04-23 METAR LIMC 231520Z 10005KT 070V160 9999 SCT020 BKN040 13/07 Q1006 NOSIG
12-04-23 METAR LIMC 231620Z 06003KT 9999 -RA SCT030 BKN050 12/08 Q1006 NOSIG
12-04-23 METAR LIMC 231720Z 06004KT 030V100 9999 SCT030 BKN050 12/08 Q1005 NOSIG
12-04-23 METAR LIMC 231820Z VRB01KT 2500 TSRA SCT010CB OVC025 10/09 Q1006 NOSIG
12-04-23 METAR LIMC 231920Z 02004KT 340V050 5000 RA SCT010 OVC035 10/09 Q1005 NOSIG
12-04-23 METAR LIMC 232020Z 01003KT 320V060 5000 +RA FEW008 SCT010 OVC035 10/09 Q1005 NOSIG
12-04-23 METAR LIMC 232120Z VRB02KT 9999 SCT010 OVC035 10/09 Q1005 NOSIG
12-04-23 METAR LIMC 232220Z 05003KT 9999 SCT010 OVC035 10/08 Q1004 NOSIG
12-04-23 METAR LIMC 232320Z 09003KT 060V120 9999 -RA SCT010 OVC035 10/08 Q1003
12-04-24 METAR LIMC 240020Z 10003KT 070V130 9999 SCT010 OVC035 10/08 Q1002 NOSIG
12-04-24 METAR LIMC 240120Z NIL
12-04-24 METAR LIMC 240220Z 10004KT 060V130 8000 RA FEW006 SCT012 OVC035 09/08 Q1000 NOSIG
12-04-24 METAR LIMC 240320Z 11004KT 040V150 6000 RA FEW006 SCT012 OVC035 09/08 Q0998
12-04-24 METAR LIMC 240420Z 08005KT 040V110 4000 RA FEW006 SCT012 OVC035 09/08 Q0997
12-04-24 METAR LIMC 240520Z 10004KT 070V130 3000 RA BR FEW006 SCT012 OVC035 09/08 Q0997 NOSIG
12-04-24 METAR LIMC 240620Z 32006KT 2500 RA BR FEW006 SCT012 OVC035 06/05 Q0998
12-04-24 METAR LIMC 240720Z 36004KT 330V030 9999 -RA SCT015 BKN030 07/05 Q0998 RERA
12-04-24 METAR LIMC 240820Z 35005KT 320V040 9999 SCT030 BKN050 09/06 Q0999 NOSIG
12-04-24 METAR LIMC 240920Z 03006KT CAVOK 11/06 Q0999 NOSIG
12-04-24 METAR LIMC 241020Z VRB02KT CAVOK 12/06 Q1000 NOSIG
12-04-24 METAR LIMC 241120Z VRB01KT 9999 SCT030 14/05 Q1000 NOSIG
12-04-24 METAR LIMC 241220Z 10002KT 9999 SCT030 15/06 Q1000 NOSIG
12-04-24 METAR LIMC 241320Z 00000KT 9999 SCT030 16/04 Q1000 NOSIG
12-04-24 METAR LIMC 241420Z VRB01KT 9999 FEW030 17/04 Q1000 NOSIG
12-04-24 METAR LIMC 241520Z 00000KT 9999 SCT030TCU 17/04 Q1000 NOSIG
12-04-24 METAR LIMC 241620Z 25003KT 220V280 9999 VCSH BKN030TCU 16/04 Q1000 BEGMG TS
12-04-24 METAR LIMC 241720Z 32003KT 260V040 9999 4000SE VCTS -RA FEW020CB BKN030TCU 13/08 Q1002 NOSIG
12-04-24 METAR LIMC 241820Z 14004KT 110V170 7000 -RA VCTS FEW020CB BKN040TCU 12/09 Q1003 RESHRA NOSIG
12-04-24 METAR LIMC 241920Z VRB02KT 9999 FEW020 BKN040 10/07 Q1004 NOSIG
12-04-24 METAR LIMC 242020Z VRB02KT 9999 SCT070 10/07 Q1005 NOSIG
12-04-24 METAR LIMC 242120Z 00000KT 9999 SCT070 08/07 Q1006 NOSIG
12-04-24 METAR LIMC 242220Z VRB02KT 9999 SCT070 08/06 Q1006 NOSIG
12-04-24 METAR LIMC 242320Z 00000KT 9999 R35R/1200V1500N SCT070 06/05 Q1007 NOSIG
12-04-25 METAR LIMC 250020Z VRB02KT CAVOK 05/05 Q1007 NOSIG
12-04-25 METAR LIMC 250120Z 00000KT CAVOK 04/04 Q1007 NOSIG
12-04-25 METAR LIMC 250220Z 00000KT CAVOK 04/04 Q1007 NOSIG
12-04-25 METAR LIMC 250320Z VRB01KT CAVOK 04/04 Q1007 NOSIG
12-04-25 METAR LIMC 250420Z VRB02KT CAVOK 04/04 Q1008 NOSIG
12-04-25 METAR LIMC 250520Z VRB02KT 9999 MIFG NSC 06/06 Q1009 NOSIG
12-04-25 METAR LIMC 250620Z VRB01KT CAVOK 10/06 Q1009 NOSIG
12-04-25 METAR LIMC 250720Z 00000KT CAVOK 12/07 Q1010 NOSIG
12-04-25 METAR LIMC 250820Z VRB01KT CAVOK 14/07 Q1011 NOSIG
12-04-25 METAR LIMC 250920Z VRB01KT 9999 FEW025 15/05 Q1011 NOSIG
12-04-25 METAR LIMC 251020Z VRB02KT 9999 FEW025 16/07 Q1012 NOSIG
12-04-25 METAR LIMC 251120Z VRB02KT 9999 BKN025 16/07 Q1012 NOSIG
12-04-25 METAR LIMC 251220Z VRB03KT 9999 BKN030 17/07 Q1012 NOSIG
12-04-25 METAR LIMC 251320Z 14004KT 100V170 9999 BKN030 15/08 Q1012 NOSIG
12-04-25 METAR LIMC 251420Z VRB01KT 9999 SCT030 BKN070 16/07 Q1012 RERA NOSIG
12-04-25 METAR LIMC 251520Z 15005KT 100V190 9999 SCT035 17/07 Q1012 NOSIG
12-04-25 METAR LIMC 251620Z 16005KT 9999 FEW035 SCT070 16/06 Q1012 NOSIG
12-04-25 METAR LIMC 251720Z 16003KT 9999 SCT060 BKN080 14/05 Q1013 NOSIG
12-04-25 METAR LIMC 251820Z 17002KT 9999 BKN060 14/05 Q1014 NOSIG
12-04-25 METAR LIMC 251920Z VRB02KT 9999 BKN060 13/05 Q1014 NOSIG
12-04-25 METAR LIMC 252020Z 15004KT 9999 BKN060 13/06 Q1015 NOSIG
12-04-25 METAR LIMC 252120Z VRB02KT 9999 BKN060 12/06 Q1015 NOSIG
12-04-25 METAR LIMC 252220Z 00000KT 9999 BKN060 12/07 Q1016 NOSIG
12-04-25 METAR LIMC 252320Z VRB02KT 9999 BKN060 12/06 Q1016 NOSIG
12-04-26 METAR LIMC 260020Z VRB02KT 9999 BKN060 12/06 Q1016 NOSIG
12-04-26 METAR LIMC 260120Z 00000KT 9999 BKN060 12/06 Q1016 NOSIG
12-04-26 METAR LIMC 260220Z 00000KT 9999 BKN060 11/07 Q1016 NOSIG
12-04-26 METAR LIMC 260320Z VRB02KT 9999 BKN060 12/05 Q1017 NOSIG
12-04-26 METAR LIMC 260420Z 27003KT 9999 BKN060 12/06 Q1017 NOSIG
12-04-26 METAR LIMC 260520Z 28002KT 9999 BKN060 11/07 Q1018 NOSIG
12-04-26 METAR LIMC 260620Z 31003KT 9999 BKN060 13/07 Q1018 NOSIG
12-04-26 METAR LIMC 260720Z 29003KT 260V330 9999 SCT060 14/07 Q1019 NOSIG
12-04-26 METAR LIMC 260820Z VRB02KT 9999 FEW030 SCT060 15/06 Q1019 NOSIG
12-04-26 METAR LIMC 260920Z VRB02KT 9999 FEW030 SCT060 15/07 Q1020 NOSIG
12-04-26 METAR LIMC 261020Z 30002KT 9999 SCT035 SCT060 15/07 Q1020 NOSIG
12-04-26 METAR LIMC 261120Z 24003KT 210V290 9999 SCT030 SCT060 15/07 Q1020 NOSIG
12-04-26 METAR LIMC 261220Z 23003KT 200V270 9999 FEW030 BKN060 15/08 Q1020 NOSIG
12-04-26 METAR LIMC 261320Z VRB02KT 9999 FEW030 BKN050 15/08 Q1020 NOSIG
12-04-26 METAR LIMC 261420Z VRB01KT 9999 FEW030 BKN060 16/07 Q1020 NOSIG
12-04-26 METAR LIMC 261520Z VRB01KT 9999 FEW030 SCT060 16/07 Q1020 NOSIG
12-04-26 METAR LIMC 261620Z 00000KT 9999 BKN060 16/08 Q1020 NOSIG
12-04-26 METAR LIMC 261720Z 20002KT 9999 BKN060 15/08 Q1020 NOSIG
12-04-26 METAR LIMC 261820Z 00000KT 9999 SCT050 14/08 Q1020 NOSIG
12-04-26 METAR LIMC 261920Z 35002KT 9999 SCT060 13/08 Q1021 NOSIG
12-04-26 METAR LIMC 262020Z 00000KT 9999 SCT060 12/09 Q1022 NOSIG
12-04-26 METAR LIMC 262120Z 34003KT 9999 SCT060 11/07 Q1022 NOSIG
12-04-26 METAR LIMC 262220Z 33003KT 9999 BKN065 11/08 Q1022 NOSIG
12-04-26 METAR LIMC 262320Z 33003KT 9999 BKN060 12/08 Q1022 NOSIG
12-04-27 METAR LIMC 270020Z 35003KT 9999 BKN060 12/08 Q1021 NOSIG
12-04-27 METAR LIMC 270120Z 34003KT 9999 BKN060 12/08 Q1021 NOSIG
12-04-27 METAR LIMC 270220Z 35003KT 9999 BKN060 11/08 Q1021 NOSIG
12-04-27 METAR LIMC 270320Z 34003KT 9999 SCT060 11/08 Q1021 NOSIG
12-04-27 METAR LIMC 270420Z 35003KT 9999 SCT065 10/07 Q1021 NOSIG
12-04-27 METAR LIMC 270520Z VRB01KT 9999 SCT060 12/07 Q1021 NOSIG
12-04-27 METAR LIMC 270620Z VRB02KT 9999 FEW060 14/08 Q1022 NOSIG
12-04-27 METAR LIMC 270720Z VRB02KT CAVOK 17/08 Q1022 NOSIG
12-04-27 METAR LIMC 270820Z 26003KT 230V310 CAVOK 18/09 Q1022 NOSIG
12-04-27 METAR LIMC 270920Z VRB02KT CAVOK 19/08 Q1022 NOSIG
12-04-27 METAR LIMC 271020Z 24003KT 180V270 CAVOK 20/09 Q1022 NOSIG
12-04-27 METAR LIMC 271120Z VRB02KT CAVOK 21/07 Q1021 NOSIG
12-04-27 METAR LIMC 271220Z VRB02KT CAVOK 22/09 Q1020 NOSIG
12-04-27 METAR LIMC 271320Z VRB02KT CAVOK 22/08 Q1020 NOSIG
12-04-27 METAR LIMC 271420Z 23003KT 160V280 CAVOK 23/09 Q1020 NOSIG
12-04-27 METAR LIMC 271520Z 22003KT 140V260 CAVOK 22/09 Q1019 NOSIG
12-04-27 METAR LIMC 271620Z 22003KT 9999 FEW090 21/09 Q1019 NOSIG
12-04-27 METAR LIMC 271720Z 21002KT 9999 FEW090 20/09 Q1019 NOSIG
12-04-27 METAR LIMC 271820Z VRB01KT 9999 SCT090 18/10 Q1019 NOSIG
12-04-27 METAR LIMC 271920Z 00000KT 9999 FEW090 16/11 Q1020 NOSIG
12-04-27 METAR LIMC 272020Z 35001KT 9999 FEW090 15/10 Q1020 NOSIG
12-04-27 METAR LIMC 272120Z 00000KT 9999 FEW090 14/10 Q1020 NOSIG
12-04-27 METAR LIMC 272220Z 00000KT 9999 FEW090 12/10 Q1020 NOSIG
12-04-27 METAR LIMC 272320Z 00000KT 9999 FEW090 11/10 Q1020 NOSIG
12-04-28 METAR LIMC 280020Z 35003KT 9999 FEW090 10/09 Q1020 NOSIG
12-04-28 METAR LIMC 280120Z 34001KT 9999 FEW090 10/09 Q1020 NOSIG
12-04-28 METAR LIMC 280220Z 00000KT 9999 FEW090 10/09 Q1020 NOSIG
12-04-28 METAR LIMC 280320Z 35002KT 9999 FEW090 10/08 Q1020 NOSIG
12-04-28 METAR LIMC 280420Z 36001KT CAVOK 10/08 Q1020 NOSIG
12-04-28 METAR LIMC 280520Z VRB01KT CAVOK 13/09 Q1020 NOSIG
12-04-28 METAR LIMC 280620Z VRB01KT CAVOK 16/10 Q1020 NOSIG
12-04-28 METAR LIMC 280720Z VRB01KT CAVOK 19/11 Q1020 NOSIG
12-04-28 METAR LIMC 280820Z 00000KT CAVOK 20/11 Q1020 NOSIG
12-04-28 METAR LIMC 280920Z VRB01KT CAVOK 23/11 Q1020 NOSIG
12-04-28 METAR LIMC 281020Z VRB02KT CAVOK 23/11 Q1019 NOSIG
12-04-28 METAR LIMC 281120Z 12003KT 030V190 CAVOK 25/10 Q1018 NOSIG
12-04-28 METAR LIMC 281220Z VRB03KT CAVOK 25/11 Q1018 NOSIG
12-04-28 METAR LIMC 281320Z 12003KT 030V190 CAVOK 25/11 Q1017 NOSIG
12-04-28 METAR LIMC 281420Z 14004KT 100V170 9999 SCT080 25/10 Q1017 NOSIG
12-04-28 METAR LIMC 281520Z VRB02KT 9999 FEW080 25/11 Q1016 NOSIG
12-04-28 METAR LIMC 281620Z 12004KT 080V150 9999 FEW090 24/11 Q1016 NOSIG
12-04-28 METAR LIMC 281720Z VRB02KT 9999 FEW090 24/11 Q1016 NOSIG
12-04-28 METAR LIMC 281820Z VRB01KT 9999 SCT080 21/14 Q1016 NOSIG
12-04-28 METAR LIMC 281920Z VRB02KT 9999 BKN090 20/11 Q1016 NOSIG
12-04-28 METAR LIMC 282020Z VRB01KT 9999 BKN090 18/13 Q1017 NOSIG
12-04-28 METAR LIMC 282120Z VRB02KT 9999 BKN090 18/13 Q1016 NOSIG
12-04-28 METAR LIMC 282220Z 03003KT 9999 BKN090 19/12 Q1016 NOSIG
12-04-28 METAR LIMC 282320Z 03003KT 9999 BKN090 19/12 Q1016 NOSIG
12-04-29 METAR LIMC 290020Z 03003KT 9999 BKN090 18/11 Q1016 NOSIG
12-04-29 METAR LIMC 290120Z 04002KT 9999 BKN090 18/10 Q1015 NOSIG
12-04-29 METAR LIMC 290220Z VRB02KT 9999 BKN090 18/10 Q1015 NOSIG
12-04-29 METAR LIMC 290320Z 06003KT 030V100 9999 BKN090 17/09 Q1014 NOSIG
12-04-29 METAR LIMC 290420Z VRB02KT 9999 SCT040 BKN060 17/09 Q1014 NOSIG
12-04-29 METAR LIMC 290520Z VRB01KT 9999 SCT035 BKN060 16/10 Q1016 NOSIG
12-04-29 METAR LIMC 290620Z VRB01KT 9999 -RA SCT025 BKN060 15/11 Q1016 NOSIG
12-04-29 METAR LIMC 290720Z VRB02KT 6000 -RA SCT020 BKN060 14/12 Q1017 RERA NOSIG
12-04-29 METAR LIMC 290820Z 35003KT 5000 RA SCT020 BKN060 14/13 Q1017 NOSIG
12-04-29 METAR LIMC 290920Z 04003KT 320V100 7000 SCT025 BKN060 15/13 Q1017 NOSIG
12-04-29 METAR LIMC 291020Z VRB02KT 8000 SCT025 OVC070 15/13 Q1018 NOSIG
12-04-29 METAR LIMC 291120Z 06003KT 030V100 8000 SCT025 OVC070 16/13 Q1018 NOSIG
12-04-29 METAR LIMC 291220Z VRB02KT 9999 SCT040 BKN070 19/12 Q1018 NOSIG
12-04-29 METAR LIMC 291320Z 14004KT 090V170 9999 SCT030 BKN050 19/13 Q1018 NOSIG
12-04-29 METAR LIMC 291420Z VRB02KT 9999 SCT030 BKN050 19/13 Q1017 NOSIG
12-04-29 METAR LIMC 291520Z VRB02KT 9999 SCT030 BKN050 19/12 Q1017 NOSIG
12-04-29 METAR LIMC 291620Z 25003KT 200V290 9999 SCT040 20/12 Q1017 NOSIG
12-04-29 METAR LIMC 291720Z VRB02KT 9999 SCT020 SCT040 19/12 Q1017 NOSIG
12-04-29 METAR LIMC 291820Z 35003KT 9999 SCT020TCU BKN040 17/13 Q1017 NOSIG
12-04-29 METAR LIMC 291920Z VRB01KT 9999 SCT020TCU BKN040 16/13 Q1018 NOSIG
12-04-29 METAR LIMC 292020Z 32002KT 9999 SCT030 15/12 Q1018 NOSIG
12-04-29 METAR LIMC 292120Z 00000KT 9999 FEW040 13/11 Q1018 NOSIG
12-04-29 METAR LIMC 292220Z 31004KT 9999 SCT035 14/12 Q1018 NOSIG
12-04-29 METAR LIMC 292320Z 33003KT 9999 SCT035 14/12 Q1018 NOSIG
12-04-30 METAR LIMC 300020Z 36002KT 9999 FEW040 14/12 Q1018 NOSIG
12-04-30 METAR LIMC 300120Z 36003KT 9999 FEW040 14/11 Q1017 NOSIG
12-04-30 METAR LIMC 300220Z 35002KT 9999 FEW040 12/11 Q1017 NOSIG
12-04-30 METAR LIMC 300320Z 35003KT CAVOK 12/11 Q1017 NOSIG
12-04-30 METAR LIMC 300420Z 34002KT CAVOK 10/10 Q1017 NOSIG
12-04-30 METAR LIMC 300520Z 33002KT CAVOK 13/11 Q1017 NOSIG
12-04-30 METAR LIMC 300620Z VRB02KT 9999 FEW060 15/11 Q1017 NOSIG
12-04-30 METAR LIMC 300720Z VRB02KT 9999 SCT070 17/11 Q1017 NOSIG
12-04-30 METAR LIMC 300820Z 34003KT 9999 SCT030 BKN060 17/12 Q1017 NOSIG
12-04-30 METAR LIMC 300920Z 01003KT 340V050 9999 SCT030 BKN060 18/12 Q1016 NOSIG
12-04-30 METAR LIMC 301020Z VRB02KT 9999 -RA SCT030 BKN060 18/12 Q1016 NOSIG
12-04-30 METAR LIMC 301120Z 16003KT 4000 RA SCT030 OVC050 15/14 Q1017 NOSIG
12-04-30 METAR LIMC 301220Z 00000KT 4000 RA SCT003 OVC030 15/14 Q1017 NOSIG
12-04-30 METAR LIMC 301320Z VRB01KT 6000 -RA SCT008 OVC040 15/13 Q1017 RERA NOSIG
12-04-30 METAR LIMC 301420Z VRB01KT 6000 -RA SCT008 OVC040 15/14 Q1017 NOSIG
12-04-30 METAR LIMC 301520Z VRB02KT 6000 -RA SCT008 OVC040 15/14 Q1016 NOSIG
12-04-30 METAR LIMC 301620Z VRB02KT 6000 -RA SCT008 OVC040 15/14 Q1016 NOSIG
12-04-30 METAR LIMC 301720Z 36003KT 9000 -RA SCT008 OVC025 15/14 Q1016 NOSIG
12-04-30 METAR LIMC 301820Z 36003KT 7000 -RA SCT020 OVC050 14/13 Q1016 NOSIG
12-04-30 METAR LIMC 301920Z 33003KT 300V010 5000 RA BR SCT020 OVC050 13/12 Q1016 NOSIG
12-04-30 METAR LIMC 302020Z 01003KT 9999 -RA SCT030 OVC060 13/12 Q1016 RERA NOSIG
12-05-01 METAR LIMC 010020Z 00000KT 9999 SCT015 BKN040 14/13 Q1016 NOSIG
12-05-01 METAR LIMC 010320Z 00000KT 1600 -RA BR SCT010CB BKN030 14/14 Q1016 RERA
12-05-01 METAR LIMC 010520Z 21002KT 1500 RA BR SCT006 OVC030 14/13 Q1017 NOSIG
12-05-01 METAR LIMC 010620Z 25001KT 2000 RA BR SCT006 OVC030 14/13 Q1017 NOSIG
12-05-01 METAR LIMC 010720Z 33003KT 2000 -RA BR SCT010 OVC030 14/13 Q1017 RERA
12-05-01 METAR LIMC 010820Z 36003KT 7000 -RA SCT015 OVC050 14/13 Q1018 NOSIG
12-05-01 METAR LIMC 010920Z 33003KT 9999 -RA BKN015 OVC050 14/12 Q1018 NOSIG
12-05-01 METAR LIMC 011020Z 33005KT 9999 -RA BKN020 OVC060 13/13 Q1018 NOSIG
12-05-01 METAR LIMC 011120Z 35005KT 9999 SCT030 OVC050 13/12 Q1018 NOSIG
12-05-01 METAR LIMC 011220Z 34006KT 9999 BKN050 OVC080 15/12 Q1017 NOSIG
12-05-01 METAR LIMC 011320Z 33006KT 9999 BKN050 OVC080 15/12 Q1016 NOSIG
12-05-01 METAR LIMC 011420Z 34006KT 9999 BKN050 OVC080 15/11 Q1016 NOSIG
12-05-01 METAR LIMC 011520Z 33004KT 9999 BKN040 BKN080 15/11 Q1015 NOSIG
12-05-01 METAR LIMC 011620Z 03002KT 9999 -RA BKN030 OVC080 14/12 Q1015 NOSIG
12-05-01 METAR LIMC 011720Z 36003KT 330V030 9999 RA BKN030 OVC080 14/12 Q1015 NOSIG
12-05-01 METAR LIMC 011820Z 36004KT 3000 RA BR BKN010 OVC050 13/12 Q1016 NOSIG
12-05-01 METAR LIMC 011920Z 34006KT 5000 RA BR BKN010 OVC050 13/12 Q1015 NOSIG
12-05-01 METAR LIMC 012020Z 02005KT 5000 +RA BR BKN010 OVC030 13/12 Q1015 NOSIG
12-05-01 METAR LIMC 012120Z 04003KT 320V100 9999 -RA BKN010 OVC030 14/12 Q1016 RERA
12-05-01 METAR LIMC 012220Z 34002KT 9999 BKN010 OVC030 13/12 Q1017 NOSIG
12-05-01 METAR LIMC 012320Z 34003KT 9999 BKN010 OVC030 12/12 Q1016 NOSIG
12-05-02 METAR LIMC 020020Z 02001KT 9999 BKN010 BKN030 12/11 Q1016 NOSIG
12-05-02 METAR LIMC 020120Z 03002KT 9999 BKN010 12/11 Q1016 NOSIG
12-05-02 METAR LIMC 020220Z 03002KT 9999 BKN010 12/12 Q1016 NOSIG
12-05-02 METAR LIMC 020320Z 06002KT 9999 SCT010 12/11 Q1017 NOSIG
12-05-02 METAR LIMC 020420Z VRB02KT 3500 BR BKN050 12/11 Q1017 NOSIG
12-05-02 METAR LIMC 020520Z 00000KT 6000 FEW010 SCT025 BKN040 12/11 Q1017 NOSIG
12-05-02 METAR LIMC 020620Z VRB01KT 9999 FEW010 SCT030 BKN060 12/11 Q1017 NOSIG
12-05-02 METAR LIMC 020720Z VRB01KT 9999 FEW007 SCT025 BKN050 13/12 Q1018 NOSIG
12-05-02 METAR LIMC 020820Z VRB01KT 9999 SCT020 BKN050 14/11 Q1018 NOSIG
12-05-02 METAR LIMC 020920Z VRB01KT 9999 SCT015 BKN050 15/11 Q1018 NOSIG
12-05-02 METAR LIMC 021020Z VRB02KT 9999 BKN020 BKN050 15/11 Q1018 NOSIG
12-05-02 METAR LIMC 021120Z 00000KT 9999 SCT020 BKN060 16/11 Q1017 NOSIG
12-05-02 METAR LIMC 021220Z VRB02KT 9999 SCT020 BKN050 17/11 Q1017 NOSIG
12-05-02 METAR LIMC 021320Z 23003KT 150V270 9999 SCT020 SCT060 18/11 Q1017 NOSIG
12-05-02 METAR LIMC 021420Z VRB02KT 9999 SCT020 19/10 Q1016 NOSIG
12-05-02 METAR LIMC 021520Z 19003KT 140V230 9999 SCT020 18/11 Q1016 NOSIG
12-05-02 METAR LIMC 021620Z VRB02KT 9999 SCT020 18/10 Q1015 NOSIG
12-05-02 METAR LIMC 021720Z 23003KT CAVOK 17/10 Q1015 NOSIG
12-05-02 METAR LIMC 021820Z 20002KT CAVOK 15/10 Q1015 NOSIG
12-05-02 METAR LIMC 021920Z 18002KT CAVOK 14/11 Q1015 NOSIG
12-05-02 METAR LIMC 022020Z 00000KT CAVOK 13/10 Q1015 NOSIG
12-05-02 METAR LIMC 022120Z 00000KT CAVOK 12/11 Q1014 NOSIG
12-05-02 METAR LIMC 022220Z 00000KT CAVOK 10/09 Q1014 NOSIG
12-05-02 METAR LIMC 022320Z 00000KT CAVOK 09/08 Q1014 NOSIG
12-05-03 METAR LIMC 030020Z VRB01KT CAVOK 08/07 Q1013 NOSIG
12-05-03 METAR LIMC 030120Z 00000KT CAVOK 07/07 Q1013 NOSIG
12-05-03 METAR LIMC 030220Z 00000KT CAVOK 07/07 Q1013 NOSIG
12-05-03 METAR LIMC 030320Z VRB02KT CAVOK 07/07 Q1013 NOSIG
12-05-03 METAR LIMC 030420Z 35002KT 9000 MIFG NSC 07/07 Q1013 NOSIG
12-05-03 METAR LIMC 030520Z 00000KT 9999 MIFG NSC 09/08 Q1013 NOSIG
12-05-03 METAR LIMC 030620Z 32002KT CAVOK 12/10 Q1013 NOSIG
12-05-03 METAR LIMC 030720Z 00000KT CAVOK 15/10 Q1012 NOSIG
12-05-03 METAR LIMC 030720Z NIL
12-05-03 METAR LIMC 030820Z VRB01KT CAVOK 17/11 Q1012 NOSIG
12-05-03 METAR LIMC 030920Z VRB02KT CAVOK 17/11 Q1012 NOSIG
12-05-03 METAR LIMC 031020Z VRB02KT CAVOK 18/11 Q1011 NOSIG
12-05-03 METAR LIMC 031120Z 19004KT 140V270 CAVOK 19/11 Q1011 NOSIG
12-05-03 METAR LIMC 031220Z 20004KT 160V270 CAVOK 20/12 Q1010 NOSIG
12-05-03 METAR LIMC 031320Z 22004KT 190V250 CAVOK 21/11 Q1010 NOSIG
12-05-03 METAR LIMC 031420Z 21003KT 160V250 CAVOK 21/10 Q1009 NOSIG
12-05-03 METAR LIMC 031520Z 23003KT 190V260 CAVOK 22/07 Q1009 NOSIG
12-05-03 METAR LIMC 031620Z 24003KT 210V270 CAVOK 22/09 Q1008 NOSIG
12-05-03 METAR LIMC 031720Z 20003KT 170V230 CAVOK 21/11 Q1008 NOSIG
12-05-03 METAR LIMC 031820Z 18004KT 160V220 CAVOK 18/12 Q1009 NOSIG
12-05-03 METAR LIMC 031920Z 18003KT 150V210 CAVOK 16/11 Q1009 NOSIG
12-05-03 METAR LIMC 032020Z VRB01KT CAVOK 14/10 Q1010 NOSIG
12-05-03 METAR LIMC 032120Z 18002KT CAVOK 13/09 Q1010 NOSIG
12-05-03 METAR LIMC 032220Z VRB01KT CAVOK 12/09 Q1010 NOSIG
12-05-03 METAR LIMC 032320Z 00000KT CAVOK 10/09 Q1010 NOSIG
12-05-04 METAR LIMC 040020Z 00000KT CAVOK 09/08 Q1009 NOSIG
12-05-04 METAR LIMC 040120Z 00000KT CAVOK 08/07 Q1009 NOSIG
12-05-04 METAR LIMC 040220Z 00000KT CAVOK 08/07 Q1009 NOSIG
12-05-04 METAR LIMC 040320Z 02001KT CAVOK 08/07 Q1009 NOSIG
12-05-04 METAR LIMC 040420Z 00000KT 9999 MIFG NSC 06/06 Q1009 NOSIG
12-05-04 METAR LIMC 040520Z 00000KT 9999 MIFG NSC 10/09 Q1009 NOSIG
12-05-04 METAR LIMC 040620Z 00000KT CAVOK 14/11 Q1010 NOSIG
12-05-04 METAR LIMC 040720Z VRB01KT CAVOK 15/11 Q1010 NOSIG
12-05-04 METAR LIMC 040820Z 23003KT 200V260 9999 FEW015 15/11 Q1010 NOSIG
12-05-04 METAR LIMC 040920Z 21003KT 9999 FEW015 17/12 Q1009 NOSIG
12-05-04 METAR LIMC 041020Z 22003KT 190V250 9999 SCT015 18/12 Q1009 NOSIG
12-05-04 METAR LIMC 041120Z 20004KT 160V260 9999 SCT030 18/11 Q1009 NOSIG
12-05-04 METAR LIMC 041220Z 17004KT 130V200 9999 BKN030 19/12 Q1009 NOSIG
12-05-04 METAR LIMC 041320Z 18005KT 150V210 9999 SCT030 20/12 Q1008 NOSIG
12-05-04 METAR LIMC 041420Z 19005KT 140V230 9999 SCT030 20/11 Q1008 NOSIG
12-05-04 METAR LIMC 041520Z 14004KT 120V210 9999 FEW030 19/11 Q1007 NOSIG
12-05-04 METAR LIMC 041620Z 16005KT 9999 FEW030 19/10 Q1007 NOSIG
12-05-04 METAR LIMC 041720Z 18004KT 9999 FEW070 17/11 Q1008 NOSIG
12-05-04 METAR LIMC 041820Z 17002KT 9999 BKN050 16/11 Q1008 NOSIG
12-05-04 METAR LIMC 041920Z 19004KT 9999 SCT050 BKN080 15/11 Q1009 NOSIG
12-05-04 METAR LIMC 042020Z 19002KT 9999 FEW032 BKN060 14/11 Q1009 NOSIG
12-05-04 METAR LIMC 042120Z 14002KT 9999 BKN035 BKN060 14/11 Q1009 NOSIG
12-05-04 METAR LIMC 042220Z 17002KT 9999 BKN035 BKN060 14/11 Q1009 NOSIG
12-05-04 METAR LIMC 042320Z VRB02KT 9999 BKN035 BKN060 14/10 Q1009 NOSIG
12-05-05 METAR LIMC 050020Z 09002KT 9999 BKN035 BKN060 14/10 Q1008 NOSIG
12-05-05 METAR LIMC 050120Z 11002KT 9999 BKN035 BKN060 14/10 Q1008 NOSIG
12-05-05 METAR LIMC 050220Z 12003KT 9999 BKN032 BKN060 13/10 Q1008 NOSIG
12-05-05 METAR LIMC 050420Z VRB02KT 9999 BKN032 BKN060 13/09 Q1008 NOSIG
12-05-05 METAR LIMC 050520Z VRB01KT 9999 BKN030 BKN060 13/10 Q1008 NOSIG
12-05-05 METAR LIMC 050620Z 11003KT 040V160 9999 BKN035 BKN060 14/10 Q1008 NOSIG
12-05-05 METAR LIMC 050720Z VRB02KT 9999 BKN030 BKN060 14/10 Q1008 NOSIG
12-05-05 METAR LIMC 050820Z 09003KT 060V170 9999 BKN030 BKN060 15/10 Q1009 NOSIG
12-05-05 METAR LIMC 050920Z 10004KT 060V160 9999 SCT030 SCT060 16/10 Q1009 NOSIG
12-05-05 METAR LIMC 051020Z 11003KT 050V150 9999 SCT030 SCT060 18/12 Q1009 NOSIG
12-05-05 METAR LIMC 051120Z VRB02KT 9999 FEW030TCU BKN050 17/11 Q1008 NOSIG
12-05-05 METAR LIMC 051220Z VRB02KT 9999 FEW030TCU BKN050 18/11 Q1008 NOSIG
12-05-05 METAR LIMC 051320Z VRB02KT 9999 FEW030TCU BKN050 19/11 Q1008 NOSIG
12-05-05 METAR LIMC 051420Z 06004KT 360V100 9999 FEW030TCU SCT050 18/11 Q1007 NOSIG
12-05-05 METAR LIMC 051520Z 14003KT 060V220 9999 RA VCTS FEW020CB BKN040 15/10 Q1008 BECMG TS
12-05-05 METAR LIMC 051620Z VRB02KT 7000 -TSRA FEW020CB SCT040 BKN060 14/12 Q1009 RERA NOSIG
12-05-05 METAR LIMC 051720Z 02005KT 340V040 9999 SCT040 BKN070 13/11 Q1009 RERA
12-05-05 METAR LIMC 051820Z 36003KT 9999 -RA SCT035 BKN070 13/11 Q1009 NOSIG
12-05-05 METAR LIMC 051920Z 36004KT 9999 SCT030 OVC070 12/11 Q1010 NOSIG
12-05-05 METAR LIMC 052020Z 01005KT 9999 SCT030 OVC070 12/11 Q1010 NOSIG
12-05-05 METAR LIMC 052120Z 36003KT 9999 SCT030 OVC070 12/10 Q1010 NOSIG
12-05-05 METAR LIMC 052220Z VRB02KT 9999 SCT030 OVC070 11/10 Q1010 NOSIG
12-05-05 METAR LIMC 052320Z NIL
12-05-06 METAR LIMC 060020Z 36003KT 9999 SCT030 OVC070 11/10 Q1010 NOSIG
12-05-06 METAR LIMC 060120Z 36003KT 330V070 9999 SCT030 OVC070 11/09 Q1010 NOSIG
12-05-06 METAR LIMC 060220Z 35003KT 9999 SCT030 OVC070 11/10 Q1009 NOSIG
12-05-06 METAR LIMC 060320Z 34003KT 300V360 9999 SCT030 OVC070 11/10 Q1009 NOSIG
12-05-06 METAR LIMC 060420Z VRB01KT 9999 SCT030 BKN070 11/10 Q1010 NOSIG
12-05-06 METAR LIMC 060520Z 36003KT 9999 BKN035 11/10 Q1010 NOSIG
12-05-06 METAR LIMC 060620Z 35004KT 9999 BKN030 12/10 Q1010 NOSIG
12-05-06 METAR LIMC 060720Z 33003KT 9999 BKN040 12/10 Q1011 NOSIG
12-05-06 METAR LIMC 060820Z VRB02KT 9999 BKN030 15/12 Q1011 NOSIG
12-05-06 METAR LIMC 060920Z 33003KT 290V010 9999 SCT030 SCT050 16/11 Q1011 NOSIG
12-05-06 METAR LIMC 061020Z VRB02KT 9999 FEW030TCU SCT050 17/11 Q1011 NOSIG
12-05-06 METAR LIMC 061120Z VRB01KT 9999 BKN020 18/09 Q1011 NOSIG
12-05-06 METAR LIMC 061120Z NIL
12-05-06 METAR LIMC 061220Z 15003KT 110V220 9999 SCT025 SCT090 18/09 Q1010 NOSIG
12-05-06 METAR LIMC 061320Z VRB02KT 9999 FEW025TCU SCT030 19/09 Q1010 NOSIG
12-05-06 METAR LIMC 061420Z 23003KT 200V280 9999 FEW025TCU SCT030 19/08 Q1010 NOSIG
12-05-06 METAR LIMC 061520Z 33006KT 9999 SCT035 BKN090 18/12 Q1010 NOSIG
12-05-06 METAR LIMC 061620Z 04005KT 320V070 9999 SCT035 18/09 Q1010 NOSIG
12-05-06 METAR LIMC 061720Z 08003KT 040V140 9999 FEW030CB BKN035 16/10 Q1010 NOSIG
12-05-06 METAR LIMC 061820Z VRB03KT 9999 FEW030CB BKN050 16/10 Q1011 NOSIG
12-05-06 METAR LIMC 061920Z 00000KT 9999 SCT050 14/10 Q1012 NOSIG
12-05-06 METAR LIMC 062020Z 00000KT CAVOK 12/10 Q1012 NOSIG
12-05-06 METAR LIMC 062120Z VRB02KT CAVOK 12/09 Q1013 NOSIG
12-05-06 METAR LIMC 062220Z 00000KT CAVOK 10/08 Q1013 NOSIG
12-05-06 METAR LIMC 062320Z 34002KT CAVOK 10/09 Q1013 NOSIG
12-05-07 METAR LIMC 070020Z 36002KT CAVOK 09/07 Q1013 NOSIG
12-05-07 METAR LIMC 070120Z 02001KT CAVOK 09/08 Q1013 NOSIG
12-05-07 METAR LIMC 070220Z VRB02KT CAVOK 08/07 Q1013 NOSIG
12-05-07 METAR LIMC 070320Z 00000KT CAVOK 07/07 Q1013 NOSIG
12-05-07 METAR LIMC 070420Z 34001KT 9999 MIFG NSC 06/06 Q1014 NOSIG
12-05-07 METAR LIMC 070520Z VRB02KT CAVOK 10/09 Q1014 NOSIG
12-05-07 METAR LIMC 070620Z 32002KT CAVOK 13/09 Q1014 NOSIG
12-05-07 METAR LIMC 070720Z VRB02KT CAVOK 15/09 Q1014 NOSIG
12-05-07 METAR LIMC 070820Z VRB02KT CAVOK 16/10 Q1015 NOSIG
12-05-07 METAR LIMC 070920Z VRB02KT CAVOK 18/10 Q1015 NOSIG
12-05-07 METAR LIMC 071020Z 25003KT 170V300 CAVOK 19/10 Q1015 NOSIG
12-05-07 METAR LIMC 071120Z VRB02KT CAVOK 20/10 Q1015 NOSIG
12-05-07 METAR LIMC 071220Z 19003KT 150V240 9999 FEW040 21/10 Q1015 NOSIG
12-05-07 METAR LIMC 071320Z 17004KT 070V210 9999 SCT030 21/09 Q1015 NOSIG
12-05-07 METAR LIMC 071420Z VRB03KT 9999 SCT030 22/08 Q1015 NOSIG
12-05-07 METAR LIMC 071520Z 17003KT 110V210 9999 FEW038TCU SCT040 22/05 Q1015 NOSIG
12-05-07 METAR LIMC 071620Z VRB02KT 9999 SCT040 22/03 Q1015 NOSIG
12-05-07 METAR LIMC 071720Z 03004KT 350V050 9999 SCT040 20/08 Q1015 NOSIG
12-05-07 METAR LIMC 071820Z 04003KT 9999 SCT040 18/08 Q1016 NOSIG
12-05-07 METAR LIMC 071920Z 04003KT 9999 FEW040 16/08 Q1016 NOSIG
12-05-07 METAR LIMC 072020Z VRB03KT CAVOK 16/09 Q1017 NOSIG
12-05-07 METAR LIMC 072120Z 07002KT CAVOK 13/09 Q1018 NOSIG
12-05-07 METAR LIMC 072220Z 07003KT CAVOK 14/09 Q1018 NOSIG
12-05-07 METAR LIMC 072320Z 07002KT CAVOK 13/09 Q1018 NOSIG
12-05-08 METAR LIMC 080020Z 10002KT CAVOK 14/10 Q1018 NOSIG
12-05-08 METAR LIMC 080120Z 09001KT 9999 SCT090 10/09 Q1018 NOSIG
12-05-08 METAR LIMC 080220Z 09002KT 9999 SCT090 12/10 Q1018 NOSIG
12-05-08 METAR LIMC 080320Z VRB01KT 9999 SCT090 11/10 Q1019 NOSIG
12-05-08 METAR LIMC 080420Z 00000KT 9999 BKN060 12/10 Q1019 NOSIG
12-05-08 METAR LIMC 080520Z 35002KT 9999 BKN040 13/11 Q1019 NOSIG
12-05-08 METAR LIMC 080620Z VRB02KT 9999 SCT050 15/12 Q1020 NOSIG
12-05-08 METAR LIMC 080720Z VRB01KT 9999 SCT035 16/11 Q1020 NOSIG
12-05-08 METAR LIMC 080820Z VRB01KT 9999 SCT035 17/11 Q1020 NOSIG
12-05-08 METAR LIMC 080920Z VRB01KT 9999 SCT035 19/11 Q1020 NOSIG
12-05-08 METAR LIMC 081020Z 00000KT 9999 SCT035 SCT060 19/09 Q1019 NOSIG
12-05-08 METAR LIMC 081120Z VRB02KT 9999 SCT035 SCT080 20/08 Q1019 NOSIG
12-05-08 METAR LIMC 081220Z 18003KT 9999 SCT030 BKN090 20/09 Q1019 NOSIG
12-05-08 METAR LIMC 081320Z VRB02KT 9999 SCT030 BKN090 20/11 Q1019 NOSIG
12-05-08 METAR LIMC 081420Z 33005KT 9999 -RA BKN030 OVC070 18/11 Q1019 NOSIG
12-05-08 METAR LIMC 081520Z 33005KT 9999 FEW030 OVC070 18/12 Q1018 NOSIG
12-05-08 METAR LIMC 081620Z 36004KT 9999 BKN080 18/11 Q1018 NOSIG
12-05-08 METAR LIMC 081720Z 35002KT 9999 BKN080 18/11 Q1018 NOSIG
12-05-08 METAR LIMC 081820Z 35002KT 9999 BKN080 17/11 Q1018 NOSIG
12-05-08 METAR LIMC 081920Z 34002KT 9999 BKN075 16/12 Q1018 NOSIG
12-05-08 METAR LIMC 082020Z VRB01KT 9999 BKN075 16/11 Q1019 NOSIG
12-05-08 METAR LIMC 082120Z 00000KT 9999 FEW035 BKN075 15/12 Q1019 NOSIG
12-05-08 METAR LIMC 082220Z 00000KT 9999 FEW035 BKN075 15/11 Q1019 NOSIG
12-05-08 METAR LIMC 082320Z 30002KT 9999 FEW035 BKN075 15/11 Q1019 NOSIG
12-05-09 METAR LIMC 090020Z 17001KT 9999 FEW035 BKN075 14/11 Q1019 NOSIG
12-05-09 METAR LIMC 090120Z 00000KT 9999 FEW035 BKN075 13/11 Q1019 NOSIG
12-05-09 METAR LIMC 090220Z 00000KT 9999 FEW035 BKN075 13/11 Q1019 NOSIG
12-05-09 METAR LIMC 090320Z 00000KT 9999 FEW035 BKN075 13/11 Q1018 NOSIG
12-05-09 METAR LIMC 090420Z 33002KT 9999 SCT070 12/10 Q1019 NOSIG
12-05-09 METAR LIMC 090520Z VRB01KT 9999 SCT070 13/11 Q1019 NOSIG
12-05-09 METAR LIMC 090620Z 35002KT 9999 SCT070 15/11 Q1019 NOSIG
12-05-09 METAR LIMC 090720Z VRB02KT 9999 SCT070 17/11 Q1020 NOSIG
12-05-09 METAR LIMC 090820Z 00000KT 9999 SCT080 19/11 Q1020 NOSIG
12-05-09 METAR LIMC 090920Z VRB01KT CAVOK 20/11 Q1020 NOSIG
12-05-09 METAR LIMC 091020Z VRB02KT CAVOK 21/10 Q1020 NOSIG
12-05-09 METAR LIMC 091120Z 23003KT 180V270 CAVOK 20/11 Q1020 NOSIG
12-05-09 METAR LIMC 091220Z 20004KT 150V250 CAVOK 22/12 Q1020 NOSIG
12-05-09 METAR LIMC 091320Z 22003KT 180V260 9999 FEW030 22/11 Q1020 NOSIG
12-05-09 METAR LIMC 091420Z 21004KT 180V240 9999 FEW030 22/11 Q1020 NOSIG
12-05-09 METAR LIMC 091520Z /////KT CAVOK ///// Q//// NOSIG
12-05-09 METAR LIMC 091620Z 23004KT 190V260 CAVOK 22/12 Q1020 NOSIG
12-05-09 METAR LIMC 091720Z 22003KT CAVOK 22/11 Q1020 NOSIG
12-05-09 METAR LIMC 091820Z 22002KT CAVOK 20/12 Q1020 NOSIG
12-05-09 METAR LIMC 091920Z 16001KT CAVOK 17/12 Q1020 NOSIG
12-05-09 METAR LIMC 092020Z 00000KT CAVOK 16/12 Q1021 NOSIG
12-05-09 METAR LIMC 092120Z 00000KT CAVOK 14/12 Q1022 NOSIG
12-05-09 METAR LIMC 092220Z 35001KT CAVOK 13/11 Q1022 NOSIG
12-05-09 METAR LIMC 092320Z 00000KT CAVOK 12/11 Q1022 NOSIG
12-05-10 METAR LIMC 100020Z 00000KT CAVOK 11/10 Q1022 NOSIG
12-05-10 METAR LIMC 100120Z 36002KT CAVOK 11/10 Q1023 NOSIG
12-05-10 METAR LIMC 100220Z 36001KT CAVOK 11/10 Q1023 NOSIG
12-05-10 METAR LIMC 100320Z 36002KT CAVOK 10/10 Q1023 NOSIG
12-05-10 METAR LIMC 100420Z 35001KT CAVOK 12/10 Q1023 NOSIG
12-05-10 METAR LIMC 100520Z 34004KT CAVOK 15/12 Q1024 NOSIG
12-05-10 METAR LIMC 100620Z VRB02KT CAVOK 18/13 Q1025 NOSIG
12-05-10 METAR LIMC 100720Z VRB01KT CAVOK 20/13 Q1025 NOSIG
12-05-10 METAR LIMC 100820Z VRB02KT CAVOK 22/13 Q1025 NOSIG
12-05-10 METAR LIMC 100920Z VRB01KT CAVOK 23/13 Q1025 NOSIG
12-05-10 METAR LIMC 101020Z VRB02KT CAVOK 24/11 Q1025 NOSIG
12-05-10 METAR LIMC 101120Z VRB03KT CAVOK 25/14 Q1025 NOSIG
12-05-10 METAR LIMC 101220Z NIL
12-05-10 METAR LIMC 101220Z VRB02KT CAVOK 25/13 Q1024 NOSIG
12-05-10 METAR LIMC 101320Z 20004KT 130V240 CAVOK 25/14 Q1024 NOSIG
12-05-10 METAR LIMC 101420Z VRB02KT CAVOK 26/13 Q1024 NOSIG
12-05-10 METAR LIMC 101520Z VRB02KT CAVOK 26/14 Q1024 NOSIG
12-05-10 METAR LIMC 101620Z 24003KT CAVOK 25/13 Q1024 NOSIG
12-05-10 METAR LIMC 101720Z 22002KT CAVOK 24/14 Q1024 NOSIG
12-05-10 METAR LIMC 101820Z 21002KT CAVOK 22/15 Q1024 NOSIG
12-05-10 METAR LIMC 101920Z 00000KT CAVOK 20/15 Q1024 NOSIG
12-05-10 METAR LIMC 102020Z 00000KT CAVOK 18/14 Q1025 NOSIG
12-05-10 METAR LIMC 102120Z VRB02KT CAVOK 17/15 Q1025 NOSIG
12-05-10 METAR LIMC 102220Z 00000KT CAVOK 15/13 Q1025 NOSIG
12-05-10 METAR LIMC 102320Z 36002KT CAVOK 14/13 Q1025 NOSIG
12-05-11 METAR LIMC 110020Z 34003KT 320V040 CAVOK 17/14 Q1025 NOSIG
12-05-11 METAR LIMC 110120Z 35002KT CAVOK 16/14 Q1025 NOSIG
12-05-11 METAR LIMC 110220Z 34002KT CAVOK 15/14 Q1025 NOSIG
12-05-11 METAR LIMC 110320Z VRB01KT CAVOK 15/14 Q1025 NOSIG
12-05-11 METAR LIMC 110420Z VRB02KT 9999 MIFG NSC 15/13 Q1025 NOSIG
12-05-11 METAR LIMC 110520Z VRB01KT CAVOK 16/13 Q1026 NOSIG
12-05-11 METAR LIMC 110620Z VRB01KT CAVOK 20/14 Q1026 NOSIG
12-05-11 METAR LIMC 110720Z VRB02KT CAVOK 22/14 Q1027 NOSIG
12-05-11 METAR LIMC 110820Z 00000KT CAVOK 24/14 Q1026 NOSIG
12-05-11 METAR LIMC 110920Z 00000KT CAVOK 26/15 Q1026 NOSIG
12-05-11 METAR LIMC 111020Z VRB01KT CAVOK 26/15 Q1026 NOSIG
12-05-11 METAR LIMC 111120Z VRB02KT CAVOK 27/13 Q1025 NOSIG
12-05-11 METAR LIMC 111220Z VRB02KT CAVOK 28/14 Q1025 NOSIG
12-05-11 METAR LIMC 111320Z VRB01KT CAVOK 28/12 Q1024 NOSIG
12-05-11 METAR LIMC 111420Z 17003KT 130V230 CAVOK 28/13 Q1024 NOSIG
12-05-11 METAR LIMC 111520Z VRB02KT CAVOK 29/13 Q1024 NOSIG
12-05-11 METAR LIMC 111620Z VRB01KT CAVOK 28/13 Q1023 NOSIG
12-05-11 METAR LIMC 111720Z 21002KT CAVOK 27/12 Q1023 NOSIG
12-05-11 METAR LIMC 111820Z 19001KT CAVOK 25/15 Q1023 NOSIG
12-05-11 METAR LIMC 111920Z 00000KT CAVOK 21/14 Q1023 NOSIG
12-05-11 METAR LIMC 112020Z VRB02KT CAVOK 20/14 Q1024 NOSIG
12-05-11 METAR LIMC 112120Z 01001KT CAVOK 18/14 Q1024 NOSIG
12-05-11 METAR LIMC 112220Z 00000KT CAVOK 16/14 Q1024 NOSIG
12-05-11 METAR LIMC 112320Z 36002KT CAVOK 17/14 Q1023 NOSIG
12-05-12 METAR LIMC 120020Z VRB01KT CAVOK 17/14 Q1023 NOSIG
12-05-12 METAR LIMC 120120Z 35002KT CAVOK 17/14 Q1022 NOSIG
12-05-12 METAR LIMC 120220Z 36002KT CAVOK 17/14 Q1022 NOSIG
12-05-12 METAR LIMC 120320Z 35002KT CAVOK 16/13 Q1021 NOSIG
12-05-12 METAR LIMC 120420Z 02002KT CAVOK 16/14 Q1021 NOSIG
12-05-12 METAR LIMC 120520Z VRB02KT CAVOK 19/14 Q1021 NOSIG
12-05-12 METAR LIMC 120620Z 33003KT CAVOK 21/14 Q1021 NOSIG
12-05-12 METAR LIMC 120720Z 34003KT 310V020 CAVOK 24/14 Q1021 NOSIG
12-05-12 METAR LIMC 120820Z VRB02KT CAVOK 25/15 Q1021 NOSIG
12-05-12 METAR LIMC 120920Z VRB02KT 9999 SCT080 25/16 Q1021 NOSIG
12-05-12 METAR LIMC 121020Z 26002KT 9999 SCT080 27/16 Q1020 NOSIG
12-05-12 METAR LIMC 121120Z 23003KT 190V270 9999 SCT080 28/16 Q1019 NOSIG
12-05-12 METAR LIMC 121220Z 23005KT 200V270 9999 SCT080 28/16 Q1019 NOSIG
12-05-12 METAR LIMC 121320Z 21003KT 180V240 9999 BKN080 28/17 Q1018 NOSIG
12-05-12 METAR LIMC 121420Z 23003KT 210V270 9999 BKN080 28/16 Q1017 NOSIG
12-05-12 METAR LIMC 121520Z VRB02KT 9999 BKN080 28/16 Q1016 NOSIG
12-05-12 METAR LIMC 121620Z VRB02KT 9999 BKN070 28/17 Q1016 NOSIG
12-05-12 METAR LIMC 121720Z 33003KT 9999 BKN070 26/17 Q1015 NOSIG
12-05-12 METAR LIMC 121820Z 35003KT 320V040 9999 BKN070 26/11 Q1015 NOSIG
12-05-12 METAR LIMC 121920Z VRB02KT 9999 BKN070 23/14 Q1015 NOSIG
12-05-12 METAR LIMC 122020Z 35003KT CAVOK 20/13 Q1015 NOSIG
12-05-12 METAR LIMC 122120Z 02003KT CAVOK 20/10 Q1015 NOSIG
12-05-12 METAR LIMC 122220Z 36003KT CAVOK 18/09 Q1015 NOSIG
12-05-12 METAR LIMC 122320Z 35004KT CAVOK 19/07 Q1015 NOSIG
12-05-13 METAR LIMC 130020Z 36004KT CAVOK 21/05 Q1014 NOSIG
12-05-13 METAR LIMC 130120Z 36004KT 330V030 CAVOK 21/04 Q1014 NOSIG
12-05-13 METAR LIMC 130220Z 06004KT 030V090 9999 SCT060 21/03 Q1014 NOSIG
12-05-13 METAR LIMC 130320Z 08003KT 9999 BKN060 20/03 Q1014 NOSIG
12-05-13 METAR LIMC 130420Z 09004KT 060V140 8000 SCT060 20/14 Q1016 NOSIG
12-05-13 METAR LIMC 130520Z 10004KT 060V140 9999 BKN040 19/14 Q1017 NOSIG
12-05-13 METAR LIMC 130620Z 10006KT 060V130 9999 BKN035TCU 17/12 Q1018 NOSIG
12-05-13 METAR LIMC 130720Z 08007KT 040V120 9999 BKN030TCU 15/11 Q1018 WS RWY 17L NOSIG
12-05-13 METAR LIMC 130820Z 08007KT 040V120 9999 BKN030TCU 15/10 Q1019 NOSIG
12-05-13 METAR LIMC 130920Z 09007KT 050V120 9999 SCT020 BKN030TCU 14/10 Q1019 WS ALL RWY NOSIG
12-05-13 METAR LIMC 131020Z 09006KT 050V140 9999 -RA SCT020 BKN030TCU 13/10 Q1020 WS ALL RWY NOSIG
12-05-13 METAR LIMC 131120Z 09007KT 040V120 9999 SCT020 BKN030TCU 14/09 Q1020 NOSIG
12-05-13 METAR LIMC 131220Z 10006KT 060V130 9999 SCT020 BKN030TCU 13/08 Q1020 NOSIG
12-05-13 METAR LIMC 131320Z 10004KT 050V150 9999 SCT020 BKN030 13/09 Q1020 NOSIG
12-05-13 METAR LIMC 131420Z 10004KT 060V150 9999 BKN020 BKN030 14/08 Q1019 NOSIG
12-05-13 METAR LIMC 131520Z 05004KT 9999 BKN020 BKN030 13/08 Q1019 NOSIG
12-05-13 METAR LIMC 131620Z VRB02KT 9999 BKN030 13/08 Q1019 NOSIG
12-05-13 METAR LIMC 131720Z 00000KT 9999 BKN030 13/08 Q1019 NOSIG
12-05-13 METAR LIMC 131920Z VRB01KT 9999 SCT040 11/07 Q1019 NOSIG
12-05-13 METAR LIMC 132020Z 04001KT 9999 FEW040 09/07 Q1020 NOSIG
12-05-13 METAR LIMC 132120Z 00000KT CAVOK 08/06 Q1020 NOSIG
12-05-13 METAR LIMC 132320Z 00000KT CAVOK 06/05 Q1020 NOSIG
12-05-14 METAR LIMC 140020Z 00000KT CAVOK 05/04 Q1019 NOSIG
12-05-14 METAR LIMC 140120Z 00000KT CAVOK 04/03 Q1019 NOSIG
12-05-14 METAR LIMC 140220Z 34002KT CAVOK 04/03 Q1019 NOSIG
12-05-14 METAR LIMC 140320Z 36001KT CAVOK 03/03 Q1018 NOSIG
12-05-14 METAR LIMC 140420Z VRB01KT 9999 MIFG NSC 04/03 Q1018 NOSIG
12-05-14 METAR LIMC 140520Z 01003KT 330V050 CAVOK 08/06 Q1017 NOSIG
12-05-14 METAR LIMC 140620Z VRB02KT CAVOK 12/07 Q1017 NOSIG
12-05-14 METAR LIMC 140720Z VRB01KT CAVOK 14/05 Q1017 NOSIG
12-05-14 METAR LIMC 140820Z NIL
12-05-14 METAR LIMC 140820Z VRB02KT CAVOK 14/05 Q1017 NOSIG
12-05-14 METAR LIMC 140920Z 17003KT 100V250 9999 FEW030 15/04 Q1017 NOSIG
12-05-14 METAR LIMC 141020Z VRB02KT 9999 FEW030 16/04 Q1016 NOSIG
12-05-14 METAR LIMC 141120Z 25004KT 210V270 9999 FEW030 17/04 Q1016 NOSIG
12-05-14 METAR LIMC 141220Z VRB02KT CAVOK 17/05 Q1014 NOSIG
12-05-14 METAR LIMC 141320Z 19003KT 100V230 CAVOK 18/05 Q1014 NOSIG
12-05-14 METAR LIMC 141420Z 21003KT 160V330 CAVOK 19/05 Q1013 NOSIG
12-05-14 METAR LIMC 141520Z 24003KT 210V290 CAVOK 18/04 Q1012 NOSIG
12-05-14 METAR LIMC 141620Z 19003KT 150V230 CAVOK 19/03 Q1012 NOSIG
12-05-14 METAR LIMC 141720Z 22003KT CAVOK 18/04 Q1012 NOSIG
12-05-14 METAR LIMC 141820Z 21001KT CAVOK 16/06 Q1012 NOSIG
12-05-14 METAR LIMC 141920Z 00000KT CAVOK 12/06 Q1012 NOSIG
12-05-14 METAR LIMC 142020Z 00000KT CAVOK 10/06 Q1013 NOSIG
12-05-14 METAR LIMC 142120Z VRB01KT CAVOK 10/06 Q1013 NOSIG
12-05-14 METAR LIMC 142220Z 08002KT CAVOK 11/07 Q1013 NOSIG
12-05-14 METAR LIMC 142320Z 05002KT CAVOK 09/06 Q1013 NOSIG
12-05-15 METAR LIMC 150020Z 06003KT CAVOK 11/06 Q1013 NOSIG
12-05-15 METAR LIMC 150120Z 06004KT CAVOK 10/05 Q1012 NOSIG
12-05-15 METAR LIMC 150220Z 06003KT CAVOK 10/05 Q1012 NOSIG
12-05-15 METAR LIMC 150320Z 35002KT CAVOK 09/04 Q1012 NOSIG
12-05-15 METAR LIMC 150420Z VRB01KT CAVOK 07/04 Q1012 NOSIG
12-05-15 METAR LIMC 150520Z VRB02KT CAVOK 10/04 Q1012 NOSIG
12-05-15 METAR LIMC 150620Z VRB01KT CAVOK 13/05 Q1012 NOSIG
12-05-15 METAR LIMC 150720Z 00000KT CAVOK 15/03 Q1012 NOSIG
12-05-15 METAR LIMC 150820Z VRB02KT CAVOK 16/03 Q1011 NOSIG
12-05-15 METAR LIMC 150920Z 12003KT 030V160 CAVOK 17/04 Q1011 NOSIG
12-05-15 METAR LIMC 151020Z VRB02KT 9999 SCT080 18/04 Q1010 NOSIG
12-05-15 METAR LIMC 151120Z 18003KT 090V240 9999 FEW090 19/06 Q1010 NOSIG
12-05-15 METAR LIMC 151220Z VRB03KT 9999 FEW035 19/08 Q1009 NOSIG
12-05-15 METAR LIMC 151320Z 15003KT 100V200 CAVOK 20/08 Q1008 NOSIG
12-05-15 METAR LIMC 151420Z 18004KT 130V210 CAVOK 20/07 Q1008 NOSIG
12-05-15 METAR LIMC 151520Z 24004KT 190V270 9999 FEW030 20/08 Q1007 NOSIG
12-05-15 METAR LIMC 151620Z 24004KT 210V270 9999 FEW030 21/09 Q1006 NOSIG
12-05-15 METAR LIMC 151720Z 21003KT 150V250 9999 SCT025TCU SCT030 20/10 Q1006 NOSIG
12-05-15 METAR LIMC 151820Z 20003KT 9999 SCT025TCU SCT030 19/09 Q1006 NOSIG
12-05-15 METAR LIMC 151920Z 19004KT 9999 RA SCT025TCU BKN040 16/10 Q1007 NOSIG
12-05-15 METAR LIMC 152020Z VRB02KT 9999 SCT025 SCT040 14/10 Q1007 NOSIG
12-05-15 METAR LIMC 152120Z 00000KT 9999 FEW040 13/10 Q1007 NOSIG
12-05-15 METAR LIMC 152220Z VRB02KT 9999 FEW040 12/09 Q1007 NOSIG
12-05-15 METAR LIMC 152320Z 34004KT 9999 FEW040 13/01 Q1007 NOSIG
12-05-16 METAR LIMC 160020Z 34005KT 9999 FEW040 13/M02 Q1008 NOSIG
12-05-16 METAR LIMC 160120Z 34011KT 9999 FEW040 15/M08 Q1009 NOSIG
12-05-16 METAR LIMC 160220Z 35007KT 9999 SCT040 13/M08 Q1010 NOSIG
12-05-16 METAR LIMC 160320Z 33011KT 9999 FEW040 12/M08 Q1011 NOSIG
12-05-16 METAR LIMC 160420Z 33005KT CAVOK 10/M07 Q1012 NOSIG
12-05-16 METAR LIMC 160520Z 32011KT CAVOK 13/M07 Q1011 NOSIG
12-05-16 METAR LIMC 160620Z 32012KT CAVOK 14/M06 Q1012 NOSIG
12-05-16 METAR LIMC 160720Z 32014KT CAVOK 15/M06 Q1012 WS RWY 35L NOSIG
12-05-16 METAR LIMC 160820Z 32013KT CAVOK 16/M07 Q1013 WS ALL RWY NOSIG
12-05-16 METAR LIMC 160920Z 31012KT CAVOK 17/M06 Q1014 NOSIG
12-05-16 METAR LIMC 161020Z 31012KT CAVOK 17/M06 Q1014 NOSIG
12-05-16 METAR LIMC 161120Z 32013KT CAVOK 18/M08 Q1014 NOSIG
12-05-16 METAR LIMC 161220Z 32011KT 300V360 CAVOK 19/M09 Q1014 NOSIG
12-05-16 METAR LIMC 161320Z 32012KT 9999 FEW025 19/M08 Q1015 NOSIG
12-05-16 METAR LIMC 161420Z 32010KT 9999 FEW025 19/M08 Q1015 NOSIG
12-05-16 METAR LIMC 161520Z 31011KT CAVOK 18/M07 Q1015 NOSIG
12-05-16 METAR LIMC 161620Z 32011KT CAVOK 17/M09 Q1016 NOSIG
12-05-16 METAR LIMC 161720Z 33010KT CAVOK 16/M08 Q1016 NOSIG
12-05-16 METAR LIMC 161820Z 35008KT CAVOK 15/M09 Q1017 NOSIG
12-05-16 METAR LIMC 161920Z 36007KT CAVOK 14/M09 Q1018 NOSIG
12-05-16 METAR LIMC 162020Z 01005KT CAVOK 13/M09 Q1019 NOSIG
12-05-16 METAR LIMC 162120Z 02007KT 340V040 CAVOK 12/M08 Q1019 NOSIG
12-05-16 METAR LIMC 162220Z 03006KT 020V090 CAVOK 12/M08 Q1019 NOSIG
12-05-16 METAR LIMC 162320Z 01007KT CAVOK 12/M08 Q1019 NOSIG
12-05-17 METAR LIMC 170020Z 02005KT CAVOK 11/M07 Q1019 NOSIG
12-05-17 METAR LIMC 170120Z 01004KT CAVOK 10/M07 Q1019 NOSIG
12-05-17 METAR LIMC 170220Z 35004KT CAVOK 07/M05 Q1019 NOSIG
12-05-17 METAR LIMC 170320Z 36002KT CAVOK 08/M06 Q1019 NOSIG
12-05-17 METAR LIMC 170420Z 35004KT CAVOK 07/M04 Q1019 NOSIG
12-05-17 METAR LIMC 170520Z 34003KT 290V030 CAVOK 10/M03 Q1019 NOSIG
12-05-17 METAR LIMC 170620Z 33003KT 310V010 CAVOK 12/M03 Q1019 NOSIG
12-05-17 METAR LIMC 170720Z 31003KT 250V340 CAVOK 14/M02 Q1019 NOSIG
12-05-17 METAR LIMC 170820Z VRB02KT CAVOK 16/M05 Q1019 NOSIG
12-05-17 METAR LIMC 170920Z VRB02KT CAVOK 17/M07 Q1019 NOSIG
12-05-17 METAR LIMC 171020Z VRB02KT CAVOK 18/M07 Q1019 NOSIG
12-05-17 METAR LIMC 171220Z VRB03KT CAVOK 19/M03 Q1018 NOSIG
12-05-17 METAR LIMC 171320Z NIL
12-05-17 METAR LIMC 171420Z NIL
12-05-17 METAR LIMC 171520Z NIL
12-05-17 METAR LIMC 171620Z NIL
12-05-17 METAR LIMC 172120Z NIL
12-05-17 METAR LIMC 172220Z 06003KT CAVOK 11/04 Q1017 NOSIG
12-05-17 METAR LIMC 172320Z 00000KT CAVOK 10/03 Q1017 NOSIG
12-05-18 METAR LIMC 180020Z 00000KT CAVOK 08/03 Q1016 NOSIG
12-05-18 METAR LIMC 180120Z VRB02KT CAVOK 11/04 Q1017 NOSIG
12-05-18 METAR LIMC 180220Z 06003KT CAVOK 12/01 Q1017 NOSIG
12-05-18 METAR LIMC 180320Z 05003KT CAVOK 11/02 Q1016 NOSIG
12-05-18 METAR LIMC 180420Z 36002KT CAVOK 09/03 Q1017 NOSIG
12-05-18 METAR LIMC 180520Z 36003KT 330V040 9999 SCT070 13/02 Q1017 NOSIG
12-05-18 METAR LIMC 180620Z 03002KT 9999 BKN070 14/01 Q1017 NOSIG
12-05-18 METAR LIMC 180720Z VRB01KT 9999 BKN070 15/02 Q1017 NOSIG
12-05-18 METAR LIMC 180820Z 16001KT 9999 BKN070 16/02 Q1018 NOSIG
12-05-18 METAR LIMC 180920Z VRB02KT 9999 BKN070 16/02 Q1017 NOSIG
12-05-18 METAR LIMC 181020Z VRB01KT 9999 BKN070 18/01 Q1017 NOSIG
12-05-18 METAR LIMC 181120Z VRB02KT 9999 BKN050 18/00 Q1017 NOSIG
12-05-18 METAR LIMC 181220Z VRB02KT 9999 BKN050 19/M02 Q1017 NOSIG
12-05-18 METAR LIMC 181320Z VRB02KT 9999 SCT070 19/M01 Q1016 NOSIG
12-05-18 METAR LIMC 181420Z VRB01KT CAVOK 20/M01 Q1016 NOSIG
12-05-18 METAR LIMC 181520Z 13003KT 080V170 CAVOK 20/M01 Q1015 NOSIG
12-05-18 METAR LIMC 181620Z VRB02KT CAVOK 20/M01 Q1015 NOSIG
12-05-18 METAR LIMC 181720Z VRB02KT CAVOK 19/01 Q1015 NOSIG
12-05-18 METAR LIMC 181820Z 16002KT CAVOK 17/02 Q1015 NOSIG
12-05-18 METAR LIMC 181920Z 16002KT CAVOK 15/01 Q1016 NOSIG
12-05-18 METAR LIMC 182020Z VRB01KT CAVOK 12/03 Q1016 NOSIG
12-05-18 METAR LIMC 182120Z VRB01KT CAVOK 10/03 Q1016 NOSIG
12-05-18 METAR LIMC 182220Z 35001KT CAVOK 08/04 Q1017 NOSIG
12-05-18 METAR LIMC 182320Z 35002KT CAVOK 08/04 Q1016 NOSIG
12-05-19 METAR LIMC 190020Z VRB01KT CAVOK 08/04 Q1017 NOSIG
12-05-19 METAR LIMC 190120Z 36001KT CAVOK 07/04 Q1017 NOSIG
12-05-19 METAR LIMC 190220Z 00000KT CAVOK 06/03 Q1017 NOSIG
12-05-19 METAR LIMC 190320Z 36001KT CAVOK 06/04 Q1017 NOSIG
12-05-19 METAR LIMC 190420Z 35002KT CAVOK 07/04 Q1017 NOSIG
12-05-19 METAR LIMC 190520Z 34003KT 310V020 CAVOK 10/05 Q1017 NOSIG
12-05-19 METAR LIMC 190620Z VRB01KT 9999 BKN070 13/05 Q1017 NOSIG
12-05-19 METAR LIMC 190720Z VRB01KT CAVOK 16/05 Q1017 NOSIG
12-05-19 METAR LIMC 190820Z VRB02KT 9999 SCT080 17/05 Q1017 NOSIG
12-05-19 METAR LIMC 190920Z VRB01KT 9999 BKN060 18/06 Q1017 NOSIG
12-05-19 METAR LIMC 191020Z VRB02KT 9999 BKN050 18/05 Q1017 NOSIG
12-05-19 METAR LIMC 191120Z 20003KT 160V250 9999 BKN050 19/07 Q1017 NOSIG
12-05-19 METAR LIMC 191220Z 22004KT 180V240 9999 BKN050 18/06 Q1017 NOSIG
12-05-19 METAR LIMC 191320Z 26003KT 9999 -RA BKN050 16/09 Q1017 NOSIG
12-05-19 METAR LIMC 191420Z VRB02KT 9999 BKN050 17/07 Q1017 NOSIG
12-05-19 METAR LIMC 191520Z 33002KT 9999 BKN050 17/08 Q1016 NOSIG
12-05-19 METAR LIMC 191620Z VRB02KT 9999 BKN060 17/08 Q1016 NOSIG
12-05-19 METAR LIMC 191720Z VRB02KT 9999 BKN060 17/08 Q1016 NOSIG
12-05-19 METAR LIMC 191820Z 31002KT 9999 BKN060 16/09 Q1016 NOSIG
12-05-19 METAR LIMC 191920Z 30002KT 9999 BKN060 15/10 Q1016 NOSIG
12-05-19 METAR LIMC 192020Z 32002KT 9999 BKN060 14/10 Q1016 NOSIG
12-05-19 METAR LIMC 192120Z 33002KT 9999 BKN060 14/10 Q1016 NOSIG
12-05-19 METAR LIMC 192220Z 36002KT 9999 BKN060 14/10 Q1016 NOSIG
12-05-19 METAR LIMC 192320Z 34001KT 9999 BKN060 13/10 Q1016 NOSIG
12-05-20 METAR LIMC 200020Z 35002KT 9999 BKN060 13/10 Q1015 NOSIG
12-05-20 METAR LIMC 200120Z NIL
12-05-20 METAR LIMC 200120Z 00000KT 9999 BKN060 12/09 Q1015 NOSIG
12-05-20 METAR LIMC 200220Z 35002KT 9999 BKN060 11/09 Q1014 NOSIG
12-05-20 METAR LIMC 200320Z 35001KT 9999 BKN060 11/09 Q1014 NOSIG
12-05-20 METAR LIMC 200420Z VRB01KT 9999 BKN050 12/10 Q1014 NOSIG
12-05-20 METAR LIMC 200520Z VRB02KT 9999 -RA SCT040 BKN060 14/11 Q1014 NOSIG
12-05-20 METAR LIMC 200620Z VRB02KT 9999 SCT040 BKN060 15/11 Q1014 NOSIG
12-05-20 METAR LIMC 200720Z VRB02KT 9999 BKN070 17/10 Q1014 NOSIG
12-05-20 METAR LIMC 200820Z 05003KT 330V110 9999 SCT050 BKN080 17/10 Q1013 NOSIG
12-05-20 METAR LIMC 200920Z VRB01KT 9999 SCT050 BKN080 18/10 Q1013 NOSIG
12-05-20 METAR LIMC 201020Z 17004KT 3000 RA SCT030 BKN060 15/13 Q1014 NOSIG
12-05-20 METAR LIMC 201120Z 16002KT 2000 RA OVC030 14/12 Q1015 NOSIG
12-05-20 METAR LIMC 201220Z VRB01KT 2500 -RA BKN030 BKN035 14/13 Q1014 NOSIG
12-05-20 METAR LIMC 201320Z VRB02KT 2000 RA BKN030 BKN035 14/12 Q1013 NOSIG
12-05-20 METAR LIMC 201420Z VRB02KT 2000 -RA BKN030 BKN035 14/13 Q1013 NOSIG
12-05-20 METAR LIMC 201520Z 36003KT 330V040 2000 RA BKN030 BKN035 14/13 Q1013 NOSIG
12-05-20 METAR LIMC 201620Z 35003KT 330V030 2000 RA BKN030 BKN035 13/12 Q1012 NOSIG
12-05-20 METAR LIMC 201720Z 35004KT 2000 RA BKN030 BKN035 13/12 Q1011 NOSIG
12-05-20 METAR LIMC 201820Z 36003KT 330V030 3000 RA BKN020 OVC040 12/11 Q1011 NOSIG
12-05-20 METAR LIMC 201920Z 34004KT 4000 RA BKN020 OVC040 12/11 Q1010 NOSIG
12-05-20 METAR LIMC 202020Z 34004KT 4000 RA BKN020 OVC040 12/11 Q1010 NOSIG
12-05-20 METAR LIMC 202120Z 12003KT 090V150 5000 RA BKN020 OVC040 12/11 Q1009 NOSIG
12-05-20 METAR LIMC 202220Z 00000KT 5000 +RA BKN020 OVC040 11/11 Q1008 NOSIG
12-05-20 METAR LIMC 202320Z 34002KT 5000 +RA BKN020 OVC040 11/11 Q1007 NOSIG
12-05-21 METAR LIMC 210020Z VRB01KT 5000 +RA BKN020 OVC040 11/11 Q1007 NOSIG
12-05-21 METAR LIMC 210120Z 08004KT 040V120 3000 +RA BKN020 OVC040 12/11 Q1006 NOSIG
12-05-21 METAR LIMC 210220Z VRB02KT 3000 RA BKN020 OVC040 11/10 Q1005 NOSIG
12-05-21 METAR LIMC 210320Z 05003KT 010V090 4000 RA BKN020 OVC040 11/10 Q1004 NOSIG
12-05-21 METAR LIMC 210420Z 09005KT 050V120 3500 RA SCT008 OVC035 11/10 Q1004 NOSIG
12-05-21 METAR LIMC 210420Z 09005KT 3500 RA SCT008 OVC035 11/10 Q1004 NOSIG
12-05-21 METAR LIMC 210520Z NIL
12-05-21 METAR LIMC 210520Z VRB02KT 3500 RA SCT008 OVC035 11/10 Q1004 NOSIG
12-05-21 METAR LIMC 210620Z VRB02KT 3500 RA SCT008 OVC035 11/10 Q1004 NOSIG
12-05-21 METAR LIMC 210720Z VRB02KT 2500 RA SCT008 OVC035 10/09 Q1004 NOSIG
12-05-21 METAR LIMC 210820Z VRB02KT 2000 RA SCT008 OVC035 10/09 Q1004 NOSIG
12-05-21 METAR LIMC 210920Z 32003KT 2000 RA SCT008 OVC035 10/09 Q1003 NOSIG
12-05-21 METAR LIMC 211020Z 33005KT 2500 RA SCT008 OVC035 11/10 Q1003 NOSIG
12-05-21 METAR LIMC 211120Z 00000KT 4500 RA FEW010 SCT013 BKN030 11/10 Q1003 NOSIG
12-05-21 METAR LIMC 211220Z 35003KT 320V040 4000 RA SCT015 BKN020 OVC030 12/11 Q1003
12-05-21 METAR LIMC 211320Z 36002KT 9999 RA SCT010 BKN020 OVC035 13/11 Q1004 NOSIG
12-05-21 METAR LIMC 211420Z 36003KT 9999 3500W RA VCSH FEW007 SCT015 BKN035 12/11 Q1004 NOSIG
12-05-21 METAR LIMC 211520Z 36003KT 9999 FEW005 SCT015 BKN035 13/11 Q1004 NOSIG
12-05-21 METAR LIMC 211620Z 34003KT 9999 SCT015 BKN035 12/11 Q1004 NOSIG
12-05-21 METAR LIMC 211720Z 35004KT 9999 SCT030 BKN060 13/11 Q1005 NOSIG
12-05-21 METAR LIMC 211820Z 34003KT 9999 SCT035 BKN060 12/10 Q1005 NOSIG
12-05-21 METAR LIMC 211920Z 35003KT 9999 SCT035 BKN060 12/10 Q1005 NOSIG
12-05-21 METAR LIMC 212020Z 33002KT 9999 SCT035 BKN060 11/10 Q1005 NOSIG
12-05-21 METAR LIMC 212120Z 00000KT 9999 SCT035 SCT060 11/10 Q1006 NOSIG
12-05-21 METAR LIMC 212220Z 01001KT 9999 SCT035 SCT060 11/10 Q1006 NOSIG
12-05-21 METAR LIMC 212320Z 02001KT 9999 SCT035 SCT060 11/10 Q1006 NOSIG
12-05-22 METAR LIMC 220020Z 34002KT 9999 SCT035 SCT060 11/10 Q1006 NOSIG
12-05-22 METAR LIMC 220120Z 35002KT 9999 SCT035 SCT060 11/10 Q1006 NOSIG
12-05-22 METAR LIMC 220220Z 01002KT 9999 SCT035 SCT060 11/10 Q1006 NOSIG
12-05-22 METAR LIMC 220320Z 00000KT 9999 SCT035 SCT060 10/10 Q1006 NOSIG
12-05-22 METAR LIMC 220420Z 00000KT 9999 SCT040 SCT060 10/10 Q1006 NOSIG
12-05-22 METAR LIMC 220520Z VRB01KT 9999 SCT040 SCT060 11/11 Q1007 NOSIG
12-05-22 METAR LIMC 220620Z 00000KT 9999 FEW040 BKN060 12/11 Q1007 NOSIG
12-05-22 METAR LIMC 220720Z VRB01KT 9999 SCT010 BKN060 14/11 Q1007 NOSIG
12-05-22 METAR LIMC 220820Z VRB02KT 9999 SCT012 16/11 Q1007 NOSIG
12-05-22 METAR LIMC 220920Z VRB02KT 9999 SCT015 16/11 Q1007 NOSIG
12-05-22 METAR LIMC 221020Z 24003KT 190V300 9999 SCT025 17/11 Q1008 NOSIG
12-05-22 METAR LIMC 221120Z 23004KT 200V270 9999 SCT030 17/10 Q1008 NOSIG
12-05-22 METAR LIMC 221220Z 24004KT 180V270 9999 FEW030 20/12 Q1007 NOSIG
12-05-22 METAR LIMC 221220Z NIL
12-05-22 METAR LIMC 221320Z 26004KT 210V280 9999 FEW030 20/11 Q1007 NOSIG
12-05-22 METAR LIMC 221420Z 22004KT 180V280 CAVOK 20/10 Q1007 NOSIG
12-05-22 METAR LIMC 221520Z 23005KT CAVOK 21/10 Q1007 NOSIG
12-05-22 METAR LIMC 221620Z 21005KT 180V240 CAVOK 21/10 Q1007 NOSIG
12-05-22 METAR LIMC 221720Z 21004KT 9999 BKN080 20/09 Q1007 NOSIG
12-05-22 METAR LIMC 221820Z 17002KT 9999 BKN080 19/11 Q1008 NOSIG
12-05-22 METAR LIMC 221920Z 18002KT 9999 SCT060 BKN090 17/11 Q1009 NOSIG
12-05-22 METAR LIMC 222020Z 16002KT 9999 BKN060 BKN090 17/11 Q1010 NOSIG
12-05-22 METAR LIMC 222120Z 15001KT 9999 BKN060 BKN090 16/12 Q1010 NOSIG
12-05-22 METAR LIMC 222220Z 00000KT 9999 R17R/0050V1500N R35L/1500N BKN080 15/12 Q1010 NOSIG
12-05-22 METAR LIMC 222320Z 00000KT 9999 BKN080 15/13 Q1011 NOSIG
12-05-23 METAR LIMC 230020Z 00000KT 9999 BKN080 13/12 Q1011 NOSIG
12-05-23 METAR LIMC 230120Z 00000KT 9999 SCT070 12/11 Q1011 NOSIG
12-05-23 METAR LIMC 230220Z 34002KT 9999 SCT090 12/11 Q1012 NOSIG
12-05-23 METAR LIMC 230320Z 34003KT 9999 BKN090 12/11 Q1012 NOSIG
12-05-23 METAR LIMC 230420Z 35001KT 9999 SCT080 13/11 Q1012 NOSIG
12-05-23 METAR LIMC 230520Z VRB01KT 9999 BKN070 14/12 Q1012 NOSIG
12-05-23 METAR LIMC 230620Z VRB01KT 9999 SCT060 SCT070 16/12 Q1013 NOSIG
12-05-23 METAR LIMC 230720Z 00000KT 9999 SCT060 SCT070 20/13 Q1013 NOSIG
12-05-23 METAR LIMC 230820Z VRB01KT 9999 FEW050 SCT070 21/11 Q1014 NOSIG
12-05-23 METAR LIMC 230920Z VRB01KT 9999 SCT050 SCT080 21/12 Q1014 NOSIG
12-05-23 METAR LIMC 231020Z VRB02KT 9999 SCT050 SCT080 22/13 Q1014 NOSIG
12-05-23 METAR LIMC 231120Z VRB02KT 9999 SCT050 SCT080 23/14 Q1014 NOSIG
12-05-23 METAR LIMC 231220Z VRB02KT 9999 SCT070 24/15 Q1014 NOSIG
12-05-23 METAR LIMC 231320Z 23004KT 180V260 9999 SCT080 25/15 Q1014 NOSIG
12-05-23 METAR LIMC 231420Z 24004KT CAVOK 26/12 Q1014 NOSIG
12-05-23 METAR LIMC 231520Z 22004KT 180V240 CAVOK 26/16 Q1014 NOSIG
12-05-23 METAR LIMC 231620Z 22005KT CAVOK 26/14 Q1014 NOSIG
12-05-23 METAR LIMC 231720Z 21004KT CAVOK 26/15 Q1014 NOSIG
12-05-23 METAR LIMC 231820Z 00000KT CAVOK 24/16 Q1015 NOSIG
12-05-23 METAR LIMC 231920Z 00000KT CAVOK 21/17 Q1015 NOSIG
12-05-23 METAR LIMC 232020Z VRB01KT CAVOK 20/17 Q1016 NOSIG
12-05-23 METAR LIMC 232120Z VRB02KT CAVOK 20/16 Q1017 NOSIG
12-05-23 METAR LIMC 232220Z 35002KT CAVOK 17/14 Q1018 NOSIG
12-05-23 METAR LIMC 232320Z 35004KT CAVOK 18/15 Q1018 NOSIG
12-05-24 METAR LIMC 240020Z 00000KT CAVOK 16/14 Q1018 NOSIG
12-05-24 METAR LIMC 240120Z 00000KT CAVOK 15/14 Q1018 NOSIG
12-05-24 METAR LIMC 240220Z 34002KT 9999 SCT070 17/15 Q1018 NOSIG
12-05-24 METAR LIMC 240320Z VRB01KT 9999 SCT070 15/14 Q1018 NOSIG
12-05-24 METAR LIMC 240420Z VRB02KT 9999 FEW060 14/13 Q1018 NOSIG
12-05-24 METAR LIMC 240520Z VRB02KT CAVOK 18/14 Q1018 NOSIG
12-05-24 METAR LIMC 240620Z 34002KT CAVOK 20/13 Q1019 NOSIG
12-05-24 METAR LIMC 240720Z VRB01KT CAVOK 23/11 Q1019 NOSIG
12-05-24 METAR LIMC 240820Z 00000KT CAVOK 25/13 Q1019 NOSIG
12-05-24 METAR LIMC 240920Z VRB02KT CAVOK 27/11 Q1019 NOSIG
12-05-24 METAR LIMC 241020Z VRB02KT CAVOK 27/13 Q1019 NOSIG
12-05-24 METAR LIMC 241120Z NIL
12-05-24 METAR LIMC 241120Z 23004KT CAVOK 28/14 Q1018 NOSIG
12-05-24 METAR LIMC 241220Z NIL
12-05-24 METAR LIMC 241320Z 23005KT CAVOK 29/10 Q1017 NOSIG
12-05-24 METAR LIMC 241420Z 24006KT CAVOK 29/11 Q1017 NOSIG
12-05-24 METAR LIMC 241520Z 21005KT 180V240 CAVOK 28/11 Q1017 NOSIG
12-05-24 METAR LIMC 241620Z 22004KT CAVOK 28/10 Q1016 NOSIG
12-05-24 METAR LIMC 241720Z 22002KT 9999 FEW080 26/11 Q1016 NOSIG
12-05-24 METAR LIMC 241820Z VRB01KT 9999 SCT080 25/11 Q1017 NOSIG
12-05-24 METAR LIMC 241920Z 00000KT 9999 SCT080 20/14 Q1017 NOSIG
12-05-24 METAR LIMC 242020Z 00000KT 9999 SCT080 19/13 Q1017 NOSIG
12-05-24 METAR LIMC 242120Z 34002KT 9999 SCT080 17/13 Q1017 NOSIG
12-05-24 METAR LIMC 242220Z VRB02KT 9999 SCT080 18/13 Q1017 NOSIG
12-05-24 METAR LIMC 242320Z VRB01KT 9999 SCT080 16/14 Q1017 NOSIG
12-05-25 METAR LIMC 250020Z 34003KT 310V050 9999 SCT080 15/13 Q1017 NOSIG
12-05-25 METAR LIMC 250120Z VRB01KT 9999 SCT080 15/13 Q1017 NOSIG
12-05-25 METAR LIMC 250220Z 05003KT 9999 SCT080 18/13 Q1017 NOSIG
12-05-25 METAR LIMC 250320Z 05004KT 020V080 9999 SCT080 18/13 Q1017 NOSIG
12-05-25 METAR LIMC 250420Z 04003KT CAVOK 18/13 Q1017 NOSIG
12-05-25 METAR LIMC 250520Z NIL
12-05-25 METAR LIMC 250520Z 34003KT 320V020 CAVOK 19/14 Q1017 NOSIG
12-05-25 METAR LIMC 250620Z 04003KT 350V060 CAVOK 21/12 Q1017 NOSIG
12-05-25 METAR LIMC 250720Z 07004KT 030V110 9999 SCT040 SCT070 22/12 Q1017 NOSIG
12-05-25 METAR LIMC 250820Z 11004KT 060V150 9999 SCT040 24/11 Q1017 NOSIG
12-05-25 METAR LIMC 250920Z 13004KT 060V170 9999 SCT040 24/12 Q1017 NOSIG
12-05-25 METAR LIMC 251020Z 10004KT 040V150 CAVOK 25/11 Q1017 NOSIG
12-05-25 METAR LIMC 251120Z 13004KT 070V170 CAVOK 25/12 Q1016 NOSIG
12-05-25 METAR LIMC 251220Z 14004KT 090V180 CAVOK 25/13 Q1016 NOSIG
12-05-25 METAR LIMC 251320Z 13004KT 070V190 9999 FEW030 26/13 Q1015 NOSIG
12-05-25 METAR LIMC 251420Z 14004KT 070V180 9999 SCT030 26/13 Q1015 NOSIG
12-05-25 METAR LIMC 251520Z 14003KT 100V170 9999 SCT030 25/13 Q1015 NOSIG
12-05-25 METAR LIMC 251620Z 13004KT 9999 SCT040 25/13 Q1014 NOSIG
12-05-25 METAR LIMC 251720Z 10004KT 070V130 9999 FEW080 24/12 Q1015 NOSIG
12-05-25 METAR LIMC 251820Z 11004KT 080V140 9999 SCT070 22/11 Q1015 NOSIG
12-05-25 METAR LIMC 251920Z 09005KT 060V130 9999 SCT070 22/09 Q1016 NOSIG
12-05-25 METAR LIMC 252020Z 03003KT 330V070 9999 SCT070 20/11 Q1017 NOSIG
12-05-25 METAR LIMC 252120Z 34003KT 300V030 9999 VCTS FEW030CB BKN050 19/12 Q1018 BECMG TS
12-05-25 METAR LIMC 252220Z 36003KT 9999 BKN050 20/11 Q1018 BECMG TS
12-05-25 METAR LIMC 252320Z 34003KT 9999 BKN050 18/14 Q1019 NOSIG
12-05-26 METAR LIMC 260020Z 01002KT 9999 BKN050 17/13 Q1018 NOSIG
12-05-26 METAR LIMC 260120Z 02004KT 9999 BKN060 18/12 Q1018 NOSIG
12-05-26 METAR LIMC 260220Z 01003KT 9999 BKN060 17/12 Q1018 NOSIG
12-05-26 METAR LIMC 260320Z 02003KT 9999 SCT060 17/11 Q1017 NOSIG
12-05-26 METAR LIMC 260420Z 04002KT 9999 BKN060 18/11 Q1017 NOSIG
12-05-26 METAR LIMC 260520Z VRB01KT 9999 SCT060 17/13 Q1018 NOSIG
12-05-26 METAR LIMC 260620Z 11004KT 070V160 9999 SCT060 19/11 Q1018 NOSIG
12-05-26 METAR LIMC 260720Z 10003KT 060V140 9999 FEW060 20/12 Q1018 NOSIG
12-05-26 METAR LIMC 260820Z VRB02KT CAVOK 21/11 Q1018 NOSIG
12-05-26 METAR LIMC 260920Z VRB02KT CAVOK 21/11 Q1018 NOSIG
12-05-26 METAR LIMC 261020Z 15004KT 110V190 9999 FEW025 22/10 Q1017 NOSIG
12-05-26 METAR LIMC 261120Z 13004KT 090V210 9999 FEW030 23/10 Q1017 NOSIG
12-05-26 METAR LIMC 261220Z 15003KT 100V220 CAVOK 23/10 Q1017 NOSIG
12-05-26 METAR LIMC 261320Z VRB03KT 9999 FEW035 23/10 Q1016 NOSIG
12-05-26 METAR LIMC 261420Z 13003KT 070V180 9999 FEW040 24/09 Q1016 NOSIG
12-05-26 METAR LIMC 261520Z 12003KT 070V170 9999 FEW040 23/08 Q1016 NOSIG
12-05-26 METAR LIMC 261620Z 13003KT 080V190 9999 FEW040 23/09 Q1016 NOSIG
12-05-26 METAR LIMC 261720Z VRB02KT 9999 SCT060 23/10 Q1016 NOSIG
12-05-26 METAR LIMC 261820Z 12003KT 9999 SCT060 21/10 Q1016 NOSIG
12-05-26 METAR LIMC 261920Z 11003KT 9999 SCT060 20/11 Q1016 NOSIG
12-05-26 METAR LIMC 262020Z VRB02KT 9999 SCT060 20/11 Q1017 NOSIG
12-05-26 METAR LIMC 262120Z 10003KT 9999 BKN060 19/11 Q1018 NOSIG
12-05-26 METAR LIMC 262220Z VRB01KT 9999 BKN050 19/11 Q1018 NOSIG
12-05-26 METAR LIMC 262320Z 03002KT 9999 BKN050 18/12 Q1019 NOSIG
12-05-27 METAR LIMC 270020Z 05002KT 9999 BKN050 17/12 Q1018 NOSIG
12-05-27 METAR LIMC 270120Z 04003KT 9999 BKN050 17/12 Q1018 NOSIG
12-05-27 METAR LIMC 270220Z 01002KT 9999 BKN050 17/11 Q1018 NOSIG
12-05-27 METAR LIMC 270320Z 00000KT 9999 BKN060 17/12 Q1018 NOSIG
12-05-27 METAR LIMC 270420Z 36002KT 9999 BKN060 17/12 Q1018 NOSIG
12-05-27 METAR LIMC 270520Z VRB02KT 9999 BKN060 18/10 Q1019 NOSIG
12-05-27 METAR LIMC 270620Z VRB02KT 9999 BKN060 18/12 Q1019 NOSIG
12-05-27 METAR LIMC 270720Z VRB01KT 9999 SCT060 19/10 Q1019 NOSIG
12-05-27 METAR LIMC 270820Z VRB02KT 9999 SCT070 20/11 Q1018 NOSIG
12-05-27 METAR LIMC 270920Z VRB02KT CAVOK 21/08 Q1018 NOSIG
12-05-27 METAR LIMC 271020Z VRB02KT CAVOK 22/08 Q1018 NOSIG
12-05-27 METAR LIMC 271120Z VRB02KT CAVOK 22/09 Q1017 NOSIG
12-05-27 METAR LIMC 271220Z 09003KT 030V190 9999 FEW025 BKN090 22/09 Q1017 NOSIG
12-05-27 METAR LIMC 271320Z 09003KT 050V130 9999 FEW025 BKN090 23/09 Q1016 NOSIG
12-05-27 METAR LIMC 271420Z VRB02KT 9999 FEW045 BKN090 22/09 Q1016 NOSIG
12-05-27 METAR LIMC 271520Z 21003KT 160V260 9999 -RA SCT050 BKN090 20/11 Q1015 NOSIG
12-05-27 METAR LIMC 271620Z VRB02KT 9999 BKN045 BKN090 21/09 Q1015 NOSIG
12-05-27 METAR LIMC 271720Z 36003KT 340V040 9999 BKN045 BKN090 21/11 Q1016 NOSIG
12-05-27 METAR LIMC 271820Z 08003KT 030V110 9999 SCT045 BKN080 20/10 Q1016 NOSIG
12-05-27 METAR LIMC 271920Z 04002KT 9999 SCT045 BKN080 18/11 Q1016 NOSIG
12-05-27 METAR LIMC 272020Z 02004KT 9999 SCT060 BKN090 17/11 Q1017 NOSIG
12-05-27 METAR LIMC 272120Z 02003KT 9999 -RA SCT040 BKN070 16/12 Q1017 NOSIG
12-05-27 METAR LIMC 272220Z 35003KT 9999 -RA SCT040 BKN070 15/13 Q1016 NOSIG
12-05-27 METAR LIMC 272320Z 00000KT 9999 SCT050 BKN080 13/12 Q1016 NOSIG
12-05-28 METAR LIMC 280020Z 34003KT 9999 SCT050 BKN080 13/12 Q1016 NOSIG
12-05-28 METAR LIMC 280120Z 34002KT 9999 SCT050 BKN080 13/12 Q1016 NOSIG
12-05-28 METAR LIMC 280220Z 00000KT 9999 SCT050 BKN080 13/12 Q1015 NOSIG
12-05-28 METAR LIMC 280320Z 36002KT 9999 SCT070 12/11 Q1015 NOSIG
12-05-28 METAR LIMC 280420Z 00000KT 9999 MIFG NSC 13/12 Q1015 NOSIG
12-05-28 METAR LIMC 280520Z 34002KT CAVOK 15/13 Q1015 NOSIG
12-05-28 METAR LIMC 280620Z VRB02KT CAVOK 17/13 Q1016 NOSIG
12-05-28 METAR LIMC 280720Z VRB02KT CAVOK 18/12 Q1016 NOSIG
12-05-28 METAR LIMC 280820Z VRB02KT CAVOK 20/12 Q1016 NOSIG
12-05-28 METAR LIMC 280920Z VRB01KT CAVOK 21/12 Q1015 NOSIG
12-05-28 METAR LIMC 281020Z VRB02KT 9999 FEW025 22/12 Q1015 NOSIG
12-05-28 METAR LIMC 281120Z 22003KT 160V280 9999 FEW025 23/12 Q1014 NOSIG
12-05-28 METAR LIMC 281220Z VRB03KT CAVOK 23/13 Q1014 NOSIG
12-05-28 METAR LIMC 281320Z 19004KT 150V280 CAVOK 24/12 Q1013 NOSIG
12-05-28 METAR LIMC 281420Z 24004KT 200V280 CAVOK 24/12 Q1013 NOSIG
12-05-28 METAR LIMC 281520Z 23004KT CAVOK 24/12 Q1013 NOSIG
12-05-28 METAR LIMC 281620Z 20004KT 170V240 CAVOK 24/12 Q1012 NOSIG
12-05-28 METAR LIMC 281720Z 21004KT 180V240 CAVOK 24/11 Q1012 NOSIG
12-05-28 METAR LIMC 281820Z VRB02KT CAVOK 22/12 Q1012 NOSIG
12-05-28 METAR LIMC 281920Z VRB01KT CAVOK 21/11 Q1012 NOSIG
12-05-28 METAR LIMC 282020Z 04001KT CAVOK 17/12 Q1013 NOSIG
12-05-28 METAR LIMC 282120Z 00000KT CAVOK 16/12 Q1013 NOSIG
12-05-28 METAR LIMC 282220Z VRB01KT CAVOK 17/14 Q1013 NOSIG
12-05-28 METAR LIMC 282320Z 18003KT CAVOK 16/14 Q1013 NOSIG