
11-11-30 METAR EDDT 292350Z 19007KT CAVOK 03/01 Q1016
11-11-30 METAR EDDT 300020Z 20008KT CAVOK 03/01 Q1016
11-11-30 METAR EDDT 300050Z 20008KT CAVOK 03/01 Q1016
11-11-30 METAR EDDT 300120Z 19006KT CAVOK 03/01 Q1016
11-11-30 METAR EDDT 300150Z 20006KT CAVOK 03/01 Q1016
11-11-30 METAR EDDT 300220Z 20007KT CAVOK 03/01 Q1016
11-11-30 METAR EDDT 300250Z 20006KT 9999 BKN027 04/02 Q1017
11-11-30 METAR EDDT 300320Z 21008KT 9999 BKN042 06/03 Q1017
11-11-30 METAR EDDT 300350Z 21008KT 9999 BKN042 06/03 Q1017 NOSIG
11-11-30 METAR EDDT 300420Z 21006KT 9999 BKN048 06/03 Q1018 NOSIG
11-11-30 METAR EDDT 300450Z 23008KT 9999 SCT023 BKN120 07/04 Q1018 NOSIG
11-11-30 METAR EDDT 300520Z 23008KT 9999 FEW040 BKN100 07/04 Q1018 NOSIG
11-11-30 METAR EDDT 300550Z 25008KT 9999 BKN026 07/04 Q1019 NOSIG
11-11-30 METAR EDDT 300620Z 24010KT 9999 BKN022 08/05 Q1020 NOSIG
11-11-30 METAR EDDT 300650Z 25008KT 9999 BKN022 SCT110 07/04 Q1020 NOSIG
11-11-30 METAR EDDT 300720Z 24006KT 9999 SCT022 SCT110 BKN180 07/05 Q1021 NOSIG
11-11-30 METAR EDDT 300750Z 24008KT 9999 FEW022 SCT110 BKN180 07/05 Q1021 NOSIG
11-11-30 METAR EDDT 300820Z 25007KT 9999 FEW022 BKN180 07/05 Q1022 NOSIG
11-11-30 METAR EDDT 300850Z 26008KT 9999 FEW020 BKN180 07/05 Q1022 NOSIG
11-11-30 METAR EDDT 300920Z 26011KT 9999 FEW020 BKN180 09/06 Q1023 NOSIG
11-11-30 METAR EDDT 300950Z 26011KT 9999 FEW020 BKN180 09/05 Q1023 NOSIG
11-11-30 METAR EDDT 301020Z 27009KT 9999 FEW020 SCT180 10/05 Q1023 NOSIG
11-11-30 METAR EDDT 301050Z 27011KT 9999 FEW023 SCT180 10/04 Q1024 NOSIG
11-11-30 METAR EDDT 301120Z 28013KT 9999 FEW028 SCT180 10/03 Q1024 NOSIG
11-11-30 METAR EDDT 301150Z 27014KT 9999 FEW030 SCT180 10/03 Q1024 NOSIG
11-11-30 METAR EDDT 301220Z 28013KT 9999 FEW030 09/02 Q1024 NOSIG
11-11-30 METAR EDDT 301250Z 28013KT 9999 FEW030 10/02 Q1025 NOSIG
11-11-30 METAR EDDT 301320Z 27015KT 9999 FEW030 09/02 Q1025 NOSIG
11-11-30 METAR EDDT 301350Z 26009KT 9999 FEW028 BKN180 09/02 Q1025 NOSIG
11-11-30 METAR EDDT 301420Z 25008KT 9999 FEW028 BKN180 08/02 Q1025 NOSIG
11-11-30 METAR EDDT 301450Z 26007KT CAVOK 07/02 Q1025 NOSIG
11-11-30 METAR EDDT 301520Z 24006KT CAVOK 06/01 Q1025 NOSIG
11-11-30 METAR EDDT 301550Z 24006KT CAVOK 05/01 Q1026 NOSIG
11-11-30 METAR EDDT 301620Z 25006KT CAVOK 05/01 Q1026 NOSIG
11-11-30 METAR EDDT 301650Z 25005KT CAVOK 06/02 Q1026 NOSIG
11-11-30 METAR EDDT 301720Z 25007KT 9999 FEW035 05/02 Q1026 NOSIG
11-11-30 METAR EDDT 301750Z 25005KT 9999 FEW035 05/01 Q1027 NOSIG
11-11-30 METAR EDDT 301820Z 25007KT CAVOK 04/01 Q1027 NOSIG
11-11-30 METAR EDDT 301850Z 24004KT CAVOK 04/01 Q1027 NOSIG
11-11-30 METAR EDDT 301920Z 25006KT CAVOK 03/01 Q1027 NOSIG
11-11-30 METAR EDDT 301950Z 23003KT CAVOK 04/00 Q1027 NOSIG
11-11-30 METAR EDDT 302020Z 17003KT CAVOK 03/01 Q1027 NOSIG
11-11-30 METAR EDDT 302050Z 21004KT CAVOK 04/01 Q1027 NOSIG
11-11-30 METAR EDDT 302120Z 19003KT CAVOK 04/01 Q1027 NOSIG
11-11-30 METAR EDDT 302150Z 00000KT CAVOK 03/00 Q1027 NOSIG
11-11-30 METAR EDDT 302220Z 13002KT CAVOK 02/M00 Q1026
11-11-30 METAR EDDT 302250Z 16003KT CAVOK 02/00 Q1026
11-11-30 METAR EDDT 302320Z 15003KT CAVOK 02/00 Q1026
11-11-30 METAR EDDT 302350Z 17002KT CAVOK 02/00 Q1026
11-12-01 METAR EDDT 302350Z 17002KT CAVOK 02/00 Q1026
11-12-01 METAR EDDT 010020Z VRB02KT CAVOK 02/M00 Q1026
11-12-01 METAR EDDT 010050Z 14002KT CAVOK 01/M00 Q1025
11-12-01 METAR EDDT 010120Z 13002KT CAVOK 01/M00 Q1025
11-12-01 METAR EDDT 010150Z 16003KT CAVOK 01/M00 Q1025
11-12-01 METAR EDDT 010220Z 16003KT CAVOK 01/M01 Q1024
11-12-01 METAR EDDT 010250Z 15002KT CAVOK 01/M00 Q1024
11-12-01 METAR EDDT 010320Z 15006KT CAVOK 02/00 Q1023
11-12-01 METAR EDDT 010350Z 16006KT CAVOK 02/00 Q1023 NOSIG
11-12-01 METAR EDDT 010420Z 15006KT CAVOK 02/00 Q1022 NOSIG
11-12-01 METAR EDDT 010450Z 18007KT CAVOK 02/00 Q1023 NOSIG
11-12-01 METAR EDDT 010520Z 15005KT CAVOK 02/00 Q1022 NOSIG
11-12-01 METAR EDDT 010550Z 15008KT CAVOK 02/M00 Q1021 NOSIG
11-12-01 METAR EDDT 010620Z 16006KT CAVOK 02/M00 Q1021 NOSIG
11-12-01 METAR EDDT 010650Z 15008KT CAVOK 02/M00 Q1021 NOSIG
11-12-01 METAR EDDT 010720Z 17008KT CAVOK 02/M00 Q1020 NOSIG
11-12-01 METAR EDDT 010750Z 16009KT CAVOK 02/M00 Q1020 NOSIG
11-12-01 METAR EDDT 010820Z 17011KT CAVOK 02/M00 Q1019 NOSIG
11-12-01 METAR EDDT 010850Z 17009KT CAVOK 03/M00 Q1019 NOSIG
11-12-01 METAR EDDT 010920Z 18010KT CAVOK 03/M00 Q1019 NOSIG
11-12-01 METAR EDDT 010950Z 17012KT CAVOK 04/00 Q1018 NOSIG
11-12-01 METAR EDDT 011020Z 18011KT CAVOK 04/01 Q1017 NOSIG
11-12-01 METAR EDDT 011050Z 18012KT CAVOK 05/01 Q1017 NOSIG
11-12-01 METAR EDDT 011120Z 19011KT CAVOK 06/02 Q1016 NOSIG
11-12-01 METAR EDDT 011150Z 18012KT CAVOK 06/02 Q1015 NOSIG
11-12-01 METAR EDDT 011220Z 19012KT CAVOK 07/02 Q1015 NOSIG
11-12-01 METAR EDDT 011250Z 19009KT 9999 -RA SCT048 BKN070 07/03 Q1014 NOSIG
11-12-01 METAR EDDT 011320Z 20010KT CAVOK 07/03 Q1014 NOSIG
11-12-01 METAR EDDT 011350Z 20009KT 9999 BKN030 07/03 Q1014 NOSIG
11-12-01 METAR EDDT 011420Z 20010KT 9999 BKN027 07/04 Q1014 NOSIG
11-12-01 METAR EDDT 011450Z 20009KT 9999 BKN028 07/04 Q1013 NOSIG
11-12-01 METAR EDDT 011520Z 20007KT 9999 BKN029 07/04 Q1013 NOSIG
11-12-01 METAR EDDT 011550Z 20008KT 9999 BKN028 07/05 Q1013 NOSIG
11-12-01 METAR EDDT 011620Z 20008KT 9999 BKN027 07/05 Q1013 NOSIG
11-12-01 METAR EDDT 011650Z 20008KT 9999 BKN027 BKN033 08/05 Q1013 NOSIG
11-12-01 METAR EDDT 011720Z 20007KT 9999 FEW033 BKN120 07/05 Q1013 NOSIG
11-12-01 METAR EDDT 011750Z 20005KT 9999 FEW035 BKN120 07/04 Q1013 NOSIG
11-12-01 METAR EDDT 011820Z 20004KT 9999 FEW037 BKN160 07/05 Q1013 NOSIG
11-12-01 METAR EDDT 011850Z 20006KT 9999 BKN037 BKN160 08/05 Q1012 NOSIG
11-12-01 METAR EDDT 011920Z 19007KT 9999 BKN034 08/05 Q1012 NOSIG
11-12-01 METAR EDDT 011950Z 19006KT 9999 BKN030 08/05 Q1012 NOSIG
11-12-01 METAR EDDT 012020Z 19006KT 9999 BKN033 08/05 Q1012 NOSIG
11-12-01 METAR EDDT 012050Z 19007KT 9999 BKN044 BKN150 09/05 Q1011 NOSIG
11-12-01 METAR EDDT 012120Z 20007KT 9999 BKN037 09/05 Q1011 NOSIG
11-12-01 METAR EDDT 012150Z 19006KT 9999 BKN035 09/06 Q1011 NOSIG
11-12-01 METAR EDDT 012220Z 19006KT 9999 BKN038 09/06 Q1010
11-12-01 METAR EDDT 012250Z 19005KT 9999 SCT040 BKN100 09/06 Q1010
11-12-01 METAR EDDT 012320Z 19006KT 9999 SCT040 BKN100 10/06 Q1009
11-12-01 METAR EDDT 012350Z 20007KT 9999 -RA BKN038 10/06 Q1009
11-12-02 METAR EDDT 012350Z 20007KT 9999 -RA BKN038 10/06 Q1009
11-12-02 METAR EDDT 020020Z 18005KT 9999 -RA BKN038 09/07 Q1009
11-12-02 METAR EDDT 020050Z 18007KT 9999 -RA BKN040 09/07 Q1008
11-12-02 METAR EDDT 020120Z 19007KT 9999 -RA BKN040 09/07 Q1008
11-12-02 METAR EDDT 020150Z 19008KT 9999 SCT040 BKN060 09/07 Q1008
11-12-02 METAR EDDT 020220Z 19008KT 9999 SCT040 BKN060 09/07 Q1007
11-12-02 METAR EDDT 020250Z 18009KT 9999 -RA BKN038 BKN100 09/06 Q1006
11-12-02 METAR EDDT 020320Z 20008KT 9999 -RA BKN038 BKN100 09/06 Q1007
11-12-02 METAR EDDT 020350Z 19008KT 9999 -RA FEW038 BKN070 10/06 Q1006 NOSIG
11-12-02 METAR EDDT 020420Z 20009KT 9999 FEW038 BKN060 10/06 Q1006 NOSIG
11-12-02 METAR EDDT 020450Z 20008KT 9999 FEW038 BKN060 10/06 Q1005 NOSIG
11-12-02 METAR EDDT 020520Z 19010KT CAVOK 10/07 Q1005 NOSIG
11-12-02 METAR EDDT 020550Z 19010KT CAVOK 10/06 Q1004 NOSIG
11-12-02 METAR EDDT 020620Z 19012KT 9999 -RA NSC 11/07 Q1004 NOSIG
11-12-02 METAR EDDT 020650Z 20013KT CAVOK 11/06 Q1004 NOSIG
11-12-02 METAR EDDT 020720Z 21012KT CAVOK 12/06 Q1004 NOSIG
11-12-02 METAR EDDT 020750Z 21012KT CAVOK 12/05 Q1004 NOSIG
11-12-02 METAR EDDT 020820Z 22014KT CAVOK 12/05 Q1005 NOSIG
11-12-02 METAR EDDT 020850Z 22013KT CAVOK 12/05 Q1005 NOSIG
11-12-02 METAR EDDT 020920Z 22015G25KT CAVOK 12/05 Q1005 NOSIG
11-12-02 METAR EDDT 020950Z 22016KT 9999 SCT040 BKN060 12/05 Q1005 NOSIG
11-12-02 METAR EDDT 021020Z 22016KT 9999 BKN040 BKN060 13/05 Q1004 NOSIG
11-12-02 METAR EDDT 021050Z 22015KT 9999 BKN042 BKN060 13/05 Q1004 NOSIG
11-12-02 METAR EDDT 021120Z 23016KT 9999 BKN042 BKN050 13/06 Q1004 NOSIG
11-12-02 METAR EDDT 021150Z 22014KT 9999 BKN035 13/06 Q1004 BECMG 28015G25KT
11-12-02 METAR EDDT 021220Z 26020KT 9999 -RA FEW020 BKN025 11/07 Q1005 BECMG 30015G25KT
11-12-02 METAR EDDT 021250Z 28016KT 7000 -RA SCT011 SCT018 BKN030 09/07 Q1006 TEMPO RA BKN010
11-12-02 METAR EDDT 021320Z 29012G23KT 9000 RA FEW006 BKN008 BKN012 08/06 Q1007 NOSIG
11-12-02 METAR EDDT 021350Z 28011KT 9999 -RA SCT009 SCT015 BKN050 07/05 Q1007 RERA TEMPO BKN008
11-12-02 METAR EDDT 021420Z 29011KT 9999 -RA SCT008 BKN011 BKN015 06/05 Q1008 TEMPO
11-12-02 METAR EDDT 021450Z 29011KT 9999 -RA SCT008 BKN018 06/04 Q1009 TEMPO BKN008
11-12-02 METAR EDDT 021520Z 28012KT 9999 FEW008 BKN011 BKN025 06/04 Q1010 BECMG BKN015
11-12-02 METAR EDDT 021550Z 28009KT 9999 FEW012 BKN025 06/04 Q1010 NOSIG
11-12-02 METAR EDDT 021620Z 28009KT 9999 SCT012 BKN015 06/04 Q1011 NOSIG
11-12-02 METAR EDDT 021650Z 27010KT 9999 SCT012 BKN035 06/04 Q1011 NOSIG
11-12-02 METAR EDDT 021720Z 26010KT 9999 SCT011 SCT018 BKN035 06/04 Q1011 NOSIG
11-12-02 METAR EDDT 021750Z 26010KT 9999 FEW012 SCT025 BKN038 06/04 Q1011 NOSIG
11-12-02 METAR EDDT 021820Z 25009KT 9999 FEW012 BKN032 06/04 Q1012 NOSIG
11-12-02 METAR EDDT 021850Z 25009KT 9999 FEW014 BKN032 06/04 Q1012 NOSIG
11-12-02 METAR EDDT 021920Z 26011KT 9999 FEW014 BKN035 06/04 Q1013 NOSIG
11-12-02 METAR EDDT 021950Z 25011KT 9999 FEW014 BKN033 06/03 Q1013 NOSIG
11-12-02 METAR EDDT 022020Z 25009KT 9999 BKN034 05/03 Q1013 NOSIG
11-12-02 METAR EDDT 022050Z 24008KT 9999 BKN027 05/03 Q1013 NOSIG
11-12-02 METAR EDDT 022120Z 25010KT 9999 BKN029 06/03 Q1013 NOSIG
11-12-02 METAR EDDT 022150Z 24010KT 9999 FEW019 BKN025 06/03 Q1013 NOSIG
11-12-02 METAR EDDT 022220Z 24010KT 9999 BKN016 BKN035 06/03 Q1014 NOSIG
11-12-02 METAR EDDT 022250Z 24010KT 9999 FEW012 SCT015 BKN033 05/03 Q1014
11-12-02 METAR EDDT 022320Z 25010KT 9999 SCT030 BKN037 05/03 Q1014
11-12-02 METAR EDDT 022350Z 22007KT 9999 FEW014 BKN026 05/02 Q1014
11-12-03 METAR EDDT 022350Z 22007KT 9999 FEW014 BKN026 05/02 Q1014
11-12-03 METAR EDDT 030020Z 22007KT 9999 SCT029 04/02 Q1014
11-12-03 METAR EDDT 030050Z 23007KT 9999 SCT040 04/01 Q1014
11-12-03 METAR EDDT 030120Z 22007KT 9999 BKN040 04/02 Q1014
11-12-03 METAR EDDT 030150Z 22008KT 9999 FEW040 04/01 Q1013
11-12-03 METAR EDDT 030220Z 21007KT 9999 FEW040 04/01 Q1013
11-12-03 METAR EDDT 030250Z 21007KT 9999 FEW040 03/01 Q1013
11-12-03 METAR EDDT 030320Z 21007KT 9999 FEW040 03/01 Q1012
11-12-03 METAR EDDT 030350Z 20007KT 9999 FEW040 03/01 Q1012 NOSIG
11-12-03 METAR EDDT 030420Z 20009KT CAVOK 03/01 Q1012 NOSIG
11-12-03 METAR EDDT 030450Z 19008KT CAVOK 02/00 Q1011 NOSIG
11-12-03 METAR EDDT 030520Z 20008KT CAVOK 02/00 Q1011 NOSIG
11-12-03 METAR EDDT 030550Z 19009KT CAVOK 02/00 Q1010 NOSIG
11-12-03 METAR EDDT 030620Z 19009KT CAVOK 02/00 Q1010 NOSIG
11-12-03 METAR EDDT 030650Z 19010KT CAVOK 02/00 Q1010 NOSIG
11-12-03 METAR EDDT 030720Z 19010KT CAVOK 03/00 Q1009 NOSIG
11-12-03 METAR EDDT 030750Z 19011KT CAVOK 03/00 Q1008 NOSIG
11-12-03 METAR EDDT 030820Z 19014KT CAVOK 04/00 Q1008 NOSIG
11-12-03 METAR EDDT 030850Z 20014KT CAVOK 04/01 Q1007 TEMPO 22015G25KT
11-12-03 METAR EDDT 030920Z 20012KT CAVOK 05/01 Q1007 TEMPO 22015G25KT
11-12-03 METAR EDDT 030950Z 21014KT 9999 FEW030 BKN100 05/01 Q1006 TEMPO 22015G25KT
11-12-03 METAR EDDT 031020Z 21015G25KT 9999 FEW015 BKN100 BKN250 06/01 Q1005 TEMPO 22015G25KT
11-12-03 METAR EDDT 031050Z 21014KT 9999 FEW014 SCT100 BKN250 06/01 Q1004 TEMPO 22015G25KT RA
11-12-03 METAR EDDT 031120Z 21017KT 9999 FEW029 BKN110 06/01 Q1003 TEMPO 22015G25KT
11-12-03 METAR EDDT 031150Z 21019G29KT 9999 -RA SCT029 BKN120 06/01 Q1002 TEMPO RA
11-12-03 METAR EDDT 031220Z 21018KT 6000 RA BKN021 BKN120 06/03 Q1002 NOSIG
11-12-03 METAR EDDT 031250Z 21016G26KT 5000 RA FEW013 BKN019 05/03 Q1001 NOSIG
11-12-03 METAR EDDT 031320Z 21018KT 6000 RA FEW013 BKN018 05/03 Q1000 TEMPO 22020G30KT
11-12-03 METAR EDDT 031350Z 21014KT 7000 RA SCT013 BKN019 05/03 Q1000 TEMPO
11-12-03 METAR EDDT 031420Z 21015G25KT 7000 RA SCT013 BKN015 05/03 Q0999 TEMPO BKN013
11-12-03 METAR EDDT 031450Z 21016KT 8000 -RA SCT013 BKN017 06/04 Q0999 NOSIG
11-12-03 METAR EDDT 031520Z 22017G27KT 8000 -RA BKN014 06/04 Q0999 TEMPO SCT014
11-12-03 METAR EDDT 031550Z 22017KT 9999 SCT014 BKN018 06/04 Q0999 TEMPO 22020G30KT
11-12-03 METAR EDDT 031620Z 22016KT 9999 FEW014 SCT018 BKN031 06/04 Q0999 TEMPO
11-12-03 METAR EDDT 031650Z 23018G28KT 9999 -RA FEW014 SCT018 BKN029 07/04 Q0999
11-12-03 METAR EDDT 031720Z 23017KT 9999 -RA FEW014 SCT018 BKN026 07/04 Q0999 NOSIG
11-12-03 METAR EDDT 031750Z 23016KT 9999 FEW014 BKN029 07/04 Q0999 TEMPO 22020G30KT
11-12-03 METAR EDDT 031820Z 24015KT 9999 -RA FEW014 BKN038 07/04 Q0999 NOSIG
11-12-03 METAR EDDT 031850Z 24018KT 9999 SCT018 BKN025 08/04 Q0999 NOSIG
11-12-03 METAR EDDT 031920Z 24016KT 9999 -RA FEW020 BKN060 07/04 Q0999 NOSIG
11-12-03 METAR EDDT 031950Z 24015KT 9999 -RA BKN022 07/05 Q0999 NOSIG
11-12-03 METAR EDDT 032020Z 24016KT 9999 FEW020 SCT040 BKN060 08/04 Q0999 NOSIG
11-12-03 METAR EDDT 032050Z 25016KT 9999 SCT033 BKN040 07/04 Q0999 NOSIG
11-12-03 METAR EDDT 032120Z 24013KT 9999 FEW018 BKN050 07/04 Q1000 NOSIG
11-12-03 METAR EDDT 032150Z 25012KT 9999 FEW018 SCT050 07/04 Q1000 NOSIG
11-12-03 METAR EDDT 032220Z 25012KT 9999 SCT035 07/04 Q1000
11-12-03 METAR EDDT 032250Z 24011KT 9999 FEW025 06/04 Q1000
11-12-03 METAR EDDT 032320Z 23011KT 9999 SCT028 06/04 Q1000
11-12-03 METAR EDDT 032350Z 24013KT 9999 BKN028 07/04 Q1000
11-12-04 METAR EDDT 032350Z 24013KT 9999 BKN028 07/04 Q1000
11-12-04 METAR EDDT 040020Z 24012KT 9999 BKN027 07/04 Q1000
11-12-04 METAR EDDT 040050Z 23011KT 9999 FEW030 BKN250 07/03 Q0999
11-12-04 METAR EDDT 040120Z 22011KT 9999 FEW030 BKN250 06/03 Q1000
11-12-04 METAR EDDT 040150Z 22010KT 9999 FEW030 BKN250 06/03 Q0999
11-12-04 METAR EDDT 040220Z 22011KT CAVOK 06/03 Q0999
11-12-04 METAR EDDT 040250Z 22014KT CAVOK 07/03 Q0999
11-12-04 METAR EDDT 040320Z 22014KT CAVOK 07/03 Q0998
11-12-04 METAR EDDT 040350Z 22014KT 9999 FEW040 BKN050 07/03 Q0998 NOSIG
11-12-04 METAR EDDT 040420Z 22013KT CAVOK 07/03 Q0998 NOSIG
11-12-04 METAR EDDT 040450Z 22013KT CAVOK 07/03 Q0998 NOSIG
11-12-04 METAR EDDT 040520Z 21013KT 9999 -RA FEW008 SCT011 BKN030 07/04 Q0997 NOSIG
11-12-04 METAR EDDT 040550Z 21009KT 9999 BKN035 BKN060 07/04 Q0997 NOSIG
11-12-04 METAR EDDT 040620Z 22012KT 9999 FEW035 BKN060 08/04 Q0997 NOSIG
11-12-04 METAR EDDT 040650Z 22012KT 9999 FEW035 BKN060 08/04 Q0997 NOSIG
11-12-04 METAR EDDT 040720Z 22013KT 9999 FEW035 BKN060 BKN120 08/04 Q0997 NOSIG
11-12-04 METAR EDDT 040750Z 23013KT 9999 FEW035 SCT060 BKN120 08/04 Q0996 NOSIG
11-12-04 METAR EDDT 040820Z 23013KT 9999 FEW030 BKN070 BKN120 08/04 Q0996 NOSIG
11-12-04 METAR EDDT 040850Z 23013KT 9999 FEW025 BKN060 08/04 Q0996 NOSIG
11-12-04 METAR EDDT 040920Z 24017KT 9999 FEW024 SCT035 BKN060 08/04 Q0996 TEMPO
11-12-04 METAR EDDT 040950Z 25019KT 9999 FEW020 BKN025 BKN060 08/04 Q0996 TEMPO
11-12-04 METAR EDDT 041020Z 25016KT 9999 FEW020 BKN025 BKN060 08/04 Q0996 TEMPO 25015G28KT SHRA
11-12-04 METAR EDDT 041050Z 25019KT 9999 FEW020 SCT025 OVC200 09/04 Q0996 TEMPO 25015G25KT SHRA
11-12-04 METAR EDDT 041120Z 25019KT 9999 FEW020 SCT040 OVC200 09/03 Q0996 TEMPO
11-12-04 METAR EDDT 041150Z 26015KT 9999 SCT025 BKN130 08/03 Q0996 TEMPO 25015G28KT
11-12-04 METAR EDDT 041220Z 26014KT 9999 BKN025 SCT060 BKN130 07/04 Q0996 TEMPO
11-12-04 METAR EDDT 041250Z 26013KT 9999 SCT025 BKN140 BKN200 08/04 Q0997 NOSIG
11-12-04 METAR EDDT 041320Z 26014KT 9999 FEW025 BKN140 BKN200 08/03 Q0996 NOSIG
11-12-04 METAR EDDT 041350Z 25012KT 9999 FEW025 BKN090 BKN200 08/03 Q0996 NOSIG
11-12-04 METAR EDDT 041420Z 24011KT 9999 SCT025 SCT035 BKN090 08/03 Q0997 TEMPO
11-12-04 METAR EDDT 041450Z 27021G35KT 9999 -SHRA BKN025 BKN090 06/02 Q0997 RERA NOSIG
11-12-04 METAR EDDT 041520Z 26012KT 9999 SCT020 BKN040 06/03 Q0997 NOSIG
11-12-04 METAR EDDT 041550Z 26008KT 9999 FEW020 SCT040 BKN200 05/03 Q0997 NOSIG
11-12-04 METAR EDDT 041620Z 25008KT 9999 FEW020 BKN200 05/03 Q0997 NOSIG
11-12-04 METAR EDDT 041650Z 22007KT 9999 BKN040 BKN200 05/03 Q0996 NOSIG
11-12-04 METAR EDDT 041720Z 21007KT 9999 SCT040 BKN200 05/03 Q0996 NOSIG
11-12-04 METAR EDDT 041750Z 22009KT 9999 FEW037 BKN140 06/03 Q0996 NOSIG
11-12-04 METAR EDDT 041820Z 21006KT 9999 BKN034 BKN140 06/03 Q0996 NOSIG
11-12-04 METAR EDDT 041850Z 21008KT 9999 FEW034 SCT040 BKN140 06/03 Q0995 NOSIG
11-12-04 METAR EDDT 041920Z 21008KT 9999 FEW034 SCT040 BKN140 06/03 Q0995 NOSIG
11-12-04 METAR EDDT 041950Z 21009KT 9999 FEW034 BKN044 OVC140 06/03 Q0995 NOSIG
11-12-04 METAR EDDT 042020Z 21009KT 9999 FEW032 SCT041 OVC140 06/03 Q0994 NOSIG
11-12-04 METAR EDDT 042050Z 20008KT 9999 SCT034 06/03 Q0994 NOSIG
11-12-04 METAR EDDT 042120Z 21010KT 9999 SCT031 BKN080 06/03 Q0993 NOSIG
11-12-04 METAR EDDT 042150Z 20007KT 9999 FEW030 BKN060 06/03 Q0992 NOSIG
11-12-04 METAR EDDT 042220Z 20009KT 9999 FEW030 BKN050 06/03 Q0992
11-12-04 METAR EDDT 042250Z 21011KT 9000 -SHRA SCT010CB BKN030 06/04 Q0992 RERA
11-12-04 METAR EDDT 042320Z 20006KT 9000 -SHRA FEW020 SCT030 BKN060 06/04 Q0991 RERA
11-12-04 METAR EDDT 042350Z 21008KT 9999 BKN030 BKN050 06/04 Q0991
11-12-05 METAR EDDT 042350Z 21008KT 9999 BKN030 BKN050 06/04 Q0991
11-12-05 METAR EDDT 050020Z 22010KT 9999 -RA FEW030 BKN060 06/04 Q0990
11-12-05 METAR EDDT 050050Z 22008KT 9999 -RA FEW016 BKN030 BKN040 06/04 Q0990
11-12-05 METAR EDDT 050120Z 23007KT 9999 -RA FEW016 BKN030 06/03 Q0989
11-12-05 METAR EDDT 050150Z 22006KT 9999 -RA FEW020 BKN032 06/03 Q0989
11-12-05 METAR EDDT 050220Z 22008KT 9999 -RA FEW017 BKN032 06/03 Q0989
11-12-05 METAR EDDT 050250Z 30012KT 9000 R26R/0375VP2000D R26L/P2000N SHRA BKN009CB BKN019 05/03 Q0989
11-12-05 METAR EDDT 050320Z 31006KT 9999 -SHRA SCT009CB BKN017 05/03 Q0989
11-12-05 METAR EDDT 050350Z 26005KT 9999 -RA BKN017 BKN025 04/03 Q0989 RERA NOSIG
11-12-05 METAR EDDT 050420Z 27008KT 9999 SCT030 BKN110 04/03 Q0989 NOSIG
11-12-05 METAR EDDT 050450Z 27010KT 9999 BKN009 04/03 Q0990 TEMPO BKN012
11-12-05 METAR EDDT 050520Z 28010KT 9999 SCT006 BKN008 04/03 Q0990 TEMPO BKN010
11-12-05 METAR EDDT 050550Z 27010KT 9999 -RA SCT006 BKN008 04/03 Q0991 TEMPO BKN010
11-12-05 METAR EDDT 050620Z 27012KT 9999 FEW008 BKN011 04/03 Q0992 TEMPO BKN015
11-12-05 METAR EDDT 050650Z 28011KT 9999 SCT011 SCT100 BKN250 04/02 Q0992 NOSIG
11-12-05 METAR EDDT 050720Z 28012KT 9999 -SHRA BKN011 BKN025 04/02 Q0993 TEMPO BKN015
11-12-05 METAR EDDT 050750Z 28011KT 9999 SCT013 BKN025 05/02 Q0994 NOSIG
11-12-05 METAR EDDT 050820Z 27012KT 9999 FEW013 SCT025 04/02 Q0994 NOSIG
11-12-05 METAR EDDT 050850Z 27016KT 9999 FEW013 BKN017 04/02 Q0995 TEMPO 28015G25KT
11-12-05 METAR EDDT 050920Z 28013KT 9999 R26R/1400VP2000D R26L/P2000N FEW014 BKN017 04/01 Q0996 NOSIG
11-12-05 METAR EDDT 050950Z 27016KT 9999 FEW014 BKN016 04/01 Q0996 NOSIG
11-12-05 METAR EDDT 051020Z 27016KT 9999 FEW016 BKN020 04/01 Q0997 NOSIG
11-12-05 METAR EDDT 051050Z 27018KT 9999 SCT020 BKN040 04/00 Q0997 NOSIG
11-12-05 METAR EDDT 051120Z 27018KT 9999 SCT020 BKN033 04/00 Q0997 NOSIG
11-12-05 METAR EDDT 051150Z 27015KT 9999 SCT020 BKN025 04/M00 Q0998 NOSIG
11-12-05 METAR EDDT 051220Z 28014KT 9999 SCT021 BKN023 05/M00 Q0998 TEMPO 28015G25KT
11-12-05 METAR EDDT 051250Z 27018KT 9999 FEW021 BKN025 05/M00 Q0998 TEMPO
11-12-05 METAR EDDT 051320Z 28013KT 9999 -SHRA BKN022 BKN030 05/M00 Q0998 TEMPO
11-12-05 METAR EDDT 051350Z 27015KT 9999 FEW022 04/M00 Q0999 TEMPO 28015G25KT
11-12-05 METAR EDDT 051420Z 28015KT 9999 FEW022 04/M00 Q0999 TEMPO 28015G25KT
11-12-05 METAR EDDT 051450Z 27016KT 9999 FEW018 SCT055 04/00 Q1000 TEMPO 28015G25KT
11-12-05 METAR EDDT 051520Z 26017KT 9999 FEW018CB SCT200 03/M00 Q1000 TEMPO
11-12-05 METAR EDDT 051550Z 24010KT 9999 FEW025CB 02/M00 Q1000 TEMPO 28015G25KT
11-12-05 METAR EDDT 051650Z 24011KT 9999 FEW030 03/00 Q1000 NOSIG
11-12-05 METAR EDDT 051720Z 23011KT 9999 FEW030 SCT250 03/M00 Q1000 NOSIG
11-12-05 METAR EDDT 051750Z 23014KT CAVOK 03/M01 Q1000 NOSIG
11-12-05 METAR EDDT 051820Z 22015KT CAVOK 04/M01 Q1000 NOSIG
11-12-05 METAR EDDT 051850Z 23015KT 9999 BKN037 04/M01 Q1000 NOSIG
11-12-05 METAR EDDT 051920Z 23014KT 9999 BKN037 04/M01 Q1000 NOSIG
11-12-05 METAR EDDT 051950Z 23015KT 9999 BKN040 04/M01 Q1000 NOSIG
11-12-05 METAR EDDT 052020Z 23017KT 9999 BKN040 04/M01 Q1000 NOSIG
11-12-05 METAR EDDT 052050Z 23016KT 9999 SCT029 04/M01 Q1000 NOSIG
11-12-05 METAR EDDT 052120Z 24012KT 9999 SCT029 03/M01 Q1000 NOSIG
11-12-05 METAR EDDT 052150Z 22013KT 9999 SCT029 03/M01 Q1000 NOSIG
11-12-05 METAR EDDT 052220Z 24015G25KT 9999 SCT029 04/M01 Q1000
11-12-05 METAR EDDT 052250Z 24016KT 9999 SCT040 03/M01 Q1000
11-12-05 METAR EDDT 052320Z 24015KT 9999 SCT040 04/M01 Q1000
11-12-05 METAR EDDT 052350Z 24017G30KT 9999 BKN030 03/M01 Q1000
11-12-06 METAR EDDT 052350Z 24017G30KT 9999 BKN030 03/M01 Q1000
11-12-06 METAR EDDT 060020Z 25016KT 9999 BKN030 03/M01 Q1000
11-12-06 METAR EDDT 060050Z 25014KT 9999 BKN023 04/M01 Q1000
11-12-06 METAR EDDT 060120Z 25013KT 9999 BKN023 04/M00 Q1000
11-12-06 METAR EDDT 060150Z 26014KT 9999 -RA BKN023 04/M01 Q1000
11-12-06 METAR EDDT 060220Z 26017KT 9999 -RA BKN023 03/M01 Q1001
11-12-06 METAR EDDT 060250Z 25012KT 9999 -RA BKN023 03/M00 Q1000
11-12-06 METAR EDDT 060320Z 25014G24KT 9999 -RA BKN011 02/01 Q1001
11-12-06 METAR EDDT 060350Z 25012KT 9999 -RA BKN019 03/00 Q1001 NOSIG
11-12-06 METAR EDDT 060420Z 25014KT 9999 BKN015 03/00 Q1001 NOSIG
11-12-06 METAR EDDT 060450Z 25012KT 9999 -RA SCT010 BKN016 02/00 Q1001 TEMPO BKN010
11-12-06 METAR EDDT 060520Z 25012KT 9999 SCT010 BKN050 03/01 Q1001 TEMPO BKN010
11-12-06 METAR EDDT 060550Z 25010KT 9999 -RA SCT007 BKN015 03/01 Q1001 TEMPO BKN010
11-12-06 METAR EDDT 060620Z 25010KT 9999 -RA FEW008 BKN015 03/01 Q1001 TEMPO BKN010
11-12-06 METAR EDDT 060650Z 25013KT 9999 FEW010 BKN030 02/00 Q1002 NOSIG
11-12-06 METAR EDDT 060720Z 24012KT 9999 FEW012 SCT030 BKN120 02/M00 Q1002 NOSIG
11-12-06 METAR EDDT 060750Z 24011KT 9999 FEW012 SCT035 BKN130 03/00 Q1002 NOSIG
11-12-06 METAR EDDT 060820Z 23011KT 9999 SCT011 BKN025 03/01 Q1002 NOSIG
11-12-06 METAR EDDT 060850Z 23010KT 9999 FEW011 BKN250 03/00 Q1002 NOSIG
11-12-06 METAR EDDT 060920Z 24012KT 9999 SCT011 BKN025 03/01 Q1003 NOSIG
11-12-06 METAR EDDT 060950Z 23013KT 9999 -RA SCT012 BKN025 04/01 Q1002 NOSIG
11-12-06 METAR EDDT 061020Z 24015G27KT 9999 SCT013 BKN025 04/01 Q1002 NOSIG
11-12-06 METAR EDDT 061050Z 24017KT 9999 SCT015 BKN025 04/01 Q1002 NOSIG
11-12-06 METAR EDDT 061120Z 24013KT 9999 SCT016 BKN025 04/01 Q1002 NOSIG
11-12-06 METAR EDDT 061150Z 23013KT 9999 -SHRA SCT015 BKN022 04/01 Q1002 TEMPO
11-12-06 METAR EDDT 061220Z 24015KT 9999 -SHRA SCT015 SCT020 BKN030 04/01 Q1002 TEMPO 27015G25KT SHRAGS BKN012
11-12-06 METAR EDDT 061250Z 24013KT 9999 -SHRA SCT015 BKN025 BKN035 04/01 Q1002
11-12-06 METAR EDDT 061320Z 26011KT 9999 -SHRA SCT012 BKN025 04/02 Q1002 TEMPO 27015G25KT
11-12-06 METAR EDDT 061350Z 23014KT 9999 FEW015 SCT030 BKN060 05/01 Q1002 TEMPO
11-12-06 METAR EDDT 061420Z 24015KT 9999 FEW018 SCT030 BKN060 05/00 Q1002 TEMPO
11-12-06 METAR EDDT 061450Z 24016KT 9999 FEW018 BKN060 05/00 Q1002 TEMPO 27015G25KT
11-12-06 METAR EDDT 061520Z 23012KT 9999 -RA FEW012 SCT035 BKN050 05/M00 Q1002 TEMPO
11-12-06 METAR EDDT 061550Z 23013KT 9999 SCT035 BKN050 05/M00 Q1002 TEMPO
11-12-06 METAR EDDT 061650Z 23011KT 9999 -RA SCT028 BKN050 05/M01 Q1002 NOSIG
11-12-06 METAR EDDT 061720Z 23011KT 9999 BKN030 BKN050 05/M00 Q1002 NOSIG
11-12-06 METAR EDDT 061750Z 24016KT 9999 -RA BKN023 BKN040 05/M00 Q1002 NOSIG
11-12-06 METAR EDDT 061820Z 24015KT 9999 BKN022 BKN047 05/M00 Q1002 NOSIG
11-12-06 METAR EDDT 061850Z 23011KT 9999 FEW022 BKN026 04/M00 Q1002 NOSIG
11-12-06 METAR EDDT 061920Z 23011KT 9999 SCT022 BKN028 04/M00 Q1002 NOSIG
11-12-06 METAR EDDT 061950Z 24014KT 9999 BKN021 BKN028 05/00 Q1002 NOSIG
11-12-06 METAR EDDT 062020Z 24012G22KT 9999 BKN021 04/M00 Q1003 NOSIG
11-12-06 METAR EDDT 062050Z 24013KT 9999 SCT018 BKN048 04/00 Q1003 NOSIG
11-12-06 METAR EDDT 062120Z 24015KT 9999 SCT021 BKN038 04/00 Q1003 NOSIG
11-12-06 METAR EDDT 062150Z 25015KT 9999 FEW018 BKN033 04/00 Q1003 NOSIG
11-12-06 METAR EDDT 062220Z 24012KT 9999 FEW017 BKN031 04/00 Q1003
11-12-06 METAR EDDT 062250Z 24014KT 9999 SCT025 BKN130 04/00 Q1004
11-12-06 METAR EDDT 062320Z 25015KT 9999 -SHRA SCT013 BKN016 03/01 Q1004
11-12-06 METAR EDDT 062350Z 26014KT 9999 SCT012 BKN023 03/01 Q1004
11-12-07 METAR EDDT 062350Z 26014KT 9999 SCT012 BKN023 03/01 Q1004
11-12-07 METAR EDDT 070020Z 26012KT 9999 FEW012 02/M00 Q1004
11-12-07 METAR EDDT 070050Z 26010KT 9999 FEW013 02/M01 Q1004
11-12-07 METAR EDDT 070120Z 26010KT 9999 BKN016 02/M00 Q1005
11-12-07 METAR EDDT 070150Z 25013KT 9999 FEW013 BKN018 03/00 Q1005
11-12-07 METAR EDDT 070220Z 25013KT 9999 BKN014 BKN017 03/M00 Q1004
11-12-07 METAR EDDT 070250Z 24011KT 9999 SCT011 02/M01 Q1004
11-12-07 METAR EDDT 070320Z 23008KT 9999 FEW011 01/M01 Q1004
11-12-07 METAR EDDT 070350Z 23009KT 9999 FEW038 02/M01 Q1004 NOSIG
11-12-07 METAR EDDT 070420Z 23009KT CAVOK 02/M01 Q1004 NOSIG
11-12-07 METAR EDDT 070450Z 23008KT CAVOK 02/M01 Q1004 NOSIG
11-12-07 METAR EDDT 070520Z 21008KT CAVOK 02/M01 Q1003 NOSIG
11-12-07 METAR EDDT 070550Z 19008KT CAVOK 01/M01 Q1003 NOSIG
11-12-07 METAR EDDT 070620Z 21008KT CAVOK 01/M01 Q1003 NOSIG
11-12-07 METAR EDDT 070650Z 19006KT CAVOK 01/M01 Q1003 TEMPO 2500 SNRA BKN007
11-12-07 METAR EDDT 070720Z 19007KT 9999 SCT030 SCT120 BKN250 01/M01 Q1002 TEMPO 2500 SNRA BKN007
11-12-07 METAR EDDT 070750Z 19008KT 9999 -SNRA FEW011 SCT030 02/M01 Q1002 TEMPO 2500 SNRA BKN007
11-12-07 METAR EDDT 070820Z 20010KT 9999 -SNRA FEW010 BKN030 02/M00 Q1002 TEMPO 2500
11-12-07 METAR EDDT 070850Z 19009KT 9999 -RA FEW009 BKN035 03/00 Q1001 TEMPO BKN005
11-12-07 METAR EDDT 070920Z 20010KT 9999 -RA FEW010 BKN030 03/01 Q1000 TEMPO BKN012
11-12-07 METAR EDDT 070950Z 19012KT 9999 BKN010 03/01 Q0999 TEMPO SCT015
11-12-07 METAR EDDT 071020Z 19012KT 9999 BKN010 04/01 Q0999 TEMPO SCT015
11-12-07 METAR EDDT 071050Z 19010KT 9999 BKN012 04/01 Q0998 TEMPO SCT015
11-12-07 METAR EDDT 071120Z 18011KT 9999 -RA FEW012 BKN014 04/01 Q0997 BECMG RA
11-12-07 METAR EDDT 071150Z 18011KT 9999 -RA SCT013 BKN027 04/01 Q0996 BECMG RA BKN010
11-12-07 METAR EDDT 071220Z 17010KT 9999 -RA FEW013 BKN015 BKN030 04/02 Q0995 BECMG RA BKN010
11-12-07 METAR EDDT 071250Z 18011KT 9999 RA SCT013 BKN020 04/02 Q0994 BECMG BKN013
11-12-07 METAR EDDT 071320Z 18011KT 7000 RA BKN012 04/02 Q0993 TEMPO 4000 RA
11-12-07 METAR EDDT 071350Z 20013KT 6000 +RA FEW008 BKN010 03/02 Q0993 TEMPO RA BKN008
11-12-07 METAR EDDT 071420Z 19012KT 7000 RA FEW008 BKN010 04/02 Q0992 RERA TEMPO
11-12-07 METAR EDDT 071450Z 21016KT 9999 -RA FEW008 BKN010 05/03 Q0991 RERA TEMPO
11-12-07 METAR EDDT 071520Z 26020KT 9999 -RA BKN012 05/03 Q0992 TEMPO BKN015
11-12-07 METAR EDDT 071550Z 28017KT 9999 -RA FEW009 BKN012 05/03 Q0992 RERA TEMPO 26020G30KT BKN015
11-12-07 METAR EDDT 071620Z 27018G30KT 9999 FEW012 BKN015 05/03 Q0993 NOSIG
11-12-07 METAR EDDT 071650Z 28015KT 9999 FEW015 BKN018 05/02 Q0994 TEMPO 26020G30KT
11-12-07 METAR EDDT 071720Z 27018KT 9999 FEW017 BKN020 05/02 Q0994 TEMPO 26020G30KT
11-12-07 METAR EDDT 071750Z 28013KT 9999 -RA FEW008 BKN016 05/03 Q0994 TEMPO 26020G30KT
11-12-07 METAR EDDT 071820Z 26017KT 9999 -RA FEW010 BKN016 BKN020 05/02 Q0995 TEMPO 26015G25KT
11-12-07 METAR EDDT 071850Z 27019KT 9999 SCT018 BKN023 05/02 Q0995 TEMPO 26015G25KT
11-12-07 METAR EDDT 071920Z 27016KT 9999 -RA BKN020 05/02 Q0995 26015G25KT
11-12-07 METAR EDDT 071950Z 26018KT 9999 -RA SCT020 BKN023 05/02 Q0995 TEMPO
11-12-07 METAR EDDT 072020Z 26021KT 9999 -SHRA SCT014 BKN020 05/02 Q0996 TEMPO 26015G25KT SHRA BKN014
11-12-07 METAR EDDT 072050Z 27015KT 9999 -SHRA SCT016 BKN020 04/03 Q0996 RERA TEMPO
11-12-07 METAR EDDT 072120Z 27017KT 9999 -RA FEW006 BKN018 05/02 Q0996 TEMPO
11-12-07 METAR EDDT 072150Z 27019G30KT 9999 -RA FEW006 BKN015 05/02 Q0996 NOSIG
11-12-07 METAR EDDT 072220Z 27021G32KT 9999 RA BKN013 BKN015 04/02 Q0997
11-12-07 METAR EDDT 072250Z 28017KT 8000 RA BKN010 BKN012 03/01 Q0998
11-12-07 METAR EDDT 072320Z 28016KT 8000 RA FEW006 BKN009 03/02 Q0998
11-12-07 METAR EDDT 072350Z 29015G25KT 9999 -RA FEW007 BKN010 04/02 Q0999
11-12-08 METAR EDDT 072350Z 29015G25KT 9999 -RA FEW007 BKN010 04/02 Q0999
11-12-08 METAR EDDT 080020Z 28014KT 9999 -RA FEW006 BKN010 04/02 Q1000
11-12-08 METAR EDDT 080050Z 28015KT 9000 RA FEW007 BKN011 04/02 Q1000
11-12-08 METAR EDDT 080120Z 28017KT 9000 -RA FEW007 BKN010 04/02 Q1001 RERA
11-12-08 METAR EDDT 080150Z 29013KT 9999 -RA SCT008 BKN012 04/02 Q1002
11-12-08 METAR EDDT 080220Z 29015KT 9999 -RA FEW008 BKN012 04/02 Q1003
11-12-08 METAR EDDT 080250Z 29013KT 9999 -RA FEW008 BKN012 04/03 Q1003
11-12-08 METAR EDDT 080320Z 28014KT 9999 -RA FEW008 BKN012 05/03 Q1004
11-12-08 METAR EDDT 080350Z 28015KT 9999 -RA FEW010 BKN014 05/03 Q1005 TEMPO SCT014
11-12-08 METAR EDDT 080420Z 28014G24KT 9999 -RA FEW011 BKN014 05/03 Q1005 TEMPO SCT014
11-12-08 METAR EDDT 080450Z 29013KT 9999 -RA FEW009 BKN011 05/03 Q1006 TEMPO BKN009
11-12-08 METAR EDDT 080520Z 29011KT 9999 -RA BKN008 04/03 Q1007 NOSIG
11-12-08 METAR EDDT 080550Z 30011G21KT 9999 SCT008 BKN011 05/03 Q1009 TEMPO BKN008
11-12-08 METAR EDDT 080620Z 30013G25KT 9999 SCT010 BKN020 05/03 Q1010 NOSIG
11-12-08 METAR EDDT 080650Z 31009KT 9999 FEW010 BKN020 05/02 Q1011 NOSIG
11-12-08 METAR EDDT 080720Z 30010KT 9999 BKN013 05/02 Q1012 BECMG BKN015
11-12-08 METAR EDDT 080750Z 29011KT 9999 SCT012 BKN035 05/02 Q1013 TEMPO BKN014
11-12-08 METAR EDDT 080820Z 29011KT 9999 SCT012 BKN035 05/02 Q1014 TEMPO BKN014
11-12-08 METAR EDDT 080850Z 30009KT 9999 FEW014 BKN030 05/02 Q1015 TEMPO BKN014
11-12-08 METAR EDDT 080920Z 28012KT 9999 FEW015 BKN030 05/01 Q1015 TEMPO BKN014
11-12-08 METAR EDDT 080950Z 28011KT 9999 FEW015 BKN030 05/02 Q1016 NOSIG
11-12-08 METAR EDDT 081020Z 29011KT 9999 FEW015 05/01 Q1016 NOSIG
11-12-08 METAR EDDT 081050Z 29007KT 9999 BKN025 05/01 Q1017 NOSIG
11-12-08 METAR EDDT 081120Z 26009KT 9999 BKN016 05/02 Q1016 NOSIG
11-12-08 METAR EDDT 081150Z 26010KT 9999 BKN016 06/02 Q1016 NOSIG
11-12-08 METAR EDDT 081220Z 26009KT 9999 BKN016 06/03 Q1017 NOSIG
11-12-08 METAR EDDT 081250Z 25011KT 9999 BKN017 06/03 Q1017 NOSIG
11-12-08 METAR EDDT 081320Z 25009KT 9999 BKN020 06/02 Q1017 NOSIG
11-12-08 METAR EDDT 081350Z 25012KT 9999 BKN025 06/02 Q1017 NOSIG
11-12-08 METAR EDDT 081420Z 24011KT 9999 BKN025 06/02 Q1017 NOSIG
11-12-08 METAR EDDT 081450Z 21009KT 9999 FEW021 BKN150 06/02 Q1016 NOSIG
11-12-08 METAR EDDT 081520Z 21009KT 9999 FEW021 BKN150 06/02 Q1016 NOSIG
11-12-08 METAR EDDT 081550Z 21008KT CAVOK 05/01 Q1015 NOSIG
11-12-08 METAR EDDT 081620Z 21010KT CAVOK 05/01 Q1015 NOSIG
11-12-08 METAR EDDT 081650Z 21010KT CAVOK 05/01 Q1014 NOSIG
11-12-08 METAR EDDT 081720Z 21011KT CAVOK 05/01 Q1014 NOSIG
11-12-08 METAR EDDT 081750Z 20012KT CAVOK 05/00 Q1013 NOSIG
11-12-08 METAR EDDT 081820Z 20011KT CAVOK 05/00 Q1012 NOSIG
11-12-08 METAR EDDT 081850Z 19010KT 9999 -RA FEW030 BKN039 05/01 Q1012 NOSIG
11-12-08 METAR EDDT 081920Z 19012KT 9999 -RA FEW025 BKN035 05/01 Q1011 NOSIG
11-12-08 METAR EDDT 081950Z 19012KT 9999 -RA FEW020 BKN030 BKN045 05/01 Q1010 NOSIG
11-12-08 METAR EDDT 082020Z 19014KT 9999 -RA FEW020 BKN029 05/02 Q1009 BECMG 19015G30KT
11-12-08 METAR EDDT 082050Z 20016KT 9999 RA FEW032 BKN040 05/02 Q1008 TEMPO NSW
11-12-08 METAR EDDT 082120Z 19014KT 9999 RA FEW020 BKN035 05/02 Q1008 TEMPO NSW
11-12-08 METAR EDDT 082150Z 20015KT 9999 -RA FEW030 BKN040 05/02 Q1007 RERA NOSIG
11-12-08 METAR EDDT 082220Z 19014KT 9999 -RA FEW019 SCT030 BKN045 06/02 Q1006 RERA
11-12-08 METAR EDDT 082250Z 20014KT 9999 RA FEW019 BKN035 05/03 Q1005
11-12-08 METAR EDDT 082320Z 20014KT 9999 FEW020 BKN033 06/03 Q1004 RERA
11-12-08 METAR EDDT 082350Z 20015KT 9999 BKN039 06/03 Q1003
11-12-09 METAR EDDT 082350Z 20015KT 9999 BKN039 06/03 Q1003
11-12-09 METAR EDDT 090020Z 20014G24KT 9999 BKN039 06/03 Q1003
11-12-09 METAR EDDT 090050Z 20017KT 9999 FEW020 BKN042 07/03 Q1002
11-12-09 METAR EDDT 090120Z 20016KT 9999 SCT021 BKN040 07/03 Q1001
11-12-09 METAR EDDT 090150Z 20017G27KT 9999 -RA BKN020 07/04 Q1001
11-12-09 METAR EDDT 090220Z 20020G30KT 9999 -RA SCT017 BKN025 07/04 Q1000
11-12-09 METAR EDDT 090250Z 21017G27KT 9999 BKN020 BKN024 08/04 Q0999
11-12-09 METAR EDDT 090320Z 21018KT 9999 BKN020 08/04 Q0999
11-12-09 METAR EDDT 090350Z 21018G29KT 9999 -RA SCT023 BKN040 08/05 Q0998 BECMG RA
11-12-09 METAR EDDT 090420Z 21018G29KT 9999 -RA BKN021 BKN025 09/05 Q0999 BECMG RA
11-12-09 METAR EDDT 090450Z 26015KT 8000 -RA FEW006 SCT014 BKN040 07/05 Q1000 NOSIG
11-12-09 METAR EDDT 090520Z 26021G32KT 9000 RA FEW006 SCT014 BKN030 07/04 Q1000 BECMG NSW
11-12-09 METAR EDDT 090550Z 25017KT 9999 FEW019 SCT040 BKN100 06/03 Q1000 RERA NOSIG
11-12-09 METAR EDDT 090620Z 25015KT 9999 FEW018 BKN060 06/03 Q1000 NOSIG
11-12-09 METAR EDDT 090650Z 25014KT 9999 FEW018 BKN035 BKN110 06/03 Q1001 NOSIG
11-12-09 METAR EDDT 090720Z 25014KT 9999 FEW018 SCT040 BKN120 06/02 Q1001 NOSIG
11-12-09 METAR EDDT 090750Z 26016KT 9999 FEW018 BKN120 06/02 Q1001 TEMPO 25015G28KT
11-12-09 METAR EDDT 090820Z 25015KT 9999 FEW018 BKN120 06/02 Q1001 TEMPO 25015G28KT
11-12-09 METAR EDDT 090850Z 25014KT 9999 FEW018 06/02 Q1002 TEMPO 25015G28KT
11-12-09 METAR EDDT 090920Z 25015KT 9999 BKN044 06/02 Q1002 TEMPO 25015G28KT
11-12-09 METAR EDDT 090950Z 26018G28KT 9999 FEW025 SCT044 07/02 Q1003 NOSIG
11-12-09 METAR EDDT 091020Z 26020G30KT 9999 FEW030 07/M00 Q1003 NOSIG
11-12-09 METAR EDDT 091050Z 24019KT 9999 FEW030 07/M01 Q1002 TEMPO 25015G30KT
11-12-09 METAR EDDT 091120Z 25021KT 9999 FEW030 07/M01 Q1003 TEMPO 25015G30KT
11-12-09 METAR EDDT 091150Z 25021KT 9999 FEW035 07/M01 Q1003 TEMPO 25015G30KT
11-12-09 METAR EDDT 091220Z 25020KT 9999 FEW035 BKN044 08/M01 Q1003 TEMPO 25015G30KT
11-12-09 METAR EDDT 091250Z 25018KT 9999 FEW035 BKN044 07/M01 Q1003 TEMPO
11-12-09 METAR EDDT 091320Z 24015KT 9999 FEW035 BKN044 07/M01 Q1004 TEMPO
11-12-09 METAR EDDT 091350Z 24014KT 9999 FEW035 BKN060 07/M01 Q1004 TEMPO
11-12-09 METAR EDDT 091420Z 24017KT 9999 BKN044 07/M02 Q1004 NOSIG
11-12-09 METAR EDDT 091450Z 24016KT 9999 FEW035 BKN060 07/M01 Q1004 NOSIG
11-12-09 METAR EDDT 091520Z 24017KT 9999 FEW035 BKN050 07/M02 Q1004 NOSIG
11-12-09 METAR EDDT 091550Z 24018KT 9999 FEW040 BKN060 07/M02 Q1005 NOSIG
11-12-09 METAR EDDT 091620Z 24014KT CAVOK 06/M02 Q1005 NOSIG
11-12-09 METAR EDDT 091650Z 24014G24KT CAVOK 06/M02 Q1005 NOSIG
11-12-09 METAR EDDT 091720Z 24016KT CAVOK 06/M02 Q1005 NOSIG
11-12-09 METAR EDDT 091750Z 24018KT CAVOK 06/M02 Q1005 NOSIG
11-12-09 METAR EDDT 091820Z 24018KT CAVOK 06/M02 Q1005 NOSIG
11-12-09 METAR EDDT 091850Z 24019G29KT CAVOK 05/M02 Q1005 NOSIG
11-12-09 METAR EDDT 091920Z 24015KT CAVOK 05/M03 Q1005 NOSIG
11-12-09 METAR EDDT 091950Z 24018G29KT CAVOK 05/M02 Q1005 NOSIG
11-12-09 METAR EDDT 092020Z 25017KT CAVOK 04/M02 Q1005 TEMPO 26015G25KT
11-12-09 METAR EDDT 092050Z 24017KT 9999 FEW040 04/M02 Q1006 TEMPO 26015G25KT
11-12-09 METAR EDDT 092120Z 25015KT 9999 FEW035 04/M02 Q1006 TEMPO 26015G25KT
11-12-09 METAR EDDT 092150Z 24014KT CAVOK 04/M02 Q1006 NOSIG
11-12-09 METAR EDDT 092220Z 24014KT 9999 FEW031 BKN050 04/M02 Q1006
11-12-09 METAR EDDT 092250Z 24016KT 9999 BKN032 04/M02 Q1006
11-12-09 METAR EDDT 092320Z 24016KT 9999 BKN030 04/M02 Q1006
11-12-09 METAR EDDT 092350Z 24015KT 9999 BKN030 04/M02 Q1006
11-12-10 METAR EDDT 092350Z 24015KT 9999 BKN030 04/M02 Q1006
11-12-10 METAR EDDT 100020Z 26016KT 9999 BKN030 04/M01 Q1006
11-12-10 METAR EDDT 100050Z 25015KT 9999 BKN025 04/M01 Q1007
11-12-10 METAR EDDT 100120Z 26012KT 9999 BKN025 04/M01 Q1007
11-12-10 METAR EDDT 100150Z 25013KT 9999 BKN024 04/M01 Q1007
11-12-10 METAR EDDT 100220Z 24012KT 9999 BKN020 03/M01 Q1007
11-12-10 METAR EDDT 100250Z 25012KT 9999 -RA SCT012 BKN015 03/01 Q1007
11-12-10 METAR EDDT 100320Z 24014KT 9999 -RA BKN011 02/00 Q1007
11-12-10 METAR EDDT 100350Z 25010KT 9999 -RADZ BKN011 02/00 Q1007 BECMG BKN015
11-12-10 METAR EDDT 100420Z 25010KT 9999 -RADZ BKN011 02/01 Q1008 BECMG BKN015
11-12-10 METAR EDDT 100450Z 24011KT 9999 -RA SCT008 BKN011 02/01 Q1008 BECMG BKN015
11-12-10 METAR EDDT 100520Z 24013KT 9999 FEW008 BKN014 03/01 Q1007 BECMG BKN015
11-12-10 METAR EDDT 100550Z 24012KT 9999 SCT010 BKN060 03/01 Q1008 TEMPO BKN012
11-12-10 METAR EDDT 100620Z 25011KT 9999 SCT013 BKN017 02/01 Q1008 TEMPO BKN012
11-12-10 METAR EDDT 100650Z 25009KT 9999 FEW011 BKN013 BKN016 02/00 Q1008 BECMG BKN015
11-12-10 METAR EDDT 100720Z 27007KT 9999 BKN012 03/01 Q1009 BECMG BKN015
11-12-10 METAR EDDT 100750Z 25010KT 9999 SCT012 BKN017 BKN034 03/01 Q1009 NOSIG
11-12-10 METAR EDDT 100850Z 25012KT 9999 FEW015 SCT029 03/01 Q1009 NOSIG
11-12-10 METAR EDDT 100920Z 24012KT 9999 FEW015 BKN065 04/00 Q1009 NOSIG
11-12-10 METAR EDDT 100950Z 25012KT 9999 SCT017 BKN060 04/00 Q1009 NOSIG
11-12-10 METAR EDDT 101020Z 25014KT 9999 SCT017 SCT060 04/01 Q1009 NOSIG
11-12-10 METAR EDDT 101120Z 27015KT 9999 FEW018 BKN021 04/M00 Q1009 NOSIG
11-12-10 METAR EDDT 101150Z 26013KT 9999 FEW019 BKN023 05/M00 Q1009 NOSIG
11-12-10 METAR EDDT 101220Z 26016KT 9999 SCT023 BKN030 04/M01 Q1010 TEMPO
11-12-10 METAR EDDT 101250Z 26013KT 9999 FEW025 SCT060 04/M01 Q1009 TEMPO
11-12-10 METAR EDDT 101320Z 27010KT 9999 FEW025 BKN130 04/M01 Q1009 TEMPO
11-12-10 METAR EDDT 101350Z 27013KT 9999 FEW023 BKN040 BKN130 05/M01 Q1010 TEMPO
11-12-10 METAR EDDT 101420Z 27011KT 9999 FEW023 BKN040 BKN130 04/M01 Q1010 NOSIG
11-12-10 METAR EDDT 101450Z 25011KT 9999 FEW025 SCT036 BKN070 04/M01 Q1010 NOSIG
11-12-10 METAR EDDT 101520Z 24012KT 9999 FEW025 SCT033 BKN065 04/M01 Q1010 NOSIG
11-12-10 METAR EDDT 101550Z 25011KT CAVOK 04/M01 Q1010 NOSIG
11-12-10 METAR EDDT 101620Z 24013KT CAVOK 04/M01 Q1010 NOSIG
11-12-10 METAR EDDT 101650Z 25016KT CAVOK 04/M01 Q1010 NOSIG
11-12-10 METAR EDDT 101720Z 25014KT CAVOK 03/M01 Q1010 NOSIG
11-12-10 METAR EDDT 101750Z 25012KT CAVOK 03/M01 Q1011 NOSIG
11-12-10 METAR EDDT 101820Z 24013KT 9999 FEW030 03/M01 Q1011 NOSIG
11-12-10 METAR EDDT 101850Z 24013KT CAVOK 03/M01 Q1011 NOSIG
11-12-10 METAR EDDT 101920Z 25013KT CAVOK 03/M01 Q1011 NOSIG
11-12-10 METAR EDDT 101950Z 25014KT CAVOK 03/M01 Q1011 NOSIG
11-12-10 METAR EDDT 102020Z 24013KT 9999 BKN046 03/M01 Q1012 NOSIG
11-12-10 METAR EDDT 102050Z 25014KT 9999 BKN044 03/M01 Q1012 NOSIG
11-12-10 METAR EDDT 102120Z 25013KT 9999 BKN040 03/M01 Q1012 NOSIG
11-12-10 METAR EDDT 102150Z 25014KT 9999 FEW037 BKN044 03/M01 Q1013 NOSIG
11-12-10 METAR EDDT 102220Z 25014KT 9999 BKN040 03/M01 Q1013
11-12-10 METAR EDDT 102250Z 26014KT 9999 FEW033 BKN045 03/M01 Q1013
11-12-10 METAR EDDT 102320Z 26013KT 9999 BKN028 03/M01 Q1013
11-12-10 METAR EDDT 102350Z 25012KT 9999 BKN035 03/M01 Q1013
11-12-11 METAR EDDT 102350Z 25012KT 9999 BKN035 03/M01 Q1013
11-12-11 METAR EDDT 110020Z 25011KT 9999 FEW028 BKN040 03/M01 Q1013
11-12-11 METAR EDDT 110050Z 25010KT 9999 SCT040 02/M01 Q1013
11-12-11 METAR EDDT 110120Z 25010KT 9999 FEW040 02/M01 Q1014
11-12-11 METAR EDDT 110150Z 25008KT 9999 SCT044 02/M02 Q1014
11-12-11 METAR EDDT 110220Z 25010KT 9999 FEW044 01/M02 Q1014
11-12-11 METAR EDDT 110250Z 24010KT 9999 FEW044 02/M02 Q1014
11-12-11 METAR EDDT 110320Z 24011KT CAVOK 02/M01 Q1014
11-12-11 METAR EDDT 110350Z 24011KT 9999 SCT033 02/M01 Q1014 NOSIG
11-12-11 METAR EDDT 110420Z 24010KT 9999 SCT035 02/M02 Q1014 NOSIG
11-12-11 METAR EDDT 110450Z 24009KT CAVOK 01/M02 Q1015 NOSIG
11-12-11 METAR EDDT 110520Z 24007KT 9999 SCT025 SCT090 01/M02 Q1015 NOSIG
11-12-11 METAR EDDT 110550Z 23007KT 9999 SCT023 BKN080 02/M02 Q1015 NOSIG
11-12-11 METAR EDDT 110620Z 22006KT 9999 BKN021 BKN080 01/M02 Q1015 NOSIG
11-12-11 METAR EDDT 110650Z 23007KT 9999 SCT020 01/M02 Q1015 NOSIG
11-12-11 METAR EDDT 110720Z 21006KT 9999 BKN020 01/M02 Q1016 NOSIG
11-12-11 METAR EDDT 110750Z 22006KT 9999 BKN021 01/M02 Q1016 NOSIG
11-12-11 METAR EDDT 110820Z 22006KT 9999 BKN020 02/M02 Q1016 NOSIG
11-12-11 METAR EDDT 110850Z 22007KT 9999 BKN020 02/M01 Q1016 NOSIG
11-12-11 METAR EDDT 110920Z 23010KT 9999 BKN018 03/M02 Q1016 NOSIG
11-12-11 METAR EDDT 110950Z 24008KT 9999 FEW018 SCT250 04/M01 Q1017 NOSIG
11-12-11 METAR EDDT 111020Z 23008KT 9999 FEW018 BKN250 04/M01 Q1017 NOSIG
11-12-11 METAR EDDT 111050Z 24009KT 9999 BKN022 BKN250 04/M01 Q1017 NOSIG
11-12-11 METAR EDDT 111120Z 24008KT 9999 BKN022 04/M01 Q1016 NOSIG
11-12-11 METAR EDDT 111150Z 24010KT 9999 FEW022 BKN250 05/M01 Q1016 NOSIG
11-12-11 METAR EDDT 111220Z 22008KT CAVOK 05/M01 Q1016 NOSIG
11-12-11 METAR EDDT 111250Z 22009KT 9999 FEW022 BKN230 04/M01 Q1016 NOSIG
11-12-11 METAR EDDT 111320Z 19007KT 9999 FEW022 BKN230 04/M01 Q1016 NOSIG
11-12-11 METAR EDDT 111350Z 19007KT CAVOK 04/M02 Q1016 NOSIG
11-12-11 METAR EDDT 111420Z 19005KT CAVOK 03/M02 Q1016 NOSIG
11-12-11 METAR EDDT 111450Z 19006KT CAVOK 03/M02 Q1016 NOSIG
11-12-11 METAR EDDT 111520Z 19006KT CAVOK 03/M02 Q1016 NOSIG
11-12-11 METAR EDDT 111550Z 19006KT CAVOK 03/M01 Q1016 NOSIG
11-12-11 METAR EDDT 111620Z 18006KT CAVOK 02/M01 Q1016 NOSIG
11-12-11 METAR EDDT 111650Z 19007KT CAVOK 02/M02 Q1015 NOSIG
11-12-11 METAR EDDT 111720Z 18009KT CAVOK 02/M02 Q1015 NOSIG
11-12-11 METAR EDDT 111750Z 18008KT CAVOK 02/M02 Q1015 NOSIG
11-12-11 METAR EDDT 111820Z 19008KT CAVOK 02/M02 Q1015 NOSIG
11-12-11 METAR EDDT 111850Z 18008KT CAVOK 02/M02 Q1015 NOSIG
11-12-11 METAR EDDT 111920Z 18009KT CAVOK 02/M02 Q1015 NOSIG
11-12-11 METAR EDDT 111950Z 18010KT CAVOK 02/M02 Q1014 NOSIG
11-12-11 METAR EDDT 112020Z 17009KT CAVOK 02/M02 Q1014 NOSIG
11-12-11 METAR EDDT 112050Z 18010KT CAVOK 02/M02 Q1014 NOSIG
11-12-11 METAR EDDT 112120Z 18006KT CAVOK 01/M02 Q1014 NOSIG
11-12-11 METAR EDDT 112150Z 17008KT CAVOK 01/M02 Q1013 NOSIG
11-12-11 METAR EDDT 112220Z 18008KT CAVOK 01/M02 Q1013
11-12-11 METAR EDDT 112250Z 18008KT CAVOK 01/M03 Q1013
11-12-11 METAR EDDT 112320Z 18007KT CAVOK 01/M03 Q1013
11-12-11 METAR EDDT 112350Z 17007KT CAVOK 01/M03 Q1012
11-12-12 METAR EDDT 112350Z 17007KT CAVOK 01/M03 Q1012
11-12-12 METAR EDDT 120020Z 16007KT CAVOK 00/M03 Q1012
11-12-12 METAR EDDT 120050Z 16007KT CAVOK M00/M03 Q1011
11-12-12 METAR EDDT 120120Z 15007KT CAVOK M00/M03 Q1011
11-12-12 METAR EDDT 120150Z 16007KT CAVOK M00/M03 Q1010
11-12-12 METAR EDDT 120220Z 16007KT CAVOK M00/M03 Q1010
11-12-12 METAR EDDT 120250Z 15006KT CAVOK M00/M03 Q1009
11-12-12 METAR EDDT 120320Z 16006KT CAVOK M01/M03 Q1009
11-12-12 METAR EDDT 120350Z 14007KT 9999 FEW030 BKN060 M00/M02 Q1008 NOSIG
11-12-12 METAR EDDT 120420Z 15008KT 9999 -RA SCT030 BKN060 01/M02 Q1007 NOSIG
11-12-12 METAR EDDT 120450Z 17008KT 9999 -FZDZ SCT007 BKN028 01/M01 Q1007 TEMPO
11-12-12 METAR EDDT 120520Z 17006KT 9999 FEW007 SCT030 BKN045 02/M00 Q1007 REFZRA NOSIG
11-12-12 METAR EDDT 120550Z 16008KT 9999 FEW030 BKN060 01/M01 Q1006 REFZRA NOSIG
11-12-12 METAR EDDT 120620Z 16008KT 9999 -RA FEW030 BKN060 02/M00 Q1006 NOSIG
11-12-12 METAR EDDT 120650Z 16008KT 9999 -RA BKN050 02/M00 Q1006 NOSIG
11-12-12 METAR EDDT 120720Z 17007KT 9999 -RA BKN050 03/00 Q1006 NOSIG
11-12-12 METAR EDDT 120750Z 17009KT 9999 SCT050 BKN080 03/01 Q1006 NOSIG
11-12-12 METAR EDDT 120820Z 18009KT 9999 SCT050 BKN080 04/01 Q1006 NOSIG
11-12-12 METAR EDDT 120850Z 18008KT 9999 FEW033 BKN080 04/02 Q1005 NOSIG
11-12-12 METAR EDDT 120920Z 18009KT 9999 FEW033 BKN080 05/02 Q1005 NOSIG
11-12-12 METAR EDDT 120950Z 19010KT CAVOK 06/02 Q1005 NOSIG
11-12-12 METAR EDDT 121020Z 19011KT CAVOK 06/03 Q1005 NOSIG
11-12-12 METAR EDDT 121050Z 19012KT 9999 -RA SCT030 BKN050 06/02 Q1004 NOSIG
11-12-12 METAR EDDT 121120Z 19009KT 9999 -RA SCT030 BKN050 07/03 Q1004 NOSIG
11-12-12 METAR EDDT 121150Z 19011KT 9999 -RA SCT030 BKN050 07/03 Q1004 NOSIG
11-12-12 METAR EDDT 121220Z 19010KT 9999 -RA SCT030 BKN050 07/03 Q1004 NOSIG
11-12-12 METAR EDDT 121250Z 19010KT 9999 -RA BKN044 07/03 Q1004 NOSIG
11-12-12 METAR EDDT 121320Z 19012KT 9999 -RA BKN044 07/03 Q1004 NOSIG
11-12-12 METAR EDDT 121350Z 20010KT 9999 -RA BKN044 07/03 Q1004 NOSIG
11-12-12 METAR EDDT 121420Z 20010KT 9999 -RA FEW030 BKN040 07/03 Q1004 NOSIG
11-12-12 METAR EDDT 121450Z 20010KT 9999 -RA BKN030 07/03 Q1004 NOSIG
11-12-12 METAR EDDT 121520Z 21009KT 9999 -RA BKN030 06/04 Q1004 NOSIG
11-12-12 METAR EDDT 121550Z 20010KT 9999 -RA BKN028 06/04 Q1004 NOSIG
11-12-12 METAR EDDT 121620Z 21010KT 9999 -RA SCT017 BKN028 06/05 Q1005 NOSIG
11-12-12 METAR EDDT 121650Z 24010KT 9999 -RA SCT013 BKN028 06/05 Q1005 NOSIG
11-12-12 METAR EDDT 121720Z 25011KT 9999 -RA SCT008 BKN013 06/05 Q1006 NOSIG
11-12-12 METAR EDDT 121750Z 26011KT 9999 SCT009 BKN014 07/05 Q1006 TEMPO BKN015
11-12-12 METAR EDDT 121820Z 25010KT 9999 SCT010 BKN013 07/05 Q1007 TEMPO BKN015
11-12-12 METAR EDDT 121850Z 26012KT 9999 -RA FEW010 SCT013 BKN030 07/05 Q1008 NOSIG
11-12-12 METAR EDDT 121920Z 27011KT 7000 RA SCT010 SCT015 BKN030 07/05 Q1008 BECMG
11-12-12 METAR EDDT 121950Z 28013KT 9999 SCT015 BKN030 06/04 Q1009 RERA NOSIG
11-12-12 METAR EDDT 122020Z 27009KT 9999 FEW030 BKN130 05/03 Q1010 NOSIG
11-12-12 METAR EDDT 122050Z 26007KT 9999 SCT030 04/02 Q1010 NOSIG
11-12-12 METAR EDDT 122120Z 25008KT CAVOK 04/02 Q1010 NOSIG
11-12-12 METAR EDDT 122150Z 24010KT CAVOK 04/02 Q1011 NOSIG
11-12-12 METAR EDDT 122220Z 23006KT CAVOK 03/01 Q1010
11-12-12 METAR EDDT 122250Z 22008KT CAVOK 03/01 Q1010
11-12-12 METAR EDDT 122320Z 21008KT 9999 FEW035 04/01 Q1010
11-12-12 METAR EDDT 122350Z 21009KT 9999 FEW037 03/01 Q1011
11-12-13 METAR EDDT 122350Z 21009KT 9999 FEW037 03/01 Q1011
11-12-13 METAR EDDT 130020Z 21010KT 9999 FEW037 03/00 Q1010
11-12-13 METAR EDDT 130050Z 20007KT CAVOK 03/00 Q1010
11-12-13 METAR EDDT 130120Z 22009KT CAVOK 03/00 Q1011
11-12-13 METAR EDDT 130150Z 21009KT CAVOK 03/00 Q1010
11-12-13 METAR EDDT 130220Z 20008KT CAVOK 03/M00 Q1010
11-12-13 METAR EDDT 130250Z 18007KT CAVOK 02/M00 Q1009
11-12-13 METAR EDDT 130320Z 19008KT CAVOK 02/M00 Q1009
11-12-13 METAR EDDT 130350Z 19008KT CAVOK 02/M00 Q1009 NOSIG
11-12-13 METAR EDDT 130420Z 18010KT CAVOK 02/M00 Q1008 NOSIG
11-12-13 METAR EDDT 130450Z 18011KT CAVOK 03/M00 Q1007 NOSIG
11-12-13 METAR EDDT 130520Z 18011KT CAVOK 03/M00 Q1007 NOSIG
11-12-13 METAR EDDT 130550Z 18010KT CAVOK 03/M00 Q1006 NOSIG
11-12-13 METAR EDDT 130620Z 17011KT CAVOK 03/M00 Q1005 BECMG 19015G25KT
11-12-13 METAR EDDT 130650Z 17013KT CAVOK 04/00 Q1005 BECMG 19015G25KT
11-12-13 METAR EDDT 130720Z 18012KT CAVOK 04/00 Q1004 BECMG 19015G25KT
11-12-13 METAR EDDT 130750Z 18015KT CAVOK 05/M00 Q1004 BECMG 19015G25KT
11-12-13 METAR EDDT 130820Z 18015KT CAVOK 05/M00 Q1004 BECMG 19015G25KT
11-12-13 METAR EDDT 130850Z 18014KT CAVOK 05/M01 Q1003 BECMG 19020G35KT
11-12-13 METAR EDDT 130920Z 18018G29KT 9999 -RA FEW038 BKN050 BKN070 06/M01 Q1002 BECMG 19020G35KT
11-12-13 METAR EDDT 130950Z 18017KT 9999 -RA FEW030 BKN050 OVC080 06/M01 Q1001 TEMPO 19020G35KT RA
11-12-13 METAR EDDT 131020Z 19018G29KT 9999 -RA SCT030 BKN040 BKN060 05/M00 Q1001 TEMPO 19020G35KT RA
11-12-13 METAR EDDT 131050Z 19015G26KT 9999 RA FEW015 SCT025 BKN040 05/00 Q1000 TEMPO 19020G35KT NSW
11-12-13 METAR EDDT 131120Z 19013KT 9999 -RA FEW030 BKN046 05/01 Q1000 RERA TEMPO
11-12-13 METAR EDDT 131150Z 19012KT 9999 -RA FEW030 BKN046 05/01 Q1000 TEMPO
11-12-13 METAR EDDT 131220Z 19013KT 9999 -RA FEW030 BKN040 05/01 Q0999 TEMPO 19020G30KT RA
11-12-13 METAR EDDT 131250Z 18014KT 9999 -RA FEW030 BKN040 06/02 Q0999 TEMPO
11-12-13 METAR EDDT 131320Z 19012KT 9999 -RA FEW030 BKN042 06/02 Q0998 TEMPO
11-12-13 METAR EDDT 131350Z 19012KT 9999 -RA SCT035 BKN042 06/03 Q0998 TEMPO
11-12-13 METAR EDDT 131420Z 19012KT 9999 RA FEW030 BKN040 BKN050 06/03 Q0998 TEMPO 19020G30KT NSW
11-12-13 METAR EDDT 131450Z 20012KT 9999 RA FEW030 BKN040 06/03 Q0998 TEMPO
11-12-13 METAR EDDT 131520Z 19011KT 9999 -RA FEW022 BKN044 BKN060 06/04 Q0998 RERA TEMPO 19020G30KT RA
11-12-13 METAR EDDT 131550Z 19010KT 9999 -RA BKN044 06/03 Q0998 TEMPO 19020G30KT RA
11-12-13 METAR EDDT 131620Z 20010KT 9999 -RA BKN030 BKN040 06/04 Q0998 TEMPO
11-12-13 METAR EDDT 131650Z 20012KT 9999 -RA SCT033 BKN050 07/04 Q0998 TEMPO 19015G25KT
11-12-13 METAR EDDT 131720Z 20012KT 9999 -RA FEW030 BKN090 07/04 Q0998 TEMPO
11-12-13 METAR EDDT 131750Z 21012KT CAVOK 07/04 Q0998 TEMPO RA
11-12-13 METAR EDDT 131820Z 21013KT CAVOK 08/04 Q0999 TEMPO RA
11-12-13 METAR EDDT 131850Z 21012KT 9999 FEW040 BKN080 08/04 Q0999 TEMPO RA
11-12-13 METAR EDDT 131920Z 22013KT 9999 FEW040 BKN090 08/04 Q1000 TEMPO RA
11-12-13 METAR EDDT 131950Z 24015KT 9999 -RA FEW040 SCT080 BKN100 08/04 Q1000 TEMPO
11-12-13 METAR EDDT 132020Z 24013KT 9999 -RA SCT040 SCT070 BKN090 07/04 Q1000 TEMPO
11-12-13 METAR EDDT 132050Z 20008KT 9999 FEW040 BKN090 07/03 Q1000 NOSIG
11-12-13 METAR EDDT 132120Z 21010KT CAVOK 06/03 Q1000 NOSIG
11-12-13 METAR EDDT 132150Z 21007KT CAVOK 06/04 Q1001 NOSIG
11-12-13 METAR EDDT 132220Z 20008KT CAVOK 06/03 Q1001
11-12-13 METAR EDDT 132250Z 20009KT CAVOK 05/03 Q1001
11-12-13 METAR EDDT 132320Z 20009KT CAVOK 05/03 Q1001
11-12-13 METAR EDDT 132350Z 20010KT CAVOK 05/03 Q1002
11-12-14 METAR EDDT 132350Z 20010KT CAVOK 05/03 Q1002
11-12-14 METAR EDDT 140020Z 20009KT CAVOK 05/03 Q1001
11-12-14 METAR EDDT 140050Z 20009KT CAVOK 05/03 Q1002
11-12-14 METAR EDDT 140120Z 20010KT CAVOK 05/03 Q1002
11-12-14 METAR EDDT 140150Z 19009KT CAVOK 05/02 Q1002
11-12-14 METAR EDDT 140220Z 20008KT CAVOK 05/02 Q1002
11-12-14 METAR EDDT 140250Z 21010KT CAVOK 06/02 Q1002
11-12-14 METAR EDDT 140320Z 22012KT CAVOK 06/02 Q1002
11-12-14 METAR EDDT 140350Z 22014KT CAVOK 06/02 Q1002 NOSIG
11-12-14 METAR EDDT 140420Z 20011KT CAVOK 06/01 Q1002 NOSIG
11-12-14 METAR EDDT 140450Z 20010KT CAVOK 05/02 Q1003 NOSIG
11-12-14 METAR EDDT 140520Z 20009KT CAVOK 05/02 Q1003 NOSIG
11-12-14 METAR EDDT 140550Z 19008KT CAVOK 04/02 Q1003 NOSIG
11-12-14 METAR EDDT 140620Z 18008KT CAVOK 04/01 Q1003 NOSIG
11-12-14 METAR EDDT 140650Z 19009KT CAVOK 05/02 Q1003 NOSIG
11-12-14 METAR EDDT 140720Z 19009KT CAVOK 05/02 Q1003 NOSIG
11-12-14 METAR EDDT 140750Z 18009KT CAVOK 05/02 Q1002 NOSIG
11-12-14 METAR EDDT 140820Z 18011KT CAVOK 06/02 Q1003 NOSIG
11-12-14 METAR EDDT 140850Z 17010KT CAVOK 06/02 Q1002 NOSIG
11-12-14 METAR EDDT 140920Z 17008KT CAVOK 06/03 Q1001 NOSIG
11-12-14 METAR EDDT 140950Z 17009KT CAVOK 07/03 Q1000 NOSIG
11-12-14 METAR EDDT 141020Z 16011KT CAVOK 07/03 Q1000 NOSIG
11-12-14 METAR EDDT 141050Z 16010KT 9999 -RA FEW013 BKN020 07/03 Q0999 BECMG 22015G28KT RA
11-12-14 METAR EDDT 141120Z 15009KT 9999 RA FEW008 BKN040 07/03 Q0998 BECMG 22015G28KT
11-12-14 METAR EDDT 141150Z 16010KT 9999 SCT038 BKN050 BKN130 07/04 Q0997 RERA BECMG
11-12-14 METAR EDDT 141220Z 17012KT 9999 SCT038 BKN048 BKN130 08/04 Q0997 BECMG
11-12-14 METAR EDDT 141250Z 18013KT 9999 FEW038 SCT040 BKN130 09/04 Q0997 BECMG
11-12-14 METAR EDDT 141320Z 19012KT 9999 FEW045 BKN100 09/04 Q0996 BECMG 22015G28KT
11-12-14 METAR EDDT 141350Z 19012KT 9999 FEW045 SCT050 BKN130 10/04 Q0996 BECMG
11-12-14 METAR EDDT 141420Z 20012KT 9999 SCT034 SCT050 BKN130 10/04 Q0996 BECMG
11-12-14 METAR EDDT 141450Z 20014G24KT 9999 SHRA SCT028 SCT040 OVC130 10/05 Q0996 TEMPO 22015G28KT
11-12-14 METAR EDDT 141520Z 21014KT 6000 -SHRA FEW005 SCT020 BKN035 08/06 Q0997 RERA TEMPO 22015G28KT SHRA
11-12-14 METAR EDDT 141550Z 21016KT 7000 RA FEW005 SCT015 OVC032 07/05 Q0997 TEMPO NSW
11-12-14 METAR EDDT 141620Z 21011KT 9999 -RA FEW020 BKN031 07/05 Q0997 RERA TEMPO SHRA
11-12-14 METAR EDDT 141720Z 24010KT 9999 -RA BKN024 BKN033 07/05 Q0998 TEMPO
11-12-14 METAR EDDT 141750Z 24013KT 9999 RA FEW015 SCT022 BKN035 07/05 Q0998 TEMPO
11-12-14 METAR EDDT 141820Z 22010KT 9999 FEW015 BKN030 07/05 Q0998 RERA TEMPO
11-12-14 METAR EDDT 141850Z 25016G28KT 9999 -RA SCT011 SCT015 BKN025 06/03 Q1000
11-12-14 METAR EDDT 141920Z 24010KT 9999 FEW015 SCT030 BKN050 05/03 Q1000 RERA TEMPO
11-12-14 METAR EDDT 141950Z 24009KT 9999 -RA FEW012 BKN018 06/04 Q1000 TEMPO
11-12-14 METAR EDDT 142020Z 25008KT 9999 -RA FEW011 SCT015 BKN020 06/04 Q1000 TEMPO
11-12-14 METAR EDDT 142050Z 24007KT 9999 -RA FEW011 BKN018 06/04 Q1001 TEMPO
11-12-14 METAR EDDT 142120Z 22010KT 9999 BKN025 06/03 Q1001 TEMPO 22015G28KT SHRA
11-12-14 METAR EDDT 142150Z 26019KT 9999 -RA SCT012 SCT020 BKN028 06/03 Q1002 NOSIG
11-12-14 METAR EDDT 142220Z 26009KT 9999 -RA SCT012 BKN025 05/03 Q1003
11-12-14 METAR EDDT 142250Z 23009KT 9999 -RA FEW025 BKN060 05/03 Q1003
11-12-14 METAR EDDT 142320Z 23009KT 9999 -RA SCT025 BKN050 05/03 Q1003
11-12-14 METAR EDDT 142350Z 22009KT 9999 BKN030 05/03 Q1003
11-12-15 METAR EDDT 142350Z 22009KT 9999 BKN030 05/03 Q1003
11-12-15 METAR EDDT 150020Z 23011KT 9999 FEW030 05/02 Q1004
11-12-15 METAR EDDT 150050Z 20008KT 9999 SCT040 04/02 Q1004
11-12-15 METAR EDDT 150120Z 21008KT 9999 BKN046 04/01 Q1005
11-12-15 METAR EDDT 150150Z 20010KT 9999 BKN040 05/01 Q1005
11-12-15 METAR EDDT 150220Z 21010KT 9999 BKN040 05/01 Q1005
11-12-15 METAR EDDT 150250Z 22012KT 9999 SCT040 BKN060 05/01 Q1004
11-12-15 METAR EDDT 150320Z 21012KT 9999 FEW040 04/00 Q1004
11-12-15 METAR EDDT 150350Z 21011KT CAVOK 04/00 Q1004 NOSIG
11-12-15 METAR EDDT 150420Z 22012KT CAVOK 05/01 Q1004 NOSIG
11-12-15 METAR EDDT 150450Z 22014KT CAVOK 05/00 Q1004 NOSIG
11-12-15 METAR EDDT 150520Z 21014KT CAVOK 05/00 Q1004 NOSIG
11-12-15 METAR EDDT 150550Z 21013KT CAVOK 05/00 Q1004 NOSIG
11-12-15 METAR EDDT 150620Z 20011KT 9999 BKN048 05/00 Q1004 NOSIG
11-12-15 METAR EDDT 150650Z 20011KT 9999 SCT046 04/M00 Q1004 NOSIG
11-12-15 METAR EDDT 150720Z 20011KT 9999 BKN046 04/M00 Q1005 NOSIG
11-12-15 METAR EDDT 150750Z 19010KT 9999 FEW046 SCT150 BKN200 04/M00 Q1005 NOSIG
11-12-15 METAR EDDT 150820Z 19009KT CAVOK 04/M00 Q1005 NOSIG
11-12-15 METAR EDDT 150850Z 20010KT CAVOK 05/00 Q1005 NOSIG
11-12-15 METAR EDDT 150920Z 20011KT CAVOK 05/00 Q1005 NOSIG
11-12-15 METAR EDDT 150950Z 21010KT CAVOK 05/01 Q1005 NOSIG
11-12-15 METAR EDDT 151020Z 20010KT CAVOK 05/01 Q1005 NOSIG
11-12-15 METAR EDDT 151050Z 21011KT 9999 -RA FEW038 SCT060 BKN130 06/02 Q1005 NOSIG
11-12-15 METAR EDDT 151120Z 21014KT 9999 -RA FEW018 BKN130 05/02 Q1005 NOSIG
11-12-15 METAR EDDT 151150Z 20010KT 9999 -RA FEW012 BKN026 BKN035 05/02 Q1005 NOSIG
11-12-15 METAR EDDT 151220Z 19008KT 9999 SCT038 SCT130 06/03 Q1004 NOSIG
11-12-15 METAR EDDT 151250Z 20009KT 9999 FEW015 06/03 Q1004 NOSIG
11-12-15 METAR EDDT 151320Z 21010KT 9999 FEW015 06/02 Q1004 NOSIG
11-12-15 METAR EDDT 151350Z 20009KT 9999 SCT048 06/02 Q1004 NOSIG
11-12-15 METAR EDDT 151420Z 21010KT 9999 BKN040 SCT230 06/01 Q1004 NOSIG
11-12-15 METAR EDDT 151450Z 21008KT 9999 FEW040 SCT230 06/01 Q1004 NOSIG
11-12-15 METAR EDDT 151520Z 20009KT 9999 FEW040 SCT230 06/01 Q1004 NOSIG
11-12-15 METAR EDDT 151550Z 20008KT 9999 BKN045 06/01 Q1004 NOSIG
11-12-15 METAR EDDT 151620Z 20009KT 9999 BKN046 06/01 Q1004 NOSIG
11-12-15 METAR EDDT 151650Z 20010KT CAVOK 06/01 Q1003 NOSIG
11-12-15 METAR EDDT 151720Z 20009KT CAVOK 06/01 Q1004 NOSIG
11-12-15 METAR EDDT 151750Z 19010KT CAVOK 06/01 Q1003 NOSIG
11-12-15 METAR EDDT 151820Z 19011KT CAVOK 06/01 Q1003 NOSIG
11-12-15 METAR EDDT 151850Z 19011KT CAVOK 05/01 Q1003 NOSIG
11-12-15 METAR EDDT 151920Z 20010KT CAVOK 05/01 Q1003 NOSIG
11-12-15 METAR EDDT 151950Z 20011KT 9999 SCT035 BKN070 05/01 Q1003 NOSIG
11-12-15 METAR EDDT 152020Z 19009KT 9999 -RA BKN030 05/01 Q1003 NOSIG
11-12-15 METAR EDDT 152050Z 20011KT 9999 FEW030 SCT120 05/01 Q1003 NOSIG
11-12-15 METAR EDDT 152120Z 19009KT CAVOK 05/01 Q1002 NOSIG
11-12-15 METAR EDDT 152150Z 20008KT CAVOK 04/01 Q1002 NOSIG
11-12-15 METAR EDDT 152220Z 20009KT CAVOK 04/01 Q1002
11-12-15 METAR EDDT 152250Z 19009KT CAVOK 04/01 Q1002
11-12-15 METAR EDDT 152320Z 20010KT 9999 SCT046 04/01 Q1002
11-12-15 METAR EDDT 152350Z 21010KT 9999 FEW040 BKN050 05/01 Q1001
11-12-16 METAR EDDT 152350Z 21010KT 9999 FEW040 BKN050 05/01 Q1001
11-12-16 METAR EDDT 160020Z 20010KT CAVOK 05/01 Q1001
11-12-16 METAR EDDT 160050Z 19010KT 9999 BKN048 05/01 Q1000
11-12-16 METAR EDDT 160120Z 20009KT CAVOK 05/01 Q1000
11-12-16 METAR EDDT 160150Z 19008KT CAVOK 04/01 Q1000
11-12-16 METAR EDDT 160220Z 20009KT CAVOK 04/00 Q0999
11-12-16 METAR EDDT 160250Z 20008KT 9999 BKN040 04/01 Q0999
11-12-16 METAR EDDT 160320Z 19009KT 9999 BKN048 05/01 Q0998
11-12-16 METAR EDDT 160350Z 19008KT 9999 BKN048 05/01 Q0997 NOSIG
11-12-16 METAR EDDT 160420Z 18010KT CAVOK 05/01 Q0996 NOSIG
11-12-16 METAR EDDT 160450Z 18009KT 9999 BKN048 04/01 Q0995 NOSIG
11-12-16 METAR EDDT 160520Z 16009KT CAVOK 04/01 Q0995 NOSIG
11-12-16 METAR EDDT 160550Z 17009KT CAVOK 04/01 Q0994 NOSIG
11-12-16 METAR EDDT 160620Z 15007KT 150V260 CAVOK 04/01 Q0992 NOSIG
11-12-16 METAR EDDT 160650Z 14008KT CAVOK 03/01 Q0992 NOSIG
11-12-16 METAR EDDT 160720Z 14009KT CAVOK 03/00 Q0991 NOSIG
11-12-16 METAR EDDT 160750Z 12010KT CAVOK 04/00 Q0989 NOSIG
11-12-16 METAR EDDT 160820Z 13011KT CAVOK 04/00 Q0988 NOSIG
11-12-16 METAR EDDT 160850Z 13012KT CAVOK 04/00 Q0987 NOSIG
11-12-16 METAR EDDT 160920Z 13013KT CAVOK 04/00 Q0985 TEMPO 14015G25KT RA BKN012
11-12-16 METAR EDDT 161020Z 13015KT 6000 RA BKN013 BKN015 04/01 Q0982 NOSIG
11-12-16 METAR EDDT 161050Z 12016KT 8000 -RA FEW011 BKN014 03/02 Q0980 RERA TEMPO RA
11-12-16 METAR EDDT 161120Z 12018KT 6000 -RA FEW009 BKN011 03/02 Q0978 TEMPO RA
11-12-16 METAR EDDT 161150Z 12018G28KT 7000 RA FEW009 BKN011 03/02 Q0976 TEMPO BKN008
11-12-16 METAR EDDT 161220Z 13018G28KT 7000 RA BKN009 BKN011 03/02 Q0975 TEMPO BKN010
11-12-16 METAR EDDT 161250Z 13016G26KT 5000 RA SCT002 BKN008 03/01 Q0973 TEMPO 3500 RASN BKN010
11-12-16 METAR EDDT 161320Z 13015KT 2800 SNRA FEW003 BKN006 02/00 Q0972 TEMPO 2500 SN BKN010
11-12-16 METAR EDDT 161350Z 11015KT 5000 RASN FEW002 BKN007 02/00 Q0970 TEMPO 4000
11-12-16 METAR EDDT 161420Z 12015KT 4500 SNRA FEW002 BKN007 02/00 Q0969 TEMPO 5000
11-12-16 METAR EDDT 161450Z 12012KT 4500 RASN SCT005 BKN008 01/00 Q0968 TEMPO 5000
11-12-16 METAR EDDT 161520Z 12013KT 5000 RA SCT006 BKN009 03/02 Q0967 TEMPO 4000 RA
11-12-16 METAR EDDT 161550Z 13011KT 6000 RA BKN007 BKN011 04/03 Q0966 BECMG 21010KT
11-12-16 METAR EDDT 161620Z 15012KT 9999 RA BKN009 BKN040 05/04 Q0966 BECMG 21010KT NSW
11-12-16 METAR EDDT 161650Z 17011KT 9999 -RA FEW010 BKN031 06/04 Q0965 RERA BECMG 21010KT NSW
11-12-16 METAR EDDT 161750Z 20011KT 9999 -RA FEW008 QVC020 07/05 Q0966 BECMG
11-12-16 METAR EDDT 161820Z 24026G41KT 9999 -RA FEW008 OVC050 05/02 Q0966 TEMPO RA
11-12-16 METAR EDDT 161850Z 23021G41KT 9999 -RA SCT018 BKN030 OVC050 04/01 Q0967 TEMPO RA
11-12-16 METAR EDDT 161920Z 23021G31KT 9999 -RA FEW008 BKN013 03/00 Q0967 TEMPO 4000 RASN BKN009
11-12-16 METAR EDDT 161950Z 23021G32KT 6000 -RASN BKN009 BKN013 02/00 Q0967 TEMPO 4000 RASN
11-12-16 METAR EDDT 162020Z 24021KT 3500 SN BKN006 01/M00 Q0968 TEMPO 2000
11-12-16 METAR EDDT 162050Z 25022G32KT 2500 SN SCT003 BKN005 01/M00 Q0969 TEMPO BKN003
11-12-16 METAR EDDT 162120Z 26021KT 2000 R26R/1300VP2000U R26L/P2000N SN FEW003 BKN004 00/M00 Q0970 NOSIG
11-12-16 METAR EDDT 162150Z 26022G32KT 3000 SN FEW003 BKN005 00/M00 Q0972 NOSIG
11-12-16 METAR EDDT 162220Z 27020G30KT 2500 SN BKN005 00/M00 Q0973
11-12-16 METAR EDDT 162250Z 27019KT 2000 SN FEW002 BKN004 01/M00 Q0974
11-12-16 METAR EDDT 162320Z 28018KT 3500 SNRA FEW002 BKN004 01/M00 Q0975 R08L/690195 R08R/690195
11-12-16 METAR EDDT 162350Z 28018KT 5000 -SNRA FEW002 BKN005 01/00 Q0977 RESN R08L/690195 R08R/690195
11-12-17 METAR EDDT 162350Z 28018KT 5000 -SNRA FEW002 BKN005 01/00 Q0977 RESN R08L/690195 R08R/690195
11-12-17 METAR EDDT 170020Z 28017KT 6000 RASN FEW004 BKN006 01/00 Q0977 R08L/690195 R08R/690195
11-12-17 METAR EDDT 170050Z 29019G32KT 9999 -RASN BKN007 02/01 Q0978 RERASN
11-12-17 METAR EDDT 170120Z 28018KT 9999 -RA BKN007 02/01 Q0979 R08L/690195
11-12-17 METAR EDDT 170150Z 29018KT 9999 RA FEW003 BKN007 03/01 Q0980 R08L/690195
11-12-17 METAR EDDT 170220Z 29017G29KT 9999 -RA FEW003 BKN010 03/02 Q0981 RERA
11-12-17 METAR EDDT 170250Z 29016G29KT 9999 -RA BKN008 BKN010 03/02 Q0982
11-12-17 METAR EDDT 170320Z 29015G26KT 9999 -RA BKN008 BKN011 03/02 Q0982
11-12-17 METAR EDDT 170350Z 28017KT 9999 -RADZ FEW003 BKN011 03/01 Q0983 R08L/690195 R08R/690195 NOSIG
11-12-17 METAR EDDT 170420Z 28016G27KT 9999 -RADZ FEW003 BKN010 03/01 Q0984 R08L/690195 R08R/690195 NOSIG
11-12-17 METAR EDDT 170450Z 29014KT 9999 -RADZ FEW003 BKN010 03/01 Q0985 R08L/690195
11-12-17 METAR EDDT 170520Z 28014KT 9999 -RASN FEW003 BKN010 03/01 Q0985 R08L/690195
11-12-17 METAR EDDT 170550Z 28014G24KT 9999 -RA FEW003 BKN012 03/01 Q0986
11-12-17 METAR EDDT 170620Z 29015KT 9999 -RA SCT012 BKN018 03/01 Q0987 R88/290195 TEMPO 28015G25KT
11-12-17 METAR EDDT 170650Z 28015KT 9999 FEW009 BKN015 BKN025 03/00 Q0987 R88/290195
11-12-17 METAR EDDT 170720Z 28016KT 9999 BKN015 BKN020 03/00 Q0987 R88/290195 TEMPO
11-12-17 METAR EDDT 170750Z 28016KT 9999 BKN015 BKN022 03/00 Q0988 R88/290195 TEMPO
11-12-17 METAR EDDT 170820Z 29014KT 9999 BKN015 BKN020 03/00 Q0989 R88/290195 TEMPO
11-12-17 METAR EDDT 170850Z 28013KT 9999 SCT015 BKN020 03/00 Q0990 R88/290195 TEMPO
11-12-17 METAR EDDT 170920Z 29011KT 9999 SCT015 BKN019 03/00 Q0990 R88/290195 TEMPO
11-12-17 METAR EDDT 170950Z 29012G22KT 9999 BKN015 BKN020 03/01 Q0990 R88/290195 NOSIG
11-12-17 METAR EDDT 171020Z 29012KT 9999 BKN015 SCT020 04/00 Q0990 R88/290195 TEMPO
11-12-17 METAR EDDT 171050Z 29015KT 9999 BKN018 04/00 Q0991 R88/290195 TEMPO
11-12-17 METAR EDDT 171120Z 28018KT 9999 SCT018 SCT025 BKN040 04/00 Q0991 R88/290195 TEMPO 28020G30KT
11-12-17 METAR EDDT 171150Z 29013KT 9999 BKN018 BKN025 04/00 Q0992 R88/290195 TEMPO
11-12-17 METAR EDDT 171220Z 29013G24KT 9999 BKN018 BKN040 04/00 Q0992 R88/290195
11-12-17 METAR EDDT 171250Z 29015G28KT 9999 BKN020 BKN040 04/M00 Q0993 R88/290195
11-12-17 METAR EDDT 171320Z 29014KT 9999 SCT022 BKN035 04/00 Q0993 R88/290195 TEMPO
11-12-17 METAR EDDT 171350Z 30012G22KT 9999 BKN022 BKN035 04/M00 Q0994 R88/290195
11-12-17 METAR EDDT 171420Z 29011KT 9999 SCT022 BKN035 04/00 Q0994 R88/190195 TEMPO
11-12-17 METAR EDDT 171450Z 29012KT 9999 SCT022 BKN033 04/M00 Q0995 R88/190195 TEMPO
11-12-17 METAR EDDT 171520Z 28011KT 9999 SCT025 SCT033 04/M00 Q0995 R88/190195 TEMPO
11-12-17 METAR EDDT 171550Z 28011KT 9999 BKN022 SCT033 04/01 Q0996 R88/190195 NOSIG
11-12-17 METAR EDDT 171620Z 29009KT 9999 BKN022 SCT033 04/01 Q0996 R88/190195 NOSIG
11-12-17 METAR EDDT 171650Z 27010KT 9999 SCT015 BKN025 04/01 Q0996 R88/190195 NOSIG
11-12-17 METAR EDDT 171720Z 27012KT 9999 SCT015 BKN038 04/01 Q0996 R88/190195 NOSIG
11-12-17 METAR EDDT 171750Z 30008KT 9999 -RA SCT013 BKN026 04/02 Q0997 R88/190195
11-12-17 METAR EDDT 171820Z 27013KT 9999 FEW014 SCT040 04/01 Q0997 R88/190195 NOSIG
11-12-17 METAR EDDT 171850Z 28012KT 9999 FEW015 BKN036 04/01 Q0997 R88/190195 NOSIG
11-12-17 METAR EDDT 171920Z 28012KT 9999 SCT015 BKN035 04/01 Q0998 R88/190195 NOSIG
11-12-17 METAR EDDT 171950Z 28015KT 9999 FEW016 04/01 Q0998 R88/190195 NOSIG
11-12-17 METAR EDDT 172020Z 27012KT 9999 FEW014 BKN018 03/01 Q0998 R88/190195 NOSIG
11-12-17 METAR EDDT 172050Z 28011KT 9999 BKN014 BKN017 03/01 Q0998 R88/190195 TEMPO BKN015
11-12-17 METAR EDDT 172120Z 27015KT 9999 SCT015 03/01 Q0998 R88/190195 NOSIG
11-12-17 METAR EDDT 172150Z 27013KT 9999 SCT014 BKN025 03/01 Q0998 R88/190195 TEMPO SHRA BKN013
11-12-17 METAR EDDT 172220Z 28012KT 9999 BKN013 04/01 Q0999 R88/190195
11-12-17 METAR EDDT 172250Z 28013KT 9999 BKN014 BKN020 04/01 Q0999 R88/190195
11-12-17 METAR EDDT 172320Z 27016KT 9999 BKN013 BKN016 04/01 Q0999 R88/190195
11-12-17 METAR EDDT 172350Z 27013KT 9999 BKN013 BKN017 04/01 Q0999 R88/190195
11-12-18 METAR EDDT 172350Z 27013KT 9999 BKN013 BKN017 04/01 Q0999 R88/190195
11-12-18 METAR EDDT 180020Z 27014KT 9999 -RA BKN013 04/01 Q0999 R88/190195
11-12-18 METAR EDDT 180050Z 27015KT 9999 BKN011 BKN013 03/01 Q0999 R88/190195
11-12-18 METAR EDDT 180120Z 27014KT 9999 BKN012 03/01 Q0999 R88/190195
11-12-18 METAR EDDT 180150Z 27013KT 9999 -RA BKN012 BKN015 03/01 Q0999 R88/190195
11-12-18 METAR EDDT 180220Z 27015KT 9999 -RA BKN013 BKN015 03/01 Q0999 R88/190195
11-12-18 METAR EDDT 180250Z 27013KT 9999 FEW013 BKN018 04/01 Q0999 R88/190195
11-12-18 METAR EDDT 180320Z 27015KT 9999 -RA FEW005 BKN019 04/01 Q0999 R88/190195
11-12-18 METAR EDDT 180350Z 27015KT 9999 BKN020 04/00 Q0999 R88/190195 NOSIG
11-12-18 METAR EDDT 180420Z 27014KT 9999 -RA FEW014 BKN019 03/01 Q0999 R88/190195 NOSIG
11-12-18 METAR EDDT 180450Z 27015KT 9999 -RA FEW003 BKN012 03/01 Q0999 R88/190195
11-12-18 METAR EDDT 180520Z 25011KT 9999 -RA SCT014 BKN016 02/01 Q0999 R88/190195 TEMPO BKN014
11-12-18 METAR EDDT 180550Z 26013KT 9999 SCT013 BKN015 03/01 Q0999 R88/190195 TEMPO
11-12-18 METAR EDDT 180620Z 26012KT 9999 -RA FEW011 BKN013 03/01 Q0999 R88/290195 TEMPO RA
11-12-18 METAR EDDT 180650Z 26012KT 9999 -RA FEW011 BKN013 03/01 Q1000 R88/290195
11-12-18 METAR EDDT 180720Z 26014KT 9999 FEW011 BKN013 03/01 Q1000 R88/290195 NOSIG
11-12-18 METAR EDDT 180750Z 26014KT 9999 FEW010 BKN012 03/01 Q1000 R88/290195 NOSIG
11-12-18 METAR EDDT 180820Z 26015KT 9999 FEW010 BKN012 03/01 Q1000 R88/290195 NOSIG
11-12-18 METAR EDDT 180850Z 26013KT 9999 BKN012 03/01 Q1001 R88/290195 NOSIG
11-12-18 METAR EDDT 180920Z 26015KT 9999 FEW013 BKN015 03/01 Q1001 R88/290195 NOSIG
11-12-18 METAR EDDT 180950Z 26017KT 9999 FEW013 BKN015 03/00 Q1001 R88/190095 TEMPO 26015G25KT
11-12-18 METAR EDDT 181020Z 26015KT 9999 FEW015 BKN017 03/00 Q1001 R88/190095 TEMPO
11-12-18 METAR EDDT 181120Z 26014KT 9999 -SHRA FEW012 BKN017 03/00 Q1001 R88/190095 TEMPO 26015G25KT
11-12-18 METAR EDDT 181150Z 26015G25KT 9999 -RA FEW018 BKN020 03/00 Q1001 R88/190095
11-12-18 METAR EDDT 181220Z 26016KT 9999 -SHRA FEW018 BKN020 03/00 Q1001 R88/190095
11-12-18 METAR EDDT 181250Z 26015KT 9999 -SHRA FEW007 SCT012 BKN015 03/01 Q1002 R88/190095 TEMPO 26015G25KT SHRA BKN012
11-12-18 METAR EDDT 181320Z 26012KT 9000 -RA FEW009 BKN013 03/01 Q1002 R88/190095 BECMG SCT013
11-12-18 METAR EDDT 181350Z 26015KT 8000 -RA SCT008 BKN012 03/01 Q1002 R88/190095 TEMPO BKN015
11-12-18 METAR EDDT 181420Z 27013KT 8000 -RA SCT007 BKN010 03/01 Q1003 R88/190095
11-12-18 METAR EDDT 181450Z 27012KT 9999 -SHRA SCT012 BKN032 03/01 Q1003 R88/190095
11-12-18 METAR EDDT 181520Z 27013KT 9999 SCT012 SCT017 BKN035 03/00 Q1003 R88/290195
11-12-18 METAR EDDT 181550Z 27011KT 9999 -RA FEW008 BKN010 02/01 Q1004 R88/290195
11-12-18 METAR EDDT 181620Z 26013KT 9999 -RA FEW008 BKN010 BKN034 02/01 Q1004 R88/290195 TEMPO SCT010
11-12-18 METAR EDDT 181650Z 26012KT 9999 -RA BKN008 BKN038 02/01 Q1004 R88/290195
11-12-18 METAR EDDT 181720Z 26012KT 9999 FEW012 02/00 Q1005 R88/290195 NOSIG
11-12-18 METAR EDDT 181750Z 27012KT 9999 BKN010 03/01 Q1005 R88/290195 NOSIG
11-12-18 METAR EDDT 181820Z 26011KT 9999 BKN011 03/01 Q1006 R88/290195 NOSIG
11-12-18 METAR EDDT 181850Z 26011KT 9999 BKN012 02/01 Q1006 R88/290195 TEMPO BKN015
11-12-18 METAR EDDT 181920Z 27014KT 9999 BKN013 03/00 Q1007 R88/290195 TEMPO BKN015
11-12-18 METAR EDDT 181950Z 27013KT 9999 BKN013 03/00 Q1007 R88/290195 TEMPO BKN015
11-12-18 METAR EDDT 182020Z 26013KT 9999 BKN012 02/00 Q1007 R88/290195 TEMPO BKN015
11-12-18 METAR EDDT 182050Z 26012KT 9999 BKN012 BKN015 02/M00 Q1008 R88/290195 TEMPO
11-12-18 METAR EDDT 182120Z 26012KT 9999 FEW011 BKN014 02/M00 Q1008 R88/290195
11-12-18 METAR EDDT 182150Z 26011KT 9999 FEW011 BKN014 02/M00 Q1008 R88/290195
11-12-18 METAR EDDT 182220Z 26013KT 9999 BKN013 02/M00 Q1009 R88/290195
11-12-18 METAR EDDT 182250Z 27012KT 9999 BKN013 02/M00 Q1009 R88/290195
11-12-18 METAR EDDT 182320Z 27014KT 9999 BKN015 02/M00 Q1009 R88/290195
11-12-18 METAR EDDT 182350Z 26014KT 9999 SCT017 BKN023 02/M00 Q1009 R88/290195
11-12-19 METAR EDDT 182350Z 26014KT 9999 SCT017 BKN023 02/M00 Q1009 R88/290195
11-12-19 METAR EDDT 190020Z 26015KT 9999 FEW016 BKN020 02/M01 Q1009 R88/290195
11-12-19 METAR EDDT 190050Z 25012KT 9999 BKN016 BKN022 02/M00 Q1010 R88/290195
11-12-19 METAR EDDT 190120Z 25011KT 9999 FEW016 BKN020 BKN040 02/M00 Q1010 R88/290195
11-12-19 METAR EDDT 190150Z 24014KT 9999 SCT025 BKN035 02/M01 Q1010 R88/290195
11-12-19 METAR EDDT 190220Z 25013KT 9999 BKN021 BKN025 02/M01 Q1010 R88/290195
11-12-19 METAR EDDT 190250Z 25013KT 9999 BKN020 02/M01 Q1010 R88/290195
11-12-19 METAR EDDT 190320Z 24015KT 9999 -RA BKN020 BKN025 02/M01 Q1010 R88/290195
11-12-19 METAR EDDT 190350Z 24012KT 9999 SCT025 BKN035 02/M01 Q1010 R88/290195 NOSIG
11-12-19 METAR EDDT 190420Z 25013KT 9999 -RA BKN023 02/M01 Q1011 R88/290195 NOSIG
11-12-19 METAR EDDT 190450Z 25010KT 9999 BKN023 BKN046 02/M01 Q1011 R88/290195
11-12-19 METAR EDDT 190520Z 25012KT 9999 BKN026 BKN037 02/M01 Q1011 R88/290195
11-12-19 METAR EDDT 190550Z 25014KT 9999 FEW016 BKN023 02/M01 Q1011 R88/290195
11-12-19 METAR EDDT 190620Z 25012KT 9999 BKN021 03/M01 Q1011 R88/290195 NOSIG
11-12-19 METAR EDDT 190650Z 24013KT 9999 BKN019 BKN022 03/M01 Q1012 R88/290195 BECMG BKN014
11-12-19 METAR EDDT 190720Z 25012KT 9999 FEW018 BKN026 02/M01 Q1012 R88/290195 BECMG
11-12-19 METAR EDDT 190750Z 25013KT 9999 FEW018 BKN025 03/M01 Q1013 R88/290195 BECMG
11-12-19 METAR EDDT 190820Z 24014KT 9999 FEW018 BKN024 03/M01 Q1013 R88/290195 BECMG
11-12-19 METAR EDDT 190850Z 24015KT 9999 FEW018 BKN030 03/M01 Q1013 R88/290195
11-12-19 METAR EDDT 190920Z NIL
11-12-19 METAR EDDT 190920Z AUTO 24014KT //// R26R/1300VP2000U R26L/1000VP2000D // /// 03/M01 Q1013
11-12-19 METAR EDDT 190950Z 24010KT 9999 FEW016 BKN033 03/M01 Q1013 NOSIG
11-12-19 METAR EDDT 191020Z 24014KT 9999 FEW015 BKN026 03/M01 Q1014 NOSIG
11-12-19 METAR EDDT 191050Z 24014KT 9999 BKN015 BKN025 03/M01 Q1014 NOSIG
11-12-19 METAR EDDT 191120Z 24014KT 9999 BKN015 BKN025 03/M01 Q1014 BECMG BKN012
11-12-19 METAR EDDT 191150Z 24013KT 9999 SCT015 BKN023 03/M01 Q1014 BECMG BKN012
11-12-19 METAR EDDT 191220Z 24012KT 9999 FEW014 BKN023 03/M01 Q1014 BECMG BKN012
11-12-19 METAR EDDT 191250Z 25012KT 9999 BKN015 03/M01 Q1014 BECMG BKN012
11-12-19 METAR EDDT 191320Z 24012KT 7000 SHRASN SCT006 BKN014 03/M00 Q1014 BECMG 6000 NSW
11-12-19 METAR EDDT 191350Z 24009KT 7000 -SHRA SCT008 BKN012 BKN014 02/00 Q1014 RERASN NOSIG
11-12-19 METAR EDDT 191420Z 25009KT 9999 BKN006 BKN010 02/01 Q1015 TEMPO BKN010
11-12-19 METAR EDDT 191450Z 22008KT 9999 BKN009 BKN012 02/00 Q1015 TEMPO BKN010
11-12-19 METAR EDDT 191520Z 21008KT 9999 BKN009 BKN012 02/00 Q1015 TEMPO BKN010
11-12-19 METAR EDDT 191550Z 22008KT 9999 BKN010 02/00 Q1015 TEMPO BKN009
11-12-19 METAR EDDT 191620Z 24010KT 9999 BKN010 03/00 Q1015 TEMPO BKN009
11-12-19 METAR EDDT 191650Z 24009KT 9999 BKN009 03/01 Q1015 TEMPO BKN010
11-12-19 METAR EDDT 191720Z 25009KT 9999 BKN009 03/01 Q1015 TEMPO BKN010
11-12-19 METAR EDDT 191750Z 25009KT 9999 BKN009 BKN012 03/01 Q1016 TEMPO BKN010
11-12-19 METAR EDDT 191820Z 25008KT 9999 SCT009 BKN015 03/01 Q1016 NOSIG
11-12-19 METAR EDDT 191850Z 25008KT 9999 SCT010 BKN017 03/01 Q1016 NOSIG
11-12-19 METAR EDDT 191920Z 23008KT 9999 FEW009 SCT014 BKN017 03/01 Q1016 NOSIG
11-12-19 METAR EDDT 191950Z 24010KT 9999 FEW011 BKN015 03/00 Q1016 NOSIG
11-12-19 METAR EDDT 192020Z 24009KT 9999 FEW011 BKN015 03/00 Q1016 NOSIG
11-12-19 METAR EDDT 192050Z 21007KT 9999 SCT012 BKN015 03/00 Q1016 NOSIG
11-12-19 METAR EDDT 192120Z 21006KT 9999 FEW011 BKN013 03/00 Q1016 TEMPO BKN015
11-12-19 METAR EDDT 192150Z 21006KT 9999 SCT011 BKN050 03/00 Q1016 NOSIG
11-12-19 METAR EDDT 192250Z 20006KT 9999 FEW014 BKN054 02/M00 Q1015
11-12-19 METAR EDDT 192320Z 20007KT 9999 FEW010 BKN054 02/M00 Q1015
11-12-19 METAR EDDT 192350Z 20007KT 9999 FEW010 BKN058 02/M00 Q1015
11-12-20 METAR EDDT 192350Z 20007KT 9999 FEW010 BKN058 02/M00 Q1015
11-12-20 METAR EDDT 200020Z 21007KT CAVOK 01/M01 Q1015
11-12-20 METAR EDDT 200050Z 20006KT CAVOK 01/M01 Q1014
11-12-20 METAR EDDT 200120Z 20006KT CAVOK 01/M01 Q1014
11-12-20 METAR EDDT 200150Z 20007KT CAVOK 01/M01 Q1014
11-12-20 METAR EDDT 200220Z 20007KT CAVOK 01/M01 Q1013
11-12-20 METAR EDDT 200250Z 19007KT 9999 BKN048 02/M02 Q1013
11-12-20 METAR EDDT 200320Z 18008KT 9999 BKN044 02/M02 Q1013
11-12-20 METAR EDDT 200350Z 19007KT 9999 BKN046 02/M02 Q1012 NOSIG
11-12-20 METAR EDDT 200420Z 19009KT 9999 BKN046 02/M02 Q1012 NOSIG
11-12-20 METAR EDDT 200450Z 18009KT 9999 BKN046 01/M02 Q1012 NOSIG
11-12-20 METAR EDDT 200520Z 18009KT 9999 FEW046 01/M02 Q1011 NOSIG
11-12-20 METAR EDDT 200550Z 18007KT 9999 FEW046 01/M02 Q1011 NOSIG
11-12-20 METAR EDDT 200620Z 17009KT CAVOK 01/M03 Q1011 NOSIG
11-12-20 METAR EDDT 200650Z 17008KT CAVOK 01/M03 Q1011 NOSIG
11-12-20 METAR EDDT 200720Z 17009KT CAVOK 01/M04 Q1011 NOSIG
11-12-20 METAR EDDT 200750Z 17011KT CAVOK 01/M04 Q1010 NOSIG
11-12-20 METAR EDDT 200820Z 17011KT CAVOK 01/M05 Q1010 NOSIG
11-12-20 METAR EDDT 200850Z 17011KT CAVOK 01/M05 Q1010 NOSIG
11-12-20 METAR EDDT 200920Z 18009KT 9999 BKN046 01/M05 Q1010 NOSIG
11-12-20 METAR EDDT 200950Z 17010KT 9999 FEW038 BKN042 01/M05 Q1010 NOSIG
11-12-20 METAR EDDT 201020Z 18010KT 9999 -SN BKN035 02/M05 Q1009 NOSIG
11-12-20 METAR EDDT 201050Z 19011KT 9999 -SG BKN038 02/M05 Q1009 NOSIG
11-12-20 METAR EDDT 201120Z 18012KT 9999 -SG BKN040 02/M05 Q1008 NOSIG
11-12-20 METAR EDDT 201150Z 18011KT 9999 BKN040 02/M05 Q1008 NOSIG
11-12-20 METAR EDDT 201220Z 18011KT 9999 BKN044 02/M05 Q1008 NOSIG
11-12-20 METAR EDDT 201250Z 18009KT 9999 FEW040 BKN050 02/M05 Q1008 NOSIG
11-12-20 METAR EDDT 201320Z 18010KT 9999 FEW040 BKN054 03/M05 Q1008 NOSIG
11-12-20 METAR EDDT 201350Z 17009KT 9999 FEW034 SCT048 02/M05 Q1008 NOSIG
11-12-20 METAR EDDT 201420Z 17010KT 9999 SCT030 BKN060 02/M05 Q1008 NOSIG
11-12-20 METAR EDDT 201450Z 17009KT 9999 BKN030 02/M05 Q1008 NOSIG
11-12-20 METAR EDDT 201520Z 17010KT 9999 BKN030 BKN060 02/M05 Q1008 NOSIG
11-12-20 METAR EDDT 201550Z 18009KT 9999 BKN027 BKN066 02/M05 Q1008 NOSIG
11-12-20 METAR EDDT 201620Z 18010KT 9999 BKN027 02/M04 Q1008 NOSIG
11-12-20 METAR EDDT 201650Z 18008KT 9999 BKN027 BKN090 02/M04 Q1008 TEMPO SNRA
11-12-20 METAR EDDT 201720Z 18009KT 9999 BKN026 BKN084 02/M04 Q1008 TEMPO SNRA
11-12-20 METAR EDDT 201750Z 18009KT 9999 -SN BKN025 BKN084 02/M03 Q1008 TEMPO SNRA
11-12-20 METAR EDDT 201820Z 19010KT 9999 -SN FEW015 BKN040 BKN120 02/M03 Q1008 BECMG BKN014
11-12-20 METAR EDDT 201850Z 18009KT 9999 FEW015 BKN036 BKN060 01/M02 Q1008 BECMG
11-12-20 METAR EDDT 201920Z 18009KT 9999 SCT014 BKN030 02/M02 Q1008 BECMG BKN014
11-12-20 METAR EDDT 201950Z 18009KT 9999 BKN012 BKN025 01/M02 Q1008 BECMG BKN008
11-12-20 METAR EDDT 202020Z 19008KT 9999 BKN012 BKN023 01/M01 Q1007 BECMG BKN008
11-12-20 METAR EDDT 202050Z 19009KT 9000 -SN FEW006 SCT008 BKN010 01/M01 Q1007 BECMG BKN008
11-12-20 METAR EDDT 202220Z 18006KT 3000 DZ FEW002 BKN003 BKN005 01/M00 Q1007
11-12-20 METAR EDDT 202250Z 17007KT 3000 DZ BKN003 BKN004 01/00 Q1007
11-12-21 METAR EDDT 210050Z 19005KT 4000 -RADZ FEW003 BKN004 01/00 Q1006
11-12-21 METAR EDDT 210120Z 21004KT 4500 SNRA FEW003 BKN004 01/00 Q1006
11-12-21 METAR EDDT 210220Z 24005KT 2800 -RADZ FEW002 BKN003 02/01 Q1007
11-12-21 METAR EDDT 210250Z 27009KT 5000 RA FEW002 BKN003 02/01 Q1007
11-12-21 METAR EDDT 210320Z 30009KT 3000 SN FEW002 BKN004 01/M00 Q1007
11-12-21 METAR EDDT 210350Z 29008KT 4000 -SN FEW003 BKN004 01/M00 Q1007 RESN NOSIG
11-12-21 METAR EDDT 210420Z 29007KT 7000 -SNRA FEW003 BKN004 BKN006 01/00 Q1007 TEMPO BKN005
11-12-21 METAR EDDT 210450Z 30006KT 6000 -RASN FEW003 BKN004 01/00 Q1008 TEMPO
11-12-21 METAR EDDT 210520Z 30006KT 5000 -RASN FEW003 BKN004 BKN006 01/00 Q1008
11-12-21 METAR EDDT 210550Z 30007KT 5000 -RASN FEW003 BKN004 BKN006 01/01 Q1008 TEMPO 4000 BKN005
11-12-21 METAR EDDT 210620Z 30007KT 6000 -RASN SCT004 BKN005 BKN007 02/01 Q1008 TEMPO 4000 BKN004
11-12-21 METAR EDDT 210650Z 30007KT 7000 -RASN FEW004 BKN005 BKN007 02/01 Q1008
11-12-21 METAR EDDT 210720Z 30007KT 8000 -RA FEW004 BKN006 BKN010 02/01 Q1009 NOSIG
11-12-21 METAR EDDT 210750Z 30007KT 7000 -RA FEW004 BKN006 02/01 Q1009 NOSIG
11-12-21 METAR EDDT 210820Z 30009KT 7000 -RA FEW004 BKN006 BKN008 02/01 Q1009 NOSIG
11-12-21 METAR EDDT 210850Z 29008KT 6000 -RA FEW004 BKN006 02/01 Q1010 NOSIG
11-12-21 METAR EDDT 210920Z 29008KT 8000 -RA BKN006 BKN009 02/01 Q1010 NOSIG
11-12-21 METAR EDDT 210950Z 30010KT 9000 BKN007 BKN011 03/01 Q1010 BECMG BKN010
11-12-21 METAR EDDT 211020Z 30011KT 9999 BKN010 BKN033 03/02 Q1010 BECMG BKN015
11-12-21 METAR EDDT 211050Z 30010KT 9999 BKN012 03/01 Q1010 BECMG BKN015
11-12-21 METAR EDDT 211120Z 30010KT 9999 BKN012 03/02 Q1011 BECMG BKN015
11-12-21 METAR EDDT 211150Z 30008KT 9999 SCT012 04/02 Q1011 NOSIG
11-12-21 METAR EDDT 211220Z 30010KT 9999 BKN012 04/02 Q1011 BECMG BKN015
11-12-21 METAR EDDT 211250Z 30008KT 9999 BKN012 04/02 Q1011 BECMG BKN015
11-12-21 METAR EDDT 211320Z 30007KT 9999 -SHRA BKN012 04/02 Q1012 BECMG BKN015
11-12-21 METAR EDDT 211350Z 28007KT 9999 -SHRA BKN010 04/02 Q1012 BECMG BKN015
11-12-21 METAR EDDT 211420Z 29006KT 9999 -SHRA FEW006 BKN012 04/02 Q1012 BECMG BKN015
11-12-21 METAR EDDT 211450Z 29006KT 9999 -RA BKN012 04/02 Q1012 BECMG BKN015
11-12-21 METAR EDDT 211520Z 30006KT 9999 -RA FEW006 BKN010 04/02 Q1013 BECMG BKN015
11-12-21 METAR EDDT 211550Z 29005KT 9999 FEW006 BKN012 03/02 Q1013 BECMG BKN015
11-12-21 METAR EDDT 211620Z 29006KT 9999 FEW005 SCT012 BKN035 03/02 Q1013 TEMPO BKN012
11-12-21 METAR EDDT 211650Z 29005KT 9999 SCT010 BKN040 03/02 Q1014 TEMPO BKN012
11-12-21 METAR EDDT 211720Z 29005KT 9999 FEW011 BKN040 03/02 Q1014 TEMPO BKN012
11-12-21 METAR EDDT 211750Z 28005KT 9999 SCT007 BKN040 03/01 Q1014 TEMPO BKN007
11-12-21 METAR EDDT 211820Z 29004KT 9999 BKN006 03/01 Q1015 TEMPO BKN012
11-12-21 METAR EDDT 211850Z 29005KT 9999 FEW006 BKN015 02/01 Q1015 TEMPO BKN012
11-12-21 METAR EDDT 211920Z 29005KT 9999 FEW006 SCT014 02/01 Q1015 TEMPO BKN014
11-12-21 METAR EDDT 211950Z 28004KT 9999 FEW006 SCT040 01/00 Q1016 NOSIG
11-12-21 METAR EDDT 212020Z 28004KT 9999 FEW006 SCT035 01/00 Q1016 NOSIG
11-12-21 METAR EDDT 212050Z 28005KT 9999 FEW006 SCT035 01/00 Q1016 TEMPO BKN007
11-12-21 METAR EDDT 212120Z 28005KT 9999 BKN036 02/01 Q1017 TEMPO BKN007
11-12-21 METAR EDDT 212150Z 28005KT 9999 BKN037 02/01 Q1017 TEMPO BKN007
11-12-21 METAR EDDT 212220Z 29006KT 9999 BKN038 02/01 Q1018
11-12-21 METAR EDDT 212250Z 29005KT 9999 FEW005 BKN038 02/01 Q1018
11-12-21 METAR EDDT 212320Z 29005KT 9999 BKN004 BKN038 02/01 Q1018
11-12-21 METAR EDDT 212350Z 29006KT 9999 BKN003 BKN006 02/01 Q1018
11-12-22 METAR EDDT 212350Z 29006KT 9999 BKN003 BKN006 02/01 Q1018
11-12-22 METAR EDDT 220020Z 28006KT 9999 BKN003 02/01 Q1018
11-12-22 METAR EDDT 220050Z 28008KT 5000 BR OVC003 01/01 Q1018
11-12-22 METAR EDDT 220120Z 28008KT 5000 BR OVC003 01/00 Q1018
11-12-22 METAR EDDT 220150Z 29005KT 5000 BR OVC003 01/01 Q1019
11-12-22 METAR EDDT 220220Z 28007KT 5000 BR OVC003 01/00 Q1019
11-12-22 METAR EDDT 220250Z 28006KT 5000 BR OVC003 01/01 Q1019
11-12-22 METAR EDDT 220320Z 27006KT 6000 OVC004 01/01 Q1019
11-12-22 METAR EDDT 220350Z 27005KT 6000 OVC004 01/01 Q1019 TEMPO BKN005
11-12-22 METAR EDDT 220420Z 27004KT 9000 OVC004 02/01 Q1020 TEMPO BKN005
11-12-22 METAR EDDT 220450Z 27005KT 9000 OVC004 02/01 Q1020 TEMPO BKN005
11-12-22 METAR EDDT 220520Z 26007KT 8000 OVC004 01/00 Q1020 TEMPO BKN005
11-12-22 METAR EDDT 220550Z 26004KT 6000 OVC003 01/01 Q1020 TEMPO BKN005
11-12-22 METAR EDDT 220620Z 26005KT 6000 OVC003 01/01 Q1020 BECMG 4000 BR
11-12-22 METAR EDDT 220650Z 24005KT 6000 OVC003 02/01 Q1020 BECMG 4000 BR
11-12-22 METAR EDDT 220720Z 24005KT 5000 BR OVC003 02/01 Q1020 NOSIG
11-12-22 METAR EDDT 220750Z 20004KT 5000 BR OVC003 02/01 Q1020 NOSIG
11-12-22 METAR EDDT 220820Z 21005KT 5000 BR OVC003 02/01 Q1020 NOSIG
11-12-22 METAR EDDT 220850Z 20005KT 6000 OVC003 02/01 Q1020 NOSIG
11-12-22 METAR EDDT 220920Z 20005KT 6000 BKN004 02/01 Q1020 BECMG BKN005
11-12-22 METAR EDDT 220950Z 21006KT 6000 SCT004 BKN005 03/01 Q1020 NOSIG
11-12-22 METAR EDDT 221020Z 21004KT 6000 SCT003 BKN006 03/02 Q1020 NOSIG
11-12-22 METAR EDDT 221050Z 21005KT 6000 SCT004 BKN006 03/02 Q1020 NOSIG
11-12-22 METAR EDDT 221120Z 19004KT 6000 SCT004 BKN008 04/03 Q1020 TEMPO BKN015
11-12-22 METAR EDDT 221150Z 20004KT 7000 SCT006 BKN015 04/03 Q1019 NOSIG
11-12-22 METAR EDDT 221220Z 21004KT 7000 SCT008 BKN035 05/02 Q1019 NOSIG
11-12-22 METAR EDDT 221250Z 19004KT 7000 FEW008 BKN035 05/03 Q1019 NOSIG
11-12-22 METAR EDDT 221320Z 19005KT 8000 FEW008 BKN035 05/03 Q1018 NOSIG
11-12-22 METAR EDDT 221350Z 15005KT 8000 SCT035 BKN050 05/02 Q1018 NOSIG
11-12-22 METAR EDDT 221420Z 15004KT 8000 BKN050 05/03 Q1019 NOSIG
11-12-22 METAR EDDT 221450Z 15007KT 8000 SCT040 BKN050 05/02 Q1019 NOSIG
11-12-22 METAR EDDT 221520Z 15005KT 8000 SCT009 BKN037 05/02 Q1019 TEMPO BKN009
11-12-22 METAR EDDT 221550Z 15005KT 8000 BKN009 BKN037 05/03 Q1019 NOSIG
11-12-22 METAR EDDT 221620Z 16005KT 9999 BKN009 BKN024 05/03 Q1019 TEMPO SCT010
11-12-22 METAR EDDT 221650Z 15005KT 9999 SCT009 BKN024 05/03 Q1019 BECMG BKN008
11-12-22 METAR EDDT 221720Z 17005KT 9999 SCT009 BKN013 05/03 Q1019 BECMG BKN008
11-12-22 METAR EDDT 221750Z 17005KT 9999 SCT009 BKN011 05/03 Q1020 BECMG BKN008
11-12-22 METAR EDDT 221820Z 18006KT 9999 SCT009 BKN011 05/03 Q1020 BECMG BKN008
11-12-22 METAR EDDT 221850Z 18007KT 9999 BKN010 05/03 Q1020 BECMG BKN008
11-12-22 METAR EDDT 221920Z 21006KT 9999 BKN008 BKN010 05/03 Q1020 BECMG BKN004
11-12-22 METAR EDDT 222250Z 22003KT 3000 -RADZ BR FEW002 BKN003 05/04 Q1020
11-12-23 METAR EDDT 230350Z 27004KT 3200 BR BKN003 OVC004 06/05 Q1019 TEMPO 2500 -DZ
11-12-23 METAR EDDT 230420Z 26004KT 3400 BR BKN003 OVC004 06/06 Q1020 TEMPO 2500
11-12-23 METAR EDDT 231450Z 25010KT 5000 BR SCT004 OVC006 09/08 Q1016 NOSIG
11-12-23 METAR EDDT 231520Z 24009KT 4800 BR BKN006 BKN040 09/08 Q1016 NOSIG
11-12-23 METAR EDDT 231550Z 24011KT 4800 BR BKN007 BKN020 09/08 Q1016 BECMG 5000 SCT010
11-12-23 METAR EDDT 231620Z 23009KT 4800 BR BKN008 BKN018 09/08 Q1015 BECMG 5000
11-12-23 METAR EDDT 231650Z 25009KT 6000 BKN009 09/08 Q1015 BECMG SCT010
11-12-23 METAR EDDT 231820Z 22007KT 6000 BKN009 BKN040 09/07 Q1014 BECMG SCT010
11-12-23 METAR EDDT 231850Z 22007KT 8000 SCT007 BKN040 08/07 Q1014 NOSIG
11-12-23 METAR EDDT 231920Z 22008KT 9000 FEW007 SCT011 BKN033 08/07 Q1014 NOSIG
11-12-23 METAR EDDT 231950Z 22007KT 9000 FEW008 BKN028 08/07 Q1013 NOSIG
11-12-23 METAR EDDT 232020Z 21007KT 9999 FEW008 BKN028 08/07 Q1013 NOSIG
11-12-23 METAR EDDT 232050Z 20006KT 9999 BKN027 08/07 Q1013 NOSIG
11-12-23 METAR EDDT 232120Z 20006KT 9999 BKN027 08/07 Q1012 NOSIG
11-12-23 METAR EDDT 232150Z 22007KT 9000 FEW008 BKN025 08/07 Q1012 NOSIG
11-12-23 METAR EDDT 232220Z 22008KT 9000 FEW008 BKN035 08/07 Q1012 NOSIG
11-12-23 METAR EDDT 232250Z 21007KT 9999 FEW008 BKN040 08/07 Q1011
11-12-23 METAR EDDT 232320Z 20006KT 9000 -RA SCT008 BKN038 08/07 Q1011
11-12-23 METAR EDDT 232350Z 21006KT 9999 -RA FEW008 BKN038 08/06 Q1011
11-12-24 METAR EDDT 232350Z 21006KT 9999 -RA FEW008 BKN038 08/06 Q1011
11-12-24 METAR EDDT 240020Z 19006KT 9999 SCT007 BKN035 08/06 Q1010
11-12-24 METAR EDDT 240050Z 20007KT 9999 FEW008 BKN035 08/06 Q1010
11-12-24 METAR EDDT 240120Z 20007KT 9999 FEW009 BKN035 08/06 Q1009
11-12-24 METAR EDDT 240150Z 20007KT 9999 FEW010 BKN030 08/06 Q1009
11-12-24 METAR EDDT 240220Z 21008KT 9999 FEW010 BKN030 08/06 Q1009
11-12-24 METAR EDDT 240250Z 20008KT 9999 BKN030 08/05 Q1008
11-12-24 METAR EDDT 240320Z 19007KT 9999 BKN038 07/05 Q1008
11-12-24 METAR EDDT 240350Z 21008KT 9999 FEW012 BKN020 07/05 Q1008 NOSIG
11-12-24 METAR EDDT 240420Z 21009KT 6000 -RADZ SCT007 BKN012 07/06 Q1008 TEMPO BKN015
11-12-24 METAR EDDT 240450Z 21008KT 6000 -RADZ SCT006 SCT009 BKN011 07/06 Q1007 TEMPO BKN015
11-12-24 METAR EDDT 240520Z 21008KT 8000 -RADZ FEW006 SCT008 BKN020 07/06 Q1007 TEMPO BKN014
11-12-24 METAR EDDT 240550Z 21008KT 9999 -RADZ FEW008 BKN025 07/05 Q1007 TEMPO
11-12-24 METAR EDDT 240620Z 21008KT 9999 BKN015 BKN032 07/05 Q1008 TEMPO BKN014
11-12-24 METAR EDDT 240720Z 22008KT 2500 DZ FEW005 BKN008 06/05 Q1008 BECMG 5000 NSW
11-12-24 METAR EDDT 240820Z 23009KT 6000 RA FEW007 BKN012 07/05 Q1009 TEMPO NSW BKN030
11-12-24 METAR EDDT 240850Z 25010KT 8000 -RA SCT012 BKN025 07/05 Q1009 RERA NOSIG
11-12-24 METAR EDDT 240920Z 26008KT 8000 RA SCT008 BKN015 07/05 Q1010 TEMPO NSW
11-12-24 METAR EDDT 240950Z 25009KT 8000 RA SCT006 BKN009 07/06 Q1010 TEMPO NSW BKN012
11-12-24 METAR EDDT 241020Z 28008KT 9000 -RA SCT008 BKN012 07/06 Q1010 RERA NOSIG
11-12-24 METAR EDDT 241050Z 28010KT 9999 -RA SCT008 BKN011 07/05 Q1010 NOSIG
11-12-24 METAR EDDT 241120Z 29007KT 9999 -RA FEW009 BKN011 BKN023 07/05 Q1011 BECMG 29015G25KT SCT015
11-12-24 METAR EDDT 241150Z 29007KT 6000 RA BKN008 BKN011 07/05 Q1011 BECMG 29015G25KT NSW BKN012
11-12-24 METAR EDDT 241220Z 33013KT 7000 -RA SCT010 BKN015 05/03 Q1013 RERA TEMPO 30015G25KT BKN011
11-12-24 METAR EDDT 241250Z 32011G21KT 9999 -RA SCT011 BKN014 05/03 Q1014 NOSIG
11-12-24 METAR EDDT 241320Z 31009KT 9999 -RA SCT011 BKN014 05/03 Q1014 BECMG BKN015
11-12-24 METAR EDDT 241350Z 30009KT 9999 -RA FEW011 BKN014 05/03 Q1015 BECMG BKN015
11-12-24 METAR EDDT 241420Z 30011KT 9999 SCT011 BKN015 05/03 Q1016 TEMPO BKN012
11-12-24 METAR EDDT 241450Z 30010KT 9999 SCT013 BKN017 05/03 Q1017 NOSIG
11-12-24 METAR EDDT 241520Z 30011KT 9999 SCT018 BKN035 05/03 Q1018 NOSIG
11-12-24 METAR EDDT 241550Z 30009KT 9999 SCT022 BKN026 05/03 Q1018 NOSIG
11-12-24 METAR EDDT 241620Z 30011KT 9999 SCT018 BKN021 05/03 Q1019 NOSIG
11-12-24 METAR EDDT 241650Z 30012KT 9999 SCT019 BKN025 05/03 Q1020 NOSIG
11-12-24 METAR EDDT 241720Z 29009KT 9999 FEW020 05/02 Q1021 NOSIG
11-12-24 METAR EDDT 241750Z 29010KT 9999 FEW030 04/02 Q1021 NOSIG
11-12-24 METAR EDDT 241820Z 29009KT 9999 FEW030 04/02 Q1022 NOSIG
11-12-24 METAR EDDT 241850Z 28009KT CAVOK 04/02 Q1022 NOSIG
11-12-24 METAR EDDT 241920Z 28009KT CAVOK 04/02 Q1023 NOSIG
11-12-24 METAR EDDT 241950Z 29009KT 9999 FEW017 04/02 Q1023 NOSIG
11-12-24 METAR EDDT 242020Z 28009KT 9999 FEW017 04/02 Q1024 NOSIG
11-12-24 METAR EDDT 242050Z 28008KT 9999 FEW017 03/01 Q1024 NOSIG
11-12-24 METAR EDDT 242120Z 28010KT 9999 SCT017 04/02 Q1024 NOSIG
11-12-24 METAR EDDT 242150Z 28009KT 9999 FEW017 03/02 Q1025 NOSIG
11-12-24 METAR EDDT 242220Z 26009KT 9999 SCT014 02/01 Q1025
11-12-24 METAR EDDT 242250Z 26009KT 9999 SCT014 02/01 Q1025
11-12-24 METAR EDDT 242320Z 26010KT 9999 SCT014 02/01 Q1025
11-12-24 METAR EDDT 242350Z 26009KT 9999 FEW014 02/01 Q1025
11-12-25 METAR EDDT 242350Z 26009KT 9999 FEW014 02/01 Q1025
11-12-25 METAR EDDT 250020Z 26009KT 9999 FEW014 02/00 Q1026
11-12-25 METAR EDDT 250050Z 26008KT 9999 FEW030 02/01 Q1026
11-12-25 METAR EDDT 250120Z 26009KT 9999 FEW030 02/01 Q1026
11-12-25 METAR EDDT 250150Z 25007KT 9999 FEW025 03/01 Q1026
11-12-25 METAR EDDT 250220Z 24009KT 9999 FEW025 03/01 Q1026
11-12-25 METAR EDDT 250250Z 25010KT 9999 BKN015 BKN030 03/01 Q1026
11-12-25 METAR EDDT 250320Z 25009KT 9999 BKN015 BKN030 03/01 Q1026
11-12-25 METAR EDDT 250350Z 23007KT 9999 OVC016 04/02 Q1026 TEMPO BKN014
11-12-25 METAR EDDT 250420Z 22008KT 9999 OVC016 04/02 Q1025 TEMPO BKN014
11-12-25 METAR EDDT 250450Z 22009KT 9999 OVC017 04/01 Q1025 TEMPO BKN014
11-12-25 METAR EDDT 250520Z 22009KT 9999 BKN020 BKN060 04/01 Q1025 TEMPO BKN014
11-12-25 METAR EDDT 250550Z 23009KT 9999 BKN020 04/01 Q1026 TEMPO BKN014
11-12-25 METAR EDDT 250620Z 22008KT 9999 BKN018 03/01 Q1026 TEMPO BKN014
11-12-25 METAR EDDT 250650Z 22007KT 9999 BKN018 04/01 Q1025 TEMPO BKN014
11-12-25 METAR EDDT 250720Z 22008KT 9999 -RA BKN018 04/01 Q1025 BECMG BKN014
11-12-25 METAR EDDT 250750Z 21009KT 9999 -RA BKN017 03/02 Q1026 BECMG BKN014
11-12-25 METAR EDDT 250820Z 22008KT 9999 -RA BKN018 04/02 Q1026 BECMG BKN014
11-12-25 METAR EDDT 250850Z 22009KT 9999 -RA BKN017 04/02 Q1026 BECMG BKN014
11-12-25 METAR EDDT 250920Z 22010KT 8000 -RADZ SCT010 BKN013 04/03 Q1026 NOSIG
11-12-25 METAR EDDT 250950Z 23010KT 9999 -RADZ SCT010 BKN013 04/03 Q1026 NOSIG
11-12-25 METAR EDDT 251020Z 24011KT 7000 -RADZ SCT010 BKN013 05/04 Q1026 NOSIG
11-12-25 METAR EDDT 251050Z 24012KT 4600 -DZRA SCT006 BKN009 OVC014 05/04 Q1026 NOSIG
11-12-25 METAR EDDT 251120Z 24013KT 6000 -DZRA FEW006 SCT009 BKN012 05/04 Q1026
11-12-25 METAR EDDT 251250Z 23009KT 9000 FEW006 SCT009 BKN012 05/04 Q1026 TEMPO 4000
11-12-25 METAR EDDT 251320Z 23009KT 9999 SCT009 BKN012 06/04 Q1026 TEMPO BKN009
11-12-25 METAR EDDT 251350Z 23008KT 9999 FEW009 BKN012 06/04 Q1026 TEMPO BKN009
11-12-25 METAR EDDT 251420Z 23009KT 9999 FEW009 BKN012 06/04 Q1026 TEMPO BKN009
11-12-25 METAR EDDT 251450Z 24009KT 9999 FEW009 BKN012 07/04 Q1027 TEMPO BKN009
11-12-25 METAR EDDT 251520Z 23009KT 9999 BKN014 07/04 Q1027 NOSIG
11-12-25 METAR EDDT 251550Z 23012KT 9999 -RA BKN015 07/04 Q1027 NOSIG
11-12-25 METAR EDDT 251620Z 23011KT 9999 -RA BKN016 07/05 Q1027 NOSIG
11-12-25 METAR EDDT 251650Z 23011KT 9999 -RA BKN014 07/05 Q1027 NOSIG
11-12-25 METAR EDDT 251720Z 23012KT 9999 -RA BKN014 07/05 Q1027 NOSIG
11-12-25 METAR EDDT 251750Z 24009KT 9999 -RA BKN014 07/05 Q1027 NOSIG
11-12-25 METAR EDDT 251820Z 23010KT 9999 -RA FEW011 BKN014 07/05 Q1027 NOSIG
11-12-25 METAR EDDT 251850Z 22012KT 9999 FEW011 BKN014 07/05 Q1027 NOSIG
11-12-25 METAR EDDT 251920Z 23011KT 9999 BKN012 07/05 Q1027 NOSIG
11-12-25 METAR EDDT 251950Z 22012KT 9999 BKN013 07/05 Q1027 NOSIG
11-12-25 METAR EDDT 252020Z 23012KT 9999 BKN014 07/05 Q1027 NOSIG
11-12-25 METAR EDDT 252050Z 23011KT 9999 BKN014 07/05 Q1027 NOSIG
11-12-25 METAR EDDT 252120Z 24012KT 9999 BKN014 07/05 Q1027 NOSIG
11-12-25 METAR EDDT 252150Z 24014KT 9999 BKN014 08/05 Q1027 NOSIG
11-12-25 METAR EDDT 252220Z 23012KT 9999 -RA BKN014 08/06 Q1027
11-12-25 METAR EDDT 252250Z 23012KT 9999 -RA BKN013 08/06 Q1027
11-12-25 METAR EDDT 252320Z 24016KT 9999 BKN014 08/06 Q1027
11-12-25 METAR EDDT 252350Z 25015KT 9999 BKN014 08/06 Q1027
11-12-26 METAR EDDT 252350Z 25015KT 9999 BKN014 08/06 Q1027
11-12-26 METAR EDDT 260020Z 25015KT 9999 BKN014 08/06 Q1027
11-12-26 METAR EDDT 260050Z 25014KT 9999 BKN014 08/06 Q1027
11-12-26 METAR EDDT 260120Z 24013KT 9999 SCT013 BKN016 09/06 Q1027
11-12-26 METAR EDDT 260150Z 24014KT 9999 SCT014 BKN016 09/06 Q1027
11-12-26 METAR EDDT 260220Z 25013KT 9999 -RA BKN014 09/06 Q1027
11-12-26 METAR EDDT 260250Z 25014KT 9999 BKN013 09/06 Q1027
11-12-26 METAR EDDT 260320Z 25016KT 9999 BKN013 09/07 Q1027
11-12-26 METAR EDDT 260350Z 25015KT 9999 -RA BKN012 09/07 Q1027 NOSIG
11-12-26 METAR EDDT 260420Z 25014KT 9999 BKN012 09/07 Q1027 NOSIG
11-12-26 METAR EDDT 260450Z 25015KT 6000 -DZRA FEW006 BKN011 09/07 Q1027 TEMPO 4000 RADZ
11-12-26 METAR EDDT 260650Z 25013KT 4000 -RADZ FEW004 BKN006 BKN009 09/08 Q1029 NOSIG
11-12-26 METAR EDDT 260720Z 25012KT 3800 -RADZ FEW003 BKN006 09/08 Q1029 NOSIG
11-12-26 METAR EDDT 260750Z 25011KT 3500 -DZRA FEW004 BKN006 09/08 Q1029 NOSIG
11-12-26 METAR EDDT 260820Z 25012KT 3500 DZ FEW004 BKN006 09/08 Q1030 NOSIG
11-12-26 METAR EDDT 260850Z 26013KT 3800 DZ FEW004 BKN007 09/08 Q1030 NOSIG
11-12-26 METAR EDDT 260920Z 25013KT 6000 -RADZ FEW006 BKN008 09/08 Q1031 REDZ TEMPO 4000 -DZ
11-12-26 METAR EDDT 260950Z 26013KT 7000 -RADZ FEW006 BKN009 09/09 Q1031 TEMPO 4000
11-12-26 METAR EDDT 261020Z 25012KT 9999 -RADZ FEW007 BKN011 10/09 Q1031 TEMPO BKN007
11-12-26 METAR EDDT 261050Z 26012KT 9999 SCT008 BKN012 10/08 Q1031 TEMPO BKN007
11-12-26 METAR EDDT 261120Z 27012KT 9000 -RADZ SCT008 BKN012 10/09 Q1031 TEMPO
11-12-26 METAR EDDT 261150Z 26014KT 9000 -RADZ SCT008 BKN011 10/09 Q1031 TEMPO
11-12-26 METAR EDDT 261220Z 26013KT 8000 -RADZ BKN008 BKN012 10/09 Q1031 TEMPO BKN010
11-12-26 METAR EDDT 261250Z 26011KT 8000 -RADZ BKN008 BKN012 10/09 Q1031 TEMPO
11-12-26 METAR EDDT 261320Z 25012KT 8000 -RADZ BKN008 BKN011 10/09 Q1031 TEMPO
11-12-26 METAR EDDT 261350Z 25010KT 8000 -RADZ SCT007 BKN010 10/09 Q1031 TEMPO BKN009
11-12-26 METAR EDDT 261420Z 25011KT 6000 -RADZ FEW004 BKN007 10/09 Q1031 NOSIG
11-12-26 METAR EDDT 261450Z 25010KT 6000 -RADZ FEW004 BKN006 10/09 Q1031 NOSIG
11-12-26 METAR EDDT 261520Z 25010KT 9000 -RADZ BKN007 BKN011 10/09 Q1031 TEMPO
11-12-26 METAR EDDT 261550Z 25009KT 9999 -RADZ SCT009 BKN013 10/08 Q1032 TEMPO BKN015
11-12-26 METAR EDDT 261620Z 25010KT 9999 FEW011 BKN014 10/08 Q1032 TEMPO BKN015
11-12-26 METAR EDDT 261650Z 25010KT 9999 BKN015 10/08 Q1032 NOSIG
11-12-26 METAR EDDT 261720Z 25010KT 9999 -RA SCT015 BKN022 10/08 Q1032 NOSIG
11-12-26 METAR EDDT 261750Z 24011KT 9999 SCT014 BKN020 10/08 Q1032 NOSIG
11-12-26 METAR EDDT 261820Z 25011KT 9999 -RA FEW013 BKN015 10/08 Q1032 TEMPO BKN014
11-12-26 METAR EDDT 261850Z 25011KT 9999 -RA FEW013 BKN015 10/08 Q1032 TEMPO BKN014
11-12-26 METAR EDDT 261920Z 26011KT 9999 -RA FEW012 BKN014 10/08 Q1032 TEMPO BKN015
11-12-26 METAR EDDT 261950Z 25012KT 9999 -RA FEW012 BKN014 10/08 Q1032 TEMPO BKN015
11-12-26 METAR EDDT 262020Z 24013KT 9999 FEW014 BKN025 10/08 Q1032 NOSIG
11-12-26 METAR EDDT 262050Z 25011KT 9999 FEW013 BKN024 10/08 Q1032 NOSIG
11-12-26 METAR EDDT 262120Z 24012KT 9999 -RA FEW013 SCT019 BKN022 10/08 Q1032 TEMPO BKN014
11-12-26 METAR EDDT 262150Z 24013KT 9999 -DZRA BKN013 10/08 Q1032 NOSIG
11-12-26 METAR EDDT 262220Z 24012KT 8000 -DZRA FEW008 BKN010 10/08 Q1032
11-12-26 METAR EDDT 262250Z 24015KT 7000 -DZRA SCT006 BKN008 10/08 Q1032
11-12-27 METAR EDDT 270320Z 25009KT 9000 BKN011 10/08 Q1032
11-12-27 METAR EDDT 270820Z 25013KT 9999 -RA SCT012 BKN024 OVC030 10/08 Q1032 TEMPO BKN012
11-12-27 METAR EDDT 270850Z 25014KT 9999 FEW012 BKN033 10/08 Q1032 TEMPO BKN012
11-12-27 METAR EDDT 270920Z 24013KT 9999 -RA SCT012 BKN033 10/08 Q1032 TEMPO BKN012
11-12-27 METAR EDDT 270950Z 25014KT 9999 BKN012 BKN030 10/08 Q1032 NOSIG
11-12-27 METAR EDDT 271020Z 25013KT 9999 -RA BKN012 BKN030 10/08 Q1032 NOSIG
11-12-27 METAR EDDT 271050Z 27013KT 9999 SCT012 BKN035 10/07 Q1032 TEMPO BKN014
11-12-27 METAR EDDT 271120Z 28014KT 9999 FEW012 BKN030 10/06 Q1032 TEMPO BKN014
11-12-27 METAR EDDT 271150Z 29008KT 9999 -RA FEW012 BKN023 10/06 Q1032 TEMPO BKN014
11-12-27 METAR EDDT 271220Z 28014G24KT 9999 FEW012 BKN023 10/05 Q1032 TEMPO BKN014
11-12-27 METAR EDDT 271250Z 29014G24KT 9999 FEW012 BKN030 09/04 Q1032 TEMPO BKN014
11-12-27 METAR EDDT 271320Z 29015KT 9999 FEW012 BKN027 09/04 Q1032 TEMPO BKN014
11-12-27 METAR EDDT 271350Z 27014KT 9999 FEW012 BKN030 09/05 Q1033 TEMPO BKN014
11-12-27 METAR EDDT 271420Z 27012KT 9999 FEW012 BKN026 09/05 Q1033 TEMPO BKN014
11-12-27 METAR EDDT 271450Z 27010KT 9999 FEW012 BKN024 09/05 Q1033 TEMPO BKN014
11-12-27 METAR EDDT 271520Z 27009KT 9999 FEW012 BKN020 09/05 Q1033 TEMPO BKN014
11-12-27 METAR EDDT 271550Z 27009KT 9999 BKN020 08/05 Q1033 NOSIG
11-12-27 METAR EDDT 271620Z 26009KT 9999 BKN018 08/05 Q1033 TEMPO BKN014
11-12-27 METAR EDDT 271650Z 26009KT 9999 BKN030 08/05 Q1033 TEMPO BKN014
11-12-27 METAR EDDT 271720Z 26010KT 9999 SCT020 BKN030 07/04 Q1033 TEMPO BKN014
11-12-27 METAR EDDT 271750Z 27009KT 9999 BKN018 08/05 Q1033 TEMPO BKN014
11-12-27 METAR EDDT 271820Z 26008KT 9999 BKN018 08/05 Q1033 TEMPO BKN014
11-12-27 METAR EDDT 271850Z 26009KT 9999 BKN018 08/05 Q1033 TEMPO BKN014
11-12-27 METAR EDDT 271920Z 27007KT 9999 BKN019 BKN030 08/05 Q1033 NOSIG
11-12-27 METAR EDDT 271950Z 26007KT 9999 BKN019 08/05 Q1034 NOSIG
11-12-27 METAR EDDT 272020Z 26006KT 9999 FEW015 BKN023 07/05 Q1033 NOSIG
11-12-27 METAR EDDT 272050Z 27006KT 9999 FEW015 BKN023 07/05 Q1033 NOSIG
11-12-27 METAR EDDT 272120Z 26005KT 9999 BKN020 07/04 Q1033 NOSIG
11-12-27 METAR EDDT 272150Z 27004KT 9999 BKN021 07/04 Q1033 NOSIG
11-12-27 METAR EDDT 272220Z 26004KT 9999 BKN021 07/04 Q1033
11-12-27 METAR EDDT 272250Z 26004KT 9999 FEW015 BKN020 07/05 Q1033
11-12-27 METAR EDDT 272320Z 26004KT 9999 FEW012 BKN020 07/05 Q1033
11-12-27 METAR EDDT 272350Z 25004KT 9999 FEW012 BKN015 BKN020 07/05 Q1033
11-12-28 METAR EDDT 272350Z 25004KT 9999 FEW012 BKN015 BKN020 07/05 Q1033
11-12-28 METAR EDDT 280020Z 25005KT 9999 SCT012 SCT015 BKN020 07/05 Q1032
11-12-28 METAR EDDT 280050Z 24005KT 9999 FEW015 BKN024 07/05 Q1032
11-12-28 METAR EDDT 280120Z 24006KT 9999 FEW015 BKN024 07/05 Q1032
11-12-28 METAR EDDT 280150Z 23004KT 9999 BKN024 07/05 Q1032
11-12-28 METAR EDDT 280220Z 22004KT 9999 FEW015 BKN024 07/05 Q1031
11-12-28 METAR EDDT 280250Z 22004KT 9999 OVC022 07/05 Q1031
11-12-28 METAR EDDT 280320Z 22004KT 9999 OVC022 07/05 Q1031
11-12-28 METAR EDDT 280350Z 23004KT 9999 -RA OVC023 07/05 Q1030 NOSIG
11-12-28 METAR EDDT 280420Z 21003KT 9999 OVC022 07/04 Q1030 NOSIG
11-12-28 METAR EDDT 280450Z 20004KT 9999 OVC021 07/04 Q1029 NOSIG
11-12-28 METAR EDDT 280520Z 19006KT 9999 OVC021 07/04 Q1029 NOSIG
11-12-28 METAR EDDT 280550Z 18007KT 9999 OVC020 07/04 Q1028 NOSIG
11-12-28 METAR EDDT 280620Z 19007KT 9999 OVC022 07/04 Q1028 NOSIG
11-12-28 METAR EDDT 280650Z 19007KT 9999 BKN025 07/04 Q1028 NOSIG
11-12-28 METAR EDDT 280720Z 19007KT 9999 BKN025 07/03 Q1027 NOSIG
11-12-28 METAR EDDT 280750Z 18007KT 9999 BKN026 07/03 Q1026 NOSIG
11-12-28 METAR EDDT 280820Z 20008KT 9999 BKN028 08/03 Q1026 NOSIG
11-12-28 METAR EDDT 280850Z 20008KT 9999 BKN029 07/03 Q1026 NOSIG
11-12-28 METAR EDDT 280920Z 20010KT 9999 BKN027 08/03 Q1026 NOSIG
11-12-28 METAR EDDT 280950Z 19012KT 9999 BKN026 08/03 Q1025 NOSIG
11-12-28 METAR EDDT 281020Z 21012KT 9999 BKN024 08/02 Q1025 NOSIG
11-12-28 METAR EDDT 281050Z 21012KT 9999 BKN024 08/02 Q1024 NOSIG
11-12-28 METAR EDDT 281120Z 20010KT 9999 BKN022 08/03 Q1023 NOSIG
11-12-28 METAR EDDT 281150Z 20012KT 9999 SCT020 BKN250 08/02 Q1023 NOSIG
11-12-28 METAR EDDT 281220Z 20010KT 9999 FEW020 BKN250 08/03 Q1022 NOSIG
11-12-28 METAR EDDT 281250Z 20011KT 9999 FEW020 BKN250 08/03 Q1021 NOSIG
11-12-28 METAR EDDT 281320Z 20009KT 9999 FEW020 BKN250 08/03 Q1021 NOSIG
11-12-28 METAR EDDT 281350Z 20010KT 9999 FEW020 BKN250 07/03 Q1020 NOSIG
11-12-28 METAR EDDT 281420Z 20010KT 9999 FEW018 BKN250 07/03 Q1020 NOSIG
11-12-28 METAR EDDT 281450Z 20009KT CAVOK 07/03 Q1019 NOSIG
11-12-28 METAR EDDT 281520Z 20007KT CAVOK 06/03 Q1019 NOSIG
11-12-28 METAR EDDT 281550Z 19008KT CAVOK 06/03 Q1018 NOSIG
11-12-28 METAR EDDT 281620Z 21007KT CAVOK 06/03 Q1018 NOSIG
11-12-28 METAR EDDT 281650Z 22007KT CAVOK 06/03 Q1018 NOSIG
11-12-28 METAR EDDT 281720Z 21009KT CAVOK 05/03 Q1018 NOSIG
11-12-28 METAR EDDT 281750Z 21008KT CAVOK 06/03 Q1018 NOSIG
11-12-28 METAR EDDT 281820Z 22009KT CAVOK 05/03 Q1017 NOSIG
11-12-28 METAR EDDT 281850Z 22008KT CAVOK 05/03 Q1017 NOSIG
11-12-28 METAR EDDT 281920Z 22008KT CAVOK 05/03 Q1017 NOSIG
11-12-28 METAR EDDT 281950Z 21007KT 9999 BKN027 05/03 Q1017 NOSIG
11-12-28 METAR EDDT 282020Z 22009KT 9999 BKN027 06/03 Q1017 NOSIG
11-12-28 METAR EDDT 282050Z 22008KT 9999 BKN022 06/03 Q1016 NOSIG
11-12-28 METAR EDDT 282120Z 24012KT 9999 -RA BKN020 06/03 Q1016 NOSIG
11-12-28 METAR EDDT 282150Z 22009KT 9999 BKN020 06/03 Q1016 NOSIG
11-12-28 METAR EDDT 282220Z 22011KT 9999 BKN020 06/03 Q1016
11-12-28 METAR EDDT 282250Z 23009KT 9999 BKN020 06/03 Q1016
11-12-28 METAR EDDT 282320Z 22010KT 9999 BKN020 06/03 Q1016
11-12-28 METAR EDDT 282350Z 22011KT 9999 SCT022 BKN040 06/03 Q1015
11-12-29 METAR EDDT 282350Z 22011KT 9999 SCT022 BKN040 06/03 Q1015
11-12-29 METAR EDDT 290020Z 24013KT 9999 SCT023 BKN044 07/03 Q1015
11-12-29 METAR EDDT 290050Z 24012G22KT 9999 BKN022 07/03 Q1015
11-12-29 METAR EDDT 290120Z 23012KT 9999 BKN022 07/03 Q1015
11-12-29 METAR EDDT 290150Z 24014KT 9999 BKN022 07/03 Q1015
11-12-29 METAR EDDT 290220Z 23012KT 9999 BKN022 06/03 Q1014
11-12-29 METAR EDDT 290250Z 23012KT 9999 BKN020 BKN040 06/03 Q1014
11-12-29 METAR EDDT 290320Z 24012KT 9999 BKN020 BKN040 06/03 Q1014
11-12-29 METAR EDDT 290350Z 24016KT 9999 BKN017 06/02 Q1014 NOSIG
11-12-29 METAR EDDT 290420Z 25015KT 9999 FEW040 06/02 Q1014 NOSIG
11-12-29 METAR EDDT 290450Z 24018KT 9999 SCT040 06/02 Q1014 NOSIG
11-12-29 METAR EDDT 290520Z 24017KT 9999 BKN046 06/02 Q1014 NOSIG
11-12-29 METAR EDDT 290550Z 24015G25KT 9999 BKN046 06/02 Q1013 NOSIG
11-12-29 METAR EDDT 290620Z 24014KT CAVOK 06/01 Q1013 NOSIG
11-12-29 METAR EDDT 290650Z 24016KT CAVOK 06/01 Q1014 NOSIG
11-12-29 METAR EDDT 290720Z 24016KT 9999 SCT038 06/01 Q1014 NOSIG
11-12-29 METAR EDDT 290750Z 24016KT 9999 SCT035 BKN045 06/01 Q1014 NOSIG
11-12-29 METAR EDDT 290820Z 24014KT 9999 FEW037 BKN048 06/01 Q1014 NOSIG
11-12-29 METAR EDDT 290850Z 24016KT 9999 SCT037 BKN048 06/01 Q1014 NOSIG
11-12-29 METAR EDDT 290920Z 24020KT 9999 SCT035 BKN048 07/01 Q1014 TEMPO 25020G30KT
11-12-29 METAR EDDT 290950Z 25019KT 9999 -SHRA SCT030 SCT045 07/01 Q1014 TEMPO 25020G30KT
11-12-29 METAR EDDT 291020Z 25018KT 9999 SCT030 SCT040 07/01 Q1013 TEMPO 25020G30KT
11-12-29 METAR EDDT 291050Z 25019KT 9999 BKN030 SCT040 07/01 Q1013 TEMPO 25020G30KT
11-12-29 METAR EDDT 291120Z 25020G35KT 9999 SCT028 07/00 Q1013 NOSIG
11-12-29 METAR EDDT 291150Z 26022G34KT 9999 FEW028 BKN060 06/01 Q1013 NOSIG
11-12-29 METAR EDDT 291220Z 25019KT 9999 SCT020 SCT030 06/01 Q1013 TEMPO 25020G30KT
11-12-29 METAR EDDT 291250Z 26017KT 9999 SCT020 BKN250 06/01 Q1012 TEMPO 25020G30KT
11-12-29 METAR EDDT 291320Z 24014KT 9999 FEW020 SCT058 BKN250 06/01 Q1012 TEMPO
11-12-29 METAR EDDT 291350Z 23016KT 9999 FEW020 SCT060 BKN250 06/01 Q1012 TEMPO
11-12-29 METAR EDDT 291420Z 24017KT 9999 FEW022 SCT070 BKN250 06/00 Q1012 TEMPO
11-12-29 METAR EDDT 291450Z 24019G30KT 9999 FEW022 BKN070 06/M00 Q1012 NOSIG
11-12-29 METAR EDDT 291520Z 24019KT 9999 FEW025 BKN060 06/M00 Q1012 NOSIG
11-12-29 METAR EDDT 291550Z 24018KT CAVOK 06/M01 Q1011 TEMPO 25020G30KT
11-12-29 METAR EDDT 291620Z 24017KT CAVOK 06/M01 Q1011 TEMPO 25020G30KT
11-12-29 METAR EDDT 291650Z 24018KT CAVOK 06/M01 Q1010 TEMPO 25020G30KT
11-12-29 METAR EDDT 291720Z 23014G24KT CAVOK 06/M01 Q1010 TEMPO 25015G25KT
11-12-29 METAR EDDT 291750Z 22014KT CAVOK 06/M01 Q1010 TEMPO 25015G25KT
11-12-29 METAR EDDT 291820Z 22014KT 9999 FEW045 BKN060 06/M01 Q1009 TEMPO 22015G25KT
11-12-29 METAR EDDT 291850Z 23017KT 9999 BKN040 BKN060 06/M01 Q1009 NOSIG
11-12-29 METAR EDDT 291920Z 22018KT 9999 FEW010 BKN038 05/M01 Q1008 TEMPO
11-12-29 METAR EDDT 291950Z 22017G30KT 9999 FEW031 BKN040 05/M01 Q1008 NOSIG
11-12-29 METAR EDDT 292020Z 22014KT 9999 BKN030 BKN040 05/M01 Q1007 TEMPO
11-12-29 METAR EDDT 292050Z 23017KT 9999 -SHRA FEW026 BKN031 05/M00 Q1006 TEMPO
11-12-29 METAR EDDT 292120Z 22016G28KT 9999 FEW026 BKN031 05/M00 Q1006 NOSIG
11-12-29 METAR EDDT 292150Z 21016G26KT 9999 FEW026 BKN031 05/00 Q1005 NOSIG
11-12-29 METAR EDDT 292220Z 21015KT 9999 SCT023 BKN034 05/00 Q1004
11-12-29 METAR EDDT 292250Z 21015KT 9999 -SHRA FEW010 BKN020 04/01 Q1003
11-12-29 METAR EDDT 292320Z 21018G30KT 6000 SHRA FEW008 BKN010 BKN025 04/01 Q1002
11-12-29 METAR EDDT 292350Z 21012KT 9999 -SHRA SCT009 BKN014 04/02 Q1002 RERA
11-12-30 METAR EDDT 292350Z 21012KT 9999 -SHRA SCT009 BKN014 04/02 Q1002 RERA
11-12-30 METAR EDDT 300020Z 20013KT 9999 -SHRA BKN011 BKN014 04/02 Q1001
11-12-30 METAR EDDT 300050Z 21015KT 9000 -SHRA FEW008 BKN010 04/02 Q1000
11-12-30 METAR EDDT 300120Z 22013KT 9000 -RA FEW008 BKN010 04/02 Q1000
11-12-30 METAR EDDT 300150Z 21012KT 9999 FEW008 BKN009 03/02 Q0999
11-12-30 METAR EDDT 300220Z 22011KT 9999 -RA SCT007 BKN012 03/02 Q0999
11-12-30 METAR EDDT 300250Z 22011KT 9999 -RA FEW007 BKN012 BKN020 04/02 Q0998
11-12-30 METAR EDDT 300320Z 24015KT 9999 RA FEW007 BKN010 BKN014 04/02 Q0998
11-12-30 METAR EDDT 300350Z 25015KT 9999 -RA FEW010 SCT012 BKN015 04/02 Q0998 RERA TEMPO BKN012
11-12-30 METAR EDDT 300420Z 26015KT 9999 FEW013 BKN019 03/01 Q0997 TEMPO BKN012
11-12-30 METAR EDDT 300450Z 26012KT 9999 SCT012 BKN014 03/01 Q0998 TEMPO BKN015
11-12-30 METAR EDDT 300520Z 26012KT 9999 FEW012 BKN015 BKN023 03/01 Q0998 TEMPO BKN013
11-12-30 METAR EDDT 300550Z 25011KT 9999 FEW010 BKN014 03/01 Q0998 TEMPO SCT014
11-12-30 METAR EDDT 300620Z NIL
11-12-30 METAR EDDT 300720Z 25010KT 9000 -RA SCT006 BKN008 03/01 Q0999 TEMPO 4000 RASN
11-12-30 METAR EDDT 300750Z 25010KT 6000 RASN FEW005 BKN006 02/01 Q0999 BECMG NSW
11-12-30 METAR EDDT 300820Z 26009KT 6000 RASN FEW004 BKN006 02/01 Q1000 BECMG NSW
11-12-30 METAR EDDT 300850Z 28007KT 6000 -RASN FEW003 BKN005 BKN009 01/00 Q1000 RERASN NOSIG
11-12-30 METAR EDDT 300920Z 28006KT 4000 SN BKN003 BKN006 01/M00 Q1001 BECMG 9999 NSW BKN007
11-12-30 METAR EDDT 300950Z 29007KT 7000 -SN SCT003 BKN006 01/00 Q1001 RESN BECMG
11-12-30 METAR EDDT 301020Z 30006KT 9999 FEW004 SCT007 BKN009 02/01 Q1002 BECMG
11-12-30 METAR EDDT 301050Z 30008KT 9999 SCT006 BKN009 BKN014 03/02 Q1002 BECMG
11-12-30 METAR EDDT 301120Z 31009KT 9999 FEW009 BKN027 04/02 Q1003 NOSIG
11-12-30 METAR EDDT 301150Z 30006KT 9999 FEW009 SCT025 04/02 Q1003 NOSIG
11-12-30 METAR EDDT 301220Z 29005KT 9999 FEW011 SCT014 BKN020 04/02 Q1004 NOSIG
11-12-30 METAR EDDT 301250Z 28008KT 9999 FEW011 04/02 Q1004 NOSIG
11-12-30 METAR EDDT 301320Z 28008KT 9999 FEW011CB 05/02 Q1004 TEMPO SHRASN
11-12-30 METAR EDDT 301350Z 28009KT 9999 FEW012 SCT015CB 04/02 Q1005 TEMPO SHRASN
11-12-30 METAR EDDT 301420Z 28009KT 9999 FEW012 BKN015CB 04/02 Q1005 TEMPO SHRASN BKN014CB
11-12-30 METAR EDDT 301450Z 28010KT 9999 -SHRASN SCT011 SCT015CB 04/02 Q1005 BECMG SCT017
11-12-30 METAR EDDT 301520Z 27011KT 9999 FEW009 SCT012 BKN030 04/02 Q1006 TEMPO
11-12-30 METAR EDDT 301550Z 28011KT 9999 FEW012 BKN044 04/02 Q1006 TEMPO BKN012
11-12-30 METAR EDDT 301620Z 27011KT 9999 FEW012 BKN040 04/02 Q1006 TEMPO BKN012
11-12-30 METAR EDDT 301650Z 27012KT 9999 BKN039 04/02 Q1006 NOSIG
11-12-30 METAR EDDT 301720Z 26012KT 9999 FEW040 04/01 Q1007 NOSIG
11-12-30 METAR EDDT 301750Z 27013KT 9999 BKN039 04/01 Q1007 NOSIG
11-12-30 METAR EDDT 301820Z 27013KT 9999 BKN045 04/01 Q1007 NOSIG
11-12-30 METAR EDDT 301850Z 27013KT 9999 BKN030 04/01 Q1007 NOSIG
11-12-30 METAR EDDT 301920Z 27013KT 9999 BKN025 04/01 Q1007 NOSIG
11-12-30 METAR EDDT 301950Z 28012KT 9999 BKN020 04/01 Q1007 NOSIG
11-12-30 METAR EDDT 302020Z 28012KT 9999 -SHRA SCT011 BKN020 04/01 Q1008 TEMPO BKN011
11-12-30 METAR EDDT 302050Z 28012KT 9999 BKN022 04/01 Q1008 NOSIG
11-12-30 METAR EDDT 302120Z 28012KT 9999 -SHRA BKN020 04/01 Q1008 NOSIG
11-12-30 METAR EDDT 302150Z 29012KT 9999 BKN025 04/01 Q1009 NOSIG
11-12-30 METAR EDDT 302220Z 29011KT 9999 SCT030 BKN054 04/01 Q1009
11-12-30 METAR EDDT 302250Z 28010KT 9999 BKN022 04/01 Q1009
11-12-30 METAR EDDT 302320Z 29010KT 9999 BKN018 04/01 Q1010
11-12-30 METAR EDDT 302350Z 28010KT 9999 BKN030 04/01 Q1010
11-12-31 METAR EDDT 302350Z 28010KT 9999 BKN030 04/01 Q1010
11-12-31 METAR EDDT 310020Z 28009KT 9999 BKN014 BKN023 04/01 Q1010
11-12-31 METAR EDDT 310050Z 28010KT 9999 BKN014 04/01 Q1010
11-12-31 METAR EDDT 310120Z 28009KT 9999 BKN012 BKN040 03/01 Q1011
11-12-31 METAR EDDT 310150Z 28010KT 9999 BKN012 04/01 Q1011
11-12-31 METAR EDDT 310220Z 28009KT 9999 BKN012 03/01 Q1011
11-12-31 METAR EDDT 310250Z 28008KT 9999 BKN012 03/01 Q1011
11-12-31 METAR EDDT 310320Z 28009KT 9999 BKN012 03/01 Q1011
11-12-31 METAR EDDT 310350Z 28009KT 9999 BKN012 03/01 Q1011 NOSIG
11-12-31 METAR EDDT 310420Z 27008KT 9999 BKN012 03/01 Q1012 NOSIG
11-12-31 METAR EDDT 310450Z 27006KT 9999 BKN012 02/00 Q1012 NOSIG
11-12-31 METAR EDDT 310520Z 27006KT 9999 BKN012 BKN030 02/00 Q1012 NOSIG
11-12-31 METAR EDDT 310550Z 26006KT 9999 SCT008 BKN020 02/00 Q1012 TEMPO BKN008
11-12-31 METAR EDDT 310620Z 26005KT 9999 SCT008 SCT020 BKN050 01/M00 Q1012 TEMPO BKN008
11-12-31 METAR EDDT 310650Z 25004KT 9999 BKN007 BKN050 01/M00 Q1013 BECMG BKN010
11-12-31 METAR EDDT 310720Z 26005KT 9999 BKN007 BKN050 02/01 Q1013 BECMG BKN010
11-12-31 METAR EDDT 310750Z 27008KT 9999 BKN006 02/01 Q1013 BECMG BKN010
11-12-31 METAR EDDT 310820Z 27007KT 9999 BKN006 02/01 Q1013 BECMG BKN010
11-12-31 METAR EDDT 310850Z 26008KT 9999 FEW006 BKN008 02/00 Q1013 BECMG BKN010
11-12-31 METAR EDDT 310920Z 27006KT 9999 BKN008 02/00 Q1014 BECMG BKN010
11-12-31 METAR EDDT 310950Z 28004KT 9999 BKN008 02/01 Q1014 BECMG BKN010
11-12-31 METAR EDDT 311020Z 29004KT 9999 BKN009 03/01 Q1013 BECMG SCT012
11-12-31 METAR EDDT 311050Z 28003KT 9999 BKN009 03/01 Q1013 BECMG SCT012
11-12-31 METAR EDDT 311120Z VRB01KT 9999 FEW007 BKN260 04/01 Q1013 NOSIG
11-12-31 METAR EDDT 311150Z 25003KT 9999 FEW008 BKN014 04/01 Q1013 BECMG SCT012
11-12-31 METAR EDDT 311220Z VRB01KT 9999 FEW010 BKN014 04/01 Q1012 BECMG SCT012
11-12-31 METAR EDDT 311250Z 08002KT 9999 SCT014 BKN260 04/01 Q1012 NOSIG
11-12-31 METAR EDDT 311320Z 05004KT 9999 FEW015 BKN260 04/01 Q1012 NOSIG
11-12-31 METAR EDDT 311350Z 08004KT 9999 FEW017 BKN250 04/01 Q1012 NOSIG
11-12-31 METAR EDDT 311420Z 14004KT 9999 FEW017 BKN250 04/01 Q1012 NOSIG
11-12-31 METAR EDDT 311450Z 15006KT 9999 FEW016 BKN240 04/00 Q1012 NOSIG
11-12-31 METAR EDDT 311520Z 16006KT 9999 FEW015 BKN240 03/01 Q1012 NOSIG
11-12-31 METAR EDDT 311550Z 16004KT 9999 FEW015 03/00 Q1012 NOSIG
11-12-31 METAR EDDT 311620Z 15004KT 9999 FEW015 SCT230 02/M00 Q1012 NOSIG
11-12-31 METAR EDDT 311650Z 15004KT CAVOK 03/00 Q1012 NOSIG
11-12-31 METAR EDDT 311720Z 14005KT CAVOK 03/00 Q1012 NOSIG
11-12-31 METAR EDDT 311750Z 15005KT CAVOK 03/00 Q1012 NOSIG
11-12-31 METAR EDDT 311820Z 14004KT CAVOK 02/00 Q1012 NOSIG
11-12-31 METAR EDDT 311850Z 14004KT CAVOK 02/00 Q1012 NOSIG
11-12-31 METAR EDDT 311920Z 15005KT CAVOK 02/M00 Q1012 NOSIG
11-12-31 METAR EDDT 311950Z 15006KT CAVOK 02/M00 Q1012 NOSIG
11-12-31 METAR EDDT 312020Z 16006KT CAVOK 02/M00 Q1012 NOSIG
11-12-31 METAR EDDT 312050Z 15007KT CAVOK 02/M00 Q1012 NOSIG
11-12-31 METAR EDDT 312120Z 15005KT CAVOK 02/M00 Q1012 NOSIG
11-12-31 METAR EDDT 312150Z 16005KT 9999 SCT044 BKN070 02/M00 Q1011 TEMPO 1200 BR BKN012
11-12-31 METAR EDDT 312220Z 17005KT 9999 BKN040 02/M00 Q1011
11-12-31 METAR EDDT 312250Z 18005KT CAVOK 02/M00 Q1011
11-12-31 METAR EDDT 312320Z 16005KT 8000 -RA BKN025 03/00 Q1011
11-12-31 METAR EDDT 312350Z 15005KT 2900 FU BKN011 03/00 Q1011
12-01-01 METAR EDDT 312350Z 15005KT 2900 FU BKN011 03/00 Q1011
12-01-01 METAR EDDT 010020Z 15005KT 2200 FU BKN011 02/00 Q1011
12-01-01 METAR EDDT 010050Z 16005KT 1800 -RA FU BKN003 BKN010 02/01 Q1011
12-01-01 METAR EDDT 010120Z 17006KT 1600 -RA FU BKN003 02/01 Q1011
12-01-01 METAR EDDT 010320Z 17004KT 2400 FU BKN003 03/02 Q1010
12-01-01 METAR EDDT 010350Z 17004KT 3000 BR BKN003 03/02 Q1010 TEMPO 2000 BR
12-01-01 METAR EDDT 010420Z 19005KT 3200 BR BKN003 03/03 Q1010 TEMPO 2000 BR
12-01-01 METAR EDDT 010450Z 18004KT 3300 BR BKN003 04/03 Q1010 TEMPO 2000 BR
12-01-01 METAR EDDT 010520Z 20004KT 3300 BR BKN003 04/03 Q1010 TEMPO 2000 BR
12-01-01 METAR EDDT 010550Z 19006KT 3300 BR BKN003 04/03 Q1010 TEMPO 2000 BR
12-01-01 METAR EDDT 010650Z 17004KT 3300 BR SCT016 BKN034 05/04 Q1010 TEMPO 2000 BR
12-01-01 METAR EDDT 010720Z 19004KT 3200 BR FEW005 BKN028 05/04 Q1010 NOSIG
12-01-01 METAR EDDT 010750Z 19005KT 3700 BR SCT005 BKN021 05/04 Q1010 TEMPO BKN005
12-01-01 METAR EDDT 010820Z 20006KT 4500 BR SCT005 BKN015 06/04 Q1010 TEMPO BKN005
12-01-01 METAR EDDT 010850Z 20006KT 5000 BR BKN005 06/05 Q1010 TEMPO 4000 -RADZ
12-01-01 METAR EDDT 010920Z 20006KT 6000 BKN005 06/05 Q1010 TEMPO 4000 -RADZ
12-01-01 METAR EDDT 010950Z 21006KT 7000 -RADZ BKN005 BKN020 07/06 Q1010 BECMG SCT005
12-01-01 METAR EDDT 011020Z 21007KT 8000 FEW006 BKN020 07/06 Q1009 NOSIG
12-01-01 METAR EDDT 011050Z 21006KT 9000 FEW008 BKN020 08/07 Q1009 TEMPO 4000 RADZ
12-01-01 METAR EDDT 011120Z 22008KT 6000 -RA SCT009 BKN019 08/07 Q1009 TEMPO 4000
12-01-01 METAR EDDT 011150Z 22009KT 8000 -RA SCT006 BKN016 09/07 Q1009 NOSIG
12-01-01 METAR EDDT 011220Z 23011KT 4000 -RA SCT006 BKN018 09/08 Q1009 BECMG 8000
12-01-01 METAR EDDT 011250Z 23011KT 3100 -RA SCT007 BKN018 09/08 Q1009 BECMG 8000
12-01-01 METAR EDDT 011320Z 24009KT 8000 SCT005 BKN010 09/08 Q1009 BECMG SCT010
12-01-01 METAR EDDT 011350Z 23009KT 9999 -RA SCT008 BKN010 10/09 Q1009 BECMG SCT010
12-01-01 METAR EDDT 011420Z 25008KT 9999 SCT006 BKN010 10/09 Q1009 BECMG SCT010
12-01-01 METAR EDDT 011450Z 24007KT 9999 SCT007 BKN014 10/09 Q1009 BECMG SCT010
12-01-01 METAR EDDT 011520Z 23006KT 9999 SCT009 BKN014 10/09 Q1009 BECMG SCT010
12-01-01 METAR EDDT 011550Z 25007KT 9999 FEW008 BKN014 10/09 Q1009 BECMG SCT014 BKN025
12-01-01 METAR EDDT 011620Z 24007KT 9999 FEW008 BKN010 BKN024 10/09 Q1009 BECMG SCT014 BKN025
12-01-01 METAR EDDT 011650Z 23007KT 9999 FEW009 BKN030 10/09 Q1009 NOSIG
12-01-01 METAR EDDT 011720Z 21006KT 9999 FEW010 BKN030 10/09 Q1010 NOSIG
12-01-01 METAR EDDT 011750Z 21006KT 9999 FEW015 BKN030 10/09 Q1010 NOSIG
12-01-01 METAR EDDT 011820Z 19006KT 9999 FEW009 BKN017 10/09 Q1009 NOSIG
12-01-01 METAR EDDT 011850Z 19007KT 9999 FEW009 BKN018 10/09 Q1009 NOSIG
12-01-01 METAR EDDT 011920Z 20008KT 9999 FEW005 SCT023 BKN036 10/09 Q1009 NOSIG
12-01-01 METAR EDDT 011950Z 20007KT 9999 -RA FEW008 BKN034 11/09 Q1009 NOSIG
12-01-01 METAR EDDT 012020Z 19008KT 9999 -RA BKN030 11/09 Q1008 NOSIG
12-01-01 METAR EDDT 012050Z 20008KT 9999 -RA BKN030 11/09 Q1008 NOSIG
12-01-01 METAR EDDT 012120Z 20010KT 9999 BKN032 11/09 Q1008 NOSIG
12-01-01 METAR EDDT 012150Z 20009KT 9999 BKN040 11/09 Q1007 NOSIG
12-01-01 METAR EDDT 012220Z 19010KT 9999 FEW040 BKN066 11/09 Q1007
12-01-01 METAR EDDT 012250Z 19010KT 9999 -RA NSC 11/09 Q1006
12-01-01 METAR EDDT 012320Z 19010KT 9999 -RA FEW040 BKN050 10/09 Q1006 RERA
12-01-01 METAR EDDT 012350Z 19009KT 9999 -RA SCT024 BKN070 10/09 Q1006
12-01-02 METAR EDDT 012350Z 19009KT 9999 -RA SCT024 BKN070 10/09 Q1006
12-01-02 METAR EDDT 020020Z 18012KT 9999 -RA FEW024 BKN120 11/09 Q1005
12-01-02 METAR EDDT 020050Z 19012KT CAVOK 11/09 Q1004
12-01-02 METAR EDDT 020120Z 20009KT CAVOK 11/09 Q1004
12-01-02 METAR EDDT 020150Z 20009KT CAVOK 11/09 Q1004
12-01-02 METAR EDDT 020220Z 20010KT 9999 -RA NSC 11/09 Q1003
12-01-02 METAR EDDT 020250Z 20011KT 9999 -RA NSC 11/09 Q1003
12-01-02 METAR EDDT 020320Z 20011KT CAVOK 11/09 Q1003
12-01-02 METAR EDDT 020350Z 20011KT CAVOK 11/09 Q1002 NOSIG
12-01-02 METAR EDDT 020420Z 20013KT CAVOK 12/09 Q1002 NOSIG
12-01-02 METAR EDDT 020450Z 21013KT 9999 BKN040 12/09 Q1002 NOSIG
12-01-02 METAR EDDT 020520Z 21013KT 9999 BKN040 12/09 Q1002 NOSIG
12-01-02 METAR EDDT 020550Z 22013KT 9999 -RADZ FEW010 BKN030 12/09 Q1002 NOSIG
12-01-02 METAR EDDT 020620Z 26010G20KT 9999 -RADZ FEW006 SCT012 BKN040 12/09 Q1003 NOSIG
12-01-02 METAR EDDT 020650Z 24012KT 9999 -RA BKN025 BKN070 11/08 Q1003 NOSIG
12-01-02 METAR EDDT 020720Z 25011KT 9999 -RA BKN030 11/08 Q1004 NOSIG
12-01-02 METAR EDDT 020750Z 25009KT 9999 -RA BKN033 BKN070 11/08 Q1004 NOSIG
12-01-02 METAR EDDT 020820Z 25007KT 9999 -RA FEW025 SCT040 BKN060 11/08 Q1004 NOSIG
12-01-02 METAR EDDT 020850Z 24009KT 9999 R26R/1300VP2000D R26L/1600VP2000D -RA BKN035 10/09 Q1004 NOSIG
12-01-02 METAR EDDT 020920Z 24009KT 9999 RA FEW025 SCT035 BKN060 10/09 Q1004 TEMPO NSW
12-01-02 METAR EDDT 020950Z 24008KT 9999 -RA FEW009 SCT040 BKN050 10/09 Q1005 RERA TEMPO RA
12-01-02 METAR EDDT 021020Z 24009KT 9999 RA FEW008 BKN035 BKN050 10/09 Q1005 TEMPO
12-01-02 METAR EDDT 021050Z 25009KT 9999 -RA FEW009 SCT035 BKN060 10/08 Q1004 RERA
12-01-02 METAR EDDT 021120Z 27006KT 9999 -RA FEW006 SCT008 BKN035 10/09 Q1004 TEMPO
12-01-02 METAR EDDT 021150Z 26005KT 9999 -RA FEW006 SCT009 BKN035 10/09 Q1004 TEMPO
12-01-02 METAR EDDT 021220Z 25005KT 9999 -RA SCT008 BKN038 10/08 Q1004 TEMPO RA
12-01-02 METAR EDDT 021250Z 25005KT 6000 -RA FEW008 SCT012 BKN038 10/08 Q1004 TEMPO
12-01-02 METAR EDDT 021320Z 26006KT 8000 RA BKN007 BKN011 09/08 Q1005 TEMPO BKN010
12-01-02 METAR EDDT 021350Z 27008KT 9000 RA SCT007 BKN010 OVC040 09/08 Q1005 TEMPO BKN015
12-01-02 METAR EDDT 021420Z 29008KT 9000 RA FEW007 BKN010 BKN033 09/08 Q1006 TEMPO
12-01-02 METAR EDDT 021450Z 30005KT 9999 RA FEW008 OVC040 08/07 Q1006 TEMPO NSW
12-01-02 METAR EDDT 021520Z 29005KT 9999 -RA FEW011 SCT030 OVC040 08/06 Q1007 RERA
12-01-02 METAR EDDT 021550Z 28007KT 9999 RA BKN022 BKN030 08/06 Q1007 TEMPO NSW
12-01-02 METAR EDDT 021620Z 27009KT 9999 RA FEW009 SCT012 BKN026 08/06 Q1008 TEMPO
12-01-02 METAR EDDT 021650Z 26009KT 9999 -RA FEW008 BKN030 07/06 Q1008 RERA NOSIG
12-01-02 METAR EDDT 021720Z 25009KT 9999 -RA FEW008 BKN037 08/06 Q1009 NOSIG
12-01-02 METAR EDDT 021750Z 25009KT 9999 FEW009 BKN060 07/06 Q1009 NOSIG
12-01-02 METAR EDDT 021820Z 26011KT 9999 FEW010 BKN080 07/06 Q1010 NOSIG
12-01-02 METAR EDDT 021850Z 26010KT 9999 SCT009 BKN250 07/05 Q1010 NOSIG
12-01-02 METAR EDDT 021920Z 26009KT 9999 SCT009 BKN250 07/05 Q1011 NOSIG
12-01-02 METAR EDDT 021950Z 27010KT 9999 FEW009 BKN035 07/05 Q1012 NOSIG
12-01-02 METAR EDDT 022020Z 26009KT 9999 FEW009 SCT026 BKN250 06/04 Q1012 NOSIG
12-01-02 METAR EDDT 022050Z 25009KT 9999 FEW010 BKN150 06/05 Q1012 NOSIG
12-01-02 METAR EDDT 022120Z 26008KT 9999 FEW010 BKN150 05/04 Q1013 NOSIG
12-01-02 METAR EDDT 022150Z 26009KT CAVOK 05/04 Q1013 NOSIG
12-01-02 METAR EDDT 022220Z 27010KT 9999 SCT036 BKN150 06/04 Q1014
12-01-02 METAR EDDT 022250Z 25011KT 9999 SCT038 06/04 Q1014
12-01-02 METAR EDDT 022320Z 26010KT 9999 FEW038 BKN150 05/03 Q1014
12-01-02 METAR EDDT 022350Z 26010KT 9999 FEW040 BKN150 05/03 Q1014
12-01-03 METAR EDDT 022350Z 26010KT 9999 FEW040 BKN150 05/03 Q1014
12-01-03 METAR EDDT 030020Z 27011KT 9999 SCT030 BKN150 05/03 Q1015
12-01-03 METAR EDDT 030050Z 26007KT 9999 BKN020 05/03 Q1015
12-01-03 METAR EDDT 030120Z 24008KT 9999 SCT020 05/03 Q1016
12-01-03 METAR EDDT 030150Z 26007KT CAVOK 04/02 Q1016
12-01-03 METAR EDDT 030220Z 25008KT CAVOK 03/01 Q1016
12-01-03 METAR EDDT 030250Z 24009KT CAVOK 04/02 Q1017
12-01-03 METAR EDDT 030320Z 23010KT CAVOK 04/01 Q1017
12-01-03 METAR EDDT 030350Z 25010KT CAVOK 03/01 Q1017 NOSIG
12-01-03 METAR EDDT 030420Z 23010KT CAVOK 03/01 Q1017 NOSIG
12-01-03 METAR EDDT 030450Z 22011KT CAVOK 03/00 Q1017 NOSIG
12-01-03 METAR EDDT 030520Z 20007KT CAVOK 03/00 Q1017 NOSIG
12-01-03 METAR EDDT 030550Z 21009KT CAVOK 03/00 Q1017 NOSIG
12-01-03 METAR EDDT 030620Z 21010KT CAVOK 03/01 Q1017 NOSIG
12-01-03 METAR EDDT 030650Z 21012KT CAVOK 03/00 Q1016 NOSIG
12-01-03 METAR EDDT 030720Z 21012KT CAVOK 03/00 Q1016 NOSIG
12-01-03 METAR EDDT 030750Z 21011KT CAVOK 03/00 Q1016 NOSIG
12-01-03 METAR EDDT 030820Z 20013KT CAVOK 04/01 Q1016 NOSIG
12-01-03 METAR EDDT 030850Z 20012KT CAVOK 04/01 Q1015 BECMG 19015G25KT
12-01-03 METAR EDDT 030920Z 21014KT 9999 FEW030 SCT250 05/01 Q1015 BECMG 19015G25KT
12-01-03 METAR EDDT 030950Z 21014KT 9999 FEW030 SCT250 05/01 Q1014 BECMG 19015G25KT
12-01-03 METAR EDDT 031020Z 20013KT 9999 FEW030 BKN250 05/01 Q1014 BECMG 19015G25KT
12-01-03 METAR EDDT 031050Z 21016KT 9999 FEW032 BKN250 06/01 Q1013 BECMG 19015G25KT
12-01-03 METAR EDDT 031120Z 21014KT 9999 FEW032 SCT080 BKN250 06/01 Q1012 BECMG
12-01-03 METAR EDDT 031150Z 21017KT 9999 FEW027 BKN090 BKN250 06/01 Q1011 BECMG 19020G30KT
12-01-03 METAR EDDT 031220Z 20016G26KT 9999 FEW027 SCT090 BKN120 06/01 Q1010 BECMG
12-01-03 METAR EDDT 031250Z 20015KT 9999 FEW018 SCT060 BKN100 06/01 Q1009 BECMG
12-01-03 METAR EDDT 031320Z 19015KT 9999 -RA FEW018 BKN044 06/01 Q1008 TEMPO 19015G25KT RA
12-01-03 METAR EDDT 031350Z 20018G29KT 9000 -RA FEW018 BKN031 06/02 Q1008 TEMPO RA
12-01-03 METAR EDDT 031420Z 20019KT 9999 -RA BKN025 BKN038 06/02 Q1006 NOSIG
12-01-03 METAR EDDT 031450Z 19019G29KT 9999 -RA FEW025 BKN033 BKN120 07/01 Q1005 NOSIG
12-01-03 METAR EDDT 031520Z 20020G32KT 9999 BKN043 BKN160 07/01 Q1005 NOSIG
12-01-03 METAR EDDT 031550Z 20018KT 9999 BKN038 07/01 Q1004 NOSIG
12-01-03 METAR EDDT 031620Z 20018G34KT 9999 BKN038 08/01 Q1003 NOSIG
12-01-03 METAR EDDT 031650Z 21017KT 9999 FEW038 BKN060 08/01 Q1002 TEMPO 19020G30KT
12-01-03 METAR EDDT 031720Z 21018G29KT 9999 FEW038 BKN060 08/02 Q1001 NOSIG
12-01-03 METAR EDDT 031750Z 21021G34KT 9999 -RA BKN036 BKN042 09/02 Q1001 NOSIG
12-01-03 METAR EDDT 031820Z 21020G35KT 9999 -RA BKN035 BKN060 09/02 Q1001 NOSIG
12-01-03 METAR EDDT 031850Z 21020G31KT 9999 SCT035 BKN050 09/03 Q1000 NOSIG
12-01-03 METAR EDDT 031920Z 21020KT 9999 FEW035 BKN046 10/03 Q0999 TEMPO 22020G35KT
12-01-03 METAR EDDT 031950Z 21022G34KT 9999 SCT033 BKN040 10/03 Q0999 TEMPO 22025G40KT
12-01-03 METAR EDDT 032020Z 22021G31KT 9999 -RA BKN032 10/04 Q0999 TEMPO 22025G40KT
12-01-03 METAR EDDT 032050Z 22021G33KT 9999 -RA BKN030 BKN040 10/04 Q0999 TEMPO
12-01-03 METAR EDDT 032120Z 25017G28KT 9000 RA BKN022 09/06 Q1000 TEMPO 22025G40KT NSW
12-01-03 METAR EDDT 032150Z 24019KT 9999 FEW035 BKN060 09/05 Q1000 RERA NOSIG
12-01-03 METAR EDDT 032220Z 24017KT CAVOK 08/05 Q1000
12-01-03 METAR EDDT 032250Z 24016KT CAVOK 08/04 Q1000
12-01-03 METAR EDDT 032320Z 24018G28KT 9999 FEW030 08/04 Q1000
12-01-03 METAR EDDT 032350Z 24017KT 9999 FEW045 BKN080 08/03 Q1000
12-01-04 METAR EDDT 032350Z 24017KT 9999 FEW045 BKN080 08/03 Q1000
12-01-04 METAR EDDT 040020Z 26023KT 9999 -RA FEW025 BKN030 08/02 Q1002
12-01-04 METAR EDDT 040050Z 28021G31KT 9999 FEW025 BKN045 07/01 Q1002
12-01-04 METAR EDDT 040120Z 28017KT 9999 SCT040 07/M00 Q1002
12-01-04 METAR EDDT 040150Z 25016KT 9999 BKN040 06/01 Q1003
12-01-04 METAR EDDT 040220Z 26020G31KT 9999 BKN040 06/M01 Q1003
12-01-04 METAR EDDT 040250Z 26018G28KT 9999 BKN045 06/M01 Q1003
12-01-04 METAR EDDT 040320Z 25017KT 9999 BKN040 06/M01 Q1003
12-01-04 METAR EDDT 040350Z 25017G29KT 9999 BKN040 06/M00 Q1003 NOSIG
12-01-04 METAR EDDT 040420Z 24015KT 9999 BKN040 06/00 Q1003 NOSIG
12-01-04 METAR EDDT 040450Z 25014KT 9999 BKN040 06/M01 Q1003 NOSIG
12-01-04 METAR EDDT 040520Z 23014KT 9999 FEW040 SCT250 06/M00 Q1003 NOSIG
12-01-04 METAR EDDT 040550Z 24015KT 9999 FEW044 SCT250 05/M00 Q1003 TEMPO 24015G25KT
12-01-04 METAR EDDT 040620Z 24016KT CAVOK 05/M01 Q1003 TEMPO 24015G25KT
12-01-04 METAR EDDT 040650Z 24016KT 9999 FEW038 05/M01 Q1003 TEMPO 24015G25KT
12-01-04 METAR EDDT 040720Z 24015KT 9999 FEW038 05/M01 Q1004 TEMPO 24015G25KT
12-01-04 METAR EDDT 040750Z 24016KT 9999 FEW038 05/M01 Q1004 TEMPO 24015G25KT
12-01-04 METAR EDDT 040820Z 24016KT 9999 BKN037 06/M00 Q1004 TEMPO 24015G25KT
12-01-04 METAR EDDT 040850Z 24017KT 9999 FEW037 05/M01 Q1004 TEMPO 24015G25KT
12-01-04 METAR EDDT 040920Z 25018KT 9999 VCSH FEW025CB SCT030 BKN060 06/M00 Q1004 TEMPO 24015G25KT SHRA
12-01-04 METAR EDDT 040950Z 25017KT 9999 FEW025 BKN030 06/00 Q1005 TEMPO 24015G25KT
12-01-04 METAR EDDT 041020Z 26019KT 9999 SCT025 BKN036 06/01 Q1005 TEMPO 24015G25KT
12-01-04 METAR EDDT 041050Z 26017KT 9999 SCT025 BKN036 06/01 Q1005 TEMPO 26020G30KT
12-01-04 METAR EDDT 041120Z 27018KT 9999 SCT025 BKN036 06/01 Q1006 TEMPO 26020G30KT
12-01-04 METAR EDDT 041150Z 27021KT 9999 SCT025 BKN040 07/02 Q1006 TEMPO 26020G30KT
12-01-04 METAR EDDT 041220Z 27018KT 9999 -SHRA SCT025 BKN040 06/02 Q1006 TEMPO 26020G30KT
12-01-04 METAR EDDT 041250Z 27017KT 9999 SCT025 BKN040 06/02 Q1006 TEMPO 26020G30KT
12-01-04 METAR EDDT 041320Z 27018G34KT 9999 SCT025 BKN040 06/01 Q1006 NOSIG
12-01-04 METAR EDDT 041350Z 27021G33KT 9999 -SHRA SCT025 BKN040 06/02 Q1007 NOSIG
12-01-04 METAR EDDT 041420Z 28017KT 9999 -SHRA SCT025 BKN040 06/02 Q1007 TEMPO 27020G35KT SHRA
12-01-04 METAR EDDT 041450Z 28011KT 9999 -SHRA SCT025 BKN046 05/02 Q1007 TEMPO 27020G30KT
12-01-04 METAR EDDT 041520Z 26019KT 9999 SCT025 BKN038 06/01 Q1007 TEMPO 27020G30KT
12-01-04 METAR EDDT 041550Z 26019KT 9999 FEW025 SCT060 05/01 Q1008 TEMPO 27020G30KT
12-01-04 METAR EDDT 041620Z 26018KT 9999 FEW025 SCT060 05/01 Q1008 TEMPO 27020G30KT
12-01-04 METAR EDDT 041650Z 25017KT 9999 FEW025 BKN030 05/01 Q1008 TEMPO 27015G25KT
12-01-04 METAR EDDT 041720Z 28015KT 9999 -SHRA BKN023 05/01 Q1008 TEMPO 27015G25KT
12-01-04 METAR EDDT 041750Z 26013KT 9999 FEW023 SCT250 04/01 Q1008 TEMPO 27015G25KT
12-01-04 METAR EDDT 041820Z 25016KT 9999 FEW023 BKN250 05/01 Q1007 TEMPO 27015G25KT
12-01-04 METAR EDDT 041850Z 24018KT 9999 FEW023 SCT060 BKN250 05/01 Q1007 TEMPO 27015G25KT
12-01-04 METAR EDDT 041920Z 24018G28KT 9999 FEW023 SCT060 BKN250 05/01 Q1007 NOSIG
12-01-04 METAR EDDT 041950Z 24020KT 9999 BKN040 05/01 Q1006 TEMPO 27015G25KT
12-01-04 METAR EDDT 042020Z 24019G29KT 9999 FEW035 BKN045 06/00 Q1005 TEMPO
12-01-04 METAR EDDT 042050Z 24018KT 9999 FEW035 BKN050 06/M00 Q1005 TEMPO
12-01-04 METAR EDDT 042120Z 23019G32KT 9999 FEW035 BKN050 06/M00 Q1004 NOSIG
12-01-04 METAR EDDT 042150Z 22018KT 9999 BKN034 06/M00 Q1003 TEMPO 27015G25KT
12-01-04 METAR EDDT 042220Z 22018KT 9999 FEW034 BKN050 06/M00 Q1002
12-01-04 METAR EDDT 042250Z 22019G33KT 9999 BKN047 06/M00 Q1001
12-01-04 METAR EDDT 042320Z 23024G36KT 9999 -RA BKN025 05/01 Q1000
12-01-04 METAR EDDT 042350Z 22018KT 9999 -RA BKN017 04/02 Q0999
12-01-05 METAR EDDT 042350Z 22018KT 9999 -RA BKN017 04/02 Q0999
12-01-05 METAR EDDT 050020Z 22018KT 9999 -RA BKN013 04/02 Q0998
12-01-05 METAR EDDT 050050Z 21017G28KT 9999 RA OVC011 04/02 Q0997
12-01-05 METAR EDDT 050120Z 21016KT 9999 RA FEW0003 OVC011 04/02 Q0995
12-01-05 METAR EDDT 050150Z 21018KT 9999 RA FEW005 OVC010 04/02 Q0994
12-01-05 METAR EDDT 050220Z 21019G30KT 9999 -RA FEW005 BKN012 04/02 Q0992 RERA
12-01-05 METAR EDDT 050250Z 21021G31KT 9999 -RA BKN011 04/02 Q0990 RERA
12-01-05 METAR EDDT 050320Z 21019G30KT 9999 -RA BKN011 04/02 Q0989
12-01-05 METAR EDDT 050350Z 20023G42KT 9999 -RA BKN012 04/03 Q0987 NOSIG
12-01-05 METAR EDDT 050420Z 21022G36KT 9999 -RA BKN012 05/03 Q0986 NOSIG
12-01-05 METAR EDDT 050520Z 22019KT 9999 RA FEW010 OVC013 05/03 Q0983 NOSIG
12-01-05 METAR EDDT 050550Z 22020G31KT 9999 RA FEW010 BKN013 OVC018 05/03 Q0982 NOSIG
12-01-05 METAR EDDT 050620Z 23019KT 9999 -RA SCT013 BKN015 06/03 Q0982 NOSIG
12-01-05 METAR EDDT 050650Z 24018G29KT 9999 -RA SCT014 BKN017 06/04 Q0981 NOSIG
12-01-05 METAR EDDT 050720Z 24024G35KT 9999 SCT016 BKN019 BKN040 06/03 Q0981 NOSIG
12-01-05 METAR EDDT 050750Z 24021KT 9999 SCT016 BKN035 06/03 Q0980 TEMPO 22020G40KT
12-01-05 METAR EDDT 050820Z 25020KT 9999 SCT019 BKN030 BKN130 06/03 Q0980 TEMPO
12-01-05 METAR EDDT 050850Z 26017G28KT 9999 -SHRA BKN019 BKN023 06/03 Q0980 TEMPO
12-01-05 METAR EDDT 050920Z 25017KT 9999 -SHRA FEW013 BKN020 06/03 Q0980 RERA TEMPO 25020G35KT
12-01-05 METAR EDDT 050950Z 25016KT 9999 -SHRA SCT013 BKN018 05/03 Q0980 RERA TEMPO
12-01-05 METAR EDDT 051020Z 25019KT 9999 -SHRA SCT010 SCT016 05/03 Q0980 TEMPO
12-01-05 METAR EDDT 051050Z 25019KT 9999 FEW013 06/02 Q0979 TEMPO 25020G35KT
12-01-05 METAR EDDT 051120Z 24018KT 9999 SCT025 BKN035 06/02 Q0979 TEMPO 25020G35KT
12-01-05 METAR EDDT 051150Z 24017KT 9999 FEW025 BKN050 07/03 Q0978 TEMPO 25020G35KT
12-01-05 METAR EDDT 051220Z 23015KT 9999 SCT025 BKN030 07/02 Q0977 TEMPO 25020G35KT
12-01-05 METAR EDDT 051250Z 23017KT 9999 -SHRA FEW015 SCT025CB BKN028 06/02 Q0977 TEMPO 25020G40KT SHRAGS
12-01-05 METAR EDDT 051320Z 22015KT 9999 -SHRA FEW015 BKN018CB BKN028 06/02 Q0976 TEMPO 25020G40KT TSRAGS
12-01-05 METAR EDDT 051350Z 26011KT 9999 FEW005 FEW010CB BKN050 04/03 Q0976 RETS
12-01-05 METAR EDDT 051420Z 24014KT 9999 FEW007 FEW035 BKN050 04/02 Q0976 TEMPO 26020G30KT
12-01-05 METAR EDDT 051450Z 23014KT 9999 FEW010 BKN015 BKN020 05/02 Q0976 TEMPO
12-01-05 METAR EDDT 051520Z 24019G30KT 9999 -RA SCT014 BKN020 05/02 Q0975 TEMPO 26020G35KT
12-01-05 METAR EDDT 051550Z 25020KT 9999 BKN016 BKN020 05/02 Q0975 TEMPO 26020G35KT
12-01-05 METAR EDDT 051620Z 26021G32KT 9999 BKN016 BKN019 05/02 Q0976 NOSIG
12-01-05 METAR EDDT 051650Z 25022G33KT 9999 -SHRA SCT014 BKN018 05/02 Q0976 NOSIG
12-01-05 METAR EDDT 051720Z 26025G38KT 9999 -RA SCT014 BKN018 05/02 Q0976 NOSIG
12-01-05 METAR EDDT 051750Z 28022KT 9999 -RA FEW008 BKN015 BKN025 05/02 Q0977 TEMPO 27025G35KT
12-01-05 METAR EDDT 051820Z 27021G32KT 9999 -RA FEW010 BKN015 BKN020 05/02 Q0978
12-01-05 METAR EDDT 051850Z 28018G28KT 9999 -RA SCT012 BKN018 05/02 Q0978 NOSIG
12-01-05 METAR EDDT 051920Z 28021G33KT 9999 -RA FEW008 SCT011 BKN015 04/02 Q0979
12-01-05 METAR EDDT 051950Z 28019G29KT 9999 -RA FEW006 BKN015 BKN020 04/02 Q0980
12-01-05 METAR EDDT 052020Z 28018G30KT 9999 -RA FEW006 BKN012 BKN018 04/02 Q0980
12-01-05 METAR EDDT 052050Z 28020G33KT 9999 -RA FEW006 BKN011 BKN015 03/02 Q0981
12-01-05 METAR EDDT 052120Z 29020G34KT 9999 -RA FEW005 BKN011 BKN015 03/01 Q0982
12-01-05 METAR EDDT 052150Z 29017G27KT 9999 -RA BKN011 BKN015 03/01 Q0983 NOSIG
12-01-05 METAR EDDT 052220Z 30017G28KT 9999 -RA BKN012 BKN018 03/01 Q0984
12-01-05 METAR EDDT 052250Z 30016G27KT 9999 -RA BKN012 BKN016 03/01 Q0984
12-01-05 METAR EDDT 052320Z 30016G26KT 9999 -RA BKN012 03/01 Q0985
12-01-05 METAR EDDT 052350Z 30017KT 9999 -RA BKN013 03/01 Q0986
12-01-06 METAR EDDT 052350Z 30017KT 9999 -RA BKN013 03/01 Q0986
12-01-06 METAR EDDT 060020Z 30017G31KT 9999 -RA BKN013 03/01 Q0987
12-01-06 METAR EDDT 060050Z 30015KT 9999 -RA BKN014 04/01 Q0988
12-01-06 METAR EDDT 060120Z 30014G28KT 9999 -RA SCT013 BKN018 04/01 Q0989
12-01-06 METAR EDDT 060150Z 30014G24KT 9999 FEW014 BKN018 04/01 Q0990
12-01-06 METAR EDDT 060220Z 31014G24KT 9999 BKN018 BKN025 04/01 Q0990
12-01-06 METAR EDDT 060250Z 31014KT 9999 BKN018 BKN030 04/M00 Q0992
12-01-06 METAR EDDT 060320Z 31012KT 9999 BKN018 BKN025 04/M00 Q0992
12-01-06 METAR EDDT 060350Z 31015G25KT 9999 BKN025 04/M01 Q0993 NOSIG
12-01-06 METAR EDDT 060420Z 31013G24KT 9999 FEW025 BKN030 04/M01 Q0994 NOSIG
12-01-06 METAR EDDT 060450Z 30013KT 9999 SCT022 03/M01 Q0995 TEMPO 30015G30KT
12-01-06 METAR EDDT 060520Z 31013KT 9999 SCT022 03/M01 Q0996 TEMPO 30015G30KT
12-01-06 METAR EDDT 060550Z 31014KT 9999 BKN022 03/M01 Q0997 TEMPO 30015G30KT
12-01-06 METAR EDDT 060620Z 32011G21KT 9999 BKN021 03/M01 Q0998 NOSIG
12-01-06 METAR EDDT 060650Z 32009KT 9999 BKN021 03/M01 Q0999 TEMPO 30015G25KT
12-01-06 METAR EDDT 060720Z 31010KT 9999 SCT020 BKN025 03/M01 Q1000 TEMPO 30015G25KT
12-01-06 METAR EDDT 060750Z 30007KT 9999 FEW016 SCT021 BKN029 03/M01 Q1001 TEMPO
12-01-06 METAR EDDT 060820Z 31007KT 9999 SCT019 BKN026 03/M00 Q1002 TEMPO
12-01-06 METAR EDDT 060850Z 32009G19KT 9999 FEW020 BKN029 03/M01 Q1003 NOSIG
12-01-06 METAR EDDT 060920Z 34010G21KT 9999 BKN029 04/M02 Q1004 NOSIG
12-01-06 METAR EDDT 060950Z 33008KT 9999 FEW021 BKN030 03/M02 Q1005 TEMPO
12-01-06 METAR EDDT 061020Z 31009KT 9999 FEW021 BKN030 03/M02 Q1006 TEMPO
12-01-06 METAR EDDT 061050Z 32010KT 9999 FEW021 BKN030 03/M02 Q1007 TEMPO
12-01-06 METAR EDDT 061120Z 32009G19KT 9999 FEW021 BKN030 04/M02 Q1007 NOSIG
12-01-06 METAR EDDT 061150Z 32009KT 9999 FEW021 BKN030 04/M02 Q1008 TEMPO
12-01-06 METAR EDDT 061220Z 32008KT 9999 SCT024 BKN030 03/M02 Q1008 TEMPO
12-01-06 METAR EDDT 061250Z 32009KT 9999 FEW024 BKN031 03/M03 Q1009 TEMPO
12-01-06 METAR EDDT 061320Z 32009KT 9999 FEW025 BKN032 03/M03 Q1009 TEMPO
12-01-06 METAR EDDT 061350Z 32008KT 9999 FEW016 BKN031 04/M03 Q1010 NOSIG
12-01-06 METAR EDDT 061420Z 30009KT 9999 SCT013 SCT024 03/M00 Q1011 NOSIG
12-01-06 METAR EDDT 061450Z 29008KT 9999 FEW012 02/M00 Q1012 NOSIG
12-01-06 METAR EDDT 061520Z 29008KT 9999 FEW013 SCT033 02/M00 Q1012 NOSIG
12-01-06 METAR EDDT 061550Z 28009KT 9999 BKN032 02/M01 Q1013 NOSIG
12-01-06 METAR EDDT 061620Z 29008KT 9999 BKN032 02/M01 Q1013 NOSIG
12-01-06 METAR EDDT 061650Z 29006KT 9999 SCT031 02/M02 Q1013 NOSIG
12-01-06 METAR EDDT 061720Z 28005KT 9999 FEW031 01/M02 Q1013 NOSIG
12-01-06 METAR EDDT 061750Z 25007KT CAVOK M00/M03 Q1014 NOSIG
12-01-06 METAR EDDT 061820Z 28007KT CAVOK 01/M02 Q1014 NOSIG
12-01-06 METAR EDDT 061850Z 26007KT CAVOK M00/M03 Q1014 NOSIG
12-01-06 METAR EDDT 061920Z 26005KT CAVOK M01/M03 Q1015 NOSIG
12-01-06 METAR EDDT 061950Z 26007KT CAVOK M01/M03 Q1015 NOSIG
12-01-06 METAR EDDT 062020Z 25006KT CAVOK M01/M03 Q1015 NOSIG
12-01-06 METAR EDDT 062050Z 25008KT CAVOK 00/M02 Q1015 NOSIG
12-01-06 METAR EDDT 062120Z 26006KT CAVOK M01/M03 Q1015 NOSIG
12-01-06 METAR EDDT 062150Z 27009KT 9999 BKN028 00/M02 Q1015 NOSIG
12-01-06 METAR EDDT 062220Z 26007KT 9999 BKN030 BKN250 M01/M02 Q1015
12-01-06 METAR EDDT 062250Z 27008KT 9999 BKN030 SCT250 00/M01 Q1014
12-01-06 METAR EDDT 062320Z 26010KT 9999 OVC008 01/00 Q1014
12-01-06 METAR EDDT 062350Z 26009KT 9999 OVC007 02/01 Q1014
12-01-07 METAR EDDT 062350Z 26009KT 9999 OVC007 02/01 Q1014
12-01-07 METAR EDDT 070020Z 26009KT 9999 OVC007 03/01 Q1014
12-01-07 METAR EDDT 070050Z NIL
12-01-07 METAR EDDT 070150Z 26008KT 9999 BKN009 BKN013 03/02 Q1014
12-01-07 METAR EDDT 070220Z 26009KT 9999 FEW009 BKN013 BKN043 03/02 Q1014
12-01-07 METAR EDDT 070250Z 26009KT 9999 FEW009 BKN045 04/02 Q1013
12-01-07 METAR EDDT 070320Z 25009KT 9999 FEW015 BKN050 04/02 Q1013
12-01-07 METAR EDDT 070350Z 24012KT 9999 BKN023 BKN042 04/02 Q1012 NOSIG
12-01-07 METAR EDDT 070420Z 23011KT 9999 FEW013 BKN021 BKN038 04/01 Q1012 NOSIG
12-01-07 METAR EDDT 070450Z 24010KT 9999 FEW013 SCT022 BKN100 04/01 Q1012 NOSIG
12-01-07 METAR EDDT 070520Z 24011KT 9999 FEW010 SCT027 BKN130 04/01 Q1011 NOSIG
12-01-07 METAR EDDT 070550Z 23012KT 9999 BKN026 04/01 Q1010 NOSIG
12-01-07 METAR EDDT 070620Z 24013KT 9999 -RA FEW012 BKN020 04/01 Q1010 TEMPO RA BKN008
12-01-07 METAR EDDT 070650Z 22012KT 9999 -RA FEW007 BKN013 03/01 Q1010 TEMPO RA
12-01-07 METAR EDDT 070720Z 21011KT 9999 -RA FEW007 BKN010 03/01 Q1009 TEMPO BKN008
12-01-07 METAR EDDT 070950Z 21011KT 9999 -RADZ FEW006 BKN009 03/02 Q1007 TEMPO RA
12-01-07 METAR EDDT 071020Z 22011KT 7000 RA FEW004 BKN008 03/02 Q1006 NOSIG
12-01-07 METAR EDDT 071050Z 22013KT 7000 RA FEW006 BKN010 04/02 Q1006 TEMPO BKN008
12-01-07 METAR EDDT 071120Z 23012KT 6000 -RA FEW006 BKN008 04/03 Q1005 NOSIG
12-01-07 METAR EDDT 071150Z 23014KT 6000 -RA FEW006 BKN010 04/03 Q1004 NOSIG
12-01-07 METAR EDDT 071220Z 23012KT 9999 -RA FEW006 BKN010 05/03 Q1004 NOSIG
12-01-07 METAR EDDT 071250Z 24014KT 9999 FEW006 BKN009 05/04 Q1004 BECMG BKN010
12-01-07 METAR EDDT 071350Z 26013KT 9999 -RA FEW006 BKN008 06/05 Q1003 NOSIG
12-01-07 METAR EDDT 071550Z 29012KT 9999 FEW008 BKN015 BKN038 06/04 Q1004 TEMPO
12-01-07 METAR EDDT 071720Z 29012KT 9999 FEW008 BKN014 06/04 Q1005 TEMPO BKN016
12-01-07 METAR EDDT 071850Z 29010KT 9999 FEW008 SCT016 BKN030 06/04 Q1006 TEMPO
12-01-07 METAR EDDT 071920Z 28009KT 9999 -RA BKN014 BKN025 06/04 Q1007 BECMG SCT015
12-01-07 METAR EDDT 071950Z 28011KT 9999 FEW006 BKN013 06/03 Q1007 BECMG SCT015
12-01-07 METAR EDDT 072020Z 28011KT 9999 BKN013 BKN021 06/03 Q1008 BECMG SCT015
12-01-07 METAR EDDT 072050Z 28011KT 9999 BKN014 BKN024 06/03 Q1008 BECMG SCT015
12-01-07 METAR EDDT 072120Z 28012KT 9999 SCT015 BKN024 06/03 Q1008 NOSIG
12-01-07 METAR EDDT 072150Z 28011KT 9999 FEW011 BKN016 06/03 Q1008 NOSIG
12-01-07 METAR EDDT 072220Z 27011KT 9999 FEW012 BKN018 05/03 Q1008
12-01-07 METAR EDDT 072250Z 28012KT 9999 FEW012 BKN016 05/03 Q1009
12-01-07 METAR EDDT 072320Z 28012KT 9999 BKN014 BKN021 05/03 Q1009
12-01-07 METAR EDDT 072350Z 28012KT 9999 BKN014 BKN021 05/03 Q1009
12-01-08 METAR EDDT 072350Z 28012KT 9999 BKN014 BKN021 05/03 Q1009
12-01-08 METAR EDDT 080020Z 27013KT 9999 BKN014 05/03 Q1009
12-01-08 METAR EDDT 080050Z 27013G23KT 9999 BKN014 05/03 Q1009
12-01-08 METAR EDDT 080120Z 27013KT 9999 BKN015 05/02 Q1009
12-01-08 METAR EDDT 080150Z 27013KT 9999 BKN015 05/02 Q1009
12-01-08 METAR EDDT 080220Z 27010KT 9999 -RA FEW011 BKN015 05/03 Q1009
12-01-08 METAR EDDT 080250Z 27009KT 9999 -RA FEW012 BKN015 05/03 Q1009
12-01-08 METAR EDDT 080320Z 28008KT 9999 -RA BKN013 05/03 Q1010 RERA
12-01-08 METAR EDDT 080350Z 27011KT 9999 -RADZ BKN015 05/03 Q1010 TEMPO BKN012
12-01-08 METAR EDDT 080420Z 27011KT 9999 FEW012 BKN015 05/03 Q1009 TEMPO BKN012
12-01-08 METAR EDDT 080450Z 27010KT 9999 -RA FEW012 BKN015 05/03 Q1009 TEMPO BKN012
12-01-08 METAR EDDT 080520Z 27008KT 9999 -RA FEW011 BKN016 05/03 Q1010 TEMPO BKN012
12-01-08 METAR EDDT 080550Z 27009KT 9999 SCT010 BKN015 05/03 Q1009 TEMPO BKN012
12-01-08 METAR EDDT 080620Z 26012KT 9999 BKN012 BKN015 05/03 Q1009 NOSIG
12-01-08 METAR EDDT 080650Z 26012KT 9999 -RA FEW008 BKN011 BKN015 05/03 Q1009 NOSIG
12-01-08 METAR EDDT 080720Z 26011KT 9999 -RA FEW008 BKN011 BKN015 04/03 Q1010 NOSIG
12-01-08 METAR EDDT 080750Z 26012KT 9999 SCT011 BKN017 BKN028 05/03 Q1010 TEMPO BKN012
12-01-08 METAR EDDT 080820Z 26011KT 9999 -RA BKN012 BKN020 05/03 Q1010 TEMPO BKN015
12-01-08 METAR EDDT 080850Z 26012KT 9999 -RA BKN013 05/03 Q1010 TEMPO BKN015
12-01-08 METAR EDDT 080920Z 27012KT 9999 -RA BKN012 BKN015 05/03 Q1010 TEMPO BKN015
12-01-08 METAR EDDT 080950Z 26011KT 9999 -RA BKN011 BKN015 05/03 Q1010 TEMPO BKN015
12-01-08 METAR EDDT 081020Z 27011KT 9999 -RADZ SCT009 BKN011 05/03 Q1010 TEMPO BKN009
12-01-08 METAR EDDT 081050Z 27010KT 9999 -RA BKN009 BKN013 05/03 Q1011 NOSIG
12-01-08 METAR EDDT 081120Z 27009KT 9999 -RA BKN009 BKN011 05/04 Q1011 TEMPO BKN012
12-01-08 METAR EDDT 081150Z 28008KT 9999 -RA SCT009 BKN011 06/04 Q1011 NOSIG
12-01-08 METAR EDDT 081220Z 29006KT 9999 -RA SCT009 BKN012 05/04 Q1011 NOSIG
12-01-08 METAR EDDT 081250Z 28007KT 9999 BKN010 BKN013 06/04 Q1011 NOSIG
12-01-08 METAR EDDT 081320Z 29007KT 9999 BKN012 BKN030 06/04 Q1011 NOSIG
12-01-08 METAR EDDT 081350Z 29007KT 9999 -SHRA BKN012 BKN020 06/04 Q1011 NOSIG
12-01-08 METAR EDDT 081420Z 30008KT 9999 -SHRA BKN012 BKN030 06/04 Q1012 NOSIG
12-01-08 METAR EDDT 081450Z 30006KT 9999 -SHRA BKN012 BKN020 06/04 Q1012 NOSIG
12-01-08 METAR EDDT 081520Z 28004KT 9999 BKN011 BKN035 05/04 Q1013 NOSIG
12-01-08 METAR EDDT 081550Z 28005KT 9999 -SHRA SCT014 BKN030 05/04 Q1013 TEMPO BKN014
12-01-08 METAR EDDT 081620Z 29006KT 9999 -SHRA BKN014 BKN020 05/04 Q1014 TEMPO BKN015
12-01-08 METAR EDDT 081650Z 30005KT 9999 FEW013 BKN030 05/03 Q1014 TEMPO BKN014
12-01-08 METAR EDDT 081720Z 29005KT 9999 FEW015 BKN030 05/03 Q1014 TEMPO BKN014
12-01-08 METAR EDDT 081750Z 30005KT 9999 FEW015 BKN028 05/03 Q1015 NOSIG
12-01-08 METAR EDDT 082050Z 30005KT 9999 FEW009 BKN011 04/03 Q1017 TEMPO SCT013
12-01-08 METAR EDDT 082120Z 30005KT 9999 FEW008 BKN010 04/03 Q1018 TEMPO SCT013
12-01-08 METAR EDDT 082150Z 30007KT 9999 SCT008 BKN022 04/03 Q1018 NOSIG
12-01-08 METAR EDDT 082220Z 30006KT 9999 SCT008 BKN011 04/03 Q1018
12-01-08 METAR EDDT 082250Z 30007KT 9999 SCT008 BKN023 04/03 Q1019
12-01-08 METAR EDDT 082320Z 30007KT 9999 SCT008 SCT040 04/02 Q1019
12-01-08 METAR EDDT 082350Z 31007KT 9999 SCT008 SCT043 04/02 Q1019
12-01-09 METAR EDDT 082350Z 31007KT 9999 SCT008 SCT043 04/02 Q1019
12-01-09 METAR EDDT 090050Z 31007KT 9999 FEW005 BKN013 BKN040 04/02 Q1020
12-01-09 METAR EDDT 090120Z 32006KT 9999 SCT013 BKN040 04/02 Q1020
12-01-09 METAR EDDT 090150Z 31006KT 9999 FEW013 BKN033 03/02 Q1021
12-01-09 METAR EDDT 090220Z 32006KT 9999 SCT012 BKN033 03/01 Q1021
12-01-09 METAR EDDT 090250Z 31006KT 9999 BKN012 03/01 Q1021
12-01-09 METAR EDDT 090320Z 31007KT 9999 FEW012 BKN033 03/01 Q1021
12-01-09 METAR EDDT 090350Z 34005KT 9999 BKN033 03/01 Q1021 NOSIG
12-01-09 METAR EDDT 090420Z 31005KT 300V020 9999 BKN033 03/01 Q1022 NOSIG
12-01-09 METAR EDDT 090450Z 30005KT 9999 FEW012 BKN033 03/01 Q1022 TEMPO BKN012
12-01-09 METAR EDDT 090520Z 29005KT 9999 BKN010 03/01 Q1022 TEMPO SCT010
12-01-09 METAR EDDT 090550Z 29005KT 9999 FEW008 BKN010 02/01 Q1022 TEMPO SCT010
12-01-09 METAR EDDT 090620Z 30005KT 9999 SCT008 BKN010 02/01 Q1022 TEMPO SCT010
12-01-09 METAR EDDT 090650Z 29005KT 9999 FEW008 BKN028 02/01 Q1022 NOSIG
12-01-09 METAR EDDT 090720Z 29005KT 9999 FEW008 BKN025 02/01 Q1023 NOSIG
12-01-09 METAR EDDT 090750Z 29004KT 9999 FEW008 BKN025 02/01 Q1023 NOSIG
12-01-09 METAR EDDT 090820Z 28003KT 9999 FEW008 BKN025 03/01 Q1023 NOSIG
12-01-09 METAR EDDT 090850Z 29004KT 9999 FEW009 BKN025 03/01 Q1023 NOSIG
12-01-09 METAR EDDT 090920Z 31003KT 9999 FEW009 BKN025 03/01 Q1023 NOSIG
12-01-09 METAR EDDT 090950Z 28005KT 9999 SCT009 BKN025 03/01 Q1023 NOSIG
12-01-09 METAR EDDT 091020Z 29004KT 9999 SCT010 BKN020 03/01 Q1023 NOSIG
12-01-09 METAR EDDT 091050Z 28007KT 9999 BKN010 BKN015 03/01 Q1023 NOSIG
12-01-09 METAR EDDT 091120Z 28007KT 9999 BKN010 BKN014 03/01 Q1023 NOSIG
12-01-09 METAR EDDT 091150Z 27005KT 9999 FEW010 BKN035 BKN130 03/01 Q1023 NOSIG
12-01-09 METAR EDDT 091220Z 26006KT 9999 FEW018 OVC130 03/00 Q1023 NOSIG
12-01-09 METAR EDDT 091250Z 26005KT 9999 SCT015 BKN130 04/01 Q1022 NOSIG
12-01-09 METAR EDDT 091320Z 25006KT 9999 -RA BKN013 04/01 Q1022 NOSIG
12-01-09 METAR EDDT 091350Z 24006KT 9999 -RA BKN010 04/02 Q1022 TEMPO RA BKN008
12-01-09 METAR EDDT 091420Z 24006KT 9000 RA BKN007 OVC020 04/02 Q1022 TEMPO NSW
12-01-09 METAR EDDT 091450Z 20004KT 8000 -RA SCT007 OVC013 03/02 Q1022 RERA TEMPO RA BKN008
12-01-09 METAR EDDT 091520Z 20005KT 7000 -RADZ SCT005 BKN007 04/02 Q1021 TEMPO 4000 RA
12-01-09 METAR EDDT 091550Z 20006KT 6000 RA FEW002 BKN005 04/03 Q1021 TEMPO 4000 6000 NSW BKN006 BKN006
12-01-09 METAR EDDT 091650Z 20006KT 5000 -RADZ BKN003 BKN014 04/03 Q1021 BECMG BKN005
12-01-09 METAR EDDT 091920Z 24008KT 5000 BR BKN003 05/04 Q1019 TEMPO 4000 -DZ
12-01-09 METAR EDDT 091950Z 26008KT 6000 BKN003 BKN005 06/05 Q1019 TEMPO 4000 -DZ BKN004
12-01-09 METAR EDDT 092150Z 27013KT 4000 RA BR BKN004 BKN006 07/06 Q1019 BECMG 5000 NSW
12-01-09 METAR EDDT 092220Z 26015KT 6000 -RADZ FEW003 BKN006 BKN009 07/06 Q1018 RERA
12-01-09 METAR EDDT 092250Z 28012KT 6000 -RA BKN007 BKN009 07/06 Q1018
12-01-09 METAR EDDT 092320Z 29012KT 9999 SCT006 BKN008 BKN015 07/06 Q1019
12-01-09 METAR EDDT 092350Z 29012KT 9999 -RA SCT009 BKN011 07/06 Q1019
12-01-10 METAR EDDT 092350Z 29012KT 9999 -RA SCT009 BKN011 07/06 Q1019
12-01-10 METAR EDDT 100020Z 29012KT 9999 -RA FEW009 BKN012 BKN025 07/05 Q1019
12-01-10 METAR EDDT 100050Z 29010KT 9999 -RA FEW010 BKN030 07/04 Q1019
12-01-10 METAR EDDT 100120Z 30012G23KT 8000 -RA FEW006 SCT013 BKN018 06/04 Q1020
12-01-10 METAR EDDT 100150Z 30011KT 9999 SCT018 BKN030 06/04 Q1021 RERA
12-01-10 METAR EDDT 100220Z 30011G22KT 9999 SCT020 BKN035 06/03 Q1021
12-01-10 METAR EDDT 100250Z 30012KT 9999 FEW018 BKN033 06/03 Q1021
12-01-10 METAR EDDT 100320Z 30010KT 9999 FEW022 BKN030 06/03 Q1022
12-01-10 METAR EDDT 100350Z 30012KT 9999 FEW020 BKN030 06/03 Q1022 NOSIG
12-01-10 METAR EDDT 100420Z 30012KT 9999 -RA SCT022 BKN028 06/02 Q1023 NOSIG
12-01-10 METAR EDDT 100450Z 29011KT 9999 BKN030 06/02 Q1023 NOSIG
12-01-10 METAR EDDT 100520Z 29011KT 9999 BKN025 06/02 Q1023 NOSIG
12-01-10 METAR EDDT 100550Z 30009KT 9999 BKN022 06/02 Q1023 NOSIG
12-01-10 METAR EDDT 100620Z 30011KT 9999 BKN020 06/02 Q1024 NOSIG
12-01-10 METAR EDDT 100650Z 30013KT 9999 BKN018 05/02 Q1024 NOSIG
12-01-10 METAR EDDT 100720Z 30011KT 9999 BKN016 05/02 Q1025 NOSIG
12-01-10 METAR EDDT 100750Z 30011KT 9999 BKN015 05/02 Q1026 NOSIG
12-01-10 METAR EDDT 100820Z 31010KT 9999 BKN014 05/02 Q1026 BECMG BKN015
12-01-10 METAR EDDT 100850Z 31011KT 9999 BKN015 05/02 Q1027 NOSIG
12-01-10 METAR EDDT 100920Z 31010G21KT 9999 BKN015 05/02 Q1027 NOSIG
12-01-10 METAR EDDT 100950Z 31009KT 9999 BKN015 05/02 Q1027 NOSIG
12-01-10 METAR EDDT 101020Z 30009KT 9999 BKN015 05/02 Q1028 NOSIG
12-01-10 METAR EDDT 101050Z 29010KT 9999 BKN015 06/02 Q1028 NOSIG
12-01-10 METAR EDDT 101120Z 30009KT 9999 BKN016 06/02 Q1028 NOSIG
12-01-10 METAR EDDT 101150Z 30011KT 9999 BKN016 06/02 Q1028 NOSIG
12-01-10 METAR EDDT 101220Z 30010KT 9999 SCT017 SCT300 07/02 Q1028 NOSIG
12-01-10 METAR EDDT 101250Z 31010KT 9999 SCT020 SCT300 07/02 Q1028 NOSIG
12-01-10 METAR EDDT 101320Z 30011KT 9999 SCT020 SCT300 06/01 Q1028 NOSIG
12-01-10 METAR EDDT 101350Z 30009KT 9999 SCT020 SCT300 07/02 Q1029 NOSIG
12-01-10 METAR EDDT 101420Z 30010KT 9999 SCT020 SCT300 06/02 Q1029 NOSIG
12-01-10 METAR EDDT 101450Z 28007KT 9999 SCT020 BKN075 06/02 Q1029 NOSIG
12-01-10 METAR EDDT 101520Z 29006KT 9999 SCT020 BKN070 06/03 Q1030 NOSIG
12-01-10 METAR EDDT 101550Z 28006KT 9999 SCT020 BKN060 06/03 Q1030 NOSIG
12-01-10 METAR EDDT 101620Z 29007KT 9999 SCT020 BKN060 06/03 Q1030 NOSIG
12-01-10 METAR EDDT 101650Z 27008KT 9999 FEW020 BKN060 06/03 Q1030 NOSIG
12-01-10 METAR EDDT 101720Z 26008KT 9999 SCT015 BKN060 06/03 Q1030 NOSIG
12-01-10 METAR EDDT 101750Z 26009KT 9999 SCT013 BKN060 05/03 Q1030 NOSIG
12-01-10 METAR EDDT 101820Z 26009KT 9999 FEW013 BKN050 05/03 Q1030 NOSIG
12-01-10 METAR EDDT 101850Z 27008KT 9999 FEW013 BKN058 05/03 Q1030 NOSIG
12-01-10 METAR EDDT 101920Z 27009KT 9999 FEW013 BKN060 05/03 Q1030 NOSIG
12-01-10 METAR EDDT 101950Z 26009KT 9999 FEW013 BKN060 05/03 Q1030 NOSIG
12-01-10 METAR EDDT 102020Z 26008KT 9999 FEW013 BKN060 05/02 Q1030 NOSIG
12-01-10 METAR EDDT 102050Z 26008KT CAVOK 05/03 Q1030 NOSIG
12-01-10 METAR EDDT 102120Z 26008KT 9999 FEW013 BKN070 05/03 Q1030 NOSIG
12-01-10 METAR EDDT 102150Z 26008KT 9999 SCT013 BKN036 05/02 Q1030 NOSIG
12-01-10 METAR EDDT 102220Z 26007KT 9999 SCT012 BKN030 04/02 Q1030
12-01-10 METAR EDDT 102250Z 26007KT 9999 BKN030 05/03 Q1029
12-01-10 METAR EDDT 102320Z 25006KT 9999 BKN030 05/03 Q1029
12-01-10 METAR EDDT 102350Z 24008KT 9999 BKN031 05/03 Q1029
12-01-11 METAR EDDT 102350Z 24008KT 9999 BKN031 05/03 Q1029
12-01-11 METAR EDDT 110020Z 24009KT 9999 BKN031 05/03 Q1029
12-01-11 METAR EDDT 110050Z 25008KT 9999 OVC030 05/03 Q1028
12-01-11 METAR EDDT 110120Z 25009KT 9999 OVC030 06/03 Q1028
12-01-11 METAR EDDT 110150Z 26009KT 9999 OVC030 06/03 Q1028
12-01-11 METAR EDDT 110220Z 26008KT 9999 OVC030 06/03 Q1028
12-01-11 METAR EDDT 110250Z 24008KT 9999 BKN030 06/03 Q1028
12-01-11 METAR EDDT 110320Z 24008KT 9999 BKN030 06/03 Q1027
12-01-11 METAR EDDT 110350Z 24009KT 9999 OVC031 06/03 Q1027
12-01-11 METAR EDDT 110450Z 25009KT 9999 OVC030 06/03 Q1027 NOSIG
12-01-11 METAR EDDT 110520Z 25010KT 9999 OVC027 07/03 Q1027 NOSIG
12-01-11 METAR EDDT 110550Z 25008KT 9999 BKN025 07/03 Q1027 NOSIG
12-01-11 METAR EDDT 110620Z 25009KT 9999 BKN025 07/03 Q1026 NOSIG
12-01-11 METAR EDDT 110650Z 26012KT 9999 BKN028 07/03 Q1026 NOSIG
12-01-11 METAR EDDT 110720Z 25010KT 9999 FEW028 BKN040 07/03 Q1026 NOSIG
12-01-11 METAR EDDT 110750Z 25011KT 9999 FEW028 BKN045 07/03 Q1026 NOSIG
12-01-11 METAR EDDT 110820Z 25012KT 9999 BKN025 07/03 Q1026 BECMG BKN014
12-01-11 METAR EDDT 110950Z 25013KT 9999 SCT007 BKN016 07/04 Q1026 BECMG BKN014
12-01-11 METAR EDDT 111050Z 26014KT 9999 FEW007 BKN011 07/05 Q1026 BECMG BKN009
12-01-11 METAR EDDT 111120Z 26013KT 9999 FEW007 BKN011 07/05 Q1026 BECMG BKN009
12-01-11 METAR EDDT 111150Z 26012KT 9999 FEW007 BKN013 07/05 Q1026 NOSIG
12-01-11 METAR EDDT 111220Z 26010KT 9999 SCT007 SCT011 BKN017 08/06 Q1026 TEMPO BKN014
12-01-11 METAR EDDT 111320Z 26011KT 9999 FEW011 BKN016 08/05 Q1025 TEMPO BKN014
12-01-11 METAR EDDT 111650Z 28011KT 9999 FEW007 BKN014 08/06 Q1026 NOSIG
12-01-11 METAR EDDT 111720Z 28011KT 9999 FEW007 BKN013 08/06 Q1026 NOSIG
12-01-11 METAR EDDT 111750Z 28010KT 9999 BKN013 08/06 Q1026 NOSIG
12-01-11 METAR EDDT 111820Z 28010KT 9999 BKN011 08/06 Q1027 NOSIG
12-01-11 METAR EDDT 111850Z 29008KT 9999 BKN011 BKN040 08/06 Q1027 NOSIG
12-01-11 METAR EDDT 111920Z 28008KT 9999 SCT011 BKN040 08/06 Q1027 NOSIG
12-01-11 METAR EDDT 111950Z 28008KT 9999 FEW011 BKN040 08/06 Q1027 NOSIG
12-01-11 METAR EDDT 112020Z 27008KT 9999 FEW011 BKN040 08/06 Q1027 NOSIG
12-01-11 METAR EDDT 112050Z 26009KT 9999 FEW015 BKN040 08/06 Q1027 NOSIG
12-01-11 METAR EDDT 112120Z 26009KT 9999 FEW015 BKN040 08/06 Q1027 NOSIG
12-01-11 METAR EDDT 112150Z 26009KT 9999 FEW012 BKN040 08/06 Q1027 NOSIG
12-01-11 METAR EDDT 112220Z 26010KT 9999 SCT012 BKN040 08/06 Q1026
12-01-11 METAR EDDT 112250Z 26011KT 9999 BKN011 BKN040 08/06 Q1026
12-01-11 METAR EDDT 112320Z 27009KT 9999 BKN010 BKN040 08/06 Q1026
12-01-11 METAR EDDT 112350Z 26010KT 9999 BKN008 08/06 Q1025
12-01-12 METAR EDDT 112350Z 26010KT 9999 BKN008 08/06 Q1025
12-01-12 METAR EDDT 120020Z 25010KT 9999 BKN009 08/06 Q1025
12-01-12 METAR EDDT 120050Z 25013KT 9999 BKN010 08/06 Q1025
12-01-12 METAR EDDT 120120Z 25013KT 9999 BKN012 BKN035 08/06 Q1024
12-01-12 METAR EDDT 120150Z 25012KT 9999 SCT012 BKN025 08/05 Q1024
12-01-12 METAR EDDT 120220Z 25011KT 9999 SCT012 BKN020 08/05 Q1023
12-01-12 METAR EDDT 120250Z 24011KT 9999 -RA SCT012 BKN017 08/06 Q1023
12-01-12 METAR EDDT 120320Z 24013KT 9999 -RA FEW012 BKN016 08/06 Q1022
12-01-12 METAR EDDT 120350Z 24013KT 9999 -RA BKN014 08/06 Q1021 TEMPO BKN015
12-01-12 METAR EDDT 120420Z 24013KT 9999 -RA BKN014 08/06 Q1021 TEMPO BKN015
12-01-12 METAR EDDT 120450Z 24014KT 9999 -RA BKN014 08/06 Q1020 TEMPO BKN012
12-01-12 METAR EDDT 120750Z 24016KT 9999 FEW007 BKN013 08/06 Q1017 NOSIG
12-01-12 METAR EDDT 120850Z 24017G27KT 9999 BKN016 09/06 Q1016 TEMPO BKN014
12-01-12 METAR EDDT 120920Z 23016KT 9999 BKN018 09/05 Q1016 NOSIG
12-01-12 METAR EDDT 120950Z 23014KT 9999 FEW018 BKN021 09/05 Q1015 NOSIG
12-01-12 METAR EDDT 121020Z 23014KT 9999 FEW018 BKN021 09/06 Q1014 NOSIG
12-01-12 METAR EDDT 121050Z 23014G24KT 9999 FEW016 BKN018 09/05 Q1013 NOSIG
12-01-12 METAR EDDT 121120Z 24019G29KT 9999 FEW018 BKN022 09/06 Q1012 NOSIG
12-01-12 METAR EDDT 121150Z 24019G30KT 9999 FEW022 BKN025 10/05 Q1011 NOSIG
12-01-12 METAR EDDT 121220Z 24020KT 9999 FEW022 BKN027 10/05 Q1011 NOSIG
12-01-12 METAR EDDT 121250Z 25021G32KT 9999 BKN025 10/05 Q1010 NOSIG
12-01-12 METAR EDDT 121320Z 25026G37KT 9999 FEW022 BKN026 10/05 Q1009 NOSIG
12-01-12 METAR EDDT 121350Z 25023G34KT 9999 -SHRA FEW020 BKN023 09/06 Q1009 NOSIG
12-01-12 METAR EDDT 121420Z 25020KT 9999 -RA FEW020 BKN023 10/05 Q1008 TEMPO 24020G40KT RA BKN013
12-01-12 METAR EDDT 121450Z 25021KT 9999 -RA FEW020 BKN023 09/06 Q1008 TEMPO
12-01-12 METAR EDDT 121520Z 26022KT 9999 -RA BKN024 09/06 Q1007 TEMPO 24020G40KT RA
12-01-12 METAR EDDT 121550Z 27024G37KT 9999 -SHRA FEW010 BKN022 BKN060 09/05 Q1007 TEMPO RA BKN013
12-01-12 METAR EDDT 121620Z 27022KT 9999 -SHRA FEW010 BKN022 09/05 Q1007 TEMPO 24020G40KT RA
12-01-12 METAR EDDT 121650Z 27018G30KT 9999 -SHRA FEW008 BKN017 08/05 Q1007 TEMPO 24025G45KT RA
12-01-12 METAR EDDT 121750Z 30014G24KT 9999 FEW018 07/02 Q1008 NOSIG
12-01-12 METAR EDDT 121820Z 30016G28KT 9999 FEW018 SCT033 06/01 Q1009 NOSIG
12-01-12 METAR EDDT 121850Z 29015KT 9999 FEW025 05/01 Q1010 TEMPO 30020G30KT
12-01-12 METAR EDDT 121920Z 29015G27KT 9999 FEW024 05/01 Q1010 NOSIG
12-01-12 METAR EDDT 121950Z 30018G29KT 9999 FEW025 05/00 Q1011 NOSIG
12-01-12 METAR EDDT 122020Z 29016G26KT 9999 FEW025 05/M00 Q1011 NOSIG
12-01-12 METAR EDDT 122050Z 30016KT 9999 FEW025 SCT040 05/M00 Q1012 TEMPO 30020G30KT
12-01-12 METAR EDDT 122120Z 30013G23KT 9999 FEW023 BKN035 05/M00 Q1012 TEMPO
12-01-12 METAR EDDT 122150Z 29015KT 9999 FEW023 SCT040 05/M00 Q1012 TEMPO
12-01-12 METAR EDDT 122220Z 29014KT 9999 BKN038 05/M00 Q1013
12-01-12 METAR EDDT 122250Z 28014G25KT 9999 FEW023 04/M00 Q1013
12-01-12 METAR EDDT 122320Z 28014KT 9999 FEW033 04/M00 Q1013
12-01-12 METAR EDDT 122350Z 28014KT 9999 FEW021 04/M00 Q1013
12-01-13 METAR EDDT 122350Z 28014KT 9999 FEW021 04/M00 Q1013
12-01-13 METAR EDDT 130020Z 28014KT 9999 FEW020 SCT032 04/00 Q1013
12-01-13 METAR EDDT 130050Z 28014KT 9999 BKN020 04/00 Q1013
12-01-13 METAR EDDT 130120Z 28014KT 9999 BKN020 04/00 Q1013
12-01-13 METAR EDDT 130150Z 28014KT 9999 SCT023 04/M00 Q1013
12-01-13 METAR EDDT 130220Z 28014G25KT 9999 SCT024 04/M01 Q1013
12-01-13 METAR EDDT 130250Z 28018G32KT 9999 BKN020 04/M00 Q1013
12-01-13 METAR EDDT 130320Z 28015G25KT 9999 BKN020 03/M00 Q1013
12-01-13 METAR EDDT 130350Z 27015KT 9999 FEW018 SCT080 03/M00 Q1012 TEMPO 30015G25KT
12-01-13 METAR EDDT 130420Z 28015KT 9999 FEW017 SCT029 03/M00 Q1013 TEMPO 27015G25KT
12-01-13 METAR EDDT 130450Z 28015KT 9999 BKN020 03/M00 Q1012 TEMPO 27015G25KT
12-01-13 METAR EDDT 130520Z 28015G27KT 9999 FEW016 BKN025 03/M00 Q1012 NOSIG
12-01-13 METAR EDDT 130550Z 28014KT 9999 FEW018 BKN029 03/M00 Q1012 TEMPO 29020G30KT
12-01-13 METAR EDDT 130620Z 28015KT 9999 FEW016 BKN018 BKN023 03/M01 Q1012 TEMPO
12-01-13 METAR EDDT 130650Z 28016G26KT 9999 SCT016 SCT021 03/M01 Q1012 TEMPO
12-01-13 METAR EDDT 130720Z 28015G31KT 9999 BKN016 BKN020 03/M01 Q1012 NOSIG
12-01-13 METAR EDDT 130750Z 28016KT 9999 SCT015 BKN018 03/M01 Q1012 NOSIG
12-01-13 METAR EDDT 130820Z 29017G32KT 9999 SCT015 BKN018 03/M01 Q1012 NOSIG
12-01-13 METAR EDDT 130850Z 30014G24KT 9999 SCT016 BKN020 03/M01 Q1012 NOSIG
12-01-13 METAR EDDT 130920Z 29016G27KT 9999 SCT016 BKN020 03/M01 Q1012 NOSIG
12-01-13 METAR EDDT 130950Z 29016KT 9999 SCT018 BKN023 03/M01 Q1013 NOSIG
12-01-13 METAR EDDT 131020Z 28016G29KT 9999 SCT020 BKN036 03/M01 Q1012 NOSIG
12-01-13 METAR EDDT 131050Z 29014KT 9999 SCT020 BKN040 04/M01 Q1012 TEMPO
12-01-13 METAR EDDT 131120Z 29015KT 9999 BKN023 BKN028 04/M01 Q1012 TEMPO
12-01-13 METAR EDDT 131150Z 30013G23KT 9999 BKN021 BKN040 04/M01 Q1012 NOSIG
12-01-13 METAR EDDT 131220Z 29011KT 9999 -SHRA BKN019 BKN035 04/M01 Q1013 TEMPO
12-01-13 METAR EDDT 131250Z 29013KT 9999 -SHRA BKN020 BKN045 04/M01 Q1013 TEMPO
12-01-13 METAR EDDT 131320Z 29014KT 9999 SCT022 BKN048 04/M01 Q1012 TEMPO
12-01-13 METAR EDDT 131350Z 29012KT 9999 FEW018 BKN048 04/M00 Q1012 TEMPO
12-01-13 METAR EDDT 131420Z 28014KT 9999 FEW018 BKN048 04/M00 Q1013 TEMPO
12-01-13 METAR EDDT 131450Z 29013KT 9999 SCT018 SCT040 04/M00 Q1013 TEMPO
12-01-13 METAR EDDT 131520Z 29012KT 9999 SCT018 SCT033 03/00 Q1013 TEMPO 29020G30KT
12-01-13 METAR EDDT 131550Z 29011KT 9999 SCT020 SCT030 03/M00 Q1013 TEMPO
12-01-13 METAR EDDT 131620Z 28011KT 9999 BKN022 SCT030 03/M00 Q1014 NOSIG
12-01-13 METAR EDDT 131650Z 29012KT 9999 FEW022 03/M00 Q1014 NOSIG
12-01-13 METAR EDDT 131720Z 30010KT CAVOK 03/M00 Q1014 NOSIG
12-01-13 METAR EDDT 131750Z 29009KT CAVOK 02/M01 Q1014 NOSIG
12-01-13 METAR EDDT 131820Z 29010KT CAVOK 03/M01 Q1014 NOSIG
12-01-13 METAR EDDT 131850Z 29011KT CAVOK 03/M01 Q1014 NOSIG
12-01-13 METAR EDDT 131920Z 29010KT CAVOK 03/M01 Q1015 NOSIG
12-01-13 METAR EDDT 131950Z 29011KT CAVOK 03/M01 Q1015 NOSIG
12-01-13 METAR EDDT 132020Z 29012KT CAVOK 03/M01 Q1015 NOSIG
12-01-13 METAR EDDT 132050Z 29011KT CAVOK 02/M01 Q1015 NOSIG
12-01-13 METAR EDDT 132120Z 29012KT CAVOK 02/M01 Q1015 NOSIG
12-01-13 METAR EDDT 132150Z 30012KT CAVOK 02/M01 Q1015 TEMPO 29015G25KT
12-01-13 METAR EDDT 132220Z 30012KT 9999 FEW023 02/M01 Q1015
12-01-13 METAR EDDT 132250Z 30011KT CAVOK 02/M01 Q1015
12-01-13 METAR EDDT 132320Z 30010KT CAVOK 02/M01 Q1015
12-01-13 METAR EDDT 132350Z 30011KT CAVOK 02/M01 Q1016
12-01-14 METAR EDDT 132350Z 30011KT CAVOK 02/M01 Q1016
12-01-14 METAR EDDT 140020Z 30012KT CAVOK 02/M01 Q1016
12-01-14 METAR EDDT 140050Z 30011KT CAVOK 02/M01 Q1016
12-01-14 METAR EDDT 140120Z 30011KT CAVOK 02/M01 Q1016
12-01-14 METAR EDDT 140150Z 30010KT CAVOK 02/M01 Q1016
12-01-14 METAR EDDT 140220Z 30010KT CAVOK 02/M02 Q1016
12-01-14 METAR EDDT 140250Z 30010KT CAVOK 01/M02 Q1017
12-01-14 METAR EDDT 140320Z 30009KT CAVOK 01/M02 Q1017
12-01-14 METAR EDDT 140350Z 30010KT 9999 FEW023 01/M02 Q1017 NOSIG
12-01-14 METAR EDDT 140420Z 30009KT 9999 FEW040 01/M02 Q1017 NOSIG
12-01-14 METAR EDDT 140450Z 30009KT 9999 SCT042 01/M02 Q1017 NOSIG
12-01-14 METAR EDDT 140520Z 30009KT 9999 FEW040 01/M02 Q1017 NOSIG
12-01-14 METAR EDDT 140550Z 30008KT 9999 SCT040 01/M02 Q1018 NOSIG
12-01-14 METAR EDDT 140620Z 29009KT 9999 BKN035 01/M02 Q1018 NOSIG
12-01-14 METAR EDDT 140650Z 29008KT 9999 BKN033 01/M02 Q1018 NOSIG
12-01-14 METAR EDDT 140720Z 29008KT 9999 BKN033 01/M02 Q1018 NOSIG
12-01-14 METAR EDDT 140750Z 29008KT 9999 BKN033 01/M02 Q1018 NOSIG
12-01-14 METAR EDDT 140820Z 29008KT 9999 BKN033 01/M02 Q1019 NOSIG
12-01-14 METAR EDDT 140850Z 29009KT 9999 BKN031 02/M02 Q1019 NOSIG
12-01-14 METAR EDDT 140920Z 30007KT 9999 BKN031 02/M02 Q1019 NOSIG
12-01-14 METAR EDDT 140950Z 30009KT 9999 SCT031 03/M02 Q1019 NOSIG
12-01-14 METAR EDDT 141020Z 31009KT 9999 SCT030 03/M02 Q1019 NOSIG
12-01-14 METAR EDDT 141050Z 31010KT 9999 SCT030 04/M02 Q1019 NOSIG
12-01-14 METAR EDDT 141120Z 33012KT 9999 SCT030 04/M04 Q1019 NOSIG
12-01-14 METAR EDDT 141150Z 33011KT 9999 SCT030 04/M05 Q1019 TEMPO 31015G25KT
12-01-14 METAR EDDT 141220Z 33012KT 9999 SCT035 04/M05 Q1019 TEMPO 31015G25KT
12-01-14 METAR EDDT 141250Z 34009KT 9999 SCT035 04/M04 Q1019 TEMPO 31015G25KT
12-01-14 METAR EDDT 141350Z 31010KT 9999 SCT035 04/M05 Q1020 NOSIG
12-01-14 METAR EDDT 141420Z 32007KT 9999 FEW035 04/M05 Q1020 NOSIG
12-01-14 METAR EDDT 141450Z 31007KT 9999 FEW035 03/M05 Q1020 NOSIG
12-01-14 METAR EDDT 141520Z 32007KT 9999 FEW035 03/M04 Q1020 NOSIG
12-01-14 METAR EDDT 141550Z 31008KT 9999 FEW040 SCT300 03/M04 Q1020 NOSIG
12-01-14 METAR EDDT 141620Z 32007KT 9999 FEW030 SCT300 02/M04 Q1020 NOSIG
12-01-14 METAR EDDT 141650Z 30006KT 9999 SCT030 SCT300 02/M03 Q1020 NOSIG
12-01-14 METAR EDDT 141720Z 31008KT 9999 SCT030 SCT300 02/M03 Q1021 NOSIG
12-01-14 METAR EDDT 141750Z 30007KT 9999 FEW030 SCT300 02/M03 Q1021 NOSIG
12-01-14 METAR EDDT 141820Z 29007KT 9999 FEW030 01/M03 Q1021 NOSIG
12-01-14 METAR EDDT 141850Z 31006KT 9999 SCT030 01/M02 Q1021 NOSIG
12-01-14 METAR EDDT 141920Z 31007KT 9999 SCT028 BKN040 02/M02 Q1021 NOSIG
12-01-14 METAR EDDT 141950Z 32008KT 9999 FEW028 BKN036 02/M02 Q1021 NOSIG
12-01-14 METAR EDDT 142020Z 32008KT 9999 BKN038 02/M02 Q1021 NOSIG
12-01-14 METAR EDDT 142050Z 32007KT 9999 SCT038 01/M02 Q1021 NOSIG
12-01-14 METAR EDDT 142120Z 32006KT 9999 SCT038 01/M02 Q1022 NOSIG
12-01-14 METAR EDDT 142150Z 33005KT 9999 FEW020 01/M02 Q1022 NOSIG
12-01-14 METAR EDDT 142220Z 32005KT CAVOK 00/M02 Q1022
12-01-14 METAR EDDT 142250Z 31005KT CAVOK M00/M02 Q1022
12-01-14 METAR EDDT 142320Z 30004KT CAVOK M01/M02 Q1022
12-01-14 METAR EDDT 142350Z 31004KT CAVOK M01/M03 Q1022
12-01-15 METAR EDDT 142350Z 31004KT CAVOK M01/M03 Q1022
12-01-15 METAR EDDT 150020Z 30004KT CAVOK M01/M03 Q1022
12-01-15 METAR EDDT 150050Z 30005KT CAVOK M01/M03 Q1022
12-01-15 METAR EDDT 150120Z 29005KT 9999 FEW032 M02/M03 Q1022
12-01-15 METAR EDDT 150150Z 29005KT CAVOK M02/M03 Q1022
12-01-15 METAR EDDT 150220Z 31005KT CAVOK M02/M03 Q1022
12-01-15 METAR EDDT 150250Z 32005KT CAVOK M01/M03 Q1022
12-01-15 METAR EDDT 150320Z 29005KT CAVOK M01/M03 Q1022
12-01-15 METAR EDDT 150350Z 31004KT CAVOK M02/M03 Q1022 NOSIG
12-01-15 METAR EDDT 150420Z 29005KT CAVOK M02/M03 Q1022 NOSIG
12-01-15 METAR EDDT 150450Z 29004KT CAVOK M02/M03 Q1023 NOSIG
12-01-15 METAR EDDT 150520Z 28004KT CAVOK M04/M06 Q1023 NOSIG
12-01-15 METAR EDDT 150550Z 28003KT CAVOK M04/M05 Q1023 NOSIG
12-01-15 METAR EDDT 150620Z 30004KT CAVOK M03/M04 Q1023 NOSIG
12-01-15 METAR EDDT 150650Z 30004KT CAVOK M03/M04 Q1023 NOSIG
12-01-15 METAR EDDT 150720Z 30004KT CAVOK M03/M04 Q1024 NOSIG
12-01-15 METAR EDDT 150750Z 31004KT CAVOK M02/M03 Q1024 NOSIG
12-01-15 METAR EDDT 150820Z 32003KT CAVOK M02/M03 Q1024 NOSIG
12-01-15 METAR EDDT 150850Z 32005KT 9999 FEW011 M01/M03 Q1024 NOSIG
12-01-15 METAR EDDT 150920Z 33005KT 9999 FEW011 M00/M03 Q1024 NOSIG
12-01-15 METAR EDDT 150950Z 35005KT 9999 FEW011 00/M03 Q1024 NOSIG
12-01-15 METAR EDDT 151020Z 34005KT 9999 FEW015 00/M03 Q1024 NOSIG
12-01-15 METAR EDDT 151050Z 34005KT 9999 FEW020 01/M03 Q1024 NOSIG
12-01-15 METAR EDDT 151120Z 35006KT 9999 SCT022 01/M04 Q1024 NOSIG
12-01-15 METAR EDDT 151150Z 36006KT 9999 SCT023 01/M05 Q1024 NOSIG
12-01-15 METAR EDDT 151220Z 01006KT 9999 SCT026 01/M05 Q1024 NOSIG
12-01-15 METAR EDDT 151250Z 35004KT 9999 FEW028 SCT250 02/M05 Q1024 NOSIG
12-01-15 METAR EDDT 151320Z 35006KT 9999 FEW030 SCT250 02/M05 Q1024 NOSIG
12-01-15 METAR EDDT 151350Z 36007KT 9999 FEW030 SCT110 02/M06 Q1024 NOSIG
12-01-15 METAR EDDT 151420Z 34006KT 9999 FEW030 BKN110 01/M05 Q1024 NOSIG
12-01-15 METAR EDDT 151450Z 36005KT 9999 FEW030 SCT110 01/M06 Q1025 NOSIG
12-01-15 METAR EDDT 151520Z 01004KT 9999 FEW030 SCT110 01/M06 Q1025 NOSIG
12-01-15 METAR EDDT 151550Z 01003KT 9999 FEW030 SCT110 01/M06 Q1025 NOSIG
12-01-15 METAR EDDT 151620Z 36003KT 9999 FEW031 SCT100 00/M06 Q1025 NOSIG
12-01-15 METAR EDDT 151650Z 33002KT 9999 FEW030 SCT090 M00/M06 Q1025 NOSIG
12-01-15 METAR EDDT 151720Z 33002KT 9999 BKN027 M01/M06 Q1025 NOSIG
12-01-15 METAR EDDT 151750Z 30001KT 9999 SCT025 SCT090 M01/M06 Q1025 NOSIG
12-01-15 METAR EDDT 151820Z 28001KT 9999 FEW025 SCT090 M01/M05 Q1025 NOSIG
12-01-15 METAR EDDT 151850Z VRB01KT 9999 FEW025 SCT080 M02/M05 Q1026 NOSIG
12-01-15 METAR EDDT 151920Z 28002KT 9999 FEW025 BKN080 M02/M05 Q1026 NOSIG
12-01-15 METAR EDDT 151950Z VRB01KT 9999 FEW025 BKN080 M02/M05 Q1026 NOSIG
12-01-15 METAR EDDT 152020Z VRB02KT CAVOK M02/M05 Q1026 NOSIG
12-01-15 METAR EDDT 152050Z 30002KT CAVOK M02/M04 Q1026 NOSIG
12-01-15 METAR EDDT 152120Z 29001KT CAVOK M03/M05 Q1026 NOSIG
12-01-15 METAR EDDT 152150Z 25002KT CAVOK M02/M05 Q1026 NOSIG
12-01-15 METAR EDDT 152220Z 26003KT CAVOK M02/M05 Q1026 NOSIG
12-01-15 METAR EDDT 152250Z 26002KT CAVOK M02/M05 Q1026 NOSIG
12-01-15 METAR EDDT 152320Z 27002KT CAVOK M02/M04 Q1026
12-01-15 METAR EDDT 152350Z 27002KT 9999 BKN042 M02/M04 Q1026
12-01-16 METAR EDDT 152350Z 27002KT 9999 BKN042 M02/M04 Q1026
12-01-16 METAR EDDT 160020Z 27002KT 9999 BKN036 M02/M04 Q1026
12-01-16 METAR EDDT 160050Z 26003KT 9999 BKN044 M02/M04 Q1026
12-01-16 METAR EDDT 160120Z 27002KT 9999 BKN040 M02/M04 Q1026
12-01-16 METAR EDDT 160150Z 27003KT 9999 BKN040 M01/M03 Q1026
12-01-16 METAR EDDT 160220Z 27003KT 9999 BKN046 M01/M03 Q1026
12-01-16 METAR EDDT 160250Z 25003KT 9999 -SN NSC M01/M03 Q1026
12-01-16 METAR EDDT 160320Z 26004KT CAVOK M01/M03 Q1026
12-01-16 METAR EDDT 160350Z 28003KT CAVOK M01/M03 Q1026 NOSIG
12-01-16 METAR EDDT 160450Z 27004KT CAVOK M01/M03 Q1026 TEMPO -FZDZ
12-01-16 METAR EDDT 160520Z 27004KT 9999 -SN FEW025 SCT035 BKN044 M01/M03 Q1026 TEMPO -FZDZ
12-01-16 METAR EDDT 160550Z 23004KT 9999 FEW011 BKN036 M01/M02 Q1025 TEMPO -FZDZ BKN012
12-01-16 METAR EDDT 160620Z 25005KT 9999 BKN030 M00/M03 Q1025 TEMPO -FZDZ BKN012
12-01-16 METAR EDDT 160650Z 25004KT 9999 FEW015 BKN025 M00/M02 Q1025 TEMPO 4500 -FZDZ BKN012
12-01-16 METAR EDDT 160720Z 25007KT 7000 -SN SCT015 BKN022 M00/M02 Q1025 TEMPO 4500
12-01-16 METAR EDDT 160750Z 26007KT 5000 -SN BR FEW008 BKN012 M00/M02 Q1025 R88//420195 BECMG 3000 -SN BKN008 R88/420195 BECMG 3000 -SN BKN008
12-01-16 METAR EDDT 160820Z 27007KT 2500 -SN BR FEW006 BKN008 M00/M01 Q1025 R88//420195 NOSIG R88/420195 NOSIG
12-01-16 METAR EDDT 160920Z 27006KT 4000 -SN BR SCT004 BKN006 00/M01 Q1025 RESN R88/502995 TEMPO 2800 -SN BKN004
12-01-16 METAR EDDT 160950Z 28007KT 3000 -SN BR SCT004 BKN006 00/M01 Q1025 RESN
12-01-16 METAR EDDT 161020Z NIL
12-01-16 METAR EDDT 161020Z 28006KT 3000 -SN BR BKN003 00/M00 Q1025 R88/502995
12-01-16 METAR EDDT 161120Z 29006KT 3500 -SG BR BKN003 OVC005 01/00 Q1025 R88/502995 TEMPO 2800 -DZ
12-01-16 METAR EDDT 161150Z 29006KT 3000 -RADZ BR BKN003 OVC005 01/00 Q1025 R88/290195 TEMPO 2800 -DZ
12-01-16 METAR EDDT 161420Z 29007KT 5000 BR BKN003 02/01 Q1024 R88/290195 TEMPO 4000
12-01-16 METAR EDDT 161520Z 29007KT 5000 BR BKN003 BKN005 02/02 Q1025 R88/290195
12-01-16 METAR EDDT 161550Z 29006KT 4800 BR BKN004 02/02 Q1024 R88/290195 TEMPO 4000
12-01-16 METAR EDDT 161620Z 29006KT 4800 BR BKN004 02/02 Q1024 R88/290195 TEMPO 4000
12-01-16 METAR EDDT 161650Z 29007KT 5000 BR BKN004 BKN006 02/02 Q1024 R88/290195
12-01-16 METAR EDDT 161950Z 29006KT 5000 -RA FEW003 BKN005 03/01 Q1025 R88/290195
12-01-16 METAR EDDT 162020Z 29006KT 4500 -RA FEW003 BKN005 02/02 Q1025 R88/290195
12-01-16 METAR EDDT 162220Z 29007KT 5000 -RA FEW003 BKN005 02/01 Q1025 R88/290195
12-01-16 METAR EDDT 162250Z 29007KT 5000 -RA FEW003 BKN005 02/01 Q1025 R88/290195
12-01-16 METAR EDDT 162320Z 29008KT 6000 BKN005 03/01 Q1024 R88/290195
12-01-16 METAR EDDT 162350Z 30009KT 5000 -RA BKN005 03/01 Q1024 R88/290195
12-01-17 METAR EDDT 162350Z 30009KT 5000 -RA BKN005 03/01 Q1024 R88/290195
12-01-17 METAR EDDT 170020Z 30008KT 7000 -RA BKN005 03/01 Q1024 R88/290195
12-01-17 METAR EDDT 170050Z 30007KT 7000 -RA BKN006 03/01 Q1024 R88/290195
12-01-17 METAR EDDT 170120Z 30008KT 7000 -RA BKN006 03/01 Q1024 R88/290195
12-01-17 METAR EDDT 170450Z 29008KT 8000 BKN006 03/01 Q1024 R88/290195 NOSIG
12-01-17 METAR EDDT 170520Z 30007KT 8000 BKN006 03/01 Q1024 R88/290195 NOSIG
12-01-17 METAR EDDT 170720Z 29007KT 7000 -RADZ FEW003 BKN005 03/02 Q1025 R88/290195
12-01-17 METAR EDDT 170750Z 29008KT 7000 RA BKN005 03/02 Q1025 R88/290195 TEMPO 4500 BR
12-01-17 METAR EDDT 170820Z 29007KT 7000 -RADZ FEW003 BKN005 03/02 Q1025 RERA R88/290195 NOSIG
12-01-17 METAR EDDT 170850Z 29008KT 9000 FEW005 BKN007 03/02 Q1025 R88/290195 NOSIG
12-01-17 METAR EDDT 170920Z 29007KT 9000 FEW005 BKN008 03/02 Q1026 R88/290195 NOSIG
12-01-17 METAR EDDT 171020Z 29007KT 9000 BKN006 BKN009 03/02 Q1025 R88/CLRD// NOSIG
12-01-17 METAR EDDT 171020Z 29007KT 9000 BKN006 BKN009 03/02 Q1025 R88/D NOSIG
12-01-17 METAR EDDT 171050Z 29009KT 9000 BKN006 BKN009 03/02 Q1025 R88/CLRD// NOSIG
12-01-17 METAR EDDT 171050Z 29009KT 9000 BKN006 BKN009 03/02 Q1025 R88/D NOSIG
12-01-17 METAR EDDT 171120Z 29008KT 9000 BKN009 03/01 Q1025 R88/CLRD// NOSIG
12-01-17 METAR EDDT 171120Z 29008KT 9000 BKN009 03/01 Q1025 R88/D NOSIG
12-01-17 METAR EDDT 171250Z 29007KT 9000 -DZRA BKN008 BKN010 03/02 Q1025 TEMPO BKN010
12-01-17 METAR EDDT 171320Z 29008KT 8000 -RADZ FEW003 BKN008 03/02 Q1025 TEMPO
12-01-17 METAR EDDT 171350Z 29008KT 9000 -RADZ BKN007 BKN011 03/02 Q1025 TEMPO
12-01-17 METAR EDDT 171420Z 29007KT 9000 -RADZ BKN007 BKN012 03/02 Q1025 TEMPO
12-01-17 METAR EDDT 171450Z 29006KT 9000 -RADZ FEW003 BKN007 03/02 Q1026 TEMPO
12-01-17 METAR EDDT 171520Z 29007KT 9999 -RADZ FEW003 BKN007 03/02 Q1026 TEMPO
12-01-17 METAR EDDT 171550Z 29007KT 9999 -RADZ FEW003 BKN007 BKN012 03/02 Q1026 TEMPO BKN010
12-01-17 METAR EDDT 171620Z 30007KT 9999 -RADZ FEW003 BKN008 03/02 Q1026 TEMPO
12-01-17 METAR EDDT 171650Z 29006KT 9999 -RA FEW003 BKN007 03/02 Q1026 TEMPO BKN010
12-01-17 METAR EDDT 171720Z 29007KT 9999 -RADZ FEW003 BKN006 03/02 Q1026 NOSIG
12-01-17 METAR EDDT 171750Z 29007KT 9999 -RA BKN007 BKN029 03/02 Q1027 NOSIG
12-01-17 METAR EDDT 171820Z 30006KT 9999 -RA BKN007 BKN029 03/02 Q1027 NOSIG
12-01-17 METAR EDDT 171850Z 30007KT 9999 -RA OVC007 03/02 Q1027 NOSIG
12-01-17 METAR EDDT 171920Z 29006KT 9999 -RA BKN007 BKN012 03/02 Q1027 BECMG BKN015
12-01-17 METAR EDDT 171950Z 29008KT 9999 -RA BKN009 BKN013 03/01 Q1027 BECMG BKN015
12-01-17 METAR EDDT 172020Z 29007KT 9999 -RA FEW009 BKN014 BKN030 03/01 Q1027 BECMG BKN015
12-01-17 METAR EDDT 172050Z 28006KT 9999 -RA FEW009 SCT014 BKN037 02/00 Q1027 NOSIG
12-01-17 METAR EDDT 172120Z 28006KT 9999 SCT014 BKN038 02/M00 Q1028 NOSIG
12-01-17 METAR EDDT 172150Z 28007KT 9999 SCT014 BKN040 02/M01 Q1028 NOSIG
12-01-17 METAR EDDT 172220Z 28006KT 9999 SCT014 BKN038 02/M01 Q1028
12-01-17 METAR EDDT 172250Z 27005KT 9999 SCT015 BKN035 02/M02 Q1028
12-01-17 METAR EDDT 172320Z 27007KT 9999 FEW015 BKN035 01/M03 Q1028
12-01-17 METAR EDDT 172350Z 27006KT 9999 SCT010 SCT035 01/M03 Q1028
12-01-18 METAR EDDT 172350Z 27006KT 9999 SCT010 SCT035 01/M03 Q1028
12-01-18 METAR EDDT 180020Z 27006KT 9999 BKN012 SCT035 00/M03 Q1028
12-01-18 METAR EDDT 180050Z 26006KT 9999 FEW012 M01/M04 Q1028
12-01-18 METAR EDDT 180120Z 25005KT 9999 FEW012 M02/M04 Q1028
12-01-18 METAR EDDT 180150Z 25004KT 9999 FEW014 M02/M04 Q1028
12-01-18 METAR EDDT 180220Z 25005KT CAVOK M02/M04 Q1028
12-01-18 METAR EDDT 180250Z 27005KT CAVOK M02/M04 Q1028
12-01-18 METAR EDDT 180320Z 25004KT CAVOK M02/M04 Q1027
12-01-18 METAR EDDT 180350Z 24005KT 9999 SCT008 M03/M04 Q1027 BECMG BKN004
12-01-18 METAR EDDT 180420Z 26007KT 9999 BKN005 M02/M04 Q1027 BECMG BKN004
12-01-18 METAR EDDT 180450Z 25005KT 9999 BKN005 M03/M04 Q1027 TEMPO BKN004
12-01-18 METAR EDDT 180520Z 27004KT 9999 FEW005 M02/M03 Q1027 TEMPO BKN005
12-01-18 METAR EDDT 180550Z 25005KT 9999 FEW005 M03/M04 Q1027 NOSIG
12-01-18 METAR EDDT 180620Z 27005KT CAVOK M02/M03 Q1027 NOSIG
12-01-18 METAR EDDT 180650Z 26003KT CAVOK M02/M04 Q1027 NOSIG
12-01-18 METAR EDDT 180720Z 25004KT 9999 FEW010 SCT250 M02/M05 Q1027 NOSIG
12-01-18 METAR EDDT 180750Z 24006KT 9999 FEW010 SCT250 M01/M04 Q1027 NOSIG
12-01-18 METAR EDDT 180820Z 23004KT CAVOK M00/M04 Q1026 NOSIG
12-01-18 METAR EDDT 180850Z 25008KT CAVOK 00/M04 Q1026 NOSIG
12-01-18 METAR EDDT 180920Z 26007KT CAVOK 01/M03 Q1026 NOSIG
12-01-18 METAR EDDT 180950Z 26007KT CAVOK 02/M03 Q1026 NOSIG
12-01-18 METAR EDDT 181020Z 26008KT CAVOK 03/M03 Q1026 NOSIG
12-01-18 METAR EDDT 181050Z 26006KT CAVOK 04/M03 Q1026 NOSIG
12-01-18 METAR EDDT 181120Z 26007KT CAVOK 04/M03 Q1025 NOSIG
12-01-18 METAR EDDT 181150Z 25009KT CAVOK 05/M03 Q1025 NOSIG
12-01-18 METAR EDDT 181220Z 25011KT CAVOK 05/M04 Q1025 NOSIG
12-01-18 METAR EDDT 181250Z 25011KT CAVOK 05/M04 Q1024 NOSIG
12-01-18 METAR EDDT 181320Z 24010KT CAVOK 05/M04 Q1024 NOSIG
12-01-18 METAR EDDT 181350Z 24008KT CAVOK 05/M04 Q1023 NOSIG
12-01-18 METAR EDDT 181420Z 22008KT CAVOK 05/M04 Q1023 NOSIG
12-01-18 METAR EDDT 181450Z 22009KT CAVOK 04/M04 Q1023 NOSIG
12-01-18 METAR EDDT 181520Z 21008KT CAVOK 04/M04 Q1023 NOSIG
12-01-18 METAR EDDT 181550Z 21008KT CAVOK 03/M03 Q1022 NOSIG
12-01-18 METAR EDDT 181620Z 21008KT CAVOK 03/M03 Q1022 NOSIG
12-01-18 METAR EDDT 181650Z 21007KT CAVOK 03/M03 Q1021 NOSIG
12-01-18 METAR EDDT 181720Z 20007KT CAVOK 03/M03 Q1021 NOSIG
12-01-18 METAR EDDT 181750Z 20007KT CAVOK 03/M03 Q1020 NOSIG
12-01-18 METAR EDDT 181820Z 21006KT CAVOK 03/M04 Q1020 NOSIG
12-01-18 METAR EDDT 181850Z 21007KT CAVOK 03/M04 Q1019 NOSIG
12-01-18 METAR EDDT 181920Z 22010KT CAVOK 03/M03 Q1019 BECMG 4500 RA BKN012
12-01-18 METAR EDDT 181950Z 23010KT 9999 BKN022 04/M03 Q1018 BECMG 4500 RA BKN012
12-01-18 METAR EDDT 182020Z 24011KT 9999 RA BKN020 03/M01 Q1018 TEMPO 4500 -RA BKN012
12-01-18 METAR EDDT 182050Z 25013KT 9000 RA OVC019 02/M00 Q1018 TEMPO 4500 -RA
12-01-18 METAR EDDT 182120Z 24011KT 9000 RA OVC016 02/00 Q1017 TEMPO 4500 -RA
12-01-18 METAR EDDT 182150Z 24013KT 6000 RASN BKN006 02/00 Q1017 TEMPO 4500 -RA
12-01-18 METAR EDDT 182220Z 25013KT 7000 RASN BKN007 02/01 Q1017
12-01-18 METAR EDDT 182250Z 25013KT 8000 -RA BKN007 03/01 Q1017 RESN
12-01-18 METAR EDDT 182320Z 25014KT 7000 BKN006 03/02 Q1016 RERA
12-01-18 METAR EDDT 182350Z 25014KT 6000 OVC006 03/02 Q1016
12-01-19 METAR EDDT 182350Z 25014KT 6000 OVC006 03/02 Q1016
12-01-19 METAR EDDT 190120Z 26012KT 2400 DZ OVC003 03/02 Q1016
12-01-19 METAR EDDT 190250Z 27010KT 4000 BR OVC003 04/03 Q1016
12-01-19 METAR EDDT 190320Z 27008KT 4500 BR OVC003 04/03 Q1016
12-01-19 METAR EDDT 190350Z 27008KT 4500 BR OVC002 04/03 Q1015 TEMPO 5000
12-01-19 METAR EDDT 190420Z 27009KT 4500 BR OVC003 04/03 Q1015 TEMPO 5000
12-01-19 METAR EDDT 190450Z 27009KT 4500 BR OVC003 04/03 Q1016 TEMPO 5000
12-01-19 METAR EDDT 190520Z 26011KT 4000 BR OVC003 04/04 Q1015 TEMPO 5000
12-01-19 METAR EDDT 190750Z 24013KT 3400 BR SCT002 BKN003 05/04 Q1014 BECMG 5000
12-01-19 METAR EDDT 190820Z 24012KT 6000 SCT003 BKN004 BKN006 05/04 Q1013 BECMG BKN005
12-01-19 METAR EDDT 190850Z 24011KT 8000 FEW006 BKN008 OVC015 05/04 Q1013 NOSIG
12-01-19 METAR EDDT 190920Z 26008KT 8000 BKN007 OVC015 05/04 Q1013 TEMPO 4000 RA
12-01-19 METAR EDDT 190950Z 24010KT 8000 -RA BKN007 BKN011 05/04 Q1012 TEMPO 4000 RA
12-01-19 METAR EDDT 191020Z 21008KT 7000 -RA SCT006 BKN008 05/04 Q1011 TEMPO 4000
12-01-19 METAR EDDT 191050Z 22010KT 7000 -RA BKN009 BKN011 05/04 Q1011 TEMPO 4000
12-01-19 METAR EDDT 191120Z 22009KT 7000 -RA BKN009 BKN012 05/04 Q1010 TEMPO 4000
12-01-19 METAR EDDT 191150Z 22009KT 6000 RA BKN007 OVC020 05/04 Q1009 TEMPO 4000
12-01-19 METAR EDDT 191220Z 22011KT 7000 RA FEW005 BKN008 BKN011 05/04 Q1009 TEMPO 4000
12-01-19 METAR EDDT 191250Z 23008KT 7000 RA FEW005 BKN007 BKN011 05/03 Q1008 TEMPO
12-01-19 METAR EDDT 191320Z 24008KT 8000 RA BKN008 BKN010 05/03 Q1007 NOSIG
12-01-19 METAR EDDT 191350Z 27011KT 8000 RA FEW006 BKN008 OVC015 04/03 Q1008 NOSIG
12-01-19 METAR EDDT 191420Z 27008KT 8000 RA BKN007 BKN010 04/03 Q1007 TEMPO BKN010
12-01-19 METAR EDDT 191450Z 26006KT 9000 RA BKN007 OVC017 04/03 Q1006 TEMPO BKN010
12-01-19 METAR EDDT 191520Z 25006KT 9999 -RA FEW006 BKN011 OVC015 04/03 Q1006 RERA TEMPO BKN015
12-01-19 METAR EDDT 191550Z 26008KT 9000 -RA BKN006 BKN011 04/03 Q1006 TEMPO BKN010
12-01-19 METAR EDDT 191620Z 26010KT 9999 -RA SCT006 BKN008 BKN011 04/03 Q1006 TEMPO BKN010
12-01-19 METAR EDDT 191650Z 26011KT 9999 -RA SCT006 BKN009 BKN011 04/03 Q1005 TEMPO
12-01-19 METAR EDDT 191720Z 26014KT 9999 -RA SCT007 BKN009 BKN011 04/03 Q1005 TEMPO
12-01-19 METAR EDDT 191750Z 26014KT 9999 FEW007 BKN009 BKN011 05/03 Q1005 TEMPO
12-01-19 METAR EDDT 191820Z 27014KT 9999 BKN012 BKN019 05/03 Q1005 TEMPO 26020G30KT SHRA
12-01-19 METAR EDDT 191850Z 26015KT 9999 -RA BKN013 BKN024 05/03 Q1005 TEMPO 26020G30KT SHRA
12-01-19 METAR EDDT 191920Z 27021G32KT 9999 SCT013 BKN032 05/02 Q1005 TEMPO 26015G25KT BKN012
12-01-19 METAR EDDT 191950Z 29015G25KT 9999 SCT016 BKN023 05/02 Q1006 TEMPO
12-01-19 METAR EDDT 192020Z 28016G27KT 9999 SCT022 04/01 Q1006 TEMPO 26020G30KT
12-01-19 METAR EDDT 192050Z 28016G27KT 9999 SCT019 04/01 Q1006 TEMPO 26020G30KT
12-01-19 METAR EDDT 192120Z 28015KT 9999 SCT019 03/01 Q1007 TEMPO 26020G30KT
12-01-19 METAR EDDT 192150Z 27013KT 9999 SCT020 03/01 Q1007 TEMPO 26020G30KT
12-01-19 METAR EDDT 192220Z 27014G26KT 9999 SCT020 03/01 Q1007
12-01-19 METAR EDDT 192250Z 28015KT 9999 SCT023 03/00 Q1007
12-01-19 METAR EDDT 192320Z 27013KT 9999 BKN019 03/01 Q1007
12-01-19 METAR EDDT 192350Z 27014KT 9999 FEW016 03/00 Q1007
12-01-20 METAR EDDT 192350Z 27014KT 9999 FEW016 03/00 Q1007
12-01-20 METAR EDDT 200020Z 26013KT 9999 SCT017 03/00 Q1007
12-01-20 METAR EDDT 200050Z 26012KT 9999 SCT018 03/00 Q1007
12-01-20 METAR EDDT 200120Z 26011KT 9999 FEW016 02/M00 Q1007
12-01-20 METAR EDDT 200150Z 25009KT 9999 FEW018 02/M00 Q1006
12-01-20 METAR EDDT 200220Z 24008KT 9999 FEW018 02/M00 Q1005
12-01-20 METAR EDDT 200250Z 25009KT CAVOK 02/M00 Q1005
12-01-20 METAR EDDT 200320Z 23005KT CAVOK 02/M00 Q1004
12-01-20 METAR EDDT 200350Z 21008KT 9999 BKN035 02/M00 Q1004 BECMG 2500 SHSNRA BKN008
12-01-20 METAR EDDT 200420Z 19007KT 9999 BKN031 02/M00 Q1003 BECMG 2500 SHSNRA
12-01-20 METAR EDDT 200450Z 23010KT 6000 -SHRA FEW006 SCT010 BKN013 02/00 Q1003 TEMPO 3000 SHSNRA BKN008
12-01-20 METAR EDDT 200520Z 23011KT 6000 -SHSNRA FEW003 BKN005 01/00 Q1003 R88/290195 TEMPO BKN004
12-01-20 METAR EDDT 200550Z 25013KT 7000 -RA FEW005 BKN008 01/00 Q1002 R88/290195 NOSIG
12-01-20 METAR EDDT 200620Z 25014KT 9999 -RA FEW005 BKN008 02/01 Q1002 R88/290195 BECMG BKN010
12-01-20 METAR EDDT 200650Z 26014KT 9999 BKN009 02/01 Q1002 R88/290195 BECMG BKN010
12-01-20 METAR EDDT 200720Z 26012KT 9999 BKN009 BKN045 02/01 Q1002 R88/290195 TEMPO BKN015
12-01-20 METAR EDDT 200750Z 27014KT 9999 -RA BKN013 BKN045 02/01 Q1002 R88/290195 TEMPO RA
12-01-20 METAR EDDT 200820Z 27014KT 9999 RA BKN012 02/00 Q1002 R88/290195 BECMG NSW
12-01-20 METAR EDDT 200850Z 28011KT 5000 RASN FEW005 BKN010 02/00 Q1003 R88/290195 BECMG NSW
12-01-20 METAR EDDT 200920Z 30009G19KT 5000 RASN FEW005 BKN009 02/01 Q1003 R88/290195 BECMG NSW BKN010
12-01-20 METAR EDDT 200950Z 30010KT 5000 -RA FEW005 BKN009 02/01 Q1004 RERA R88/290195 TEMPO BKN010
12-01-20 METAR EDDT 201020Z 31008KT 5000 RA FEW005 BKN009 02/01 Q1005 R88/290195
12-01-20 METAR EDDT 201050Z 31009KT 9999 BKN010 02/01 Q1006 RERA R88/290195 TEMPO BKN009
12-01-20 METAR EDDT 201120Z 30009KT 9999 BKN009 02/00 Q1006 R88/290195 TEMPO BKN010
12-01-20 METAR EDDT 201150Z 28007KT 9999 BKN010 02/00 Q1006 R88/290195 TEMPO SCT013
12-01-20 METAR EDDT 201220Z 28007KT 9999 BKN010 BKN013 02/01 Q1007 R88/290195 TEMPO SCT013
12-01-20 METAR EDDT 201250Z 29009KT 9999 SCT012 BKN015 03/00 Q1007 R88/290195 NOSIG
12-01-20 METAR EDDT 201320Z 29010KT 9999 -SHRA SCT012 BKN015 03/00 Q1007 R88/290195
12-01-20 METAR EDDT 201350Z 28011KT 9999 -SHRA SCT007 BKN012 02/01 Q1007 R88/290195 BECMG BKN015
12-01-20 METAR EDDT 201420Z 28007KT 9999 -RA BKN008 02/01 Q1007 BECMG BKN012
12-01-20 METAR EDDT 201450Z 28007KT 9000 BKN008 02/01 Q1008 NOSIG
12-01-20 METAR EDDT 201520Z 26008KT 9999 -RA BKN008 03/01 Q1008 NOSIG
12-01-20 METAR EDDT 201550Z 28008KT 9999 -RA BKN009 03/01 Q1008 TEMPO BKN012
12-01-20 METAR EDDT 201620Z 28009KT 9999 -RA BKN010 03/01 Q1008 NOSIG
12-01-20 METAR EDDT 201650Z 29008KT 9999 -RA SCT006 BKN009 02/01 Q1008 NOSIG
12-01-20 METAR EDDT 201720Z 28009KT 9999 -RA FEW004 BKN007 03/01 Q1008 NOSIG
12-01-20 METAR EDDT 201750Z 28008KT 9999 FEW004 BKN008 03/01 Q1009 NOSIG
12-01-20 METAR EDDT 201820Z 28008KT 9999 BKN009 BKN011 03/01 Q1009 NOSIG
12-01-20 METAR EDDT 201850Z 28008KT 9999 SCT009 BKN011 03/01 Q1009 NOSIG
12-01-20 METAR EDDT 201920Z 27007KT 9999 SCT011 BKN015 03/01 Q1009 NOSIG
12-01-20 METAR EDDT 201950Z 26009KT 9999 SCT012 BKN018 BKN040 03/01 Q1009 NOSIG
12-01-20 METAR EDDT 202020Z 27009KT 9999 FEW011 BKN015 BKN025 02/01 Q1009 NOSIG
12-01-20 METAR EDDT 202050Z 27010KT 9999 SCT012 BKN030 02/01 Q1009 NOSIG
12-01-20 METAR EDDT 202120Z 27011KT 9999 SCT012 BKN030 02/00 Q1010 NOSIG
12-01-20 METAR EDDT 202150Z 27008KT 9999 FEW012 SCT040 02/M00 Q1010 NOSIG
12-01-20 METAR EDDT 202220Z 26011KT 9999 FEW011 BKN040 02/M00 Q1010
12-01-20 METAR EDDT 202250Z 26011KT 9999 BKN011 BKN040 02/00 Q1010
12-01-20 METAR EDDT 202320Z 26010KT 9999 BKN011 BKN040 02/00 Q1010
12-01-20 METAR EDDT 202350Z 27009KT 9999 FEW009 BKN011 01/M00 Q1010
12-01-21 METAR EDDT 202350Z 27009KT 9999 FEW009 BKN011 01/M00 Q1010
12-01-21 METAR EDDT 210020Z 27008KT 9999 BKN009 BKN011 01/M00 Q1010
12-01-21 METAR EDDT 210050Z 27009KT 9999 BKN008 02/00 Q1011
12-01-21 METAR EDDT 210120Z 27012KT 9999 BKN007 01/M00 Q1011
12-01-21 METAR EDDT 210150Z 27011KT 9000 BKN007 02/00 Q1011
12-01-21 METAR EDDT 210220Z 26008KT 9999 BKN009 BKN012 02/00 Q1011
12-01-21 METAR EDDT 210250Z 27010KT 9999 SCT009 BKN011 02/00 Q1011
12-01-21 METAR EDDT 210320Z 25009KT 9999 FEW009 BKN011 02/00 Q1011
12-01-21 METAR EDDT 210350Z 25010KT 9999 BKN011 02/00 Q1011 NOSIG
12-01-21 METAR EDDT 210420Z 25012KT 9999 -RA BKN012 02/00 Q1010 NOSIG
12-01-21 METAR EDDT 210450Z 26010KT 9999 BKN011 02/00 Q1010 NOSIG
12-01-21 METAR EDDT 210520Z 25011KT 9999 BKN011 02/00 Q1010 NOSIG
12-01-21 METAR EDDT 210550Z 25009KT 9999 FEW009 BKN011 02/01 Q1010 TEMPO BKN009
12-01-21 METAR EDDT 210620Z 24009KT 9999 FEW009 BKN010 02/01 Q1009 TEMPO BKN009
12-01-21 METAR EDDT 210650Z 25009KT 9999 BKN009 03/01 Q1009 BECMG BKN013
12-01-21 METAR EDDT 210720Z 24011KT 9999 BKN009 03/01 Q1009 BECMG BKN013
12-01-21 METAR EDDT 210750Z 23010KT 9999 -RA BKN009 BKN012 03/01 Q1009 BECMG BKN013
12-01-21 METAR EDDT 210820Z 23011KT 9999 FEW009 BKN016 03/01 Q1008 NOSIG
12-01-21 METAR EDDT 210850Z 22010KT 9999 FEW011 BKN019 03/01 Q1007 NOSIG
12-01-21 METAR EDDT 210920Z 21010KT 9999 FEW011 SCT019 BKN130 03/00 Q1007 NOSIG
12-01-21 METAR EDDT 210950Z 21011KT 9999 FEW020 OVC130 03/00 Q1006 NOSIG
12-01-21 METAR EDDT 211020Z 21012KT 9999 FEW020 OVC130 03/M00 Q1005 BECMG 4000 SNRA
12-01-21 METAR EDDT 211050Z 21014KT 9999 -RASN FEW015 OVC130 03/M00 Q1005 BECMG 22015G25KT 4000 SNRA BKN008
12-01-21 METAR EDDT 211120Z 21014KT 7000 -RASN BKN011 OVC130 02/M00 Q1004 BECMG
12-01-21 METAR EDDT 211150Z 20013KT 5000 -SNRA FEW005 BKN008 02/00 Q1003 BECMG 22015G25KT 4000 SNRA
12-01-21 METAR EDDT 211220Z 19013G23KT 4500 SN BKN008 02/M00 Q1001 TEMPO 22015G25KT 9999 NSW BKN012
12-01-21 METAR EDDT 211250Z 19013KT 5000 -SNRA BKN008 BKN010 01/00 Q1000 RESN TEMPO 22015G25KT 4000 SN BKN012
12-01-21 METAR EDDT 211320Z 19014KT 5000 -SNRA BR BKN006 BKN009 01/00 Q0998 TEMPO 22015G25KT
12-01-21 METAR EDDT 211420Z 20014KT 6000 -DZSN BKN006 BKN008 02/00 Q0997 NOSIG
12-01-21 METAR EDDT 211450Z 20012KT 7000 -RADZ FEW003 BKN006 02/01 Q0996 TEMPO 22015G25KT BKN012
12-01-21 METAR EDDT 211520Z 22012KT 7000 -RADZ FEW003 BKN006 BKN009 02/01 Q0995 TEMPO 22015G25KT BKN012
12-01-21 METAR EDDT 211550Z 22013KT 8000 -RADZ FEW003 BKN006 BKN009 03/02 Q0995
12-01-21 METAR EDDT 211620Z 22011KT 9999 -RA FEW003 BKN006 BKN009 03/02 Q0994 TEMPO
12-01-21 METAR EDDT 211650Z 24013KT 9999 -RADZ FEW003 BKN006 BKN009 04/02 Q0994
12-01-21 METAR EDDT 211720Z 26011KT 9999 FEW009 SCT012 BKN080 04/03 Q0994 TEMPO 26015G25KT
12-01-21 METAR EDDT 211750Z 26011KT 9999 FEW008 BKN060 BKN080 04/03 Q0995 TEMPO
12-01-21 METAR EDDT 211820Z 26009KT 9999 FEW008 BKN060 BKN100 04/03 Q0994 TEMPO BKN014
12-01-21 METAR EDDT 211850Z 26010KT 9999 FEW008 BKN030 BKN060 04/02 Q0994 NOSIG
12-01-21 METAR EDDT 211950Z 26010KT 9999 -RA FEW008 BKN020 04/02 Q0994 TEMPO
12-01-21 METAR EDDT 212020Z 26011KT 9999 FEW008 BKN020 04/02 Q0994 TEMPO 27015G25KT
12-01-21 METAR EDDT 212050Z 26011KT 9999 -SHRA SCT015 BKN030 04/02 Q0994 TEMPO
12-01-21 METAR EDDT 212120Z 29009KT 9999 -SHRA FEW009 BKN013 04/02 Q0994 RERA TEMPO 27015G25KT SHRA
12-01-21 METAR EDDT 212150Z 29009KT 9999 FEW003 SCT010 BKN050 03/02 Q0994 RERA TEMPO 27015G25KT
12-01-21 METAR EDDT 212220Z 28012KT 9999 FEW003 SCT013 BKN050 04/02 Q0995
12-01-21 METAR EDDT 212250Z 28015G25KT 9999 -RA FEW004 BKN013 04/02 Q0995
12-01-21 METAR EDDT 212320Z 28009KT 9999 BKN009 03/02 Q0995
12-01-21 METAR EDDT 212350Z 27009KT 9999 BKN008 03/01 Q0995
12-01-22 METAR EDDT 212350Z 27009KT 9999 BKN008 03/01 Q0995
12-01-22 METAR EDDT 220020Z 26014KT 9999 -SHRA BKN008 03/02 Q0995
12-01-22 METAR EDDT 220050Z 26013KT 9999 BKN009 03/02 Q0995
12-01-22 METAR EDDT 220120Z 26014KT 9999 BKN010 04/02 Q0995
12-01-22 METAR EDDT 220150Z 26016KT 9999 SHRA FEW004 BKN008 04/02 Q0995
12-01-22 METAR EDDT 220220Z 26015KT 9999 -SHRA FEW004 BKN010 04/02 Q0995 RERA
12-01-22 METAR EDDT 220250Z 27017KT 9999 BKN013 04/02 Q0996
12-01-22 METAR EDDT 220320Z 26016KT 9999 BKN014 04/02 Q0996
12-01-22 METAR EDDT 220350Z 26015KT 9999 BKN015 04/02 Q0996 TEMPO 26015G30KT BKN014
12-01-22 METAR EDDT 220420Z 27017G30KT 9999 -SHRA BKN014 04/02 Q0996 RERA TEMPO SHRA BKN009
12-01-22 METAR EDDT 220450Z 27019G29KT 9999 -SHRA BKN014 04/02 Q0996 TEMPO 27020G30KT BKN015
12-01-22 METAR EDDT 220520Z 27016KT 9999 BKN014 04/02 Q0996 TEMPO 27020G30KT BKN015
12-01-22 METAR EDDT 220550Z 26017G27KT 9999 BKN013 04/02 Q0996 TEMPO SHRA BKN015
12-01-22 METAR EDDT 220620Z 27015KT 9999 -SHRA SCT011 BKN014 04/02 Q0996 RERA TEMPO 26020G30KT SHRA BKN015
12-01-22 METAR EDDT 220650Z 27018KT 9000 -SHRA BKN012 BKN014 04/03 Q0996 TEMPO
12-01-22 METAR EDDT 220720Z 27020KT 7000 SHRA FEW006 BKN013 05/03 Q0996 TEMPO 26020G30KT BKN015
12-01-22 METAR EDDT 220750Z 26020KT 9999 -SHRA FEW015 BKN019 05/03 Q0996 RERA TEMPO 26020G30KT SHRA BKN014
12-01-22 METAR EDDT 220820Z 27022G32KT 9999 BKN020 05/02 Q0996 TEMPO SHRA BKN014
12-01-22 METAR EDDT 220850Z 27021G35KT 9999 BKN022 05/02 Q0997 TEMPO SHRA
12-01-22 METAR EDDT 220950Z 27022G33KT 9999 -RA SCT020 BKN028 06/02 Q0997 TEMPO SHRA
12-01-22 METAR EDDT 221020Z 27023G36KT 9999 SCT021 BKN029 06/02 Q0997 TEMPO SHRA
12-01-22 METAR EDDT 221050Z 27022G32KT 9999 SCT023 BKN036 06/02 Q0997 TEMPO SHRA
12-01-22 METAR EDDT 221120Z 26022KT 9999 BKN025 BKN036 06/02 Q0997 TEMPO 27020G35KT
12-01-22 METAR EDDT 221150Z 27020G31KT 9999 BKN027 BKN036 06/02 Q0997 TEMPO SHRA
12-01-22 METAR EDDT 221220Z 26019G29KT 9999 BKN024 06/02 Q0997 NOSIG
12-01-22 METAR EDDT 221250Z 26020G31KT 9999 -RA BKN024 BKN033 06/01 Q0996 NOSIG
12-01-22 METAR EDDT 221320Z 27015KT 9000 -SHRA FEW008 BKN023 06/02 Q0997 RERA TEMPO 27020G35KT
12-01-22 METAR EDDT 221350Z 26018KT 9999 SCT020 BKN039 05/02 Q0997 TEMPO 27020G35KT
12-01-22 METAR EDDT 221420Z 26019KT 9999 SCT025 BKN044 06/02 Q0996 TEMPO 27020G35KT
12-01-22 METAR EDDT 221450Z 25016KT 9999 SCT020 BKN033 05/02 Q0997 TEMPO 27020G35KT
12-01-22 METAR EDDT 221520Z 26013KT 9999 SCT016 BKN020 05/03 Q0997 TEMPO 27020G35KT
12-01-22 METAR EDDT 221550Z 26015KT 9000 -RA SCT015 BKN020 05/03 Q0996 RERA TEMPO 27015G25KT BKN012
12-01-22 METAR EDDT 221620Z 26017KT 9999 -RA SCT014 BKN017 04/02 Q0996 TEMPO BKN012
12-01-22 METAR EDDT 221650Z 27013KT 9999 -RA SCT009 BKN012 04/03 Q0996 RERA TEMPO
12-01-22 METAR EDDT 221720Z 26014KT 9999 -RA SCT009 BKN014 04/02 Q0996 RERA TEMPO
12-01-22 METAR EDDT 221750Z 25013KT 9999 -RADZ BKN008 04/02 Q0996 NOSIG
12-01-22 METAR EDDT 221820Z 26012KT 9999 -RA BKN008 04/02 Q0996 NOSIG
12-01-22 METAR EDDT 221850Z 26010KT 9999 -RA BKN008 03/02 Q0997 NOSIG
12-01-22 METAR EDDT 221920Z 27009KT 9999 -RA BKN007 03/02 Q0997 NOSIG
12-01-22 METAR EDDT 221950Z 32007KT 270V350 6000 -SHRA BKN006 BKN010 03/01 Q0998 RERA NOSIG
12-01-22 METAR EDDT 222050Z 31005KT 9999 -RASN BKN021 BKN250 02/00 Q0999 NOSIG
12-01-22 METAR EDDT 222120Z 31004KT 9999 BKN030 02/00 Q1000 NOSIG
12-01-22 METAR EDDT 222150Z 29004KT 9999 BKN031 02/00 Q1001 NOSIG
12-01-22 METAR EDDT 222220Z 30006KT 9999 FEW013 BKN0301 02/00 Q1002
12-01-22 METAR EDDT 222250Z 30009KT 9999 FEW007 BKN018 02/00 Q1003
12-01-22 METAR EDDT 222320Z 31008KT 9999 FEW007 BKN011 BKN016 02/00 Q1003
12-01-22 METAR EDDT 222350Z 30008KT 9999 FEW007 BKN011 02/00 Q1004
12-01-23 METAR EDDT 222350Z 30008KT 9999 FEW007 BKN011 02/00 Q1004
12-01-23 METAR EDDT 230020Z 31008KT 9999 FEW008 BKN011 BKN033 02/00 Q1005
12-01-23 METAR EDDT 230050Z 31008KT 9999 SCT009 BKN014 02/00 Q1005
12-01-23 METAR EDDT 230120Z 30006KT 9999 FEW009 BKN030 02/00 Q1006
12-01-23 METAR EDDT 230150Z 28007KT 9999 FEW009 02/M00 Q1006
12-01-23 METAR EDDT 230220Z 29005KT 9999 FEW007 01/M00 Q1007
12-01-23 METAR EDDT 230250Z 30005KT 9999 FEW007 BKN033 01/M00 Q1007
12-01-23 METAR EDDT 230320Z 29005KT 9999 FEW012 01/M00 Q1008
12-01-23 METAR EDDT 230350Z 28005KT 9999 FEW012 01/M01 Q1008 TEMPO BKN014
12-01-23 METAR EDDT 230420Z 28003KT 9999 FEW009 SCT012 BKN020 00/M01 Q1008 TEMPO BKN014
12-01-23 METAR EDDT 230450Z 28005KT 9999 FEW013 BKN018 01/M00 Q1009 TEMPO BKN014
12-01-23 METAR EDDT 230520Z 26005KT 9999 SCT010 SCT014 BKN035 01/M00 Q1009 TEMPO
12-01-23 METAR EDDT 230550Z 29005KT 9999 SCT010 BKN016 01/M00 Q1009 TEMPO BKN014
12-01-23 METAR EDDT 230620Z 29005KT 9999 SCT011 BKN033 01/M00 Q1009 TEMPO BKN014
12-01-23 METAR EDDT 230650Z 28004KT 9999 SCT011 BKN031 01/M00 Q1009 TEMPO BKN014
12-01-23 METAR EDDT 230720Z 31004KT 9999 FEW012 BKN070 01/M00 Q1009 NOSIG
12-01-23 METAR EDDT 230750Z 29003KT 9999 FEW012 BKN040 BKN120 01/M00 Q1009 NOSIG
12-01-23 METAR EDDT 230820Z 27005KT 9999 FEW012 BKN040 BKN120 01/M00 Q1010 NOSIG
12-01-23 METAR EDDT 230850Z 27006KT 9999 R26R/1100VP2000U R26L/1200VP2000U FEW012 BKN040 01/M00 Q1010 NOSIG
12-01-23 METAR EDDT 230920Z 27007KT 9999 SCT010 BKN030 02/M00 Q1010 NOSIG
12-01-23 METAR EDDT 230950Z 28008KT 9999 SCT010 BKN048 02/M00 Q1010 NOSIG
12-01-23 METAR EDDT 231020Z 27008KT 9999 FEW010 BKN046 BKN120 03/M00 Q1010 NOSIG
12-01-23 METAR EDDT 231050Z 27007KT 9999 SCT015 BKN060 BKN120 03/M01 Q1010 NOSIG
12-01-23 METAR EDDT 231120Z 27007KT 9999 -SNRA SCT013 BKN060 BKN120 03/M01 Q1010
12-01-23 METAR EDDT 231150Z 27007KT 9999 SCT015 BKN040 03/M01 Q1010 NOSIG
12-01-23 METAR EDDT 231220Z 26007KT 9999 SCT023 BKN036 03/M01 Q1010 NOSIG
12-01-23 METAR EDDT 231250Z 25007KT 9999 -RASN SCT014 BKN036 03/M00 Q1010 TEMPO
12-01-23 METAR EDDT 231320Z 28005KT 9999 -RASN SCT014 BKN020 02/M00 Q1010 TEMPO
12-01-23 METAR EDDT 231350Z 27003KT 9999 -SNRA SCT014 BKN020 02/M01 Q1010 TEMPO
12-01-23 METAR EDDT 231420Z 31002KT 9999 -SNRA BKN013 BKN020 01/M00 Q1010 TEMPO 4000 RASN BKN009
12-01-23 METAR EDDT 231450Z 27002KT 7000 -SNRA BKN008 OVC030 01/M00 Q1010 TEMPO 4000 RASN BKN004
12-01-23 METAR EDDT 231520Z VRB01KT 5000 -SNRA SCT005 BKN009 01/M00 Q1010 TEMPO 4000
12-01-23 METAR EDDT 231550Z 32002KT 3200 -SN SCT005 BKN013 01/M00 Q1010 TEMPO 2000 SN BKN003
12-01-23 METAR EDDT 231620Z 32002KT 2500 SN BKN003 BKN009 01/M00 Q1010 TEMPO 3000 -SN BKN005
12-01-23 METAR EDDT 231650Z VRB01KT 5000 -SN BKN004 00/M00 Q1010 RESN TEMPO 4000 -SN
12-01-23 METAR EDDT 231720Z 30002KT 4600 -SN BKN004 BKN030 00/M00 Q1010 BECMG 8000 SCT010 BKN020
12-01-23 METAR EDDT 231750Z 29001KT 4800 -SN BR BKN003 00/M00 Q1010 BECMG 8000
12-01-23 METAR EDDT 231820Z 31002KT 5000 BCFG BR SCT001 BKN003 00/M00 Q1011 TEMPO 2000 BCFG SCT007
12-01-23 METAR EDDT 231850Z VRB02KT 2500 BCFG BR SCT001 BKN003 00/M01 Q1011 TEMPO 1200 BCFG SCT007
12-01-23 METAR EDDT 231920Z 26002KT 3200 BCFG BR SCT001 BKN003 00/M01 Q1011 TEMPO
12-01-23 METAR EDDT 231950Z VRB01KT 3500 BCFG BR FEW001 BKN003 00/M01 Q1011 TEMPO 1200 BCFG BKN001
12-01-23 METAR EDDT 232020Z VRB01KT 3500 BCFG BR FEW001 BKN003 00/M00 Q1011 TEMPO
12-01-23 METAR EDDT 232050Z 31002KT 4200 MIFG BR FEW001 BKN004 00/M00 Q1011 TEMPO
12-01-23 METAR EDDT 232120Z 31002KT 3800 BCFG BR SCT001 BKN004 01/M00 Q1011 TEMPO
12-01-23 METAR EDDT 232150Z 32002KT 3500 BR SCT002 BKN003 01/M00 Q1012 TEMPO 1200
12-01-23 METAR EDDT 232220Z 28002KT 2800 -SN RA SCT002 BKN003 00/M00 Q1012
12-01-23 METAR EDDT 232250Z 25003KT 1200 R26R/P2000N R26L/P2000N BR BKN002 00/M00 Q1012
12-01-23 METAR EDDT 232320Z 25001KT 1500 -SN BR SCT001 BKN003 00/M00 Q1012
12-01-23 METAR EDDT 232350Z 31001KT 2500 BR BKN002 00/M00 Q1012
12-01-24 METAR EDDT 232350Z 31001KT 2500 BR BKN002 00/M00 Q1012
12-01-24 METAR EDDT 240020Z 05003KT 3200 -SN BR SCT001 BKN003 00/M00 Q1012
12-01-24 METAR EDDT 240050Z 06004KT 3200 -SG BR SCT001 BKN003 00/M00 Q1012
12-01-24 METAR EDDT 240120Z 08003KT 4000 BR SCT002 BKN003 00/M00 Q1012
12-01-24 METAR EDDT 240150Z 04003KT 4500 BR SCT002 BKN003 00/M00 Q1012
12-01-24 METAR EDDT 240220Z 05003KT 4500 BR BKN003 BKN006 00/M00 Q1013
12-01-24 METAR EDDT 240250Z 04003KT 5000 BR SCT003 BKN008 00/M01 Q1013
12-01-24 METAR EDDT 240320Z 05003KT 5000 BR FEW002 BKN004 BKN008 00/M00 Q1013
12-01-24 METAR EDDT 240350Z 03004KT 5000 BR FEW002 BKN003 00/M01 Q1013 NOSIG
12-01-24 METAR EDDT 240420Z 02004KT 5000 BR BKN002 00/M01 Q1014 NOSIG
12-01-24 METAR EDDT 240450Z 02003KT 5000 BR SCT003 BKN006 00/M01 Q1014 TEMPO 4000 BR BKN002
12-01-24 METAR EDDT 240520Z 36001KT 5000 BR BKN003 BKN012 00/M01 Q1014 TEMPO 4000 BR
12-01-24 METAR EDDT 240550Z 02002KT 7000 SCT005 BKN013 00/M01 Q1014 TEMPO 4000 BR BKN003
12-01-24 METAR EDDT 240620Z 01002KT 8000 SCT003 BKN012 00/M01 Q1015 TEMPO 4000 BR
12-01-24 METAR EDDT 240650Z 02003KT 7000 BKN004 BKN012 00/M01 Q1015 BECMG BKN010
12-01-24 METAR EDDT 240720Z 01002KT 6000 BKN004 00/M01 Q1016 TEMPO SCT004 BKN012
12-01-24 METAR EDDT 240750Z VRB02KT 6000 BKN004 BKN014 00/M01 Q1016 TEMPO SCT004 BKN012
12-01-24 METAR EDDT 240820Z 02002KT 7000 SCT004 BKN014 00/M01 Q1016 TEMPO BKN015
12-01-24 METAR EDDT 240850Z 03002KT 7000 SCT004 BKN014 01/M01 Q1017 TEMPO SCT015
12-01-24 METAR EDDT 240920Z VRB02KT 8000 SCT006 BKN015 01/M01 Q1017 NOSIG
12-01-24 METAR EDDT 240950Z 33003KT 9999 FEW008 BKN020 01/M01 Q1018 NOSIG
12-01-24 METAR EDDT 241020Z 33003KT 9999 FEW008 BKN020 01/M01 Q1018 NOSIG
12-01-24 METAR EDDT 241050Z 33003KT 9999 FEW010 BKN026 02/M00 Q1018 NOSIG
12-01-24 METAR EDDT 241120Z 34002KT 9999 SCT012 BKN026 02/M01 Q1018 NOSIG
12-01-24 METAR EDDT 241150Z 01003KT 9999 BKN012 BKN026 02/M01 Q1018 TEMPO SCT012
12-01-24 METAR EDDT 241220Z 01003KT 9999 BKN012 02/M01 Q1018 TEMPO SCT012
12-01-24 METAR EDDT 241250Z 31004KT 9999 BKN013 02/M01 Q1018 TEMPO SCT012
12-01-24 METAR EDDT 241320Z 32005KT 9999 BKN013 02/M01 Q1019 TEMPO SCT012
12-01-24 METAR EDDT 241350Z 29004KT 9999 SCT013 02/M01 Q1019 TEMPO BKN012
12-01-24 METAR EDDT 241420Z 29004KT 9999 SCT015 01/M01 Q1019 NOSIG
12-01-24 METAR EDDT 241450Z 31003KT 9999 SCT015 01/M01 Q1019 NOSIG
12-01-24 METAR EDDT 241520Z 31003KT 9999 SCT015 01/M01 Q1019 NOSIG
12-01-24 METAR EDDT 241550Z 29003KT 9999 BKN012 01/M01 Q1020 TEMPO BKN015
12-01-24 METAR EDDT 241620Z 27003KT 9999 BKN012 M00/M02 Q1020 TEMPO BKN015
12-01-24 METAR EDDT 241650Z 01004KT 9999 BKN012 01/M01 Q1020 TEMPO BKN015
12-01-24 METAR EDDT 241720Z 03004KT 9999 BKN012 01/M02 Q1020 TEMPO BKN015
12-01-24 METAR EDDT 241750Z 01003KT 9999 BKN013 00/M02 Q1021 TEMPO BKN015
12-01-24 METAR EDDT 241820Z 01003KT 9999 BKN016 00/M01 Q1021 TEMPO BKN012
12-01-24 METAR EDDT 241850Z 36004KT 9999 BKN018 M00/M02 Q1021 TEMPO BKN014
12-01-24 METAR EDDT 241920Z 02003KT 9999 FEW005 BKN020 M00/M02 Q1022 TEMPO BKN014
12-01-24 METAR EDDT 241950Z 36003KT 9999 FEW005 BKN022 M00/M02 Q1022 TEMPO BKN014
12-01-24 METAR EDDT 242020Z 03003KT 9999 FEW005 BKN022 M00/M02 Q1022 TEMPO BKN014
12-01-24 METAR EDDT 242050Z 01002KT 9999 FEW005 BKN024 M01/M02 Q1022 NOSIG
12-01-24 METAR EDDT 242120Z 36003KT 9999 FEW005 BKN024 M01/M02 Q1022 NOSIG
12-01-24 METAR EDDT 242150Z 31002KT 9999 BKN024 M01/M03 Q1022 NOSIG
12-01-24 METAR EDDT 242220Z 32002KT 9999 FEW003 SCT025 M02/M03 Q1023 NOSIG
12-01-24 METAR EDDT 242250Z 33002KT 5000 2000W R08L/P2000N R08R/1200VP2000D BCFG BR BKN002 M02/M03 Q1023
12-01-24 METAR EDDT 242320Z 33002KT 2800 1200W R08L/P2000N R08R/0700V1200D BCFG BR SCT001 M02/M03 Q1023
12-01-24 METAR EDDT 242350Z 36002KT 0700 R08L/1000VP2000D R08R/0900V1700N BCFG BKN001 M03/M03 Q1023
12-01-25 METAR EDDT 242350Z 36002KT 0700 R08L/1000VP2000D R08R/0900V1700N BCFG BKN001 M03/M03 Q1023
12-01-25 METAR EDDT 250020Z 33003KT 0600 R08L/0900N R08R/0900V1300D FZFG BKN001 M03/M03 Q1023
12-01-25 METAR EDDT 250050Z 35004KT 0700 R08L/P2000N R08R/1300VP2000U FZFG OVC001 M03/M04 Q1023
12-01-25 METAR EDDT 250120Z VRB03KT 0900 R08L/1800N R08R/0900V1800U FZFG OVC001
12-01-25 METAR EDDT 250150Z 30003KT 1500 BR OVC001 M03/M03 Q1024
12-01-25 METAR EDDT 250220Z 31002KT 2000 BR OVC001 M03/M03 Q1024
12-01-25 METAR EDDT 250250Z 33003KT 3500 BR OVC002 M03/M03 Q1024
12-01-25 METAR EDDT 250320Z 33002KT 3500 BR OVC002 M03/M03 Q1024
12-01-25 METAR EDDT 250350Z 28003KT 5000 BKN002 M03/M03 Q1024 BECMG 2500 BR
12-01-25 METAR EDDT 250420Z 22001KT 5000 BKN002 BKN021 M03/M04 Q1024 TEMPO 2500 BR SCT002
12-01-25 METAR EDDT 250450Z 33002KT 4500 BR SCT003 BKN020 M03/M04 Q1024 TEMPO 2500 BR BKN002
12-01-25 METAR EDDT 250520Z 36003KT 6000 SCT003 BKN020 M03/M04 Q1024 TEMPO 2500 BR BKN002
12-01-25 METAR EDDT 250550Z VRB02KT 8000 FEW003 BKN020 M03/M04 Q1024 TEMPO 2500 BR
12-01-25 METAR EDDT 250620Z 31002KT 8000 BKN019 M03/M04 Q1024 TEMPO 2500 BR BKN002
12-01-25 METAR EDDT 250650Z 35001KT 9000 BKN019 M03/M04 Q1025 TEMPO 2500 BR BKN002
12-01-25 METAR EDDT 250720Z 25003KT 8000 BKN018 M03/M04 Q1025 TEMPO 2500 BR BKN002
12-01-25 METAR EDDT 250750Z 27003KT 9999 BKN017 M03/M03 Q1025 NOSIG
12-01-25 METAR EDDT 250820Z 28002KT 9999 BKN017 M02/M03 Q1025 NOSIG
12-01-25 METAR EDDT 250850Z 32002KT 9999 BKN018 M02/M03 Q1025 NOSIG
12-01-25 METAR EDDT 250920Z 34001KT 9999 BKN018 M01/M03 Q1025 NOSIG
12-01-25 METAR EDDT 250950Z 31001KT 9999 FEW014 BKN018 M01/M04 Q1025 NOSIG
12-01-25 METAR EDDT 251020Z 04001KT 9999 FEW012 BKN016 M01/M04 Q1025 NOSIG
12-01-25 METAR EDDT 251050Z 36003KT 9999 FEW012 BKN016 M00/M04 Q1025 NOSIG
12-01-25 METAR EDDT 251120Z VRB02KT 9999 FEW012 BKN018 M00/M05 Q1025 NOSIG
12-01-25 METAR EDDT 251150Z VRB03KT 9999 BKN020 M00/M05 Q1025 NOSIG
12-01-25 METAR EDDT 251220Z 03003KT 9999 BKN020 M00/M05 Q1025 NOSIG
12-01-25 METAR EDDT 251250Z VRB02KT 9999 FEW022 01/M05 Q1025 NOSIG
12-01-25 METAR EDDT 251320Z VRB02KT 9999 FEW022 01/M05 Q1025 NOSIG
12-01-25 METAR EDDT 251350Z 34003KT 9999 FEW025 00/M05 Q1025 NOSIG
12-01-25 METAR EDDT 251420Z 36002KT 9999 FEW025 00/M05 Q1025 NOSIG
12-01-25 METAR EDDT 251450Z 01003KT 9999 FEW025 00/M05 Q1025 NOSIG
12-01-25 METAR EDDT 251520Z 04003KT 9999 FEW025 M00/M06 Q1025 NOSIG
12-01-25 METAR EDDT 251550Z 03003KT 9999 FEW025 M00/M06 Q1026 NOSIG
12-01-25 METAR EDDT 251620Z 04002KT 9999 FEW025 M01/M06 Q1026 NOSIG
12-01-25 METAR EDDT 251650Z 03002KT 9999 FEW025 M01/M05 Q1026 NOSIG
12-01-25 METAR EDDT 251720Z 34001KT CAVOK M01/M05 Q1026 NOSIG
12-01-25 METAR EDDT 251750Z VRB01KT CAVOK M01/M05 Q1026 NOSIG
12-01-25 METAR EDDT 251820Z 31001KT CAVOK M02/M05 Q1026 NOSIG
12-01-25 METAR EDDT 251850Z 30001KT CAVOK M03/M06 Q1026 NOSIG
12-01-25 METAR EDDT 251920Z 34001KT CAVOK M03/M05 Q1026 NOSIG
12-01-25 METAR EDDT 251950Z 31001KT CAVOK M04/M06 Q1026 NOSIG
12-01-25 METAR EDDT 252020Z 33001KT CAVOK M03/M05 Q1026 NOSIG
12-01-25 METAR EDDT 252050Z 31002KT CAVOK M03/M05 Q1026 NOSIG
12-01-25 METAR EDDT 252120Z 36002KT CAVOK M03/M05 Q1026 NOSIG
12-01-25 METAR EDDT 252150Z 33001KT CAVOK M04/M05 Q1026 NOSIG
12-01-25 METAR EDDT 252220Z 01002KT CAVOK M04/M05 Q1026
12-01-25 METAR EDDT 252250Z 33001KT CAVOK M05/M06 Q1026
12-01-25 METAR EDDT 252320Z 02001KT 9999 MIFG NSC M05/M06 Q1026
12-01-25 METAR EDDT 252350Z 31001KT CAVOK M05/M06 Q1026
12-01-26 METAR EDDT 252350Z 31001KT CAVOK M05/M06 Q1026
12-01-26 METAR EDDT 260020Z VRB01KT CAVOK M05/M07 Q1026
12-01-26 METAR EDDT 260050Z 02001KT 9999 MIFG NSC M06/M07 Q1026
12-01-26 METAR EDDT 260120Z 04002KT 9999 R08L/0900VP2000U R08R/P2000N MIFG NSC M06/M07 Q1026
12-01-26 METAR EDDT 260150Z 05002KT 9999 MIFG NSC M05/M06 Q1026
12-01-26 METAR EDDT 260220Z 03002KT CAVOK M04/M06 Q1026
12-01-26 METAR EDDT 260250Z 06003KT CAVOK M04/M06 Q1026
12-01-26 METAR EDDT 260320Z 05004KT CAVOK M04/M06 Q1026
12-01-26 METAR EDDT 260350Z 05003KT CAVOK M04/M06 Q1026 NOSIG
12-01-26 METAR EDDT 260420Z VRB01KT CAVOK M04/M06 Q1026 NOSIG
12-01-26 METAR EDDT 260450Z VRB01KT CAVOK M05/M07 Q1026 NOSIG
12-01-26 METAR EDDT 260520Z 36002KT CAVOK M06/M07 Q1026 NOSIG
12-01-26 METAR EDDT 260550Z 34001KT 9999 MIFG NSC M05/M06 Q1026 TEMPO 2500 MIFG
12-01-26 METAR EDDT 260620Z 05003KT 9999 MIFG NSC M05/M06 Q1026 TEMPO 2500 MIFG
12-01-26 METAR EDDT 260650Z 07004KT 9999 MIFG NSC M05/M06 Q1026 NOSIG
12-01-26 METAR EDDT 260720Z 36001KT 9999 MIFG NSC M04/M06 Q1026 NOSIG
12-01-26 METAR EDDT 260750Z 11004KT CAVOK M04/M05 Q1027 NOSIG
12-01-26 METAR EDDT 260820Z 11007KT CAVOK M03/M04 Q1027 NOSIG
12-01-26 METAR EDDT 260850Z 12008KT CAVOK M02/M04 Q1027 NOSIG
12-01-26 METAR EDDT 260920Z 12008KT CAVOK M01/M04 Q1027 NOSIG
12-01-26 METAR EDDT 260950Z 12008KT CAVOK M01/M04 Q1027 NOSIG
12-01-26 METAR EDDT 261020Z 12008KT CAVOK M00/M04 Q1026 NOSIG
12-01-26 METAR EDDT 261050Z 13011KT CAVOK 00/M04 Q1026 NOSIG
12-01-26 METAR EDDT 261120Z 13013KT CAVOK 01/M05 Q1026 NOSIG
12-01-26 METAR EDDT 261150Z 13012KT 9999 FEW015 01/M06 Q1026 NOSIG
12-01-26 METAR EDDT 261220Z 13013KT 9999 FEW022 01/M06 Q1026 NOSIG
12-01-26 METAR EDDT 261250Z 13012KT 9999 FEW022 01/M06 Q1025 NOSIG
12-01-26 METAR EDDT 261320Z 11014KT 9999 FEW030 01/M06 Q1025 NOSIG
12-01-26 METAR EDDT 261350Z 13013KT 9999 SCT030 01/M06 Q1025 NOSIG
12-01-26 METAR EDDT 261420Z 13011KT 9999 SCT030 01/M05 Q1025 NOSIG
12-01-26 METAR EDDT 261450Z 12015KT 9999 SCT025 00/M06 Q1025 NOSIG
12-01-26 METAR EDDT 261520Z 12014KT 9999 BKN024 M00/M05 Q1025 NOSIG
12-01-26 METAR EDDT 261550Z 11011KT 9999 BKN024 M01/M06 Q1025 NOSIG
12-01-26 METAR EDDT 261620Z 13013KT 9999 BKN023 M01/M06 Q1026 NOSIG
12-01-26 METAR EDDT 261650Z 13011KT 9999 SCT023 M01/M06 Q1025 NOSIG
12-01-26 METAR EDDT 261720Z 12012KT 9999 FEW023 M01/M06 Q1026 NOSIG
12-01-26 METAR EDDT 261750Z 12014KT CAVOK M01/M06 Q1025 NOSIG
12-01-26 METAR EDDT 261820Z 12014KT CAVOK M02/M06 Q1025 NOSIG
12-01-26 METAR EDDT 261850Z 13012KT CAVOK M02/M06 Q1025 NOSIG
12-01-26 METAR EDDT 261920Z 12011KT CAVOK M02/M06 Q1025 NOSIG
12-01-26 METAR EDDT 261950Z 12010KT CAVOK M02/M06 Q1026 NOSIG
12-01-26 METAR EDDT 262020Z 12010KT CAVOK M02/M06 Q1026 NOSIG
12-01-26 METAR EDDT 262050Z 12010KT CAVOK M02/M06 Q1026 NOSIG
12-01-26 METAR EDDT 262120Z 11010KT CAVOK M03/M06 Q1026 NOSIG
12-01-26 METAR EDDT 262150Z 11012KT CAVOK M03/M06 Q1026 NOSIG
12-01-26 METAR EDDT 262220Z 12011KT CAVOK M03/M05 Q1026
12-01-26 METAR EDDT 262250Z 12013KT 9999 FEW014 M03/M06 Q1026
12-01-26 METAR EDDT 262320Z 12012KT 9999 FEW014 M03/M06 Q1026
12-01-26 METAR EDDT 262350Z 11014KT 9999 SCT014 M03/M06 Q1026
12-01-27 METAR EDDT 262350Z 11014KT 9999 SCT014 M03/M06 Q1026
12-01-27 METAR EDDT 270020Z 11013KT 9999 BKN015 M03/M06 Q1026
12-01-27 METAR EDDT 270050Z 12014KT 9999 BKN013 M03/M06 Q1026
12-01-27 METAR EDDT 270120Z 12013KT 9999 BKN013 M03/M06 Q1026
12-01-27 METAR EDDT 270150Z 12013KT 9999 BKN013 M03/M05 Q1026
12-01-27 METAR EDDT 270220Z 12015KT 9999 BKN013 M03/M05 Q1026
12-01-27 METAR EDDT 270250Z 12014KT 9999 BKN014 M02/M06 Q1026
12-01-27 METAR EDDT 270320Z 12014KT 9999 BKN015 M02/M06 Q1026
12-01-27 METAR EDDT 270350Z 12013KT 9999 BKN015 M02/M06 Q1026 NOSIG
12-01-27 METAR EDDT 270420Z 12012KT 9999 SCT015 M02/M06 Q1026 NOSIG
12-01-27 METAR EDDT 270450Z 12011KT 9999 FEW015 BKN130 M02/M06 Q1026 NOSIG
12-01-27 METAR EDDT 270520Z 12013KT CAVOK M02/M06 Q1026 NOSIG
12-01-27 METAR EDDT 270550Z 11013KT CAVOK M03/M06 Q1026 NOSIG
12-01-27 METAR EDDT 270620Z 12013KT CAVOK M02/M06 Q1026 NOSIG
12-01-27 METAR EDDT 270650Z 12012KT CAVOK M03/M06 Q1026 NOSIG
12-01-27 METAR EDDT 270720Z 12012KT CAVOK M03/M06 Q1026 NOSIG
12-01-27 METAR EDDT 270750Z 11011KT CAVOK M03/M06 Q1026 NOSIG
12-01-27 METAR EDDT 270820Z 11012KT CAVOK M03/M06 Q1026 NOSIG
12-01-27 METAR EDDT 270850Z 11011KT CAVOK M03/M07 Q1026 NOSIG
12-01-27 METAR EDDT 270920Z 12013KT CAVOK M03/M06 Q1026 NOSIG
12-01-27 METAR EDDT 270950Z 11011KT CAVOK M03/M07 Q1026 NOSIG
12-01-27 METAR EDDT 271020Z 11010KT CAVOK M02/M07 Q1026 NOSIG
12-01-27 METAR EDDT 271050Z 10010KT CAVOK M02/M07 Q1026 NOSIG
12-01-27 METAR EDDT 271120Z 10010KT CAVOK M02/M07 Q1026 NOSIG
12-01-27 METAR EDDT 271150Z 10010KT CAVOK M02/M08 Q1026 NOSIG
12-01-27 METAR EDDT 271220Z 11010KT CAVOK M02/M08 Q1026 NOSIG
12-01-27 METAR EDDT 271250Z 12012KT CAVOK M02/M08 Q1026 NOSIG
12-01-27 METAR EDDT 271320Z 11008KT CAVOK M02/M09 Q1026 NOSIG
12-01-27 METAR EDDT 271350Z 10009KT CAVOK M02/M09 Q1026 NOSIG
12-01-27 METAR EDDT 271420Z 12009KT CAVOK M02/M09 Q1027 NOSIG
12-01-27 METAR EDDT 271450Z 12008KT CAVOK M02/M08 Q1027 NOSIG
12-01-27 METAR EDDT 271520Z 14008KT CAVOK M02/M08 Q1027 NOSIG
12-01-27 METAR EDDT 271550Z 12009KT CAVOK M02/M08 Q1027 NOSIG
12-01-27 METAR EDDT 271620Z 12009KT CAVOK M02/M08 Q1027 NOSIG
12-01-27 METAR EDDT 271650Z 12009KT CAVOK M02/M08 Q1027 NOSIG
12-01-27 METAR EDDT 271720Z 11009KT CAVOK M02/M07 Q1028 NOSIG
12-01-27 METAR EDDT 271750Z 11010KT CAVOK M02/M07 Q1028 NOSIG
12-01-27 METAR EDDT 271820Z 11009KT 9999 -SN FEW035 BKN042 M02/M07 Q1028 NOSIG
12-01-27 METAR EDDT 271850Z 10009KT 9999 -SN FEW030 BKN040 BKN120 M03/M07 Q1028 NOSIG
12-01-27 METAR EDDT 271920Z 12009KT 9999 -SN BKN025 BKN120 M03/M07 Q1028 NOSIG
12-01-27 METAR EDDT 271950Z 11007KT 6000 -SN BKN034 BKN120 M03/M06 Q1028 NOSIG
12-01-27 METAR EDDT 272020Z 10008KT 6000 -SN FEW019 SCT030 BKN070 M03/M07 Q1028
12-01-27 METAR EDDT 272050Z 10008KT 9000 -SN FEW017 BKN040 M03/M07 Q1028 NOSIG
12-01-27 METAR EDDT 272120Z 09007KT 9999 FEW017 SCT030 BKN120 M03/M08 Q1029 NOSIG
12-01-27 METAR EDDT 272150Z 09009KT CAVOK M03/M08 Q1029 NOSIG
12-01-27 METAR EDDT 272220Z 09008KT CAVOK M04/M08 Q1029 NOSIG
12-01-27 METAR EDDT 272250Z 09008KT CAVOK M04/M08 Q1029
12-01-27 METAR EDDT 272320Z 08009KT CAVOK M04/M08 Q1029
12-01-27 METAR EDDT 272350Z 09007KT CAVOK M04/M08 Q1029
12-01-28 METAR EDDT 272350Z 09007KT CAVOK M04/M08 Q1029
12-01-28 METAR EDDT 280020Z 09006KT 9999 BKN040 M04/M08 Q1029
12-01-28 METAR EDDT 280050Z 09008KT 9999 BKN048 M04/M08 Q1029
12-01-28 METAR EDDT 280120Z 10009KT 9999 BKN046 M04/M08 Q1029
12-01-28 METAR EDDT 280150Z 09009KT 9999 BKN046 M04/M08 Q1029
12-01-28 METAR EDDT 280220Z 10008KT 9999 BKN046 M04/M08 Q1029
12-01-28 METAR EDDT 280250Z 09006KT 9999 SCT046 BKN120 M04/M09 Q1029
12-01-28 METAR EDDT 280320Z 09008KT CAVOK M05/M09 Q1029
12-01-28 METAR EDDT 280350Z 08006KT CAVOK M05/M09 Q1029 NOSIG
12-01-28 METAR EDDT 280420Z 07008KT CAVOK M05/M09 Q1030 NOSIG
12-01-28 METAR EDDT 280450Z 07007KT CAVOK M05/M09 Q1030 NOSIG
12-01-28 METAR EDDT 280520Z 07008KT CAVOK M05/M09 Q1030 NOSIG
12-01-28 METAR EDDT 280550Z 07008KT CAVOK M05/M09 Q1030 NOSIG
12-01-28 METAR EDDT 280620Z 07008KT CAVOK M05/M09 Q1030 NOSIG
12-01-28 METAR EDDT 280650Z 07008KT 8000 NSC M05/M09 Q1030 NOSIG
12-01-28 METAR EDDT 280720Z 07008KT 8000 NSC M05/M09 Q1030 NOSIG
12-01-28 METAR EDDT 280750Z 07008KT 9000 NSC M05/M09 Q1030 NOSIG
12-01-28 METAR EDDT 280820Z 07009KT 9000 NSC M05/M09 Q1031 NOSIG
12-01-28 METAR EDDT 280850Z 08009KT 9000 NSC M05/M09 Q1031 NOSIG
12-01-28 METAR EDDT 280920Z 08007KT 8000 NSC M05/M09 Q1031 NOSIG
12-01-28 METAR EDDT 280950Z 08007KT 8000 NSC M05/M09 Q1031 NOSIG
12-01-28 METAR EDDT 281020Z 06006KT 8000 NSC M04/M09 Q1031 NOSIG
12-01-28 METAR EDDT 281050Z 06007KT 8000 NSC M04/M09 Q1031 NOSIG
12-01-28 METAR EDDT 281120Z 07007KT 8000 NSC M04/M09 Q1031 NOSIG
12-01-28 METAR EDDT 281150Z 06007KT 6000 NSC M04/M09 Q1031 NOSIG
12-01-28 METAR EDDT 281220Z 06007KT 6000 NSC M04/M09 Q1031 NOSIG
12-01-28 METAR EDDT 281250Z 06007KT 6000 NSC M03/M09 Q1031 NOSIG
12-01-28 METAR EDDT 281320Z 06007KT 6000 NSC M04/M09 Q1031 NOSIG
12-01-28 METAR EDDT 281350Z 06008KT 6000 SCT040 OVC120 M03/M09 Q1031 NOSIG
12-01-28 METAR EDDT 281420Z 06007KT 6000 SCT040 OVC120 M03/M09 Q1031 TEMPO 4000 HZ
12-01-28 METAR EDDT 281450Z 06008KT 6000 SCT040 OVC120 M04/M09 Q1031 TEMPO 4000 HZ
12-01-28 METAR EDDT 281520Z 06008KT 5000 HZ SCT040 OVC120 M04/M09 Q1031 TEMPO 4000
12-01-28 METAR EDDT 281550Z 06009KT 5000 HZ FEW040 BKN070 OVC120 M04/M09 Q1031 TEMPO 4000 -SN
12-01-28 METAR EDDT 281620Z 07011KT 5000 HZ NSC M04/M09 Q1031 TEMPO 4000 -SN
12-01-28 METAR EDDT 281650Z 07010KT 5000 HZ FEW030 SCT050 OVC120 M04/M09 Q1031 TEMPO
12-01-28 METAR EDDT 281720Z 08009KT 4000 -SN HZ SCT020 OVC120 M04/M08 Q1032 TEMPO 2000 SN
12-01-28 METAR EDDT 281750Z 06009KT 1500 SN HZ BKN020 M05/M08 Q1032 TEMPO 3000 -SN BKN014
12-01-28 METAR EDDT 281820Z 08011KT 2000 SN BR FEW009 BKN020 M05/M07 Q1032 R88/490395 TEMPO 3000 -SN BKN014
12-01-28 METAR EDDT 281850Z 07008KT 2200 SN BR FEW009 BKN020 M05/M07 Q1032 R88/490395 TEMPO 3000 -SN
12-01-28 METAR EDDT 281920Z 07008KT 3000 -SN BR BKN022 M05/M07 Q1032 RESN R88/490395 NOSIG
12-01-28 METAR EDDT 281950Z 07007KT 3000 -SN BR BKN022 M05/M07 Q1032 R88/490395
12-01-28 METAR EDDT 282020Z 07007KT 3000 -SN BR BKN024 M05/M08 Q1032 R88/490395
12-01-28 METAR EDDT 282050Z 07008KT 3000 -SN BR BKN024 M05/M08 Q1032 R88/490395
12-01-28 METAR EDDT 282120Z 06006KT 3400 -SN BR BKN024 BKN060 M05/M08 Q1032 R88/490395 NOSIG
12-01-28 METAR EDDT 282150Z 06006KT 5000 BR SCT024 BKN060 M05/M09 Q1032 R88/490395
12-01-28 METAR EDDT 282220Z 07007KT 6000 FEW024 BKN060 M05/M09 Q1032 R88/490395
12-01-28 METAR EDDT 282250Z 05005KT 6000 FEW024 BKN068 M05/M09 Q1032 R88/490395
12-01-28 METAR EDDT 282320Z 05007KT 6000 FEW024 BKN068 M05/M09 Q1032 R88/490395
12-01-28 METAR EDDT 282350Z 06008KT 7000 NSC M05/M09 Q1032 R88/490395
12-01-29 METAR EDDT 282350Z 06008KT 7000 NSC M05/M09 Q1032 R88/490395
12-01-29 METAR EDDT 290020Z 07009KT 7000 NSC M05/M09 Q1032 R88/490395
12-01-29 METAR EDDT 290050Z 07008KT 8000 NSC M05/M09 Q1032 R88/490395
12-01-29 METAR EDDT 290120Z 07009KT 8000 NSC M05/M09 Q1032 R88/490395
12-01-29 METAR EDDT 290150Z 07008KT 8000 NSC M05/M09 Q1032 R88/490395
12-01-29 METAR EDDT 290220Z 07008KT 8000 NSC M05/M08 Q1032 R88/490395
12-01-29 METAR EDDT 290250Z 07008KT 8000 NSC M05/M08 Q1032 R88/490395
12-01-29 METAR EDDT 290320Z 07009KT 8000 NSC M05/M08 Q1032 R88/490395
12-01-29 METAR EDDT 290350Z 08008KT 8000 NSC M05/M08 Q1032 R88/290195 NOSIG
12-01-29 METAR EDDT 290420Z 08011KT 8000 NSC M05/M09 Q1032 R88/290195 NOSIG
12-01-29 METAR EDDT 290450Z 08010KT 8000 NSC M05/M08 Q1032 R88/290195 NOSIG
12-01-29 METAR EDDT 290520Z 08011KT 8000 NSC M05/M09 Q1032 R88/290195 NOSIG
12-01-29 METAR EDDT 290550Z 08012KT 8000 NSC M05/M09 Q1032 R88/290195 NOSIG
12-01-29 METAR EDDT 290620Z 08010KT 8000 NSC M06/M09 Q1033 R88/290195 NOSIG
12-01-29 METAR EDDT 290650Z 08009KT 6000 NSC M06/M09 Q1033 R88/290195 TEMPO 4000
12-01-29 METAR EDDT 290720Z 08010KT 4600 HZ NSC M06/M09 Q1033 R88/290195 BECMG 5000
12-01-29 METAR EDDT 290750Z 09010KT 4600 HZ NSC M06/M09 Q1033 R88/290195 BECMG 5000
12-01-29 METAR EDDT 290820Z 08011KT 4600 HZ NSC M06/M09 Q1033 R88/290195 BECMG 5000
12-01-29 METAR EDDT 290850Z 08013KT 5000 HZ NSC M06/M09 Q1033 R88/290195 NOSIG
12-01-29 METAR EDDT 290920Z 08012KT 6000 NSC M06/M09 Q1033 R88/290195 NOSIG
12-01-29 METAR EDDT 290950Z 08012KT 6000 NSC M05/M09 Q1034 R88/290195 NOSIG
12-01-29 METAR EDDT 291020Z 07012KT 6000 NSC M05/M10 Q1033 R88/290195 NOSIG
12-01-29 METAR EDDT 291050Z 06010KT 6000 NSC M05/M09 Q1033 R88/290195 NOSIG
12-01-29 METAR EDDT 291120Z 08013KT 7000 NSC M04/M10 Q1033 R88/290195 NOSIG
12-01-29 METAR EDDT 291150Z 07012KT 8000 NSC M05/M10 Q1033 R88/290195 NOSIG
12-01-29 METAR EDDT 291220Z 08013KT 8000 NSC M05/M10 Q1033 R88/290195 NOSIG
12-01-29 METAR EDDT 291250Z 08014KT 9000 NSC M05/M11 Q1033 R88/290195 NOSIG
12-01-29 METAR EDDT 291320Z 09014KT CAVOK M04/M11 Q1033 R88/290195 NOSIG
12-01-29 METAR EDDT 291350Z 07013KT CAVOK M04/M11 Q1033 R88/290195 NOSIG
12-01-29 METAR EDDT 291420Z 07012KT CAVOK M04/M11 Q1033 R88/290195 NOSIG
12-01-29 METAR EDDT 291450Z 08013KT CAVOK M04/M12 Q1033 R88/290195 NOSIG
12-01-29 METAR EDDT 291520Z 08012KT CAVOK M04/M12 Q1033 R88/290195 NOSIG
12-01-29 METAR EDDT 291550Z 08012KT CAVOK M04/M12 Q1033 R88/290195 NOSIG
12-01-29 METAR EDDT 291620Z 09011KT CAVOK M04/M12 Q1034 R88/290195 NOSIG
12-01-29 METAR EDDT 291650Z 09012KT CAVOK M04/M12 Q1034 R88/290195 NOSIG
12-01-29 METAR EDDT 291720Z 09012KT CAVOK M04/M13 Q1034 R88/290195 NOSIG
12-01-29 METAR EDDT 291750Z 10012KT CAVOK M04/M13 Q1034 R88/290195 NOSIG
12-01-29 METAR EDDT 291820Z 10015KT CAVOK M04/M14 Q1034 R88/290195 NOSIG
12-01-29 METAR EDDT 291850Z 10010KT CAVOK M05/M14 Q1034 R88/290195 NOSIG
12-01-29 METAR EDDT 291920Z 10012KT CAVOK M04/M14 Q1034 R88/290195 NOSIG
12-01-29 METAR EDDT 291950Z 10012KT CAVOK M04/M14 Q1034 R88/290195 NOSIG
12-01-29 METAR EDDT 292020Z 10012KT CAVOK M05/M14 Q1034 R88/290195 NOSIG
12-01-29 METAR EDDT 292050Z 10014KT CAVOK M05/M14 Q1034 R88/290195 NOSIG
12-01-29 METAR EDDT 292120Z 09013KT CAVOK M05/M14 Q1034 R88/290195 NOSIG
12-01-29 METAR EDDT 292150Z 09011KT CAVOK M05/M14 Q1034 R88/290195 NOSIG
12-01-29 METAR EDDT 292220Z 08011KT CAVOK M05/M14 Q1034 R88/290195 NOSIG
12-01-29 METAR EDDT 292250Z 08011KT CAVOK M05/M14 Q1034 R88/290195 NOSIG
12-01-29 METAR EDDT 292320Z 08011KT CAVOK M05/M14 Q1034 R88/290195
12-01-29 METAR EDDT 292350Z 08011KT CAVOK M06/M14 Q1034 R88/290195
12-01-30 METAR EDDT 292350Z 08011KT CAVOK M06/M14 Q1034 R88/290195
12-01-30 METAR EDDT 300020Z 08011KT CAVOK M06/M14 Q1034 R88/290195
12-01-30 METAR EDDT 300050Z 08011KT CAVOK M06/M14 Q1034 R88/290195
12-01-30 METAR EDDT 300120Z 08012KT CAVOK M06/M13 Q1034 R88/290195
12-01-30 METAR EDDT 300150Z 08011KT CAVOK M06/M13 Q1034 R88/290195
12-01-30 METAR EDDT 300220Z 08012KT CAVOK M07/M13 Q1034 R88/290195
12-01-30 METAR EDDT 300250Z 08012KT CAVOK M07/M13 Q1034 R88/290195
12-01-30 METAR EDDT 300320Z 09012KT CAVOK M07/M13 Q1034 R88/290195
12-01-30 METAR EDDT 300350Z 09012KT CAVOK M07/M13 Q1034 R88/290195
12-01-30 METAR EDDT 300420Z 09012KT CAVOK M08/M14 Q1034 R88/290095
12-01-30 METAR EDDT 300450Z 08012KT CAVOK M08/M14 Q1034 R88/290095
12-01-30 METAR EDDT 300520Z 08012KT CAVOK M08/M14 Q1034 R88/290095
12-01-30 METAR EDDT 300550Z 08011KT CAVOK M08/M14 Q1034 R88/290095
12-01-30 METAR EDDT 300620Z 08011KT CAVOK M09/M14 Q1034 R88/290095 NOSIG
12-01-30 METAR EDDT 300650Z 07012KT CAVOK M09/M14 Q1035 R88/290095 NOSIG
12-01-30 METAR EDDT 300720Z 08012KT CAVOK M09/M14 Q1035 R88/290095 NOSIG
12-01-30 METAR EDDT 300750Z 08013KT CAVOK M09/M14 Q1035 R88/290095 NOSIG
12-01-30 METAR EDDT 300820Z 08013KT CAVOK M08/M14 Q1035 R88/290095 NOSIG
12-01-30 METAR EDDT 300850Z 08013KT CAVOK M08/M15 Q1035 R88/290095 NOSIG
12-01-30 METAR EDDT 300920Z 07014KT CAVOK M07/M15 Q1035 R88/290095 NOSIG
12-01-30 METAR EDDT 300950Z 08014KT CAVOK M07/M14 Q1035 R88/290095 NOSIG
12-01-30 METAR EDDT 301020Z 08013KT CAVOK M06/M14 Q1035 R88/290095 NOSIG
12-01-30 METAR EDDT 301050Z 09013KT CAVOK M05/M16 Q1034 R88/290095 NOSIG
12-01-30 METAR EDDT 301120Z 08013KT CAVOK M05/M16 Q1034 R88/290095 NOSIG
12-01-30 METAR EDDT 301150Z 08013KT CAVOK M04/M16 Q1034 R88/290095 NOSIG
12-01-30 METAR EDDT 301220Z 09013KT CAVOK M04/M16 Q1034 R88/290095 NOSIG
12-01-30 METAR EDDT 301250Z 10014KT CAVOK M03/M15 Q1034 R88/190095 NOSIG
12-01-30 METAR EDDT 301320Z 08015KT CAVOK M03/M15 Q1033 R88/190095 NOSIG
12-01-30 METAR EDDT 301350Z 08014KT CAVOK M03/M15 Q1033 R88/190095 NOSIG
12-01-30 METAR EDDT 301420Z 08014KT CAVOK M03/M15 Q1033 R88/190095 NOSIG
12-01-30 METAR EDDT 301450Z 07014KT CAVOK M03/M15 Q1033 R88/190095 NOSIG
12-01-30 METAR EDDT 301520Z 07017KT CAVOK M03/M15 Q1033 R88/190095 NOSIG
12-01-30 METAR EDDT 301550Z 07012KT CAVOK M04/M15 Q1033 R88/190095 NOSIG
12-01-30 METAR EDDT 301620Z 07011KT CAVOK M04/M14 Q1034 R88/190095 NOSIG
12-01-30 METAR EDDT 301650Z 08013KT CAVOK M05/M14 Q1034 R88/190095 NOSIG
12-01-30 METAR EDDT 301720Z 08012KT CAVOK M05/M14 Q1034 R88/190095 NOSIG
12-01-30 METAR EDDT 301750Z 09013KT CAVOK M05/M13 Q1034 R88/190095 NOSIG
12-01-30 METAR EDDT 301820Z 09014KT CAVOK M05/M13 Q1034 R88/190095 NOSIG
12-01-30 METAR EDDT 301850Z 09014KT CAVOK M05/M12 Q1034 R88/190095 NOSIG
12-01-30 METAR EDDT 301920Z 09013KT CAVOK M06/M12 Q1034 R88/190095 NOSIG
12-01-30 METAR EDDT 301950Z 08012KT CAVOK M06/M12 Q1034 R88/190095 NOSIG
12-01-30 METAR EDDT 302020Z 08012KT CAVOK M06/M12 Q1034 R88/190095 NOSIG
12-01-30 METAR EDDT 302050Z 08013KT CAVOK M07/M12 Q1034 R88/190095 NOSIG
12-01-30 METAR EDDT 302120Z 08012KT CAVOK M07/M12 Q1034 R88/190095 NOSIG
12-01-30 METAR EDDT 302150Z 08013KT CAVOK M07/M12 Q1034 R88/190095 NOSIG
12-01-30 METAR EDDT 302220Z 09014KT CAVOK M07/M12 Q1034 R88/190095 NOSIG
12-01-30 METAR EDDT 302250Z 09013KT CAVOK M07/M12 Q1034 R88/190095 NOSIG
12-01-30 METAR EDDT 302320Z 09013KT CAVOK M07/M12 Q1034 R88/190095 NOSIG
12-01-30 METAR EDDT 302350Z 08013KT CAVOK M07/M12 Q1034 R88/190095 NOSIG
12-01-31 METAR EDDT 302350Z 08013KT CAVOK M07/M12 Q1034 R88/190095 NOSIG
12-01-31 METAR EDDT 310020Z 08013KT CAVOK M08/M12 Q1034 R88/190095 NOSIG
12-01-31 METAR EDDT 310050Z 09013KT CAVOK M08/M12 Q1034 R88/190095 NOSIG
12-01-31 METAR EDDT 310120Z 09013KT CAVOK M08/M12 Q1034 R88/190095
12-01-31 METAR EDDT 310150Z 08014KT CAVOK M08/M12 Q1033 R88/190095
12-01-31 METAR EDDT 310220Z 08013KT CAVOK M09/M13 Q1033 R88/190095
12-01-31 METAR EDDT 310250Z 08014KT CAVOK M09/M13 Q1033 R88/190095
12-01-31 METAR EDDT 310320Z 09013KT CAVOK M09/M13 Q1033 R88/190095
12-01-31 METAR EDDT 310350Z 08014KT CAVOK M09/M13 Q1033 R88/190095 NOSIG
12-01-31 METAR EDDT 310420Z 08013KT CAVOK M09/M13 Q1033 R88/190095 NOSIG
12-01-31 METAR EDDT 310450Z 08014KT CAVOK M10/M13 Q1033 R88/190095 NOSIG
12-01-31 METAR EDDT 310520Z 08014KT 9999 SCT017 M10/M13 Q1033 R99/190095 NOSIG
12-01-31 METAR EDDT 310550Z 08014KT 9999 FEW017 M10/M14 Q1033 R99/190095 NOSIG
12-01-31 METAR EDDT 310620Z 08013KT 9999 FEW017 M10/M14 Q1034 R99/190095 NOSIG
12-01-31 METAR EDDT 310650Z 08013KT 9999 FEW016 M10/M14 Q1034 R88/CLRD// NOSIG
12-01-31 METAR EDDT 310650Z 08013KT 9999 FEW016 M10/M14 Q1034 R88/D NOSIG
12-01-31 METAR EDDT 310720Z 08012KT 9999 FEW016 M10/M14 Q1034 R88/CLRD// NOSIG
12-01-31 METAR EDDT 310720Z 08012KT 9999 FEW016 M10/M14 Q1034 R88/D NOSIG
12-01-31 METAR EDDT 310750Z 08014KT 9999 FEW016 M10/M14 Q1034 R88/CLRD// NOSIG
12-01-31 METAR EDDT 310750Z 08014KT 9999 FEW016 M10/M14 Q1034 R88/D NOSIG
12-01-31 METAR EDDT 310820Z 08015KT 9999 FEW016 M10/M14 Q1034 R88/D NOSIG
12-01-31 METAR EDDT 310820Z 08015KT 9999 FEW016 M10/M14 Q1034 R88/CLRD// NOSIG
12-01-31 METAR EDDT 310850Z 08015KT 9999 FEW016 M10/M14 Q1034 R88/CLRD// NOSIG
12-01-31 METAR EDDT 310850Z 08015KT 9999 FEW016 M10/M14 Q1034 R88/D NOSIG
12-01-31 METAR EDDT 310920Z 08014KT 9999 FEW016 M09/M14 Q1034 R88/D NOSIG
12-01-31 METAR EDDT 310920Z 08014KT 9999 FEW016 M09/M14 Q1034 R88/CLRD// NOSIG
12-01-31 METAR EDDT 310950Z 07014KT 9999 FEW020 M09/M14 Q1034 NOSIG
12-01-31 METAR EDDT 311020Z 08015KT 9999 FEW020 M09/M14 Q1034 NOSIG
12-01-31 METAR EDDT 311050Z 07014KT 9999 FEW020 M09/M14 Q1034 NOSIG
12-01-31 METAR EDDT 311120Z 07015KT CAVOK M08/M14 Q1034 NOSIG
12-01-31 METAR EDDT 311150Z 07013KT CAVOK M08/M14 Q1034 NOSIG
12-01-31 METAR EDDT 311220Z 08014KT CAVOK M07/M13 Q1034 NOSIG
12-01-31 METAR EDDT 311250Z 06015KT CAVOK M07/M14 Q1034 NOSIG
12-01-31 METAR EDDT 311320Z 06016KT CAVOK M07/M13 Q1033 NOSIG
12-01-31 METAR EDDT 311350Z 07015KT CAVOK M06/M13 Q1033 NOSIG
12-01-31 METAR EDDT 311420Z 07016KT CAVOK M06/M13 Q1033 NOSIG
12-01-31 METAR EDDT 311450Z 07013KT CAVOK M06/M13 Q1033 NOSIG
12-01-31 METAR EDDT 311520Z 06012KT CAVOK M06/M13 Q1033 NOSIG
12-01-31 METAR EDDT 311550Z 06010KT CAVOK M06/M13 Q1033 NOSIG
12-01-31 METAR EDDT 311620Z 06011KT CAVOK M06/M13 Q1034 NOSIG
12-01-31 METAR EDDT 311650Z 06010KT CAVOK M06/M13 Q1034 NOSIG
12-01-31 METAR EDDT 311720Z 07012KT CAVOK M06/M13 Q1034 NOSIG
12-01-31 METAR EDDT 311750Z 07011KT CAVOK M06/M13 Q1034 NOSIG
12-01-31 METAR EDDT 311820Z 07013KT CAVOK M06/M13 Q1034 NOSIG
12-01-31 METAR EDDT 311850Z 07014KT CAVOK M06/M14 Q1034 NOSIG
12-01-31 METAR EDDT 311920Z 07013KT CAVOK M07/M14 Q1035 NOSIG
12-01-31 METAR EDDT 311950Z 07011KT CAVOK M07/M15 Q1035 NOSIG
12-01-31 METAR EDDT 312020Z 06011KT CAVOK M07/M15 Q1035 NOSIG
12-01-31 METAR EDDT 312050Z 06010KT CAVOK M07/M15 Q1035 NOSIG
12-01-31 METAR EDDT 312120Z 07011KT CAVOK M07/M15 Q1035 NOSIG
12-01-31 METAR EDDT 312150Z 07011KT CAVOK M07/M14 Q1035 NOSIG
12-01-31 METAR EDDT 312220Z 07012KT CAVOK M08/M15 Q1035
12-01-31 METAR EDDT 312250Z 07010KT CAVOK M08/M15 Q1035
12-01-31 METAR EDDT 312320Z 07010KT CAVOK M08/M15 Q1035
12-01-31 METAR EDDT 312350Z 07010KT CAVOK M08/M15 Q1035
12-02-01 METAR EDDT 312350Z 07010KT CAVOK M08/M15 Q1035
12-02-01 METAR EDDT 010020Z 06009KT CAVOK M09/M15 Q1036
12-02-01 METAR EDDT 010050Z 06008KT CAVOK M09/M15 Q1036
12-02-01 METAR EDDT 010120Z 06008KT CAVOK M09/M16 Q1036
12-02-01 METAR EDDT 010150Z 06007KT CAVOK M09/M16 Q1036
12-02-01 METAR EDDT 010220Z 06007KT CAVOK M10/M16 Q1036
12-02-01 METAR EDDT 010250Z 05008KT CAVOK M10/M17 Q1036
12-02-01 METAR EDDT 010320Z 05009KT CAVOK M10/M17 Q1036
12-02-01 METAR EDDT 010350Z 05009KT CAVOK M10/M18 Q1036 NOSIG
12-02-01 METAR EDDT 010420Z 05008KT CAVOK M10/M18 Q1036 NOSIG
12-02-01 METAR EDDT 010450Z 05007KT CAVOK M11/M18 Q1036 NOSIG
12-02-01 METAR EDDT 010520Z 05008KT CAVOK M11/M18 Q1036 NOSIG
12-02-01 METAR EDDT 010550Z 05007KT CAVOK M11/M18 Q1036 NOSIG
12-02-01 METAR EDDT 010620Z 05008KT CAVOK M11/M18 Q1036 NOSIG
12-02-01 METAR EDDT 010650Z 05008KT CAVOK M11/M17 Q1036 NOSIG
12-02-01 METAR EDDT 010720Z 05007KT CAVOK M11/M17 Q1037 NOSIG
12-02-01 METAR EDDT 010750Z 05009KT CAVOK M11/M17 Q1037 NOSIG
12-02-01 METAR EDDT 010820Z 06009KT CAVOK M10/M17 Q1037 NOSIG
12-02-01 METAR EDDT 010850Z 05008KT CAVOK M10/M17 Q1037 NOSIG
12-02-01 METAR EDDT 010920Z 07009KT CAVOK M09/M17 Q1037 NOSIG
12-02-01 METAR EDDT 010950Z 06010KT CAVOK M09/M17 Q1037 NOSIG
12-02-01 METAR EDDT 011020Z 05012KT CAVOK M08/M17 Q1037 NOSIG
12-02-01 METAR EDDT 011050Z 05010KT CAVOK M07/M17 Q1037 NOSIG
12-02-01 METAR EDDT 011120Z 04009KT CAVOK M07/M18 Q1037 NOSIG
12-02-01 METAR EDDT 011150Z 05012KT CAVOK M07/M18 Q1036 NOSIG
12-02-01 METAR EDDT 011220Z 05010KT CAVOK M06/M18 Q1036 NOSIG
12-02-01 METAR EDDT 011250Z 06011KT CAVOK M06/M18 Q1036 NOSIG
12-02-01 METAR EDDT 011320Z 05011KT CAVOK M06/M18 Q1036 NOSIG
12-02-01 METAR EDDT 011350Z 05011KT CAVOK M06/M18 Q1036 NOSIG
12-02-01 METAR EDDT 011420Z 04011KT CAVOK M06/M17 Q1036 NOSIG
12-02-01 METAR EDDT 011450Z 05011KT CAVOK M06/M18 Q1036 NOSIG
12-02-01 METAR EDDT 011520Z 05013KT CAVOK M06/M18 Q1036 NOSIG
12-02-01 METAR EDDT 011550Z 04010KT CAVOK M07/M17 Q1036 NOSIG
12-02-01 METAR EDDT 011620Z 05010KT CAVOK M07/M16 Q1037 NOSIG
12-02-01 METAR EDDT 011650Z 05010KT CAVOK M08/M16 Q1037 NOSIG
12-02-01 METAR EDDT 011720Z 05009KT CAVOK M08/M16 Q1037 NOSIG
12-02-01 METAR EDDT 011750Z 05010KT CAVOK M08/M16 Q1037 NOSIG
12-02-01 METAR EDDT 011820Z 05008KT CAVOK M08/M16 Q1037 NOSIG
12-02-01 METAR EDDT 011850Z 06008KT CAVOK M09/M15 Q1037 NOSIG
12-02-01 METAR EDDT 011920Z 05008KT CAVOK M09/M15 Q1037 NOSIG
12-02-01 METAR EDDT 011950Z 05009KT CAVOK M09/M15 Q1038 NOSIG
12-02-01 METAR EDDT 012020Z 06011KT CAVOK M09/M16 Q1038 NOSIG
12-02-01 METAR EDDT 012050Z 07013KT CAVOK M09/M16 Q1038 NOSIG
12-02-01 METAR EDDT 012120Z 07013KT CAVOK M10/M17 Q1038 NOSIG
12-02-01 METAR EDDT 012150Z 07012KT CAVOK M10/M16 Q1038 NOSIG
12-02-01 METAR EDDT 012220Z 08012KT CAVOK M10/M17 Q1038
12-02-01 METAR EDDT 012250Z 07010KT CAVOK M11/M16 Q1038
12-02-01 METAR EDDT 012320Z 07011KT CAVOK M11/M17 Q1038
12-02-01 METAR EDDT 012350Z 07011KT CAVOK M11/M17 Q1038
12-02-02 METAR EDDT 012350Z 07011KT CAVOK M11/M17 Q1038
12-02-02 METAR EDDT 020020Z 06010KT CAVOK M12/M17 Q1038
12-02-02 METAR EDDT 020050Z 06007KT CAVOK M12/M17 Q1038
12-02-02 METAR EDDT 020120Z 06007KT CAVOK M12/M17 Q1038
12-02-02 METAR EDDT 020150Z 06007KT CAVOK M12/M17 Q1038
12-02-02 METAR EDDT 020220Z 06007KT CAVOK M13/M17 Q1038
12-02-02 METAR EDDT 020250Z 05008KT CAVOK M13/M17 Q1037
12-02-02 METAR EDDT 020320Z 06006KT CAVOK M13/M17 Q1037
12-02-02 METAR EDDT 020350Z 07006KT CAVOK M13/M17 Q1037 NOSIG
12-02-02 METAR EDDT 020420Z 07006KT CAVOK M13/M17 Q1037 NOSIG
12-02-02 METAR EDDT 020450Z 07006KT CAVOK M14/M17 Q1037 NOSIG
12-02-02 METAR EDDT 020520Z 06006KT CAVOK M14/M17 Q1037 NOSIG
12-02-02 METAR EDDT 020550Z 06006KT CAVOK M14/M17 Q1037 NOSIG
12-02-02 METAR EDDT 020620Z 05004KT CAVOK M14/M17 Q1037 NOSIG
12-02-02 METAR EDDT 020650Z 05004KT CAVOK M14/M17 Q1037 NOSIG
12-02-02 METAR EDDT 020720Z 04004KT CAVOK M14/M17 Q1038 NOSIG
12-02-02 METAR EDDT 020750Z 15003KT CAVOK M13/M17 Q1037 NOSIG
12-02-02 METAR EDDT 020820Z 36003KT CAVOK M12/M17 Q1038 NOSIG
12-02-02 METAR EDDT 020850Z VRB02KT CAVOK M12/M17 Q1038 NOSIG
12-02-02 METAR EDDT 020920Z 35004KT CAVOK M12/M16 Q1038 NOSIG
12-02-02 METAR EDDT 020950Z 03004KT CAVOK M12/M16 Q1038 NOSIG
12-02-02 METAR EDDT 021020Z 03004KT CAVOK M11/M16 Q1037 NOSIG
12-02-02 METAR EDDT 021050Z 36002KT CAVOK M10/M17 Q1037 NOSIG
12-02-02 METAR EDDT 021120Z VRB03KT CAVOK M10/M17 Q1037 NOSIG
12-02-02 METAR EDDT 021150Z 01004KT CAVOK M09/M17 Q1037 NOSIG
12-02-02 METAR EDDT 021220Z 04003KT CAVOK M08/M18 Q1037 NOSIG
12-02-02 METAR EDDT 021250Z VRB03KT CAVOK M08/M18 Q1036 NOSIG
12-02-02 METAR EDDT 021320Z 04004KT CAVOK M08/M18 Q1036 NOSIG
12-02-02 METAR EDDT 021350Z VRB02KT CAVOK M07/M17 Q1036 NOSIG
12-02-02 METAR EDDT 021420Z VRB02KT CAVOK M07/M17 Q1036 NOSIG
12-02-02 METAR EDDT 021450Z VRB02KT CAVOK M07/M18 Q1036 NOSIG
12-02-02 METAR EDDT 021520Z 07002KT 9999 BKN044 M07/M17 Q1036 NOSIG
12-02-02 METAR EDDT 021550Z VRB01KT 9999 BKN044 M07/M17 Q1036 NOSIG
12-02-02 METAR EDDT 021620Z 29002KT 9999 BKN042 M08/M17 Q1036 NOSIG
12-02-02 METAR EDDT 021650Z 28004KT 9999 BKN042 M08/M16 Q1036 NOSIG
12-02-02 METAR EDDT 021720Z 30004KT 9999 BKN040 M08/M16 Q1036 NOSIG
12-02-02 METAR EDDT 021750Z VRB04KT 9999 FEW040 BKN066 M09/M15 Q1035 NOSIG
12-02-02 METAR EDDT 021820Z 31004KT 9999 FEW030 BKN070 M09/M16 Q1035 NOSIG
12-02-02 METAR EDDT 021850Z 28003KT 9999 FEW027 BKN052 M10/M17 Q1036 NOSIG
12-02-02 METAR EDDT 021920Z 26003KT 9999 SCT025 BKN050 M09/M16 Q1035 NOSIG
12-02-02 METAR EDDT 021950Z 26002KT 9999 FEW026 SCT035 BKN050 M09/M16 Q1035 NOSIG
12-02-02 METAR EDDT 022020Z 25004KT 9999 -SN FEW020 BKN035 M09/M15 Q1035 TEMPO 4000 -SN BKN014
12-02-02 METAR EDDT 022050Z 26004KT 9999 -SN FEW020 BKN035 M09/M15 Q1035 TEMPO 4000
12-02-02 METAR EDDT 022120Z 26003KT 9999 -SN FEW013 BKN035 M09/M13 Q1035 TEMPO 4000
12-02-02 METAR EDDT 022150Z 25004KT 9999 -SN FEW012 BKN035 M09/M13 Q1035 TEMPO 4000
12-02-02 METAR EDDT 022220Z 25004KT 3800 -SN FEW006 BKN025 M09/M11 Q1035
12-02-02 METAR EDDT 022250Z 24005KT 5000 -SN FEW006 BKN030 M09/M11 Q1035
12-02-02 METAR EDDT 022320Z 25006KT 4500 -SN FEW006 BKN030 M09/M11 Q1035
12-02-02 METAR EDDT 022350Z 25006KT 4500 -SN FEW006 SCT010 BKN030 M09/M11 Q1035
12-02-03 METAR EDDT 022350Z 25006KT 4500 -SN FEW006 SCT010 BKN030 M09/M11 Q1035
12-02-03 METAR EDDT 030020Z 26005KT 9999 -SN BKN009 M09/M11 Q1034
12-02-03 METAR EDDT 030050Z 26005KT 9999 BKN008 M09/M11 Q1034
12-02-03 METAR EDDT 030120Z 26005KT 9999 BKN008 M09/M11 Q1034
12-02-03 METAR EDDT 030150Z 25005KT 9999 -SN OVC008 M09/M11 Q1034
12-02-03 METAR EDDT 030220Z 24006KT 9999 -SN FEW003 OVC009 M09/M11 Q1034
12-02-03 METAR EDDT 030250Z 25007KT 6000 -SN OVC010 M09/M11 Q1034
12-02-03 METAR EDDT 030320Z 25005KT 9999 -SN OVC009 M09/M11 Q1033
12-02-03 METAR EDDT 030350Z 24005KT 4500 -SN OVC009 M09/M11 Q1033 R88/590295 TEMPO SN
12-02-03 METAR EDDT 030420Z 26006KT 4000 -SN BKN010 BKN030 M09/M11 Q1033 R88/590295 TEMPO BKN009
12-02-03 METAR EDDT 030450Z 26004KT 9000 -SN FEW010 SCT030 BKN040 M10/M12 Q1033 R88/590295 TEMPO 4000 -SN BKN010
12-02-03 METAR EDDT 030520Z 27003KT 9999 -SN FEW015 BKN025 M10/M12 Q1033 R88/290195
12-02-03 METAR EDDT 030550Z 26002KT 6000 R26R/1200VP2000U R26L/1500VP2000U -SN FEW015 SCT025 BKN050 M10/M11 Q1033 RESN R88/290195 TEMPO 4000 -SN BKN010
12-02-03 METAR EDDT 030620Z 27005KT 8000 -SN FEW008 SCT020 BKN040 M10/M12 Q1033 R88/290195 TEMPO 4000 -SN BKN010
12-02-03 METAR EDDT 030650Z 26004KT 8000 FEW008 BKN300 M12/M14 Q1033 R88/290195 NOSIG
12-02-03 METAR EDDT 030720Z 26004KT 9999 FEW008 SCT100 M12/M14 Q1034 R88/290195
12-02-03 METAR EDDT 030750Z 26004KT 9999 FEW008 SCT100 M12/M13 Q1034 R88/290195
12-02-03 METAR EDDT 030820Z 29002KT 9999 FEW008 M11/M13 Q1034 R88/290195 NOSIG
12-02-03 METAR EDDT 030850Z 26004KT 9000 FEW008 M10/M12 Q1034 R88/290195 NOSIG
12-02-03 METAR EDDT 030920Z 25003KT 8000 SCT008 M10/M12 Q1034 R88/290195 TEMPO BKN008
12-02-03 METAR EDDT 030950Z 24003KT 9999 FEW008 M09/M11 Q1034 R88/290195 NOSIG
12-02-03 METAR EDDT 031020Z 23003KT 9999 FEW008 M08/M11 Q1034 R88/290195 NOSIG
12-02-03 METAR EDDT 031050Z 23003KT 9999 FEW008 M07/M10 Q1034 R88/290195 NOSIG
12-02-03 METAR EDDT 031120Z VRB02KT 9999 FEW012 BKN300 M07/M10 Q1034 R88/290195
12-02-03 METAR EDDT 031150Z 24003KT 9999 FEW015 BKN300 M06/M10 Q1034 R88/290195
12-02-03 METAR EDDT 031220Z VRB03KT 9999 SCT018 BKN300 M06/M11 Q1034 R88/290195
12-02-03 METAR EDDT 031250Z 26006KT 9999 SCT018 SCT300 M06/M10 Q1034 R88/290195
12-02-03 METAR EDDT 031320Z 26005KT 9999 SCT025 SCT300 M06/M10 Q1035 R88/290195
12-02-03 METAR EDDT 031350Z 26004KT 9999 FEW025 SCT300 M06/M11 Q1035 R88/290195
12-02-03 METAR EDDT 031420Z 24004KT 9999 SCT028 SCT300 M06/M11 Q1035 R88/290195
12-02-03 METAR EDDT 031450Z 25004KT 9999 VCSH SCT025 BKN030 M06/M11 Q1035 R88/290195
12-02-03 METAR EDDT 031520Z 27005KT 9999 -SHSN SCT025 BKN040 M06/M11 Q1035 R88/290195 NOSIG
12-02-03 METAR EDDT 031550Z 30005KT 9999 -SN SCT025 BKN040 M06/M11 Q1035 R88/290195
12-02-03 METAR EDDT 031620Z 31003KT 9999 -SN SCT016 BKN025 M07/M11 Q1035 RESN
12-02-03 METAR EDDT 031650Z 33003KT 9999 FEW016 SCT025 M07/M11 Q1036 R88/290195
12-02-03 METAR EDDT 031720Z 35003KT 9999 FEW020 M08/M11 Q1036 R88/290195 NOSIG
12-02-03 METAR EDDT 031750Z 33002KT 9999 FEW015 SCT030 M09/M12 Q1036 R88/290195
12-02-03 METAR EDDT 031820Z 34003KT 9999 FEW015 SCT030 M08/M11 Q1037 R88/290195
12-02-03 METAR EDDT 031850Z 02002KT 9999 SCT023 M08/M11 Q1037 R88/290195 NOSIG
12-02-03 METAR EDDT 031920Z VRB01KT 9999 FEW020 M10/M12 Q1037 R88/290195 NOSIG
12-02-03 METAR EDDT 031950Z 27001KT CAVOK M12/M14 Q1037 R88/290195 NOSIG
12-02-03 METAR EDDT 032020Z 28003KT CAVOK M12/M13 Q1037 R88/290195 NOSIG
12-02-03 METAR EDDT 032050Z 33002KT 9999 FEW008 M12/M14 Q1038 R88/290195 NOSIG
12-02-03 METAR EDDT 032120Z 26003KT 9999 FEW024 M12/M13 Q1038 R88/290195 NOSIG
12-02-03 METAR EDDT 032150Z 00000KT 9999 FEW030 M12/M13 Q1038 R88/290195 NOSIG
12-02-03 METAR EDDT 032220Z 24002KT 9999 FEW040 M12/M14 Q1038 R88/290195
12-02-03 METAR EDDT 032250Z 30001KT 9999 SCT040 M12/M14 Q1038 R88/290195
12-02-03 METAR EDDT 032320Z 26002KT 9999 FEW040 M14/M16 Q1038 R88/290195
12-02-03 METAR EDDT 032350Z 26002KT 9999 FEW040 M14/M16 Q1038 R88/290195
12-02-04 METAR EDDT 032350Z 26002KT 9999 FEW040 M14/M16 Q1038 R88/290195
12-02-04 METAR EDDT 040020Z VRB01KT 9999 FEW040 M15/M17 Q1038 R88/290195
12-02-04 METAR EDDT 040050Z 25002KT 9999 FEW040 M16/M18 Q1038 R88/290195
12-02-04 METAR EDDT 040120Z VRB02KT 9999 FEW040 M16/M18 Q1038 R88/290195
12-02-04 METAR EDDT 040150Z 27002KT CAVOK M16/M18 Q1038 R88/290195
12-02-04 METAR EDDT 040220Z 27002KT CAVOK M16/M18 Q1038 R88/290195
12-02-04 METAR EDDT 040250Z 26002KT CAVOK M16/M18 Q1038 R88/290195
12-02-04 METAR EDDT 040320Z 28002KT CAVOK M17/M19 Q1038 R88/290195
12-02-04 METAR EDDT 040350Z 26001KT CAVOK M17/M18 Q1038 R88/290195 NOSIG
12-02-04 METAR EDDT 040420Z 25002KT CAVOK M17/M19 Q1038 R88/290195 NOSIG
12-02-04 METAR EDDT 040450Z 26002KT CAVOK M17/M19 Q1038 R88/290195 NOSIG
12-02-04 METAR EDDT 040520Z VRB01KT CAVOK M17/M19 Q1038 R88/290195 NOSIG
12-02-04 METAR EDDT 040550Z 25002KT CAVOK M17/M19 Q1038 R88/290195 NOSIG
12-02-04 METAR EDDT 040620Z 25002KT CAVOK M16/M19 Q1038 R88/290195 NOSIG
12-02-04 METAR EDDT 040650Z 30002KT CAVOK M16/M18 Q1038 R88/290195 NOSIG
12-02-04 METAR EDDT 040720Z 33002KT 9999 FEW035 M15/M17 Q1038 R88/290195 TEMPO 4000 -SN BKN012
12-02-04 METAR EDDT 040750Z 26002KT 9999 FEW035 M15/M16 Q1039 R88/290195 TEMPO 4000
12-02-04 METAR EDDT 040820Z 28002KT 9999 FEW035 M14/M16 Q1039 R88/290195 NOSIG
12-02-04 METAR EDDT 040850Z 28002KT 9999 SCT004 BKN006 M13/M15 Q1039 R88/290195 TEMPO 4000 -SN BKN004
12-02-04 METAR EDDT 040920Z 26003KT 5000 BR BKN003 M12/M14 Q1039 R88/290195 TEMPO 4000 -SN
12-02-04 METAR EDDT 040950Z 24002KT 5000 -SN BR SCT003 M10/M12 Q1039 R88/290195 NOSIG
12-02-04 METAR EDDT 041020Z 22002KT 9999 FEW003 M09/M12 Q1039 R88/290195 NOSIG
12-02-04 METAR EDDT 041050Z 31004KT 9999 FEW003 SCT030 M09/M12 Q1039 R88/290195
12-02-04 METAR EDDT 041120Z VRB02KT 9999 FEW007 BKN009 M08/M11 Q1039 R88/290195
12-02-04 METAR EDDT 041150Z VRB02KT 9999 BKN008 M08/M11 Q1039 R88/190095 NOSIG
12-02-04 METAR EDDT 041220Z VRB03KT 9999 SCT009 M08/M10 Q1038 R88/190095 NOSIG
12-02-04 METAR EDDT 041250Z 34005KT 9999 FEW012 M07/M10 Q1038 R88/190095 NOSIG
12-02-04 METAR EDDT 041320Z 02005KT 9999 FEW012 M07/M10 Q1038 R88/190095 NOSIG
12-02-04 METAR EDDT 041350Z 03004KT 9999 FEW018 M06/M11 Q1038 R88/190095 NOSIG
12-02-04 METAR EDDT 041420Z 03002KT 9999 SCT020 M06/M11 Q1038 R88/190095 NOSIG
12-02-04 METAR EDDT 041450Z 34006KT 9999 SCT015 BKN020 M06/M11 Q1038 R88/190095
12-02-04 METAR EDDT 041520Z VRB02KT 9999 FEW015 BKN030 M06/M11 Q1038 R88/190095
12-02-04 METAR EDDT 041550Z VRB01KT 9999 FEW018 BKN038 M07/M11 Q1038 R88/190095
12-02-04 METAR EDDT 041620Z 32003KT 9999 FEW020 SCT033 M07/M12 Q1038 R88/190095
12-02-04 METAR EDDT 041650Z 32004KT 9999 FEW013 SCT025 M08/M12 Q1038 R88/190095
12-02-04 METAR EDDT 041720Z 30003KT 9999 FEW015 SCT025 M08/M12 Q1038 R88/190095
12-02-04 METAR EDDT 041750Z 31003KT 9999 FEW015 M09/M12 Q1038 R88/190095 NOSIG
12-02-04 METAR EDDT 041820Z 31003KT 9999 FEW020 M10/M13 Q1038 R88/190095 NOSIG
12-02-04 METAR EDDT 041850Z VRB01KT 9999 FEW020 M11/M13 Q1038 R88/190095 NOSIG
12-02-04 METAR EDDT 041920Z 30003KT CAVOK M11/M13 Q1038 R88/190095 NOSIG
12-02-04 METAR EDDT 041950Z VRB02KT CAVOK M11/M13 Q1038 R88/190095 NOSIG
12-02-04 METAR EDDT 042020Z 27002KT CAVOK M13/M15 Q1038 R88/190095 NOSIG
12-02-04 METAR EDDT 042050Z 26002KT CAVOK M13/M15 Q1038 R88/190095 NOSIG
12-02-04 METAR EDDT 042120Z 27001KT CAVOK M14/M16 Q1038 R88/190095 NOSIG
12-02-04 METAR EDDT 042150Z 27002KT CAVOK M14/M16 Q1038 R88/190095 NOSIG
12-02-04 METAR EDDT 042220Z 24002KT CAVOK M14/M16 Q1038 R88/190095
12-02-04 METAR EDDT 042250Z 25002KT CAVOK M14/M16 Q1038 R88/190095
12-02-04 METAR EDDT 042320Z 26002KT CAVOK M15/M17 Q1037 R88/190095
12-02-04 METAR EDDT 042350Z 28002KT CAVOK M16/M18 Q1037 R88/190095
12-02-05 METAR EDDT 042350Z 28002KT CAVOK M16/M18 Q1037 R88/190095
12-02-05 METAR EDDT 050020Z 32001KT CAVOK M16/M18 Q1037 R88/190095
12-02-05 METAR EDDT 050050Z 26002KT 9999 FEW025 M16/M19 Q1037 R88/190095
12-02-05 METAR EDDT 050120Z VRB01KT 9999 FEW040 M17/M19 Q1037 R88/190095
12-02-05 METAR EDDT 050150Z VRB01KT 9999 FEW040 M17/M19 Q1036 R88/190095
12-02-05 METAR EDDT 050220Z VRB01KT 9999 FEW040 M17/M19 Q1036 R88/190095
12-02-05 METAR EDDT 050250Z VRB01KT 9999 FEW040 M17/M19 Q1036 R88/190095
12-02-05 METAR EDDT 050320Z 34001KT 9999 FEW040 M18/M20 Q1036 R88/190095
12-02-05 METAR EDDT 050350Z VRB01KT CAVOK M18/M20 Q1036 R88/190095 NOSIG
12-02-05 METAR EDDT 050420Z 29003KT CAVOK M17/M19 Q1036 R88/190095 NOSIG
12-02-05 METAR EDDT 050450Z 29001KT CAVOK M17/M19 Q1037 R88/190095 NOSIG
12-02-05 METAR EDDT 050520Z 24001KT CAVOK M18/M20 Q1037 R88/190095 BECMG 2000 -SG BKN004
12-02-05 METAR EDDT 050550Z 00000KT CAVOK M18/M20 Q1037 R88/190095 BECMG 2000 -SG
12-02-05 METAR EDDT 050620Z 30001KT CAVOK M17/M19 Q1037 R88/190095 BECMG 2000 -SG
12-02-05 METAR EDDT 050650Z 18001KT 9999 FEW003 BKN015 M17/M19 Q1037 R88/190095 BECMG 2000 -SG BKN004
12-02-05 METAR EDDT 050720Z VRB02KT 9999 -SN FEW003 BKN013 M14/M15 Q1037 R88/190095
12-02-05 METAR EDDT 050750Z 04003KT 9999 -SN FEW002 BKN012 M12/M14 Q1037 R88/190095
12-02-05 METAR EDDT 050820Z 05004KT 9999 -SN FEW005 BKN012 M12/M13 Q1037 R88/190095
12-02-05 METAR EDDT 050850Z 06005KT 9000 -SN FEW004 SCT008 BKN012 M11/M13 Q1038 R88/190095 BECMG 2000 -SG BKN004
12-02-05 METAR EDDT 050920Z 05006KT 8000 -SN FEW005 BKN008 M11/M13 Q1038 R88/190095 TEMPO 4000 -SN BKN012
12-02-05 METAR EDDT 050950Z 07008KT 7000 -SN FEW006 BKN009 M11/M13 Q1038 R88/190095
12-02-05 METAR EDDT 051020Z 08007KT 5000 -SN FEW004 BKN009 M11/M13 Q1038 R88/190095
12-02-05 METAR EDDT 051050Z 07007KT 2800 -SN FEW008 BKN012 M11/M14 Q1038 R88/290195 BECMG 3000 -SN BKN015
12-02-05 METAR EDDT 051120Z 07007KT 3700 -SN FEW008 BKN014 M11/M14 Q1038 R88/290195 BECMG 5000 BKN015
12-02-05 METAR EDDT 051150Z 06004KT 4500 -SN FEW010 BKN014 M11/M13 Q1038 R88/290195
12-02-05 METAR EDDT 051220Z 07005KT 7000 -SN BKN013 M10/M13 Q1038 R88/290195 BECMG BKN015
12-02-05 METAR EDDT 051250Z 06004KT 6000 -SN BKN014 M10/M13 Q1038 R88/290195 BECMG
12-02-05 METAR EDDT 051320Z 03004KT 7000 -SN BKN014 M10/M13 Q1038 R88/290195 BECMG
12-02-05 METAR EDDT 051350Z 08004KT 7000 -SN BKN014 M09/M13 Q1038 R88/290195 BECMG
12-02-05 METAR EDDT 051420Z 07008KT 7000 -SN BKN015 M09/M13 Q1038 R88/290195 NOSIG
12-02-05 METAR EDDT 051450Z 09008KT 7000 -SN BKN017 M09/M13 Q1038 R88/290195 NOSIG
12-02-05 METAR EDDT 051520Z 09007KT 8000 -SN BKN018 M10/M14 Q1038 R88/290195 NOSIG
12-02-05 METAR EDDT 051550Z 10007KT 7000 -SN BKN018 M09/M13 Q1038 R88/290195 NOSIG
12-02-05 METAR EDDT 051620Z 15005KT 9000 -SN FEW017 BKN023 M10/M14 Q1038 R88/290195 NOSIG
12-02-05 METAR EDDT 051650Z 14005KT 9999 -SN BKN022 M09/M14 Q1038 R88/290195 NOSIG
12-02-05 METAR EDDT 051720Z 10006KT 080V140 9999 -SN BKN019 M09/M13 Q1038 R88/290195
12-02-05 METAR EDDT 051750Z 08007KT 9999 FEW010 SCT018 M10/M14 Q1038 R88/290195
12-02-05 METAR EDDT 051820Z 09006KT 9999 FEW010 M10/M14 Q1038 R88/290195 NOSIG
12-02-05 METAR EDDT 051850Z 06004KT CAVOK M11/M14 Q1038 R88/290195 NOSIG
12-02-05 METAR EDDT 051920Z 03005KT 9999 FEW019 M11/M14 Q1039 R88/290195 NOSIG
12-02-05 METAR EDDT 051950Z 05005KT 9999 FEW019 M12/M15 Q1039 R88/290195 NOSIG
12-02-05 METAR EDDT 052020Z 05004KT 9999 FEW019 M12/M15 Q1039 R88/290195 NOSIG
12-02-05 METAR EDDT 052050Z 05004KT CAVOK M13/M16 Q1039 R88/290195 NOSIG
12-02-05 METAR EDDT 052120Z 02004KT CAVOK M13/M16 Q1039 R88/290195 NOSIG
12-02-05 METAR EDDT 052150Z 09006KT CAVOK M13/M18 Q1039 R88/290195 NOSIG
12-02-05 METAR EDDT 052220Z 10008KT CAVOK M13/M19 Q1039 R88/290195
12-02-05 METAR EDDT 052250Z 06006KT CAVOK M14/M18 Q1039 R88/290195
12-02-05 METAR EDDT 052320Z 06005KT CAVOK M14/M18 Q1039 R88/290195
12-02-05 METAR EDDT 052350Z 05004KT CAVOK M15/M18 Q1039 R88/290195
12-02-06 METAR EDDT 052350Z 05004KT CAVOK M15/M18 Q1039 R88/290195
12-02-06 METAR EDDT 060020Z 05005KT CAVOK M15/M18 Q1039 R88/290195
12-02-06 METAR EDDT 060050Z 05005KT CAVOK M15/M19 Q1039 R88/290195
12-02-06 METAR EDDT 060120Z 04004KT CAVOK M16/M19 Q1039 R88/290195
12-02-06 METAR EDDT 060150Z 04005KT CAVOK M16/M20 Q1039 R88/290195
12-02-06 METAR EDDT 060220Z 03004KT CAVOK M16/M20 Q1039 R88/290195
12-02-06 METAR EDDT 060250Z 03004KT CAVOK M17/M20 Q1039 R88/290195
12-02-06 METAR EDDT 060320Z 04004KT CAVOK M17/M20 Q1039 R88/290195
12-02-06 METAR EDDT 060350Z 05005KT CAVOK M17/M20 Q1039 R88/290195 NOSIG
12-02-06 METAR EDDT 060420Z 03004KT CAVOK M17/M21 Q1039 R88/290195 NOSIG
12-02-06 METAR EDDT 060450Z 04004KT CAVOK M18/M21 Q1039 R88/290195 NOSIG
12-02-06 METAR EDDT 060520Z 04004KT CAVOK M18/M21 Q1039 R88/290195 NOSIG
12-02-06 METAR EDDT 060550Z 03004KT CAVOK M18/M21 Q1039 R88/290195 NOSIG
12-02-06 METAR EDDT 060620Z 02004KT CAVOK M18/M21 Q1039 R88/290195 NOSIG
12-02-06 METAR EDDT 060650Z 03004KT 8000 NSC M18/M21 Q1039 R88/290195 NOSIG
12-02-06 METAR EDDT 060720Z 04004KT 8000 NSC M18/M21 Q1039 R88/290195 NOSIG
12-02-06 METAR EDDT 060750Z 04004KT 7000 NSC M17/M21 Q1039 R88/290195 NOSIG
12-02-06 METAR EDDT 060820Z 04005KT 7000 NSC M17/M21 Q1039 R88/290195 NOSIG
12-02-06 METAR EDDT 060850Z 05004KT 8000 NSC M15/M20 Q1039 R88/290195 NOSIG
12-02-06 METAR EDDT 060920Z 05004KT 8000 NSC M16/M20 Q1039 R88/290195 NOSIG
12-02-06 METAR EDDT 060950Z 06003KT 9000 NSC M15/M20 Q1039 R88/290195 NOSIG
12-02-06 METAR EDDT 061020Z 03004KT CAVOK M14/M20 Q1039 R88/290195 NOSIG
12-02-06 METAR EDDT 061050Z 05004KT CAVOK M13/M19 Q1039 R88/290195 NOSIG
12-02-06 METAR EDDT 061120Z 03003KT CAVOK M12/M19 Q1039 R88/290195 NOSIG
12-02-06 METAR EDDT 061150Z 09003KT CAVOK M12/M20 Q1038 R88/290195 NOSIG
12-02-06 METAR EDDT 061220Z 07004KT 050V110 CAVOK M12/M19 Q1038 R88/290195 NOSIG
12-02-06 METAR EDDT 061250Z 07004KT CAVOK M11/M19 Q1038 R88/290195 NOSIG
12-02-06 METAR EDDT 061320Z 03004KT CAVOK M11/M19 Q1038 R88/290195 NOSIG
12-02-06 METAR EDDT 061350Z 01005KT CAVOK M10/M19 Q1038 R88/290195 NOSIG
12-02-06 METAR EDDT 061420Z 03005KT CAVOK M10/M19 Q1037 R88/290195 NOSIG
12-02-06 METAR EDDT 061450Z 03004KT CAVOK M10/M19 Q1037 R88/290195 NOSIG
12-02-06 METAR EDDT 061520Z 02004KT CAVOK M10/M19 Q1038 R88/290195 NOSIG
12-02-06 METAR EDDT 061550Z 04005KT CAVOK M11/M19 Q1038 R88/290195 NOSIG
12-02-06 METAR EDDT 061620Z 05006KT CAVOK M11/M19 Q1038 R88/290195 NOSIG
12-02-06 METAR EDDT 061650Z 02003KT CAVOK M12/M19 Q1038 R88/290195 NOSIG
12-02-06 METAR EDDT 061720Z 02004KT CAVOK M12/M19 Q1038 R88/290195 NOSIG
12-02-06 METAR EDDT 061750Z 02005KT CAVOK M12/M19 Q1038 R88/290195 NOSIG
12-02-06 METAR EDDT 061820Z 02004KT CAVOK M13/M19 Q1039 R88/190095 NOSIG
12-02-06 METAR EDDT 061850Z 02003KT CAVOK M13/M18 Q1038 R88/190095 NOSIG
12-02-06 METAR EDDT 061920Z 36003KT CAVOK M13/M18 Q1038 R88/190095 NOSIG
12-02-06 METAR EDDT 061950Z 36002KT CAVOK M13/M18 Q1038 R88/190095 NOSIG
12-02-06 METAR EDDT 062020Z 36002KT CAVOK M14/M19 Q1038 R88/190095 NOSIG
12-02-06 METAR EDDT 062050Z 30001KT CAVOK M14/M19 Q1038 R88/190095 NOSIG
12-02-06 METAR EDDT 062120Z 25002KT CAVOK M14/M19 Q1038 R88/190095 NOSIG
12-02-06 METAR EDDT 062150Z 34001KT CAVOK M15/M19 Q1039 R88/190095 NOSIG
12-02-06 METAR EDDT 062220Z 31002KT CAVOK M15/M19 Q1039 R88/190095
12-02-06 METAR EDDT 062250Z 32002KT CAVOK M15/M19 Q1039 R88/190095
12-02-06 METAR EDDT 062320Z 31002KT CAVOK M16/M19 Q1038 R88/190095
12-02-06 METAR EDDT 062350Z 26002KT CAVOK M17/M21 Q1039 R88/190095
12-02-07 METAR EDDT 062350Z 26002KT CAVOK M17/M21 Q1039 R88/190095
12-02-07 METAR EDDT 070020Z 32001KT CAVOK M16/M19 Q1039 R88/190095
12-02-07 METAR EDDT 070050Z 27002KT CAVOK M16/M19 Q1038 R88/190095
12-02-07 METAR EDDT 070120Z 25002KT CAVOK M17/M20 Q1039 R88/190095
12-02-07 METAR EDDT 070150Z 26002KT CAVOK M19/M22 Q1039 R88/190095
12-02-07 METAR EDDT 070220Z 29002KT CAVOK M19/M22 Q1038 R88/190095
12-02-07 METAR EDDT 070250Z 30001KT CAVOK M18/M21 Q1038 R88/190095
12-02-07 METAR EDDT 070320Z 28002KT CAVOK M18/M20 Q1038 R88/190095
12-02-07 METAR EDDT 070350Z 26002KT CAVOK M17/M19 Q1038 R88/190095 NOSIG
12-02-07 METAR EDDT 070420Z 27002KT CAVOK M17/M19 Q1038 R88/190095 NOSIG
12-02-07 METAR EDDT 070450Z VRB01KT CAVOK M17/M19 Q1038 R88/190095 NOSIG
12-02-07 METAR EDDT 070520Z 30002KT CAVOK M17/M20 Q1038 R88/190095 NOSIG
12-02-07 METAR EDDT 070550Z 31002KT CAVOK M15/M16 Q1038 R88/190095 NOSIG
12-02-07 METAR EDDT 070620Z 36003KT CAVOK M14/M16 Q1039 R88/190095 NOSIG
12-02-07 METAR EDDT 070650Z 01003KT CAVOK M13/M16 Q1039 R88/190095 NOSIG
12-02-07 METAR EDDT 070720Z 02003KT CAVOK M13/M16 Q1039 R88/190095 NOSIG
12-02-07 METAR EDDT 070750Z 05004KT 9999 FEW045 SCT058 BKN100 M13/M16 Q1039 R88/190095 NOSIG
12-02-07 METAR EDDT 070820Z 05006KT 9999 FEW040 SCT058 BKN100 M12/M16 Q1040
12-02-07 METAR EDDT 070850Z 03006KT 9999 FEW040 SCT080 BKN100 M12/M15 Q1040
12-02-07 METAR EDDT 070920Z 04007KT CAVOK M11/M14 Q1040 R88/190095 NOSIG
12-02-07 METAR EDDT 070950Z 05008KT CAVOK M10/M14 Q1040 R88/190095 NOSIG
12-02-07 METAR EDDT 071020Z 04007KT CAVOK M10/M14 Q1040 R88/190095 NOSIG
12-02-07 METAR EDDT 071050Z 04006KT CAVOK M10/M14 Q1040 R88/190095 NOSIG
12-02-07 METAR EDDT 071120Z 05008KT CAVOK M09/M13 Q1040 R88/190095 NOSIG
12-02-07 METAR EDDT 071150Z 04007KT CAVOK M08/M13 Q1040 R88/190095 NOSIG
12-02-07 METAR EDDT 071220Z 04006KT CAVOK M08/M13 Q1040 R88/190095 NOSIG
12-02-07 METAR EDDT 071250Z 04007KT 9999 FEW021 SCT090 BKN230 M07/M13 Q1040
12-02-07 METAR EDDT 071320Z 03008KT 9999 FEW022 SCT090 BKN120 M07/M12 Q1040
12-02-07 METAR EDDT 071350Z 04008KT 9999 FEW022 BKN120 M07/M12 Q1040 R88/190095
12-02-07 METAR EDDT 071420Z 04007KT 9999 FEW023 OVC120 M07/M12 Q1040 R88/190095
12-02-07 METAR EDDT 071450Z 04008KT 9999 FEW022 OVC110 M07/M12 Q1040 R88/190095
12-02-07 METAR EDDT 071520Z 05008KT 9999 FEW021 OVC100 M07/M12 Q1040 R88/190095
12-02-07 METAR EDDT 071550Z 05007KT 9999 FEW021 BKN100 M07/M12 Q1040 R88/190095
12-02-07 METAR EDDT 071620Z 05007KT CAVOK M07/M12 Q1041 R88/190095 NOSIG
12-02-07 METAR EDDT 071650Z 03005KT CAVOK M07/M11 Q1041 R88/190095 NOSIG
12-02-07 METAR EDDT 071720Z 02005KT CAVOK M07/M11 Q1041 R88/190095 NOSIG
12-02-07 METAR EDDT 071750Z 03005KT CAVOK M07/M11 Q1041 R88/190095 NOSIG
12-02-07 METAR EDDT 071820Z 04005KT 9999 BKN040 M07/M11 Q1041 R88/190095 NOSIG
12-02-07 METAR EDDT 071850Z 03006KT 9999 BKN039 M06/M11 Q1041 R88/190095 NOSIG
12-02-07 METAR EDDT 071920Z 03006KT 9999 BKN039 M06/M11 Q1041 R88/190095 NOSIG
12-02-07 METAR EDDT 071950Z 04006KT 9999 BKN040 M06/M11 Q1041 R88/190095 NOSIG
12-02-07 METAR EDDT 072020Z 04007KT 9999 BKN043 M06/M10 Q1041 R88/190095 NOSIG
12-02-07 METAR EDDT 072050Z 04009KT 9999 BKN045 M06/M10 Q1042 R88/190095 NOSIG
12-02-07 METAR EDDT 072120Z 05009KT 9999 BKN045 M06/M10 Q1042 R88/190095 NOSIG
12-02-07 METAR EDDT 072150Z 05009KT 9999 FEW020 BKN250 M06/M10 Q1042 R88/190095
12-02-07 METAR EDDT 072220Z 05009KT 9999 BKN020 BKN250 M06/M10 Q1042 R88/190095
12-02-07 METAR EDDT 072250Z 06008KT 9999 FEW020 BKN250 M06/M10 Q1042 R88/190095
12-02-07 METAR EDDT 072320Z 06008KT 9999 FEW020 BKN250 M06/M10 Q1042 R88/190095
12-02-07 METAR EDDT 072350Z 05008KT 9999 FEW020 BKN250 M06/M11 Q1042 R88/190095
12-02-08 METAR EDDT 072350Z 05008KT 9999 FEW020 BKN250 M06/M11 Q1042 R88/190095
12-02-08 METAR EDDT 080020Z 05007KT 9999 FEW020 BKN250 M07/M11 Q1042 R88/190095
12-02-08 METAR EDDT 080050Z 05008KT 9999 FEW020 BKN250 M07/M11 Q1042 R88/190095
12-02-08 METAR EDDT 080120Z 05009KT CAVOK M07/M12 Q1042 R88/190095
12-02-08 METAR EDDT 080150Z 05009KT CAVOK M07/M12 Q1042 R88/190095
12-02-08 METAR EDDT 080220Z 05009KT CAVOK M08/M12 Q1042 R88/190095
12-02-08 METAR EDDT 080250Z 05008KT CAVOK M08/M11 Q1042 R88/190095
12-02-08 METAR EDDT 080320Z 06007KT CAVOK M08/M11 Q1042 R88/190095
12-02-08 METAR EDDT 080350Z 06011KT CAVOK M08/M12 Q1042 R88/190095 NOSIG
12-02-08 METAR EDDT 080420Z 07008KT CAVOK M08/M12 Q1042 R88/190095 NOSIG
12-02-08 METAR EDDT 080450Z 07007KT CAVOK M08/M12 Q1042 R88/190095 NOSIG
12-02-08 METAR EDDT 080520Z 06005KT CAVOK M09/M12 Q1042 R88/190095 NOSIG
12-02-08 METAR EDDT 080550Z 05004KT CAVOK M09/M12 Q1042 R88/190095 NOSIG
12-02-08 METAR EDDT 080620Z 05004KT CAVOK M09/M12 Q1042 R88/190095 NOSIG
12-02-08 METAR EDDT 080650Z 06004KT CAVOK M08/M12 Q1042 R88/190095 NOSIG
12-02-08 METAR EDDT 080720Z 04005KT CAVOK M08/M12 Q1042 R88/190095 NOSIG
12-02-08 METAR EDDT 080750Z 05006KT CAVOK M08/M12 Q1042 R88/190095 NOSIG
12-02-08 METAR EDDT 080820Z 04006KT CAVOK M08/M12 Q1042 R88/190095 NOSIG
12-02-08 METAR EDDT 080850Z 05006KT CAVOK M08/M12 Q1042 R88/190095 NOSIG
12-02-08 METAR EDDT 080920Z 05007KT CAVOK M07/M12 Q1042 R88/190095 NOSIG
12-02-08 METAR EDDT 080950Z 05008KT CAVOK M07/M12 Q1042 R88/190095 NOSIG
12-02-08 METAR EDDT 081020Z 07008KT CAVOK M06/M12 Q1042 R88/190095 NOSIG
12-02-08 METAR EDDT 081050Z 08007KT CAVOK M06/M12 Q1042 R88/190095 NOSIG
12-02-08 METAR EDDT 081120Z 05006KT CAVOK M06/M12 Q1041 R88/190095 NOSIG
12-02-08 METAR EDDT 081150Z 06008KT CAVOK M05/M11 Q1041 R88/190095 NOSIG
12-02-08 METAR EDDT 081220Z 06009KT CAVOK M05/M12 Q1041 R88/190095 NOSIG
12-02-08 METAR EDDT 081250Z 07008KT CAVOK M04/M12 Q1040 R88/190095 NOSIG
12-02-08 METAR EDDT 081320Z 08008KT CAVOK M04/M12 Q1040 R88/190095 NOSIG
12-02-08 METAR EDDT 081350Z 06006KT CAVOK M04/M11 Q1040 R88/190095 NOSIG
12-02-08 METAR EDDT 081420Z 05005KT CAVOK M04/M12 Q1039 R88/190095 NOSIG
12-02-08 METAR EDDT 081450Z 04003KT CAVOK M03/M11 Q1039 R88/190095 NOSIG
12-02-08 METAR EDDT 081520Z 02005KT CAVOK M04/M11 Q1039 R88/190095 NOSIG
12-02-08 METAR EDDT 081550Z 02004KT CAVOK M04/M10 Q1039 R88/190095 NOSIG
12-02-08 METAR EDDT 081620Z 01005KT CAVOK M04/M09 Q1039 R88/190095 NOSIG
12-02-08 METAR EDDT 081650Z 01003KT CAVOK M04/M09 Q1039 R88/190095 NOSIG
12-02-08 METAR EDDT 081720Z 01002KT CAVOK M05/M09 Q1039 R88/190095 NOSIG
12-02-08 METAR EDDT 081750Z 33002KT CAVOK M05/M09 Q1038 R88/190095 NOSIG
12-02-08 METAR EDDT 081820Z 29001KT CAVOK M07/M11 Q1038 R88/290195 NOSIG
12-02-08 METAR EDDT 081850Z 29002KT CAVOK M08/M12 Q1038 R88/290195 NOSIG
12-02-08 METAR EDDT 081920Z VRB01KT CAVOK M09/M12 Q1038 R88/290195 NOSIG
12-02-08 METAR EDDT 081950Z 30002KT CAVOK M09/M12 Q1037 R88/290195 NOSIG
12-02-08 METAR EDDT 082020Z VRB02KT CAVOK M09/M11 Q1037 R88/290195 NOSIG
12-02-08 METAR EDDT 082050Z 26002KT 9999 SCT028 SCT100 M09/M11 Q1037 R88/290195 NOSIG
12-02-08 METAR EDDT 082120Z 29002KT 9999 BKN028 M09/M10 Q1037 R88/290195 NOSIG
12-02-08 METAR EDDT 082150Z 29002KT 9999 BKN020 M08/M10 Q1036 R88/290195 NOSIG
12-02-08 METAR EDDT 082220Z 25003KT 9999 BKN021 M07/M09 Q1036 R88/290195
12-02-08 METAR EDDT 082250Z 26003KT 9999 BKN021 M07/M09 Q1036 R88/290195
12-02-08 METAR EDDT 082320Z 28003KT 9999 BKN021 BKN028 M07/M09 Q1036 R88/290195
12-02-08 METAR EDDT 082350Z 29003KT 9999 BKN027 M07/M09 Q1035 R88/290195
12-02-09 METAR EDDT 082350Z 29003KT 9999 BKN027 M07/M09 Q1035 R88/290195
12-02-09 METAR EDDT 090020Z 30004KT 9999 FEW021 BKN027 M07/M09 Q1035 R88/290195
12-02-09 METAR EDDT 090050Z 29003KT 9999 -SG BKN018 M06/M08 Q1035 R88/290195
12-02-09 METAR EDDT 090120Z 28003KT 9999 -SG FEW016 BKN020 M06/M08 Q1034 R88/290195
12-02-09 METAR EDDT 090150Z 27004KT 9999 -SG FEW010 OVC020 M06/M08 Q1034 R88/290195
12-02-09 METAR EDDT 090220Z 28006KT 9999 -SG FEW010 OVC017 M06/M07 Q1033 R88/290195
12-02-09 METAR EDDT 090250Z 27004KT 9999 -SG FEW008 OVC016 M05/M06 Q1033 R88/290195
12-02-09 METAR EDDT 090320Z 28006KT 9999 -SG FEW006 BKN018 M05/M06 Q1032 R88/290195
12-02-09 METAR EDDT 090350Z 27007KT 7000 -SG BKN005 M05/M06 Q1032 R88/290195 TEMPO 3000
12-02-09 METAR EDDT 090420Z 27009KT 6000 -SG BKN005 M05/M06 Q1031 R88/290195 TEMPO
12-02-09 METAR EDDT 090450Z 28007KT 5000 -FZDZ -SG BKN005 M04/M05 Q1031 R88/290195 TEMPO 3000 -SN BKN004
12-02-09 METAR EDDT 090520Z 28008KT 4500 -SG BR BKN005 M04/M05 Q1030 REFZDZ R88/290195 TEMPO 3000 -SN BKN004
12-02-09 METAR EDDT 090550Z 29008KT 1600 R26R/1400VP2000D R26L/P2000N SN BR BKN005 M04/M05 Q1030 RESG R88/290195 TEMPO 1400 SN BKN004
12-02-09 METAR EDDT 090620Z 31008KT 2400 -SN BR BKN005 M04/M05 Q1030 RESN R88/290195 BECMG 3500 -SN
12-02-09 METAR EDDT 090650Z 35006KT 1700 SN BR BKN005 BKN010 M03/M04 Q1030
12-02-09 METAR EDDT 090720Z 03005KT 3000 -SN BR BKN007 BKN026 M03/M04 Q1030 RESN R88/290195 BECMG 9999 BKN025
12-02-09 METAR EDDT 090750Z 01006KT 9999 FEW008 M03/M05 Q1030 R88/290195 NOSIG
12-02-09 METAR EDDT 090820Z 36007KT 9999 FEW012 M03/M06 Q1030 R88/290195 NOSIG
12-02-09 METAR EDDT 090850Z 36007G17KT 9999 FEW012 M03/M06 Q1030 R88/290195 NOSIG
12-02-09 METAR EDDT 090920Z 35008KT 9999 SCT016 M03/M06 Q1030 R88/290195 NOSIG
12-02-09 METAR EDDT 090950Z 01009KT 9999 -SHSN BKN020 M03/M07 Q1030 R88/290195 TEMPO 4000 SHSN BKN011
12-02-09 METAR EDDT 091020Z 01008KT 9999 BKN017 M03/M06 Q1030 R88/290195 NOSIG
12-02-09 METAR EDDT 091050Z 01008KT 9999 BKN017 BKN040 M03/M07 Q1030 R88/290195 NOSIG
12-02-09 METAR EDDT 091120Z 01010KT 4800 -SHSN BKN020 M03/M06 Q1031 R88/290195 BECMG 9999
12-02-09 METAR EDDT 091150Z 01010KT 6000 -SHSN BKN016 M03/M06 Q1031 R88/290195
12-02-09 METAR EDDT 091220Z 02010KT 9999 BKN016 M03/M05 Q1031 R88/290195 NOSIG
12-02-09 METAR EDDT 091250Z 04010KT 9999 BKN016 BKN023 M02/M05 Q1032 R88/290195
12-02-09 METAR EDDT 091320Z 05010KT 9999 BKN016 M03/M06 Q1032 R88/290195 NOSIG
12-02-09 METAR EDDT 091350Z 05012KT 9999 BKN016 M03/M06 Q1033 R88/290195 NOSIG
12-02-09 METAR EDDT 091420Z 04013KT 9999 BKN018 M03/M07 Q1033 R88/290195 NOSIG
12-02-09 METAR EDDT 091450Z 04012KT 9999 BKN018 M03/M07 Q1034 R88/290195 NOSIG
12-02-09 METAR EDDT 091520Z 05012KT 9999 BKN023 M04/M08 Q1034 R88/290195 NOSIG
12-02-09 METAR EDDT 091550Z 05012KT 9999 BKN020 M04/M08 Q1035 R88/290195 NOSIG
12-02-09 METAR EDDT 091620Z 06013KT 9999 BKN020 M05/M09 Q1035 R88/290195 NOSIG
12-02-09 METAR EDDT 091650Z 05013KT 9999 BKN020 M05/M10 Q1036 R88/290195 NOSIG
12-02-09 METAR EDDT 091720Z 05009KT 9999 BKN020 M05/M10 Q1036 R88/290195 NOSIG
12-02-09 METAR EDDT 091750Z 05008KT 9999 BKN020 M05/M10 Q1037 R88/290195 NOSIG
12-02-09 METAR EDDT 091820Z 04007KT 9999 BKN020 M05/M10 Q1037 R88/290195 NOSIG
12-02-09 METAR EDDT 091850Z 04011G21KT 9999 BKN025 M06/M11 Q1037 R88/290195 NOSIG
12-02-09 METAR EDDT 091920Z 04012KT 9999 BKN023 M06/M11 Q1038 R88/290195 NOSIG
12-02-09 METAR EDDT 091950Z 04010KT 9999 BKN024 M06/M11 Q1038 R88/290195 NOSIG
12-02-09 METAR EDDT 092020Z 05011KT 9999 BKN022 M07/M11 Q1039 R88/290195 NOSIG
12-02-09 METAR EDDT 092050Z 06010KT 9999 BKN017 M07/M12 Q1039 R88/290195 NOSIG
12-02-09 METAR EDDT 092120Z 06009KT 9999 FEW020 M08/M13 Q1039 R88/290195 NOSIG
12-02-09 METAR EDDT 092150Z 07009KT 9999 FEW024 M09/M13 Q1040 R88/290195 NOSIG
12-02-09 METAR EDDT 092220Z 05006KT 9999 FEW020 M09/M13 Q1040 R88/290195
12-02-09 METAR EDDT 092250Z 05007KT CAVOK M10/M13 Q1040 R88/290195
12-02-09 METAR EDDT 092320Z 05007KT CAVOK M10/M13 Q1041 R88/290195
12-02-09 METAR EDDT 092350Z 05007KT CAVOK M10/M13 Q1041 R88/290195
12-02-10 METAR EDDT 092350Z 05007KT CAVOK M10/M13 Q1041 R88/290195
12-02-10 METAR EDDT 100020Z 05006KT CAVOK M10/M14 Q1041 R88/290195
12-02-10 METAR EDDT 100050Z 05008KT CAVOK M11/M14 Q1041 R88/290195
12-02-10 METAR EDDT 100120Z 05007KT CAVOK M11/M14 Q1041 R88/290195
12-02-10 METAR EDDT 100150Z 05006KT CAVOK M11/M14 Q1041 R88/290195
12-02-10 METAR EDDT 100220Z 04003KT CAVOK M11/M14 Q1041 R88/290195
12-02-10 METAR EDDT 100250Z 04002KT CAVOK M12/M14 Q1041 R88/290195
12-02-10 METAR EDDT 100320Z 02002KT CAVOK M12/M14 Q1041 R88/290195
12-02-10 METAR EDDT 100350Z 04001KT CAVOK M12/M15 Q1041 R88/290195 NOSIG
12-02-10 METAR EDDT 100420Z 03002KT CAVOK M12/M15 Q1042 R88/290195 NOSIG
12-02-10 METAR EDDT 100450Z 36002KT CAVOK M12/M15 Q1042 R88/290195 NOSIG
12-02-10 METAR EDDT 100520Z 01003KT CAVOK M13/M15 Q1042 R88/290195 NOSIG
12-02-10 METAR EDDT 100550Z 04003KT CAVOK M13/M15 Q1042 R88/290195 NOSIG
12-02-10 METAR EDDT 100620Z 03003KT 8000 NSC M13/M15 Q1042 R88/290195 NOSIG
12-02-10 METAR EDDT 100650Z 36001KT 8000 NSC M13/M15 Q1042 R88/290195 NOSIG
12-02-10 METAR EDDT 100720Z 34001KT 8000 NSC M13/M15 Q1043 R88/290195 NOSIG
12-02-10 METAR EDDT 100750Z 03002KT 9000 NSC M12/M14 Q1043 R88/290195 NOSIG
12-02-10 METAR EDDT 100820Z 06003KT 9000 NSC M11/M14 Q1043 R88/290195 NOSIG
12-02-10 METAR EDDT 100850Z 06005KT CAVOK M11/M14 Q1043 R88/290195 NOSIG
12-02-10 METAR EDDT 100920Z 06004KT CAVOK M10/M14 Q1043 R88/D NOSIG
12-02-10 METAR EDDT 100920Z 06004KT CAVOK M10/M14 Q1043 R88/CLRD// NOSIG
12-02-10 METAR EDDT 100950Z 05003KT CAVOK M10/M13 Q1043 R88/CLRD// NOSIG
12-02-10 METAR EDDT 100950Z 05003KT CAVOK M10/M13 Q1043 R88/D NOSIG
12-02-10 METAR EDDT 101020Z 07006KT CAVOK M09/M13 Q1043 R88/D NOSIG
12-02-10 METAR EDDT 101020Z 07006KT CAVOK M09/M13 Q1043 R88/CLRD// NOSIG
12-02-10 METAR EDDT 101050Z 06006KT CAVOK M08/M13 Q1043 R88/CLRD// NOSIG
12-02-10 METAR EDDT 101050Z 06006KT CAVOK M08/M13 Q1043 R88/D NOSIG
12-02-10 METAR EDDT 101120Z 06006KT CAVOK M08/M13 Q1043 R88/CLRD// NOSIG
12-02-10 METAR EDDT 101120Z 06006KT CAVOK M08/M13 Q1043 R88/D NOSIG
12-02-10 METAR EDDT 101150Z 08008KT CAVOK M07/M12 Q1042 NOSIG
12-02-10 METAR EDDT 101220Z 08010KT 9999 FEW015 M06/M12 Q1042 NOSIG
12-02-10 METAR EDDT 101250Z 07008KT 9999 FEW020 M06/M12 Q1042 NOSIG
12-02-10 METAR EDDT 101320Z 08011KT 9999 FEW020 M06/M12 Q1042 NOSIG
12-02-10 METAR EDDT 101350Z 08008KT 9999 FEW024 M06/M12 Q1042 NOSIG
12-02-10 METAR EDDT 101420Z 04009KT 9999 FEW025 M06/M12 Q1041 NOSIG
12-02-10 METAR EDDT 101450Z 06010KT 9999 FEW025 M06/M12 Q1041 NOSIG
12-02-10 METAR EDDT 101520Z 04006KT 9999 FEW016 M06/M12 Q1041 NOSIG
12-02-10 METAR EDDT 101550Z 04003KT 9999 SCT023 SCT033 M06/M12 Q1041 NOSIG
12-02-10 METAR EDDT 101620Z 02003KT 9999 SCT023 SCT033 M06/M12 Q1041 NOSIG
12-02-10 METAR EDDT 101650Z 02003KT 9999 SCT020 BKN032 M06/M11 Q1040 NOSIG
12-02-10 METAR EDDT 101720Z 01003KT 9999 -SN SCT025 BKN030 M06/M11 Q1040 NOSIG
12-02-10 METAR EDDT 101750Z VRB01KT 9999 -SN BKN028 M06/M11 Q1040 NOSIG
12-02-10 METAR EDDT 101820Z 31001KT 9999 -SN BKN028 M06/M11 Q1040 NOSIG
12-02-10 METAR EDDT 101850Z VRB02KT 9999 SCT015 BKN028 M06/M11 Q1040 NOSIG
12-02-10 METAR EDDT 101920Z 29002KT 9999 -SN FEW015 BKN030 M06/M11 Q1040 NOSIG
12-02-10 METAR EDDT 101950Z 29002KT 9999 -SN SCT016 BKN030 M06/M11 Q1040 NOSIG
12-02-10 METAR EDDT 102020Z 29001KT 9999 -SN SCT016 BKN027 M06/M10 Q1040 NOSIG
12-02-10 METAR EDDT 102050Z 26002KT 9999 -SN FEW016 BKN030 M06/M10 Q1040 NOSIG
12-02-10 METAR EDDT 102120Z VRB02KT 9999 -SN FEW016 BKN030 M06/M10 Q1040 NOSIG
12-02-10 METAR EDDT 102150Z VRB01KT 9999 -SN FEW016 BKN030 M06/M10 Q1039 NOSIG
12-02-10 METAR EDDT 102220Z VRB02KT 9999 -SN FEW016 BKN030 M06/M10 Q1039
12-02-10 METAR EDDT 102250Z 21004KT 9999 -SN FEW016 BKN027 M07/M10 Q1039
12-02-10 METAR EDDT 102320Z 23005KT 9999 -SN FEW016 BKN027 M07/M10 Q1039
12-02-10 METAR EDDT 102350Z 25004KT 9999 -SN FEW016 BKN027 M07/M10 Q1039
12-02-11 METAR EDDT 102350Z 25004KT 9999 -SN FEW016 BKN027 M07/M10 Q1039
12-02-11 METAR EDDT 110020Z 26003KT 9999 -SN FEW016 BKN027 M07/M10 Q1039
12-02-11 METAR EDDT 110050Z 28003KT 9999 -SN FEW016 BKN027 M07/M10 Q1039
12-02-11 METAR EDDT 110120Z 26002KT 9999 -SN BKN013 BKN027 M07/M10 Q1038
12-02-11 METAR EDDT 110150Z 28003KT 9999 -SN SCT005 BKN012 M07/M10 Q1038
12-02-11 METAR EDDT 110220Z 26002KT 9999 -SN SCT005 BKN012 M07/M10 Q1038
12-02-11 METAR EDDT 110250Z 27002KT 9999 -SN SCT005 BKN012 BKN025 M07/M10 Q1037
12-02-11 METAR EDDT 110320Z 28002KT 9999 -SN SCT005 BKN012 BKN025 M07/M09 Q1037
12-02-11 METAR EDDT 110350Z 28003KT 9999 -SN FEW005 BKN011 BKN022 M07/M09 Q1037 TEMPO BKN008
12-02-11 METAR EDDT 110420Z 27002KT 9999 -SN FEW005 BKN011 BKN020 M07/M09 Q1037
12-02-11 METAR EDDT 110450Z 28003KT 9999 -SN FEW005 BKN011 BKN020 M07/M09 Q1037
12-02-11 METAR EDDT 110520Z 28002KT 9999 FEW005 BKN011 BKN020 M07/M09 Q1037 TEMPO
12-02-11 METAR EDDT 110550Z 30002KT 9000 FEW011 BKN019 M07/M09 Q1036 NOSIG
12-02-11 METAR EDDT 110620Z 28001KT 8000 SCT011 BKN019 M07/M09 Q1036 NOSIG
12-02-11 METAR EDDT 110650Z 10004KT 090V160 8000 FEW011 BKN019 M07/M10 Q1037 NOSIG
12-02-11 METAR EDDT 110720Z 09007KT 9000 BKN019 M07/M11 Q1037 NOSIG
12-02-11 METAR EDDT 110750Z 07007KT 9999 BKN019 M07/M11 Q1037 NOSIG
12-02-11 METAR EDDT 110820Z 08006KT 9999 FEW011 BKN019 M07/M11 Q1037 NOSIG
12-02-11 METAR EDDT 110850Z 07006KT 9999 FEW010 BKN018 M07/M11 Q1038 NOSIG
12-02-11 METAR EDDT 110920Z 07007KT 9999 -SN BKN018 M07/M11 Q1038 NOSIG
12-02-11 METAR EDDT 110950Z 06005KT 9999 -SN FEW011 BKN017 M07/M11 Q1038 NOSIG
12-02-11 METAR EDDT 111020Z 11006KT 9999 -SN BKN017 M07/M11 Q1038 NOSIG
12-02-11 METAR EDDT 111050Z 06006KT 9999 BKN017 M07/M11 Q1037 NOSIG
12-02-11 METAR EDDT 111120Z 09004KT 060V140 9999 BKN017 M07/M11 Q1037 NOSIG
12-02-11 METAR EDDT 111150Z VRB03KT 9999 FEW013 SCT019 M07/M12 Q1037 NOSIG
12-02-11 METAR EDDT 111220Z 07005KT 9999 FEW013 SCT019 M07/M12 Q1037 NOSIG
12-02-11 METAR EDDT 111250Z 07003KT 9999 FEW014 M07/M12 Q1037 NOSIG
12-02-11 METAR EDDT 111320Z 07004KT 9999 FEW020 M06/M12 Q1036 NOSIG
12-02-11 METAR EDDT 111350Z 06003KT 9999 FEW020 M06/M12 Q1036 NOSIG
12-02-11 METAR EDDT 111420Z 09003KT CAVOK M06/M12 Q1036 NOSIG
12-02-11 METAR EDDT 111450Z 06004KT CAVOK M06/M12 Q1036 NOSIG
12-02-11 METAR EDDT 111520Z 06004KT CAVOK M06/M12 Q1036 NOSIG
12-02-11 METAR EDDT 111550Z 08006KT CAVOK M07/M12 Q1036 NOSIG
12-02-11 METAR EDDT 111620Z 08007KT CAVOK M08/M12 Q1036 NOSIG
12-02-11 METAR EDDT 111650Z 08005KT CAVOK M08/M13 Q1036 NOSIG
12-02-11 METAR EDDT 111720Z 08005KT CAVOK M08/M13 Q1036 NOSIG
12-02-11 METAR EDDT 111750Z 03002KT CAVOK M08/M13 Q1036 NOSIG
12-02-11 METAR EDDT 111820Z VRB01KT CAVOK M09/M13 Q1036 NOSIG
12-02-11 METAR EDDT 111850Z 33001KT CAVOK M09/M13 Q1036 NOSIG
12-02-11 METAR EDDT 111920Z VRB01KT CAVOK M10/M13 Q1036 NOSIG
12-02-11 METAR EDDT 111950Z VRB01KT CAVOK M11/M14 Q1036 NOSIG
12-02-11 METAR EDDT 112020Z 32001KT CAVOK M12/M15 Q1036 NOSIG
12-02-11 METAR EDDT 112050Z 30002KT CAVOK M12/M15 Q1035 NOSIG
12-02-11 METAR EDDT 112120Z VRB01KT CAVOK M13/M16 Q1035 NOSIG
12-02-11 METAR EDDT 112150Z VRB01KT CAVOK M13/M15 Q1035 NOSIG
12-02-11 METAR EDDT 112220Z 31002KT CAVOK M13/M15 Q1035
12-02-11 METAR EDDT 112250Z 30001KT CAVOK M14/M15 Q1035
12-02-11 METAR EDDT 112320Z 29001KT CAVOK M14/M16 Q1035
12-02-11 METAR EDDT 112350Z 33001KT CAVOK M14/M17 Q1035
12-02-12 METAR EDDT 112350Z 33001KT CAVOK M14/M17 Q1035
12-02-12 METAR EDDT 120020Z 30001KT CAVOK M15/M17 Q1034
12-02-12 METAR EDDT 120050Z 33001KT CAVOK M15/M17 Q1034
12-02-12 METAR EDDT 120120Z 33001KT CAVOK M14/M16 Q1034
12-02-12 METAR EDDT 120150Z 34002KT CAVOK M14/M16 Q1034
12-02-12 METAR EDDT 120220Z VRB01KT CAVOK M14/M17 Q1034
12-02-12 METAR EDDT 120250Z 18001KT CAVOK M14/M16 Q1033
12-02-12 METAR EDDT 120320Z 20001KT CAVOK M14/M16 Q1033
12-02-12 METAR EDDT 120350Z 25002KT CAVOK M13/M15 Q1033 NOSIG
12-02-12 METAR EDDT 120420Z 22003KT CAVOK M12/M14 Q1033 NOSIG
12-02-12 METAR EDDT 120450Z VRB02KT CAVOK M12/M14 Q1032 NOSIG
12-02-12 METAR EDDT 120520Z 22003KT CAVOK M11/M13 Q1032 NOSIG
12-02-12 METAR EDDT 120550Z 23002KT CAVOK M12/M14 Q1032 NOSIG
12-02-12 METAR EDDT 120620Z 22003KT 9000 NSC M12/M14 Q1032 NOSIG
12-02-12 METAR EDDT 120650Z 23002KT 8000 NSC M12/M14 Q1032 NOSIG
12-02-12 METAR EDDT 120720Z 26003KT 6000 NSC M11/M13 Q1032 NOSIG
12-02-12 METAR EDDT 120750Z 22004KT 6000 NSC M11/M12 Q1032 NOSIG
12-02-12 METAR EDDT 120820Z 25006KT 8000 NSC M10/M12 Q1031 NOSIG
12-02-12 METAR EDDT 120850Z 25008KT 8000 NSC M09/M12 Q1031 NOSIG
12-02-12 METAR EDDT 120920Z 24006KT 9000 NSC M08/M11 Q1031 NOSIG
12-02-12 METAR EDDT 120950Z 25009KT 9000 NSC M07/M11 Q1031 NOSIG
12-02-12 METAR EDDT 121020Z 25007KT CAVOK M07/M10 Q1031 NOSIG
12-02-12 METAR EDDT 121050Z 25008KT 9999 BKN022 M06/M10 Q1030 NOSIG
12-02-12 METAR EDDT 121120Z 23009KT 9999 FEW025 BKN100 M06/M10 Q1030 NOSIG
12-02-12 METAR EDDT 121150Z 25009KT 9999 FEW030 BKN110 M05/M10 Q1029 NOSIG
12-02-12 METAR EDDT 121220Z 26010KT 9999 BKN023 BKN030 M05/M10 Q1029 NOSIG
12-02-12 METAR EDDT 121250Z 25007KT 9999 BKN026 M05/M09 Q1029 NOSIG
12-02-12 METAR EDDT 121320Z 25010KT 9999 BKN030 M04/M09 Q1029 NOSIG
12-02-12 METAR EDDT 121350Z 25010KT 9999 BKN029 M04/M09 Q1028 NOSIG
12-02-12 METAR EDDT 121420Z 25010KT 9999 BKN029 M04/M09 Q1028 NOSIG
12-02-12 METAR EDDT 121450Z 25010KT 9999 BKN028 M04/M09 Q1027 NOSIG
12-02-12 METAR EDDT 121520Z 22010KT 9999 FEW025 SCT040 BKN056 M04/M09 Q1027 NOSIG
12-02-12 METAR EDDT 121550Z 23010KT 9999 FEW025 BKN044 M04/M09 Q1027 NOSIG
12-02-12 METAR EDDT 121620Z 25009KT 9999 -SN BKN035 M04/M09 Q1027 NOSIG
12-02-12 METAR EDDT 121650Z 23008KT 9999 -SN BKN030 M04/M09 Q1026 NOSIG
12-02-12 METAR EDDT 121720Z 21010KT 9999 BKN027 M04/M09 Q1026 NOSIG
12-02-12 METAR EDDT 121750Z 22009KT 9999 -SN BKN026 M04/M09 Q1026 NOSIG
12-02-12 METAR EDDT 121820Z 23009KT 9999 BKN024 M04/M09 Q1025 NOSIG
12-02-12 METAR EDDT 121850Z 24011KT 9999 BKN021 M05/M09 Q1025 NOSIG
12-02-12 METAR EDDT 121920Z 24009KT 9999 BKN020 M04/M09 Q1025 NOSIG
12-02-12 METAR EDDT 121950Z 25012KT 9999 BKN016 M05/M09 Q1024 NOSIG
12-02-12 METAR EDDT 122020Z 25009KT 9999 BKN015 M05/M08 Q1024 NOSIG
12-02-12 METAR EDDT 122050Z 25009KT 9999 BKN016 M04/M08 Q1024 BECMG BKN014
12-02-12 METAR EDDT 122120Z 25009KT 9999 -SN BKN018 M04/M07 Q1024 BECMG BKN014
12-02-12 METAR EDDT 122150Z 26009KT 7000 FEW011 BKN015 M04/M07 Q1024 BECMG BKN014
12-02-12 METAR EDDT 122220Z 26008KT 3000 SN SCT003 BKN011 M05/M06 Q1024
12-02-12 METAR EDDT 122250Z 24007KT 6000 -SG BKN008 M04/M06 Q1023 RESN
12-02-12 METAR EDDT 122320Z 26007KT 7000 -SG BKN008 M04/M06 Q1023
12-02-12 METAR EDDT 122350Z 26006KT 8000 BKN008 M04/M06 Q1023
12-02-13 METAR EDDT 122350Z 26006KT 8000 BKN008 M04/M06 Q1023
12-02-13 METAR EDDT 130020Z 27006KT 7000 BKN007 M04/M05 Q1023
12-02-13 METAR EDDT 130050Z 27007KT 6000 BKN006 M03/M05 Q1022
12-02-13 METAR EDDT 130120Z 28005KT 5000 BR BKN005 M03/M05 Q1022
12-02-13 METAR EDDT 130150Z 29006KT 4500 BR BKN005 M03/M04 Q1022
12-02-13 METAR EDDT 130220Z 29006KT 4000 BR BKN004 M03/M04 Q1022
12-02-13 METAR EDDT 130250Z 29005KT 4000 BR BKN004 M02/M04 Q1021
12-02-13 METAR EDDT 130320Z 29005KT 3500 BR BKN004 M02/M03 Q1021
12-02-13 METAR EDDT 130350Z 29005KT 3500 -SN BR BKN004 M02/M03 Q1021 NOSIG
12-02-13 METAR EDDT 130420Z 28005KT 210V290 3500 BR BKN005 M02/M03 Q1021 TEMPO BKN004
12-02-13 METAR EDDT 130450Z 29005KT 3800 BR BKN005 M02/M03 Q1021 TEMPO BKN004
12-02-13 METAR EDDT 130520Z 30006KT 3800 BR BKN005 M02/M03 Q1021 R88/290195 TEMPO
12-02-13 METAR EDDT 130550Z 29008KT 3800 BR BKN005 BKN024 M02/M03 Q1021 R88/290195 TEMPO 2800
12-02-13 METAR EDDT 130620Z 31005KT 3600 BR BKN005 BKN023 M02/M03 Q1021 R88/290195
12-02-13 METAR EDDT 130720Z 32004KT 3500 BR BKN005 BKN018 M02/M03 Q1021 R88/290195 TEMPO SCT005
12-02-13 METAR EDDT 130750Z 31005KT 3600 BR FEW005 BKN016 M02/M03 Q1021 R88/290195 TEMPO BKN005
12-02-13 METAR EDDT 130820Z 31004KT 3600 -SG BR FEW005 BKN015 M02/M03 Q1021
12-02-13 METAR EDDT 130850Z 30004KT 4000 BR SCT005 BKN016 M02/M03 Q1021 R88/290195 BECMG 5000
12-02-13 METAR EDDT 130920Z 30004KT 3200 -SG BR FEW005 BKN017 M01/M03 Q1020 R88/290195 BECMG 5000
12-02-13 METAR EDDT 130950Z 28004KT 3500 -SG BR SCT005 BKN018 M01/M03 Q1020 RESG
12-02-13 METAR EDDT 131020Z 28003KT 4200 -SG BR FEW005 BKN007 BKN018 M01/M03 Q1020 R88/290195 BECMG 5000 SCT007
12-02-13 METAR EDDT 131050Z 28004KT 6000 SCT007 BKN019 M01/M03 Q1020 R88/290195 NOSIG
12-02-13 METAR EDDT 131120Z 29004KT 8000 SCT009 SCT011 BKN018 M01/M03 Q1020 R88/290195 NOSIG
12-02-13 METAR EDDT 131150Z 28005KT 9000 SCT009 BKN017 M01/M03 Q1019 R88/290195
12-02-13 METAR EDDT 131220Z 28006KT 9999 FEW011 BKN017 M01/M04 Q1019 R88/290195
12-02-13 METAR EDDT 131250Z 27006KT 9999 FEW009 BKN018 M01/M04 Q1019 R88/290195
12-02-13 METAR EDDT 131320Z 27006KT 9999 FEW009 BKN018 M01/M04 Q1019 R88/290195
12-02-13 METAR EDDT 131350Z 27006KT 9999 FEW009 BKN019 M01/M04 Q1018 R88/290195
12-02-13 METAR EDDT 131420Z 27005KT 9999 FEW011 BKN018 M01/M05 Q1018 R88/290195
12-02-13 METAR EDDT 131450Z 27006KT 9999 FEW011 BKN018 M01/M05 Q1018 R88/290195
12-02-13 METAR EDDT 131520Z 26005KT 9999 FEW011 BKN018 M01/M05 Q1018 R88/290195
12-02-13 METAR EDDT 131550Z 27004KT 9999 BKN018 M01/M05 Q1018 R88/290195 NOSIG
12-02-13 METAR EDDT 131620Z 27003KT 9999 BKN018 M01/M05 Q1018 R88/290195 NOSIG
12-02-13 METAR EDDT 131650Z 26003KT 9999 BKN018 M01/M05 Q1017 R88/290195 NOSIG
12-02-13 METAR EDDT 131720Z 22004KT 9999 BKN019 M01/M05 Q1017 R88/290195 NOSIG
12-02-13 METAR EDDT 131750Z 22004KT 9999 BKN018 M01/M05 Q1017 R88/290195 NOSIG
12-02-13 METAR EDDT 131820Z 21005KT 9999 BKN020 M01/M05 Q1017 R88/290195 NOSIG
12-02-13 METAR EDDT 131850Z 20005KT 9999 BKN020 M01/M06 Q1017 R88/290195 NOSIG
12-02-13 METAR EDDT 131920Z 21005KT 9999 BKN020 M01/M06 Q1017 R88/290195 NOSIG
12-02-13 METAR EDDT 131950Z 20005KT 9999 BKN020 M01/M06 Q1017 R88/290195 NOSIG
12-02-13 METAR EDDT 132020Z 19005KT 9999 BKN020 M01/M06 Q1017 R88/290195 NOSIG
12-02-13 METAR EDDT 132050Z 20004KT 9999 BKN020 M02/M06 Q1017 R88/290195 NOSIG
12-02-13 METAR EDDT 132120Z 19004KT 9999 BKN020 M02/M06 Q1017 R88/290195 NOSIG
12-02-13 METAR EDDT 132150Z 20004KT 9999 BKN020 M02/M06 Q1017 R88/290195 NOSIG
12-02-13 METAR EDDT 132220Z 19004KT 9999 BKN024 M02/M06 Q1017 R88/290195
12-02-13 METAR EDDT 132250Z 20006KT 9999 BKN024 M02/M07 Q1017 R88/290195
12-02-13 METAR EDDT 132320Z 20005KT 9999 BKN022 M02/M07 Q1017 R88/290195
12-02-13 METAR EDDT 132350Z 18003KT 9999 BKN022 M02/M06 Q1016 R88/290195
12-02-14 METAR EDDT 132350Z 18003KT 9999 BKN022 M02/M06 Q1016 R88/290195
12-02-14 METAR EDDT 140020Z 21003KT 9999 BKN020 M02/M06 Q1016 R88/290195
12-02-14 METAR EDDT 140050Z 17002KT 9999 BKN020 M02/M06 Q1016 R88/290195
12-02-14 METAR EDDT 140120Z 21003KT 9999 BKN020 M02/M06 Q1016 R88/290195
12-02-14 METAR EDDT 140150Z 19004KT 9999 BKN020 M02/M06 Q1016 R88/290195
12-02-14 METAR EDDT 140220Z 20005KT 9999 BKN020 M02/M05 Q1016 R88/290195
12-02-14 METAR EDDT 140250Z 20005KT 9999 BKN022 M02/M06 Q1015 R88/290195
12-02-14 METAR EDDT 140320Z 20004KT 9999 BKN022 M03/M06 Q1015 R88/290195
12-02-14 METAR EDDT 140350Z 20003KT 9999 BKN020 M03/M06 Q1015 R88/290195 NOSIG
12-02-14 METAR EDDT 140420Z 17002KT 9999 BKN020 M03/M05 Q1015 R88/290195 NOSIG
12-02-14 METAR EDDT 140450Z 21002KT 9999 BKN022 M03/M06 Q1015 R88/290195 NOSIG
12-02-14 METAR EDDT 140520Z 21004KT 9999 BKN022 M04/M06 Q1015 R88/CLRD// NOSIG
12-02-14 METAR EDDT 140520Z 21004KT 9999 BKN022 M04/M06 Q1015 R88/D NOSIG
12-02-14 METAR EDDT 140550Z 18004KT 9999 BKN022 M03/M06 Q1015 R88/CLRD// NOSIG
12-02-14 METAR EDDT 140550Z 18004KT 9999 BKN022 M03/M06 Q1015 R88/D NOSIG
12-02-14 METAR EDDT 140620Z 18004KT 9000 SCT017 SCT022 M03/M06 Q1015 R88/D NOSIG
12-02-14 METAR EDDT 140620Z 18004KT 9000 SCT017 SCT022 M03/M06 Q1015 R88/CLRD// NOSIG
12-02-14 METAR EDDT 140650Z 20005KT 9000 FEW017 SCT022 M03/M06 Q1015 R88/CLRD//
12-02-14 METAR EDDT 140650Z 20005KT 9000 FEW017 SCT022 M03/M06 Q1015 R88/D NOSIG
12-02-14 METAR EDDT 140720Z 18005KT 9999 BKN021 M03/M06 Q1015 NOSIG
12-02-14 METAR EDDT 140750Z 20005KT 9999 BKN017 M03/M06 Q1015 NOSIG
12-02-14 METAR EDDT 140820Z 20005KT 9999 FEW020 SCT200 M02/M05 Q1015 NOSIG
12-02-14 METAR EDDT 140850Z 18005KT 9999 BKN020 M02/M05 Q1015 NOSIG
12-02-14 METAR EDDT 140920Z 18006KT 9999 BKN020 M01/M05 Q1014 NOSIG
12-02-14 METAR EDDT 140950Z 18007KT 9999 BKN020 M01/M05 Q1014 NOSIG
12-02-14 METAR EDDT 141020Z 19006KT 9999 BKN020 BKN050 M00/M05 Q1014 NOSIG
12-02-14 METAR EDDT 141050Z 19006KT 9999 BKN017 M00/M04 Q1014 NOSIG
12-02-14 METAR EDDT 141120Z 20006KT 9000 SCT013 BKN015 00/M04 Q1014 TEMPO 4000 BKN008
12-02-14 METAR EDDT 141150Z 19007KT 8000 BKN015 00/M04 Q1013 TEMPO 4000 BKN008
12-02-14 METAR EDDT 141220Z 20007KT 8000 BKN013 00/M04 Q1013 TEMPO 4000 BR BKN008
12-02-14 METAR EDDT 141250Z 19006KT 8000 BKN012 00/M04 Q1012 TEMPO 4000 BR BKN008
12-02-14 METAR EDDT 141320Z 20008KT 6000 -SN BKN013 00/M03 Q1011 BECMG 4000 BKN008
12-02-14 METAR EDDT 141350Z 19008KT 7000 BKN012 00/M03 Q1011 BECMG 4000 BKN008
12-02-14 METAR EDDT 141420Z 19007KT 7000 FEW013 BKN030 01/M03 Q1011 TEMPO BKN012
12-02-14 METAR EDDT 141450Z 19008KT 7000 SCT011 BKN030 01/M03 Q1010 TEMPO BKN012
12-02-14 METAR EDDT 141520Z 20008KT 7000 SCT012 BKN027 00/M03 Q1010 TEMPO BKN012
12-02-14 METAR EDDT 141550Z 21009KT 4000 -SG FEW006 BKN010 00/M02 Q1010 TEMPO 2500
12-02-14 METAR EDDT 141620Z 20006KT 2500 -SN BKN007 M00/M02 Q1009 TEMPO SN
12-02-14 METAR EDDT 141650Z 20008KT 2500 -SN BKN005 BKN008 M00/M01 Q1008 REFZDZ TEMPO -FZDZ
12-02-14 METAR EDDT 141720Z 21011KT 4000 BR BKN005 00/M01 Q1007 TEMPO BKN004
12-02-14 METAR EDDT 141750Z 22010KT 4000 -FZDZ BKN005 00/M01 Q1006 BECMG NSW
12-02-14 METAR EDDT 141820Z 24011KT 4000 -FZDZ SCT004 BKN005 01/M00 Q1006 BECMG NSW
12-02-14 METAR EDDT 141950Z 25013KT 6000 SCT008 BKN010 01/00 Q1004 NOSIG
12-02-14 METAR EDDT 142020Z 26012KT 9000 SCT008 BKN011 01/M00 Q1003 NOSIG
12-02-14 METAR EDDT 142050Z 27013KT 9999 SCT008 BKN010 01/M00 Q1003 NOSIG
12-02-14 METAR EDDT 142120Z 26013KT 9999 SCT008 BKN011 01/M00 Q1002 NOSIG
12-02-14 METAR EDDT 142150Z 26013KT 9999 FEW009 BKN011 02/M00 Q1001 NOSIG
12-02-14 METAR EDDT 142220Z 25013KT 8000 -RA SCT009 BKN011 01/M00 Q1000
12-02-14 METAR EDDT 142250Z 25015KT 6000 -RASN BKN008 BKN011 01/M00 Q0998
12-02-14 METAR EDDT 142320Z 24015KT 4200 -SN SCT003 BKN006 BKN010 01/M00 Q0997
12-02-14 METAR EDDT 142350Z 25017KT 4000 -SN SCT004 BKN006 01/M00 Q0996
12-02-15 METAR EDDT 142350Z 25017KT 4000 -SN SCT004 BKN006 01/M00 Q0996
12-02-15 METAR EDDT 150020Z 26018KT 4000 -SN SCT003 BKN005 01/M00 Q0995
12-02-15 METAR EDDT 150050Z 26018KT 5000 -SN SCT004 BKN006 01/00 Q0994
12-02-15 METAR EDDT 150120Z 26019G29KT 7000 -RASN SCT006 BKN008 01/00 Q0992
12-02-15 METAR EDDT 150150Z 26019KT 6000 -RA BKN006 BKN008 02/01 Q0991
12-02-15 METAR EDDT 150220Z 27018KT 7000 -RA BKN006 BKN008 02/01 Q0991
12-02-15 METAR EDDT 150250Z 28017KT 9000 -RA BKN006 BKN008 02/01 Q0991 RERA
12-02-15 METAR EDDT 150320Z 29015KT 9999 -RA FEW003 BKN007 02/01 Q0991
12-02-15 METAR EDDT 150350Z 30015G28KT 9999 -RA SCT008 BKN012 BKN017 02/01 Q0991 NOSIG
12-02-15 METAR EDDT 150420Z 30016G29KT 9999 SCT012 BKN017 02/00 Q0991 NOSIG
12-02-15 METAR EDDT 150450Z 31014G28KT 9999 FEW010 BKN100 02/M01 Q0991 NOSIG
12-02-15 METAR EDDT 150520Z 31012KT CAVOK 02/M02 Q0992 TEMPO 29020G30KT
12-02-15 METAR EDDT 150550Z 31013KT 9999 SCT035 02/M03 Q0992 TEMPO 29020G30KT
12-02-15 METAR EDDT 150620Z 31012KT 9999 FEW016 SCT036 02/M03 Q0992 TEMPO 29020G30KT
12-02-15 METAR EDDT 150650Z 30011KT 9999 FEW033 01/M03 Q0993 TEMPO 29020G30KT
12-02-15 METAR EDDT 150720Z 30012G23KT 9999 FEW031 SCT040 02/M03 Q0993 NOSIG
12-02-15 METAR EDDT 150750Z 31014KT 9999 FEW031 BKN050 02/M03 Q0994 TEMPO
12-02-15 METAR EDDT 150820Z 31014G25KT 9999 FEW030 SCT038 02/M04 Q0994 NOSIG
12-02-15 METAR EDDT 150850Z 31015G25KT 9999 FEW035 SCT040 BKN054 02/M04 Q0994 NOSIG
12-02-15 METAR EDDT 150920Z 31015G26KT 9999 FEW035 BKN046 03/M04 Q0994 NOSIG
12-02-15 METAR EDDT 150950Z 31015KT 9999 BKN040 03/M04 Q0995 TEMPO 31020G30KT
12-02-15 METAR EDDT 151020Z 31011KT 9999 FEW025 BKN040 03/M04 Q0995 TEMPO 31020G30KT
12-02-15 METAR EDDT 151050Z 32014KT 9999 BKN040 03/M04 Q0995 TEMPO 32020G30KT
12-02-15 METAR EDDT 151120Z 32015G28KT 9999 FEW030 BKN040 04/M04 Q0995 NOSIG
12-02-15 METAR EDDT 151150Z 33013G26KT 9999 FEW035 BKN042 04/M03 Q0996 NOSIG
12-02-15 METAR EDDT 151220Z 32014G28KT 9999 FEW034 BKN040 04/M04 Q0996 NOSIG
12-02-15 METAR EDDT 151250Z 32013G24KT 9999 BKN040 04/M04 Q0997 NOSIG
12-02-15 METAR EDDT 151320Z 33013G31KT 9999 BKN040 04/M04 Q0997 NOSIG
12-02-15 METAR EDDT 151350Z 32014G26KT 9999 BKN040 04/M04 Q0998 NOSIG
12-02-15 METAR EDDT 151420Z 32013G23KT 9999 BKN040 04/M05 Q0999 NOSIG
12-02-15 METAR EDDT 151450Z 32011G26KT 9999 BKN042 03/M04 Q0999 NOSIG
12-02-15 METAR EDDT 151520Z 32015G29KT 9999 FEW037 BKN042 03/M05 Q1000 NOSIG
12-02-15 METAR EDDT 151550Z 33012G23KT 9999 SCT037 BKN043 03/M05 Q1000 NOSIG
12-02-15 METAR EDDT 151620Z 33011KT 9999 SCT037 BKN043 03/M05 Q1001 TEMPO 33015G25KT
12-02-15 METAR EDDT 151650Z 34014G28KT 9999 FEW033 BKN040 03/M06 Q1002 NOSIG
12-02-15 METAR EDDT 151720Z 34016G29KT 9999 BKN035 02/M06 Q1003 NOSIG
12-02-15 METAR EDDT 151750Z 33012G22KT 9999 FEW033 BKN037 02/M06 Q1004 NOSIG
12-02-15 METAR EDDT 151820Z 33012KT 9999 BKN034 02/M06 Q1004 TEMPO 33015G25KT
12-02-15 METAR EDDT 151850Z 32011KT 9999 BKN033 02/M05 Q1005 TEMPO 33015G25KT
12-02-15 METAR EDDT 151920Z 32010KT 9999 BKN033 02/M05 Q1006 TEMPO 33015G25KT
12-02-15 METAR EDDT 151950Z 32009KT 9999 SCT031 BKN040 02/M05 Q1006 TEMPO
12-02-15 METAR EDDT 152020Z 33009KT 9999 BKN040 02/M05 Q1007 TEMPO 33015G25KT
12-02-15 METAR EDDT 152050Z 32009KT 9999 BKN043 01/M05 Q1008 NOSIG
12-02-15 METAR EDDT 152120Z 32008KT 9999 BKN038 01/M04 Q1009 NOSIG
12-02-15 METAR EDDT 152150Z 32009KT 9999 BKN033 01/M05 Q1009 NOSIG
12-02-15 METAR EDDT 152220Z 32009KT 9999 BKN040 01/M04 Q1010
12-02-15 METAR EDDT 152250Z 32008KT 9999 FEW025 BKN038 01/M04 Q1010
12-02-15 METAR EDDT 152320Z 32008KT 9999 BKN036 01/M04 Q1011
12-02-15 METAR EDDT 152350Z 32007KT 9999 BKN036 01/M04 Q1012
12-02-16 METAR EDDT 152350Z 32007KT 9999 BKN036 01/M04 Q1012
12-02-16 METAR EDDT 160020Z 31008KT 9999 BKN036 01/M04 Q1012
12-02-16 METAR EDDT 160050Z 32008KT 9999 SCT029 BKN034 01/M04 Q1013
12-02-16 METAR EDDT 160120Z 31006KT 9999 SCT029 BKN036 00/M04 Q1013
12-02-16 METAR EDDT 160150Z 31007KT 9999 BKN029 BKN034 01/M04 Q1014
12-02-16 METAR EDDT 160220Z 31008KT 9999 BKN029 BKN034 00/M04 Q1014
12-02-16 METAR EDDT 160250Z 32007KT 9999 BKN031 00/M05 Q1015
12-02-16 METAR EDDT 160320Z 31007KT 9999 BKN035 M00/M05 Q1015
12-02-16 METAR EDDT 160350Z 31008KT 9999 BKN035 M00/M05 Q1016
12-02-16 METAR EDDT 160420Z 31007KT 9999 BKN036 M01/M05 Q1016 NOSIG
12-02-16 METAR EDDT 160450Z 31006KT 9999 BKN036 M01/M05 Q1016 NOSIG
12-02-16 METAR EDDT 160520Z 32005KT 9999 BKN036 M01/M05 Q1017 NOSIG
12-02-16 METAR EDDT 160550Z 31006KT 9999 BKN037 M01/M05 Q1017 NOSIG
12-02-16 METAR EDDT 160620Z 31005KT 9999 BKN034 M01/M05 Q1018 NOSIG
12-02-16 METAR EDDT 160650Z 30004KT 9999 SCT030 SCT250 M02/M05 Q1018 NOSIG
12-02-16 METAR EDDT 160720Z 31006KT 9999 FEW030 M01/M05 Q1018 NOSIG
12-02-16 METAR EDDT 160750Z 30006KT 9999 FEW030 M01/M05 Q1019 NOSIG
12-02-16 METAR EDDT 160820Z 30005KT CAVOK M01/M05 Q1019 NOSIG
12-02-16 METAR EDDT 160850Z 32003KT CAVOK 00/M05 Q1019 NOSIG
12-02-16 METAR EDDT 160920Z 28005KT 9999 FEW020 SCT250 00/M05 Q1020 NOSIG
12-02-16 METAR EDDT 160950Z 30005KT 9999 FEW025 BKN250 01/M05 Q1020 NOSIG
12-02-16 METAR EDDT 161020Z 29005KT 9999 FEW030 BKN250 02/M06 Q1020 NOSIG
12-02-16 METAR EDDT 161050Z 31006KT 9999 FEW030 BKN250 02/M06 Q1020 NOSIG
12-02-16 METAR EDDT 161120Z 31005KT 9999 FEW035 BKN250 03/M07 Q1020 NOSIG
12-02-16 METAR EDDT 161150Z 29007KT 9999 FEW035 BKN250 03/M06 Q1020 NOSIG
12-02-16 METAR EDDT 161220Z 28008KT 9999 FEW035 BKN250 03/M06 Q1020 NOSIG
12-02-16 METAR EDDT 161250Z 29007KT 9999 FEW040 BKN250 03/M08 Q1020 NOSIG
12-02-16 METAR EDDT 161320Z 27006KT CAVOK 04/M07 Q1020 NOSIG
12-02-16 METAR EDDT 161350Z 29006KT CAVOK 03/M07 Q1020 NOSIG
12-02-16 METAR EDDT 161420Z 27009KT CAVOK 04/M08 Q1020 NOSIG
12-02-16 METAR EDDT 161450Z 27009KT CAVOK 03/M07 Q1020 NOSIG
12-02-16 METAR EDDT 161520Z 27007KT CAVOK 03/M07 Q1019 NOSIG
12-02-16 METAR EDDT 161550Z 24009KT CAVOK 03/M05 Q1019 NOSIG
12-02-16 METAR EDDT 161620Z 26008KT CAVOK 03/M05 Q1019 NOSIG
12-02-16 METAR EDDT 161650Z 25008KT CAVOK 03/M05 Q1019 NOSIG
12-02-16 METAR EDDT 161720Z 25008KT CAVOK 03/M04 Q1019 BECMG 4000 SNRA BKN009
12-02-16 METAR EDDT 161750Z 24010KT 9999 -RA FEW025 BKN060 03/M03 Q1019 BECMG 4000 SNRA BKN009
12-02-16 METAR EDDT 161820Z 24009KT 8000 -SNRA FEW013 SCT025 BKN060 02/M01 Q1019 BECMG 4000 SNRA BKN009
12-02-16 METAR EDDT 161850Z 22007KT 5000 -SNRA SCT009 BKN014 01/M01 Q1018 BECMG 4000
12-02-16 METAR EDDT 161920Z 21007KT 4000 SN SCT003 BKN013 01/M00 Q1018 TEMPO BKN003
12-02-16 METAR EDDT 161950Z 21007KT 3200 SN SCT003 BKN009 01/M00 Q1017 R88/290195 TEMPO BKN003
12-02-16 METAR EDDT 162020Z 23008KT 5000 -RASN SCT003 BKN007 01/00 Q1017 RESN R88/290195 TEMPO 4000 RADZ BKN004
12-02-16 METAR EDDT 162050Z 24009KT 5000 RADZ SCT003 BKN005 02/00 Q1017 R88/290195 TEMPO 4000
12-02-16 METAR EDDT 162120Z 23010KT 5000 DZRA SCT003 BKN005 02/01 Q1016 R88/290195
12-02-16 METAR EDDT 162150Z 24012KT 6000 RA BKN004 03/02 Q1016 R88/290195 TEMPO -RA
12-02-16 METAR EDDT 162220Z 25011KT 7000 RA BKN005 03/02 Q1015 R88/290195
12-02-16 METAR EDDT 162250Z 26011KT 6000 RA BKN004 03/02 Q1015 R88/290195
12-02-16 METAR EDDT 162320Z 27012KT 6000 RA BKN005 BKN008 03/02 Q1015 R88/290195
12-02-16 METAR EDDT 162350Z 27011KT 6000 RA FEW003 BKN006 OVC010 03/03 Q1015 R88/290195
12-02-17 METAR EDDT 162350Z 27011KT 6000 RA FEW003 BKN006 OVC010 03/03 Q1015 R88/290195
12-02-17 METAR EDDT 170020Z 28013KT 6000 RA BKN005 BKN008 04/03 Q1015 R88/290195
12-02-17 METAR EDDT 170050Z 28012KT 6000 RA FEW003 BKN006 04/03 Q1014 R88/290195
12-02-17 METAR EDDT 170120Z 27011KT 7000 RA BKN005 BKN007 04/03 Q1014 R88/290195
12-02-17 METAR EDDT 170150Z 28010KT 7000 RA FEW003 BKN005 04/03 Q1014 R88/290195
12-02-17 METAR EDDT 170220Z 27012KT 7000 -RA BKN005 BKN008 04/03 Q1014 RERA
12-02-17 METAR EDDT 170250Z 27011KT 6000 -RADZ FEW003 BKN005 04/03 Q1013 RERA NOSIG
12-02-17 METAR EDDT 170450Z 28013KT 6000 SCT004 BKN006 04/03 Q1013 R88/290195 TEMPO TEMPO BKN004 4000 BKN004 3000 BKN005
12-02-17 METAR EDDT 170820Z NIL
12-02-17 METAR EDDT 170820Z 30007KT 6000 BKN007 BKN010 04/03 Q1015 R88/290195 TEMPO 4000
12-02-17 METAR EDDT 170850Z 30007KT 7000 BKN005 BKN007 04/03 Q1015 R88/290195 BECMG
12-02-17 METAR EDDT 170920Z 29006KT 9000 FEW007 BKN009 05/03 Q1015 R088/CLRD// BECMG
12-02-17 METAR EDDT 170950Z 29009KT 9999 SCT007 BKN040 05/04 Q1015 R088/CLRD// TEMPO
12-02-17 METAR EDDT 171050Z 29011KT 9999 BKN010 BKN040 05/03 Q1015 R88/CLRD// TEMPO
12-02-17 METAR EDDT 171050Z 29011KT 9999 BKN010 BKN040 05/03 Q1015 R88/D TEMPO
12-02-17 METAR EDDT 171120Z 29010KT 9999 BKN011 BKN040 06/03 Q1015 TEMPO BKN015
12-02-17 METAR EDDT 171150Z 30010KT 9999 SCT015 BKN036 06/03 Q1015 NOSIG
12-02-17 METAR EDDT 171220Z 29012KT 9999 -SHRA SCT016 BKN030 06/02 Q1015 NOSIG
12-02-17 METAR EDDT 171250Z 29011KT 9999 -RADZ FEW014 BKN029 06/02 Q1015 NOSIG
12-02-17 METAR EDDT 171320Z 28012KT 9999 BKN023 BKN029 06/02 Q1015 NOSIG
12-02-17 METAR EDDT 171350Z 27013KT 9999 FEW023 BKN033 06/02 Q1015 NOSIG
12-02-17 METAR EDDT 171420Z 29011KT 9999 -RA BKN021 BKN026 06/02 Q1016 NOSIG
12-02-17 METAR EDDT 171450Z 29011KT 9999 SCT020 BKN035 06/02 Q1015 NOSIG
12-02-17 METAR EDDT 171520Z 29009KT 9999 FEW018 BKN040 06/02 Q1016 NOSIG
12-02-17 METAR EDDT 171550Z 29011KT 9999 -SHRA SCT020 BKN031 06/02 Q1016 NOSIG
12-02-17 METAR EDDT 171620Z 30008KT 9999 -RA BKN020 BKN035 05/02 Q1016 NOSIG
12-02-17 METAR EDDT 171650Z 28006KT 9999 BKN022 BKN040 05/02 Q1017 NOSIG
12-02-17 METAR EDDT 171720Z 28008KT 9999 FEW022 BKN040 05/02 Q1017 NOSIG
12-02-17 METAR EDDT 171750Z 28009KT 9999 BKN044 05/02 Q1017 NOSIG
12-02-17 METAR EDDT 171820Z 28010KT 9999 FEW022 BKN035 05/02 Q1017 NOSIG
12-02-17 METAR EDDT 171850Z 28009KT 9999 -RA FEW022 BKN044 05/02 Q1017 NOSIG
12-02-17 METAR EDDT 171920Z 29010KT 9999 FEW025 BKN050 05/02 Q1017 NOSIG
12-02-17 METAR EDDT 171950Z 29009KT 9999 FEW025 BKN050 05/02 Q1017 NOSIG
12-02-17 METAR EDDT 172020Z 29010KT 9999 FEW025 BKN048 04/02 Q1018 NOSIG
12-02-17 METAR EDDT 172050Z 29007KT 9999 FEW018 BKN045 04/02 Q1018 NOSIG
12-02-17 METAR EDDT 172120Z 28007KT 9999 FEW015 BKN022 04/02 Q1018 NOSIG
12-02-17 METAR EDDT 172150Z 27008KT 9999 BKN023 03/01 Q1018 NOSIG
12-02-17 METAR EDDT 172220Z 26006KT 9999 SCT013 02/01 Q1018
12-02-17 METAR EDDT 172250Z 28004KT 9999 BKN011 02/01 Q1018
12-02-17 METAR EDDT 172320Z 28003KT 9999 BKN011 02/00 Q1018
12-02-17 METAR EDDT 172350Z 29005KT 9999 SCT011 BKN018 03/01 Q1018
12-02-18 METAR EDDT 172350Z 29005KT 9999 SCT011 BKN018 03/01 Q1018
12-02-18 METAR EDDT 180020Z 28004KT 9999 FEW011 SCT022 02/01 Q1018
12-02-18 METAR EDDT 180050Z 27005KT 9999 BKN010 02/00 Q1018
12-02-18 METAR EDDT 180120Z 28008KT 8000 BKN008 03/01 Q1018
12-02-18 METAR EDDT 180150Z 28005KT 9000 BKN008 03/01 Q1018
12-02-18 METAR EDDT 180220Z 28006KT 8000 BKN007 03/01 Q1017
12-02-18 METAR EDDT 180250Z 28003KT 8000 BKN006 03/01 Q1017
12-02-18 METAR EDDT 180320Z 25002KT 8000 BKN006 03/01 Q1017
12-02-18 METAR EDDT 180350Z 22004KT 8000 BKN006 03/01 Q1017 NOSIG
12-02-18 METAR EDDT 180420Z 20004KT 8000 BKN006 03/02 Q1017 TEMPO SCT006
12-02-18 METAR EDDT 180450Z 25009KT 7000 BKN006 03/02 Q1017 TEMPO SCT006
12-02-18 METAR EDDT 180520Z 25006KT 7000 BKN007 03/02 Q1016 NOSIG
12-02-18 METAR EDDT 180550Z 20005KT 6000 SCT006 BKN013 03/01 Q1016 TEMPO BKN009
12-02-18 METAR EDDT 180620Z 19004KT 6000 BKN014 03/01 Q1016 TEMPO BKN015
12-02-18 METAR EDDT 180650Z 19006KT 6000 BKN014 BKN090 03/01 Q1016 TEMPO BKN015
12-02-18 METAR EDDT 180720Z 19007KT 6000 BKN046 BKN090 03/01 Q1016 NOSIG
12-02-18 METAR EDDT 180750Z 21005KT 8000 BKN024 BKN044 03/01 Q1016 NOSIG
12-02-18 METAR EDDT 180820Z 19007KT 8000 BKN021 BKN045 03/01 Q1015 NOSIG
12-02-18 METAR EDDT 180850Z 19006KT 9000 BKN015 BKN018 04/01 Q1015 NOSIG
12-02-18 METAR EDDT 180920Z 19006KT 9000 BKN015 BKN018 04/01 Q1015 NOSIG
12-02-18 METAR EDDT 180950Z 20006KT 8000 BKN014 BKN025 04/02 Q1015 NOSIG
12-02-18 METAR EDDT 181020Z 22006KT 8000 BKN023 BKN036 05/02 Q1015 TEMPO BKN014
12-02-18 METAR EDDT 181050Z 19005KT 9000 SCT020 BKN036 05/02 Q1014 NOSIG
12-02-18 METAR EDDT 181120Z 20007KT 9000 SCT020 BKN045 06/03 Q1014 NOSIG
12-02-18 METAR EDDT 181150Z 22008KT 9000 BKN040 07/03 Q1013 NOSIG
12-02-18 METAR EDDT 181220Z 21009KT 9999 BKN040 07/03 Q1013 NOSIG
12-02-18 METAR EDDT 181250Z 20006KT 9999 BKN043 07/03 Q1013 NOSIG
12-02-18 METAR EDDT 181320Z 18007KT 9999 BKN043 07/03 Q1012 NOSIG
12-02-18 METAR EDDT 181350Z 18006KT 9999 BKN042 08/04 Q1012 NOSIG
12-02-18 METAR EDDT 181420Z 20009KT 9999 BKN044 BKN150 09/04 Q1011 NOSIG
12-02-18 METAR EDDT 181450Z 21010KT 9999 FEW020 BKN130 BKN200 08/03 Q1011 NOSIG
12-02-18 METAR EDDT 181520Z 22010KT 9999 SCT020 BKN090 BKN150 08/03 Q1011 NOSIG
12-02-18 METAR EDDT 181550Z 21008KT 9999 FEW020 BKN070 BKN090 07/03 Q1010 NOSIG
12-02-18 METAR EDDT 181620Z 21008KT 9999 BKN023 07/03 Q1010 NOSIG
12-02-18 METAR EDDT 181650Z 22010KT 9999 BKN022 07/04 Q1010 NOSIG
12-02-18 METAR EDDT 181720Z 22011KT 9999 BKN022 07/04 Q1010 NOSIG
12-02-18 METAR EDDT 181750Z 22010KT 9999 -RA FEW008 OVC019 07/04 Q1010 NOSIG
12-02-18 METAR EDDT 181820Z 21010KT 9999 -RA FEW008 BKN030 07/04 Q1009 NOSIG
12-02-18 METAR EDDT 181850Z 21009KT 9999 -RA SCT025 BKN035 06/04 Q1009 NOSIG
12-02-18 METAR EDDT 181920Z 21008KT 9999 BKN036 06/04 Q1009 NOSIG
12-02-18 METAR EDDT 181950Z 20009KT 9999 OVC040 06/04 Q1009 NOSIG
12-02-18 METAR EDDT 182020Z 21009KT 9999 -RA OVC038 06/04 Q1009 NOSIG
12-02-18 METAR EDDT 182050Z 20010KT 9999 -RA FEW015 OVC028 06/04 Q1008 NOSIG
12-02-18 METAR EDDT 182120Z 21010KT 9999 -RA OVC030 06/04 Q1008 TEMPO RA
12-02-18 METAR EDDT 182150Z 22010KT 9999 -RA OVC029 06/04 Q1008 TEMPO RA
12-02-18 METAR EDDT 182220Z 21011KT 9999 RA OVC029 06/04 Q1008
12-02-18 METAR EDDT 182250Z 21010KT 9999 RA OVC029 06/04 Q1007
12-02-18 METAR EDDT 182320Z 20010KT 9999 RA OVC029 06/04 Q1007
12-02-18 METAR EDDT 182350Z 20012KT 9999 -RA OVC029 06/04 Q1007 RERA
12-02-19 METAR EDDT 182350Z 20012KT 9999 -RA OVC029 06/04 Q1007 RERA
12-02-19 METAR EDDT 190020Z 20012KT 9999 -RA BKN028 BKN040 06/04 Q1006 RERA
12-02-19 METAR EDDT 190050Z 21013KT 9999 -RA BKN028 BKN040 06/04 Q1006
12-02-19 METAR EDDT 190120Z 21013KT 9999 BKN040 06/04 Q1006
12-02-19 METAR EDDT 190150Z 21013KT 9999 BKN035 06/04 Q1005
12-02-19 METAR EDDT 190220Z 20011KT 9999 -RA BKN035 06/04 Q1005
12-02-19 METAR EDDT 190250Z 20011KT 9999 BKN040 06/03 Q1004
12-02-19 METAR EDDT 190320Z 20012KT 9999 FEW012 BKN036 06/03 Q1004
12-02-19 METAR EDDT 190350Z 21011KT 9999 BKN032 06/03 Q1004 BECMG RA BKN010
12-02-19 METAR EDDT 190420Z 20012KT 9999 -RA FEW012 BKN033 06/04 Q1004 BECMG RA BKN010
12-02-19 METAR EDDT 190450Z 22013KT 9999 -RA FEW012 OVC027 06/04 Q1004 BECMG RA
12-02-19 METAR EDDT 190520Z 23012KT 9999 -RA BKN015 06/04 Q1004 BECMG RA BKN010
12-02-19 METAR EDDT 190550Z 30010KT 9999 -RA BKN010 OVC030 03/02 Q1005 RERA TEMPO BKN009
12-02-19 METAR EDDT 190620Z 29009KT 9999 -RADZ BKN008 OVC030 03/01 Q1006 BECMG SCT015
12-02-19 METAR EDDT 190650Z 29008KT 9999 -RADZ FEW006 BKN008 OVC028 02/01 Q1006 BECMG SCT015
12-02-19 METAR EDDT 190720Z 27007KT 9999 FEW007 SCT009 BKN020 02/01 Q1007 TEMPO BKN013
12-02-19 METAR EDDT 190750Z 27011KT 9999 BKN008 BKN012 03/01 Q1007 BECMG BKN012
12-02-19 METAR EDDT 190820Z 28011KT 9999 SCT009 BKN012 BKN015 03/01 Q1008 BECMG BKN015
12-02-19 METAR EDDT 190850Z 26012KT 9999 FEW012 SCT022 BKN100 03/01 Q1008 NOSIG
12-02-19 METAR EDDT 190920Z 26011KT 9999 FEW012 BKN034 BKN100 03/01 Q1008 NOSIG
12-02-19 METAR EDDT 190950Z 26012KT 9999 SCT015 BKN035 03/01 Q1009 NOSIG
12-02-19 METAR EDDT 191020Z 26015KT 9999 SCT015 BKN035 04/01 Q1009 NOSIG
12-02-19 METAR EDDT 191050Z 26014KT 9999 FEW015 BKN020 04/00 Q1009 NOSIG
12-02-19 METAR EDDT 191120Z 27018KT 9999 SCT021 BKN032 04/M01 Q1010 NOSIG
12-02-19 METAR EDDT 191150Z 26013KT 9999 BKN025 BKN034 04/M01 Q1010 TEMPO 27015G25KT
12-02-19 METAR EDDT 191220Z 27014KT 9999 -RA FEW020 SCT025 BKN035 04/M01 Q1011 TEMPO
12-02-19 METAR EDDT 191250Z 26014KT 9999 BKN025 BKN035 04/M01 Q1011 TEMPO
12-02-19 METAR EDDT 191320Z 27014KT 9999 SCT025 BKN035 04/M00 Q1011 TEMPO
12-02-19 METAR EDDT 191350Z 26015KT 9999 -RA FEW017 BKN025 BKN035 04/M01 Q1011 TEMPO
12-02-19 METAR EDDT 191420Z 28011KT 9999 -RA FEW017 BKN026 BKN034 04/M01 Q1012 TEMPO
12-02-19 METAR EDDT 191450Z 27013KT 9999 SCT028 SCT035 05/M01 Q1012 TEMPO
12-02-19 METAR EDDT 191520Z 27014KT 9999 FEW028 SCT042 05/M01 Q1013 TEMPO
12-02-19 METAR EDDT 191550Z 26016KT 9999 FEW030 SCT040 04/M02 Q1013 TEMPO
12-02-19 METAR EDDT 191620Z 26012KT 9999 -SHRA FEW020 BKN030 04/M01 Q1014 TEMPO
12-02-19 METAR EDDT 191650Z 30009KT 9999 -SHRA SCT008 FEW015CB BKN022 02/00 Q1015 TEMPO 27015G25KT 4000 SHRAGS
12-02-19 METAR EDDT 191720Z 26008KT 9999 FEW020CB BKN054 02/00 Q1016 TEMPO 27015G25KT 4000 SHRAGS
12-02-19 METAR EDDT 191750Z 26008KT 9999 FEW030 SCT090 01/M00 Q1016 NOSIG
12-02-19 METAR EDDT 191820Z 26010KT CAVOK 02/M00 Q1017 NOSIG
12-02-19 METAR EDDT 191850Z 25009KT CAVOK 01/M01 Q1017 NOSIG
12-02-19 METAR EDDT 191920Z 26010KT CAVOK 01/M01 Q1018 NOSIG
12-02-19 METAR EDDT 191950Z 25010KT 9999 FEW013 01/M01 Q1019 NOSIG
12-02-19 METAR EDDT 192020Z 26010KT 9999 FEW013 00/M01 Q1019 NOSIG
12-02-19 METAR EDDT 192050Z 26009KT 9999 FEW012 M00/M02 Q1020 NOSIG
12-02-19 METAR EDDT 192120Z 26010KT 9999 FEW012 00/M02 Q1021 NOSIG
12-02-19 METAR EDDT 192150Z 27009KT CAVOK 00/M02 Q1021 NOSIG
12-02-19 METAR EDDT 192220Z 27012KT 9999 FEW012 00/M02 Q1022
12-02-19 METAR EDDT 192250Z 27010KT 9999 FEW012 M00/M02 Q1022
12-02-19 METAR EDDT 192320Z 27010KT CAVOK M00/M02 Q1023
12-02-19 METAR EDDT 192350Z 26010KT 9999 FEW011 M00/M02 Q1023
12-02-20 METAR EDDT 192350Z 26010KT 9999 FEW011 M00/M02 Q1023
12-02-20 METAR EDDT 200020Z 27010KT 9999 FEW011 M00/M02 Q1023
12-02-20 METAR EDDT 200050Z 26009KT 9999 FEW012 M01/M02 Q1024
12-02-20 METAR EDDT 200120Z 26009KT 9999 FEW012 M01/M03 Q1024
12-02-20 METAR EDDT 200150Z 27009KT 9999 FEW012 M01/M02 Q1024
12-02-20 METAR EDDT 200220Z 26009KT 9999 FEW012 M01/M03 Q1025
12-02-20 METAR EDDT 200250Z 27010KT CAVOK M01/M03 Q1025
12-02-20 METAR EDDT 200320Z 27011KT 9999 FEW012 SCT200 M01/M02 Q1025
12-02-20 METAR EDDT 200350Z 27010KT 9999 FEW009 M01/M03 Q1026 NOSIG
12-02-20 METAR EDDT 200420Z 26009KT 9999 FEW009 BKN020 M02/M03 Q1026 TEMPO BKN011
12-02-20 METAR EDDT 200450Z 26009KT 9999 FEW011 SCT200 M02/M03 Q1027 TEMPO BKN011
12-02-20 METAR EDDT 200520Z 27009KT 9999 FEW011 M02/M03 Q1027 TEMPO BKN011
12-02-20 METAR EDDT 200550Z 27008KT 9999 FEW012 M02/M03 Q1027 TEMPO BKN011
12-02-20 METAR EDDT 200620Z 27009KT 9999 FEW012 M01/M03 Q1028 TEMPO BKN011
12-02-20 METAR EDDT 200650Z 28007KT 9999 FEW012 M01/M03 Q1028 TEMPO BKN011
12-02-20 METAR EDDT 200720Z 28009KT 9999 FEW012 M01/M03 Q1029 TEMPO BKN011
12-02-20 METAR EDDT 200750Z 28010KT 9999 FEW012 00/M02 Q1029 NOSIG
12-02-20 METAR EDDT 200820Z 28010KT 9999 FEW012 01/M02 Q1030 NOSIG
12-02-20 METAR EDDT 200850Z NIL
12-02-20 METAR EDDT 200850Z 28010KT 9999 FEW015 01/M02 Q1030 NOSIG
12-02-20 METAR EDDT 200920Z 28010KT 9999 FEW017 02/M02 Q1030 NOSIG
12-02-20 METAR EDDT 200950Z 29009KT 9999 FEW017 02/M02 Q1031 NOSIG
12-02-20 METAR EDDT 201020Z 28009KT 9999 SCT020 03/M02 Q1031 NOSIG
12-02-20 METAR EDDT 201050Z 28012KT 9999 SCT020 03/M02 Q1031 NOSIG
12-02-20 METAR EDDT 201120Z 28012KT 9999 SCT024 04/M02 Q1031 NOSIG
12-02-20 METAR EDDT 201150Z 28009KT 9999 SCT030 04/M03 Q1031 NOSIG
12-02-20 METAR EDDT 201220Z 28009KT 9999 SCT033 04/M04 Q1031 NOSIG
12-02-20 METAR EDDT 201250Z 28011KT 9999 SCT035 04/M04 Q1031 NOSIG
12-02-20 METAR EDDT 201320Z 29008KT 9999 SCT040 05/M05 Q1031 NOSIG
12-02-20 METAR EDDT 201350Z 27014KT 9999 SCT040 05/M05 Q1031 NOSIG
12-02-20 METAR EDDT 201420Z 26011KT 9999 SCT040 04/M05 Q1032 NOSIG
12-02-20 METAR EDDT 201450Z 27007KT 9999 SCT040 SCT250 04/M04 Q1031 NOSIG
12-02-20 METAR EDDT 201520Z 28007KT 9999 FEW040 BKN250 04/M04 Q1031 NOSIG
12-02-20 METAR EDDT 201550Z 26010KT 9999 FEW040 BKN250 03/M06 Q1031 NOSIG
12-02-20 METAR EDDT 201620Z 25009KT 9999 FEW040 BKN250 03/M05 Q1031 NOSIG
12-02-20 METAR EDDT 201650Z 24007KT 9999 FEW040 BKN250 02/M04 Q1031 NOSIG
12-02-20 METAR EDDT 201720Z 22007KT 9999 FEW040 BKN250 02/M04 Q1031 NOSIG
12-02-20 METAR EDDT 201750Z 22008KT CAVOK 02/M04 Q1031 NOSIG
12-02-20 METAR EDDT 201820Z 22008KT CAVOK 02/M04 Q1031 NOSIG
12-02-20 METAR EDDT 201850Z 22008KT CAVOK 01/M04 Q1031 NOSIG
12-02-20 METAR EDDT 201920Z 22007KT CAVOK 01/M04 Q1031 NOSIG
12-02-20 METAR EDDT 201950Z 22009KT CAVOK 01/M04 Q1031 NOSIG
12-02-20 METAR EDDT 202020Z 22008KT CAVOK 01/M04 Q1031 NOSIG
12-02-20 METAR EDDT 202050Z 24011KT CAVOK 02/M04 Q1031 NOSIG
12-02-20 METAR EDDT 202120Z 21008KT CAVOK 01/M04 Q1031 NOSIG
12-02-20 METAR EDDT 202150Z 22008KT CAVOK 01/M04 Q1031 NOSIG
12-02-20 METAR EDDT 202220Z 22008KT CAVOK 01/M04 Q1030
12-02-20 METAR EDDT 202250Z 20007KT CAVOK 01/M04 Q1030
12-02-20 METAR EDDT 202320Z 21009KT CAVOK 01/M04 Q1030
12-02-20 METAR EDDT 202350Z 22010KT CAVOK 01/M04 Q1030
12-02-21 METAR EDDT 202350Z 22010KT CAVOK 01/M04 Q1030
12-02-21 METAR EDDT 210020Z 21009KT CAVOK 01/M04 Q1029
12-02-21 METAR EDDT 210050Z 21010KT CAVOK 01/M04 Q1029
12-02-21 METAR EDDT 210120Z 21010KT CAVOK 00/M05 Q1029
12-02-21 METAR EDDT 210150Z 21008KT CAVOK 00/M05 Q1028
12-02-21 METAR EDDT 210220Z 21010KT CAVOK 00/M05 Q1028
12-02-21 METAR EDDT 210250Z 21010KT CAVOK 01/M05 Q1027
12-02-21 METAR EDDT 210320Z 22011KT CAVOK 01/M05 Q1027
12-02-21 METAR EDDT 210350Z 22012KT CAVOK 01/M05 Q1026 NOSIG
12-02-21 METAR EDDT 210450Z 22013KT 9999 BKN042 01/M05 Q1026 TEMPO 4000 -SN
12-02-21 METAR EDDT 210520Z 22011KT 9999 SCT042 BKN080 01/M05 Q1025 TEMPO 4000 -SN
12-02-21 METAR EDDT 210550Z 23012KT 9999 SCT040 BKN080 01/M05 Q1025 TEMPO 4000 -SN
12-02-21 METAR EDDT 210620Z 22011KT 9999 SCT040 BKN070 02/M04 Q1025 TEMPO 4000 -SN
12-02-21 METAR EDDT 210650Z 23012KT 9999 -SN SCT030 BKN060 02/M04 Q1026 TEMPO 4000 BKN014
12-02-21 METAR EDDT 210720Z 23012KT 1800 SN FEW008 BKN014 00/M02 Q1026 TEMPO 1400 BKN008
12-02-21 METAR EDDT 210750Z 22013KT 1200 R26R/1700D R26L/P2000D SN SCT002 BKN003 BKN007 M00/M01 Q1025 R88/590395 TEMPO 1500 BKN005
12-02-21 METAR EDDT 210820Z 22013KT 2000 R26R/1200V1900U R26L/1900U SN FEW003 BKN005 BKN008 M00/M01 Q1025 R88/590395 BECMG 3000 -SN
12-02-21 METAR EDDT 210850Z 22013KT 1000 R26R/1100N R26L/1400N SN FEW003 BKN005 00/M01 Q1025 R88/590395 BECMG 1500 -SN
12-02-21 METAR EDDT 210920Z 23013KT 0700 R26R/0225V0500N R26L/0800V1600D +SN FEW002 BKN005 BKN007 00/M01 Q1025 R88/590395 BECMG 1500 SN
12-02-21 METAR EDDT 210950Z 23013KT 3000 R26R/0200N R26L/0550V1700D -SN SCT005 BKN008 00/M00 Q1025 RESN R88/590395 TEMPO 2500
12-02-21 METAR EDDT 211020Z 23012KT 4000 R26R/0275VP2000U R26L/P2000N -RASN SCT006 BKN008 BKN010 00/M00 Q1025 RESN R88/590395 BECMG 5000
12-02-21 METAR EDDT 211050Z 23011KT 7000 -RA BKN009 BKN011 01/M00 Q1025 R88/290001 BKN012 TEMPO BKN012 TEMPO SCT012
12-02-21 METAR EDDT 211320Z 24010KT 7000 -RA SCT009 BKN015 02/00 Q1025 R88/290001
12-02-21 METAR EDDT 211350Z 25013KT 7000 -RA FEW008 SCT011 BKN015 02/00 Q1024 R88/290001 TEMPO BKN012
12-02-21 METAR EDDT 211420Z 25012KT 7000 -RA SCT008 BKN011 02/00 Q1024 R88/290001 TEMPO SCT013
12-02-21 METAR EDDT 211450Z 25011KT 8000 -RA SCT007 BKN011 02/01 Q1024 R88/290001
12-02-21 METAR EDDT 211520Z 25011KT 7000 -RA BKN006 02/01 Q1025 R88/290001 NOSIG
12-02-21 METAR EDDT 211550Z 25012KT 6000 -RA BKN006 02/01 Q1025 R88/290001 NOSIG TEMPO 5000 5000
12-02-21 METAR EDDT 211720Z 26009KT 5000 BR BKN005 02/01 Q1026 R88/290001 NOSIG
12-02-21 METAR EDDT 211750Z 25009KT 5000 BR BKN005 03/02 Q1026 R88/290001 NOSIG 5000 BKN005 BKN005 3000 BKN005
12-02-22 METAR EDDT 220050Z 26008KT 3000 BR BKN005 04/03 Q1028 R88/290001
12-02-22 METAR EDDT 220150Z 25007KT 3600 BR SCT008 BKN016 04/03 Q1027 R88/290001
12-02-22 METAR EDDT 220220Z 26008KT 4400 BR FEW008 BKN016 04/03 Q1027 R88/290001
12-02-22 METAR EDDT 220250Z 26009KT 6000 BKN017 04/03 Q1027 R88/290001
12-02-22 METAR EDDT 220320Z 25008KT 7000 BKN015 05/03 Q1027 R88/290001
12-02-22 METAR EDDT 220350Z 25011KT 8000 BKN017 05/03 Q1027 R88/290001 NOSIG
12-02-22 METAR EDDT 220420Z 25009KT 9000 BKN017 05/03 Q1027 R88/D NOSIG
12-02-22 METAR EDDT 220420Z 25009KT 9000 BKN017 05/03 Q1027 R88/CLRD// NOSIG
12-02-22 METAR EDDT 220450Z 24010KT 9999 BKN019 05/03 Q1027 R88/D NOSIG
12-02-22 METAR EDDT 220520Z 25010KT 9999 BKN022 05/03 Q1027 R88/D NOSIG
12-02-22 METAR EDDT 220520Z 25010KT 9999 BKN022 05/03 Q1027 R88/CLRD// NOSIG
12-02-22 METAR EDDT 220550Z 25010KT 9999 BKN027 04/02 Q1027 R88/CLRD// NOSIG
12-02-22 METAR EDDT 220550Z 25010KT 9999 BKN027 04/02 Q1027 R88/D NOSIG
12-02-22 METAR EDDT 220620Z 25010KT 9999 BKN030 04/02 Q1027 R88/CLRD// NOSIG
12-02-22 METAR EDDT 220620Z 25010KT 9999 BKN030 04/02 Q1027 R88/D NOSIG
12-02-22 METAR EDDT 220650Z 25009KT 9999 BKN032 05/02 Q1028 NOSIG
12-02-22 METAR EDDT 220720Z 25011KT 9999 SCT032 BKN120 05/02 Q1028 NOSIG
12-02-22 METAR EDDT 220750Z 25010KT 9999 BKN034 05/02 Q1028 NOSIG
12-02-22 METAR EDDT 220820Z 25011KT 9999 BKN034 05/02 Q1028 NOSIG
12-02-22 METAR EDDT 220850Z 25012KT 9999 BKN034 05/02 Q1028 NOSIG
12-02-22 METAR EDDT 220920Z 25013KT 9999 FEW035 BKN250 06/03 Q1028 NOSIG
12-02-22 METAR EDDT 220950Z 24014KT CAVOK 07/03 Q1027 NOSIG
12-02-22 METAR EDDT 221020Z 24012KT CAVOK 08/04 Q1027 NOSIG
12-02-22 METAR EDDT 221050Z 24014KT 9999 SCT040 BKN250 09/04 Q1027 NOSIG
12-02-22 METAR EDDT 221120Z 23013KT 9999 BKN040 09/03 Q1027 NOSIG
12-02-22 METAR EDDT 221150Z 24012KT 9999 BKN042 09/03 Q1026 NOSIG
12-02-22 METAR EDDT 221220Z 25012KT 9999 FEW025 BKN038 09/02 Q1026 NOSIG
12-02-22 METAR EDDT 221250Z 25010KT 9999 FEW025 BKN038 09/02 Q1025 NOSIG
12-02-22 METAR EDDT 221320Z 25012KT 9999 BKN040 09/02 Q1025 NOSIG
12-02-22 METAR EDDT 221350Z 24011KT 9999 BKN040 09/03 Q1024 NOSIG
12-02-22 METAR EDDT 221420Z 25012KT 9999 BKN040 09/02 Q1024 NOSIG
12-02-22 METAR EDDT 221450Z 22011KT 9999 BKN040 09/02 Q1024 NOSIG
12-02-22 METAR EDDT 221520Z 21010KT 9999 BKN040 09/02 Q1023 NOSIG
12-02-22 METAR EDDT 221550Z 22011KT 9999 BKN040 09/02 Q1023 NOSIG
12-02-22 METAR EDDT 221620Z 21011KT 9999 BKN038 BKN250 09/01 Q1022 NOSIG
12-02-22 METAR EDDT 221650Z 21010KT 9999 FEW038 BKN250 08/02 Q1022 NOSIG
12-02-22 METAR EDDT 221720Z 21011KT CAVOK 08/02 Q1022 NOSIG
12-02-22 METAR EDDT 221750Z 21011KT CAVOK 07/02 Q1021 NOSIG
12-02-22 METAR EDDT 221820Z 21010KT CAVOK 07/02 Q1021 NOSIG
12-02-22 METAR EDDT 221850Z 21010KT CAVOK 07/01 Q1020 NOSIG
12-02-22 METAR EDDT 221920Z 22010KT CAVOK 07/01 Q1020 NOSIG
12-02-22 METAR EDDT 221950Z 20009KT CAVOK 07/01 Q1019 NOSIG
12-02-22 METAR EDDT 222020Z 21010KT CAVOK 07/01 Q1018 NOSIG
12-02-22 METAR EDDT 222050Z 21010KT CAVOK 07/01 Q1018 NOSIG
12-02-22 METAR EDDT 222120Z 22011KT CAVOK 07/00 Q1017 NOSIG
12-02-22 METAR EDDT 222150Z 22012KT CAVOK 07/00 Q1016 NOSIG
12-02-22 METAR EDDT 222220Z 22013KT CAVOK 07/M00 Q1016
12-02-22 METAR EDDT 222250Z 22012KT CAVOK 07/M00 Q1015
12-02-22 METAR EDDT 222320Z 23013KT 9999 -RA NSC 07/M00 Q1015
12-02-22 METAR EDDT 222350Z 23012KT 9999 -RA NSC 06/01 Q1014
12-02-23 METAR EDDT 222350Z 23012KT 9999 -RA NSC 06/01 Q1014
12-02-23 METAR EDDT 230020Z 23011KT 9999 RA BKN028 BKN040 05/02 Q1014
12-02-23 METAR EDDT 230050Z 24012KT 9999 RA FEW020 BKN035 05/02 Q1014
12-02-23 METAR EDDT 230120Z 23013KT 9999 -RA FEW008 BKN028 BKN040 05/03 Q1013 RERA
12-02-23 METAR EDDT 230150Z 24015KT 8000 -RA SCT012 BKN027 05/03 Q1013
12-02-23 METAR EDDT 230220Z 24017KT 8000 -RA SCT012 BKN023 05/03 Q1013
12-02-23 METAR EDDT 230250Z 24015KT 9999 -RA FEW010 BKN022 05/03 Q1012
12-02-23 METAR EDDT 230320Z 24017KT 7000 -RA FEW008 SCT015 BKN020 05/03 Q1012
12-02-23 METAR EDDT 230350Z 24016KT 9999 -RA SCT010 BKN015 05/03 Q1012 TEMPO 24015G25KT BKN010
12-02-23 METAR EDDT 230420Z 24015KT 9999 FEW009 BKN012 05/03 Q1011 TEMPO 24015G25KT BKN009
12-02-23 METAR EDDT 230450Z 25015KT 9999 FEW009 BKN012 05/03 Q1011 TEMPO 24015G25KT
12-02-23 METAR EDDT 230520Z 25014KT 9999 FEW009 BKN011 06/04 Q1011 TEMPO 24015G25KT
12-02-23 METAR EDDT 230820Z 27019KT 9999 BKN009 07/05 Q1012 TEMPO 27015G25KT BKN010
12-02-23 METAR EDDT 230850Z 27020KT 9999 BKN008 BKN010 07/05 Q1012 TEMPO 27015G25KT
12-02-23 METAR EDDT 230920Z 28017G28KT 9999 BKN009 07/05 Q1013 TEMPO BKN010
12-02-23 METAR EDDT 230950Z 27016KT 9999 BKN010 BKN012 07/05 Q1013 TEMPO 27015G25KT
12-02-23 METAR EDDT 231020Z 28014KT 9999 BKN011 BKN013 08/05 Q1014 TEMPO 27015G25KT
12-02-23 METAR EDDT 231050Z 28013KT 9999 BKN013 BKN018 08/06 Q1014 TEMPO 27015G25KT
12-02-23 METAR EDDT 231120Z 28013KT 9999 BKN016 09/06 Q1015 TEMPO 27015G25KT
12-02-23 METAR EDDT 231150Z 29013KT 9999 SCT017 BKN021 09/05 Q1015 TEMPO 27015G25KT
12-02-23 METAR EDDT 231220Z 28014G24KT 9999 SCT020 BKN030 10/05 Q1015 TEMPO 27012KT
12-02-23 METAR EDDT 231250Z 29013KT 9999 FEW022 09/05 Q1015 TEMPO 27015G25KT
12-02-23 METAR EDDT 231320Z 29012KT 9999 SCT023 11/05 Q1015 TEMPO 27015G25KT
12-02-23 METAR EDDT 231350Z 30013G24KT 9999 SCT030 11/04 Q1016 TEMPO 27012KT
12-02-23 METAR EDDT 231420Z 29017G27KT 9999 SCT033 SCT230 11/03 Q1016 TEMPO 27012KT
12-02-23 METAR EDDT 231450Z 28016KT 9999 FEW032 SCT230 11/03 Q1016 TEMPO 28015G25KT
12-02-23 METAR EDDT 231520Z 28014KT 9999 FEW033 BKN230 11/03 Q1016 TEMPO 28015G25KT
12-02-23 METAR EDDT 231550Z 28010KT 9999 FEW025 SCT230 10/04 Q1017 TEMPO 28015G25KT
12-02-23 METAR EDDT 231620Z 28012KT 9999 FEW025 SCT230 10/04 Q1017 TEMPO 28015G25KT
12-02-23 METAR EDDT 231650Z 27012KT 9999 FEW045 SCT230 09/05 Q1017 NOSIG
12-02-23 METAR EDDT 231720Z 26011KT 9999 FEW032 BKN037 09/05 Q1017 NOSIG
12-02-23 METAR EDDT 231750Z 26012KT 9999 SCT032 BKN040 09/05 Q1017 NOSIG
12-02-23 METAR EDDT 231820Z 26013KT 9999 FEW016 BKN038 08/05 Q1017 NOSIG
12-02-23 METAR EDDT 231850Z 26013KT 9999 -RA BKN012 BKN017 08/06 Q1017 TEMPO BKN009
12-02-23 METAR EDDT 231920Z 26011KT 9999 SCT009 BKN011 08/06 Q1017 BECMG BKN009
12-02-23 METAR EDDT 232020Z 25012KT 4000 DZ FEW003 BKN004 08/07 Q1017 TEMPO 5000 NSW BKN005
12-02-23 METAR EDDT 232050Z 25012KT 4000 DZ BKN004 08/07 Q1017 TEMPO 5000 NSW
12-02-23 METAR EDDT 232120Z 25013KT 4500 DZ BKN004 08/07 Q1017 TEMPO 5000 NSW
12-02-23 METAR EDDT 232150Z 26013KT 4500 DZ BKN004 BKN005 08/07 Q1017 TEMPO NSW SCT004 BKN005
12-02-24 METAR EDDT 241050Z 27016KT 9999 BKN012 11/09 Q1016 TEMPO BKN015
12-02-24 METAR EDDT 241120Z 27016KT 9999 BKN015 11/09 Q1015 TEMPO BKN014
12-02-24 METAR EDDT 241150Z 28014KT 9999 BKN016 BKN038 11/08 Q1015 TEMPO BKN014
12-02-24 METAR EDDT 241220Z 28016KT 9999 SCT020 BKN036 11/08 Q1015 NOSIG
12-02-24 METAR EDDT 241250Z 28015KT 9999 SCT020 BKN036 11/08 Q1015 NOSIG
12-02-24 METAR EDDT 241320Z 28015KT 9999 SCT020 BKN040 12/07 Q1015 TEMPO 28015G25KT
12-02-24 METAR EDDT 241350Z 28014KT 9999 SCT020 BKN040 12/07 Q1015 TEMPO 28015G25KT
12-02-24 METAR EDDT 241450Z 28012KT 6000 -RADZ FEW008 BKN011 BKN024 10/08 Q1015 TEMPO 4000 -RADZ BKN008
12-02-24 METAR EDDT 241520Z 28013KT 9999 SCT020 BKN040 10/08 Q1015 TEMPO 4000 -RADZ BKN011
12-02-24 METAR EDDT 241550Z 26011KT 9999 SCT020 BKN040 10/08 Q1014 TEMPO 4000 -RADZ
12-02-24 METAR EDDT 241620Z 28013KT 9999 -RA BKN012 BKN040 11/08 Q1014 TEMPO 4000
12-02-24 METAR EDDT 241650Z 26015KT 9999 -RA BKN007 BKN012 10/08 Q1014 TEMPO 4000 -RADZ
12-02-24 METAR EDDT 241720Z 27018KT 4200 -DZRA BKN006 10/09 Q1014 TEMPO 2500 DZRA
12-02-24 METAR EDDT 241750Z 27017G28KT 2400 DZRA BKN007 10/09 Q1014 NOSIG
12-02-24 METAR EDDT 241820Z 29014G24KT 5000 RADZ BKN006 BKN009 10/08 Q1015 TEMPO 27015G25KT 3000 RADZ
12-02-24 METAR EDDT 241850Z 30010KT 9999 -RA SCT007 BKN013 BKN020 09/08 Q1015 RERA TEMPO 30015G25KT RADZ BKN007
12-02-24 METAR EDDT 241920Z 30012KT 9999 -RA FEW013 BKN048 09/07 Q1015 NOSIG
12-02-24 METAR EDDT 242020Z 30012KT 9999 FEW013 BKN040 08/05 Q1016 NOSIG
12-02-24 METAR EDDT 242050Z 30009KT 9999 FEW015 BKN045 08/05 Q1017 NOSIG
12-02-24 METAR EDDT 242120Z 29009KT 9999 FEW015 BKN046 08/05 Q1017 NOSIG
12-02-24 METAR EDDT 242150Z 29010KT 9999 FEW020 BKN046 07/05 Q1017 NOSIG
12-02-24 METAR EDDT 242220Z 29014G25KT 9999 SCT019 BKN025 BKN038 07/04 Q1017
12-02-24 METAR EDDT 242250Z 29015G30KT 9999 FEW016 SCT026 07/03 Q1018
12-02-24 METAR EDDT 242320Z 28014KT CAVOK 06/02 Q1018
12-02-24 METAR EDDT 242350Z 28013KT 9999 FEW016 05/01 Q1018
12-02-25 METAR EDDT 242350Z 28013KT 9999 FEW016 05/01 Q1018
12-02-25 METAR EDDT 250020Z 28014KT 9999 FEW020 05/01 Q1018
12-02-25 METAR EDDT 250050Z 28013KT 9999 BKN020 05/02 Q1018
12-02-25 METAR EDDT 250120Z 28017KT 9999 FEW021 05/01 Q1018
12-02-25 METAR EDDT 250150Z 28014G25KT 9999 BKN020 05/01 Q1018
12-02-25 METAR EDDT 250220Z 28014G26KT 9999 BKN017 05/01 Q1018
12-02-25 METAR EDDT 250250Z 28015G25KT 9999 BKN017 05/01 Q1017
12-02-25 METAR EDDT 250320Z 28014KT 9999 BKN016 05/01 Q1017
12-02-25 METAR EDDT 250350Z 29014KT 9999 FEW016 04/01 Q1017 NOSIG
12-02-25 METAR EDDT 250420Z 28014KT 9999 FEW016 04/01 Q1017 NOSIG
12-02-25 METAR EDDT 250450Z 29012KT 9999 FEW017 BKN019 04/01 Q1018 NOSIG
12-02-25 METAR EDDT 250520Z 28013KT 9999 FEW015 BKN230 04/01 Q1017 NOSIG
12-02-25 METAR EDDT 250550Z 27015KT 9999 FEW015 SCT017 BKN230 04/01 Q1017 NOSIG
12-02-25 METAR EDDT 250620Z 28017KT 9999 SCT018 04/01 Q1017 TEMPO 27015G25KT
12-02-25 METAR EDDT 250650Z 27014KT 9999 SCT018 04/01 Q1017 TEMPO 27015G25KT
12-02-25 METAR EDDT 250720Z 28013KT 9999 FEW015 04/01 Q1017 TEMPO 27015G25KT
12-02-25 METAR EDDT 250750Z 28015KT 9999 FEW015 SCT120 BKN250 05/01 Q1017 TEMPO 27015G25KT
12-02-25 METAR EDDT 250820Z 27015KT 9999 FEW015 SCT120 BKN250 05/01 Q1017 TEMPO
12-02-25 METAR EDDT 250850Z 27018KT 9999 FEW017 SCT120 BKN250 06/02 Q1017 TEMPO
12-02-25 METAR EDDT 250920Z 27017KT 9999 SCT020 SCT120 BKN250 06/02 Q1017 TEMPO 27020G30KT
12-02-25 METAR EDDT 250950Z 27020KT 9999 SCT020 SCT120 BKN250 06/01 Q1017 TEMPO
12-02-25 METAR EDDT 251020Z 27018KT 9999 BKN025 SCT250 07/01 Q1016 TEMPO 27020G30KT
12-02-25 METAR EDDT 251050Z 28018KT 9999 BKN025 07/01 Q1016 TEMPO 27020G30KT
12-02-25 METAR EDDT 251120Z 28016G27KT 9999 BKN025 07/01 Q1016 NOSIG
12-02-25 METAR EDDT 251150Z 28016G26KT 9999 FEW030 09/01 Q1015 NOSIG
12-02-25 METAR EDDT 251220Z 29018G30KT 9999 BKN033 08/01 Q1015 NOSIG
12-02-25 METAR EDDT 251250Z 28016G31KT 9999 BKN033 08/01 Q1015 NOSIG
12-02-25 METAR EDDT 251320Z 29014KT 9999 BKN033 08/01 Q1015 TEMPO 27020G30KT
12-02-25 METAR EDDT 251350Z 28014KT 9999 BKN030 07/01 Q1015 TEMPO 27020G30KT
12-02-25 METAR EDDT 251420Z 28015KT 9999 BKN030 08/01 Q1014 TEMPO 27020G30KT
12-02-25 METAR EDDT 251450Z 28016KT 9999 BKN030 08/01 Q1014 TEMPO 27020G30KT
12-02-25 METAR EDDT 251520Z 29014KT 9999 BKN037 08/01 Q1014 TEMPO 27020G30KT
12-02-25 METAR EDDT 251550Z 28013KT 9999 BKN037 07/01 Q1014 TEMPO 27020G30KT
12-02-25 METAR EDDT 251620Z 29013KT 9999 BKN030 07/01 Q1014 TEMPO 27020G30KT
12-02-25 METAR EDDT 251650Z 28013KT 9999 -RA BKN046 07/01 Q1014 TEMPO 27020G30KT
12-02-25 METAR EDDT 251720Z 28013G23KT 9999 -RA BKN030 BKN046 07/01 Q1014 TEMPO 28015G25KT
12-02-25 METAR EDDT 251750Z 29013KT 9999 BKN033 07/01 Q1014 TEMPO 28015G25KT
12-02-25 METAR EDDT 251820Z 29013KT 9999 -RA FEW033 BKN045 06/02 Q1014 TEMPO 29015G25KT
12-02-25 METAR EDDT 251850Z 29011KT 9999 SCT028 BKN035 06/02 Q1014 NOSIG
12-02-25 METAR EDDT 251920Z 29013G24KT 9999 SCT028 06/01 Q1014 NOSIG
12-02-25 METAR EDDT 251950Z 29012KT 9999 FEW025 BKN042 05/01 Q1014 TEMPO 28015G25KT
12-02-25 METAR EDDT 252020Z 29011KT 9999 SCT027 BKN040 06/01 Q1015 TEMPO 28015G25KT
12-02-25 METAR EDDT 252050Z 29013KT 9999 SCT030 BKN040 06/01 Q1015 TEMPO 28015G25KT
12-02-25 METAR EDDT 252120Z 29013KT 9999 FEW040 BKN100 05/01 Q1015 TEMPO 28015G25KT
12-02-25 METAR EDDT 252150Z 30012KT 9999 FEW040 BKN100 05/01 Q1015 TEMPO 28015G25KT
12-02-25 METAR EDDT 252220Z 29011KT 9999 -RA BKN020 05/02 Q1015
12-02-25 METAR EDDT 252250Z 29011KT 9999 SCT016 BKN025 05/02 Q1015
12-02-25 METAR EDDT 252320Z 29011KT 9999 SCT016 BKN025 05/02 Q1015
12-02-25 METAR EDDT 252350Z 29011KT 9999 -RA BKN015 BKN040 05/02 Q1015
12-02-26 METAR EDDT 252350Z 29011KT 9999 -RA BKN015 BKN040 05/02 Q1015
12-02-26 METAR EDDT 260020Z 29013KT 9999 SCT018 BKN035 05/02 Q1015
12-02-26 METAR EDDT 260050Z 30013G23KT 9999 RA SCT018 BKN025 05/02 Q1015
12-02-26 METAR EDDT 260120Z 29009KT 9999 -RA SCT010 SCT025 BKN050 04/02 Q1015 RERA
12-02-26 METAR EDDT 260150Z 29007KT 9999 SCT022 BKN070 04/02 Q1015
12-02-26 METAR EDDT 260220Z 29008KT 9999 FEW011 BKN037 04/02 Q1015
12-02-26 METAR EDDT 260250Z 29008KT 9999 FEW009 BKN040 03/01 Q1015
12-02-26 METAR EDDT 260320Z 30008KT 9999 SCT007 BKN009 03/02 Q1015
12-02-26 METAR EDDT 260350Z 30007KT 9999 -RA FEW006 SCT008 BKN036 03/02 Q1015 TEMPO BKN010
12-02-26 METAR EDDT 260420Z 30007KT 9999 -RA FEW006 SCT010 BKN040 03/02 Q1015 TEMPO
12-02-26 METAR EDDT 260450Z 30006KT 9999 SCT008 SCT010 BKN045 03/02 Q1016 TEMPO
12-02-26 METAR EDDT 260520Z 30007KT 9999 FEW008 SCT010 BKN046 03/02 Q1016 TEMPO
12-02-26 METAR EDDT 260550Z 30008KT 9999 FEW008 BKN046 03/02 Q1016 TEMPO BKN010
12-02-26 METAR EDDT 260620Z 31005KT 9999 SCT008 BKN046 03/02 Q1016 TEMPO BKN008
12-02-26 METAR EDDT 260650Z 31007KT 9999 FEW017 BKN040 04/02 Q1017 NOSIG
12-02-26 METAR EDDT 260720Z 33006KT 9999 -RA FEW010 SCT027 BKN035 04/02 Q1017 NOSIG
12-02-26 METAR EDDT 260750Z 32006KT 9999 FEW014 BKN029 04/02 Q1017 NOSIG
12-02-26 METAR EDDT 260820Z 32007KT 9999 FEW015 05/02 Q1018 NOSIG
12-02-26 METAR EDDT 260850Z 34010KT 9999 BKN020 05/00 Q1018 NOSIG
12-02-26 METAR EDDT 260920Z 34011KT 9999 SCT022 05/M01 Q1019 NOSIG
12-02-26 METAR EDDT 260950Z 34007KT 9999 SCT026 05/M01 Q1019 NOSIG
12-02-26 METAR EDDT 261020Z 35010KT 9999 SCT029 06/M03 Q1019 NOSIG
12-02-26 METAR EDDT 261050Z 01009KT 9999 FEW030 06/M07 Q1020 NOSIG
12-02-26 METAR EDDT 261120Z 35009KT 9999 FEW030 06/M06 Q1020 NOSIG
12-02-26 METAR EDDT 261150Z 36011KT 9999 FEW035 06/M10 Q1020 NOSIG
12-02-26 METAR EDDT 261220Z 34012KT 9999 FEW035 07/M14 Q1020 NOSIG
12-02-26 METAR EDDT 261250Z 36008KT 9999 FEW035 07/M14 Q1020 NOSIG
12-02-26 METAR EDDT 261320Z 36009KT 9999 FEW035 07/M14 Q1021 NOSIG
12-02-26 METAR EDDT 261350Z 34009KT 9999 FEW035 07/M14 Q1021 NOSIG
12-02-26 METAR EDDT 261420Z 34010G21KT 9999 FEW035 06/M16 Q1021 NOSIG
12-02-26 METAR EDDT 261450Z 36008KT 9999 FEW035 07/M13 Q1021 NOSIG
12-02-26 METAR EDDT 261520Z 36008KT 9999 FEW035 06/M13 Q1021 NOSIG
12-02-26 METAR EDDT 261550Z 32008KT CAVOK 06/M13 Q1022 NOSIG
12-02-26 METAR EDDT 261620Z 34006KT CAVOK 05/M13 Q1022 NOSIG
12-02-26 METAR EDDT 261650Z 35006KT CAVOK 04/M14 Q1022 NOSIG
12-02-26 METAR EDDT 261720Z 33005KT CAVOK 04/M13 Q1023 NOSIG
12-02-26 METAR EDDT 261750Z 34006KT CAVOK 03/M13 Q1023 NOSIG
12-02-26 METAR EDDT 261820Z 33005KT CAVOK 03/M12 Q1023 NOSIG
12-02-26 METAR EDDT 261850Z 33004KT CAVOK 02/M12 Q1023 NOSIG
12-02-26 METAR EDDT 261920Z 33003KT CAVOK 02/M11 Q1024 NOSIG
12-02-26 METAR EDDT 261950Z 32003KT CAVOK 01/M10 Q1024 NOSIG
12-02-26 METAR EDDT 262020Z 34003KT CAVOK 01/M09 Q1024 NOSIG
12-02-26 METAR EDDT 262050Z 34004KT CAVOK 01/M09 Q1024 NOSIG
12-02-26 METAR EDDT 262120Z 27004KT CAVOK M02/M10 Q1024 NOSIG
12-02-26 METAR EDDT 262150Z 29002KT CAVOK M03/M09 Q1025 NOSIG
12-02-26 METAR EDDT 262220Z 27003KT CAVOK M02/M08 Q1025
12-02-26 METAR EDDT 262250Z 26003KT CAVOK M03/M08 Q1025
12-02-26 METAR EDDT 262320Z 27003KT CAVOK M03/M08 Q1025
12-02-26 METAR EDDT 262350Z 28003KT CAVOK M03/M08 Q1025
12-02-27 METAR EDDT 262350Z 28003KT CAVOK M03/M08 Q1025
12-02-27 METAR EDDT 270020Z 27001KT CAVOK M05/M08 Q1025
12-02-27 METAR EDDT 270050Z 24002KT CAVOK M05/M08 Q1025
12-02-27 METAR EDDT 270120Z 26003KT CAVOK M04/M06 Q1025
12-02-27 METAR EDDT 270150Z 25004KT CAVOK M04/M07 Q1025
12-02-27 METAR EDDT 270220Z 27004KT CAVOK M04/M06 Q1025
12-02-27 METAR EDDT 270250Z 24002KT CAVOK M05/M07 Q1025
12-02-27 METAR EDDT 270320Z 27002KT CAVOK M04/M06 Q1025
12-02-27 METAR EDDT 270350Z 26003KT CAVOK M05/M07 Q1025 NOSIG
12-02-27 METAR EDDT 270420Z 30002KT CAVOK M04/M06 Q1025 NOSIG
12-02-27 METAR EDDT 270450Z 28001KT CAVOK M04/M06 Q1024 NOSIG
12-02-27 METAR EDDT 270520Z 30001KT CAVOK M04/M06 Q1024 NOSIG
12-02-27 METAR EDDT 270550Z 28002KT 9999 SCT046 M04/M06 Q1024 NOSIG
12-02-27 METAR EDDT 270620Z 29002KT 9999 FEW044 M04/M05 Q1024 NOSIG
12-02-27 METAR EDDT 270650Z 30002KT 9999 FEW042 M03/M05 Q1025 NOSIG
12-02-27 METAR EDDT 270720Z 28002KT 9999 FEW042 M02/M04 Q1025 NOSIG
12-02-27 METAR EDDT 270750Z 25003KT 9999 FEW042 M01/M04 Q1025 NOSIG
12-02-27 METAR EDDT 270820Z 26003KT 9999 FEW042 00/M03 Q1025 NOSIG
12-02-27 METAR EDDT 270850Z 26003KT 9999 FEW042 BKN220 02/M04 Q1025 NOSIG
12-02-27 METAR EDDT 270920Z 25004KT 220V280 9999 FEW042 BKN220 04/M05 Q1024 NOSIG
12-02-27 METAR EDDT 270950Z 24007KT CAVOK 05/M06 Q1024 NOSIG
12-02-27 METAR EDDT 271020Z 23007KT CAVOK 05/M05 Q1024 NOSIG
12-02-27 METAR EDDT 271050Z 24007KT 9999 FEW035 BKN220 06/M04 Q1023 NOSIG
12-02-27 METAR EDDT 271120Z 27011KT 9999 FEW035 BKN220 05/M04 Q1023 NOSIG
12-02-27 METAR EDDT 271150Z 26010KT 9999 FEW035 BKN220 05/M02 Q1023 BECMG BKN012
12-02-27 METAR EDDT 271220Z 27009KT 9999 FEW035 SCT100 BKN220 05/M02 Q1023 BECMG BKN012
12-02-27 METAR EDDT 271250Z 25010KT 9999 FEW025 SCT100 BKN220 04/M01 Q1022 BECMG
12-02-27 METAR EDDT 271320Z 26012KT 9999 FEW016 SCT100 BKN120 04/M01 Q1023 BECMG
12-02-27 METAR EDDT 271350Z 26012KT 9999 BKN013 BKN100 03/M01 Q1023 BECMG BKN009
12-02-27 METAR EDDT 271420Z 25006KT 9999 BKN013 BKN100 03/M01 Q1022 BECMG BKN009
12-02-27 METAR EDDT 271450Z 27006KT 9999 BKN011 BKN015 03/M00 Q1022 BECMG BKN009
12-02-27 METAR EDDT 271520Z 26005KT 9999 -RA FEW011 BKN014 03/M00 Q1021 BECMG BKN009
12-02-27 METAR EDDT 271550Z 24003KT 9999 -RA FEW012 BKN016 03/00 Q1021 BECMG BKN012
12-02-27 METAR EDDT 271620Z 22005KT 9999 -RA FEW012 BKN015 03/00 Q1021 TEMPO 4000 RADZ BKN009
12-02-27 METAR EDDT 271650Z 21005KT 9999 -RA SCT011 BKN015 03/01 Q1021 TEMPO 4000
12-02-27 METAR EDDT 271720Z 21007KT 9000 -RA BKN010 03/01 Q1021 BECMG 4000 BR BKN008
12-02-27 METAR EDDT 271750Z 19005KT 7000 -RA BKN013 03/01 Q1020 BECMG 4000 BR
12-02-27 METAR EDDT 271850Z 20005KT 4000 RADZ BR BKN003 03/02 Q1020 BECMG NSW 2500
12-02-27 METAR EDDT 271950Z 25007KT 2600 -DZRA BR BKN003 04/03 Q1020 NOSIG
12-02-27 METAR EDDT 272020Z 26007KT 2600 -DZRA BR BKN003 04/03 Q1020 NOSIG
12-02-28 METAR EDDT 280550Z 26009KT 2000 -RADZ BR OVC002 06/05 Q1017 NOSIG
12-02-28 METAR EDDT 280620Z 26009KT 2200 -RA BR SCT002 BKN003 06/05 Q1017 NOSIG
12-02-28 METAR EDDT 280650Z 27011KT 2800 -RA BR BKN003 BKN005 06/05 Q1017 BECMG 3000 -DZ
12-02-28 METAR EDDT 280720Z 27011KT 3500 -RA BR SCT003 BKN004 06/06 Q1017 NOSIG
12-02-28 METAR EDDT 280750Z 27011KT 4000 BR BKN004 BKN006 06/06 Q1017 NOSIG
12-02-28 METAR EDDT 280820Z 28011KT 4200 -RA BR BKN004 BKN006 07/06 Q1017 NOSIG
12-02-28 METAR EDDT 280850Z 28012KT 4000 -RA BR BKN004 BKN006 07/06 Q1017 NOSIG
12-02-28 METAR EDDT 280920Z 27013KT 4000 -RA BR SCT005 BKN007 07/06 Q1016 BECMG 5000
12-02-28 METAR EDDT 280950Z 27013KT 4200 -RA BR BKN007 BKN009 07/06 Q1016 BECMG
12-02-28 METAR EDDT 281020Z 27013KT 4200 -RA BR SCT006 BKN008 07/06 Q1016 BECMG
12-02-28 METAR EDDT 281050Z 28012KT 4200 -RADZ BR BKN007 BKN009 07/06 Q1016 BECMG
12-02-28 METAR EDDT 281120Z 28013KT 6000 BKN008 BKN010 08/06 Q1015 NOSIG
12-02-28 METAR EDDT 281150Z 28013G23KT 8000 -RA BKN009 BKN011 08/07 Q1015 NOSIG
12-02-28 METAR EDDT 281220Z 28014KT 9000 SCT008 BKN010 08/07 Q1015 TEMPO BKN008
12-02-28 METAR EDDT 281250Z 28014KT 9000 -RA BKN008 BKN010 08/07 Q1015 TEMPO 28015G25KT SCT008 BKN010
12-02-28 METAR EDDT 281320Z 28013KT 9000 -RA BKN008 BKN010 08/07 Q1014 TEMPO
12-02-28 METAR EDDT 281350Z 29012KT 9000 BKN007 BKN009 09/07 Q1014 TEMPO 28015G25KT
12-02-28 METAR EDDT 281420Z 28016KT 9000 BKN007 BKN009 09/07 Q1014 TEMPO 28015G25KT
12-02-28 METAR EDDT 281450Z 28013KT 9000 BKN007 09/07 Q1014 TEMPO 28015G25KT
12-02-28 METAR EDDT 281520Z 29011KT 9000 BKN007 BKN009 09/07 Q1014 TEMPO 28015G25KT
12-02-28 METAR EDDT 281550Z 29012KT 9000 BKN008 09/08 Q1014 TEMPO 28015G25KT
12-02-28 METAR EDDT 281620Z 29013KT 9000 BKN007 09/08 Q1014 TEMPO 28015G25KT
12-02-28 METAR EDDT 281650Z 29013KT 9000 BKN007 10/08 Q1014 TEMPO 28015G25KT
12-02-28 METAR EDDT 281720Z 28011KT 9000 BKN007 10/08 Q1015 TEMPO 28015G25KT
12-02-28 METAR EDDT 281750Z 29012KT 9000 BKN007 10/08 Q1015 TEMPO 28015G25KT
12-02-28 METAR EDDT 281820Z 28013KT 9000 BKN006 10/08 Q1015 NOSIG
12-02-28 METAR EDDT 281850Z 29011KT 9000 BKN006 10/08 Q1015 NOSIG
12-02-28 METAR EDDT 281920Z 30010KT 9000 BKN006 10/08 Q1015 NOSIG
12-02-28 METAR EDDT 281950Z 30011KT 8000 BKN005 10/08 Q1015 TEMPO BKN004
12-02-28 METAR EDDT 282020Z 30011KT 8000 BKN005 10/09 Q1016 TEMPO BKN004
12-02-28 METAR EDDT 282120Z 30010KT 8000 BKN006 10/09 Q1016 TEMPO BKN004
12-02-28 METAR EDDT 282150Z 30011KT 8000 BKN006 10/09 Q1016 TEMPO BKN004
12-02-28 METAR EDDT 282220Z 29012KT 9000 BKN006 10/09 Q1016
12-02-28 METAR EDDT 282250Z 30013G23KT 9000 BKN006 10/09 Q1016
12-02-29 METAR EDDT 290020Z 31007KT 4000 DZ BR SCT003 BKN005 10/09 Q1017
12-02-29 METAR EDDT 290120Z 30008KT 4000 DZ BR FEW003 BKN004 10/09 Q1017
12-02-29 METAR EDDT 290150Z 30007KT 4000 DZ BR FEW003 BKN004 10/09 Q1017
12-02-29 METAR EDDT 290220Z 30007KT 4000 DZ BR FEW003 BKN004 10/09 Q1018
12-02-29 METAR EDDT 290350Z 31006KT 4000 DZ BR FEW003 BKN004 09/08 Q1018 NOSIG
12-02-29 METAR EDDT 290420Z 30006KT 4000 DZ BR FEW003 BKN004 09/08 Q1019 NOSIG
12-02-29 METAR EDDT 291020Z 31006KT 9000 BKN007 09/08 Q1022 NOSIG
12-02-29 METAR EDDT 291150Z 30006KT 9999 BKN008 09/08 Q1022 NOSIG
12-02-29 METAR EDDT 291220Z 28005KT 9999 BKN008 09/08 Q1022 NOSIG
12-02-29 METAR EDDT 291250Z 30006KT 9999 FEW004 BKN008 09/08 Q1022 NOSIG
12-02-29 METAR EDDT 291320Z 30007KT 9999 BKN007 09/08 Q1022 NOSIG
12-02-29 METAR EDDT 291350Z 29006KT 9999 BKN007 10/08 Q1022 NOSIG
12-02-29 METAR EDDT 291420Z 29006KT 9999 BKN007 10/08 Q1022 NOSIG
12-02-29 METAR EDDT 291450Z 28005KT 9999 BKN007 10/08 Q1022 NOSIG
12-02-29 METAR EDDT 291520Z 29004KT 9999 BKN008 BKN034 10/09 Q1022 TEMPO SCT009 BKN035
12-02-29 METAR EDDT 291550Z 28005KT 9999 FEW008 BKN033 10/09 Q1022 NOSIG
12-02-29 METAR EDDT 291620Z 28004KT 9999 FEW008 BKN012 10/09 Q1022 BECMG BKN008
12-02-29 METAR EDDT 291650Z 27004KT 9999 FEW008 BKN012 10/09 Q1022 BECMG BKN008
12-02-29 METAR EDDT 291720Z 28005KT 9999 FEW008 BKN012 10/09 Q1022 BECMG BKN008
12-02-29 METAR EDDT 291750Z 27007KT 9999 BKN008 BKN012 11/09 Q1022 NOSIG
12-02-29 METAR EDDT 291820Z 28007KT 9999 BKN007 11/09 Q1022 NOSIG
12-02-29 METAR EDDT 291850Z 28007KT 9000 BKN006 11/09 Q1022 NOSIG
12-02-29 METAR EDDT 291920Z 28008KT 7000 BKN005 11/09 Q1023 TEMPO BKN004
12-02-29 METAR EDDT 291950Z 28007KT 7000 BKN006 10/09 Q1023 TEMPO BKN004
12-02-29 METAR EDDT 292020Z 29007KT 6000 SCT004 BKN006 10/09 Q1023 TEMPO BKN004
12-02-29 METAR EDDT 292250Z 26004KT 9999 FEW008 BKN011 09/08 Q1023
12-02-29 METAR EDDT 292320Z 27005KT 9999 BKN008 BKN020 10/08 Q1023
12-02-29 METAR EDDT 292350Z 26005KT 9999 BKN006 09/08 Q1023
12-03-01 METAR EDDT 292350Z 26005KT 9999 BKN006 09/08 Q1023
12-03-01 METAR EDDT 010150Z 26006KT 3200 -RADZ SCT002 BKN003 09/09 Q1023
12-03-01 METAR EDDT 010220Z 27006KT 4200 -RADZ SCT003 BKN005 09/09 Q1022
12-03-01 METAR EDDT 010720Z 28006KT 5000 BR SCT005 BKN007 09/08 Q1022 TEMPO BKN010
12-03-01 METAR EDDT 010750Z 28006KT 5000 BR SCT005 BKN008 09/08 Q1022 TEMPO BKN010
12-03-01 METAR EDDT 010820Z 29007KT 7000 FEW005 BKN013 09/08 Q1022 TEMPO BKN015
12-03-01 METAR EDDT 010950Z 30009KT 6000 SCT005 BKN007 09/08 Q1023 NOSIG
12-03-01 METAR EDDT 011020Z 29007KT 9000 FEW005 BKN007 09/08 Q1023 NOSIG
12-03-01 METAR EDDT 011050Z 30008KT 9000 SCT005 BKN007 09/08 Q1023 TEMPO BKN010
12-03-01 METAR EDDT 011120Z 28008KT 9000 FEW007 SCT010 BKN013 09/08 Q1023 NOSIG
12-03-01 METAR EDDT 011150Z 29007KT 9999 FEW007 BKN010 BKN013 10/08 Q1023 NOSIG
12-03-01 METAR EDDT 011220Z 28007KT 9999 SCT007 BKN010 10/07 Q1023 TEMPO BKN009
12-03-01 METAR EDDT 011250Z 28011KT 7000 BKN007 BKN010 09/07 Q1023 BECMG BKN012
12-03-01 METAR EDDT 011320Z 29007KT 7000 SCT008 BKN012 10/07 Q1023 NOSIG
12-03-01 METAR EDDT 011350Z 30008KT 9000 SCT008 BKN011 10/07 Q1023 TEMPO SCT012 BKN020
12-03-01 METAR EDDT 011420Z 29011KT 9999 SCT012 BKN014 09/06 Q1023 TEMPO SCT012
12-03-01 METAR EDDT 011450Z 29009KT 9999 BKN012 BKN014 09/06 Q1023 TEMPO SCT012
12-03-01 METAR EDDT 011520Z 30007KT 9999 BKN014 09/06 Q1023 TEMPO BKN015
12-03-01 METAR EDDT 011550Z 30007KT 9000 BKN013 09/06 Q1023 TEMPO BKN015
12-03-01 METAR EDDT 011620Z 31007KT 9000 BKN013 09/06 Q1023 TEMPO BKN015
12-03-01 METAR EDDT 011650Z 30008KT 8000 BKN013 09/06 Q1024 TEMPO BKN015
12-03-01 METAR EDDT 011720Z 31007KT 9000 SCT013 BKN015 09/06 Q1024 TEMPO BKN013
12-03-01 METAR EDDT 011750Z 30008KT 9999 SCT013 BKN015 09/06 Q1024 TEMPO BKN013
12-03-01 METAR EDDT 011820Z 30009KT 9999 FEW013 BKN015 09/05 Q1024 NOSIG
12-03-01 METAR EDDT 011850Z 31006KT 9999 BKN017 09/05 Q1024 NOSIG
12-03-01 METAR EDDT 011920Z 30005KT 9999 BKN017 09/05 Q1024 NOSIG
12-03-01 METAR EDDT 011950Z 29005KT 9999 BKN018 08/06 Q1024 NOSIG
12-03-01 METAR EDDT 012020Z 29006KT 9999 BKN018 08/05 Q1024 NOSIG
12-03-01 METAR EDDT 012050Z 29006KT 9999 BKN018 08/05 Q1024 NOSIG
12-03-01 METAR EDDT 012120Z 30006KT 9999 BKN018 08/05 Q1024 NOSIG
12-03-01 METAR EDDT 012150Z 30007KT 9999 BKN018 09/05 Q1024 NOSIG
12-03-01 METAR EDDT 012220Z 30004KT 9999 BKN018 08/05 Q1024
12-03-01 METAR EDDT 012250Z 31007KT 9999 BKN018 08/05 Q1024
12-03-01 METAR EDDT 012320Z 31007KT 9999 BKN018 08/05 Q1024
12-03-01 METAR EDDT 012350Z 28004KT 9999 BKN018 08/05 Q1024
12-03-02 METAR EDDT 012350Z 28004KT 9999 BKN018 08/05 Q1024
12-03-02 METAR EDDT 020020Z 30007KT 9999 BKN018 08/05 Q1024
12-03-02 METAR EDDT 020050Z 30006KT 9999 BKN017 08/05 Q1024
12-03-02 METAR EDDT 020120Z 29006KT 9999 BKN017 08/05 Q1024
12-03-02 METAR EDDT 020150Z 30010KT 9999 BKN016 08/05 Q1024
12-03-02 METAR EDDT 020220Z 30007KT 9999 BKN014 08/05 Q1024
12-03-02 METAR EDDT 020250Z 29010KT 9999 BKN016 07/04 Q1024
12-03-02 METAR EDDT 020320Z 29007KT 9999 BKN017 07/04 Q1024
12-03-02 METAR EDDT 020350Z 30007KT 9999 BKN017 07/04 Q1025 NOSIG
12-03-02 METAR EDDT 020420Z 30006KT 9999 BKN017 07/04 Q1025 NOSIG
12-03-02 METAR EDDT 020450Z 30006KT 9999 BKN018 07/04 Q1025 NOSIG
12-03-02 METAR EDDT 020520Z 29007KT 9999 BKN017 07/04 Q1025 NOSIG
12-03-02 METAR EDDT 020550Z 30008KT 9999 BKN014 07/04 Q1025 NOSIG
12-03-02 METAR EDDT 020620Z 30008KT 9999 BKN012 07/04 Q1025 TEMPO SCT012
12-03-02 METAR EDDT 020650Z 29008KT 9999 BKN012 SCT300 07/04 Q1025 TEMPO SCT012
12-03-02 METAR EDDT 020720Z 30007KT 9999 BKN010 SCT300 07/04 Q1025 TEMPO SCT012
12-03-02 METAR EDDT 020750Z 31007KT 9999 BKN010 07/04 Q1026 BECMG BKN008
12-03-02 METAR EDDT 020820Z 32008KT 9000 BKN009 07/04 Q1026 NOSIG
12-03-02 METAR EDDT 020850Z 31007KT 8000 BKN009 07/04 Q1026 NOSIG
12-03-02 METAR EDDT 020920Z 31006KT 8000 BKN009 07/04 Q1026 NOSIG
12-03-02 METAR EDDT 020950Z 33005KT 8000 BKN011 07/04 Q1026 NOSIG
12-03-02 METAR EDDT 021020Z 34008KT 8000 BKN012 08/04 Q1027 NOSIG
12-03-02 METAR EDDT 021050Z 34007KT 9999 BKN012 07/04 Q1027 NOSIG
12-03-02 METAR EDDT 021120Z 36005KT 9999 BKN012 08/04 Q1027 BECMG BKN015
12-03-02 METAR EDDT 021150Z 29006KT 9999 BKN013 08/04 Q1027 BECMG BKN015
12-03-02 METAR EDDT 021220Z 29007KT 9999 BKN013 08/04 Q1027 BECMG BKN015
12-03-02 METAR EDDT 021250Z 30007KT 9999 BKN014 08/04 Q1027 BECMG BKN015
12-03-02 METAR EDDT 021320Z 33007KT 9999 BKN013 07/04 Q1028 NOSIG
12-03-02 METAR EDDT 021350Z 34005KT 9999 BKN013 07/04 Q1027 NOSIG
12-03-02 METAR EDDT 021420Z 35005KT 9999 BKN012 07/04 Q1028 NOSIG
12-03-02 METAR EDDT 021450Z 01006KT 9999 OVC010 06/03 Q1028 TEMPO BKN009
12-03-02 METAR EDDT 021520Z 34005KT 9999 OVC010 06/03 Q1028 TEMPO BKN009
12-03-02 METAR EDDT 021550Z 34004KT 9999 OVC010 06/03 Q1028 BECMG BKN015
12-03-02 METAR EDDT 021620Z 02004KT 9999 BKN014 06/03 Q1028 BECMG SCT015
12-03-02 METAR EDDT 021650Z VRB03KT 9999 BKN014 SCT300 06/02 Q1028 BECMG SCT015
12-03-02 METAR EDDT 021720Z VRB02KT 9999 SCT015 SCT300 05/02 Q1028 NOSIG
12-03-02 METAR EDDT 021750Z 31002KT 9999 SCT015 05/02 Q1028 NOSIG
12-03-02 METAR EDDT 021820Z 33002KT 9999 FEW015 04/02 Q1028 NOSIG
12-03-02 METAR EDDT 021850Z 32002KT 9999 MIFG FEW015 03/01 Q1029 NOSIG
12-03-02 METAR EDDT 021920Z 34002KT 9999 MIFG NSC 02/00 Q1029 NOSIG
12-03-02 METAR EDDT 021950Z 36003KT 9999 MIFG NSC 02/01 Q1029 NOSIG
12-03-02 METAR EDDT 022020Z 33001KT 9999 MIFG NSC 01/M01 Q1029 NOSIG
12-03-02 METAR EDDT 022050Z VRB01KT 9999 MIFG SCT022 01/M01 Q1029 NOSIG
12-03-02 METAR EDDT 022120Z 35002KT 9999 MIFG FEW021 01/00 Q1029 NOSIG
12-03-02 METAR EDDT 022150Z 03004KT CAVOK 03/02 Q1029 NOSIG
12-03-02 METAR EDDT 022220Z VRB02KT CAVOK 03/02 Q1029
12-03-02 METAR EDDT 022250Z 03002KT 9999 R08L/0450V0700D R08R/P2000N MIFG NSC 02/01 Q1029
12-03-02 METAR EDDT 022320Z 04002KT 9999 R08L/0450N R08R/0900N BCFG NSC 02/00 Q1029
12-03-02 METAR EDDT 022350Z 03003KT 9999 R08L/0800VP2000D R08R/0600V1500D BCFG NSC 02/00 Q1029
12-03-03 METAR EDDT 022350Z 03003KT 9999 R08L/0800VP2000D R08R/0600V1500D BCFG NSC 02/00 Q1029
12-03-03 METAR EDDT 030020Z 04005KT 9999 MIFG NSC 02/00 Q1029
12-03-03 METAR EDDT 030050Z VRB02KT 9999 MIFG NSC 02/M00 Q1029
12-03-03 METAR EDDT 030120Z 07003KT 9999 MIFG NSC 01/M01 Q1029
12-03-03 METAR EDDT 030150Z 05002KT 9999 MIFG NSC 01/M01 Q1029
12-03-03 METAR EDDT 030220Z 04003KT 9999 MIFG NSC 00/M01 Q1029
12-03-03 METAR EDDT 030250Z 03003KT 9999 MIFG NSC M00/M01 Q1029
12-03-03 METAR EDDT 030320Z 04003KT CAVOK M00/M02 Q1029
12-03-03 METAR EDDT 030350Z 05004KT CAVOK M00/M02 Q1029 NOSIG
12-03-03 METAR EDDT 030420Z 04003KT CAVOK M00/M02 Q1029 NOSIG
12-03-03 METAR EDDT 030450Z 03002KT CAVOK M01/M02 Q1028 NOSIG
12-03-03 METAR EDDT 030520Z 03003KT CAVOK M01/M03 Q1028 NOSIG
12-03-03 METAR EDDT 030550Z 03002KT CAVOK M01/M03 Q1028 NOSIG
12-03-03 METAR EDDT 030620Z 05004KT CAVOK M00/M02 Q1029 NOSIG
12-03-03 METAR EDDT 030650Z 06004KT CAVOK 01/M02 Q1029 NOSIG
12-03-03 METAR EDDT 030720Z 09005KT CAVOK 02/M02 Q1029 NOSIG
12-03-03 METAR EDDT 030750Z 11006KT CAVOK 03/M02 Q1029 NOSIG
12-03-03 METAR EDDT 030820Z 10007KT CAVOK 04/M03 Q1029 NOSIG
12-03-03 METAR EDDT 030850Z 12008KT CAVOK 05/M03 Q1029 NOSIG
12-03-03 METAR EDDT 030920Z 11007KT CAVOK 05/M03 Q1029 NOSIG
12-03-03 METAR EDDT 030950Z 12009KT CAVOK 07/M03 Q1029 NOSIG
12-03-03 METAR EDDT 031020Z 12010KT CAVOK 07/M06 Q1029 NOSIG
12-03-03 METAR EDDT 031050Z 15009KT CAVOK 07/M06 Q1028 NOSIG
12-03-03 METAR EDDT 031120Z 12008KT CAVOK 08/M06 Q1028 NOSIG
12-03-03 METAR EDDT 031150Z 10011KT CAVOK 09/M06 Q1028 NOSIG
12-03-03 METAR EDDT 031220Z 11011KT CAVOK 09/M07 Q1028 NOSIG
12-03-03 METAR EDDT 031250Z 09010KT CAVOK 09/M08 Q1028 NOSIG
12-03-03 METAR EDDT 031320Z 12012KT CAVOK 09/M09 Q1027 NOSIG
12-03-03 METAR EDDT 031350Z 12010KT CAVOK 09/M08 Q1027 NOSIG
12-03-03 METAR EDDT 031420Z 11009KT CAVOK 09/M07 Q1027 NOSIG
12-03-03 METAR EDDT 031450Z 08012KT CAVOK 09/M06 Q1027 NOSIG
12-03-03 METAR EDDT 031520Z 08012KT CAVOK 09/M07 Q1026 NOSIG
12-03-03 METAR EDDT 031550Z 09012KT CAVOK 08/M07 Q1026 NOSIG
12-03-03 METAR EDDT 031620Z 09011KT CAVOK 07/M06 Q1026 NOSIG
12-03-03 METAR EDDT 031650Z 08009KT CAVOK 07/M05 Q1026 NOSIG
12-03-03 METAR EDDT 031720Z 07008KT CAVOK 06/M04 Q1026 NOSIG
12-03-03 METAR EDDT 031750Z 08008KT CAVOK 06/M05 Q1027 NOSIG
12-03-03 METAR EDDT 031820Z 07009KT CAVOK 06/M05 Q1026 NOSIG
12-03-03 METAR EDDT 031850Z 08008KT CAVOK 05/M05 Q1027 NOSIG
12-03-03 METAR EDDT 031920Z 08007KT CAVOK 05/M06 Q1026 NOSIG
12-03-03 METAR EDDT 031950Z 09006KT CAVOK 05/M06 Q1027 NOSIG
12-03-03 METAR EDDT 032020Z 10005KT CAVOK 04/M06 Q1027 NOSIG
12-03-03 METAR EDDT 032050Z 10008KT CAVOK 04/M06 Q1027 NOSIG
12-03-03 METAR EDDT 032120Z 11009KT CAVOK 04/M06 Q1027 NOSIG
12-03-03 METAR EDDT 032150Z 11008KT CAVOK 03/M06 Q1027 NOSIG
12-03-03 METAR EDDT 032220Z 11009KT CAVOK 04/M06 Q1027
12-03-03 METAR EDDT 032250Z 11009KT CAVOK 04/M06 Q1027
12-03-03 METAR EDDT 032320Z 11010KT CAVOK 04/M06 Q1027
12-03-03 METAR EDDT 032350Z 11009KT CAVOK 04/M06 Q1027
12-03-04 METAR EDDT 032350Z 11009KT CAVOK 04/M06 Q1027
12-03-04 METAR EDDT 040020Z 10009KT CAVOK 04/M06 Q1027
12-03-04 METAR EDDT 040050Z 10010KT CAVOK 04/M06 Q1026
12-03-04 METAR EDDT 040120Z 10009KT CAVOK 03/M05 Q1026
12-03-04 METAR EDDT 040150Z 11010KT CAVOK 03/M06 Q1026
12-03-04 METAR EDDT 040220Z 11011KT CAVOK 03/M06 Q1026
12-03-04 METAR EDDT 040250Z 10011KT CAVOK 03/M05 Q1026
12-03-04 METAR EDDT 040320Z 10008KT CAVOK 03/M05 Q1026
12-03-04 METAR EDDT 040350Z 10010KT CAVOK 03/M05 Q1025 NOSIG
12-03-04 METAR EDDT 040420Z 11010KT CAVOK 02/M05 Q1025 NOSIG
12-03-04 METAR EDDT 040450Z 10010KT CAVOK 02/M05 Q1025 NOSIG
12-03-04 METAR EDDT 040520Z 09009KT CAVOK 02/M04 Q1025 NOSIG
12-03-04 METAR EDDT 040550Z 09011KT CAVOK 02/M05 Q1025 NOSIG
12-03-04 METAR EDDT 040620Z 09010KT CAVOK 02/M05 Q1025 NOSIG
12-03-04 METAR EDDT 040650Z 09008KT CAVOK 02/M04 Q1025 NOSIG
12-03-04 METAR EDDT 040720Z 09007KT CAVOK 02/M05 Q1025 NOSIG
12-03-04 METAR EDDT 040750Z 09008KT CAVOK 02/M04 Q1025 NOSIG
12-03-04 METAR EDDT 040820Z 09010KT CAVOK 02/M04 Q1025 NOSIG
12-03-04 METAR EDDT 040850Z 09010KT CAVOK 03/M04 Q1025 NOSIG
12-03-04 METAR EDDT 040920Z 10008KT CAVOK 03/M04 Q1025 NOSIG
12-03-04 METAR EDDT 040950Z 10009KT CAVOK 04/M04 Q1025 NOSIG
12-03-04 METAR EDDT 041020Z 10012KT CAVOK 05/M04 Q1025 NOSIG
12-03-04 METAR EDDT 041050Z 10014KT CAVOK 06/M05 Q1025 NOSIG
12-03-04 METAR EDDT 041120Z 11014KT CAVOK 06/M06 Q1024 NOSIG
12-03-04 METAR EDDT 041150Z 11013KT CAVOK 07/M05 Q1024 NOSIG
12-03-04 METAR EDDT 041220Z 12014KT CAVOK 07/M05 Q1024 NOSIG
12-03-04 METAR EDDT 041250Z 11011KT CAVOK 07/M06 Q1023 NOSIG
12-03-04 METAR EDDT 041320Z 11014KT CAVOK 08/M08 Q1023 NOSIG
12-03-04 METAR EDDT 041350Z 11014KT CAVOK 08/M10 Q1023 NOSIG
12-03-04 METAR EDDT 041420Z 10012KT CAVOK 07/M08 Q1023 NOSIG
12-03-04 METAR EDDT 041450Z 09011KT CAVOK 08/M08 Q1022 NOSIG
12-03-04 METAR EDDT 041520Z 08013KT CAVOK 07/M09 Q1022 NOSIG
12-03-04 METAR EDDT 041550Z 09012KT CAVOK 07/M08 Q1022 NOSIG
12-03-04 METAR EDDT 041620Z 08013KT CAVOK 06/M08 Q1022 NOSIG
12-03-04 METAR EDDT 041650Z 09014KT CAVOK 05/M07 Q1022 NOSIG
12-03-04 METAR EDDT 041720Z 10013KT CAVOK 04/M07 Q1022 NOSIG
12-03-04 METAR EDDT 041750Z 10012KT CAVOK 04/M08 Q1022 NOSIG
12-03-04 METAR EDDT 041820Z 09012KT CAVOK 04/M09 Q1022 NOSIG
12-03-04 METAR EDDT 041850Z 10014KT CAVOK 03/M08 Q1022 NOSIG
12-03-04 METAR EDDT 041920Z 10012KT CAVOK 03/M08 Q1022 NOSIG
12-03-04 METAR EDDT 041950Z 10012KT CAVOK 02/M06 Q1022 NOSIG
12-03-04 METAR EDDT 042020Z 10011KT CAVOK 02/M05 Q1022 NOSIG
12-03-04 METAR EDDT 042050Z 10012KT CAVOK 02/M04 Q1022 NOSIG
12-03-04 METAR EDDT 042120Z 09011KT CAVOK 01/M05 Q1022 NOSIG
12-03-04 METAR EDDT 042150Z 10010KT CAVOK 01/M05 Q1022 NOSIG
12-03-04 METAR EDDT 042220Z 10012KT CAVOK 01/M05 Q1022
12-03-04 METAR EDDT 042250Z 10012KT CAVOK 01/M05 Q1022
12-03-04 METAR EDDT 042320Z 10012KT CAVOK 00/M05 Q1022
12-03-04 METAR EDDT 042350Z 10011KT CAVOK 00/M05 Q1022
12-03-05 METAR EDDT 042350Z 10011KT CAVOK 00/M05 Q1022
12-03-05 METAR EDDT 050020Z 10012KT CAVOK 00/M06 Q1022
12-03-05 METAR EDDT 050050Z 10013KT CAVOK 00/M07 Q1022
12-03-05 METAR EDDT 050120Z 11013KT CAVOK M00/M08 Q1021
12-03-05 METAR EDDT 050150Z 11011KT CAVOK M00/M08 Q1021
12-03-05 METAR EDDT 050220Z 10011KT CAVOK M00/M07 Q1021
12-03-05 METAR EDDT 050250Z 10012KT CAVOK M00/M07 Q1021
12-03-05 METAR EDDT 050320Z 10013KT CAVOK M00/M07 Q1021
12-03-05 METAR EDDT 050350Z 09013KT CAVOK M00/M07 Q1021 NOSIG
12-03-05 METAR EDDT 050420Z 09013KT CAVOK M00/M07 Q1021 NOSIG
12-03-05 METAR EDDT 050450Z 10012KT CAVOK M01/M06 Q1021 NOSIG
12-03-05 METAR EDDT 050520Z 10012KT CAVOK M01/M07 Q1021 NOSIG
12-03-05 METAR EDDT 050550Z 10013KT CAVOK M01/M06 Q1021 NOSIG
12-03-05 METAR EDDT 050620Z 10013KT CAVOK M00/M06 Q1021 NOSIG
12-03-05 METAR EDDT 050650Z 10012KT CAVOK 00/M06 Q1021 NOSIG
12-03-05 METAR EDDT 050720Z 11011KT CAVOK 01/M07 Q1021 NOSIG
12-03-05 METAR EDDT 050750Z 11014KT CAVOK 02/M07 Q1021 NOSIG
12-03-05 METAR EDDT 050820Z 10013KT CAVOK 03/M08 Q1021 NOSIG
12-03-05 METAR EDDT 050850Z 11013KT CAVOK 04/M09 Q1021 NOSIG
12-03-05 METAR EDDT 050920Z 11014KT CAVOK 05/M09 Q1021 NOSIG
12-03-05 METAR EDDT 050950Z 11015KT CAVOK 06/M10 Q1022 NOSIG
12-03-05 METAR EDDT 051020Z 11016G26KT CAVOK 06/M10 Q1022 NOSIG
12-03-05 METAR EDDT 051050Z 11015KT CAVOK 07/M11 Q1022 NOSIG
12-03-05 METAR EDDT 051120Z 11014KT CAVOK 07/M12 Q1022 NOSIG
12-03-05 METAR EDDT 051150Z 10013KT CAVOK 08/M11 Q1021 NOSIG
12-03-05 METAR EDDT 051220Z 11015KT CAVOK 08/M09 Q1021 NOSIG
12-03-05 METAR EDDT 051250Z 11012KT CAVOK 09/M09 Q1021 NOSIG
12-03-05 METAR EDDT 051320Z 09012KT CAVOK 08/M08 Q1021 NOSIG
12-03-05 METAR EDDT 051350Z 09011KT CAVOK 09/M08 Q1021 NOSIG
12-03-05 METAR EDDT 051420Z 09013KT CAVOK 09/M09 Q1021 NOSIG
12-03-05 METAR EDDT 051450Z 09013KT CAVOK 08/M09 Q1021 NOSIG
12-03-05 METAR EDDT 051520Z 09012KT CAVOK 08/M09 Q1021 NOSIG
12-03-05 METAR EDDT 051550Z 09014KT CAVOK 08/M09 Q1021 NOSIG
12-03-05 METAR EDDT 051620Z 09013KT CAVOK 07/M09 Q1022 NOSIG
12-03-05 METAR EDDT 051650Z 09012KT CAVOK 07/M09 Q1022 NOSIG
12-03-05 METAR EDDT 051720Z 09009KT CAVOK 06/M07 Q1022 NOSIG
12-03-05 METAR EDDT 051750Z 08009KT CAVOK 05/M07 Q1023 NOSIG
12-03-05 METAR EDDT 051820Z 08009KT CAVOK 04/M07 Q1023 NOSIG
12-03-05 METAR EDDT 051850Z 09010KT CAVOK 04/M08 Q1023 NOSIG
12-03-05 METAR EDDT 051920Z 10010KT CAVOK 03/M08 Q1024 NOSIG
12-03-05 METAR EDDT 051950Z 09011KT CAVOK 03/M08 Q1024 NOSIG
12-03-05 METAR EDDT 052020Z 10011KT CAVOK 03/M09 Q1024 NOSIG
12-03-05 METAR EDDT 052050Z 09009KT CAVOK 02/M08 Q1024 NOSIG
12-03-05 METAR EDDT 052120Z 09010KT CAVOK 02/M08 Q1025 NOSIG
12-03-05 METAR EDDT 052150Z 10009KT CAVOK 01/M08 Q1025 NOSIG
12-03-05 METAR EDDT 052220Z 09007KT CAVOK 00/M08 Q1025 NOSIG
12-03-05 METAR EDDT 052250Z 10008KT CAVOK 01/M08 Q1025 NOSIG
12-03-05 METAR EDDT 052320Z 09009KT CAVOK 01/M08 Q1026 NOSIG
12-03-05 METAR EDDT 052350Z 09008KT CAVOK 00/M08 Q1026 NOSIG
12-03-06 METAR EDDT 052350Z 09008KT CAVOK 00/M08 Q1026 NOSIG
12-03-06 METAR EDDT 060020Z 09009KT CAVOK 00/M08 Q1026 NOSIG
12-03-06 METAR EDDT 060050Z 10009KT CAVOK M00/M08 Q1026 NOSIG
12-03-06 METAR EDDT 060120Z 10007KT CAVOK M00/M08 Q1026 NOSIG
12-03-06 METAR EDDT 060150Z 09008KT CAVOK M01/M08 Q1026 NOSIG
12-03-06 METAR EDDT 060220Z 08007KT CAVOK M01/M08 Q1026 NOSIG
12-03-06 METAR EDDT 060250Z 06008KT CAVOK M01/M08 Q1026 NOSIG
12-03-06 METAR EDDT 060320Z 07008KT CAVOK M01/M07 Q1026 NOSIG
12-03-06 METAR EDDT 060350Z 07007KT CAVOK M02/M07 Q1027 NOSIG
12-03-06 METAR EDDT 060420Z 06007KT CAVOK M02/M07 Q1027 NOSIG
12-03-06 METAR EDDT 060450Z 09010KT CAVOK M02/M07 Q1027 NOSIG
12-03-06 METAR EDDT 060520Z 10010KT CAVOK M02/M07 Q1027 NOSIG
12-03-06 METAR EDDT 060550Z 09007KT CAVOK M02/M07 Q1028 NOSIG
12-03-06 METAR EDDT 060620Z 09010KT CAVOK M02/M06 Q1028 NOSIG
12-03-06 METAR EDDT 060650Z 10009KT CAVOK M02/M06 Q1028 NOSIG
12-03-06 METAR EDDT 060720Z 09009KT CAVOK M01/M06 Q1029 NOSIG
12-03-06 METAR EDDT 060750Z 10010KT CAVOK M00/M06 Q1029 NOSIG
12-03-06 METAR EDDT 060820Z 10010KT CAVOK 00/M06 Q1029 NOSIG
12-03-06 METAR EDDT 060850Z 09009KT CAVOK 01/M06 Q1029 NOSIG
12-03-06 METAR EDDT 060920Z 09010KT CAVOK 02/M06 Q1030 NOSIG
12-03-06 METAR EDDT 060950Z 10008KT CAVOK 03/M06 Q1030 NOSIG
12-03-06 METAR EDDT 061020Z 07010KT CAVOK 02/M06 Q1030 NOSIG
12-03-06 METAR EDDT 061050Z 10008KT CAVOK 03/M07 Q1030 NOSIG
12-03-06 METAR EDDT 061120Z 07009KT CAVOK 03/M08 Q1030 NOSIG
12-03-06 METAR EDDT 061150Z 07010KT CAVOK 04/M09 Q1030 NOSIG
12-03-06 METAR EDDT 061220Z 10010KT CAVOK 04/M10 Q1030 NOSIG
12-03-06 METAR EDDT 061250Z 10007KT CAVOK 05/M09 Q1029 NOSIG
12-03-06 METAR EDDT 061320Z 09009KT CAVOK 05/M11 Q1029 NOSIG
12-03-06 METAR EDDT 061350Z 09009KT CAVOK 05/M11 Q1029 NOSIG
12-03-06 METAR EDDT 061420Z 08010KT CAVOK 05/M11 Q1029 NOSIG
12-03-06 METAR EDDT 061450Z 09010KT CAVOK 05/M11 Q1030 NOSIG
12-03-06 METAR EDDT 061520Z 09009KT CAVOK 04/M09 Q1030 NOSIG
12-03-06 METAR EDDT 061550Z 06010KT CAVOK 04/M09 Q1030 NOSIG
12-03-06 METAR EDDT 061620Z 06009KT CAVOK 04/M09 Q1030 NOSIG
12-03-06 METAR EDDT 061650Z 06010KT CAVOK 03/M09 Q1030 NOSIG
12-03-06 METAR EDDT 061720Z 07009KT CAVOK 03/M08 Q1030 NOSIG
12-03-06 METAR EDDT 061750Z 08009KT CAVOK 02/M09 Q1030 NOSIG
12-03-06 METAR EDDT 061820Z 08008KT CAVOK 02/M09 Q1030 NOSIG
12-03-06 METAR EDDT 061850Z 09008KT CAVOK 02/M10 Q1030 NOSIG
12-03-06 METAR EDDT 061920Z 09008KT CAVOK 01/M10 Q1030 NOSIG
12-03-06 METAR EDDT 061950Z 10008KT CAVOK 01/M10 Q1031 NOSIG
12-03-06 METAR EDDT 062020Z 12007KT CAVOK 01/M10 Q1031 NOSIG
12-03-06 METAR EDDT 062050Z 12009KT CAVOK 00/M10 Q1031 NOSIG
12-03-06 METAR EDDT 062120Z 13009KT CAVOK 00/M10 Q1031 NOSIG
12-03-06 METAR EDDT 062150Z 13009KT CAVOK M00/M10 Q1031 NOSIG
12-03-06 METAR EDDT 062220Z 13009KT CAVOK M01/M10 Q1031
12-03-06 METAR EDDT 062250Z 13007KT CAVOK M00/M10 Q1031
12-03-06 METAR EDDT 062320Z 13009KT CAVOK M01/M10 Q1030
12-03-06 METAR EDDT 062350Z 13009KT CAVOK M01/M09 Q1030
12-03-07 METAR EDDT 062350Z 13009KT CAVOK M01/M09 Q1030
12-03-07 METAR EDDT 070020Z 13009KT CAVOK M01/M09 Q1030
12-03-07 METAR EDDT 070050Z 13006KT CAVOK M02/M09 Q1030
12-03-07 METAR EDDT 070120Z 13004KT CAVOK M02/M10 Q1030
12-03-07 METAR EDDT 070150Z 12006KT CAVOK M03/M10 Q1030
12-03-07 METAR EDDT 070220Z 12007KT CAVOK M03/M09 Q1029
12-03-07 METAR EDDT 070250Z 12005KT CAVOK M03/M09 Q1029
12-03-07 METAR EDDT 070320Z 11006KT CAVOK M03/M09 Q1029
12-03-07 METAR EDDT 070350Z 11007KT CAVOK M03/M09 Q1028 NOSIG
12-03-07 METAR EDDT 070420Z 10006KT CAVOK M03/M09 Q1028 NOSIG
12-03-07 METAR EDDT 070450Z 12007KT CAVOK M03/M09 Q1028 NOSIG
12-03-07 METAR EDDT 070520Z 13007KT CAVOK M03/M09 Q1028 NOSIG
12-03-07 METAR EDDT 070550Z 12008KT CAVOK M03/M09 Q1028 NOSIG
12-03-07 METAR EDDT 070620Z 12008KT CAVOK M03/M08 Q1028 NOSIG
12-03-07 METAR EDDT 070650Z 12009KT CAVOK M03/M08 Q1027 NOSIG
12-03-07 METAR EDDT 070720Z 13008KT CAVOK M02/M08 Q1027 NOSIG
12-03-07 METAR EDDT 070750Z 13008KT CAVOK M01/M08 Q1027 NOSIG
12-03-07 METAR EDDT 070820Z 12007KT CAVOK M00/M08 Q1026 NOSIG
12-03-07 METAR EDDT 070850Z 12007KT CAVOK 01/M08 Q1026 NOSIG
12-03-07 METAR EDDT 070920Z 12007KT CAVOK 02/M08 Q1025 NOSIG
12-03-07 METAR EDDT 070950Z 12007KT CAVOK 03/M08 Q1025 NOSIG
12-03-07 METAR EDDT 071020Z 14008KT CAVOK 03/M08 Q1025 NOSIG
12-03-07 METAR EDDT 071050Z 13009KT CAVOK 04/M09 Q1024 NOSIG
12-03-07 METAR EDDT 071120Z 13008KT CAVOK 05/M08 Q1023 NOSIG
12-03-07 METAR EDDT 071150Z 15008KT CAVOK 05/M07 Q1023 NOSIG
12-03-07 METAR EDDT 071220Z 14008KT CAVOK 06/M08 Q1022 NOSIG
12-03-07 METAR EDDT 071250Z 14008KT CAVOK 06/M08 Q1021 NOSIG
12-03-07 METAR EDDT 071320Z 12009KT CAVOK 07/M08 Q1021 NOSIG
12-03-07 METAR EDDT 071350Z 15008KT CAVOK 07/M07 Q1020 NOSIG
12-03-07 METAR EDDT 071420Z 14008KT CAVOK 07/M06 Q1019 NOSIG
12-03-07 METAR EDDT 071450Z 14006KT CAVOK 07/M06 Q1019 NOSIG
12-03-07 METAR EDDT 071520Z 14008KT CAVOK 07/M05 Q1018 NOSIG
12-03-07 METAR EDDT 071550Z 14007KT CAVOK 07/M05 Q1018 NOSIG
12-03-07 METAR EDDT 071620Z 13008KT CAVOK 07/M05 Q1017 NOSIG
12-03-07 METAR EDDT 071650Z 13007KT CAVOK 06/M05 Q1017 NOSIG
12-03-07 METAR EDDT 071720Z 13008KT CAVOK 06/M05 Q1017 NOSIG
12-03-07 METAR EDDT 071750Z 13008KT CAVOK 06/M05 Q1016 NOSIG
12-03-07 METAR EDDT 071820Z 13009KT CAVOK 06/M05 Q1016 NOSIG
12-03-07 METAR EDDT 071850Z 14009KT CAVOK 06/M05 Q1016 NOSIG
12-03-07 METAR EDDT 071920Z 14010KT CAVOK 06/M05 Q1015 NOSIG
12-03-07 METAR EDDT 071950Z 14008KT CAVOK 05/M04 Q1015 NOSIG
12-03-07 METAR EDDT 072020Z 14008KT CAVOK 05/M04 Q1015 NOSIG
12-03-07 METAR EDDT 072050Z 15008KT CAVOK 05/M04 Q1014 NOSIG
12-03-07 METAR EDDT 072120Z VRB06KT 9999 -RA SCT050 OVC250 05/M04 Q1014 NOSIG
12-03-07 METAR EDDT 072150Z 15006KT 9999 -RA SCT040 OVC250 05/M03 Q1014 NOSIG
12-03-07 METAR EDDT 072220Z 15007KT 9999 -RA SCT040 OVC250 05/M03 Q1014
12-03-07 METAR EDDT 072250Z 18008KT 9999 -RA BKN027 OVC250 04/M01 Q1014
12-03-07 METAR EDDT 072320Z NIL
12-03-07 METAR EDDT 072350Z 17007KT 9999 -RA SCT011 BKN024 04/00 Q1013
12-03-08 METAR EDDT 072350Z 17007KT 9999 -RA SCT011 BKN024 04/00 Q1013
12-03-08 METAR EDDT 080020Z 16006KT 9999 -RA BKN018 04/01 Q1013
12-03-08 METAR EDDT 080050Z 15006KT 9999 -RA BKN016 03/01 Q1013
12-03-08 METAR EDDT 080120Z 15005KT 9999 -RA BKN016 03/01 Q1013
12-03-08 METAR EDDT 080150Z 15005KT 9999 -RA BKN013 03/01 Q1013
12-03-08 METAR EDDT 080220Z 18006KT 9999 -RA BKN013 04/02 Q1012
12-03-08 METAR EDDT 080250Z 18005KT 9999 -RA SCT009 BKN013 04/02 Q1012
12-03-08 METAR EDDT 080320Z 18007KT 9999 -RA SCT009 BKN013 04/02 Q1012
12-03-08 METAR EDDT 080350Z 19006KT 9999 -RA FEW008 BKN013 04/02 Q1012 NOSIG
12-03-08 METAR EDDT 080420Z 20004KT 9999 -RA FEW008 BKN014 03/02 Q1013 NOSIG
12-03-08 METAR EDDT 080450Z 24005KT 7000 -RA BKN011 04/02 Q1013 TEMPO 4000 RADZ BKN008
12-03-08 METAR EDDT 080520Z 25006KT 6000 -RA BKN008 OVC011 04/02 Q1013 TEMPO 4000 RADZ
12-03-08 METAR EDDT 080550Z 26006KT 4400 -RA FEW002 BKN008 OVC017 03/02 Q1013 TEMPO 2500 RADZ
12-03-08 METAR EDDT 080620Z 27005KT 4000 -RA SCT006 BKN008 OVC015 03/02 Q1014 TEMPO
12-03-08 METAR EDDT 080650Z 27005KT 3400 -RA SCT005 BKN007 BKN011 04/02 Q1014 TEMPO
12-03-08 METAR EDDT 080720Z 28006KT 3600 -RA SCT005 BKN007 BKN011 04/02 Q1015 TEMPO
12-03-08 METAR EDDT 080750Z 29006KT 4000 -RA FEW005 BKN007 BKN011 04/02 Q1015 TEMPO
12-03-08 METAR EDDT 080820Z 29006KT 6000 -RA SCT005 BKN007 04/02 Q1016 TEMPO 4500
12-03-08 METAR EDDT 080850Z 29007KT 6000 -RA FEW005 BKN007 BKN010 04/02 Q1016 TEMPO 4500 RADZ
12-03-08 METAR EDDT 080920Z 29007KT 8000 -RA SCT007 BKN011 04/02 Q1017 TEMPO BKN009
12-03-08 METAR EDDT 080950Z 29008KT 8000 -RA BKN007 BKN011 03/02 Q1017 NOSIG
12-03-08 METAR EDDT 081020Z 30008KT 9000 -RA BKN007 BKN011 04/02 Q1018 NOSIG
12-03-08 METAR EDDT 081050Z 30007KT 9999 -RA BKN008 BKN011 04/02 Q1019 NOSIG
12-03-08 METAR EDDT 081120Z 31008KT 9999 -RA SCT008 BKN011 04/02 Q1019 TEMPO BKN009
12-03-08 METAR EDDT 081150Z 31008KT 9999 -RA SCT007 BKN009 04/02 Q1020 BECMG BKN012
12-03-08 METAR EDDT 081220Z 32010KT 9000 -RA BKN007 BKN011 04/02 Q1020 BECMG BKN012
12-03-08 METAR EDDT 081250Z 32010KT 9999 -RA BKN008 BKN012 04/03 Q1021 BECMG BKN012
12-03-08 METAR EDDT 081320Z 32010KT 9999 SCT011 BKN015 BKN025 05/03 Q1021 NOSIG
12-03-08 METAR EDDT 081350Z 33009KT 9999 SCT015 BKN060 06/03 Q1022 TEMPO 32015G25KT
12-03-08 METAR EDDT 081420Z 32009KT 9999 FEW018 SCT070 BKN120 07/03 Q1023 TEMPO 32015G25KT
12-03-08 METAR EDDT 081450Z 31007KT 9999 FEW025 SCT250 08/01 Q1023 TEMPO 32015G25KT
12-03-08 METAR EDDT 081520Z 35009KT 9999 SCT030 08/01 Q1023 TEMPO 32015G25KT
12-03-08 METAR EDDT 081550Z 35010KT 9999 FEW035 08/M01 Q1024 NOSIG
12-03-08 METAR EDDT 081620Z 34008KT 9999 FEW040 07/M01 Q1025 NOSIG
12-03-08 METAR EDDT 081650Z 32010KT 9999 FEW035 07/M01 Q1025 NOSIG
12-03-08 METAR EDDT 081720Z 32007KT 9999 FEW035 06/M01 Q1026 NOSIG
12-03-08 METAR EDDT 081750Z 32005KT 9999 FEW035 06/M01 Q1027 NOSIG
12-03-08 METAR EDDT 081820Z 33005KT 9999 FEW050 06/M02 Q1027 NOSIG
12-03-08 METAR EDDT 081850Z 31004KT CAVOK 05/M02 Q1028 NOSIG
12-03-08 METAR EDDT 081920Z 28004KT CAVOK 03/M03 Q1028 NOSIG
12-03-08 METAR EDDT 081950Z 29003KT CAVOK 02/M03 Q1029 NOSIG
12-03-08 METAR EDDT 082020Z 28003KT CAVOK 02/M02 Q1029 NOSIG
12-03-08 METAR EDDT 082050Z 28003KT CAVOK 01/M02 Q1030 NOSIG
12-03-08 METAR EDDT 082120Z 28003KT CAVOK 00/M02 Q1030 NOSIG
12-03-08 METAR EDDT 082150Z 28004KT CAVOK 01/M01 Q1031 NOSIG
12-03-08 METAR EDDT 082220Z 28004KT CAVOK 01/M02 Q1031
12-03-08 METAR EDDT 082250Z 28005KT CAVOK 01/M01 Q1031
12-03-08 METAR EDDT 082320Z 29004KT CAVOK 01/M01 Q1032
12-03-08 METAR EDDT 082350Z 29004KT CAVOK 01/M02 Q1032
12-03-09 METAR EDDT 082350Z 29004KT CAVOK 01/M02 Q1032
12-03-09 METAR EDDT 090020Z 29004KT CAVOK 00/M03 Q1032
12-03-09 METAR EDDT 090050Z 28003KT CAVOK M01/M04 Q1033
12-03-09 METAR EDDT 090120Z 27002KT CAVOK M02/M04 Q1033
12-03-09 METAR EDDT 090150Z 26003KT CAVOK M02/M04 Q1033
12-03-09 METAR EDDT 090220Z 25003KT CAVOK M02/M03 Q1033
12-03-09 METAR EDDT 090250Z 26003KT CAVOK M01/M02 Q1033
12-03-09 METAR EDDT 090320Z 27003KT CAVOK M01/M02 Q1034
12-03-09 METAR EDDT 090350Z 27003KT 9999 MIFG NSC M01/M02 Q1034 NOSIG
12-03-09 METAR EDDT 090420Z 27004KT 9999 MIFG NSC M01/M02 Q1034 NOSIG
12-03-09 METAR EDDT 090450Z 26005KT 9000 MIFG SCT004 M02/M03 Q1034 TEMPO BKN004
12-03-09 METAR EDDT 090520Z 27005KT 8000 MIFG BKN006 M01/M02 Q1034 TEMPO 4000 BR BKN004
12-03-09 METAR EDDT 090550Z 26004KT 7000 SCT005 SCT250 M01/M02 Q1034 TEMPO 4000 BR
12-03-09 METAR EDDT 090620Z 28004KT 8000 FEW003 BKN004 M00/M01 Q1035 TEMPO SCT005
12-03-09 METAR EDDT 090650Z 27004KT 9000 FEW003 BKN005 00/M01 Q1035 TEMPO SCT005
12-03-09 METAR EDDT 090720Z 27004KT 9999 FEW005 SCT200 01/00 Q1035 NOSIG
12-03-09 METAR EDDT 090750Z 27005KT 9999 FEW005 SCT230 02/01 Q1035 NOSIG
12-03-09 METAR EDDT 090820Z 26005KT 9999 FEW005 SCT230 03/02 Q1036 NOSIG
12-03-09 METAR EDDT 090850Z 27007KT 9999 FEW008 04/02 Q1036 NOSIG
12-03-09 METAR EDDT 090920Z 25008KT 9999 FEW013 06/02 Q1036 NOSIG
12-03-09 METAR EDDT 090950Z 27009KT 9999 FEW020 06/01 Q1036 NOSIG
12-03-09 METAR EDDT 091020Z 26011KT 9999 FEW023 07/00 Q1036 NOSIG
12-03-09 METAR EDDT 091050Z 26012KT 9999 FEW025 SCT250 08/01 Q1035 NOSIG
12-03-09 METAR EDDT 091120Z 26010KT 9999 FEW026 SCT250 08/01 Q1035 NOSIG
12-03-09 METAR EDDT 091150Z 25011KT 9999 FEW030 SCT250 09/01 Q1035 NOSIG
12-03-09 METAR EDDT 091220Z 25010KT 9999 FEW033 SCT250 09/M00 Q1035 NOSIG
12-03-09 METAR EDDT 091250Z 26012KT 9999 FEW035 BKN250 09/00 Q1034 NOSIG
12-03-09 METAR EDDT 091320Z 25011KT 9999 FEW040 BKN250 10/M00 Q1034 NOSIG
12-03-09 METAR EDDT 091350Z 27011KT 9999 FEW036 BKN250 10/M00 Q1034 NOSIG
12-03-09 METAR EDDT 091420Z 25010KT 9999 FEW036 SCT100 BKN250 10/M00 Q1034 NOSIG
12-03-09 METAR EDDT 091450Z 26011KT CAVOK 10/M01 Q1034 NOSIG
12-03-09 METAR EDDT 091520Z 24012KT CAVOK 09/M01 Q1034 NOSIG
12-03-09 METAR EDDT 091550Z 24011KT CAVOK 09/M01 Q1033 NOSIG
12-03-09 METAR EDDT 091620Z 25010KT CAVOK 09/M01 Q1033 NOSIG
12-03-09 METAR EDDT 091650Z 25010KT CAVOK 09/M00 Q1033 NOSIG
12-03-09 METAR EDDT 091720Z 24009KT CAVOK 09/M01 Q1033 NOSIG
12-03-09 METAR EDDT 091750Z 23008KT CAVOK 09/M01 Q1033 NOSIG
12-03-09 METAR EDDT 091820Z 22008KT CAVOK 09/M01 Q1033 NOSIG
12-03-09 METAR EDDT 091850Z 22007KT CAVOK 08/M01 Q1033 NOSIG
12-03-09 METAR EDDT 091920Z 23008KT CAVOK 08/M01 Q1034 NOSIG
12-03-09 METAR EDDT 091950Z 23007KT CAVOK 08/M01 Q1034 NOSIG
12-03-09 METAR EDDT 092020Z 23007KT CAVOK 08/M00 Q1033 NOSIG
12-03-09 METAR EDDT 092050Z 23009KT CAVOK 08/M00 Q1033 NOSIG
12-03-09 METAR EDDT 092120Z 24009KT CAVOK 08/M00 Q1033 NOSIG
12-03-09 METAR EDDT 092150Z 24009KT CAVOK 08/M00 Q1033 NOSIG
12-03-09 METAR EDDT 092220Z 24008KT CAVOK 08/M00 Q1033
12-03-09 METAR EDDT 092250Z 24009KT CAVOK 08/M00 Q1033
12-03-09 METAR EDDT 092320Z 24008KT 9999 SCT040 BKN090 07/M00 Q1032
12-03-09 METAR EDDT 092350Z 24009KT 9999 FEW035 BKN090 07/M00 Q1032
12-03-10 METAR EDDT 092350Z 24009KT 9999 FEW035 BKN090 07/M00 Q1032
12-03-10 METAR EDDT 100020Z 24011KT 9999 BKN038 07/00 Q1032
12-03-10 METAR EDDT 100050Z 24010KT 9999 BKN038 08/00 Q1031
12-03-10 METAR EDDT 100120Z 24011KT 9999 BKN040 08/01 Q1031
12-03-10 METAR EDDT 100150Z 25011KT 9999 FEW040 BKN090 07/01 Q1031
12-03-10 METAR EDDT 100220Z 25009KT 9999 SCT040 BKN090 07/01 Q1031
12-03-10 METAR EDDT 100250Z 24009KT 9999 BKN040 07/01 Q1031
12-03-10 METAR EDDT 100320Z 24009KT 9999 BKN040 07/01 Q1031
12-03-10 METAR EDDT 100350Z 24010KT 9999 BKN030 07/01 Q1030 NOSIG
12-03-10 METAR EDDT 100420Z 24013KT 9999 FEW022 BKN030 08/02 Q1030 NOSIG
12-03-10 METAR EDDT 100450Z 25011KT 9999 BKN018 BKN030 08/02 Q1030 NOSIG
12-03-10 METAR EDDT 100520Z 24010KT 9999 SCT018 BKN026 08/02 Q1030 TEMPO 4500 -DZ BKN012
12-03-10 METAR EDDT 100550Z 25012KT 9999 -RA FEW018 BKN027 07/02 Q1030 BECMG 4500
12-03-10 METAR EDDT 100620Z 24011KT 9999 -RA FEW020 BKN030 07/03 Q1030 BECMG 4500 -RA BKN012
12-03-10 METAR EDDT 100650Z 24012KT 9999 -RA BKN030 08/03 Q1030 BECMG 4500 -RA
12-03-10 METAR EDDT 100720Z 25013KT 9999 -RA BKN030 07/04 Q1030 BECMG 4500 -RA
12-03-10 METAR EDDT 100750Z 24010KT 6000 -RA BKN030 07/04 Q1030 BECMG 4500 -RA
12-03-10 METAR EDDT 100820Z 24010KT 8000 -RA BKN017 07/05 Q1029 BECMG 4500 -RA
12-03-10 METAR EDDT 100850Z 24011KT 9000 BKN017 07/05 Q1029 BECMG BKN012
12-03-10 METAR EDDT 100920Z 24012KT 9999 BKN017 08/05 Q1029 BECMG BKN012
12-03-10 METAR EDDT 100950Z 25013KT 9999 BKN017 08/05 Q1029 BECMG BKN012
12-03-10 METAR EDDT 101020Z 26014KT 9999 BKN016 09/06 Q1029 BECMG BKN012
12-03-10 METAR EDDT 101050Z 26015KT 8000 -RA BKN014 08/06 Q1029 NOSIG
12-03-10 METAR EDDT 101120Z 26012KT 9000 BKN014 09/06 Q1029 NOSIG
12-03-10 METAR EDDT 101150Z 27009KT 9000 BKN015 10/06 Q1029 NOSIG
12-03-10 METAR EDDT 101220Z 26012KT 9000 BKN015 10/06 Q1028 NOSIG
12-03-10 METAR EDDT 101250Z 26012KT 9000 BKN016 10/07 Q1028 NOSIG
12-03-10 METAR EDDT 101320Z 26012KT 9999 BKN022 10/07 Q1028 NOSIG
12-03-10 METAR EDDT 101350Z 27010KT 9999 BKN022 11/07 Q1027 NOSIG
12-03-10 METAR EDDT 101420Z 28013KT 9999 FEW024 BKN046 11/05 Q1027 NOSIG
12-03-10 METAR EDDT 101450Z 28012KT 9999 SCT024 BKN042 11/05 Q1027 NOSIG
12-03-10 METAR EDDT 101520Z 27012KT 9999 SCT024 BKN044 11/05 Q1027 NOSIG
12-03-10 METAR EDDT 101550Z 28011KT 9999 SCT024 BKN044 11/05 Q1026 NOSIG
12-03-10 METAR EDDT 101620Z 27012KT 9999 SCT024 BKN044 11/05 Q1026 NOSIG
12-03-10 METAR EDDT 101650Z 27012KT 9999 SCT024 BKN044 11/05 Q1026 NOSIG
12-03-10 METAR EDDT 101720Z 27014KT 9999 SCT024 BKN044 10/06 Q1026 NOSIG
12-03-10 METAR EDDT 101750Z 27013KT 9999 SCT024 BKN044 10/05 Q1026 NOSIG
12-03-10 METAR EDDT 101820Z 27011KT 9999 FEW025 BKN040 BKN070 10/06 Q1026 NOSIG
12-03-10 METAR EDDT 101850Z 29011KT 9999 FEW025 BKN036 BKN070 10/05 Q1027 NOSIG
12-03-10 METAR EDDT 101920Z 29010KT 9999 BKN032 10/04 Q1027 NOSIG
12-03-10 METAR EDDT 101950Z 29010KT 9999 BKN034 BKM060 09/03 Q1026 NOSIG
12-03-10 METAR EDDT 102020Z 29013G24KT 9999 FEW034 BKN060 09/03 Q1026 NOSIG
12-03-10 METAR EDDT 102050Z 29010KT CAVOK 09/03 Q1026 NOSIG
12-03-10 METAR EDDT 102120Z 30014KT 9999 FEW035 BKN050 09/03 Q1026 NOSIG
12-03-10 METAR EDDT 102150Z 29010KT CAVOK 08/03 Q1027 NOSIG
12-03-10 METAR EDDT 102220Z 29010KT CAVOK 08/03 Q1026
12-03-10 METAR EDDT 102250Z 28011KT CAVOK 08/03 Q1026
12-03-10 METAR EDDT 102320Z 28010KT CAVOK 08/03 Q1026
12-03-10 METAR EDDT 102350Z 28011KT 9999 FEW028 BKN046 08/03 Q1026
12-03-11 METAR EDDT 102350Z 28011KT 9999 FEW028 BKN046 08/03 Q1026
12-03-11 METAR EDDT 110020Z 28013KT 9999 BKN040 08/03 Q1026
12-03-11 METAR EDDT 110050Z 28012KT 9999 BKN022 BKN050 08/03 Q1026
12-03-11 METAR EDDT 110120Z 28014KT 9999 BKN019 BKN050 08/03 Q1025
12-03-11 METAR EDDT 110150Z NIL
12-03-11 METAR EDDT 110150Z AUTO 29012KT //// // /// 08/03 Q1025
12-03-11 METAR EDDT 110220Z 30012KT 9999 BKN018 07/03 Q1025
12-03-11 METAR EDDT 110250Z 29012KT 9999 BKN019 BKN024 07/03 Q1025
12-03-11 METAR EDDT 110320Z 30012KT 9999 BKN019 07/03 Q1025
12-03-11 METAR EDDT 110350Z 29010KT 9999 -RADZ BKN017 07/03 Q1025 NOSIG
12-03-11 METAR EDDT 110420Z 30010KT 9999 -RADZ FEW019 BKN028 07/03 Q1025 TEMPO 30015G25KT
12-03-11 METAR EDDT 110450Z 30010KT 9999 FEW017 BKN021 07/03 Q1025 TEMPO 30015G25KT
12-03-11 METAR EDDT 110520Z 30009KT 9999 FEW018 BKN030 07/03 Q1025 TEMPO 30015G25KT
12-03-11 METAR EDDT 110550Z 31009KT 9999 FEW018 BKN021 07/03 Q1025 TEMPO 30015G25KT
12-03-11 METAR EDDT 110620Z 31010KT 9999 FEW016 BKN020 BKN040 07/03 Q1026 TEMPO
12-03-11 METAR EDDT 110650Z 31009KT 9999 SCT020 BKN040 07/03 Q1026 TEMPO 30015G25KT
12-03-11 METAR EDDT 110720Z 31010KT 9999 -RA SCT020 BKN040 07/03 Q1026 TEMPO
12-03-11 METAR EDDT 110750Z 31009KT 9999 -RA SCT018 BKN040 07/03 Q1026 TEMPO
12-03-11 METAR EDDT 110820Z 32009KT 9999 -RA BKN019 BKN040 07/03 Q1026 TEMPO
12-03-11 METAR EDDT 110850Z 31012G22KT 9999 -RA SCT018 BKN035 07/03 Q1027 TEMPO
12-03-11 METAR EDDT 110920Z 31010KT 9999 SCT018 BKN035 08/03 Q1027 TEMPO 30015G25KT
12-03-11 METAR EDDT 110950Z 31009KT 9999 SCT019 BKN040 08/02 Q1027 TEMPO 30015G25KT
12-03-11 METAR EDDT 111020Z 32011KT 9999 SCT020 SCT040 09/02 Q1027 TEMPO 30015G25KT
12-03-11 METAR EDDT 111050Z 32011KT 9999 BKN025 09/01 Q1027 TEMPO 30015G25KT
12-03-11 METAR EDDT 111120Z 33013G23KT 9999 SCT030 10/01 Q1027 TEMPO 30015G25KT
12-03-11 METAR EDDT 111150Z 30011KT 9999 BKN030 10/02 Q1027 TEMPO 30015G25KT
12-03-11 METAR EDDT 111220Z 32012KT 9999 BKN030 09/02 Q1027 TEMPO 30015G25KT
12-03-11 METAR EDDT 111250Z 32009KT 9999 BKN030 10/02 Q1027 TEMPO 30015G25KT
12-03-11 METAR EDDT 111320Z 31013KT 9999 BKN030 10/01 Q1027 TEMPO 30015G25KT
12-03-11 METAR EDDT 111350Z 31011KT 9999 FEW033 BKN040 10/02 Q1027 TEMPO 30015G25KT
12-03-11 METAR EDDT 111420Z 31010KT 9999 FEW033 BKN040 10/02 Q1027 TEMPO 30015G25KT
12-03-11 METAR EDDT 111450Z 33007KT 9999 FEW033 BKN040 10/01 Q1027 TEMPO 30015G25KT
12-03-11 METAR EDDT 111520Z 31012KT 9999 FEW025 BKN035 09/03 Q1027 TEMPO 30015G25KT
12-03-11 METAR EDDT 111550Z 31010KT 9999 SCT020 BKN030 08/04 Q1027 TEMPO 30015G25KT
12-03-11 METAR EDDT 111620Z 32008KT 9999 FEW014 SCT018 BKN025 08/04 Q1027 TEMPO BKN014
12-03-11 METAR EDDT 111650Z 31006KT 9999 -RA FEW008 BKN013 08/05 Q1027 TEMPO 4000 BKN009
12-03-11 METAR EDDT 111750Z 29005KT 9999 FEW004 BKN007 07/06 Q1027 BECMG BKN010
12-03-11 METAR EDDT 111820Z 28004KT 9999 BKN006 07/06 Q1027 BECMG BKN010
12-03-11 METAR EDDT 112050Z 29005KT 9999 FEW008 BKN022 07/06 Q1026 TEMPO BKN008
12-03-12 METAR EDDT 121150Z 30009KT 9999 FEW010 BKN013 08/05 Q1024 NOSIG
12-03-12 METAR EDDT 121220Z 30009KT 9999 BKN015 08/05 Q1024 NOSIG
12-03-12 METAR EDDT 121250Z 30009KT 9999 BKN016 09/05 Q1024 NOSIG
12-03-12 METAR EDDT 121320Z 29009KT 9999 BKN017 09/06 Q1024 NOSIG
12-03-12 METAR EDDT 121350Z 30008KT 9999 BKN018 09/06 Q1024 NOSIG
12-03-12 METAR EDDT 121420Z 30008KT 9999 BKN020 10/05 Q1024 NOSIG
12-03-12 METAR EDDT 121450Z 31008KT 9999 BKN023 10/05 Q1024 NOSIG
12-03-12 METAR EDDT 121520Z 30008KT 9999 BKN023 10/06 Q1024 NOSIG
12-03-12 METAR EDDT 121550Z 30006KT 9999 BKN025 11/06 Q1025 NOSIG
12-03-12 METAR EDDT 121620Z 30006KT 9999 BKN025 11/06 Q1025 NOSIG
12-03-12 METAR EDDT 121650Z 28010KT 9999 BKN025 10/06 Q1025 NOSIG
12-03-12 METAR EDDT 121720Z 30010KT 9999 FEW023 BKN028 10/06 Q1025 NOSIG
12-03-12 METAR EDDT 121750Z 29010KT 9999 BKN029 09/06 Q1025 NOSIG
12-03-12 METAR EDDT 121820Z 30011KT 9999 FEW015 BKN028 09/06 Q1026 NOSIG
12-03-12 METAR EDDT 121850Z 30010KT 9999 BKN015 BKN028 09/06 Q1026 TEMPO BKN012
12-03-12 METAR EDDT 121920Z 29009KT 9999 FEW013 SCT020 BKN030 09/06 Q1026 TEMPO BKN012
12-03-12 METAR EDDT 121950Z 29008KT 9999 FEW013 BKN030 08/06 Q1026 TEMPO BKN012
12-03-12 METAR EDDT 122020Z 30008KT 9999 FEW013 BKN025 09/06 Q1026 TEMPO BKN012
12-03-12 METAR EDDT 122050Z 30010KT 9999 BKN012 BKN018 08/06 Q1027 NOSIG
12-03-12 METAR EDDT 122120Z 29011KT 9999 BKN012 BKN025 08/06 Q1027 NOSIG
12-03-12 METAR EDDT 122150Z 29009KT 9999 BKN011 BKN015 08/06 Q1027 NOSIG
12-03-12 METAR EDDT 122220Z 28011KT 9999 BKN011 BKN020 08/05 Q1027
12-03-12 METAR EDDT 122250Z 29008KT 9999 BKN012 BKN020 08/05 Q1027
12-03-12 METAR EDDT 122320Z 29008KT 9999 BKN011 BKN014 08/05 Q1027
12-03-12 METAR EDDT 122350Z 30009KT 9999 -RA FEW009 BKN014 08/05 Q1027
12-03-13 METAR EDDT 122350Z 30009KT 9999 -RA FEW009 BKN014 08/05 Q1027
12-03-13 METAR EDDT 130020Z 30008KT 9999 SCT010 BKN013 08/05 Q1027
12-03-13 METAR EDDT 130320Z 29007KT 9999 BKN012 BKN015 07/05 Q1027
12-03-13 METAR EDDT 130650Z 29007KT 9999 FEW005 BKN016 BKN020 07/04 Q1028 TEMPO BKN014 BKN012
12-03-13 METAR EDDT 130820Z 30006KT 9999 BKN009 BKN012 07/05 Q1029 TEMPO BKN012
12-03-13 METAR EDDT 130850Z 30007KT 9999 BKN009 BKN012 07/04 Q1029 TEMPO BKN012
12-03-13 METAR EDDT 130920Z 30007KT 9999 FEW009 BKN011 07/04 Q1029 NOSIG
12-03-13 METAR EDDT 131020Z 31008KT 9999 BKN013 08/04 Q1029 NOSIG
12-03-13 METAR EDDT 131050Z 30010KT 9999 BKN013 07/04 Q1029 NOSIG
12-03-13 METAR EDDT 131120Z 30010KT 9999 BKN013 08/04 Q1029 NOSIG
12-03-13 METAR EDDT 131150Z 29009KT 9999 BKN015 08/04 Q1029 NOSIG
12-03-13 METAR EDDT 131220Z 31008KT 9999 BKN015 08/04 Q1029 NOSIG
12-03-13 METAR EDDT 131250Z 31010KT 9999 FEW013 BKN015 08/04 Q1028 NOSIG
12-03-13 METAR EDDT 131320Z 29011KT 9999 FEW013 BKN015 08/04 Q1028 NOSIG
12-03-13 METAR EDDT 131350Z 30009KT 9999 -DZRA BKN015 08/04 Q1028 NOSIG
12-03-13 METAR EDDT 131420Z 29009KT 9999 BKN015 BKN018 08/04 Q1028 NOSIG
12-03-13 METAR EDDT 131450Z 29009KT 9999 BKN018 08/04 Q1028 NOSIG
12-03-13 METAR EDDT 131520Z 30008KT 9999 BKN017 BKN020 08/04 Q1028 NOSIG
12-03-13 METAR EDDT 131550Z 30007KT 9999 FEW017 BKN020 08/04 Q1028 NOSIG
12-03-13 METAR EDDT 131620Z 29007KT 9999 FEW018 BKN023 08/04 Q1028 NOSIG
12-03-13 METAR EDDT 131650Z 28007KT 9999 FEW020 BKN025 08/04 Q1028 NOSIG
12-03-13 METAR EDDT 131720Z 27008KT 9999 FEW020 BKN028 08/04 Q1028 NOSIG
12-03-13 METAR EDDT 131750Z 28008KT 9999 FEW020 BKN028 08/04 Q1028 NOSIG
12-03-13 METAR EDDT 131820Z 28006KT 9999 BKN030 08/04 Q1028 NOSIG
12-03-13 METAR EDDT 131850Z 28007KT 9999 BKN030 08/04 Q1028 NOSIG
12-03-13 METAR EDDT 131920Z 28007KT 9999 BKN028 08/05 Q1028 NOSIG
12-03-13 METAR EDDT 131950Z 28008KT 9999 BKN026 09/05 Q1028 NOSIG
12-03-13 METAR EDDT 132020Z 29008KT 9999 BKN028 09/05 Q1028 NOSIG
12-03-13 METAR EDDT 132050Z 28009KT 9999 BKN027 09/05 Q1028 NOSIG
12-03-13 METAR EDDT 132120Z 29009KT 9999 BKN025 09/04 Q1028 NOSIG
12-03-13 METAR EDDT 132150Z 29007KT 9999 BKN023 09/04 Q1028 NOSIG
12-03-13 METAR EDDT 132220Z 29008KT 9999 BKN025 08/04 Q1028
12-03-13 METAR EDDT 132250Z 29009KT 9999 BKN024 08/04 Q1028
12-03-13 METAR EDDT 132320Z 29009KT 9999 BKN023 08/03 Q1028
12-03-13 METAR EDDT 132350Z 30010KT 9999 BKN022 08/03 Q1028
12-03-14 METAR EDDT 132350Z 30010KT 9999 BKN022 08/03 Q1028
12-03-14 METAR EDDT 140020Z 31008KT 9999 BKN020 08/03 Q1028
12-03-14 METAR EDDT 140050Z 30007KT 9999 BKN020 08/03 Q1028
12-03-14 METAR EDDT 140120Z 31008KT 9999 BKN020 07/03 Q1028
12-03-14 METAR EDDT 140150Z 30008KT 9999 BKN020 07/03 Q1028
12-03-14 METAR EDDT 140220Z 30007KT 9999 BKN022 07/03 Q1028
12-03-14 METAR EDDT 140250Z 29007KT 9999 BKN026 07/02 Q1028
12-03-14 METAR EDDT 140320Z 29007KT 9999 BKN027 07/02 Q1028
12-03-14 METAR EDDT 140350Z 29008KT 9999 BKN030 07/02 Q1028
12-03-14 METAR EDDT 140420Z 28009KT 9999 BKN030 07/02 Q1027 NOSIG
12-03-14 METAR EDDT 140450Z 28008KT 9999 BKN030 07/02 Q1027 NOSIG
12-03-14 METAR EDDT 140520Z 29008KT 9999 BKN030 07/02 Q1027 NOSIG
12-03-14 METAR EDDT 140550Z 29008KT 9999 BKN025 07/02 Q1027 NOSIG
12-03-14 METAR EDDT 140620Z 29009KT 9999 BKN025 07/02 Q1028 NOSIG
12-03-14 METAR EDDT 140650Z 30009KT 9999 BKN023 07/02 Q1028 NOSIG
12-03-14 METAR EDDT 140720Z 29009KT 9999 BKN025 07/02 Q1028 NOSIG
12-03-14 METAR EDDT 140750Z 30010KT 9999 BKN025 07/02 Q1028 NOSIG
12-03-14 METAR EDDT 140820Z 30010KT 9999 BKN025 07/02 Q1028 NOSIG
12-03-14 METAR EDDT 140850Z 29010KT 9999 BKN023 07/02 Q1028 NOSIG
12-03-14 METAR EDDT 140920Z 30010KT 9999 BKN022 08/02 Q1028 NOSIG
12-03-14 METAR EDDT 141020Z 30009KT 9999 BKN022 08/03 Q1028 NOSIG
12-03-14 METAR EDDT 141050Z 30011KT 9999 FEW022 BKN024 08/03 Q1028 NOSIG
12-03-14 METAR EDDT 141120Z 30008KT 9999 BKN020 08/03 Q1028 NOSIG
12-03-14 METAR EDDT 141150Z 30008KT 9999 BKN019 BKN032 08/03 Q1029 NOSIG
12-03-14 METAR EDDT 141220Z 29010KT 9999 BKN019 08/03 Q1029 NOSIG
12-03-14 METAR EDDT 141250Z 30009KT 9999 FEW019 BKN023 08/03 Q1028 NOSIG
12-03-14 METAR EDDT 141320Z 30007KT 9999 FEW019 BKN023 08/03 Q1028 NOSIG
12-03-14 METAR EDDT 141350Z 31008KT 9999 BKN023 08/03 Q1028 NOSIG
12-03-14 METAR EDDT 141420Z 30008KT 9999 BKN021 08/03 Q1028 NOSIG
12-03-14 METAR EDDT 141450Z 31007KT 9999 FEW023 BKN027 08/03 Q1028 NOSIG
12-03-14 METAR EDDT 141520Z 31006KT 9999 FEW023 BKN027 08/03 Q1028 NOSIG
12-03-14 METAR EDDT 141550Z 31006KT 9999 BKN027 08/03 Q1028 NOSIG
12-03-14 METAR EDDT 141620Z 31005KT 9999 BKN027 08/03 Q1029 NOSIG
12-03-14 METAR EDDT 141650Z 31006KT 9999 BKN027 08/03 Q1029 NOSIG
12-03-14 METAR EDDT 141720Z 32005KT 9999 BKN027 08/03 Q1029 NOSIG
12-03-14 METAR EDDT 141750Z 30004KT 9999 FEW028 BKN030 08/03 Q1029 NOSIG
12-03-14 METAR EDDT 141820Z 27004KT 9999 SCT024 BKN028 08/03 Q1029 NOSIG
12-03-14 METAR EDDT 141850Z 29003KT 9999 SCT024 BKN028 08/03 Q1030 NOSIG
12-03-14 METAR EDDT 141920Z 28004KT 9999 BKN029 08/03 Q1030 NOSIG
12-03-14 METAR EDDT 141950Z 29003KT 9999 BKN029 07/04 Q1030 NOSIG
12-03-14 METAR EDDT 142020Z 27003KT 9999 BKN030 07/03 Q1030 NOSIG
12-03-14 METAR EDDT 142050Z 28003KT 9999 BKN030 07/04 Q1030 NOSIG
12-03-14 METAR EDDT 142120Z 27004KT 9999 BKN030 07/04 Q1030 NOSIG
12-03-14 METAR EDDT 142150Z 27003KT 9999 BKN031 07/04 Q1030 NOSIG
12-03-14 METAR EDDT 142220Z 25004KT 9999 BKN031 07/04 Q1030
12-03-14 METAR EDDT 142250Z 25003KT 9999 BKN029 07/04 Q1030
12-03-14 METAR EDDT 142320Z 27004KT 9999 BKN029 07/04 Q1030
12-03-14 METAR EDDT 142350Z 26004KT 9999 BKN029 06/04 Q1030
12-03-15 METAR EDDT 142350Z 26004KT 9999 BKN029 06/04 Q1030
12-03-15 METAR EDDT 150020Z 26004KT 9999 BKN029 06/04 Q1031
12-03-15 METAR EDDT 150050Z 26004KT 9999 BKN029 06/03 Q1030
12-03-15 METAR EDDT 150120Z 26004KT 9999 BKN030 06/03 Q1030
12-03-15 METAR EDDT 150150Z 26004KT 9999 BKN030 06/03 Q1030
12-03-15 METAR EDDT 150220Z 26004KT 9999 BKN032 06/03 Q1030
12-03-15 METAR EDDT 150250Z 27004KT 9999 BKN032 06/03 Q1030
12-03-15 METAR EDDT 150320Z 26004KT 9999 BKN032 06/03 Q1030
12-03-15 METAR EDDT 150350Z 26005KT 9999 BKN030 06/03 Q1030 NOSIG
12-03-15 METAR EDDT 150420Z 26004KT 9999 FEW016 OVC031 06/03 Q1030 NOSIG
12-03-15 METAR EDDT 150450Z 26004KT 9999 BKN029 06/03 Q1030 NOSIG
12-03-15 METAR EDDT 150520Z 26004KT 9999 FEW025 BKN029 06/03 Q1030 NOSIG
12-03-15 METAR EDDT 150550Z 26004KT 9999 SCT027 BKN029 06/03 Q1030 NOSIG
12-03-15 METAR EDDT 150620Z 26004KT 9000 SCT027 BKN029 06/03 Q1030 NOSIG
12-03-15 METAR EDDT 150650Z 27004KT 9000 BKN028 06/03 Q1030 NOSIG
12-03-15 METAR EDDT 150720Z 26004KT 9000 BKN028 06/04 Q1030 NOSIG
12-03-15 METAR EDDT 150750Z 26005KT 9000 BKN027 07/03 Q1030 NOSIG
12-03-15 METAR EDDT 150820Z 26005KT 9000 BKN027 07/03 Q1030 NOSIG
12-03-15 METAR EDDT 150850Z 25004KT 9999 BKN027 07/03 Q1030 NOSIG
12-03-15 METAR EDDT 150920Z 26005KT 9999 SCT026 BKN028 07/03 Q1030 NOSIG
12-03-15 METAR EDDT 150950Z 22005KT 9999 BKN029 07/03 Q1030 NOSIG
12-03-15 METAR EDDT 151020Z 22006KT 9999 BKN029 08/03 Q1030 NOSIG
12-03-15 METAR EDDT 151050Z 22007KT 9999 SCT023 BKN030 08/02 Q1030 NOSIG
12-03-15 METAR EDDT 151120Z 23007KT 9999 SCT027 BKN030 09/01 Q1030 NOSIG
12-03-15 METAR EDDT 151150Z 24006KT 9999 BKN029 08/01 Q1030 NOSIG
12-03-15 METAR EDDT 151220Z 22006KT 9999 BKN029 09/01 Q1029 NOSIG
12-03-15 METAR EDDT 151250Z 24007KT 9999 BKN029 09/01 Q1029 NOSIG
12-03-15 METAR EDDT 151320Z 24006KT 9999 BKN030 09/01 Q1029 NOSIG
12-03-15 METAR EDDT 151350Z 23006KT 9999 BKN031 10/02 Q1028 NOSIG
12-03-15 METAR EDDT 151420Z 20006KT 9999 SCT032 09/01 Q1028 NOSIG
12-03-15 METAR EDDT 151450Z 20005KT 9999 FEW032 10/01 Q1028 NOSIG
12-03-15 METAR EDDT 151520Z 19006KT 9999 FEW032 10/01 Q1027 NOSIG
12-03-15 METAR EDDT 151550Z 21006KT CAVOK 09/01 Q1027 NOSIG
12-03-15 METAR EDDT 151620Z 20006KT CAVOK 09/01 Q1027 NOSIG
12-03-15 METAR EDDT 151650Z 20006KT 9000 NSC 08/01 Q1027 NOSIG
12-03-15 METAR EDDT 151720Z 20004KT 8000 NSC 08/01 Q1027 NOSIG
12-03-15 METAR EDDT 151850Z 16002KT CAVOK 07/01 Q1026 NOSIG
12-03-15 METAR EDDT 151920Z 16004KT CAVOK 07/01 Q1026 NOSIG
12-03-15 METAR EDDT 151950Z 16003KT CAVOK 07/01 Q1026 NOSIG
12-03-15 METAR EDDT 152020Z 17002KT CAVOK 06/01 Q1025 NOSIG
12-03-15 METAR EDDT 152120Z 16003KT CAVOK 06/01 Q1025 NOSIG
12-03-15 METAR EDDT 152150Z 16003KT CAVOK 05/01 Q1025 NOSIG
12-03-15 METAR EDDT 152220Z 12002KT CAVOK 04/00 Q1025
12-03-15 METAR EDDT 152250Z 10001KT CAVOK 03/00 Q1025
12-03-15 METAR EDDT 152320Z 09001KT CAVOK 02/M00 Q1025
12-03-15 METAR EDDT 152350Z 15001KT CAVOK 02/M01 Q1025
12-03-16 METAR EDDT 152350Z 15001KT CAVOK 02/M01 Q1025
12-03-16 METAR EDDT 160020Z 10001KT CAVOK 01/M01 Q1025
12-03-16 METAR EDDT 160050Z 12002KT CAVOK 01/00 Q1024
12-03-16 METAR EDDT 160120Z 11002KT CAVOK 01/00 Q1024
12-03-16 METAR EDDT 160150Z 11003KT 9999 BCFG NSC 02/01 Q1023
12-03-16 METAR EDDT 160220Z 13002KT 9999 BCFG NSC 02/01 Q1023
12-03-16 METAR EDDT 160250Z 15001KT 9999 BCFG NSC 00/M01 Q1023
12-03-16 METAR EDDT 160320Z 11001KT 9999 BCFG NSC 00/M01 Q1023
12-03-16 METAR EDDT 160350Z 13002KT 9999 BCFG NSC 01/M00 Q1022 NOSIG
12-03-16 METAR EDDT 160420Z 12002KT 9999 BCFG NSC M00/M01 Q1022 NOSIG
12-03-16 METAR EDDT 160450Z 15001KT 9999 BCFG NSC 00/M01 Q1022 NOSIG
12-03-16 METAR EDDT 160520Z 13002KT 9999 BCFG NSC 01/00 Q1022 NOSIG
12-03-16 METAR EDDT 160550Z 11003KT 9999 BCFG NSC 01/01 Q1022 NOSIG
12-03-16 METAR EDDT 160620Z 15002KT 7000 BCFG NSC 02/01 Q1022 TEMPO 4500 BR
12-03-16 METAR EDDT 160650Z 16002KT 7000 NSC 04/02 Q1022 NOSIG
12-03-16 METAR EDDT 160720Z 18003KT 7000 NSC 05/02 Q1022 NOSIG
12-03-16 METAR EDDT 160750Z 18004KT 9000 NSC 07/03 Q1021 NOSIG
12-03-16 METAR EDDT 160820Z 17003KT CAVOK 09/03 Q1021 NOSIG
12-03-16 METAR EDDT 160850Z 18003KT CAVOK 10/03 Q1021 NOSIG
12-03-16 METAR EDDT 160920Z 16004KT CAVOK 12/03 Q1021 NOSIG
12-03-16 METAR EDDT 160950Z 19005KT CAVOK 13/03 Q1021 NOSIG
12-03-16 METAR EDDT 161020Z 18004KT 160V230 CAVOK 14/03 Q1021 NOSIG
12-03-16 METAR EDDT 161050Z 17005KT CAVOK 15/03 Q1020 NOSIG
12-03-16 METAR EDDT 161120Z 16004KT CAVOK 17/03 Q1020 NOSIG
12-03-16 METAR EDDT 161150Z 21004KT 180V250 CAVOK 18/02 Q1020 NOSIG
12-03-16 METAR EDDT 161220Z 24008KT CAVOK 19/01 Q1019 NOSIG
12-03-16 METAR EDDT 161250Z 22007KT CAVOK 19/00 Q1019 NOSIG
12-03-16 METAR EDDT 161320Z 24007KT CAVOK 19/02 Q1019 NOSIG
12-03-16 METAR EDDT 161350Z 24007KT CAVOK 20/02 Q1018 NOSIG
12-03-16 METAR EDDT 161420Z 21008KT CAVOK 20/02 Q1018 NOSIG
12-03-16 METAR EDDT 161450Z 25011KT CAVOK 20/01 Q1018 NOSIG
12-03-16 METAR EDDT 161520Z 26012KT CAVOK 20/01 Q1018 NOSIG
12-03-16 METAR EDDT 161550Z 26009KT CAVOK 19/01 Q1018 NOSIG
12-03-16 METAR EDDT 161620Z 26006KT CAVOK 18/02 Q1017 NOSIG
12-03-16 METAR EDDT 161650Z 23007KT CAVOK 17/02 Q1017 NOSIG
12-03-16 METAR EDDT 161720Z 25004KT CAVOK 16/02 Q1017 NOSIG
12-03-16 METAR EDDT 161750Z 25001KT CAVOK 15/02 Q1017 NOSIG
12-03-16 METAR EDDT 161820Z 24001KT CAVOK 14/03 Q1017 NOSIG
12-03-16 METAR EDDT 161850Z 27004KT CAVOK 13/02 Q1018 NOSIG
12-03-16 METAR EDDT 161920Z 26003KT CAVOK 12/03 Q1018 NOSIG
12-03-16 METAR EDDT 161950Z 27002KT CAVOK 12/03 Q1018 NOSIG
12-03-16 METAR EDDT 162020Z VRB01KT CAVOK 11/02 Q1018 NOSIG
12-03-16 METAR EDDT 162050Z 20001KT CAVOK 11/03 Q1018 NOSIG
12-03-16 METAR EDDT 162120Z 18001KT CAVOK 11/03 Q1018 NOSIG
12-03-16 METAR EDDT 162150Z 23002KT CAVOK 09/03 Q1018 NOSIG
12-03-16 METAR EDDT 162220Z 25001KT CAVOK 08/02 Q1018
12-03-16 METAR EDDT 162250Z 20001KT CAVOK 07/02 Q1018
12-03-16 METAR EDDT 162320Z 01001KT CAVOK 07/03 Q1018
12-03-16 METAR EDDT 162350Z 05001KT CAVOK 07/03 Q1018
12-03-17 METAR EDDT 162350Z 05001KT CAVOK 07/03 Q1018
12-03-17 METAR EDDT 170020Z 09001KT CAVOK 06/02 Q1017
12-03-17 METAR EDDT 170050Z 11001KT CAVOK 06/02 Q1017
12-03-17 METAR EDDT 170120Z 16001KT CAVOK 06/03 Q1017
12-03-17 METAR EDDT 170150Z VRB01KT CAVOK 06/03 Q1017
12-03-17 METAR EDDT 170220Z 15002KT CAVOK 06/03 Q1017
12-03-17 METAR EDDT 170250Z 12002KT CAVOK 06/03 Q1016
12-03-17 METAR EDDT 170320Z 09001KT CAVOK 05/02 Q1016
12-03-17 METAR EDDT 170350Z VRB02KT CAVOK 05/02 Q1016 NOSIG
12-03-17 METAR EDDT 170420Z 13001KT CAVOK 05/03 Q1016 NOSIG
12-03-17 METAR EDDT 170450Z 16002KT CAVOK 06/03 Q1016 NOSIG
12-03-17 METAR EDDT 170520Z 17002KT CAVOK 06/03 Q1016 NOSIG
12-03-17 METAR EDDT 170550Z 15002KT CAVOK 07/03 Q1016 NOSIG
12-03-17 METAR EDDT 170620Z 18002KT CAVOK 08/03 Q1016 NOSIG
12-03-17 METAR EDDT 170650Z 18004KT CAVOK 09/03 Q1016 NOSIG
12-03-17 METAR EDDT 170720Z 18004KT CAVOK 11/04 Q1016 NOSIG
12-03-17 METAR EDDT 170750Z 18005KT CAVOK 12/03 Q1016 NOSIG
12-03-17 METAR EDDT 170820Z 18005KT CAVOK 13/04 Q1016 NOSIG
12-03-17 METAR EDDT 170850Z 19006KT CAVOK 15/04 Q1015 NOSIG
12-03-17 METAR EDDT 170920Z 22006KT CAVOK 17/05 Q1015 NOSIG
12-03-17 METAR EDDT 170950Z 22008KT CAVOK 17/04 Q1015 NOSIG
12-03-17 METAR EDDT 171020Z 23009KT CAVOK 18/04 Q1015 NOSIG
12-03-17 METAR EDDT 171050Z 28009KT CAVOK 19/04 Q1015 NOSIG
12-03-17 METAR EDDT 171120Z 28009KT CAVOK 19/04 Q1015 NOSIG
12-03-17 METAR EDDT 171150Z 29008KT CAVOK 19/05 Q1015 NOSIG
12-03-17 METAR EDDT 171220Z 29007KT CAVOK 19/04 Q1015 NOSIG
12-03-17 METAR EDDT 171250Z 31008KT CAVOK 18/05 Q1015 NOSIG
12-03-17 METAR EDDT 171320Z 31008KT CAVOK 18/05 Q1015 NOSIG
12-03-17 METAR EDDT 171350Z 31007KT CAVOK 17/05 Q1014 NOSIG
12-03-17 METAR EDDT 171420Z 32007KT CAVOK 17/06 Q1014 NOSIG
12-03-17 METAR EDDT 171450Z 33007KT 290V350 CAVOK 17/07 Q1014 NOSIG
12-03-17 METAR EDDT 171520Z 33006KT CAVOK 16/07 Q1014 NOSIG
12-03-17 METAR EDDT 171550Z 34005KT 9000 NSC 16/07 Q1014 NOSIG
12-03-17 METAR EDDT 171620Z 34004KT 7000 NSC 15/07 Q1014 TEMPO 4500 BR
12-03-17 METAR EDDT 171650Z 36004KT 6000 NSC 15/07 Q1014 TEMPO 4500 BR
12-03-17 METAR EDDT 171720Z 35003KT 6000 NSC 14/07 Q1014 TEMPO 4500 BR
12-03-17 METAR EDDT 171750Z 35004KT 6000 NSC 13/07 Q1014 TEMPO 4500 BR
12-03-17 METAR EDDT 171820Z 36003KT 8000 NSC 12/07 Q1014 TEMPO 4500 BR
12-03-17 METAR EDDT 171850Z 35004KT 8000 NSC 12/07 Q1014 TEMPO 4500 BR
12-03-17 METAR EDDT 171920Z 01003KT 8000 NSC 11/07 Q1014 TEMPO 4500 BR
12-03-17 METAR EDDT 171950Z 35003KT 7000 NSC 11/07 Q1014 NOSIG
12-03-17 METAR EDDT 172020Z 34003KT 7000 NSC 10/06 Q1014 NOSIG
12-03-17 METAR EDDT 172050Z 33004KT 6000 NSC 10/06 Q1015 NOSIG
12-03-17 METAR EDDT 172120Z 36003KT 6000 NSC 09/06 Q1015 NOSIG
12-03-17 METAR EDDT 172150Z 06002KT 5000 BR NSC 09/06 Q1014 NOSIG
12-03-17 METAR EDDT 172220Z 05002KT 5000 BR NSC 09/06 Q1014
12-03-17 METAR EDDT 172250Z 09004KT 5000 BR NSC 09/05 Q1014
12-03-17 METAR EDDT 172320Z VRB01KT 5000 BR NSC 08/05 Q1014
12-03-17 METAR EDDT 172350Z 34001KT 5000 BR NSC 07/04 Q1014
12-03-18 METAR EDDT 172350Z 34001KT 5000 BR NSC 07/04 Q1014
12-03-18 METAR EDDT 180020Z 31001KT 5000 BR NSC 05/03 Q1015
12-03-18 METAR EDDT 180050Z 25001KT 4500 BR NSC 05/03 Q1014
12-03-18 METAR EDDT 180120Z 28003KT 4000 BR NSC 06/05 Q1014
12-03-18 METAR EDDT 180150Z 26002KT 4000 BR NSC 06/05 Q1014
12-03-18 METAR EDDT 180220Z 22001KT 4000 BR NSC 06/05 Q1014
12-03-18 METAR EDDT 180250Z 09002KT 4500 BR NSC 07/05 Q1014
12-03-18 METAR EDDT 180320Z 00000KT 4500 BR NSC 06/04 Q1013
12-03-18 METAR EDDT 180420Z 26002KT 2000 R26R/0900VP2000U R26L/1200VP2000U MIFG BR NSC 04/03 Q1014 TEMPO 1200 BR
12-03-18 METAR EDDT 180450Z 20001KT 2500 BR SCT040 BKN130 05/04 Q1014 TEMPO 1200 BR
12-03-18 METAR EDDT 180520Z 22003KT 2300 BR SCT027 BKN130 06/05 Q1014 TEMPO 1200 BR
12-03-18 METAR EDDT 180550Z 20003KT 2800 BR BKN027 BKN130 07/06 Q1014 TEMPO 1200 BR
12-03-18 METAR EDDT 180620Z 17003KT 2900 BR BKN027 BKN130 08/06 Q1014 BECMG 3000 BR
12-03-18 METAR EDDT 180650Z 17003KT 4000 BR FEW027 BKN130 08/06 Q1014 BECMG 5000
12-03-18 METAR EDDT 180720Z 20003KT 4500 BR NSC 09/06 Q1014 BECMG 5000
12-03-18 METAR EDDT 180750Z 19004KT 5000 NSC 10/06 Q1013 NOSIG
12-03-18 METAR EDDT 180820Z 21006KT 6000 NSC 11/07 Q1014 NOSIG
12-03-18 METAR EDDT 180850Z 26007KT 6000 NSC 12/06 Q1014 NOSIG
12-03-18 METAR EDDT 180920Z 26007KT 7000 NSC 13/06 Q1014 NOSIG
12-03-18 METAR EDDT 180950Z 23006KT CAVOK 13/06 Q1013 NOSIG
12-03-18 METAR EDDT 181020Z 24006KT CAVOK 14/06 Q1013 NOSIG
12-03-18 METAR EDDT 181050Z 20005KT CAVOK 15/06 Q1013 NOSIG
12-03-18 METAR EDDT 181120Z 19006KT CAVOK 16/06 Q1013 NOSIG
12-03-18 METAR EDDT 181150Z 19009KT 9999 FEW050 SCT250 16/05 Q1012 NOSIG
12-03-18 METAR EDDT 181220Z 23009KT 9999 FEW046 SCT250 17/05 Q1012 NOSIG
12-03-18 METAR EDDT 181250Z 23011KT 9999 -SHRA SCT048 SCT250 17/04 Q1012 NOSIG
12-03-18 METAR EDDT 181320Z 22012KT 9999 SCT040 BKN048 16/05 Q1011 NOSIG
12-03-18 METAR EDDT 181350Z 26010KT 9999 SCT044 BKN130 17/06 Q1011 NOSIG
12-03-18 METAR EDDT 181420Z 24009KT 9999 BKN044 BKN130 17/05 Q1011 TEMPO SHRA
12-03-18 METAR EDDT 181520Z 23010KT 9999 -SHRA FEW033 BKN044 15/06 Q1011 TEMPO SHRA
12-03-18 METAR EDDT 181550Z 28014KT 9999 -SHRA SCT033 BKN045 13/07 Q1012 TEMPO 27015G25 4000 SHRA
12-03-18 METAR EDDT 181620Z 26014KT 9999 -RA BKN045 BKN130 11/07 Q1012 TEMPO
12-03-18 METAR EDDT 181650Z 27013KT 9999 -RA FEW018 SCT044 BKN130 11/08 Q1013 TEMPO
12-03-18 METAR EDDT 181720Z 27015KT 9999 -RA FEW018 BKN044 10/06 Q1013 TEMPO 27015G25KT SHRA
12-03-18 METAR EDDT 181750Z 27011KT 9999 -RA FEW018 BKN042 10/06 Q1013 TEMPO
12-03-18 METAR EDDT 181820Z 27010KT 9999 -RA FEW020 BKN034 09/06 Q1014 NOSIG
12-03-18 METAR EDDT 181850Z 26009KT CAVOK 08/06 Q1014 NOSIG
12-03-18 METAR EDDT 181920Z 26008KT CAVOK 08/06 Q1014 NOSIG
12-03-18 METAR EDDT 181950Z 26010KT CAVOK 08/05 Q1014 NOSIG
12-03-18 METAR EDDT 182020Z 25008KT CAVOK 07/05 Q1014 NOSIG
12-03-18 METAR EDDT 182050Z 26013KT CAVOK 08/04 Q1014 NOSIG
12-03-18 METAR EDDT 182120Z 26012KT CAVOK 08/03 Q1015 NOSIG
12-03-18 METAR EDDT 182150Z 27016KT 9999 BKN030 08/03 Q1015 NOSIG
12-03-18 METAR EDDT 182220Z 28019G35KT 9999 BKN030 07/01 Q1016
12-03-18 METAR EDDT 182250Z 28017KT 9999 BKN030 07/01 Q1016
12-03-18 METAR EDDT 182320Z 28013G23KT 9999 BKN030 06/01 Q1016
12-03-18 METAR EDDT 182350Z 28015KT 9999 BKN030 06/01 Q1017
12-03-19 METAR EDDT 182350Z 28015KT 9999 BKN030 06/01 Q1017
12-03-19 METAR EDDT 190020Z 27015KT 9999 BKN030 06/01 Q1017
12-03-19 METAR EDDT 190050Z 27017KT 9999 BKN027 06/01 Q1017
12-03-19 METAR EDDT 190120Z 28016KT 9999 BKN025 06/01 Q1017
12-03-19 METAR EDDT 190150Z 29014KT 9999 BKN025 06/01 Q1018
12-03-19 METAR EDDT 190220Z 28013KT 9999 -RA BKN022 06/01 Q1018
12-03-19 METAR EDDT 190250Z 28013KT 9999 BKN022 06/01 Q1019
12-03-19 METAR EDDT 190320Z 28014KT 9999 SCT022 BKN040 06/01 Q1019
12-03-19 METAR EDDT 190350Z 29012KT 9999 FEW022 05/01 Q1020 BECMG 27010KT
12-03-19 METAR EDDT 190420Z 28010KT 9999 BKN023 05/01 Q1021 BECMG 27010KT
12-03-19 METAR EDDT 190450Z 28008KT 9999 BKN030 05/01 Q1021 NOSIG
12-03-19 METAR EDDT 190520Z 28010KT 9999 SCT030 05/01 Q1021 NOSIG
12-03-19 METAR EDDT 190550Z 28009KT 9999 BKN024 05/01 Q1022 NOSIG
12-03-19 METAR EDDT 190620Z 30011KT 9999 BKN024 05/00 Q1023 NOSIG
12-03-19 METAR EDDT 190650Z 29014KT 9999 BKN022 05/M01 Q1024 TEMPO 28015G25KT
12-03-19 METAR EDDT 190720Z 30013KT 9999 BKN022 05/M00 Q1024 TEMPO 28015G25KT
12-03-19 METAR EDDT 190750Z 28013KT 9999 SCT022 06/M00 Q1024 TEMPO 28015G25KT
12-03-19 METAR EDDT 190820Z 29013KT 9999 SCT025 06/M01 Q1025 TEMPO 28015G25KT
12-03-19 METAR EDDT 190850Z 28014KT 9999 SCT025 07/M00 Q1025 TEMPO 28015G25KT
12-03-19 METAR EDDT 190920Z 28015KT 9999 FEW025 07/M01 Q1025 TEMPO 28015G25KT
12-03-19 METAR EDDT 190950Z 27013KT 9999 FEW020 08/M02 Q1026 TEMPO 28015G25KT
12-03-19 METAR EDDT 191020Z 28012KT 9999 FEW020 09/M01 Q1026 TEMPO 28015G25KT
12-03-19 METAR EDDT 191050Z 28013KT CAVOK 08/M02 Q1026 TEMPO 28015G25KT
12-03-19 METAR EDDT 191120Z 28013KT CAVOK 09/M03 Q1026 TEMPO 28015G25KT
12-03-19 METAR EDDT 191150Z 28014KT CAVOK 09/M03 Q1027 TEMPO 28015G25KT
12-03-19 METAR EDDT 191220Z 28013KT CAVOK 10/M03 Q1027 TEMPO 28015G25KT
12-03-19 METAR EDDT 191250Z 29011KT CAVOK 10/M03 Q1027 TEMPO 28015G25KT
12-03-19 METAR EDDT 191320Z 28013KT 9999 FEW020 10/M02 Q1027 TEMPO 28015G25KT
12-03-19 METAR EDDT 191350Z 30012G24KT 9999 FEW040 10/M03 Q1027 TEMPO 28015G25KT
12-03-19 METAR EDDT 191420Z 29012KT 9999 SCT045 10/M02 Q1027 TEMPO 28015G25KT
12-03-19 METAR EDDT 191450Z 30012KT 9999 FEW020 BKN048 10/M02 Q1027 TEMPO 28015G25KT
12-03-19 METAR EDDT 191520Z 30010KT 9999 FEW030 BKN058 10/M02 Q1028 TEMPO
12-03-19 METAR EDDT 191550Z 29009KT CAVOK 10/M02 Q1028 NOSIG
12-03-19 METAR EDDT 191620Z 29009KT CAVOK 10/M02 Q1028 NOSIG
12-03-19 METAR EDDT 191650Z 28009KT CAVOK 10/M02 Q1028 NOSIG
12-03-19 METAR EDDT 191720Z 28008KT CAVOK 09/M01 Q1028 NOSIG
12-03-19 METAR EDDT 191750Z 28007KT CAVOK 09/M01 Q1029 NOSIG
12-03-19 METAR EDDT 191820Z 27007KT CAVOK 08/M01 Q1029 NOSIG
12-03-19 METAR EDDT 191850Z 28006KT CAVOK 08/M01 Q1029 NOSIG
12-03-19 METAR EDDT 191920Z 28005KT CAVOK 07/M01 Q1030 NOSIG
12-03-19 METAR EDDT 191950Z 27007KT CAVOK 06/M01 Q1030 NOSIG
12-03-19 METAR EDDT 192020Z 28007KT CAVOK 07/M00 Q1030 NOSIG
12-03-19 METAR EDDT 192050Z 28007KT CAVOK 07/M00 Q1030 NOSIG
12-03-19 METAR EDDT 192120Z 27006KT CAVOK 05/M01 Q1031 NOSIG
12-03-19 METAR EDDT 192150Z 26005KT CAVOK 04/M01 Q1031 NOSIG
12-03-19 METAR EDDT 192220Z 27005KT CAVOK 05/M01 Q1031
12-03-19 METAR EDDT 192250Z 27006KT CAVOK 03/M01 Q1031
12-03-19 METAR EDDT 192320Z 27007KT CAVOK 04/M00 Q1031
12-03-19 METAR EDDT 192350Z 27005KT CAVOK 04/M00 Q1031
12-03-20 METAR EDDT 192350Z 27005KT CAVOK 04/M00 Q1031
12-03-20 METAR EDDT 200020Z 26007KT CAVOK 03/M01 Q1032
12-03-20 METAR EDDT 200050Z 26006KT CAVOK 03/M01 Q1032
12-03-20 METAR EDDT 200120Z 24006KT CAVOK 02/M01 Q1031
12-03-20 METAR EDDT 200150Z 25007KT CAVOK 02/M01 Q1031
12-03-20 METAR EDDT 200220Z 25007KT CAVOK 02/M01 Q1031
12-03-20 METAR EDDT 200250Z 25007KT CAVOK 02/M01 Q1031
12-03-20 METAR EDDT 200320Z 26004KT CAVOK 02/M01 Q1031
12-03-20 METAR EDDT 200350Z 25006KT CAVOK 01/M02 Q1031 NOSIG
12-03-20 METAR EDDT 200420Z 27006KT CAVOK 01/M01 Q1032 NOSIG
12-03-20 METAR EDDT 200450Z 27006KT CAVOK 01/M01 Q1032 NOSIG
12-03-20 METAR EDDT 200520Z 25006KT CAVOK 01/M01 Q1032 NOSIG
12-03-20 METAR EDDT 200550Z 25008KT CAVOK 03/M00 Q1032 NOSIG
12-03-20 METAR EDDT 200620Z 24011KT CAVOK 04/00 Q1032 NOSIG
12-03-20 METAR EDDT 200650Z 25010KT CAVOK 04/01 Q1032 NOSIG
12-03-20 METAR EDDT 200720Z 26011KT CAVOK 05/01 Q1032 NOSIG
12-03-20 METAR EDDT 200750Z 25012KT CAVOK 05/01 Q1032 NOSIG
12-03-20 METAR EDDT 200820Z 25013KT 9999 FEW040 BKN080 06/01 Q1033 NOSIG
12-03-20 METAR EDDT 200850Z 26012KT CAVOK 08/01 Q1033 NOSIG
12-03-20 METAR EDDT 200920Z 27013KT CAVOK 08/01 Q1032 NOSIG
12-03-20 METAR EDDT 200950Z 27013KT CAVOK 09/01 Q1032 NOSIG
12-03-20 METAR EDDT 201020Z 26014KT CAVOK 10/01 Q1032 NOSIG
12-03-20 METAR EDDT 201050Z 26015KT 9999 FEW043 BKN090 11/02 Q1032 NOSIG
12-03-20 METAR EDDT 201120Z 27016KT 9999 FEW025 BKN090 11/01 Q1032 NOSIG
12-03-20 METAR EDDT 201150Z 26017KT 9999 FEW025 SCT070 BKN090 11/01 Q1032 NOSIG
12-03-20 METAR EDDT 201220Z 26015KT 9999 FEW029 SCT070 12/01 Q1032 NOSIG
12-03-20 METAR EDDT 201250Z 26015G25KT 9999 RA FEW030 SCT070 12/02 Q1032 NOSIG
12-03-20 METAR EDDT 201320Z 24013KT 9999 FEW030 12/02 Q1031 NOSIG
12-03-20 METAR EDDT 201350Z 26015KT 9999 BKN050 12/03 Q1031 NOSIG
12-03-20 METAR EDDT 201420Z 26015KT 9999 -RA FEW040 BKN050 12/02 Q1031 NOSIG
12-03-20 METAR EDDT 201450Z 26014KT CAVOK 13/02 Q1031 NOSIG
12-03-20 METAR EDDT 201520Z 26014KT CAVOK 12/02 Q1031 NOSIG
12-03-20 METAR EDDT 201550Z 27013KT 9999 -RA FEW042 BKN056 12/02 Q1031 NOSIG
12-03-20 METAR EDDT 201620Z 27011KT 9999 -RA FEW042 SCT054 BKN090 12/02 Q1031 NOSIG
12-03-20 METAR EDDT 201650Z 26011KT 9999 SCT040 SCT080 12/02 Q1031 NOSIG
12-03-20 METAR EDDT 201720Z 26010KT 9999 BKN040 12/02 Q1031 NOSIG
12-03-20 METAR EDDT 201750Z 26010KT CAVOK 12/02 Q1031 NOSIG
12-03-20 METAR EDDT 201820Z 26009KT 9999 SCT040 BKN050 12/02 Q1032 NOSIG
12-03-20 METAR EDDT 201850Z 26008KT 9999 FEW018 BKN039 11/02 Q1032 NOSIG
12-03-20 METAR EDDT 201920Z 25008KT 9999 BKN035 11/02 Q1032 NOSIG
12-03-20 METAR EDDT 201950Z 28006KT 9999 -RA BKN033 11/04 Q1032 NOSIG
12-03-20 METAR EDDT 202020Z 25006KT 9999 BKN032 09/04 Q1032 NOSIG
12-03-20 METAR EDDT 202050Z 26006KT 9999 BKN030 09/04 Q1032 NOSIG
12-03-20 METAR EDDT 202120Z 26007KT 9999 BKN030 10/04 Q1032 NOSIG
12-03-20 METAR EDDT 202150Z 26006KT 9999 BKN029 10/05 Q1033 NOSIG
12-03-20 METAR EDDT 202220Z 27007KT 9999 BKN027 10/04 Q1033
12-03-20 METAR EDDT 202250Z 27007KT 9999 BKN024 10/04 Q1033
12-03-20 METAR EDDT 202320Z 26007KT 9999 BKN025 10/04 Q1033
12-03-20 METAR EDDT 202350Z 27007KT 9999 BKN025 10/04 Q1033
12-03-21 METAR EDDT 202350Z 27007KT 9999 BKN025 10/04 Q1033
12-03-21 METAR EDDT 210020Z 26007KT 9999 BKN025 10/05 Q1033
12-03-21 METAR EDDT 210050Z 26007KT 9999 BKN024 10/05 Q1033
12-03-21 METAR EDDT 210120Z 27006KT 9999 BKN023 10/05 Q1033
12-03-21 METAR EDDT 210150Z 26006KT 9999 BKN021 09/05 Q1033
12-03-21 METAR EDDT 210220Z 27006KT 9999 BKN021 09/05 Q1033
12-03-21 METAR EDDT 210250Z 28005KT 9999 BKN019 10/05 Q1033
12-03-21 METAR EDDT 210320Z 26006KT 9999 BKN019 09/05 Q1033
12-03-21 METAR EDDT 210350Z 27006KT 9999 BKN017 10/05 Q1033 BECMG BKN012
12-03-21 METAR EDDT 210420Z 28007KT 9999 BKN017 10/06 Q1033 BECMG BKN012
12-03-21 METAR EDDT 210450Z 28007KT 9999 BKN018 10/06 Q1033 BECMG BKN012
12-03-21 METAR EDDT 210520Z 28007KT 9999 BKN016 10/06 Q1033 BECMG BKN012
12-03-21 METAR EDDT 210550Z 28006KT 9999 BKN015 10/06 Q1033 BECMG BKN012
12-03-21 METAR EDDT 210620Z 28006KT 9999 BKN015 10/06 Q1034 BECMG BKN012
12-03-21 METAR EDDT 210650Z 28006KT 9999 BKN016 10/06 Q1034 BECMG BKN012
12-03-21 METAR EDDT 210720Z 28008KT 9999 BKN015 10/06 Q1034 NOSIG
12-03-21 METAR EDDT 210750Z 28007KT 9999 BKN015 10/07 Q1034 NOSIG
12-03-21 METAR EDDT 210820Z 29007KT 9999 BKN015 11/07 Q1034 NOSIG
12-03-21 METAR EDDT 210850Z 28009KT 9999 BKN015 11/07 Q1034 NOSIG
12-03-21 METAR EDDT 210920Z 28008KT 9999 BKN015 11/07 Q1035 NOSIG
12-03-21 METAR EDDT 210950Z 28007KT 9999 BKN016 11/07 Q1035 NOSIG
12-03-21 METAR EDDT 211020Z 28008KT 9999 BKN016 11/07 Q1035 NOSIG
12-03-21 METAR EDDT 211050Z 28007KT 9999 BKN016 11/07 Q1035 NOSIG
12-03-21 METAR EDDT 211120Z 29008KT 9999 BKN017 11/07 Q1035 NOSIG
12-03-21 METAR EDDT 211150Z 28009KT 9999 BKN017 12/07 Q1035 NOSIG
12-03-21 METAR EDDT 211220Z 28008KT 9999 BKN017 12/07 Q1035 NOSIG
12-03-21 METAR EDDT 211250Z 29007KT 9999 BKN018 12/07 Q1035 NOSIG
12-03-21 METAR EDDT 211320Z 28008KT 9999 BKN020 12/07 Q1035 NOSIG
12-03-21 METAR EDDT 211350Z 29006KT 9999 BKN022 13/07 Q1034 NOSIG
12-03-21 METAR EDDT 211420Z 28006KT 9999 BKN025 13/07 Q1034 NOSIG
12-03-21 METAR EDDT 211450Z 28008KT 9999 BKN025 13/07 Q1034 NOSIG
12-03-21 METAR EDDT 211520Z 26007KT 9999 BKN025 13/07 Q1034 NOSIG
12-03-21 METAR EDDT 211550Z 26007KT 9999 SCT025 13/07 Q1034 NOSIG
12-03-21 METAR EDDT 211620Z 26009KT 9999 FEW025 13/07 Q1033 NOSIG
12-03-21 METAR EDDT 211650Z 27006KT 9999 FEW025 12/07 Q1034 NOSIG
12-03-21 METAR EDDT 211720Z 28005KT 9999 SCT030 11/07 Q1034 NOSIG
12-03-21 METAR EDDT 211750Z 25005KT 9999 BKN034 11/07 Q1034 NOSIG
12-03-21 METAR EDDT 211820Z 27005KT 9999 SCT037 11/07 Q1034 NOSIG
12-03-21 METAR EDDT 211850Z 26002KT 9999 BKN038 11/07 Q1034 NOSIG
12-03-21 METAR EDDT 211920Z 27003KT 9999 BKN035 10/07 Q1034 NOSIG
12-03-21 METAR EDDT 211950Z 28003KT 9999 BKN034 11/08 Q1034 NOSIG
12-03-21 METAR EDDT 212020Z 27004KT 9999 BKN034 11/08 Q1034 NOSIG
12-03-21 METAR EDDT 212050Z 30004KT 9999 BKN033 11/08 Q1034 NOSIG
12-03-21 METAR EDDT 212120Z 31003KT 9999 BKN032 11/08 Q1034 NOSIG
12-03-21 METAR EDDT 212150Z 30003KT 9999 BKN032 11/08 Q1034 NOSIG
12-03-21 METAR EDDT 212220Z 30003KT 9999 BKN032 11/08 Q1034
12-03-21 METAR EDDT 212250Z 31002KT 9999 BKN031 11/08 Q1034
12-03-21 METAR EDDT 212320Z 31002KT 9999 BKN030 11/08 Q1034
12-03-21 METAR EDDT 212350Z 33003KT 9999 BKN030 11/08 Q1034
12-03-22 METAR EDDT 212350Z 33003KT 9999 BKN030 11/08 Q1034
12-03-22 METAR EDDT 220020Z 31002KT 9999 BKN029 11/07 Q1034
12-03-22 METAR EDDT 220050Z 29003KT 9999 BKN028 10/07 Q1034
12-03-22 METAR EDDT 220120Z 29003KT 9999 BKN028 09/07 Q1034
12-03-22 METAR EDDT 220150Z 30002KT 9999 BKN026 07/05 Q1034
12-03-22 METAR EDDT 220220Z 30001KT 9999 BKN025 08/06 Q1034
12-03-22 METAR EDDT 220250Z 27003KT 9999 BKN024 08/06 Q1034
12-03-22 METAR EDDT 220320Z 27002KT 9999 BKN024 08/06 Q1034
12-03-22 METAR EDDT 220350Z 34001KT 9999 BKN025 08/06 Q1034 NOSIG
12-03-22 METAR EDDT 220420Z 29002KT 9999 BKN026 09/06 Q1034 NOSIG
12-03-22 METAR EDDT 220450Z 29002KT 9999 BKN026 08/05 Q1034 NOSIG
12-03-22 METAR EDDT 220520Z 32002KT 9999 BKN027 07/05 Q1034 NOSIG
12-03-22 METAR EDDT 220550Z 26004KT 9999 SCT030 07/05 Q1034 NOSIG
12-03-22 METAR EDDT 220620Z 25004KT 9999 FEW030 07/05 Q1034 NOSIG
12-03-22 METAR EDDT 220650Z 26003KT 9999 BKN030 08/06 Q1034 NOSIG
12-03-22 METAR EDDT 220720Z 28002KT 9999 BKN029 09/06 Q1034 NOSIG
12-03-22 METAR EDDT 220750Z VRB03KT 9999 FEW029 10/06 Q1034 NOSIG
12-03-22 METAR EDDT 220820Z 29004KT 270V330 CAVOK 11/06 Q1034 NOSIG
12-03-22 METAR EDDT 220850Z 30003KT CAVOK 12/05 Q1034 NOSIG
12-03-22 METAR EDDT 220920Z 31005KT 9999 FEW025 12/05 Q1034 NOSIG
12-03-22 METAR EDDT 220950Z 28006KT 9999 FEW030 13/06 Q1034 NOSIG
12-03-22 METAR EDDT 221020Z 26005KT 9999 FEW030 14/05 Q1034 NOSIG
12-03-22 METAR EDDT 221050Z 30005KT 9999 FEW035 14/04 Q1033 NOSIG
12-03-22 METAR EDDT 221120Z 29004KT 260V330 9999 FEW040 15/04 Q1033 NOSIG
12-03-22 METAR EDDT 221150Z 31004KT 270V360 9999 FEW045 15/04 Q1033 NOSIG
12-03-22 METAR EDDT 221220Z 28007KT 270V340 CAVOK 15/03 Q1033 NOSIG
12-03-22 METAR EDDT 221250Z 27005KT CAVOK 16/04 Q1032 NOSIG
12-03-22 METAR EDDT 221320Z 26006KT CAVOK 16/03 Q1032 NOSIG
12-03-22 METAR EDDT 221350Z 28005KT CAVOK 16/04 Q1032 NOSIG
12-03-22 METAR EDDT 221420Z 28007KT CAVOK 17/04 Q1031 NOSIG
12-03-22 METAR EDDT 221450Z 27005KT CAVOK 17/05 Q1031 NOSIG
12-03-22 METAR EDDT 221520Z 29005KT CAVOK 16/04 Q1031 NOSIG
12-03-22 METAR EDDT 221550Z 27006KT CAVOK 16/05 Q1031 NOSIG
12-03-22 METAR EDDT 221620Z 29006KT CAVOK 16/05 Q1030 NOSIG
12-03-22 METAR EDDT 221650Z 33004KT CAVOK 15/05 Q1030 NOSIG
12-03-22 METAR EDDT 221720Z 32004KT CAVOK 15/05 Q1030 NOSIG
12-03-22 METAR EDDT 221750Z 33003KT CAVOK 14/05 Q1030 NOSIG
12-03-22 METAR EDDT 221820Z 32003KT CAVOK 13/05 Q1030 NOSIG
12-03-22 METAR EDDT 221850Z 31001KT CAVOK 13/05 Q1030 NOSIG
12-03-22 METAR EDDT 221920Z 34002KT CAVOK 12/05 Q1030 NOSIG
12-03-22 METAR EDDT 221950Z 35003KT CAVOK 12/05 Q1030 NOSIG
12-03-22 METAR EDDT 222020Z 35002KT CAVOK 11/05 Q1030 NOSIG
12-03-22 METAR EDDT 222050Z 01003KT CAVOK 12/05 Q1030 NOSIG
12-03-22 METAR EDDT 222120Z 01002KT CAVOK 12/05 Q1030 NOSIG
12-03-22 METAR EDDT 222150Z 29001KT CAVOK 09/04 Q1030 NOSIG
12-03-22 METAR EDDT 222220Z 35002KT CAVOK 09/05 Q1030
12-03-22 METAR EDDT 222250Z 34002KT CAVOK 08/04 Q1030
12-03-22 METAR EDDT 222320Z 00000KT CAVOK 07/04 Q1030
12-03-22 METAR EDDT 222350Z 35002KT CAVOK 06/04 Q1030
12-03-23 METAR EDDT 222350Z 35002KT CAVOK 06/04 Q1030
12-03-23 METAR EDDT 230020Z 00000KT CAVOK 05/03 Q1030
12-03-23 METAR EDDT 230050Z 29001KT CAVOK 05/03 Q1029
12-03-23 METAR EDDT 230120Z 28001KT CAVOK 05/03 Q1029
12-03-23 METAR EDDT 230150Z 27001KT CAVOK 04/03 Q1029
12-03-23 METAR EDDT 230220Z 33001KT 9999 MIFG NSC 04/03 Q1029
12-03-23 METAR EDDT 230250Z VRB01KT 9999 MIFG NSC 04/02 Q1029
12-03-23 METAR EDDT 230320Z 28001KT 9999 BCFG NSC 03/02 Q1029
12-03-23 METAR EDDT 230350Z 27002KT 9999 BCFG NSC 03/01 Q1029 NOSIG
12-03-23 METAR EDDT 230420Z 27001KT 9999 R26R/P2000N R08R/0900VP2000D BCFG NSC 02/01 Q1029 NOSIG
12-03-23 METAR EDDT 230450Z 23001KT 9999 R26R/1000VP2000U R26L/P2000N BCFG NSC 02/01
12-03-23 METAR EDDT 230520Z VRB01KT 9999 R26R/0600VP2000U R26L/0800VP2000U BCFG NSC 02/02 Q1029 NOSIG
12-03-23 METAR EDDT 230550Z 25001KT 9999 BCFG NSC 03/02 Q1029 NOSIG
12-03-23 METAR EDDT 230620Z 20001KT CAVOK 05/04 Q1029 NOSIG
12-03-23 METAR EDDT 230650Z 25001KT CAVOK 07/06 Q1029 NOSIG
12-03-23 METAR EDDT 230720Z 27002KT CAVOK 08/06 Q1029 NOSIG
12-03-23 METAR EDDT 230750Z VRB02KT CAVOK 10/06 Q1029 NOSIG
12-03-23 METAR EDDT 230820Z VRB02KT CAVOK 11/06 Q1029 NOSIG
12-03-23 METAR EDDT 230850Z 30005KT CAVOK 12/06 Q1029 NOSIG
12-03-23 METAR EDDT 230920Z 29004KT CAVOK 13/06 Q1029 NOSIG
12-03-23 METAR EDDT 230950Z 29004KT CAVOK 14/07 Q1028 NOSIG
12-03-23 METAR EDDT 231020Z 27004KT CAVOK 14/07 Q1028 NOSIG
12-03-23 METAR EDDT 231050Z 29004KT 270V340 9999 FEW030 15/07 Q1028 NOSIG
12-03-23 METAR EDDT 231120Z 01004KT 9999 FEW030 16/06 Q1028 NOSIG
12-03-23 METAR EDDT 231150Z 33004KT 310V030 9999 FEW035 16/05 Q1028 NOSIG
12-03-23 METAR EDDT 231220Z 35006KT 9999 FEW035 17/06 Q1027 NOSIG
12-03-23 METAR EDDT 231250Z VRB03KT 9999 FEW035 17/06 Q1027 NOSIG
12-03-23 METAR EDDT 231320Z VRB03KT 9999 FEW040 17/05 Q1027 NOSIG
12-03-23 METAR EDDT 231350Z 06004KT 010V080 9999 FEW045 18/05 Q1027 NOSIG
12-03-23 METAR EDDT 231420Z 01004KT 9999 FEW046 18/06 Q1027 NOSIG
12-03-23 METAR EDDT 231450Z VRB03KT 9999 FEW046 18/07 Q1026 NOSIG
12-03-23 METAR EDDT 231520Z VRB01KT 9999 FEW044 18/06 Q1026 NOSIG
12-03-23 METAR EDDT 231550Z 02005KT 300V040 9999 FEW044 18/06 Q1026 NOSIG
12-03-23 METAR EDDT 231620Z 34003KT 9999 FEW044 18/06 Q1026 NOSIG
12-03-23 METAR EDDT 231650Z 34003KT 9999 FEW044 18/07 Q1026 NOSIG
12-03-23 METAR EDDT 231720Z 35003KT 9999 SCT044 17/06 Q1026 NOSIG
12-03-23 METAR EDDT 231750Z 35002KT 9999 FEW044 17/07 Q1026 NOSIG
12-03-23 METAR EDDT 231820Z 34002KT 9999 FEW044 16/07 Q1026 NOSIG
12-03-23 METAR EDDT 231850Z 36001KT 9999 FEW044 15/07 Q1026 NOSIG
12-03-23 METAR EDDT 231920Z 03003KT 9999 FEW044 15/05 Q1027 NOSIG
12-03-23 METAR EDDT 231950Z VRB02KT CAVOK 14/04 Q1027 NOSIG
12-03-23 METAR EDDT 232020Z 31002KT CAVOK 13/05 Q1027 NOSIG
12-03-23 METAR EDDT 232050Z 32001KT CAVOK 11/05 Q1027 NOSIG
12-03-23 METAR EDDT 232120Z 36003KT CAVOK 10/04 Q1027 NOSIG
12-03-23 METAR EDDT 232150Z 03002KT CAVOK 11/04 Q1027 NOSIG
12-03-23 METAR EDDT 232220Z 06003KT CAVOK 10/04 Q1027
12-03-23 METAR EDDT 232250Z 02001KT CAVOK 10/04 Q1027
12-03-23 METAR EDDT 232320Z 03002KT CAVOK 10/04 Q1027
12-03-23 METAR EDDT 232350Z 04002KT CAVOK 09/04 Q1027
12-03-24 METAR EDDT 232350Z 04002KT CAVOK 09/04 Q1027
12-03-24 METAR EDDT 240020Z 01002KT CAVOK 09/04 Q1027
12-03-24 METAR EDDT 240050Z 01003KT CAVOK 08/04 Q1027
12-03-24 METAR EDDT 240120Z 36002KT CAVOK 07/04 Q1027
12-03-24 METAR EDDT 240150Z 34001KT CAVOK 06/03 Q1027
12-03-24 METAR EDDT 240220Z 36002KT CAVOK 06/03 Q1027
12-03-24 METAR EDDT 240250Z 35001KT CAVOK 06/03 Q1027
12-03-24 METAR EDDT 240320Z 32001KT 9999 MIFG NSC 05/02 Q1027
12-03-24 METAR EDDT 240350Z 31001KT 9999 MIFG NSC 04/03 Q1027 NOSIG
12-03-24 METAR EDDT 240420Z 35002KT 9999 MIFG BCFG NSC 04/02 Q1027 TEMPO 0500 FG
12-03-24 METAR EDDT 240450Z 32001KT 9999 MIFG BCFG NSC 03/02 Q1026 TEMPO 0500 FG
12-03-24 METAR EDDT 240520Z 00000KT 9999 MIFG BCFG NSC 02/01 Q1026 TEMPO 2000 BCFG
12-03-24 METAR EDDT 240550Z 31001KT 9999 MIFG BCFG NSC 03/02 Q1027 NOSIG
12-03-24 METAR EDDT 240620Z 29002KT 9999 MIFG BCFG NSC 05/04 Q1027 NOSIG
12-03-24 METAR EDDT 240650Z 26001KT CAVOK 07/05 Q1027 NOSIG
12-03-24 METAR EDDT 240720Z 26002KT CAVOK 09/05 Q1027 NOSIG
12-03-24 METAR EDDT 240750Z 28003KT CAVOK 10/06 Q1027 NOSIG
12-03-24 METAR EDDT 240820Z 27003KT CAVOK 12/06 Q1027 NOSIG
12-03-24 METAR EDDT 240850Z 29003KT CAVOK 14/05 Q1027 NOSIG
12-03-24 METAR EDDT 240920Z 31004KT 280V340 CAVOK 15/05 Q1027 NOSIG
12-03-24 METAR EDDT 240950Z 28005KT CAVOK 16/04 Q1026 NOSIG
12-03-24 METAR EDDT 241020Z 31006KT CAVOK 16/04 Q1026 NOSIG
12-03-24 METAR EDDT 241050Z 32005KT CAVOK 17/04 Q1026 NOSIG
12-03-24 METAR EDDT 241120Z 31006KT CAVOK 18/04 Q1026 NOSIG
12-03-24 METAR EDDT 241150Z 32005KT CAVOK 18/04 Q1026 NOSIG
12-03-24 METAR EDDT 241220Z 28006KT CAVOK 18/05 Q1026 NOSIG
12-03-24 METAR EDDT 241250Z 30008KT CAVOK 18/04 Q1025 NOSIG
12-03-24 METAR EDDT 241320Z 32008KT CAVOK 19/05 Q1025 NOSIG
12-03-24 METAR EDDT 241350Z 29006KT CAVOK 19/05 Q1025 NOSIG
12-03-24 METAR EDDT 241420Z 29010KT CAVOK 19/04 Q1025 NOSIG
12-03-24 METAR EDDT 241450Z 30008KT CAVOK 19/04 Q1024 NOSIG
12-03-24 METAR EDDT 241520Z 30009KT CAVOK 19/05 Q1024 NOSIG
12-03-24 METAR EDDT 241550Z 29009KT CAVOK 18/06 Q1024 NOSIG
12-03-24 METAR EDDT 241620Z 30007KT CAVOK 18/06 Q1024 NOSIG
12-03-24 METAR EDDT 241650Z 29006KT CAVOK 17/06 Q1024 NOSIG
12-03-24 METAR EDDT 241720Z 29006KT CAVOK 16/05 Q1024 NOSIG
12-03-24 METAR EDDT 241750Z 31005KT CAVOK 16/05 Q1024 NOSIG
12-03-24 METAR EDDT 241820Z 35006KT CAVOK 15/04 Q1025 NOSIG
12-03-24 METAR EDDT 241850Z 35006KT CAVOK 14/04 Q1025 NOSIG
12-03-24 METAR EDDT 241920Z 32004KT CAVOK 13/04 Q1025 NOSIG
12-03-24 METAR EDDT 241950Z 33005KT CAVOK 12/02 Q1025 NOSIG
12-03-24 METAR EDDT 242020Z 34006KT CAVOK 10/02 Q1025 NOSIG
12-03-24 METAR EDDT 242050Z 34004KT CAVOK 09/03 Q1026 NOSIG
12-03-24 METAR EDDT 242120Z 33004KT CAVOK 08/03 Q1026 NOSIG
12-03-24 METAR EDDT 242150Z 34006KT CAVOK 08/03 Q1026 NOSIG
12-03-24 METAR EDDT 242220Z 33005KT CAVOK 07/03 Q1026
12-03-24 METAR EDDT 242250Z 34003KT CAVOK 06/03 Q1026
12-03-24 METAR EDDT 242320Z 34005KT CAVOK 06/03 Q1026
12-03-24 METAR EDDT 242350Z 32003KT CAVOK 05/03 Q1026
12-03-25 METAR EDDT 242350Z 32003KT CAVOK 05/03 Q1026
12-03-25 METAR EDDT 250020Z 35003KT CAVOK 05/03 Q1027
12-03-25 METAR EDDT 250050Z 35004KT 9999 SCT005 04/03 Q1027
12-03-25 METAR EDDT 250120Z 32004KT 6000 BKN003 03/02 Q1027
12-03-25 METAR EDDT 250150Z 33004KT 4500 BR FEW001 BKN003 03/02 Q1027
12-03-25 METAR EDDT 250220Z 33003KT 4000 BR FEW001 BKN003 03/03 Q1027
12-03-25 METAR EDDT 250250Z 29004KT 2500 R26R/0900VP2000N R26L/0900VP2000D BR OVC002 03/02 Q1027 NOSIG
12-03-25 METAR EDDT 250320Z 28005KT 250V310 2000 BR OVC001 03/03 Q1027 TEMPO 1300 BR BKN002
12-03-25 METAR EDDT 250350Z 33005KT 1500 BR OVC001 03/03 Q1027 TEMPO 1300 BR BKN002
12-03-25 METAR EDDT 250420Z 30003KT 1200 R26R/1300VP2000D R26L/1700D BR OVC001 03/03 Q1027 TEMPO 1500 BR BKN002
12-03-25 METAR EDDT 250450Z 29003KT 0500 R26R/1100VP2000U R26L/1100V1800U FG OVC001 04/03 Q1027 TEMPO 0500 FG BKN002
12-03-25 METAR EDDT 250520Z 29004KT 0500 R26R/1100D R26L/0900V1700D FG OVC001 04/03 Q1027 TEMPO 0800 FG BKN002
12-03-25 METAR EDDT 250550Z 30007KT 0400 R26R/0450V0800U R26L/0500V0900U FG OVC001 04/03 Q1027 TEMPO 0800 FG BKN002
12-03-25 METAR EDDT 250620Z 27007KT 0400 R26R/0650U R26L/0800N FG OVC001 03/03 Q1027
12-03-25 METAR EDDT 250650Z 30005KT 0600 R26R/1000V1600N R26L/1200V1800N FG OVC001 03/03 Q1028 TEMPO 0800 FG BKN002
12-03-25 METAR EDDT 250720Z 27007KT 2400 BR OVC003 03/03 Q1028 BECMG 3000 BR
12-03-25 METAR EDDT 250750Z 29006KT 2600 BR OVC003 03/03 Q1028 BECMG 3000 BR
12-03-25 METAR EDDT 250820Z 31005KT 280V340 4200 BR BKN003 04/03 Q1028 BECMG 5000 BR BKN005
12-03-25 METAR EDDT 250850Z 29007KT 6000 BKN005 04/03 Q1028 BECMG SCT008
12-03-25 METAR EDDT 250920Z 28006KT 9999 BKN007 05/03 Q1029 BECMG SCT008
12-03-25 METAR EDDT 250950Z 28005KT 9999 FEW009 06/03 Q1029 NOSIG
12-03-25 METAR EDDT 251020Z 31007KT CAVOK 08/03 Q1029 NOSIG
12-03-25 METAR EDDT 251050Z 30006KT CAVOK 10/04 Q1029 NOSIG
12-03-25 METAR EDDT 251120Z 31007KT CAVOK 10/03 Q1029 NOSIG
12-03-25 METAR EDDT 251150Z 28007KT 260V320 CAVOK 11/04 Q1028 NOSIG
12-03-25 METAR EDDT 251220Z 28007KT CAVOK 12/04 Q1028 NOSIG
12-03-25 METAR EDDT 251250Z 29007KT CAVOK 13/04 Q1028 NOSIG
12-03-25 METAR EDDT 251320Z 31007KT CAVOK 14/04 Q1028 NOSIG
12-03-25 METAR EDDT 251350Z 32008KT CAVOK 14/04 Q1029 NOSIG
12-03-25 METAR EDDT 251420Z 31008KT CAVOK 14/04 Q1028 NOSIG
12-03-25 METAR EDDT 251450Z 31007KT CAVOK 14/03 Q1029 NOSIG
12-03-25 METAR EDDT 251520Z 31007KT CAVOK 15/04 Q1029 NOSIG
12-03-25 METAR EDDT 251550Z 33008KT CAVOK 15/03 Q1029 NOSIG
12-03-25 METAR EDDT 251620Z 35008KT CAVOK 14/03 Q1029 NOSIG
12-03-25 METAR EDDT 251650Z 35007KT CAVOK 13/03 Q1029 NOSIG
12-03-25 METAR EDDT 251720Z 34006KT CAVOK 12/03 Q1030 NOSIG
12-03-25 METAR EDDT 251750Z 34005KT CAVOK 11/04 Q1030 NOSIG
12-03-25 METAR EDDT 251820Z 36004KT CAVOK 11/04 Q1030 NOSIG
12-03-25 METAR EDDT 251850Z 01004KT 300V020 CAVOK 10/04 Q1031 NOSIG
12-03-25 METAR EDDT 251920Z 03005KT CAVOK 10/04 Q1031 NOSIG
12-03-25 METAR EDDT 251950Z 04004KT CAVOK 09/04 Q1032 NOSIG
12-03-25 METAR EDDT 252020Z 04006KT CAVOK 09/04 Q1032 NOSIG
12-03-25 METAR EDDT 252050Z 05004KT CAVOK 08/04 Q1032 NOSIG
12-03-25 METAR EDDT 252120Z 05005KT CAVOK 08/04 Q1032
12-03-25 METAR EDDT 252150Z 06005KT CAVOK 07/03 Q1033
12-03-25 METAR EDDT 252220Z 04003KT CAVOK 07/03 Q1033
12-03-25 METAR EDDT 252250Z 06004KT CAVOK 06/03 Q1033
12-03-25 METAR EDDT 252320Z 34001KT CAVOK 06/03 Q1033
12-03-25 METAR EDDT 252350Z 01001KT 9999 MIFG NSC 05/02 Q1033
12-03-26 METAR EDDT 252350Z 01001KT 9999 MIFG NSC 05/02 Q1033
12-03-26 METAR EDDT 260020Z VRB01KT 9999 MIFG NSC 04/02 Q1034
12-03-26 METAR EDDT 260050Z 30001KT 9999 R08L/0600V1300U R08R/P2000N BCFG MIFG NSC 03/01 Q1033
12-03-26 METAR EDDT 260120Z 02002KT 9999 R08L/0450VP2000U R08R/1200VP2000U BCFG MIFG NSC 02/01 Q1034
12-03-26 METAR EDDT 260150Z VRB01KT 9999 R08L/0600D R08R/P2000N BCFG MIFG NSC 02/01 Q1034
12-03-26 METAR EDDT 260220Z 25001KT 9999 R08L/0800V1700U R08R/0325VP2000U BCFG MIFG NSC 01/M00 Q1033
12-03-26 METAR EDDT 260250Z 28002KT 3000 R08L/0500V0900N R08R/0275V0500N BCFG MIFG BR NSC 01/M00 Q1033 TEMPO 1200 BCFG
12-03-26 METAR EDDT 260320Z 02002KT 6000 BCFG MIFG NSC 01/M00 Q1034 TEMPO 1500 BCFG
12-03-26 METAR EDDT 260350Z VRB02KT 6000 R26R/0900VP2000D R26L/P2000N BCFG MIFG NSC 00/M01 Q1034 TEMPO 1500 BCFG
12-03-26 METAR EDDT 260420Z VRB01KT 3000 R26R/0250VP2000U R26L/0225V1500U BCFG MIFG BR NSC 00/M01 Q1034 TEMPO 1500 BCFG
12-03-26 METAR EDDT 260450Z VRB01KT 5000 BCFG MIFG BR NSC 00/M00 Q1034 TEMPO 2000 BR
12-03-26 METAR EDDT 260520Z 08001KT 6000 R26R/0400VP2000U R26L/0450VP2000U BCFG MIFG NSC M00/M01 Q1034 TEMPO 2000 BR
12-03-26 METAR EDDT 260550Z 35001KT 9999 BCFG NSC 02/01 Q1035 NOSIG
12-03-26 METAR EDDT 260620Z 08001KT 9999 BCFG NSC 04/03 Q1035 NOSIG
12-03-26 METAR EDDT 260650Z 17003KT CAVOK 06/02 Q1035 NOSIG
12-03-26 METAR EDDT 260720Z 20004KT CAVOK 07/01 Q1035 NOSIG
12-03-26 METAR EDDT 260750Z 23005KT CAVOK 08/00 Q1035 NOSIG
12-03-26 METAR EDDT 260820Z 25004KT CAVOK 09/M00 Q1035 NOSIG
12-03-26 METAR EDDT 260850Z 26005KT CAVOK 10/M02 Q1035 NOSIG
12-03-26 METAR EDDT 260920Z 24006KT CAVOK 11/M01 Q1035 NOSIG
12-03-26 METAR EDDT 260950Z 25005KT CAVOK 12/M02 Q1035 NOSIG
12-03-26 METAR EDDT 261020Z 27007KT CAVOK 12/M02 Q1035 NOSIG
12-03-26 METAR EDDT 261050Z 23007KT CAVOK 13/M03 Q1035 NOSIG
12-03-26 METAR EDDT 261120Z 26007KT CAVOK 13/M02 Q1034 NOSIG
12-03-26 METAR EDDT 261150Z 27006G18KT CAVOK 13/M04 Q1034 NOSIG
12-03-26 METAR EDDT 261220Z 28006KT 250V320 CAVOK 14/M06 Q1034 NOSIG
12-03-26 METAR EDDT 261250Z 26006KT 220V310 CAVOK 14/M06 Q1034 NOSIG
12-03-26 METAR EDDT 261320Z 28005KT 250V320 CAVOK 15/M05 Q1034 NOSIG
12-03-26 METAR EDDT 261350Z 28004KT 250V330 CAVOK 14/M06 Q1033 NOSIG
12-03-26 METAR EDDT 261420Z VRB04KT CAVOK 15/M06 Q1033 NOSIG
12-03-26 METAR EDDT 261450Z 29005KT 250V310 CAVOK 15/M04 Q1033 NOSIG
12-03-26 METAR EDDT 261520Z 29006KT CAVOK 15/M05 Q1032 NOSIG
12-03-26 METAR EDDT 261550Z 30006KT CAVOK 14/M04 Q1032 NOSIG
12-03-26 METAR EDDT 261620Z 31005KT CAVOK 14/M03 Q1032 NOSIG
12-03-26 METAR EDDT 261650Z 32004KT CAVOK 14/M01 Q1032 NOSIG
12-03-26 METAR EDDT 261720Z 30004KT CAVOK 13/M00 Q1032 NOSIG
12-03-26 METAR EDDT 261750Z 31002KT CAVOK 12/M00 Q1032 NOSIG
12-03-26 METAR EDDT 261820Z 29002KT CAVOK 11/M00 Q1032 NOSIG
12-03-26 METAR EDDT 261850Z VRB01KT CAVOK 10/M00 Q1032 NOSIG
12-03-26 METAR EDDT 261920Z 26002KT CAVOK 09/M00 Q1032 NOSIG
12-03-26 METAR EDDT 261950Z 30002KT CAVOK 08/01 Q1032 NOSIG
12-03-26 METAR EDDT 262020Z 27002KT CAVOK 08/01 Q1032 NOSIG
12-03-26 METAR EDDT 262050Z VRB01KT CAVOK 07/01 Q1031 NOSIG
12-03-26 METAR EDDT 262120Z 29001KT CAVOK 07/01 Q1031
12-03-26 METAR EDDT 262150Z 25002KT CAVOK 06/00 Q1031
12-03-26 METAR EDDT 262220Z 31001KT CAVOK 06/01 Q1031
12-03-26 METAR EDDT 262250Z 24003KT CAVOK 05/01 Q1031
12-03-26 METAR EDDT 262320Z 27005KT CAVOK 06/02 Q1031
12-03-26 METAR EDDT 262350Z 28005KT CAVOK 06/02 Q1030
12-03-27 METAR EDDT 262350Z 28005KT CAVOK 06/02 Q1030
12-03-27 METAR EDDT 270020Z 25004KT CAVOK 06/02 Q1030
12-03-27 METAR EDDT 270050Z 26005KT CAVOK 05/02 Q1030
12-03-27 METAR EDDT 270120Z 27004KT CAVOK 04/02 Q1030
12-03-27 METAR EDDT 270150Z 26007KT CAVOK 04/02 Q1029
12-03-27 METAR EDDT 270220Z 26008KT CAVOK 04/03 Q1029
12-03-27 METAR EDDT 270250Z 26006KT 4800 BR FEW007 BKN250 04/03 Q1029 BECMG 2000 BR BKN007
12-03-27 METAR EDDT 270320Z 26006KT 3600 BR SCT004 BKN250 05/03 Q1028 BECMG 2000 BR BKN004
12-03-27 METAR EDDT 270350Z 28009KT 2400 BR BKN004 05/04 Q1028 TEMPO 1400 BR
12-03-27 METAR EDDT 270420Z 30010KT 2200 BR BKN003 05/04 Q1028 TEMPO 1400 BR
12-03-27 METAR EDDT 270450Z 29009KT 2000 BR BKN003 06/04 Q1028 TEMPO 1400 BR
12-03-27 METAR EDDT 270520Z 29007KT 2000 BR BKN004 06/05 Q1028 TEMPO 1400 BR
12-03-27 METAR EDDT 270550Z 29008KT 2500 BR BKN005 06/05 Q1028 TEMPO 3000 BR
12-03-27 METAR EDDT 270620Z 29008KT 2500 BR BKN005 07/05 Q1028 TEMPO 3000 BR
12-03-27 METAR EDDT 270650Z 29009KT 3200 BR BKN005 07/05 Q1028 NOSIG
12-03-27 METAR EDDT 270720Z 30008KT 3200 BR BKN006 07/05 Q1029 NOSIG
12-03-27 METAR EDDT 270750Z 29007KT 3800 BR BKN008 07/05 Q1029 BECMG 6000 SCT010
12-03-27 METAR EDDT 270820Z 29006KT 4500 BR BKN009 08/06 Q1029 BECMG 6000 SCT010
12-03-27 METAR EDDT 270850Z 29009KT 4800 BR FEW012 BKN090 09/06 Q1029 BECMG 6000
12-03-27 METAR EDDT 270920Z 31007KT 5000 BR FEW023 BKN120 10/06 Q1029 NOSIG
12-03-27 METAR EDDT 270950Z 28008KT 6000 NSC 11/06 Q1029 NOSIG
12-03-27 METAR EDDT 271020Z 28008KT 9000 NSC 12/06 Q1028 NOSIG
12-03-27 METAR EDDT 271050Z 30009KT CAVOK 12/06 Q1029 NOSIG
12-03-27 METAR EDDT 271120Z 29009KT CAVOK 13/06 Q1029 NOSIG
12-03-27 METAR EDDT 271150Z 30008KT CAVOK 14/06 Q1028 NOSIG
12-03-27 METAR EDDT 271220Z 29008KT CAVOK 15/06 Q1028 NOSIG
12-03-27 METAR EDDT 271250Z 30009KT CAVOK 15/07 Q1028 NOSIG
12-03-27 METAR EDDT 271320Z 30008KT CAVOK 16/06 Q1028 NOSIG
12-03-27 METAR EDDT 271350Z 31009KT CAVOK 16/06 Q1028 NOSIG
12-03-27 METAR EDDT 271420Z 31008KT CAVOK 17/06 Q1028 NOSIG
12-03-27 METAR EDDT 271450Z 31008KT CAVOK 17/06 Q1028 NOSIG
12-03-27 METAR EDDT 271520Z 31008KT CAVOK 17/06 Q1028 NOSIG
12-03-27 METAR EDDT 271550Z 30007KT CAVOK 17/06 Q1028 NOSIG
12-03-27 METAR EDDT 271620Z 30006KT CAVOK 17/06 Q1028 NOSIG
12-03-27 METAR EDDT 271650Z 30006KT CAVOK 17/06 Q1028 NOSIG
12-03-27 METAR EDDT 271720Z 30005KT CAVOK 16/07 Q1028 NOSIG
12-03-27 METAR EDDT 271750Z 31004KT CAVOK 15/07 Q1028 NOSIG
12-03-27 METAR EDDT 271820Z 30004KT CAVOK 14/07 Q1028 NOSIG
12-03-27 METAR EDDT 271850Z 30004KT CAVOK 14/07 Q1028 NOSIG
12-03-27 METAR EDDT 271920Z 30005KT CAVOK 13/07 Q1028 NOSIG
12-03-27 METAR EDDT 271950Z 30004KT CAVOK 13/07 Q1028 NOSIG
12-03-27 METAR EDDT 272020Z 31004KT CAVOK 12/07 Q1028 NOSIG
12-03-27 METAR EDDT 272050Z 31003KT CAVOK 12/06 Q1028 NOSIG
12-03-27 METAR EDDT 272120Z 25003KT CAVOK 10/06 Q1028
12-03-27 METAR EDDT 272150Z 26003KT CAVOK 10/06 Q1028
12-03-27 METAR EDDT 272220Z 26002KT CAVOK 09/06 Q1028
12-03-27 METAR EDDT 272250Z 26001KT CAVOK 08/05 Q1028
12-03-27 METAR EDDT 272320Z 25001KT CAVOK 08/06 Q1028
12-03-27 METAR EDDT 272350Z 27001KT 9999 MIFG NSC 08/05 Q1028
12-03-28 METAR EDDT 272350Z 27001KT 9999 MIFG NSC 08/05 Q1028
12-03-28 METAR EDDT 280020Z 20002KT 9999 MIFG NSC 07/04 Q1028
12-03-28 METAR EDDT 280050Z 25002KT 9999 MIFG NSC 07/05 Q1027
12-03-28 METAR EDDT 280120Z 27003KT 9999 MIFG NSC 06/05 Q1027
12-03-28 METAR EDDT 280150Z 26006KT CAVOK 06/05 Q1027
12-03-28 METAR EDDT 280220Z 27004KT CAVOK 07/05 Q1027
12-03-28 METAR EDDT 280250Z 28006KT CAVOK 06/05 Q1027 NOSIG
12-03-28 METAR EDDT 280320Z 27005KT CAVOK 06/04 Q1027 NOSIG
12-03-28 METAR EDDT 280350Z 26007KT CAVOK 05/04 Q1026 BECMG 0800 FG OVC002
12-03-28 METAR EDDT 280420Z 25007KT CAVOK 06/04 Q1026 BECMG 0800 FG OVC002
12-03-28 METAR EDDT 280450Z 26008KT 7000 SCT006 SCT250 05/04 Q1026 BECMG 0800 FG OVC002
12-03-28 METAR EDDT 280520Z 27009KT 4800 BR BKN004 07/06 Q1026 BECMG 2000 BR
12-03-28 METAR EDDT 280550Z 28007KT 2800 BR OVC003 07/06 Q1026 NOSIG
12-03-28 METAR EDDT 280620Z 28008KT 1500 BR OVC003 07/06 Q1026 BECMG 3000 BR SCT005
12-03-28 METAR EDDT 280650Z 26011KT 1500 BR OVC003 07/06 Q1026 BECMG 3000 BR SCT005
12-03-28 METAR EDDT 280720Z 27011KT 2300 BR OVC003 07/06 Q1026 BECMG 3000 BR SCT005
12-03-28 METAR EDDT 280750Z 29009KT 5000 BR BKN006 07/06 Q1026 BECMG SCT008
12-03-28 METAR EDDT 280820Z 28010KT 8000 FEW009 09/06 Q1026 NOSIG
12-03-28 METAR EDDT 280850Z 30009KT 9000 NSC 10/05 Q1026 NOSIG
12-03-28 METAR EDDT 280920Z 30008KT CAVOK 12/06 Q1026 NOSIG
12-03-28 METAR EDDT 280950Z 28010KT CAVOK 13/05 Q1025 NOSIG
12-03-28 METAR EDDT 281020Z 27011KT CAVOK 14/05 Q1024 NOSIG
12-03-28 METAR EDDT 281050Z 26010KT CAVOK 16/06 Q1024 NOSIG
12-03-28 METAR EDDT 281120Z 28011KT CAVOK 16/05 Q1024 NOSIG
12-03-28 METAR EDDT 281150Z 28015KT CAVOK 17/05 Q1023 NOSIG
12-03-28 METAR EDDT 281220Z 29013G23KT CAVOK 18/04 Q1023 NOSIG
12-03-28 METAR EDDT 281250Z 29012KT CAVOK 18/02 Q1022 TEMPO 28015G25KT
12-03-28 METAR EDDT 281320Z 30012KT CAVOK 19/01 Q1022 TEMPO 28015G25KT
12-03-28 METAR EDDT 281350Z 29013KT CAVOK 19/00 Q1022 TEMPO 28015G25KT
12-03-28 METAR EDDT 281420Z 31012KT CAVOK 19/M01 Q1021 TEMPO 28015G25KT
12-03-28 METAR EDDT 281450Z 30013KT CAVOK 19/M00 Q1021 TEMPO 28015G25KT
12-03-28 METAR EDDT 281520Z 31012KT CAVOK 19/M01 Q1020 TEMPO 28015G25KT
12-03-28 METAR EDDT 281550Z 30012KT CAVOK 19/00 Q1020 TEMPO 30015G25KT
12-03-28 METAR EDDT 281620Z 29013KT CAVOK 18/01 Q1020 TEMPO 29015G25KT
12-03-28 METAR EDDT 281650Z 29013KT CAVOK 18/00 Q1019 TEMPO 29015G25KT
12-03-28 METAR EDDT 281720Z 28013KT CAVOK 17/M00 Q1019 TEMPO 29015G25KT
12-03-28 METAR EDDT 281750Z 30015G26KT CAVOK 16/M01 Q1019 TEMPO 29015G25KT
12-03-28 METAR EDDT 281820Z 30015KT CAVOK 15/M00 Q1018 TEMPO 29015G25KT
12-03-28 METAR EDDT 281850Z 29011KT CAVOK 15/01 Q1018 TEMPO 29015G25KT
12-03-28 METAR EDDT 281920Z 28014KT CAVOK 14/01 Q1018 TEMPO 29015G25KT
12-03-28 METAR EDDT 281950Z 29014KT CAVOK 14/01 Q1018 TEMPO 29015G25KT
12-03-28 METAR EDDT 282020Z 29015G27KT CAVOK 14/02 Q1017 NOSIG
12-03-28 METAR EDDT 282050Z 28013KT CAVOK 13/02 Q1016 TEMPO 29015G25KT
12-03-28 METAR EDDT 282120Z 29015KT CAVOK 13/03 Q1016
12-03-28 METAR EDDT 282150Z 29013KT CAVOK 12/03 Q1016
12-03-28 METAR EDDT 282220Z 30017KT CAVOK 11/04 Q1016
12-03-28 METAR EDDT 282250Z 30012KT 9999 BKN024 10/05 Q1017
12-03-28 METAR EDDT 282320Z 30014G25KT 9999 BKN024 BKN028 10/04 Q1017
12-03-28 METAR EDDT 282350Z 30015G25KT 9999 SCT023 BKN036 10/04 Q1017
12-03-29 METAR EDDT 282350Z 30015G25KT 9999 SCT023 BKN036 10/04 Q1017
12-03-29 METAR EDDT 290020Z 30014G24KT 9999 FEW023 BKN032 09/03 Q1016
12-03-29 METAR EDDT 290050Z 30014G24KT 9999 BKN035 09/03 Q1016
12-03-29 METAR EDDT 290120Z 29014KT 9999 BKN037 09/03 Q1016
12-03-29 METAR EDDT 290150Z 30013G25KT 9999 BKN028 09/03 Q1016
12-03-29 METAR EDDT 290220Z 31013G25KT 9999 SCT028 BKN040 09/02 Q1016
12-03-29 METAR EDDT 290250Z 30013KT 9999 SCT028 BKN040 08/02 Q1016 TEMPO 30015G25KT
12-03-29 METAR EDDT 290320Z 30013KT 9999 SCT028 BKN037 08/02 Q1016 TEMPO 30015G25KT
12-03-29 METAR EDDT 290350Z 29010KT 9999 SCT025 BKN034 08/02 Q1016 TEMPO 30015G25KT
12-03-29 METAR EDDT 290420Z 29012KT 9999 SCT024 BKN037 08/03 Q1015 TEMPO 30015G25KT
12-03-29 METAR EDDT 290450Z 30012KT 9999 FEW024 BKN037 08/03 Q1015 TEMPO 30015G25KT
12-03-29 METAR EDDT 290520Z 29013KT 9999 FEW024 BKN033 08/02 Q1015 TEMPO 30015G25KT
12-03-29 METAR EDDT 290550Z 29014KT 9999 SCT025 BKN032 08/02 Q1015 TEMPO 30015G25KT
12-03-29 METAR EDDT 290620Z 29013KT 9999 SCT027 BKN033 08/02 Q1015 TEMPO 30015G25KT
12-03-29 METAR EDDT 290650Z 29013KT 9999 SCT025 BKN032 08/02 Q1015 TEMPO 30015G25KT
12-03-29 METAR EDDT 290720Z 29013G23KT 9999 SCT025 BKN036 08/02 Q1014 NOSIG
12-03-29 METAR EDDT 290750Z 30013KT 9999 SCT025 BKN037 08/02 Q1014 TEMPO 30015G25KT
12-03-29 METAR EDDT 290820Z 30013KT 9999 SCT027 BKN040 08/02 Q1014 TEMPO 30015G25KT
12-03-29 METAR EDDT 290850Z 30014KT 9999 SCT027 BKN040 08/02 Q1013 TEMPO 30015G25KT
12-03-29 METAR EDDT 290920Z 30011G22KT 9999 -RA FEW014 SCT024 BKN037 08/03 Q1013 NOSIG
12-03-29 METAR EDDT 290950Z 29012KT 9999 -RA FEW017 SCT024 BKN037 08/03 Q1013 TEMPO 30015G25KT
12-03-29 METAR EDDT 291020Z 29013G24KT 9999 -RA FEW017 SCT024 BKN037 08/03 Q1012
12-03-29 METAR EDDT 291050Z 30014KT 9999 -RA FEW015 BKN024 BKN037 08/03 Q1012 TEMPO
12-03-29 METAR EDDT 291120Z 30011G21KT 9999 FEW017 BKN027 08/03 Q1012 NOSIG
12-03-29 METAR EDDT 291150Z 30013KT 9999 -SHRA SCT014 BKN024 08/04 Q1012 TEMPO
12-03-29 METAR EDDT 291220Z 30012KT 9999 -RA FEW015 BKN023 BKN035 09/04 Q1011 TEMPO
12-03-29 METAR EDDT 291250Z 29016KT 9999 -SHRA SCT016 BKN025 BKN036 08/05 Q1012 TEMPO 30015G25KT
12-03-29 METAR EDDT 291320Z 29014KT 9999 FEW013 BKN017 BKN020 08/05 Q1011 TEMPO
12-03-29 METAR EDDT 291350Z 28014KT 9999 -SHRA FEW013 BKN020 BKN036 08/05 Q1011
12-03-29 METAR EDDT 291420Z 29012KT 9999 -RA FEW017 BKN023 BKN038 09/05 Q1010 TEMPO
12-03-29 METAR EDDT 291450Z 29012G22KT 9999 -SHRA FEW012 BKN020 BKN030 08/04 Q1010
12-03-29 METAR EDDT 291520Z 29011KT 9999 FEW015 BKN025 BKN040 08/05 Q1010 TEMPO
12-03-29 METAR EDDT 291550Z 29011KT 9999 FEW014 SCT110 BKN250 08/05 Q1010 TEMPO
12-03-29 METAR EDDT 291620Z 28014KT 9999 FEW014 SCT056 BKN250 08/05 Q1009 TEMPO
12-03-29 METAR EDDT 291650Z 28011KT 9999 FEW014 BKN044 08/04 Q1009 TEMPO 30015G25KT
12-03-29 METAR EDDT 291720Z 28016KT 9999 SCT022 OVC042 08/04 Q1009 TEMPO 30015G25KT
12-03-29 METAR EDDT 291750Z 29013KT 9999 -RA SCT022 OVC040 08/04 Q1009 TEMPO
12-03-29 METAR EDDT 291820Z 29014KT 9999 -RA SCT022 OVC038 08/03 Q1009 TEMPO
12-03-29 METAR EDDT 291850Z 29013KT 9999 FEW020 BKN032 08/03 Q1009 TEMPO 30015G25KT
12-03-29 METAR EDDT 291920Z 30009KT 9999 BKN030 BKN060 08/03 Q1009 TEMPO 30015G25KT
12-03-29 METAR EDDT 291950Z 30010KT 9999 BKN032 BKN060 08/03 Q1009 TEMPO 30015G25KT
12-03-29 METAR EDDT 292020Z 30012KT 9999 BKN033 BKN060 08/02 Q1009 TEMPO 30015G25KT
12-03-29 METAR EDDT 292050Z 30011KT 9999 BKN033 07/02 Q1009 NOSIG
12-03-29 METAR EDDT 292120Z 30010KT 9999 BKN035 07/02 Q1009
12-03-29 METAR EDDT 292150Z 30009KT 9999 BKN030 07/02 Q1010
12-03-29 METAR EDDT 292220Z 29012KT 9999 BKN030 07/02 Q1010
12-03-29 METAR EDDT 292250Z 31012KT 9999 SCT025 BKN040 07/02 Q1010
12-03-29 METAR EDDT 292320Z 30011KT 9999 SCT030 07/02 Q1010
12-03-29 METAR EDDT 292350Z 30009KT CAVOK 07/02 Q1010
12-03-30 METAR EDDT 292350Z 30009KT CAVOK 07/02 Q1010
12-03-30 METAR EDDT 300020Z 30010KT 9999 BKN046 07/02 Q1010
12-03-30 METAR EDDT 300050Z 30012KT 9999 BKN020 06/02 Q1010
12-03-30 METAR EDDT 300120Z 31010KT 9999 BKN019 06/02 Q1010
12-03-30 METAR EDDT 300150Z 31008KT 9999 BKN019 06/02 Q1009
12-03-30 METAR EDDT 300220Z 31009KT 9999 BKN019 07/02 Q1009
12-03-30 METAR EDDT 300250Z 31009KT 9999 BKN021 07/02 Q1009 NOSIG
12-03-30 METAR EDDT 300320Z 31009KT 9999 BKN021 07/02 Q1009 NOSIG
12-03-30 METAR EDDT 300350Z 29009KT 9999 OVC023 07/02 Q1009 NOSIG
12-03-30 METAR EDDT 300420Z 30010KT 9999 BKN023 07/02 Q1009 NOSIG
12-03-30 METAR EDDT 300450Z 29009KT 9999 BKN025 07/03 Q1009 NOSIG
12-03-30 METAR EDDT 300520Z 29009KT 9999 FEW020 BKN025 07/03 Q1009 NOSIG
12-03-30 METAR EDDT 300550Z 30009KT 9999 SCT020 BKN025 07/03 Q1009 NOSIG
12-03-30 METAR EDDT 300620Z 29010KT 9999 SCT020 BKN025 07/03 Q1009 NOSIG
12-03-30 METAR EDDT 300650Z 29012KT 9999 FEW020 BKN024 07/02 Q1009 NOSIG
12-03-30 METAR EDDT 300720Z 29010KT 9999 SCT022 BKN028 07/02 Q1009 TEMPO 30015G25KT
12-03-30 METAR EDDT 300750Z 29010KT 9999 SCT022 BKN026 08/03 Q1009 TEMPO 30015G25KT
12-03-30 METAR EDDT 300820Z 29010KT 9999 -RA SCT022 BKN027 08/03 Q1009 TEMPO 30015G25KT
12-03-30 METAR EDDT 300850Z 30005KT 9999 -RA FEW018 BKN025 BKN035 08/03 Q1009 TEMPO
12-03-30 METAR EDDT 300920Z 29006KT 9999 FEW018 BKN025 08/03 Q1009 TEMPO 30015G25KT
12-03-30 METAR EDDT 300950Z 29008KT 9999 -RA FEW018 BKN025 09/04 Q1008 TEMPO
12-03-30 METAR EDDT 301020Z 27015KT 6000 -RA FEW012 BKN018 BKN025 08/06 Q1008 TEMPO
12-03-30 METAR EDDT 301050Z 32007KT 9999 FEW009 SCT025 BKN040 07/06 Q1008 RERA TEMPO
12-03-30 METAR EDDT 301120Z 31009KT 9999 -SHRA SCT012 BKN025 BKN050 08/05 Q1008 TEMPO 30015G25KT
12-03-30 METAR EDDT 301150Z 29008KT 9999 SCT012 SCT030 BKN050 08/06 Q1008 TEMPO
12-03-30 METAR EDDT 301220Z 30012G22KT 9999 SCT015 SCT030 BKN040 09/05 Q1007 TEMPO
12-03-30 METAR EDDT 301250Z 29013KT 9999 SCT018 BKN045 09/04 Q1007 TEMPO 30015G25KT
12-03-30 METAR EDDT 301320Z 29014G25KT 9999 SCT022 BKN042 09/03 Q1007 NOSIG
12-03-30 METAR EDDT 301350Z 30016G27KT 9999 SCT025 BKN040 09/02 Q1007 NOSIG
12-03-30 METAR EDDT 301420Z 29015KT 9999 SCT030 BKN045 09/02 Q1007 TEMPO 30015G25KT
12-03-30 METAR EDDT 301450Z 29016G26KT 9999 SCT030 BKN040 10/02 Q1007 NOSIG
12-03-30 METAR EDDT 301520Z 29014KT 9999 SCT033 10/02 Q1007 TEMPO 30015G25KT
12-03-30 METAR EDDT 301550Z 30014KT 9999 FEW035 10/02 Q1007 TEMPO 30015G25KT
12-03-30 METAR EDDT 301620Z 30012KT 9999 FEW035 10/02 Q1007 TEMPO 30015G25KT
12-03-30 METAR EDDT 301650Z 29014KT 9999 BKN040 09/02 Q1007 TEMPO 30015G25KT
12-03-30 METAR EDDT 301720Z 28013KT 9999 BKN040 09/02 Q1007 TEMPO 30015G25KT
12-03-30 METAR EDDT 301750Z 28013KT 9999 BKN048 09/02 Q1007 TEMPO 30015G25KT
12-03-30 METAR EDDT 301820Z 28013KT 9999 BKN046 09/02 Q1007 TEMPO 30015G25KT
12-03-30 METAR EDDT 301850Z 28013KT 9999 BKN040 08/02 Q1007 TEMPO 30015G25KT
12-03-30 METAR EDDT 301920Z 29013KT 9999 BKN040 08/02 Q1007 TEMPO 30015G25KT
12-03-30 METAR EDDT 301950Z 29013KT 9999 BKN037 08/03 Q1006 TEMPO 30015G25KT
12-03-30 METAR EDDT 302020Z 28012KT 9999 BKN025 08/03 Q1006 TEMPO 30015G25KT
12-03-30 METAR EDDT 302050Z 29012G23KT 9999 BKN020 09/04 Q1006 NOSIG
12-03-30 METAR EDDT 302120Z 29016KT 9999 BKN018 09/05 Q1006
12-03-30 METAR EDDT 302150Z 30013G27KT 9999 -RA BKN016 08/05 Q1005
12-03-30 METAR EDDT 302220Z 29015G25KT 9999 BKN014 08/05 Q1005
12-03-30 METAR EDDT 302250Z 30016G28KT 9999 BKN013 08/05 Q1005
12-03-30 METAR EDDT 302320Z 29017G27KT 9999 -RA BKN013 08/05 Q1004
12-03-30 METAR EDDT 302350Z 28017G31KT 9999 -RA BKN013 08/04 Q1004
12-03-31 METAR EDDT 302350Z 28017G31KT 9999 -RA BKN013 08/04 Q1004
12-03-31 METAR EDDT 310020Z 29020G35KT 9999 BKN015 07/04 Q1003
12-03-31 METAR EDDT 310050Z 29016G26KT 9999 BKN019 08/03 Q1003
12-03-31 METAR EDDT 310120Z 28018G30KT 9999 -RA BKN019 07/03 Q1003
12-03-31 METAR EDDT 310150Z 28019KT 9999 -RA BKN019 07/03 Q1002
12-03-31 METAR EDDT 310220Z 28018G29KT 9999 -RA BKN019 07/03 Q1002
12-03-31 METAR EDDT 310250Z 28019G35KT 9999 -RA FEW006 BKN018 07/04 Q1001 TEMPO BKN014
12-03-31 METAR EDDT 310320Z 28015KT 9999 -RA BKN020 06/04 Q1001 TEMPO 30020G30KT
12-03-31 METAR EDDT 310350Z 28016G28KT 9999 BKN020 07/03 Q1000 TEMPO BKN014
12-03-31 METAR EDDT 310420Z 28017G28KT 9999 -RA BKN018 07/03 Q1000 TEMPO BKN014
12-03-31 METAR EDDT 310450Z 28016G27KT 9999 -RA BKN016 06/04 Q1000 TEMPO BKN014
12-03-31 METAR EDDT 310520Z 28016KT 9999 -RA FEW008 BKN013 06/04 Q1000 TEMPO 30020G30KT BKN009
12-03-31 METAR EDDT 310550Z 29017G27KT 9999 -RADZ BKN011 BKN030 06/04 Q1000 TEMPO
12-03-31 METAR EDDT 310620Z 29013G24KT 9999 -RA BKN013 BKN019 06/04 Q0999 TEMPO
12-03-31 METAR EDDT 310650Z 31020G32KT 9999 -RA FEW005 BKN017 BKN022 06/03 Q1000 RERA NOSIG
12-03-31 METAR EDDT 310720Z 31017G27KT 9999 -RADZ FEW006 BKN016 BKN030 05/03 Q1000
12-03-31 METAR EDDT 310750Z 30017G29KT 9999 -RA FEW006 BKN023 BKN033 05/02 Q1000
12-03-31 METAR EDDT 310820Z 30010KT 9999 FEW006 SCT020 BKN046 05/02 Q1000 TEMPO 30020G35KT
12-03-31 METAR EDDT 310850Z 31013G24KT 9999 -SHRA FEW013 BKN024 BKN043 06/01 Q1000
12-03-31 METAR EDDT 310920Z 30016KT 9999 FEW023 SCT035 06/M00 Q1000 TEMPO
12-03-31 METAR EDDT 310950Z 30017G27KT 9999 SCT025 BKN040 07/M02 Q1001 NOSIG
12-03-31 METAR EDDT 311020Z 31017G31KT 9999 -SHRA SCT023 BKN030 05/M02 Q1002 NOSIG
12-03-31 METAR EDDT 311050Z 31013G25KT 9999 -RA FEW013 BKN020 BKN033 06/M01 Q1002
12-03-31 METAR EDDT 311120Z 29017KT 9999 FEW025 SCT030 BKN070 06/M01 Q1002 NOSIG
12-03-31 METAR EDDT 311150Z 31018G33KT 9999 -SHGSRA FEW020 BKN029CB 05/M00 Q1003 TEMPO 30020G40KT TSGSRA
12-03-31 METAR EDDT 311220Z 32008KT 9999 -SHRA FEW010 SCT013 BKN120 04/02 Q1003 TEMPO 33015G30KT
12-03-31 METAR EDDT 311250Z 31011KT 9999 FEW013 SCT025 SCT120 05/01 Q1004 TEMPO
12-03-31 METAR EDDT 311320Z 32010KT 9999 SCT028CB SCT130 06/01 Q1004 TEMPO 33020G40KT SHRAGS BKN020CB
12-03-31 METAR EDDT 311350Z 33010KT 9999 FEW020CB 02/01 Q1004 REGS NOSIG
12-03-31 METAR EDDT 311420Z 33009KT 9999 -SHRA SCT020CB 04/01 Q1005 NOSIG
12-03-31 METAR EDDT 311450Z 34013G24KT 9999 -SHSNRA SCT010 BKN023CB 04/M03 Q1005
12-03-31 METAR EDDT 311520Z 32012KT 9999 -SHSNRA FEW010 SCT017CB 05/M03 Q1006 NOSIG
12-03-31 METAR EDDT 311550Z 34011G24KT 9999 FEW030CB SCT040 06/M04 Q1006 NOSIG
12-03-31 METAR EDDT 311620Z 35012G23KT 9999 FEW030CB 05/M04 Q1007 NOSIG
12-03-31 METAR EDDT 311650Z 32013G28KT 9999 SCT030CB SCT070 05/M04 Q1007 NOSIG
12-03-31 METAR EDDT 311720Z 32010KT 9999 FEW030CB BKN060 04/M03 Q1008 NOSIG
12-03-31 METAR EDDT 311750Z 33010KT 9999 FEW030CB BKN050 04/M02 Q1009 NOSIG
12-03-31 METAR EDDT 311820Z 33008KT 9999 FEW025 BKN050 04/M03 Q1009 NOSIG
12-03-31 METAR EDDT 311850Z 34008KT 9999 FEW044 BKN050 04/M04 Q1010 NOSIG
12-03-31 METAR EDDT 311920Z 33009KT CAVOK 04/M04 Q1010 NOSIG
12-03-31 METAR EDDT 311950Z 32008KT CAVOK 04/M03 Q1011 NOSIG
12-03-31 METAR EDDT 312020Z 32008KT CAVOK 04/M03 Q1011 NOSIG
12-03-31 METAR EDDT 312050Z 31007KT CAVOK 04/M03 Q1011 NOSIG
12-03-31 METAR EDDT 312120Z 31007KT CAVOK 04/M03 Q1012
12-03-31 METAR EDDT 312150Z 30006KT CAVOK 04/M03 Q1012
12-03-31 METAR EDDT 312220Z 29007KT 9999 FEW042 BKN060 04/M03 Q1012
12-03-31 METAR EDDT 312250Z 30007KT 9999 SCT042 SCT060 03/M03 Q1012
12-03-31 METAR EDDT 312320Z 30007KT 9999 BKN044 03/M02 Q1013
12-03-31 METAR EDDT 312350Z 29007KT 9999 SCT040 03/M02 Q1013
12-04-01 METAR EDDT 312350Z 29007KT 9999 SCT040 03/M02 Q1013
12-04-01 METAR EDDT 010020Z 30006KT 9999 FEW040 02/M03 Q1013
12-04-01 METAR EDDT 010050Z 29006KT CAVOK 02/M03 Q1013
12-04-01 METAR EDDT 010120Z 29007KT CAVOK 01/M03 Q1014
12-04-01 METAR EDDT 010150Z 29006KT CAVOK 01/M03 Q1013
12-04-01 METAR EDDT 010220Z 29008KT CAVOK 01/M03 Q1014
12-04-01 METAR EDDT 010250Z 29007KT CAVOK 01/M03 Q1014 NOSIG
12-04-01 METAR EDDT 010320Z 28007KT CAVOK 00/M03 Q1014 NOSIG
12-04-01 METAR EDDT 010350Z 29006KT CAVOK 00/M03 Q1014 NOSIG
12-04-01 METAR EDDT 010420Z 29005KT CAVOK M00/M03 Q1014 NOSIG
12-04-01 METAR EDDT 010450Z 27004KT CAVOK M01/M04 Q1014 NOSIG
12-04-01 METAR EDDT 010520Z 27007KT CAVOK M01/M03 Q1015 NOSIG
12-04-01 METAR EDDT 010550Z 28008KT CAVOK 00/M03 Q1015 NOSIG
12-04-01 METAR EDDT 010620Z 28007KT CAVOK 01/M03 Q1015 NOSIG
12-04-01 METAR EDDT 010650Z 28008KT CAVOK 01/M03 Q1015 NOSIG
12-04-01 METAR EDDT 010720Z 28008KT CAVOK 03/M02 Q1015 NOSIG
12-04-01 METAR EDDT 010750Z 28008KT CAVOK 04/M01 Q1014 NOSIG
12-04-01 METAR EDDT 010820Z 26011KT CAVOK 04/M01 Q1014 NOSIG
12-04-01 METAR EDDT 010850Z 27011KT 9999 FEW021 05/M01 Q1014 NOSIG
12-04-01 METAR EDDT 010920Z 28010KT 9999 SCT024 06/00 Q1014 NOSIG
12-04-01 METAR EDDT 010950Z 28013KT 9999 FEW026 07/M02 Q1013 NOSIG
12-04-01 METAR EDDT 011020Z 26012KT 240V300 9999 FEW031 08/M01 Q1013 NOSIG
12-04-01 METAR EDDT 011050Z 28011KT 9999 FEW036 08/M03 Q1012 NOSIG
12-04-01 METAR EDDT 011120Z 27014KT 9999 SCT038 08/M03 Q1012 NOSIG
12-04-01 METAR EDDT 011150Z 26015KT 9999 SCT040 SCT250 08/M04 Q1012 TEMPO 27015G25KT
12-04-01 METAR EDDT 011220Z 27015KT 9999 BKN040 SCT250 09/M05 Q1011 TEMPO 28015G25KT
12-04-01 METAR EDDT 011250Z 25017KT 9999 BKN042 BKN250 09/M03 Q1011 TEMPO
12-04-01 METAR EDDT 011320Z 26021KT CAVOK 09/M04 Q1010 TEMPO 28015G25KT
12-04-01 METAR EDDT 011420Z 27015KT 9999 FEW035CB BKN050 BKN250 09/M04 Q1009 TEMPO 28015G25KT SHRA BKN020CB
12-04-01 METAR EDDT 011450Z 28015G25KT 9999 VCSH FEW030CB BKN050 09/M04 Q1009 TEMPO
12-04-01 METAR EDDT 011520Z 28017KT CAVOK 08/M04 Q1009 TEMPO 28015G25KT
12-04-01 METAR EDDT 011550Z 27017G27KT 9999 SCT045 BKN050 08/M03 Q1008 NOSIG
12-04-01 METAR EDDT 011620Z 27018G29KT 9999 -SHRA SCT041 BKN050 07/M02 Q1008 NOSIG
12-04-01 METAR EDDT 011650Z 26017KT 9999 FEW038 BKN040 07/M02 Q1008 TEMPO
12-04-01 METAR EDDT 011720Z 27015KT 9999 -RA BKN033 07/M01 Q1008 TEMPO 28015G25KT
12-04-01 METAR EDDT 011750Z 27016G26KT 9999 FEW030 SCT090 BKN200 06/M01 Q1007 TEMPO
12-04-01 METAR EDDT 011820Z 27018KT 9999 -RA BKN031 06/M00 Q1007 TEMPO 28015G25KT
12-04-01 METAR EDDT 011850Z 27018KT 9999 -RA BKN026 06/00 Q1007 TEMPO 28015G25KT
12-04-01 METAR EDDT 011920Z 27020KT 9999 -RA BKN026 06/01 Q1006 NOSIG
12-04-01 METAR EDDT 011950Z 26020KT 9999 -RA BKN026 06/00 Q1006 TEMPO 26015G25KT
12-04-01 METAR EDDT 012020Z 27019KT 9999 -RA BKN026 06/01 Q1006 TEMPO 27015G25KT
12-04-01 METAR EDDT 012050Z 26021KT 9999 -RA BKN026 07/01 Q1005 NOSIG
12-04-01 METAR EDDT 012120Z 27021KT 9999 -RADZ FEW009 BKN020 06/02 Q1005
12-04-01 METAR EDDT 012150Z 27018KT 9999 -RADZ BKN019 05/02 Q1005
12-04-01 METAR EDDT 012220Z 27017KT 9999 -RADZ BKN017 05/03 Q1005
12-04-01 METAR EDDT 012250Z 27018KT 9999 -RADZ BKN018 06/03 Q1004
12-04-01 METAR EDDT 012320Z 27020KT 9999 -RADZ BKN015 06/03 Q1004
12-04-01 METAR EDDT 012350Z 27020KT 9999 -RA BKN013 BKN017 06/03 Q1004
12-04-02 METAR EDDT 012350Z 27020KT 9999 -RA BKN013 BKN017 06/03 Q1004
12-04-02 METAR EDDT 020020Z 27019G29KT 9999 -RADZ BKN013 BKN017 05/03 Q1004
12-04-02 METAR EDDT 020050Z 27016KT 9999 -RA BKN011 BKN014 05/04 Q1004
12-04-02 METAR EDDT 020120Z 27018KT 9999 -RA SCT010 BKN016 06/04 Q1004
12-04-02 METAR EDDT 020150Z 27016KT 9999 -RADZ SCT009 BKN014 06/04 Q1004
12-04-02 METAR EDDT 020220Z 28016KT 9999 -RADZ SCT007 BKN013 06/04 Q1004
12-04-02 METAR EDDT 020250Z 29013KT 9999 -RADZ SCT007 BKN029 BKN130 05/04 Q1004 TEMPO 30015G25KT
12-04-02 METAR EDDT 020320Z 31012KT 9999 -RA FEW005 BKN011 BKN024 05/03 Q1004 RERA BECMG 31015G25KT BKN015
12-04-02 METAR EDDT 020350Z 31013G23KT 9999 FEW013 BKN022 05/02 Q1004 TEMPO 31015G25KT
12-04-02 METAR EDDT 020420Z 31012KT 9999 -RA BKN016 BKN026 05/01 Q1005 TEMPO
12-04-02 METAR EDDT 020450Z 29009KT 9999 FEW016 BKN028 04/00 Q1005 TEMPO 31015G25KT
12-04-02 METAR EDDT 020520Z 29011KT 9999 FEW016 SCT038 04/00 Q1006 TEMPO 31015G25KT
12-04-02 METAR EDDT 020550Z 29009KT 9999 FEW016 SCT038 04/00 Q1006 TEMPO 31015G25KT
12-04-02 METAR EDDT 020620Z 30008KT 9999 FEW016 SCT038 04/M00 Q1007 TEMPO
12-04-02 METAR EDDT 020650Z 31010KT 9999 FEW020 BKN038 04/M01 Q1007 TEMPO
12-04-02 METAR EDDT 020720Z 30015KT 9999 FEW025 BKN038 04/M03 Q1007 TEMPO
12-04-02 METAR EDDT 020750Z 31014KT 9999 SCT030 SCT038 05/M03 Q1007 TEMPO
12-04-02 METAR EDDT 020820Z 30015KT 9999 SCT030 SCT038 05/M03 Q1007 TEMPO
12-04-02 METAR EDDT 020850Z 29015G27KT 9999 SCT036 05/M04 Q1008 NOSIG
12-04-02 METAR EDDT 020920Z 29015KT 9999 BKN039 06/M04 Q1008 TEMPO 31015G30KT
12-04-02 METAR EDDT 020950Z 29014G25KT 9999 BKN039 06/M04 Q1008 NOSIG
12-04-02 METAR EDDT 021050Z 30015KT 9999 BKN040 06/M04 Q1008 TEMPO 31015G30KT
12-04-02 METAR EDDT 021120Z 31013G24KT 9999 BKN040 06/M03 Q1008 NOSIG
12-04-02 METAR EDDT 021150Z 28014KT 9999 BKN040 07/M04 Q1008 TEMPO 30015G25KT
12-04-02 METAR EDDT 021220Z 28017KT 9999 BKN040 06/M03 Q1008 TEMPO 30015G25KT
12-04-02 METAR EDDT 021250Z 29014KT 9999 BKN040 07/M03 Q1008 TEMPO 30015G25KT
12-04-02 METAR EDDT 021320Z 30013KT 9999 BKN040 07/M03 Q1008 TEMPO 30015G25KT
12-04-02 METAR EDDT 021350Z 29011KT 9999 BKN040 07/M02 Q1008 TEMPO 30015G25KT
12-04-02 METAR EDDT 021420Z 29010KT 9999 SCT040 BKN050 08/M01 Q1008 TEMPO
12-04-02 METAR EDDT 021450Z 28011KT 9999 SCT040 BKN050 07/M02 Q1008 NOSIG
12-04-02 METAR EDDT 021520Z 30011KT 9999 SCT040 BKN050 07/M02 Q1008 NOSIG
12-04-02 METAR EDDT 021550Z 30011KT 9999 SCT040 BKN048 07/M02 Q1008 NOSIG
12-04-02 METAR EDDT 021620Z 29009KT 9999 SCT040 BKN048 07/M02 Q1008 NOSIG
12-04-02 METAR EDDT 021650Z 28007KT 9999 BKN040 07/M02 Q1008 NOSIG
12-04-02 METAR EDDT 021720Z 29005KT 9999 BKN040 07/M01 Q1008 NOSIG
12-04-02 METAR EDDT 021750Z 29004KT 9999 BKN040 06/M01 Q1007 NOSIG
12-04-02 METAR EDDT 021820Z 27004KT 9999 BKN036 06/M01 Q1008 NOSIG
12-04-02 METAR EDDT 021850Z 29003KT 9999 SCT035 BKN045 06/M01 Q1008 NOSIG
12-04-02 METAR EDDT 021920Z 29002KT 9999 FEW035 BKN045 05/M01 Q1008 NOSIG
12-04-02 METAR EDDT 021950Z 26005KT 9999 BKN042 05/M00 Q1008 NOSIG
12-04-02 METAR EDDT 022020Z 27004KT 9999 BKN042 05/00 Q1008 NOSIG
12-04-02 METAR EDDT 022050Z 27004KT 9999 BKN042 05/00 Q1008
12-04-02 METAR EDDT 022120Z 27003KT 9999 BKN042 05/00 Q1008
12-04-02 METAR EDDT 022150Z 30002KT 9999 BKN042 05/M00 Q1008
12-04-02 METAR EDDT 022220Z 31002KT 9999 BKN042 05/00 Q1008
12-04-02 METAR EDDT 022250Z VRB01KT 9999 BKN042 05/00 Q1008
12-04-02 METAR EDDT 022320Z 16001KT 9999 BKN042 BKN090 05/00 Q1007
12-04-02 METAR EDDT 022350Z 13001KT CAVOK 05/00 Q1007
12-04-03 METAR EDDT 022350Z 13001KT CAVOK 05/00 Q1007
12-04-03 METAR EDDT 030020Z VRB01KT 9999 SCT044 BKN090 05/00 Q1007
12-04-03 METAR EDDT 030050Z VRB01KT 9999 BKN040 05/01 Q1007
12-04-03 METAR EDDT 030120Z 09002KT 9999 BKN040 04/01 Q1007
12-04-03 METAR EDDT 030150Z 06004KT 9999 BKN040 05/M00 Q1007
12-04-03 METAR EDDT 030220Z 05004KT 9999 SCT033 BKN040 05/M00 Q1007
12-04-03 METAR EDDT 030250Z 05004KT 9999 FEW032 BKN040 05/M00 Q1007 NOSIG
12-04-03 METAR EDDT 030320Z 06005KT 9999 -RA BKN036 04/M00 Q1007 NOSIG
12-04-03 METAR EDDT 030350Z 06006KT 9999 SCT035 BKN042 04/M00 Q1006 NOSIG
12-04-03 METAR EDDT 030420Z 07008KT 9999 BKN042 04/00 Q1006 NOSIG
12-04-03 METAR EDDT 030450Z 06006KT 9999 BKN046 04/00 Q1006 NOSIG
12-04-03 METAR EDDT 030520Z 07008KT 9999 BKN046 BKN080 04/00 Q1006 NOSIG
12-04-03 METAR EDDT 030550Z 07007KT 9999 FEW030 BKN050 04/00 Q1006 NOSIG
12-04-03 METAR EDDT 030620Z 06007KT 9999 FEW033 SCT040 BKN070 05/00 Q1007 NOSIG
12-04-03 METAR EDDT 030650Z 07008KT 9999 FEW025 BKN070 05/00 Q1007 NOSIG
12-04-03 METAR EDDT 030720Z 06007KT 9999 FEW028 SCT044 BKN070 05/01 Q1007 NOSIG
12-04-03 METAR EDDT 030750Z 06007KT 9999 FEW035 BKN042 06/01 Q1007 NOSIG
12-04-03 METAR EDDT 030820Z 07005KT 9999 SCT042 BKN110 07/01 Q1007 NOSIG
12-04-03 METAR EDDT 030850Z 07006KT 9999 BKN040 07/01 Q1007 NOSIG
12-04-03 METAR EDDT 030920Z 09006KT 9999 FEW030 SCT040 BKN110 08/01 Q1006 NOSIG
12-04-03 METAR EDDT 030950Z 08005KT CAVOK 09/01 Q1006 NOSIG
12-04-03 METAR EDDT 031020Z 10005KT CAVOK 10/02 Q1006 NOSIG
12-04-03 METAR EDDT 031050Z 11004KT CAVOK 11/02 Q1006 NOSIG
12-04-03 METAR EDDT 031120Z 11004KT 9999 FEW035 BKN110 BKN250 11/02 Q1006 NOSIG
12-04-03 METAR EDDT 031150Z 07004KT 030V100 9999 FEW040 SCT080 BKN250 11/02 Q1006 NOSIG
12-04-03 METAR EDDT 031220Z 11004KT 070V130 9999 FEW040 SCT090 BKN250 12/02 Q1006
12-04-03 METAR EDDT 031250Z VRB03KT 9999 FEW040 BKN060 BKN090 12/02 Q1006 NOSIG
12-04-03 METAR EDDT 031320Z 13004KT 100V230 9999 FEW040 BKN050 BKN090 12/02 Q1005
12-04-03 METAR EDDT 031350Z 09006KT 060V120 9999 -RA FEW040 BKN060 12/02 Q1005
12-04-03 METAR EDDT 031420Z 09006KT 9999 -RA FEW040 SCT060 BKN090 12/02 Q1005 NOSIG
12-04-03 METAR EDDT 031450Z 07007KT 9999 FEW040 BKN100 12/02 Q1004 NOSIG
12-04-03 METAR EDDT 031520Z 06008KT 9999 FEW040 BKN100 12/03 Q1004 NOSIG
12-04-03 METAR EDDT 031550Z 06008KT CAVOK 12/03 Q1004 NOSIG
12-04-03 METAR EDDT 031620Z 05009KT CAVOK 11/04 Q1004 NOSIG
12-04-03 METAR EDDT 031650Z 04008KT 9999 -RA NSC 10/04 Q1004 NOSIG
12-04-03 METAR EDDT 031720Z 04007KT CAVOK 10/04 Q1004 NOSIG
12-04-03 METAR EDDT 031750Z 05007KT CAVOK 09/04 Q1005 NOSIG
12-04-03 METAR EDDT 031820Z 05008KT CAVOK 08/04 Q1005 NOSIG
12-04-03 METAR EDDT 031850Z 05010KT CAVOK 08/04 Q1005 NOSIG
12-04-03 METAR EDDT 031920Z 05009KT CAVOK 07/04 Q1005 NOSIG
12-04-03 METAR EDDT 031950Z 05008KT CAVOK 07/04 Q1005 NOSIG
12-04-03 METAR EDDT 032020Z 05007KT 9999 -RA NSC 07/04 Q1005 NOSIG
12-04-03 METAR EDDT 032050Z 05008KT 9999 -RA NSC 07/04 Q1005 NOSIG
12-04-03 METAR EDDT 032120Z 05008KT CAVOK 06/04 Q1005
12-04-03 METAR EDDT 032150Z 05009KT CAVOK 06/04 Q1004
12-04-03 METAR EDDT 032220Z 05004KT 9999 -RA SCT030 BKN050 06/04 Q1005
12-04-03 METAR EDDT 032250Z 05009KT 9999 -RA SCT030 BKN050 06/04 Q1004
12-04-03 METAR EDDT 032320Z 05008KT 9999 -RA NSC 06/05 Q1004
12-04-03 METAR EDDT 032350Z 05006KT CAVOK 06/05 Q1004
12-04-04 METAR EDDT 032350Z 05006KT CAVOK 06/05 Q1004
12-04-04 METAR EDDT 040020Z 04005KT CAVOK 06/04 Q1004
12-04-04 METAR EDDT 040050Z 05008KT CAVOK 06/04 Q1003
12-04-04 METAR EDDT 040120Z 05008KT CAVOK 06/04 Q1003
12-04-04 METAR EDDT 040150Z 05007KT CAVOK 06/04 Q1003
12-04-04 METAR EDDT 040220Z 05007KT CAVOK 06/04 Q1003
12-04-04 METAR EDDT 040250Z 02005KT CAVOK 06/04 Q1003 NOSIG
12-04-04 METAR EDDT 040320Z 04006KT 9999 FEW007 OVC130 06/04 Q1003 TEMPO 4500 BR BKN007
12-04-04 METAR EDDT 040350Z 04007KT 9000 SCT007 OVC120 05/04 Q1003 TEMPO 4500 BR
12-04-04 METAR EDDT 040420Z 05010KT 6000 BKN006 05/04 Q1002 BECMG 4000 RA
12-04-04 METAR EDDT 040450Z 12005KT 070V130 4300 BR BKN006 06/04 Q1003 TEMPO RA
12-04-04 METAR EDDT 040520Z 06006KT 4500 -RA BR BKN006 06/04 Q1004 TEMPO RA
12-04-04 METAR EDDT 040550Z 02007KT 4000 RA BR SCT002 BKN007 06/04 Q1004 TEMPO 2000
12-04-04 METAR EDDT 040620Z 02008KT 3800 RA BR SCT007 BKN021 OVC130 05/04 Q1003 TEMPO 2000
12-04-04 METAR EDDT 040650Z 03006KT 2900 RA BR BKN005 BKN010 OVC130 05/04 Q1004 NOSIG
12-04-04 METAR EDDT 040720Z 02006KT 3000 RA BR SCT004 BKN007 05/04 Q1004 TEMPO 5000 NSW
12-04-04 METAR EDDT 040750Z 02008KT 3500 RA BR BKN005 05/04 Q1005 TEMPO 5000 NSW
12-04-04 METAR EDDT 040820Z 03010KT 4500 RA BR BKN005 05/04 Q1005 TEMPO 5000 NSW
12-04-04 METAR EDDT 040850Z 02007KT 4800 -RA BR BKN005 05/04 Q1005 RERA BECMG 5000
12-04-04 METAR EDDT 040920Z 02008KT 5000 -RA BR BKN005 BKN007 05/04 Q1006 NOSIG
12-04-04 METAR EDDT 040950Z 01007KT 6000 -RADZ BKN005 05/04 Q1007 NOSIG
12-04-04 METAR EDDT 041020Z 02007KT 7000 -RADZ BKN005 05/03 Q1007 NOSIG
12-04-04 METAR EDDT 041050Z 02006KT 8000 BKN006 05/03 Q1008 NOSIG
12-04-04 METAR EDDT 041120Z 35003KT 9000 BKN006 05/03 Q1008 NOSIG
12-04-04 METAR EDDT 041150Z 35003KT 9000 SCT005 BKN007 05/03 Q1009 TEMPO BKN010
12-04-04 METAR EDDT 041220Z 36005KT 9999 BKN006 BKN008 05/03 Q1009 TEMPO BKN010
12-04-04 METAR EDDT 041250Z 36005KT 9999 BKN008 05/03 Q1010 TEMPO BKN010
12-04-04 METAR EDDT 041320Z 33003KT 9999 BKN008 05/03 Q1010 TEMPO BKN010
12-04-04 METAR EDDT 041350Z 35003KT 9999 BKN007 05/03 Q1010 TEMPO BKN010
12-04-04 METAR EDDT 041420Z 36004KT 9000 BKN007 BKN009 05/03 Q1011 TEMPO BKN010
12-04-04 METAR EDDT 041450Z 02005KT 8000 BKN008 05/03 Q1011 TEMPO BKN010
12-04-04 METAR EDDT 041550Z 02005KT 6000 -RADZ BKN006 04/03 Q1012 NOSIG
12-04-04 METAR EDDT 041620Z 03007KT 6000 -RADZ OVC005 04/03 Q1012 NOSIG
12-04-04 METAR EDDT 042020Z 05008KT 7000 BKN008 04/02 Q1015 NOSIG
12-04-04 METAR EDDT 042050Z 05006KT 7000 BKN008 04/02 Q1015 NOSIG
12-04-04 METAR EDDT 042150Z 03005KT 6000 BKN008 04/02 Q1016
12-04-04 METAR EDDT 042250Z 02005KT 9999 FEW008 BKN010 04/01 Q1016
12-04-04 METAR EDDT 042320Z 05007KT 9999 FEW009 BKN012 04/01 Q1016
12-04-04 METAR EDDT 042350Z 05006KT 9999 BKN012 BKN015 04/01 Q1017
12-04-05 METAR EDDT 042350Z 05006KT 9999 BKN012 BKN015 04/01 Q1017
12-04-05 METAR EDDT 050020Z 05006KT 9999 BKN013 BKN016 04/01 Q1017
12-04-05 METAR EDDT 050050Z 05006KT 9999 BKN012 04/01 Q1017
12-04-05 METAR EDDT 050120Z 04006KT 9999 BKN012 BKN016 04/01 Q1017
12-04-05 METAR EDDT 050150Z 04006KT 9999 FEW012 SCT025 BKN048 04/01 Q1017
12-04-05 METAR EDDT 050220Z 05007KT 9999 BKN012 04/01 Q1017
12-04-05 METAR EDDT 050250Z 05008KT 9999 BKN014 03/01 Q1017 TEMPO BKN015
12-04-05 METAR EDDT 050320Z 04007KT 9999 BKN012 03/01 Q1017 TEMPO BKN015
12-04-05 METAR EDDT 050350Z 05008KT 9999 BKN013 03/00 Q1017 NOSIG
12-04-05 METAR EDDT 050420Z 06009KT 9999 BKN013 03/01 Q1018 NOSIG
12-04-05 METAR EDDT 050450Z 04007KT 9999 BKN013 03/01 Q1018 NOSIG
12-04-05 METAR EDDT 050520Z 05007KT 9999 BKN013 03/00 Q1018 BECMG SCT015
12-04-05 METAR EDDT 050550Z 06005KT 9999 BKN012 03/01 Q1018 BECMG SCT015
12-04-05 METAR EDDT 050620Z 05006KT 9999 BKN011 04/01 Q1019 BECMG SCT015
12-04-05 METAR EDDT 050650Z 05007KT 9999 BKN011 04/01 Q1019 BECMG SCT015
12-04-05 METAR EDDT 050720Z 04008KT 9999 BKN011 04/01 Q1019 BECMG SCT015
12-04-05 METAR EDDT 050750Z 06008KT 9999 SCT014 BKN024 04/00 Q1019 NOSIG
12-04-05 METAR EDDT 050820Z 06009KT 9999 SCT016 BKN025 04/00 Q1019 NOSIG
12-04-05 METAR EDDT 050850Z 05006KT 9999 FEW017 BKN025 05/00 Q1020 NOSIG
12-04-05 METAR EDDT 050920Z 06009KT 9999 SCT020 BKN025 05/M00 Q1020 NOSIG
12-04-05 METAR EDDT 050950Z 06008KT 9999 BKN020 BKN025 05/M01 Q1020 NOSIG
12-04-05 METAR EDDT 051020Z 07008KT 9999 BKN022 BKN026 05/M01 Q1019 NOSIG
12-04-05 METAR EDDT 051050Z 05008KT 9999 BKN027 06/M01 Q1019 NOSIG
12-04-05 METAR EDDT 051120Z 07009KT 9999 BKN029 06/M01 Q1019 NOSIG
12-04-05 METAR EDDT 051150Z 06007KT 040V100 9999 BKN029 06/M01 Q1019 NOSIG
12-04-05 METAR EDDT 051220Z 09009KT 9999 BKN030 06/M01 Q1019 NOSIG
12-04-05 METAR EDDT 051250Z 03007KT 9999 BKN030 07/M01 Q1019 NOSIG
12-04-05 METAR EDDT 051320Z 06006KT 9999 BKN030 06/M01 Q1019 NOSIG
12-04-05 METAR EDDT 051350Z 09007KT 9999 SCT030 BKN036 07/M01 Q1018 NOSIG
12-04-05 METAR EDDT 051420Z 06007KT 020V080 9999 FEW029 BKN033 07/M01 Q1018 NOSIG
12-04-05 METAR EDDT 051450Z 08010KT 9999 FEW030 SCT033 08/M01 Q1018 NOSIG
12-04-05 METAR EDDT 051520Z 08008KT 9999 SCT033 07/M01 Q1018 NOSIG
12-04-05 METAR EDDT 051550Z 10005KT 070V130 9999 SCT035 08/M01 Q1017 NOSIG
12-04-05 METAR EDDT 051620Z 09007KT 9999 SCT037 07/M00 Q1017 NOSIG
12-04-05 METAR EDDT 051650Z 11004KT 9999 SCT038 07/M01 Q1017 NOSIG
12-04-05 METAR EDDT 051720Z 10004KT 070V130 9999 FEW035 07/M01 Q1017 NOSIG
12-04-05 METAR EDDT 051750Z 30002KT 9999 FEW040 06/M01 Q1017 NOSIG
12-04-05 METAR EDDT 051820Z VRB01KT 9999 FEW040 05/M01 Q1017 NOSIG
12-04-05 METAR EDDT 051850Z 26002KT 9999 FEW040 04/M02 Q1017 NOSIG
12-04-05 METAR EDDT 051920Z 28002KT CAVOK 03/M01 Q1017 NOSIG
12-04-05 METAR EDDT 051950Z 30002KT CAVOK 03/M01 Q1017 NOSIG
12-04-05 METAR EDDT 052020Z 29003KT CAVOK 02/M01 Q1017 NOSIG
12-04-05 METAR EDDT 052050Z 33003KT CAVOK 03/M00 Q1017 NOSIG
12-04-05 METAR EDDT 052120Z VRB02KT CAVOK 02/M01 Q1017
12-04-05 METAR EDDT 052150Z VRB01KT CAVOK 02/M01 Q1017
12-04-05 METAR EDDT 052220Z VRB01KT CAVOK 02/M01 Q1017
12-04-05 METAR EDDT 052250Z 35002KT CAVOK 02/M02 Q1017
12-04-05 METAR EDDT 052320Z 32001KT CAVOK 01/M03 Q1017
12-04-05 METAR EDDT 052350Z 32001KT CAVOK M01/M03 Q1016
12-04-06 METAR EDDT 052350Z 32001KT CAVOK M01/M03 Q1016
12-04-06 METAR EDDT 060020Z 29001KT 9999 R08L/0700VP2000D R08R/P2000N BCFG NSC M02/M03 Q1016
12-04-06 METAR EDDT 060050Z 30002KT 9999 BCFG NSC M02/M03 Q1016
12-04-06 METAR EDDT 060120Z 29001KT 9999 BCFG NSC M02/M03 Q1015
12-04-06 METAR EDDT 060150Z 36001KT 9999 BCFG NSC M02/M03 Q1015
12-04-06 METAR EDDT 060220Z 29001KT 9999 R08L/0550VP2000D R08R/P2000N BCFG NSC M02/M04 Q1015
12-04-06 METAR EDDT 060250Z 28001KT 9999 R08L/1400VP2000D R08R/P2000N BCFG NSC M03/M04 Q1014 NOSIG
12-04-06 METAR EDDT 060320Z 36002KT 9999 BCFG NSC M03/M04 Q1014 NOSIG
12-04-06 METAR EDDT 060350Z 36001KT 9999 BCFG NSC M03/M05 Q1014 NOSIG
12-04-06 METAR EDDT 060420Z 34001KT 9999 BCFG NSC M03/M04 Q1014 NOSIG
12-04-06 METAR EDDT 060450Z 00000KT 9999 MIFG NSC M03/M04 Q1014 NOSIG
12-04-06 METAR EDDT 060520Z 00000KT CAVOK M02/M03 Q1013 NOSIG
12-04-06 METAR EDDT 060550Z 33001KT CAVOK M01/M02 Q1013 NOSIG
12-04-06 METAR EDDT 060620Z 00000KT CAVOK 01/M01 Q1013 NOSIG
12-04-06 METAR EDDT 060650Z 21001KT CAVOK 02/M01 Q1013 NOSIG
12-04-06 METAR EDDT 060720Z VRB01KT CAVOK 04/M01 Q1013 NOSIG
12-04-06 METAR EDDT 060750Z 34001KT CAVOK 05/M01 Q1012 NOSIG
12-04-06 METAR EDDT 060820Z VRB02KT CAVOK 06/M01 Q1012 NOSIG
12-04-06 METAR EDDT 060850Z 22004KT 160V230 9999 FEW030 08/M00 Q1012 NOSIG
12-04-06 METAR EDDT 060920Z 19006KT 160V220 9999 FEW030 08/00 Q1012 NOSIG
12-04-06 METAR EDDT 060950Z 16004KT 120V190 9999 FEW034 08/M01 Q1011 NOSIG
12-04-06 METAR EDDT 061020Z 26006KT 200V280 9999 FEW034 08/M00 Q1011 NOSIG
12-04-06 METAR EDDT 061050Z 25004KT 9999 SCT034 09/M01 Q1010 NOSIG
12-04-06 METAR EDDT 061120Z VRB03KT 9999 SCT037 08/M01 Q1010 NOSIG
12-04-06 METAR EDDT 061150Z 28006KT 9999 BKN040 09/M01 Q1009 NOSIG
12-04-06 METAR EDDT 061220Z 26009KT 9999 BKN040 09/M01 Q1009 NOSIG
12-04-06 METAR EDDT 061250Z 26007KT 230V290 9999 BKN040 09/M02 Q1009 NOSIG
12-04-06 METAR EDDT 061320Z 25009KT 9999 BKN040 09/M01 Q1008 NOSIG
12-04-06 METAR EDDT 061350Z 24007KT 9999 BKN040 09/M01 Q1008 NOSIG
12-04-06 METAR EDDT 061420Z 24011KT 9999 BKN040 09/00 Q1007 NOSIG
12-04-06 METAR EDDT 061450Z 25009KT 9999 BKN035 09/M00 Q1007 NOSIG
12-04-06 METAR EDDT 061520Z 27010KT 9999 BKN036 08/M01 Q1007 NOSIG
12-04-06 METAR EDDT 061550Z 25011KT 9999 BKN036 08/M00 Q1007 NOSIG
12-04-06 METAR EDDT 061620Z 25012KT 9999 BKN035 07/M00 Q1006 NOSIG
12-04-06 METAR EDDT 061650Z 25011KT 9999 BKN032 07/M01 Q1006 NOSIG
12-04-06 METAR EDDT 061720Z 26012KT 9999 BKN031 06/M01 Q1006 NOSIG
12-04-06 METAR EDDT 061750Z 25014KT 9999 BKN032 06/M01 Q1006 NOSIG
12-04-06 METAR EDDT 061820Z 26012KT 9999 BKN030 06/M01 Q1006 NOSIG
12-04-06 METAR EDDT 061850Z 26012KT 9999 BKN029 06/M01 Q1006 NOSIG
12-04-06 METAR EDDT 061920Z 26011KT 9999 BKN027 05/M01 Q1006 NOSIG
12-04-06 METAR EDDT 061950Z 26010KT 9999 SCT027 05/M02 Q1006 NOSIG
12-04-06 METAR EDDT 062020Z 24008KT CAVOK 04/M02 Q1005 NOSIG
12-04-06 METAR EDDT 062050Z 23008KT CAVOK 05/M01 Q1005 NOSIG
12-04-06 METAR EDDT 062120Z 23008KT 9999 FEW027 OVC250 04/M01 Q1004
12-04-06 METAR EDDT 062150Z 23008KT 9999 FEW030 OVC250 04/M01 Q1004
12-04-06 METAR EDDT 062250Z 24011KT 9999 -RA SCT010 BKN025 BKN040 04/M00 Q1003
12-04-06 METAR EDDT 062320Z 22007KT 9999 -RA SCT010 BKN026 BKN040 04/00 Q1003
12-04-06 METAR EDDT 062350Z 22008KT 9999 -RA FEW012 BKN021 03/01 Q1002
12-04-07 METAR EDDT 062350Z 22008KT 9999 -RA FEW012 BKN021 03/01 Q1002
12-04-07 METAR EDDT 070020Z 20007KT 9000 -RA FEW010 BKN014 03/01 Q1002
12-04-07 METAR EDDT 070050Z 22010KT 7000 RA FEW005 BKN012 03/01 Q1001
12-04-07 METAR EDDT 070120Z 22011KT 6000 RA FEW005 BKN011 03/01 Q1001
12-04-07 METAR EDDT 070150Z 22010KT 6000 RA BKN008 03/01 Q1000
12-04-07 METAR EDDT 070220Z 23009KT 6000 -RA BKN007 03/01 Q1000
12-04-07 METAR EDDT 070250Z 24013KT 6000 RA FEW003 BKN007 03/01 Q1000 TEMPO BKN004
12-04-07 METAR EDDT 070320Z 24012KT 6000 RA FEW003 BKN007 03/02 Q0999 BECMG NSW
12-04-07 METAR EDDT 070350Z 24011KT 6000 -RA FEW003 BKN007 03/02 Q0999 RERA NOSIG
12-04-07 METAR EDDT 070420Z 25011KT 4800 -RA BR FEW003 BKN007 03/02 Q0999 RERA TEMPO 30015G25KT 5000
12-04-07 METAR EDDT 070450Z 26012KT 5000 -RA BR BKN007 BKN011 04/02 Q0999 TEMPO 30015G25KT BKN010
12-04-07 METAR EDDT 070520Z 29012KT 8000 -RA FEW003 BKN008 04/02 Q0999 TEMPO
12-04-07 METAR EDDT 070550Z 30011KT 9999 -RA SCT010 BKN035 03/00 Q0999 NOSIG
12-04-07 METAR EDDT 070620Z 29011KT 9999 FEW011 BKN060 03/00 Q0999 NOSIG
12-04-07 METAR EDDT 070650Z 28011KT 9999 FEW011 BKN060 03/01 Q1000 NOSIG
12-04-07 METAR EDDT 070720Z 28013KT 9999 -RA FEW012 BKN018 BKN040 03/M00 Q1000 NOSIG
12-04-07 METAR EDDT 070750Z 28010KT 9999 -RA FEW012 BKN018 BKN040 03/00 Q1000 NOSIG
12-04-07 METAR EDDT 070820Z 28013KT 9999 -RA FEW012 BKN017 BKN030 04/00 Q1000 NOSIG
12-04-07 METAR EDDT 070850Z 27012KT 8000 -RA FEW012 BKN030 BKN045 04/01 Q1000 TEMPO 4000 SHRAGS BKN010
12-04-07 METAR EDDT 070920Z 28013KT 9000 -RA FEW010 BKN015 BKN025 03/01 Q1000 TEMPO
12-04-07 METAR EDDT 070950Z 28011KT 9999 -RA FEW009 SCT015 BKN030 04/02 Q1000 TEMPO
12-04-07 METAR EDDT 071020Z 29010KT 9999 -RASN FEW009 BKN012 BKN025 03/01 Q1000 BECMG BKN015
12-04-07 METAR EDDT 071050Z 29012KT 9999 -RASN SCT012 BKN018 BKN025 04/01 Q1000 TEMPO 29015G25KT
12-04-07 METAR EDDT 071120Z 28014KT 9999 -SHRA BKN015 BKN025 05/02 Q1000 TEMPO
12-04-07 METAR EDDT 071150Z 32012KT 9999 -SHRASN BKN015 BKN025 03/00 Q1001 TEMPO
12-04-07 METAR EDDT 071220Z 32012G23KT 9999 -SHRASN BKN015 BKN030 03/M01 Q1001 TEMPO
12-04-07 METAR EDDT 071250Z 32014G24KT 9999 -SHRASN BKN018 BKN030 03/M01 Q1002 TEMPO
12-04-07 METAR EDDT 071320Z 32012G22KT 9999 SCT020 BKN028 BKN035 03/M02 Q1002 TEMPO
12-04-07 METAR EDDT 071350Z 32013KT 9999 SCT025 BKN035 04/M03 Q1002 TEMPO
12-04-07 METAR EDDT 071420Z 32011KT 9999 BKN030 05/M03 Q1002 TEMPO 29015G25KT
12-04-07 METAR EDDT 071450Z 33010KT 9999 BKN035 05/M04 Q1002 TEMPO 29015G25KT
12-04-07 METAR EDDT 071520Z 32012KT 9999 VCSH SCT035 SCT060 04/M05 Q1002 TEMPO
12-04-07 METAR EDDT 071550Z 30010G20KT 9999 SCT035 SCT050 04/M06 Q1003 TEMPO
12-04-07 METAR EDDT 071620Z 32008KT 9999 SCT035 SCT070 04/M03 Q1003 TEMPO 4000 SHGSSN
12-04-07 METAR EDDT 071650Z 33011KT 3000 SHSN BKN017 BKN050 01/M02 Q1004 BECMG 9999 NSW
12-04-07 METAR EDDT 071720Z 30008KT 9999 VCSH SCT020 BKN042 01/M01 Q1004 RESN TEMPO 4500 -SHSN
12-04-07 METAR EDDT 071750Z 30008KT 7000 -SHSN BKN018 BKN030 01/M01 Q1005 RESN TEMPO 3000 SHSN
12-04-07 METAR EDDT 071820Z 31007KT 6000 -SHSN BKN016 BKN030 01/M01 Q1005 RESN
12-04-07 METAR EDDT 071850Z 30006KT 9999 SCT016 BKN046 01/M01 Q1005 NOSIG
12-04-07 METAR EDDT 071920Z 31006KT 9999 FEW016 BKN027 BKN048 01/M01 Q1006 NOSIG
12-04-07 METAR EDDT 071950Z 32007KT 9999 BKN022 01/M02 Q1006 NOSIG
12-04-07 METAR EDDT 072020Z 34008KT 9999 FEW022 BKN076 01/M03 Q1006 NOSIG
12-04-07 METAR EDDT 072050Z 34007KT 9999 BKN040 01/M03 Q1006 NOSIG
12-04-07 METAR EDDT 072120Z 31006KT CAVOK 00/M03 Q1006
12-04-07 METAR EDDT 072150Z 30004KT CAVOK M00/M02 Q1006
12-04-07 METAR EDDT 072220Z 28005KT CAVOK M00/M02 Q1007
12-04-07 METAR EDDT 072250Z 28005KT 9999 BKN046 M00/M02 Q1007
12-04-07 METAR EDDT 072320Z 28005KT CAVOK M00/M02 Q1007
12-04-07 METAR EDDT 072350Z 30006KT CAVOK M00/M03 Q1007
12-04-08 METAR EDDT 072350Z 30006KT CAVOK M00/M03 Q1007
12-04-08 METAR EDDT 080020Z 31007KT CAVOK 00/M03 Q1007
12-04-08 METAR EDDT 080050Z 31006KT CAVOK 00/M04 Q1007
12-04-08 METAR EDDT 080120Z 31006KT CAVOK 00/M04 Q1008
12-04-08 METAR EDDT 080150Z 33007KT CAVOK M00/M04 Q1008
12-04-08 METAR EDDT 080220Z 33005KT CAVOK M00/M05 Q1008
12-04-08 METAR EDDT 080250Z 32005KT CAVOK M01/M05 Q1008 NOSIG
12-04-08 METAR EDDT 080320Z 32005KT CAVOK M01/M04 Q1009 NOSIG
12-04-08 METAR EDDT 080350Z 32004KT CAVOK M01/M04 Q1009 NOSIG
12-04-08 METAR EDDT 080420Z 32004KT CAVOK M01/M04 Q1009 NOSIG
12-04-08 METAR EDDT 080450Z 31004KT CAVOK M01/M04 Q1010 NOSIG
12-04-08 METAR EDDT 080520Z 32006KT CAVOK M01/M04 Q1010 NOSIG
12-04-08 METAR EDDT 080550Z 32006KT CAVOK M00/M04 Q1011 NOSIG
12-04-08 METAR EDDT 080620Z 33005KT CAVOK 00/M04 Q1011 NOSIG
12-04-08 METAR EDDT 080650Z 34007KT CAVOK 01/M05 Q1011 NOSIG
12-04-08 METAR EDDT 080720Z 35007KT 9999 FEW032 02/M05 Q1012 NOSIG
12-04-08 METAR EDDT 080750Z 35007KT 9999 FEW033 03/M06 Q1012 NOSIG
12-04-08 METAR EDDT 080820Z 34006KT 9999 SCT040 03/M07 Q1012 NOSIG
12-04-08 METAR EDDT 080850Z 34008KT 9999 SCT048 04/M08 Q1013 NOSIG
12-04-08 METAR EDDT 080920Z 36007KT 320V030 CAVOK 04/M11 Q1013 NOSIG
12-04-08 METAR EDDT 080950Z 36006KT CAVOK 04/M11 Q1013 NOSIG
12-04-08 METAR EDDT 081020Z 33006KT CAVOK 04/M10 Q1013 NOSIG
12-04-08 METAR EDDT 081050Z VRB03KT CAVOK 05/M12 Q1013 NOSIG
12-04-08 METAR EDDT 081120Z VRB03KT CAVOK 05/M12 Q1013 NOSIG
12-04-08 METAR EDDT 081150Z 35006KT CAVOK 05/M11 Q1013 NOSIG
12-04-08 METAR EDDT 081220Z 32004KT 250V010 CAVOK 06/M12 Q1013 NOSIG
12-04-08 METAR EDDT 081250Z 28007KT CAVOK 06/M11 Q1013 NOSIG
12-04-08 METAR EDDT 081320Z 36005KT 310V020 CAVOK 05/M12 Q1013 NOSIG
12-04-08 METAR EDDT 081350Z 29008KT CAVOK 07/M10 Q1013 NOSIG
12-04-08 METAR EDDT 081420Z 33006KT CAVOK 06/M12 Q1013 NOSIG
12-04-08 METAR EDDT 081450Z 28006KT CAVOK 06/M11 Q1013 NOSIG
12-04-08 METAR EDDT 081520Z VRB02KT CAVOK 06/M12 Q1013 NOSIG
12-04-08 METAR EDDT 081550Z 32001KT CAVOK 06/M12 Q1013 NOSIG
12-04-08 METAR EDDT 081620Z 33003KT CAVOK 06/M11 Q1013 NOSIG
12-04-08 METAR EDDT 081650Z 32005KT CAVOK 06/M11 Q1013 NOSIG
12-04-08 METAR EDDT 081720Z 31005KT CAVOK 05/M11 Q1013 NOSIG
12-04-08 METAR EDDT 081750Z 29006KT CAVOK 05/M10 Q1013 NOSIG
12-04-08 METAR EDDT 081820Z 28004KT CAVOK 03/M11 Q1013 NOSIG
12-04-08 METAR EDDT 081850Z 26004KT CAVOK 03/M10 Q1013 NOSIG
12-04-08 METAR EDDT 081920Z 25004KT CAVOK 02/M10 Q1013 NOSIG
12-04-08 METAR EDDT 081950Z 25003KT CAVOK 02/M09 Q1013 NOSIG
12-04-08 METAR EDDT 082020Z 25002KT CAVOK 01/M09 Q1013 NOSIG
12-04-08 METAR EDDT 082050Z 23002KT CAVOK 01/M09 Q1013 NOSIG
12-04-08 METAR EDDT 082120Z 21002KT CAVOK 01/M08 Q1013
12-04-08 METAR EDDT 082150Z 20004KT CAVOK 00/M09 Q1013
12-04-08 METAR EDDT 082220Z 17003KT CAVOK 00/M08 Q1013
12-04-08 METAR EDDT 082250Z 18004KT CAVOK M00/M08 Q1012
12-04-08 METAR EDDT 082320Z 20007KT CAVOK 00/M07 Q1012
12-04-08 METAR EDDT 082350Z 20007KT CAVOK 00/M07 Q1012
12-04-09 METAR EDDT 082350Z 20007KT CAVOK 00/M07 Q1012
12-04-09 METAR EDDT 090020Z 20007KT CAVOK 00/M07 Q1012
12-04-09 METAR EDDT 090050Z 20008KT CAVOK 00/M07 Q1011
12-04-09 METAR EDDT 090120Z 20007KT CAVOK 01/M07 Q1011
12-04-09 METAR EDDT 090150Z 20008KT CAVOK 01/M07 Q1011
12-04-09 METAR EDDT 090220Z 18008KT CAVOK 01/M07 Q1010
12-04-09 METAR EDDT 090250Z 18009KT CAVOK 01/M07 Q1010 NOSIG
12-04-09 METAR EDDT 090320Z 19009KT CAVOK 01/M07 Q1009 NOSIG
12-04-09 METAR EDDT 090350Z 18009KT CAVOK 00/M07 Q1009 NOSIG
12-04-09 METAR EDDT 090420Z 18008KT CAVOK 00/M07 Q1009 NOSIG
12-04-09 METAR EDDT 090450Z 18008KT CAVOK 00/M07 Q1008 NOSIG
12-04-09 METAR EDDT 090520Z 18008KT CAVOK 00/M07 Q1008 NOSIG
12-04-09 METAR EDDT 090550Z 18009KT CAVOK 01/M07 Q1008 NOSIG
12-04-09 METAR EDDT 090620Z 19009KT CAVOK 02/M06 Q1008 NOSIG
12-04-09 METAR EDDT 090650Z 19008KT CAVOK 03/M07 Q1007 NOSIG
12-04-09 METAR EDDT 090720Z 20009KT CAVOK 04/M06 Q1007 NOSIG
12-04-09 METAR EDDT 090750Z 19011KT CAVOK 04/M06 Q1007 NOSIG
12-04-09 METAR EDDT 090820Z 18011KT CAVOK 06/M06 Q1006 NOSIG
12-04-09 METAR EDDT 090850Z 17013KT CAVOK 07/M05 Q1006 NOSIG
12-04-09 METAR EDDT 090920Z 18012KT CAVOK 08/M05 Q1006 NOSIG
12-04-09 METAR EDDT 090950Z 19012KT CAVOK 09/M04 Q1005 NOSIG
12-04-09 METAR EDDT 091020Z 18012KT CAVOK 10/M03 Q1005 NOSIG
12-04-09 METAR EDDT 091050Z 20013KT CAVOK 10/M02 Q1005 NOSIG
12-04-09 METAR EDDT 091120Z 20013KT CAVOK 11/M02 Q1004 NOSIG
12-04-09 METAR EDDT 091150Z 21014KT CAVOK 11/M02 Q1004 NOSIG
12-04-09 METAR EDDT 091220Z 18013KT CAVOK 12/M02 Q1004 NOSIG
12-04-09 METAR EDDT 091250Z 20014KT CAVOK 11/M03 Q1004 NOSIG
12-04-09 METAR EDDT 091320Z 21013KT CAVOK 12/M02 Q1004 NOSIG
12-04-09 METAR EDDT 091350Z 19013KT CAVOK 12/M02 Q1003 NOSIG
12-04-09 METAR EDDT 091420Z 20013KT CAVOK 12/M02 Q1003 NOSIG
12-04-09 METAR EDDT 091450Z 21015KT CAVOK 11/M01 Q1003 NOSIG
12-04-09 METAR EDDT 091520Z 21012KT 9999 BKN046 11/M00 Q1003 NOSIG
12-04-09 METAR EDDT 091550Z 22012KT 9999 BKN044 10/00 Q1003 NOSIG
12-04-09 METAR EDDT 091620Z 22012KT 9999 BKN040 BKN120 10/01 Q1003 NOSIG
12-04-09 METAR EDDT 091650Z 22011KT 9999 -RA FEW028 SCT037 BKN120 09/02 Q1003 NOSIG
12-04-09 METAR EDDT 091720Z 22013KT 9999 -RA FEW035 BKN110 09/02 Q1003 NOSIG
12-04-09 METAR EDDT 091750Z 21010KT 9999 -RA BKN040 OVC110 09/02 Q1003 NOSIG
12-04-09 METAR EDDT 091820Z 21008KT 9999 -RA SCT040 BKN100 08/02 Q1003 NOSIG
12-04-09 METAR EDDT 091850Z 20008KT 9999 FEW040 SCT060 BKN100 08/02 Q1003 NOSIG
12-04-09 METAR EDDT 091920Z 21009KT 9999 FEW030 BKN058 08/02 Q1003 NOSIG
12-04-09 METAR EDDT 091950Z 21009KT 9999 FEW040 BKN058 08/03 Q1003 NOSIG
12-04-09 METAR EDDT 092020Z 21009KT CAVOK 08/02 Q1003 NOSIG
12-04-09 METAR EDDT 092050Z 19007KT CAVOK 08/02 Q1003 NOSIG
12-04-09 METAR EDDT 092120Z 20007KT 9999 SCT044 OVC120 08/03 Q1002
12-04-09 METAR EDDT 092150Z 20008KT 9999 FEW040 SCT050 OVC130 08/03 Q1002
12-04-09 METAR EDDT 092220Z 19009KT 9999 FEW040 OVC130 08/03 Q1002
12-04-09 METAR EDDT 092250Z 19009KT 9999 BKN040 08/03 Q1002
12-04-09 METAR EDDT 092320Z 19009KT 9999 BKN040 BKN060 08/03 Q1002
12-04-09 METAR EDDT 092350Z 18007KT 9999 BKN040 08/03 Q1002
12-04-10 METAR EDDT 092350Z 18007KT 9999 BKN040 08/03 Q1002
12-04-10 METAR EDDT 100020Z 18009KT 9999 -RA BKN040 BKN065 08/03 Q1001
12-04-10 METAR EDDT 100050Z 18008KT 9999 BKN040 BKN120 08/03 Q1001
12-04-10 METAR EDDT 100120Z 18008KT 9999 BKN038 08/03 Q1001
12-04-10 METAR EDDT 100150Z 18008KT 9999 -RA FEW038 BKN050 08/03 Q1001
12-04-10 METAR EDDT 100220Z 18008KT 9999 FEW045 BKN050 08/03 Q1001
12-04-10 METAR EDDT 100250Z 18010KT 9999 FEW040 BKN050 08/03 Q1000 NOSIG
12-04-10 METAR EDDT 100320Z 18009KT 9999 BKN042 BKN050 08/04 Q1000 NOSIG
12-04-10 METAR EDDT 100350Z 19010KT 9999 BKN042 08/04 Q1000 NOSIG
12-04-10 METAR EDDT 100420Z 18010KT 9999 FEW040 BKN045 08/04 Q1000 NOSIG
12-04-10 METAR EDDT 100450Z 18010KT 9999 FEW040 BKN050 09/04 Q1000 NOSIG
12-04-10 METAR EDDT 100520Z 18011KT CAVOK 09/05 Q1000 NOSIG
12-04-10 METAR EDDT 100550Z 18009KT CAVOK 09/05 Q1000 NOSIG
12-04-10 METAR EDDT 100620Z 18010KT CAVOK 09/05 Q1000 NOSIG
12-04-10 METAR EDDT 100650Z 18011KT CAVOK 10/05 Q0999 NOSIG
12-04-10 METAR EDDT 100720Z 18015KT 9999 FEW020 SCT060 BKN090 11/05 Q0999 NOSIG
12-04-10 METAR EDDT 100750Z 19012KT 9999 FEW024 BKN050 11/05 Q0999 NOSIG
12-04-10 METAR EDDT 100820Z 19013KT 9999 FEW024 BKN050 11/06 Q0999 NOSIG
12-04-10 METAR EDDT 100850Z 20011KT 9999 FEW024 BKN050 12/06 Q0999 NOSIG
12-04-10 METAR EDDT 100920Z 20011KT 9999 -RA FEW024 BKN044 11/06 Q0999 NOSIG
12-04-10 METAR EDDT 100950Z 19012KT 9999 FEW024 BKN040 12/06 Q0999 NOSIG
12-04-10 METAR EDDT 101020Z 19011KT 9999 FEW024 BKN045 13/07 Q0999 NOSIG
12-04-10 METAR EDDT 101050Z 19011KT 9999 FEW024 BKN050 14/07 Q0998 NOSIG
12-04-10 METAR EDDT 101120Z 18012KT 9999 SCT030 BKN060 15/07 Q0998 NOSIG
12-04-10 METAR EDDT 101150Z 22015KT 9999 BKN040 15/05 Q0998 NOSIG
12-04-10 METAR EDDT 101220Z 23010KT CAVOK 15/06 Q0998 NOSIG
12-04-10 METAR EDDT 101250Z 20010KT CAVOK 16/05 Q0998 NOSIG
12-04-10 METAR EDDT 101320Z 19013KT CAVOK 17/05 Q0997 NOSIG
12-04-10 METAR EDDT 101350Z 20015KT CAVOK 17/05 Q0997 NOSIG
12-04-10 METAR EDDT 101420Z 21011KT CAVOK 18/04 Q0997 NOSIG
12-04-10 METAR EDDT 101450Z 21013KT CAVOK 18/04 Q0996 NOSIG
12-04-10 METAR EDDT 101520Z 21014KT CAVOK 18/04 Q0996 NOSIG
12-04-10 METAR EDDT 101550Z 22012KT CAVOK 17/05 Q0996 NOSIG
12-04-10 METAR EDDT 101620Z 20010KT CAVOK 17/04 Q0996 NOSIG
12-04-10 METAR EDDT 101650Z 20010KT CAVOK 17/04 Q0997 NOSIG
12-04-10 METAR EDDT 101720Z 22007KT CAVOK 16/04 Q0997 NOSIG
12-04-10 METAR EDDT 101750Z 21005KT CAVOK 15/04 Q0997 NOSIG
12-04-10 METAR EDDT 101820Z 17005KT CAVOK 16/05 Q0997 NOSIG
12-04-10 METAR EDDT 101850Z 14005KT CAVOK 14/05 Q0997 NOSIG
12-04-10 METAR EDDT 101920Z 15005KT CAVOK 15/05 Q0997 NOSIG
12-04-10 METAR EDDT 101950Z 14005KT CAVOK 14/05 Q0997 NOSIG
12-04-10 METAR EDDT 102020Z 13006KT CAVOK 13/05 Q0997 NOSIG
12-04-10 METAR EDDT 102050Z 13007KT CAVOK 13/05 Q0996 NOSIG
12-04-10 METAR EDDT 102120Z 13007KT CAVOK 13/04 Q0996
12-04-10 METAR EDDT 102150Z 14007KT CAVOK 13/04 Q0996
12-04-10 METAR EDDT 102220Z 15008KT CAVOK 13/03 Q0996
12-04-10 METAR EDDT 102250Z 15009KT CAVOK 13/03 Q0996
12-04-10 METAR EDDT 102320Z 15010KT CAVOK 12/03 Q0996
12-04-10 METAR EDDT 102350Z 15008KT CAVOK 12/03 Q0996
12-04-11 METAR EDDT 102350Z 15008KT CAVOK 12/03 Q0996
12-04-11 METAR EDDT 110020Z 16006KT CAVOK 12/03 Q0996
12-04-11 METAR EDDT 110050Z 17004KT CAVOK 12/03 Q0996
12-04-11 METAR EDDT 110120Z 18006KT CAVOK 12/02 Q0996
12-04-11 METAR EDDT 110150Z 19006KT CAVOK 12/02 Q0996
12-04-11 METAR EDDT 110220Z 17005KT CAVOK 11/02 Q0996
12-04-11 METAR EDDT 110250Z 17005KT CAVOK 11/01 Q0995 NOSIG
12-04-11 METAR EDDT 110320Z 15004KT CAVOK 10/01 Q0995 NOSIG
12-04-11 METAR EDDT 110350Z 17005KT CAVOK 10/01 Q0995 NOSIG
12-04-11 METAR EDDT 110420Z 15006KT CAVOK 10/01 Q0995 NOSIG
12-04-11 METAR EDDT 110450Z 15007KT CAVOK 10/01 Q0995 NOSIG
12-04-11 METAR EDDT 110520Z 18005KT CAVOK 10/01 Q0996 NOSIG
12-04-11 METAR EDDT 110550Z 17005KT CAVOK 11/01 Q0996 NOSIG
12-04-11 METAR EDDT 110620Z 18004KT CAVOK 11/01 Q0996 NOSIG
12-04-11 METAR EDDT 110650Z 17005KT CAVOK 11/01 Q0996 NOSIG
12-04-11 METAR EDDT 110720Z 18006KT CAVOK 12/02 Q0996 NOSIG
12-04-11 METAR EDDT 110750Z 19005KT 9999 FEW030 SCT070 BKN100 12/02 Q0996 NOSIG
12-04-11 METAR EDDT 110820Z 17005KT 9999 FEW025 SCT040 BKN110 13/03 Q0997 NOSIG
12-04-11 METAR EDDT 110850Z 19005KT 9999 FEW025 SCT040 BKN090 15/05 Q0996 NOSIG
12-04-11 METAR EDDT 110920Z 26009KT 9999 FEW030 SCT090 BKN250 15/06 Q0997 NOSIG
12-04-11 METAR EDDT 110950Z 26008KT 9999 FEW035 SCT060 BKN250 15/06 Q0997 NOSIG
12-04-11 METAR EDDT 111020Z 29007KT 9999 FEW035 SCT100 BKN250 15/06 Q0997 NOSIG
12-04-11 METAR EDDT 111050Z 28008KT 9999 FEW035 SCT060 BKN100 15/07 Q0997 NOSIG
12-04-11 METAR EDDT 111120Z 29005KT 260V350 9999 -RA SCT030 SCT060 BKN100 15/07 Q0997 NOSIG
12-04-11 METAR EDDT 111150Z 27009KT 9999 -RA SCT030 SCT060 BKN090 15/08 Q0997 NOSIG
12-04-11 METAR EDDT 111220Z 28010KT 9999 FEW025 SCT040 BKN050 14/07 Q0997 NOSIG
12-04-11 METAR EDDT 111250Z 29009KT 9999 -RA SCT015 BKN040 13/08 Q0998 TEMPO BKN014
12-04-11 METAR EDDT 111320Z 28012KT 9000 -RA BKN009 BKN011 11/08 Q0998 BECMG BKN010
12-04-11 METAR EDDT 111350Z 29011KT 9999 BKN010 BKN015 10/07 Q0998 BECMG BKN015
12-04-11 METAR EDDT 111420Z 30011KT 9999 -RA FEW008 BKN010 BKN015 09/07 Q0999 BECMG BKN015
12-04-11 METAR EDDT 111450Z 32009KT 9999 -RA BKN010 BKN015 09/06 Q0999 BECMG BKN015
12-04-11 METAR EDDT 111520Z 32008KT 9999 -RA BKN011 BKN015 09/06 Q0999 BECMG BKN015
12-04-11 METAR EDDT 111550Z 32007KT 9999 -RA FEW008 BKN011 BKN060 08/06 Q0999 BECMG
12-04-11 METAR EDDT 111620Z 31005KT 9999 -RA FEW008 BKN011 BKN070 08/06 Q1000 BECMG
12-04-11 METAR EDDT 111650Z 33007KT 9999 -RA FEW010 BKN050 08/06 Q1000 NOSIG
12-04-11 METAR EDDT 111720Z 32007KT 9999 FEW012 BKN090 08/06 Q1000 NOSIG
12-04-11 METAR EDDT 111750Z 31006KT 9999 FEW013 BKN090 08/05 Q1000 NOSIG
12-04-11 METAR EDDT 111820Z 36005KT 9999 FEW013 SCT090 08/05 Q1001 NOSIG
12-04-11 METAR EDDT 111850Z 34003KT CAVOK 08/05 Q1001 NOSIG
12-04-11 METAR EDDT 111920Z 28004KT CAVOK 07/04 Q1001 NOSIG
12-04-11 METAR EDDT 111950Z 31003KT CAVOK 07/05 Q1001 NOSIG
12-04-11 METAR EDDT 112020Z 31003KT CAVOK 06/05 Q1001 NOSIG
12-04-11 METAR EDDT 112050Z 28004KT 150V290 CAVOK 06/05 Q1001 NOSIG
12-04-11 METAR EDDT 112120Z 32002KT CAVOK 06/05 Q1001
12-04-11 METAR EDDT 112150Z 34002KT 9999 MIFG NSC 06/04 Q1001
12-04-11 METAR EDDT 112220Z 29001KT 9999 MIFG NSC 04/03 Q1002
12-04-11 METAR EDDT 112250Z VRB02KT CAVOK 05/04 Q1002
12-04-11 METAR EDDT 112320Z 27004KT CAVOK 05/04 Q1002
12-04-11 METAR EDDT 112350Z VRB03KT CAVOK 06/05 Q1001
12-04-12 METAR EDDT 112350Z VRB03KT CAVOK 06/05 Q1001
12-04-12 METAR EDDT 120020Z 28002KT CAVOK 05/04 Q1002
12-04-12 METAR EDDT 120050Z VRB01KT CAVOK 06/04 Q1002
12-04-12 METAR EDDT 120120Z VRB02KT 9999 -RA NSC 06/04 Q1002
12-04-12 METAR EDDT 120150Z 35002KT 9999 -RA SCT044 BKN060 06/04 Q1002
12-04-12 METAR EDDT 120220Z 30002KT 9999 -RA NSC 06/04 Q1002
12-04-12 METAR EDDT 120250Z VRB01KT 9999 -RA SCT024 BKN060 06/04 Q1002 NOSIG
12-04-12 METAR EDDT 120320Z 15001KT 9999 -RA SCT024 BKN060 06/05 Q1002 NOSIG
12-04-12 METAR EDDT 120350Z VRB01KT 9999 -RA SCT024 BKN038 06/05 Q1002 NOSIG
12-04-12 METAR EDDT 120420Z VRB01KT 9999 -RA SCT023 BKN036 06/05 Q1002 NOSIG
12-04-12 METAR EDDT 120450Z 10004KT 9999 -RA SCT023 BKN070 07/05 Q1002 NOSIG
12-04-12 METAR EDDT 120520Z 32001KT 9999 -RA SCT023 SCT070 BKN090 07/05 Q1002 NOSIG
12-04-12 METAR EDDT 120550Z VRB01KT 9999 -RA SCT023 OVC090 07/05 Q1002 NOSIG
12-04-12 METAR EDDT 120620Z VRB02KT 9999 -RA BKN024 OVC090 08/06 Q1002 NOSIG
12-04-12 METAR EDDT 120650Z 26003KT 9999 -RA FEW012 BKN024 OVC090 08/06 Q1002 NOSIG
12-04-12 METAR EDDT 120720Z 24003KT 9999 -RA FEW011 BKN025 OVC090 08/06 Q1003 NOSIG
12-04-12 METAR EDDT 120750Z 19002KT 9999 -RA FEW013 BKN030 OVC090 08/06 Q1003 NOSIG
12-04-12 METAR EDDT 120820Z VRB02KT 9999 -RA FEW013 BKN028 OVC090 09/05 Q1003 NOSIG
12-04-12 METAR EDDT 120850Z 06002KT 9999 -RA BKN026 09/05 Q1002 NOSIG
12-04-12 METAR EDDT 120920Z 10003KT 9999 FEW013 BKN026 09/05 Q1002 NOSIG
12-04-12 METAR EDDT 120950Z 10004KT 9999 FEW013 SCT027 OVC100 10/04 Q1002 NOSIG
12-04-12 METAR EDDT 121020Z VRB04KT 9999 BKN027 OVC100 10/05 Q1002 NOSIG
12-04-12 METAR EDDT 121050Z VRB03KT 9999 BKN027 BKN110 11/04 Q1002 NOSIG
12-04-12 METAR EDDT 121120Z 06003KT 9999 BKN026 BKN110 11/05 Q1002 NOSIG
12-04-12 METAR EDDT 121150Z VRB03KT 9999 SCT026 BKN120 11/04 Q1002 NOSIG
12-04-12 METAR EDDT 121220Z 11005KT 080V140 9999 SCT027 OVC120 11/05 Q1002 NOSIG
12-04-12 METAR EDDT 121250Z 09007KT 9999 SCT025 OVC130 11/05 Q1002 NOSIG
12-04-12 METAR EDDT 121320Z 11008KT 9999 SCT025 BKN040 OVC130 11/05 Q1002 NOSIG
12-04-12 METAR EDDT 121350Z 12009KT 9999 -SHRA SCT023 SCT040 OVC130 10/04 Q1002 TEMPO SHRA
12-04-12 METAR EDDT 121420Z 13009KT 9999 SCT019 SCT040 OVC130 10/05 Q1002 TEMPO
12-04-12 METAR EDDT 121450Z 12009KT 9999 FEW019 BKN040 10/05 Q1002 NOSIG
12-04-12 METAR EDDT 121520Z 13008KT 9999 FEW018 BKN040 10/05 Q1002 NOSIG
12-04-12 METAR EDDT 121550Z 12009KT 9999 SCT019 SCT040 BKN130 10/05 Q1002 NOSIG
12-04-12 METAR EDDT 121620Z 13008KT 9999 FEW019 BKN130 09/05 Q1002 NOSIG
12-04-12 METAR EDDT 121650Z 13008KT 9999 FEW018 SCT130 10/05 Q1002 NOSIG
12-04-12 METAR EDDT 121720Z 13008KT 9999 SCT018 SCT130 09/05 Q1002 NOSIG
12-04-12 METAR EDDT 121750Z 14006KT 9999 FEW017 08/05 Q1002 NOSIG
12-04-12 METAR EDDT 121820Z 13006KT 9999 FEW017 SCT040 08/04 Q1003 TEMPO SHRA
12-04-12 METAR EDDT 121850Z 13007KT 9999 SCT015 BKN040 08/04 Q1003 TEMPO SHRA
12-04-12 METAR EDDT 121920Z 13008KT 9999 FEW015 SCT040 BKN090 08/04 Q1003 TEMPO
12-04-12 METAR EDDT 121950Z 13007KT 9999 -RA SCT003 BKN040 08/05 Q1003 TEMPO SHRA
12-04-12 METAR EDDT 122020Z 16003KT 9999 -RA BKN012 BKN018 08/05 Q1003 TEMPO SHRA
12-04-12 METAR EDDT 122050Z 11005KT 9999 -RA BKN013 BKN018 07/05 Q1003 TEMPO SHRA
12-04-12 METAR EDDT 122120Z 13007KT 9999 -RA FEW012 SCT018 BKN060 07/05 Q1003
12-04-12 METAR EDDT 122150Z 12006KT 9999 -RA FEW012 BKN038 07/05 Q1002
12-04-12 METAR EDDT 122220Z 12007KT 9999 -RA FEW012 SCT044 BKN090 07/04 Q1002
12-04-12 METAR EDDT 122250Z 13006KT 9999 FEW035 BKN090 07/04 Q1002
12-04-12 METAR EDDT 122320Z 13005KT 9999 SCT030 BKN060 06/04 Q1002
12-04-12 METAR EDDT 122350Z 14006KT 9999 SCT030 07/04 Q1002
12-04-13 METAR EDDT 122350Z 14006KT 9999 SCT030 07/04 Q1002
12-04-13 METAR EDDT 130020Z 13006KT 9999 SCT030 06/04 Q1002
12-04-13 METAR EDDT 130050Z 14004KT 9999 BKN030 06/04 Q1002
12-04-13 METAR EDDT 130120Z 13004KT 9999 BKN030 06/04 Q1002
12-04-13 METAR EDDT 130150Z 12004KT 9999 FEW030 BKN110 06/04 Q1002
12-04-13 METAR EDDT 130220Z 11004KT 9999 -RA FEW030 BKN100 06/04 Q1002
12-04-13 METAR EDDT 130250Z 15003KT 9999 -RA FEW035 BKN100 06/04 Q1001 NOSIG
12-04-13 METAR EDDT 130320Z 16005KT 9999 -RA BKN011 BKN020 06/04 Q1001 NOSIG
12-04-13 METAR EDDT 130350Z VRB03KT 4200 +RA FEW008 SCT011 BKN030 06/05 Q1002 TEMPO -RA BKN012
12-04-13 METAR EDDT 130420Z 16004KT 4000 RA SCT007 SCT012 BKN038 06/05 Q1002 TEMPO -RA BKN007
12-04-13 METAR EDDT 130450Z 02002KT 3800 RA FEW005 SCT010 BKN030 06/05 Q1001 TEMPO NSW BKN010
12-04-13 METAR EDDT 130520Z 18003KT 3800 -RA FEW005 BKN008 06/05 Q1002 TEMPO 5000 SCT008 BKN030
12-04-13 METAR EDDT 130550Z 21004KT 4000 BR FEW005 BKN008 06/05 Q1002 TEMPO 5000
12-04-13 METAR EDDT 130620Z 25004KT 4200 BR BKN005 BKN008 06/05 Q1002 TEMPO 5000
12-04-13 METAR EDDT 130650Z 25004KT 5000 BKN005 BKN012 07/05 Q1002 TEMPO 4500 BR SCT005 BKN010
12-04-13 METAR EDDT 130720Z 26005KT 7000 FEW005 BKN008 BKN020 07/05 Q1002 TEMPO SCT008 BKN025
12-04-13 METAR EDDT 130750Z 27005KT 8000 FEW008 BKN010 BKN022 07/05 Q1002 TEMPO BKN009
12-04-13 METAR EDDT 130820Z 25004KT 9000 FEW008 BKN011 BKN022 07/05 Q1003 TEMPO
12-04-13 METAR EDDT 130850Z 29005KT 9999 FEW008 SCT013 BKN018 07/05 Q1003 TEMPO BKN013
12-04-13 METAR EDDT 130920Z 28006KT 9999 -RA FEW008 SCT013 BKN018 07/05 Q1003 TEMPO
12-04-13 METAR EDDT 130950Z 28004KT 9999 -RA FEW008 BKN013 BKN025 07/05 Q1003 NOSIG
12-04-13 METAR EDDT 131020Z 27004KT 9999 -RA FEW007 BKN013 BKN025 07/06 Q1003 NOSIG
12-04-13 METAR EDDT 131050Z 27007KT 7000 -RA FEW007 BKN013 BKN025 08/06 Q1003 NOSIG
12-04-13 METAR EDDT 131120Z 27011KT 5000 -RA FEW007 BKN009 07/05 Q1003 BECMG BKN015
12-04-13 METAR EDDT 131150Z 27009KT 5000 FEW008 BKN013 07/06 Q1004 BECMG BKN015
12-04-13 METAR EDDT 131150Z 27009KT 5000 BR FEW008 BKN013 07/06 Q1004 BECMG BKN015
12-04-13 METAR EDDT 131220Z 28008KT 7000 FEW010 BKN015 BKN025 08/06 Q1004 NOSIG
12-04-13 METAR EDDT 131250Z 28008KT 9999 FEW012 BKN016 BKN027 09/06 Q1004 NOSIG
12-04-13 METAR EDDT 131320Z 28009KT 9999 FEW012 SCT018 SCT045 09/04 Q1004 NOSIG
12-04-13 METAR EDDT 131350Z 28013KT 9999 SCT030 10/05 Q1004 NOSIG
12-04-13 METAR EDDT 131420Z 27010G20KT 9999 SCT030 11/04 Q1004 NOSIG
12-04-13 METAR EDDT 131450Z 26011KT 9999 SCT030 11/03 Q1004 NOSIG
12-04-13 METAR EDDT 131520Z 27011KT 9999 SCT035 10/02 Q1004 NOSIG
12-04-13 METAR EDDT 131550Z 26011KT 9999 SCT035 11/02 Q1004 NOSIG
12-04-13 METAR EDDT 131620Z 27009KT 9999 SCT040 11/02 Q1004 NOSIG
12-04-13 METAR EDDT 131650Z 35005KT 9999 FEW035 SCT040 10/03 Q1004 NOSIG
12-04-13 METAR EDDT 131720Z 32004KT 9999 -SHRA SCT033 10/03 Q1004 NOSIG
12-04-13 METAR EDDT 131750Z 33003KT 9999 FEW033 09/03 Q1004 NOSIG
12-04-13 METAR EDDT 131820Z 02002KT 9999 FEW033 09/03 Q1005 NOSIG
12-04-13 METAR EDDT 131850Z 01001KT CAVOK 07/03 Q1005 NOSIG
12-04-13 METAR EDDT 131920Z 02002KT CAVOK 07/03 Q1005 NOSIG
12-04-13 METAR EDDT 131950Z 11001KT CAVOK 06/03 Q1005 NOSIG
12-04-13 METAR EDDT 132020Z VRB01KT CAVOK 05/02 Q1005 NOSIG
12-04-13 METAR EDDT 132050Z 12002KT CAVOK 05/03 Q1005 NOSIG
12-04-13 METAR EDDT 132120Z 31001KT CAVOK 04/02 Q1005
12-04-13 METAR EDDT 132150Z 31001KT CAVOK 04/02 Q1005
12-04-13 METAR EDDT 132220Z 08001KT 9999 R08L/0550V0750N R08R/P2000N BCFG NSC 03/02 Q1005
12-04-13 METAR EDDT 132250Z 00000KT 9999 R08L/0900U R08R/P2000N BCFG NSC 02/01
12-04-13 METAR EDDT 132320Z 31001KT 9999 R08L/0600VP2000D R08R/P2000N BCFG NSC 02/01
12-04-13 METAR EDDT 132350Z 32001KT 9999 R08L/0650VP2000D R08R/P2000N BCFG NSC 02/01
12-04-14 METAR EDDT 132350Z 32001KT 9999 R08L/0650VP2000D R08R/P2000N BCFG NSC 02/01 Q1005
12-04-14 METAR EDDT 140020Z 02001KT 9999 R08L/0800VP2000N R08R/P2000N BCFG NSC 02/00
12-04-14 METAR EDDT 140050Z 32001KT 9999 R08L/0650VP2000U R08R/0600VP2000D BCFG NSC 02/01 Q1005
12-04-14 METAR EDDT 140120Z VRB01KT 9999 R08L/0550V0750N R08R/P2000N BCFG NSC 01/00
12-04-14 METAR EDDT 140150Z VRB01KT 9999 R08L/0800VP2000D R08R/P2000N BCFG NSC 01/00
12-04-14 METAR EDDT 140220Z VRB01KT 9999 R08L/0650D R08R/1000VP2000D BCFG NSC 00/M01
12-04-14 METAR EDDT 140250Z VRB01KT 9999 R08L/1400VP2000D R08R/P2000N BCFG NSC M00/M01 Q1005 TEMPO 1500 BCFG
12-04-14 METAR EDDT 140320Z VRB01KT 9999 R08L/0900VP2000N R08R/0800VP2000D BCFG NSC 00/M01 Q1005 TEMPO 1500 BCFG
12-04-14 METAR EDDT 140350Z 00000KT 9999 R08L/0450N R08R/0500N BCFG NSC 00/M01 Q1005 TEMPO 4000 BCFG
12-04-14 METAR EDDT 140420Z VRB01KT 8000 R08L/0600V1400U R08R/P2000N BCFG NSC M00/M01 Q1005 TEMPO 4000 BCFG
12-04-14 METAR EDDT 140450Z VRB01KT 8000 BCFG NSC 00/M01 Q1006 TEMPO 4000 BCFG
12-04-14 METAR EDDT 140520Z 30001KT 9999 BCFG NSC 01/01 Q1006 NOSIG
12-04-14 METAR EDDT 140550Z VRB01KT CAVOK 03/02 Q1006 NOSIG
12-04-14 METAR EDDT 140620Z 36001KT CAVOK 05/05 Q1006 NOSIG
12-04-14 METAR EDDT 140650Z 05002KT CAVOK 08/04 Q1006 NOSIG
12-04-14 METAR EDDT 140720Z 10004KT 080V140 CAVOK 09/03 Q1006 NOSIG
12-04-14 METAR EDDT 140750Z 09004KT 9999 FEW030 10/02 Q1006 NOSIG
12-04-14 METAR EDDT 140820Z VRB03KT 9999 FEW030 10/01 Q1006 NOSIG
12-04-14 METAR EDDT 140850Z 13004KT 9999 FEW035 11/02 Q1006 NOSIG
12-04-14 METAR EDDT 140920Z 11005KT 070V140 9999 FEW035 11/02 Q1006 NOSIG
12-04-14 METAR EDDT 140950Z VRB03KT 9999 FEW040 SCT260 11/M00 Q1006 NOSIG
12-04-14 METAR EDDT 141020Z VRB02KT 9999 FEW040 SCT260 12/01 Q1006 NOSIG
12-04-14 METAR EDDT 141050Z 04006KT 9999 FEW040 SCT260 12/M00 Q1006 NOSIG
12-04-14 METAR EDDT 141120Z 03005KT 9999 SCT045 SCT260 12/00 Q1006 NOSIG
12-04-14 METAR EDDT 141150Z 09006KT 040V130 9999 SCT048 BKN280 13/02 Q1006 NOSIG
12-04-14 METAR EDDT 141220Z 03008KT 9999 FEW044 BKN280 12/00 Q1006 NOSIG
12-04-14 METAR EDDT 141250Z 08005KT 050V130 CAVOK 13/M00 Q1005 NOSIG
12-04-14 METAR EDDT 141320Z 07009KT CAVOK 13/00 Q1005 NOSIG
12-04-14 METAR EDDT 141350Z 07009KT CAVOK 13/M01 Q1005 NOSIG
12-04-14 METAR EDDT 141420Z 07006KT CAVOK 13/M00 Q1005 NOSIG
12-04-14 METAR EDDT 141450Z 08007KT CAVOK 13/M01 Q1005 NOSIG
12-04-14 METAR EDDT 141520Z 04008KT CAVOK 13/M01 Q1005 NOSIG
12-04-14 METAR EDDT 141550Z 06007KT 020V080 CAVOK 13/M01 Q1005 NOSIG
12-04-14 METAR EDDT 141620Z 07010KT CAVOK 12/M01 Q1005 NOSIG
12-04-14 METAR EDDT 141650Z 07010KT CAVOK 12/M01 Q1005 NOSIG
12-04-14 METAR EDDT 141720Z 08010KT CAVOK 12/M01 Q1005 NOSIG
12-04-14 METAR EDDT 141750Z 07009KT CAVOK 11/M00 Q1006 NOSIG
12-04-14 METAR EDDT 141820Z 07007KT CAVOK 11/M00 Q1006 NOSIG
12-04-14 METAR EDDT 141850Z 04005KT CAVOK 11/00 Q1006 NOSIG
12-04-14 METAR EDDT 141920Z 04004KT CAVOK 10/01 Q1006 NOSIG
12-04-14 METAR EDDT 141950Z 04003KT CAVOK 09/01 Q1006 NOSIG
12-04-14 METAR EDDT 142020Z 04003KT CAVOK 09/01 Q1007 NOSIG
12-04-14 METAR EDDT 142050Z 03003KT CAVOK 09/01 Q1007 NOSIG
12-04-14 METAR EDDT 142120Z 03004KT CAVOK 09/00 Q1007
12-04-14 METAR EDDT 142150Z 05009KT CAVOK 08/01 Q1007
12-04-14 METAR EDDT 142220Z 05008KT CAVOK 08/02 Q1007
12-04-14 METAR EDDT 142250Z 04007KT CAVOK 07/02 Q1007
12-04-14 METAR EDDT 142320Z 04005KT CAVOK 07/02 Q1007
12-04-14 METAR EDDT 142350Z 02003KT CAVOK 07/02 Q1007
12-04-15 METAR EDDT 142350Z 02003KT CAVOK 07/02 Q1007
12-04-15 METAR EDDT 150020Z 02003KT CAVOK 06/02 Q1007
12-04-15 METAR EDDT 150050Z 02004KT CAVOK 06/02 Q1007
12-04-15 METAR EDDT 150120Z 02004KT CAVOK 06/02 Q1007
12-04-15 METAR EDDT 150150Z 02003KT CAVOK 05/02 Q1007
12-04-15 METAR EDDT 150220Z 02003KT 9999 MIFG NSC 05/02 Q1007
12-04-15 METAR EDDT 150250Z 01002KT 9999 MIFG NSC 05/02 Q1007 NOSIG
12-04-15 METAR EDDT 150320Z 03002KT 9999 MIFG NSC 05/02 Q1007 NOSIG
12-04-15 METAR EDDT 150350Z 03003KT CAVOK 05/02 Q1007 NOSIG
12-04-15 METAR EDDT 150420Z 02003KT CAVOK 05/02 Q1007 NOSIG
12-04-15 METAR EDDT 150450Z 01003KT CAVOK 05/02 Q1007 NOSIG
12-04-15 METAR EDDT 150520Z 02003KT CAVOK 05/02 Q1007 NOSIG
12-04-15 METAR EDDT 150550Z 03004KT CAVOK 05/02 Q1008 NOSIG
12-04-15 METAR EDDT 150620Z 03005KT CAVOK 06/02 Q1008 NOSIG
12-04-15 METAR EDDT 150650Z 04006KT CAVOK 07/02 Q1008 NOSIG
12-04-15 METAR EDDT 150720Z 03006KT CAVOK 09/02 Q1008 NOSIG
12-04-15 METAR EDDT 150750Z 04008KT CAVOK 10/02 Q1008 NOSIG
12-04-15 METAR EDDT 150820Z 02008KT CAVOK 10/01 Q1008 NOSIG
12-04-15 METAR EDDT 150850Z 01009KT CAVOK 11/01 Q1008 NOSIG
12-04-15 METAR EDDT 150920Z 04009KT CAVOK 11/M02 Q1008 NOSIG
12-04-15 METAR EDDT 150950Z 03011KT CAVOK 12/M04 Q1008 NOSIG
12-04-15 METAR EDDT 151020Z 01008KT CAVOK 12/M04 Q1008 NOSIG
12-04-15 METAR EDDT 151050Z 01010KT CAVOK 12/M03 Q1008 NOSIG
12-04-15 METAR EDDT 151120Z 01007KT CAVOK 13/M03 Q1008 NOSIG
12-04-15 METAR EDDT 151150Z 02012KT CAVOK 13/M01 Q1008 NOSIG
12-04-15 METAR EDDT 151220Z 02010KT 9999 -RA NSC 13/M02 Q1008 NOSIG
12-04-15 METAR EDDT 151250Z 03008KT 9999 BKN046 13/M02 Q1008 NOSIG
12-04-15 METAR EDDT 151320Z 03011KT 9999 FEW032 BKN042 13/M03 Q1008 NOSIG
12-04-15 METAR EDDT 151350Z 04011KT 9999 BKN046 12/M02 Q1008 NOSIG
12-04-15 METAR EDDT 151420Z 03010KT 9999 SCT040 BKN050 13/M03 Q1008 NOSIG
12-04-15 METAR EDDT 151450Z 02010KT 9999 BKN046 SCT100 13/M03 Q1008 NOSIG
12-04-15 METAR EDDT 151520Z 04008KT 9999 BKN044 BKN060 13/M03 Q1008 NOSIG
12-04-15 METAR EDDT 151550Z 01009KT CAVOK 13/M02 Q1008 NOSIG
12-04-15 METAR EDDT 151620Z 02008KT CAVOK 13/M01 Q1008 NOSIG
12-04-15 METAR EDDT 151650Z 02009KT CAVOK 12/M02 Q1008 NOSIG
12-04-15 METAR EDDT 151720Z 01008KT 9999 -RA NSC 12/M03 Q1009 NOSIG
12-04-15 METAR EDDT 151750Z 36008KT CAVOK 12/M05 Q1009 NOSIG
12-04-15 METAR EDDT 151820Z 01007KT CAVOK 11/M05 Q1009 NOSIG
12-04-15 METAR EDDT 151850Z 36007KT CAVOK 11/M06 Q1010 NOSIG
12-04-15 METAR EDDT 151920Z 36007KT CAVOK 10/M06 Q1010 NOSIG
12-04-15 METAR EDDT 151950Z 36006KT CAVOK 10/M07 Q1010 NOSIG
12-04-15 METAR EDDT 152020Z 01006KT CAVOK 09/M05 Q1011 NOSIG
12-04-15 METAR EDDT 152050Z 36007KT CAVOK 09/M03 Q1011 NOSIG
12-04-15 METAR EDDT 152120Z 36008KT CAVOK 08/M03 Q1011
12-04-15 METAR EDDT 152150Z 35008KT CAVOK 08/M02 Q1011
12-04-15 METAR EDDT 152220Z 35007KT CAVOK 07/M01 Q1011
12-04-15 METAR EDDT 152250Z 35007KT CAVOK 07/M00 Q1011
12-04-15 METAR EDDT 152320Z 35007KT CAVOK 06/00 Q1011
12-04-15 METAR EDDT 152350Z 34006KT CAVOK 06/00 Q1011
12-04-16 METAR EDDT 152350Z 34006KT CAVOK 06/00 Q1011
12-04-16 METAR EDDT 160020Z 35006KT CAVOK 06/00 Q1011
12-04-16 METAR EDDT 160050Z 34007KT CAVOK 06/00 Q1011
12-04-16 METAR EDDT 160120Z 34007KT CAVOK 05/00 Q1011
12-04-16 METAR EDDT 160150Z 34007KT CAVOK 06/M00 Q1011
12-04-16 METAR EDDT 160220Z 33006KT CAVOK 05/M00 Q1011
12-04-16 METAR EDDT 160250Z 33007KT CAVOK 05/00 Q1011 NOSIG
12-04-16 METAR EDDT 160320Z 35006KT CAVOK 05/01 Q1011 NOSIG
12-04-16 METAR EDDT 160350Z 34007KT CAVOK 05/02 Q1012 NOSIG
12-04-16 METAR EDDT 160420Z 35008KT 9999 BKN015 BKN120 05/02 Q1012 TEMPO BKN012
12-04-16 METAR EDDT 160450Z 34008KT 9999 SCT021 SCT120 BKN260 05/01 Q1012 NOSIG
12-04-16 METAR EDDT 160520Z 35008KT CAVOK 05/01 Q1013 NOSIG
12-04-16 METAR EDDT 160550Z 35009KT CAVOK 06/00 Q1013 NOSIG
12-04-16 METAR EDDT 160620Z 34010KT CAVOK 06/M00 Q1013 NOSIG
12-04-16 METAR EDDT 160650Z 35009KT CAVOK 06/00 Q1013 NOSIG
12-04-16 METAR EDDT 160720Z 36011KT 9999 FEW020 BKN100 BKN200 06/M00 Q1014 NOSIG
12-04-16 METAR EDDT 160750Z 34011KT 9999 FEW025 SCT130 BKN200 07/M01 Q1014 NOSIG
12-04-16 METAR EDDT 160820Z 34011KT 9999 FEW028 SCT100 BKN200 07/M02 Q1014 NOSIG
12-04-16 METAR EDDT 160850Z 34008KT 9999 FEW030 SCT100 BKN200 08/M03 Q1014 NOSIG
12-04-16 METAR EDDT 160920Z 35010KT CAVOK 08/M05 Q1014 NOSIG
12-04-16 METAR EDDT 160950Z 32009KT CAVOK 09/M03 Q1014 NOSIG
12-04-16 METAR EDDT 161020Z 32010KT CAVOK 09/M04 Q1014 NOSIG
12-04-16 METAR EDDT 161050Z 32010KT CAVOK 09/M04 Q1014 NOSIG
12-04-16 METAR EDDT 161120Z 35011KT CAVOK 09/M07 Q1014 NOSIG
12-04-16 METAR EDDT 161150Z 34010KT CAVOK 10/M06 Q1014 NOSIG
12-04-16 METAR EDDT 161220Z 33010KT CAVOK 10/M06 Q1014 NOSIG
12-04-16 METAR EDDT 161250Z 36010G21KT CAVOK 11/M06 Q1014 NOSIG
12-04-16 METAR EDDT 161320Z 36011KT CAVOK 10/M07 Q1014 NOSIG
12-04-16 METAR EDDT 161350Z 33010KT CAVOK 11/M07 Q1014 NOSIG
12-04-16 METAR EDDT 161420Z 33009G19KT CAVOK 11/M07 Q1014 NOSIG
12-04-16 METAR EDDT 161450Z 32010KT CAVOK 10/M07 Q1014 NOSIG
12-04-16 METAR EDDT 161520Z 32012KT CAVOK 09/M07 Q1015 NOSIG
12-04-16 METAR EDDT 161550Z 33012KT CAVOK 09/M08 Q1015 TEMPO 32015G25KT SHRA
12-04-16 METAR EDDT 161620Z 31011KT CAVOK 09/M09 Q1015 TEMPO 32015G25KT SHRA
12-04-16 METAR EDDT 161650Z 32009KT CAVOK 09/M09 Q1015 TEMPO 32015G25KT SHRA
12-04-16 METAR EDDT 161720Z 33008KT CAVOK 09/M11 Q1015 NOSIG
12-04-16 METAR EDDT 161750Z 32005KT CAVOK 08/M09 Q1015 NOSIG
12-04-16 METAR EDDT 161820Z 31009KT CAVOK 08/M04 Q1015 NOSIG
12-04-16 METAR EDDT 161850Z 31008KT CAVOK 07/M03 Q1016 NOSIG
12-04-16 METAR EDDT 161920Z 31007KT CAVOK 06/M03 Q1016 NOSIG
12-04-16 METAR EDDT 161950Z 31006KT CAVOK 06/M03 Q1016 NOSIG
12-04-16 METAR EDDT 162020Z 30005KT CAVOK 05/M02 Q1016 NOSIG
12-04-16 METAR EDDT 162050Z 28006KT CAVOK 04/M02 Q1016 NOSIG
12-04-16 METAR EDDT 162120Z 29005KT CAVOK 04/M02 Q1016
12-04-16 METAR EDDT 162150Z 28005KT CAVOK 02/M03 Q1016
12-04-16 METAR EDDT 162220Z 28005KT CAVOK 03/M02 Q1016
12-04-16 METAR EDDT 162250Z 29006KT CAVOK 03/M02 Q1016
12-04-16 METAR EDDT 162320Z 28005KT CAVOK 03/M02 Q1016
12-04-16 METAR EDDT 162350Z 28007KT CAVOK 03/M01 Q1016
12-04-17 METAR EDDT 162350Z 28007KT CAVOK 03/M01 Q1016
12-04-17 METAR EDDT 170020Z 28005KT CAVOK 02/M02 Q1016
12-04-17 METAR EDDT 170050Z 29005KT CAVOK 02/M02 Q1016
12-04-17 METAR EDDT 170120Z 28005KT CAVOK 02/M02 Q1016
12-04-17 METAR EDDT 170150Z 28005KT CAVOK 00/M03 Q1016
12-04-17 METAR EDDT 170220Z 27005KT CAVOK 00/M02 Q1015
12-04-17 METAR EDDT 170250Z 27005KT CAVOK 00/M03 Q1015 NOSIG
12-04-17 METAR EDDT 170320Z 27005KT CAVOK M00/M03 Q1015 NOSIG
12-04-17 METAR EDDT 170350Z 26006KT CAVOK M01/M03 Q1015 NOSIG
12-04-17 METAR EDDT 170420Z 26006KT CAVOK M01/M03 Q1015 NOSIG
12-04-17 METAR EDDT 170450Z 26006KT CAVOK M00/M02 Q1015 NOSIG
12-04-17 METAR EDDT 170520Z 26007KT CAVOK 01/M01 Q1015 NOSIG
12-04-17 METAR EDDT 170550Z 26008KT CAVOK 02/M01 Q1015 NOSIG
12-04-17 METAR EDDT 170620Z 26008KT CAVOK 03/M01 Q1015 NOSIG
12-04-17 METAR EDDT 170650Z 26008KT 9999 FEW013 04/M01 Q1015 NOSIG
12-04-17 METAR EDDT 170720Z 26009KT 9999 FEW017 04/M01 Q1014 NOSIG
12-04-17 METAR EDDT 170750Z 28008KT 9999 SCT021 05/M01 Q1014 NOSIG
12-04-17 METAR EDDT 170820Z 28009KT 9999 SCT027 05/M02 Q1014 NOSIG
12-04-17 METAR EDDT 170850Z 27008KT 9999 BKN032 06/M02 Q1014 NOSIG
12-04-17 METAR EDDT 170920Z 28008KT 9999 FEW024 BKN032 06/M04 Q1014 NOSIG
12-04-17 METAR EDDT 170950Z 26007KT 9999 FEW033 BKN038 06/M03 Q1013 NOSIG
12-04-17 METAR EDDT 171020Z 26006KT 9999 FEW038 SCT045 07/M04 Q1013 NOSIG
12-04-17 METAR EDDT 171050Z 27007KT 9999 SCT045 07/M04 Q1012 NOSIG
12-04-17 METAR EDDT 171120Z 23007KT 190V250 CAVOK 08/M05 Q1012 NOSIG
12-04-17 METAR EDDT 171150Z 27012KT CAVOK 09/M04 Q1012 NOSIG
12-04-17 METAR EDDT 171220Z 21008KT CAVOK 09/M05 Q1011 NOSIG
12-04-17 METAR EDDT 171250Z 22008KT CAVOK 10/M05 Q1011 NOSIG
12-04-17 METAR EDDT 171320Z 26010KT CAVOK 09/M07 Q1010 NOSIG
12-04-17 METAR EDDT 171350Z 24009KT CAVOK 10/M06 Q1010 NOSIG
12-04-17 METAR EDDT 171420Z 20008KT CAVOK 10/M08 Q1009 NOSIG
12-04-17 METAR EDDT 171450Z 24005KT CAVOK 10/M06 Q1008 NOSIG
12-04-17 METAR EDDT 171520Z 21011KT CAVOK 10/M07 Q1008 NOSIG
12-04-17 METAR EDDT 171550Z 19009KT CAVOK 10/M06 Q1008 NOSIG
12-04-17 METAR EDDT 171620Z 18010KT CAVOK 10/M06 Q1007 NOSIG
12-04-17 METAR EDDT 171650Z 19008KT CAVOK 09/M07 Q1007 NOSIG
12-04-17 METAR EDDT 171720Z 22008KT CAVOK 09/M06 Q1007 NOSIG
12-04-17 METAR EDDT 171750Z 16008KT CAVOK 09/M06 Q1006 NOSIG
12-04-17 METAR EDDT 171820Z 18006KT CAVOK 09/M06 Q1006 NOSIG
12-04-17 METAR EDDT 171850Z 16006KT CAVOK 08/M05 Q1006 NOSIG
12-04-17 METAR EDDT 171920Z VRB06KT CAVOK 08/M05 Q1006 NOSIG
12-04-17 METAR EDDT 171950Z 13007KT CAVOK 08/M05 Q1006 NOSIG
12-04-17 METAR EDDT 172020Z 13007KT CAVOK 07/M05 Q1006 NOSIG
12-04-17 METAR EDDT 172050Z 13008KT CAVOK 07/M05 Q1005 NOSIG
12-04-17 METAR EDDT 172120Z 13008KT CAVOK 07/M05 Q1005
12-04-17 METAR EDDT 172150Z 13010KT CAVOK 07/M05 Q1005
12-04-17 METAR EDDT 172220Z 13009KT CAVOK 07/M05 Q1005
12-04-17 METAR EDDT 172250Z 14008KT CAVOK 06/M05 Q1004
12-04-17 METAR EDDT 172320Z 14009KT CAVOK 06/M04 Q1004
12-04-17 METAR EDDT 172350Z 14009KT CAVOK 06/M04 Q1004
12-04-18 METAR EDDT 172350Z 14009KT CAVOK 06/M04 Q1004
12-04-18 METAR EDDT 180020Z 15009KT CAVOK 05/M04 Q1003
12-04-18 METAR EDDT 180050Z 14008KT CAVOK 05/M03 Q1003
12-04-18 METAR EDDT 180120Z 14008KT CAVOK 05/M03 Q1003
12-04-18 METAR EDDT 180150Z 15007KT CAVOK 04/M04 Q1003
12-04-18 METAR EDDT 180220Z 14007KT CAVOK 04/M03 Q1002
12-04-18 METAR EDDT 180250Z 14007KT CAVOK 04/M03 Q1002 NOSIG
12-04-18 METAR EDDT 180320Z 13007KT CAVOK 04/M03 Q1002 NOSIG
12-04-18 METAR EDDT 180350Z 14007KT CAVOK 04/M03 Q1001 NOSIG
12-04-18 METAR EDDT 180420Z 14008KT CAVOK 04/M03 Q1001 NOSIG
12-04-18 METAR EDDT 180450Z 14008KT CAVOK 04/M03 Q1001 NOSIG
12-04-18 METAR EDDT 180520Z 13009KT CAVOK 05/M03 Q1001 NOSIG
12-04-18 METAR EDDT 180550Z 13009KT CAVOK 05/M03 Q1001 NOSIG
12-04-18 METAR EDDT 180620Z 14008KT CAVOK 07/M03 Q1001 NOSIG
12-04-18 METAR EDDT 180650Z 15008KT CAVOK 07/M02 Q1001 NOSIG
12-04-18 METAR EDDT 180720Z 14008KT CAVOK 08/M03 Q1001 NOSIG
12-04-18 METAR EDDT 180750Z 16008KT CAVOK 09/M02 Q1001 NOSIG
12-04-18 METAR EDDT 180820Z 13009KT CAVOK 09/M02 Q1001 NOSIG
12-04-18 METAR EDDT 180850Z 14008KT CAVOK 10/M01 Q1001 NOSIG
12-04-18 METAR EDDT 180920Z 14010KT CAVOK 11/M02 Q1000 NOSIG
12-04-18 METAR EDDT 180950Z 14009G20KT 120V180 CAVOK 11/M02 Q1000 NOSIG
12-04-18 METAR EDDT 181020Z 14011KT CAVOK 12/M02 Q1000 NOSIG
12-04-18 METAR EDDT 181050Z 14011KT 9999 FEW030 SCT100 BKN260 12/M02 Q0999 NOSIG
12-04-18 METAR EDDT 181120Z 16014KT CAVOK 12/M03 Q0999 NOSIG
12-04-18 METAR EDDT 181150Z 13012KT CAVOK 13/M03 Q0999 NOSIG
12-04-18 METAR EDDT 181220Z 15010KT CAVOK 13/M04 Q0999 NOSIG
12-04-18 METAR EDDT 181250Z 13013KT CAVOK 13/M03 Q0998 NOSIG
12-04-18 METAR EDDT 181320Z 17010KT CAVOK 13/M03 Q0998 NOSIG
12-04-18 METAR EDDT 181350Z 15007KT CAVOK 13/M04 Q0998 NOSIG
12-04-18 METAR EDDT 181420Z 14009KT CAVOK 13/M03 Q0998 NOSIG
12-04-18 METAR EDDT 181450Z 14010KT CAVOK 13/M04 Q0998 NOSIG
12-04-18 METAR EDDT 181520Z 14009KT CAVOK 13/M04 Q0997 NOSIG
12-04-18 METAR EDDT 181550Z 13010KT CAVOK 13/M03 Q0997 NOSIG
12-04-18 METAR EDDT 181620Z 13010KT CAVOK 12/M03 Q0997 NOSIG
12-04-18 METAR EDDT 181650Z 14009KT CAVOK 12/M04 Q0997 NOSIG
12-04-18 METAR EDDT 181720Z 13009KT CAVOK 12/M04 Q0997 NOSIG
12-04-18 METAR EDDT 181750Z 13008KT CAVOK 12/M04 Q0997 NOSIG
12-04-18 METAR EDDT 181820Z 13009KT CAVOK 12/M04 Q0997 NOSIG
12-04-18 METAR EDDT 181850Z 12008KT CAVOK 12/M04 Q0997 NOSIG
12-04-18 METAR EDDT 181920Z 11008KT CAVOK 11/M04 Q0997 NOSIG
12-04-18 METAR EDDT 181950Z 11008KT CAVOK 11/M04 Q0997 NOSIG
12-04-18 METAR EDDT 182020Z 11008KT CAVOK 11/M05 Q0997 NOSIG
12-04-18 METAR EDDT 182050Z 11009KT CAVOK 11/M05 Q0996 NOSIG
12-04-18 METAR EDDT 182120Z 11008KT CAVOK 11/M03 Q0996 NOSIG
12-04-18 METAR EDDT 182150Z 11008KT CAVOK 10/M02 Q0997 NOSIG
12-04-18 METAR EDDT 182220Z 11008KT CAVOK 10/M02 Q0997 NOSIG
12-04-18 METAR EDDT 182250Z 11007KT CAVOK 09/M01 Q0997 NOSIG
12-04-18 METAR EDDT 182320Z 11007KT CAVOK 08/M01 Q0996
12-04-18 METAR EDDT 182350Z 12006KT CAVOK 08/M01 Q0996
12-04-19 METAR EDDT 182350Z 12006KT CAVOK 08/M01 Q0996
12-04-19 METAR EDDT 190020Z 12006KT CAVOK 08/M01 Q0996
12-04-19 METAR EDDT 190050Z 12006KT CAVOK 08/M01 Q0996
12-04-19 METAR EDDT 190120Z 11006KT CAVOK 08/M01 Q0996
12-04-19 METAR EDDT 190150Z 11006KT CAVOK 06/M01 Q0996
12-04-19 METAR EDDT 190220Z 11004KT CAVOK 06/M01 Q0996
12-04-19 METAR EDDT 190250Z 09004KT CAVOK 07/M01 Q0996
12-04-19 METAR EDDT 190320Z 09003KT CAVOK 06/M01 Q0996
12-04-19 METAR EDDT 190350Z 11006KT CAVOK 06/M01 Q0996 NOSIG
12-04-19 METAR EDDT 190420Z 11007KT CAVOK 06/M00 Q0996 NOSIG
12-04-19 METAR EDDT 190450Z 10006KT CAVOK 07/00 Q0996 NOSIG
12-04-19 METAR EDDT 190520Z 08005KT CAVOK 07/00 Q0996 NOSIG
12-04-19 METAR EDDT 190550Z 12005KT CAVOK 08/01 Q0996 NOSIG
12-04-19 METAR EDDT 190620Z 10006KT CAVOK 09/01 Q0996 NOSIG
12-04-19 METAR EDDT 190650Z 11008KT CAVOK 10/00 Q0996 NOSIG
12-04-19 METAR EDDT 190720Z 12007KT CAVOK 11/00 Q0996 NOSIG
12-04-19 METAR EDDT 190750Z 12007KT CAVOK 12/M00 Q0996 NOSIG
12-04-19 METAR EDDT 190820Z 12008KT CAVOK 12/M01 Q0996 NOSIG
12-04-19 METAR EDDT 190850Z 12008KT CAVOK 14/M01 Q0996 NOSIG
12-04-19 METAR EDDT 190920Z 13009KT CAVOK 14/M02 Q0996 NOSIG
12-04-19 METAR EDDT 190950Z 12007KT CAVOK 15/00 Q0995 NOSIG
12-04-19 METAR EDDT 191020Z 12009KT CAVOK 16/M01 Q0995 NOSIG
12-04-19 METAR EDDT 191050Z 16009KT CAVOK 16/00 Q0995 NOSIG
12-04-19 METAR EDDT 191120Z 16007KT 100V180 CAVOK 17/M00 Q0995 NOSIG
12-04-19 METAR EDDT 191150Z 16007KT CAVOK 17/M00 Q0995 NOSIG
12-04-19 METAR EDDT 191220Z 13004KT 100V160 CAVOK 17/M00 Q0995 NOSIG
12-04-19 METAR EDDT 191250Z 17006KT CAVOK 16/M01 Q0995 NOSIG
12-04-19 METAR EDDT 191320Z 12006KT CAVOK 17/M01 Q0994 NOSIG
12-04-19 METAR EDDT 191350Z 10007KT 090V150 CAVOK 17/M01 Q0994 NOSIG
12-04-19 METAR EDDT 191420Z 13006KT CAVOK 17/M02 Q0994 NOSIG
12-04-19 METAR EDDT 191450Z 10006KT 080V140 CAVOK 17/M00 Q0994 NOSIG
12-04-19 METAR EDDT 191520Z 11006KT CAVOK 17/M01 Q0994 NOSIG
12-04-19 METAR EDDT 191550Z 16007KT CAVOK 17/M01 Q0994 NOSIG
12-04-19 METAR EDDT 191620Z 12006KT CAVOK 16/M01 Q0994 NOSIG
12-04-19 METAR EDDT 191650Z 14006KT CAVOK 16/M00 Q0994 NOSIG
12-04-19 METAR EDDT 191720Z 16009KT CAVOK 16/M00 Q0994 NOSIG
12-04-19 METAR EDDT 191750Z 21004KT 9999 -RA NSC 15/00 Q0994 NOSIG
12-04-19 METAR EDDT 191820Z VRB02KT CAVOK 15/M00 Q0994 NOSIG
12-04-19 METAR EDDT 191850Z VRB01KT CAVOK 14/00 Q0994 NOSIG
12-04-19 METAR EDDT 191920Z 30001KT CAVOK 13/01 Q0994 NOSIG
12-04-19 METAR EDDT 191950Z 31002KT CAVOK 12/01 Q0994 NOSIG
12-04-19 METAR EDDT 192020Z VRB01KT CAVOK 11/01 Q0994 NOSIG
12-04-19 METAR EDDT 192050Z 35001KT CAVOK 10/01 Q0994 NOSIG
12-04-19 METAR EDDT 192120Z VRB01KT CAVOK 12/02 Q0994
12-04-19 METAR EDDT 192150Z VRB01KT CAVOK 12/02 Q0994
12-04-19 METAR EDDT 192220Z 04003KT CAVOK 12/03 Q0994
12-04-19 METAR EDDT 192250Z 01001KT CAVOK 11/03 Q0994
12-04-19 METAR EDDT 192320Z 04004KT CAVOK 11/03 Q0994
12-04-19 METAR EDDT 192350Z 06004KT CAVOK 11/04 Q0994
12-04-20 METAR EDDT 192350Z 06004KT CAVOK 11/04 Q0994
12-04-20 METAR EDDT 200020Z 07004KT CAVOK 12/04 Q0994
12-04-20 METAR EDDT 200050Z 05002KT CAVOK 11/04 Q0994
12-04-20 METAR EDDT 200120Z 24001KT CAVOK 10/04 Q0994
12-04-20 METAR EDDT 200150Z 31001KT CAVOK 10/04 Q0994
12-04-20 METAR EDDT 200220Z 03002KT CAVOK 10/04 Q0994
12-04-20 METAR EDDT 200250Z 27003KT CAVOK 09/04 Q0993 NOSIG
12-04-20 METAR EDDT 200320Z VRB02KT CAVOK 07/03 Q0994 NOSIG
12-04-20 METAR EDDT 200350Z VRB01KT CAVOK 07/04 Q0994 NOSIG
12-04-20 METAR EDDT 200420Z VRB01KT CAVOK 07/03 Q0994 NOSIG
12-04-20 METAR EDDT 200450Z 07001KT CAVOK 07/05 Q0994 NOSIG
12-04-20 METAR EDDT 200520Z VRB01KT CAVOK 08/05 Q0994 NOSIG
12-04-20 METAR EDDT 200550Z 09001KT CAVOK 09/05 Q0994 NOSIG
12-04-20 METAR EDDT 200620Z 15002KT CAVOK 11/05 Q0994 NOSIG
12-04-20 METAR EDDT 200650Z VRB02KT CAVOK 12/05 Q0994 NOSIG
12-04-20 METAR EDDT 200720Z 22004KT CAVOK 12/04 Q0994 NOSIG
12-04-20 METAR EDDT 200750Z 26002KT CAVOK 14/04 Q0995 NOSIG
12-04-20 METAR EDDT 200820Z VRB02KT CAVOK 14/04 Q0995 NOSIG
12-04-20 METAR EDDT 200850Z VRB03KT CAVOK 15/04 Q0995 NOSIG
12-04-20 METAR EDDT 200920Z VRB02KT CAVOK 16/03 Q0995 NOSIG
12-04-20 METAR EDDT 200950Z VRB03KT 9999 SCT048 16/04 Q0995 NOSIG
12-04-20 METAR EDDT 201020Z 29005KT 9999 BKN046 15/04 Q0995 NOSIG
12-04-20 METAR EDDT 201050Z 00000KT 9999 SCT046CB BKN050 16/03 Q0995 TEMPO 24015KT -TSRA
12-04-20 METAR EDDT 201120Z VRB02KT 9999 SCT040CB SCT060 16/03 Q0995 TEMPO 24015KT
12-04-20 METAR EDDT 201150Z 29006KT 9999 SCT045CB 17/03 Q0995 TEMPO 24015KT -TSRA
12-04-20 METAR EDDT 201220Z 27007KT 9999 SCT046CB 17/04 Q0995 TEMPO 24015G25KT
12-04-20 METAR EDDT 201350Z 22006KT 180V250 9999 -SHRA SCT046CB SCT060 BKN130 13/06 Q0996 RETS TEMPO SHRA
12-04-20 METAR EDDT 201420Z 15007KT 9999 FEW050CB SCT200 14/06 Q0996 TEMPO SHRA
12-04-20 METAR EDDT 201450Z 20004KT 160V220 9999 FEW050CB SCT200 15/05 Q0996 TEMPO SHRA
12-04-20 METAR EDDT 201520Z 26006KT CAVOK 15/04 Q0996 NOSIG
12-04-20 METAR EDDT 201550Z 25008KT CAVOK 16/04 Q0996 NOSIG
12-04-20 METAR EDDT 201620Z 23008KT CAVOK 15/03 Q0996 NOSIG
12-04-20 METAR EDDT 201650Z 26008KT 210V270 CAVOK 15/04 Q0997 NOSIG
12-04-20 METAR EDDT 201720Z 29006KT 9999 -SHRA SCT040 BKN070 14/05 Q0997 NOSIG
12-04-20 METAR EDDT 201750Z 32002KT 9999 SCT035 SCT070 BKN100 14/05 Q0997 NOSIG
12-04-20 METAR EDDT 201820Z 29002KT 9999 FEW035 BKN060 14/05 Q0997 NOSIG
12-04-20 METAR EDDT 201850Z VRB01KT 9999 FEW035 BKN070 13/05 Q0998 NOSIG
12-04-20 METAR EDDT 201920Z 21004KT 9999 FEW035 BKN070 13/04 Q0998 NOSIG
12-04-20 METAR EDDT 201950Z 21006KT 9999 FEW040 SCT060 13/03 Q0998 NOSIG
12-04-20 METAR EDDT 202020Z 26007KT 9999 FEW040 BKN080 11/05 Q0999 NOSIG
12-04-20 METAR EDDT 202050Z VRB02KT 9999 -RA NSC 12/04 Q0998 NOSIG
12-04-20 METAR EDDT 202120Z 24002KT CAVOK 11/04 Q0999
12-04-20 METAR EDDT 202150Z 19003KT CAVOK 10/04 Q0999
12-04-20 METAR EDDT 202220Z VRB02KT CAVOK 09/04 Q0999
12-04-20 METAR EDDT 202250Z 22002KT CAVOK 09/04 Q0999
12-04-20 METAR EDDT 202320Z 00000KT CAVOK 08/04 Q0999
12-04-20 METAR EDDT 202350Z 00000KT CAVOK 07/03 Q0999
12-04-21 METAR EDDT 202350Z 00000KT CAVOK 07/03 Q0999
12-04-21 METAR EDDT 210020Z 20003KT CAVOK 07/04 Q0999
12-04-21 METAR EDDT 210050Z 18002KT CAVOK 07/04 Q0999
12-04-21 METAR EDDT 210120Z 13001KT CAVOK 07/04 Q0999
12-04-21 METAR EDDT 210150Z 19002KT CAVOK 06/03 Q0999
12-04-21 METAR EDDT 210220Z 21002KT CAVOK 06/04 Q0999
12-04-21 METAR EDDT 210250Z 14002KT CAVOK 06/03 Q1000 NOSIG
12-04-21 METAR EDDT 210320Z 20003KT CAVOK 06/03 Q1000 NOSIG
12-04-21 METAR EDDT 210350Z 14002KT CAVOK 06/04 Q1000 NOSIG
12-04-21 METAR EDDT 210420Z 17002KT CAVOK 06/04 Q1000 NOSIG
12-04-21 METAR EDDT 210450Z 20004KT CAVOK 05/03 Q1000 NOSIG
12-04-21 METAR EDDT 210520Z 18004KT CAVOK 07/04 Q1000 NOSIG
12-04-21 METAR EDDT 210550Z 21004KT CAVOK 08/04 Q1001 NOSIG
12-04-21 METAR EDDT 210620Z 21006KT CAVOK 09/04 Q1001 NOSIG
12-04-21 METAR EDDT 210650Z 25007KT CAVOK 10/04 Q1001 NOSIG
12-04-21 METAR EDDT 210720Z 25007KT CAVOK 11/04 Q1001 NOSIG
12-04-21 METAR EDDT 210750Z 22007KT CAVOK 12/04 Q1001 NOSIG
12-04-21 METAR EDDT 210820Z 23007KT CAVOK 13/05 Q1001 NOSIG
12-04-21 METAR EDDT 210850Z 23008KT 9999 FEW035 SCT270 13/03 Q1001 NOSIG
12-04-21 METAR EDDT 210920Z 23006KT 9999 FEW035 SCT270 14/03 Q1001 NOSIG
12-04-21 METAR EDDT 210950Z 21007KT 9999 FEW040 SCT270 15/02 Q1001 NOSIG
12-04-21 METAR EDDT 211020Z 19010KT 9999 FEW042 SCT270 15/02 Q1001 NOSIG
12-04-21 METAR EDDT 211050Z 20011KT 9999 SCT045 SCT270 15/02 Q1001 NOSIG
12-04-21 METAR EDDT 211120Z 22006KT 160V250 9999 SCT045 SCT270 15/01 Q1001 NOSIG
12-04-21 METAR EDDT 211150Z 18010KT 9999 SCT045 SCT270 15/00 Q1001 NOSIG
12-04-21 METAR EDDT 211220Z 18007KT 9999 SCT045 SCT270 16/01 Q1001 TEMPO 23015G25KT SHRA
12-04-21 METAR EDDT 211250Z 21008KT 9999 FEW037 BKN047 15/M01 Q1001 TEMPO 23015G25KT
12-04-21 METAR EDDT 211320Z NIL
12-04-21 METAR EDDT 211320Z AUTO 23013KT //// // /// 14/02 Q1001
12-04-21 METAR EDDT 211350Z 19010KT 9999 FEW033 SCT070 15/00 Q1001 TEMPO 23015G25KT
12-04-21 METAR EDDT 211420Z 20012KT 9999 FEW035 SCT070 15/01 Q1001 NOSIG
12-04-21 METAR EDDT 211450Z 20013KT 9999 FEW040 SCT050 16/01 Q1001 NOSIG
12-04-21 METAR EDDT 211520Z 19011KT 9999 FEW040 SCT060 16/02 Q1001 TEMPO 23015G25KT
12-04-21 METAR EDDT 211550Z 18012KT 9999 -SHRA FEW032 SCT060 15/02 Q1000 TEMPO
12-04-21 METAR EDDT 211620Z 15007KT 9999 FEW033 BKN270 13/06 Q1001 NOSIG
12-04-21 METAR EDDT 211650Z 16009KT 9999 FEW030 FEW035CB BKN270 13/04 Q1001 NOSIG
12-04-21 METAR EDDT 211720Z 15007KT 010V150 CAVOK 13/03 Q1001 NOSIG
12-04-21 METAR EDDT 211750Z 16006KT CAVOK 13/04 Q1001 NOSIG
12-04-21 METAR EDDT 211820Z 17007KT 9999 FEW040 BKN130 13/04 Q1001 NOSIG
12-04-21 METAR EDDT 211850Z 18005KT 9999 FEW040 BKN150 13/03 Q1001 NOSIG
12-04-21 METAR EDDT 211920Z 21008KT CAVOK 12/03 Q1001 NOSIG
12-04-21 METAR EDDT 211950Z 21005KT CAVOK 11/03 Q1001 NOSIG
12-04-21 METAR EDDT 212020Z 17005KT CAVOK 11/03 Q1001 NOSIG
12-04-21 METAR EDDT 212050Z 19004KT CAVOK 11/03 Q1001 NOSIG
12-04-21 METAR EDDT 212120Z 18006KT CAVOK 10/03 Q1001
12-04-21 METAR EDDT 212150Z 19005KT CAVOK 10/03 Q1002
12-04-21 METAR EDDT 212220Z 18005KT CAVOK 09/04 Q1002
12-04-21 METAR EDDT 212250Z 21005KT CAVOK 09/04 Q1002
12-04-21 METAR EDDT 212320Z 21006KT CAVOK 09/04 Q1002
12-04-21 METAR EDDT 212350Z 20005KT CAVOK 09/04 Q1002
12-04-22 METAR EDDT 212350Z 20005KT CAVOK 09/04 Q1002
12-04-22 METAR EDDT 220020Z 19005KT CAVOK 09/04 Q1002
12-04-22 METAR EDDT 220050Z 21005KT CAVOK 09/04 Q1002
12-04-22 METAR EDDT 220120Z 21006KT CAVOK 09/04 Q1002
12-04-22 METAR EDDT 220150Z 20008KT CAVOK 09/04 Q1002
12-04-22 METAR EDDT 220220Z 21007KT CAVOK 09/04 Q1002
12-04-22 METAR EDDT 220250Z 21006KT 9999 -RA NSC 08/04 Q1002 TEMPO RA
12-04-22 METAR EDDT 220320Z 20005KT 9999 -RA SCT026 OVC130 08/05 Q1002 TEMPO RA
12-04-22 METAR EDDT 220350Z 20006KT 9999 -RA FEW035 OVC130 08/05 Q1002 NOSIG
12-04-22 METAR EDDT 220420Z 20006KT 9999 -RA FEW013 BKN024 BKN035 08/05 Q1003 NOSIG
12-04-22 METAR EDDT 220450Z 20005KT 9999 -RA SCT012 BKN025 07/05 Q1003 NOSIG
12-04-22 METAR EDDT 220520Z 23008KT 9999 -RA SCT012 BKN030 08/06 Q1003 TEMPO BKN012
12-04-22 METAR EDDT 220550Z 25008KT 9999 -RA SCT009 SCT012 BKN030 08/06 Q1003 TEMPO BKN012
12-04-22 METAR EDDT 220620Z 26007KT 9999 FEW010 SCT023 BKN033 08/06 Q1004 NOSIG
12-04-22 METAR EDDT 220650Z 26007KT 9999 -RA FEW010 SCT025 BKN034 08/06 Q1004 NOSIG
12-04-22 METAR EDDT 220720Z 24005KT 9999 FEW012 SCT020 09/06 Q1004 NOSIG
12-04-22 METAR EDDT 220750Z 25009KT 9999 BKN017 SCT042 09/05 Q1004 NOSIG
12-04-22 METAR EDDT 220820Z 25011KT 9999 -RA SCT017 SCT026 BKN042 09/05 Q1004 NOSIG
12-04-22 METAR EDDT 220850Z 27011KT 9999 SCT025 SCT050 10/05 Q1005 NOSIG
12-04-22 METAR EDDT 220920Z 27011KT 9999 -RA FEW020 SCT025 10/04 Q1005 NOSIG
12-04-22 METAR EDDT 220950Z 27009KT 9999 FEW029 SCT038 10/03 Q1005 NOSIG
12-04-22 METAR EDDT 221020Z 28009KT 9999 FEW025 SCT038 11/03 Q1005 NOSIG
12-04-22 METAR EDDT 221050Z 27007KT 250V320 9999 FEW025 SCT038 12/03 Q1005 NOSIG
12-04-22 METAR EDDT 221120Z 24013KT 9999 SCT040 SCT070 12/01 Q1005 NOSIG
12-04-22 METAR EDDT 221150Z 25015KT 9999 SCT045 SCT070 13/01 Q1005 NOSIG
12-04-22 METAR EDDT 221220Z 26012KT 9999 FEW030 SCT060 12/01 Q1005 NOSIG
12-04-22 METAR EDDT 221250Z 24012KT 9999 FEW043 SCT065 13/01 Q1006 NOSIG
12-04-22 METAR EDDT 221320Z 25011KT 9999 SCT045 SCT065 12/02 Q1006 NOSIG
12-04-22 METAR EDDT 221350Z 24009KT 9999 FEW045 13/02 Q1006 NOSIG
12-04-22 METAR EDDT 221420Z 24009KT 9999 FEW045CB 14/02 Q1006 NOSIG
12-04-22 METAR EDDT 221450Z 23010KT 9999 FEW046CB 13/01 Q1006 NOSIG
12-04-22 METAR EDDT 221520Z 26013KT 9999 SCT048CB 14/01 Q1005 NOSIG
12-04-22 METAR EDDT 221550Z 24010KT 9999 SCT048CB SCT260 13/01 Q1005 NOSIG
12-04-22 METAR EDDT 221620Z 22010KT 9999 SCT048CB SCT260 13/02 Q1005 NOSIG
12-04-22 METAR EDDT 221650Z 21008KT 9999 SCT048 12/02 Q1006 NOSIG
12-04-22 METAR EDDT 221720Z 25012KT 9999 FEW048 12/02 Q1006 NOSIG
12-04-22 METAR EDDT 221750Z 27008KT 9999 FEW048 10/03 Q1006 NOSIG
12-04-22 METAR EDDT 221820Z 25007KT 9999 FEW048 09/02 Q1006 NOSIG
12-04-22 METAR EDDT 221850Z 24005KT CAVOK 09/02 Q1006 NOSIG
12-04-22 METAR EDDT 221920Z 25008KT CAVOK 09/02 Q1007 NOSIG
12-04-22 METAR EDDT 221950Z 27004KT CAVOK 08/02 Q1007 NOSIG
12-04-22 METAR EDDT 222020Z 24004KT CAVOK 08/02 Q1007 NOSIG
12-04-22 METAR EDDT 222050Z 21004KT CAVOK 08/02 Q1007 NOSIG
12-04-22 METAR EDDT 222120Z 23003KT CAVOK 07/01 Q1007
12-04-22 METAR EDDT 222150Z 20003KT CAVOK 07/02 Q1007
12-04-22 METAR EDDT 222220Z 22004KT CAVOK 06/02 Q1007
12-04-22 METAR EDDT 222250Z 25009KT CAVOK 07/02 Q1007
12-04-22 METAR EDDT 222320Z VRB03KT CAVOK 06/02 Q1007
12-04-22 METAR EDDT 222350Z 18003KT CAVOK 06/02 Q1007
12-04-23 METAR EDDT 222350Z 18003KT CAVOK 06/02 Q1007
12-04-23 METAR EDDT 230020Z VRB02KT CAVOK 06/02 Q1007
12-04-23 METAR EDDT 230050Z 18002KT CAVOK 06/02 Q1006
12-04-23 METAR EDDT 230120Z 17004KT CAVOK 06/02 Q1006
12-04-23 METAR EDDT 230150Z 19003KT CAVOK 05/02 Q1006
12-04-23 METAR EDDT 230220Z 19002KT CAVOK 05/02 Q1006
12-04-23 METAR EDDT 230250Z VRB01KT CAVOK 05/02 Q1006 NOSIG
12-04-23 METAR EDDT 230320Z 19006KT CAVOK 05/02 Q1006 NOSIG
12-04-23 METAR EDDT 230350Z 19004KT CAVOK 05/02 Q1006 NOSIG
12-04-23 METAR EDDT 230420Z 19004KT CAVOK 05/02 Q1006 NOSIG
12-04-23 METAR EDDT 230450Z 20006KT CAVOK 06/02 Q1006 NOSIG
12-04-23 METAR EDDT 230520Z 20006KT CAVOK 07/03 Q1006 NOSIG
12-04-23 METAR EDDT 230550Z 20007KT CAVOK 07/03 Q1006 NOSIG
12-04-23 METAR EDDT 230620Z 21007KT CAVOK 08/03 Q1006 NOSIG
12-04-23 METAR EDDT 230720Z 22008KT CAVOK 09/03 Q1006 NOSIG
12-04-23 METAR EDDT 230750Z 21010KT 9999 FEW028 BKN090 10/03 Q1006 NOSIG
12-04-23 METAR EDDT 230820Z 24010KT 9999 FEW028 SCT100 10/03 Q1006 NOSIG
12-04-23 METAR EDDT 230850Z 24008KT 9999 SCT030 11/04 Q1006 NOSIG
12-04-23 METAR EDDT 230920Z 24010KT 9999 BKN035 11/03 Q1006 NOSIG
12-04-23 METAR EDDT 230950Z 24009KT 9999 BKN040 SCT060 11/03 Q1006 NOSIG
12-04-23 METAR EDDT 231020Z 23010KT 9999 BKN040 SCT060 12/03 Q1006 NOSIG
12-04-23 METAR EDDT 231050Z 23009KT 9999 -SHRA BKN040 SCT060 12/02 Q1005 NOSIG
12-04-23 METAR EDDT 231120Z 23010KT 9999 BKN044 SCT070 14/04 Q1005 NOSIG
12-04-23 METAR EDDT 231150Z 23010KT CAVOK 13/01 Q1005 NOSIG
12-04-23 METAR EDDT 231220Z 21008KT CAVOK 14/M01 Q1005 NOSIG
12-04-23 METAR EDDT 231250Z 24009KT CAVOK 14/00 Q1005 NOSIG
12-04-23 METAR EDDT 231320Z 26008KT CAVOK 14/M01 Q1004 NOSIG
12-04-23 METAR EDDT 231350Z 25008KT CAVOK 15/M00 Q1004 NOSIG
12-04-23 METAR EDDT 231420Z 22011KT CAVOK 14/M01 Q1004 NOSIG
12-04-23 METAR EDDT 231450Z 20008KT CAVOK 14/M02 Q1004 NOSIG
12-04-23 METAR EDDT 231520Z 24010KT CAVOK 15/M01 Q1003 NOSIG
12-04-23 METAR EDDT 231550Z 25009KT CAVOK 15/M00 Q1003 NOSIG
12-04-23 METAR EDDT 231620Z 22007KT CAVOK 14/M02 Q1003 NOSIG
12-04-23 METAR EDDT 231650Z 22007KT CAVOK 14/M02 Q1003 NOSIG
12-04-23 METAR EDDT 231720Z 19007KT CAVOK 14/M02 Q1003 NOSIG
12-04-23 METAR EDDT 231750Z 14009G24KT 130V210 CAVOK 12/02 Q1003 NOSIG
12-04-23 METAR EDDT 231820Z 15007KT CAVOK 12/02 Q1003 NOSIG
12-04-23 METAR EDDT 231850Z 13008KT CAVOK 11/02 Q1003 NOSIG
12-04-23 METAR EDDT 231920Z 13007KT CAVOK 11/03 Q1003 NOSIG
12-04-23 METAR EDDT 231950Z 12007KT CAVOK 10/03 Q1003 NOSIG
12-04-23 METAR EDDT 232020Z 13007KT CAVOK 10/03 Q1003 NOSIG
12-04-23 METAR EDDT 232050Z 14007KT CAVOK 10/03 Q1003 NOSIG
12-04-23 METAR EDDT 232120Z 14005KT CAVOK 10/03 Q1003
12-04-23 METAR EDDT 232150Z 13004KT CAVOK 09/02 Q1003
12-04-23 METAR EDDT 232220Z 13006KT CAVOK 08/02 Q1003
12-04-23 METAR EDDT 232250Z 13006KT CAVOK 09/02 Q1003
12-04-23 METAR EDDT 232320Z 11005KT CAVOK 08/02 Q1002
12-04-23 METAR EDDT 232350Z 12006KT CAVOK 07/02 Q1002
12-04-24 METAR EDDT 232350Z 12006KT CAVOK 07/02 Q1002
12-04-24 METAR EDDT 240020Z 11005KT CAVOK 08/03 Q1002
12-04-24 METAR EDDT 240050Z 11005KT CAVOK 08/03 Q1002
12-04-24 METAR EDDT 240120Z 11005KT CAVOK 09/03 Q1001
12-04-24 METAR EDDT 240150Z 11007KT CAVOK 08/02 Q1001
12-04-24 METAR EDDT 240220Z 10006KT CAVOK 08/02 Q1001
12-04-24 METAR EDDT 240250Z 09006KT CAVOK 08/02 Q1000 NOSIG
12-04-24 METAR EDDT 240320Z 10004KT CAVOK 08/02 Q1001 NOSIG
12-04-24 METAR EDDT 240350Z 11006KT CAVOK 08/02 Q1001 NOSIG
12-04-24 METAR EDDT 240420Z 08008KT CAVOK 08/02 Q1000 NOSIG
12-04-24 METAR EDDT 240450Z 08006KT CAVOK 08/02 Q1000 NOSIG
12-04-24 METAR EDDT 240520Z 10008KT CAVOK 10/02 Q0999 NOSIG
12-04-24 METAR EDDT 240550Z 11008KT CAVOK 10/02 Q0999 NOSIG
12-04-24 METAR EDDT 240620Z 11009KT CAVOK 10/03 Q0999 NOSIG
12-04-24 METAR EDDT 240650Z 12009KT CAVOK 11/03 Q0999 NOSIG
12-04-24 METAR EDDT 240720Z 12008KT CAVOK 12/04 Q0999 NOSIG
12-04-24 METAR EDDT 240750Z 11008KT CAVOK 14/03 Q0998 NOSIG
12-04-24 METAR EDDT 240820Z 11010KT CAVOK 14/03 Q0998 NOSIG
12-04-24 METAR EDDT 240850Z 12010KT CAVOK 15/05 Q0998 NOSIG
12-04-24 METAR EDDT 240920Z 15011KT 9999 FEW040 16/05 Q0998 NOSIG
12-04-24 METAR EDDT 240950Z 13010KT CAVOK 17/03 Q0998 NOSIG
12-04-24 METAR EDDT 241020Z 12011KT CAVOK 18/03 Q0998 NOSIG
12-04-24 METAR EDDT 241050Z 13012KT CAVOK 18/03 Q0998 NOSIG
12-04-24 METAR EDDT 241120Z 14007KT 110V170 CAVOK 17/02 Q0997 NOSIG
12-04-24 METAR EDDT 241150Z 13008KT CAVOK 17/03 Q0997 NOSIG
12-04-24 METAR EDDT 241220Z 15006KT CAVOK 17/02 Q0997 NOSIG
12-04-24 METAR EDDT 241250Z 15009KT CAVOK 17/02 Q0997 NOSIG
12-04-24 METAR EDDT 241320Z 17007KT CAVOK 17/02 Q0997 NOSIG
12-04-24 METAR EDDT 241350Z 21007KT 160V240 CAVOK 17/03 Q0997 NOSIG
12-04-24 METAR EDDT 241420Z 26006KT 120V270 CAVOK 17/04 Q0997 NOSIG
12-04-24 METAR EDDT 241450Z 27009KT 9999 VCSH FEW050CB BKN130 16/04 Q0997 TEMPO SHRA
12-04-24 METAR EDDT 241520Z 28009KT 9999 FEW050CB BKN130 15/05 Q0997 TEMPO SHRA
12-04-24 METAR EDDT 241550Z 31006KT 9999 FEW050CB BKN090 14/05 Q0997 TEMPO SHRA
12-04-24 METAR EDDT 241620Z 32005KT 9999 VCSH FEW050CB BKN060 14/04 Q0997 TEMPO
12-04-24 METAR EDDT 241650Z 24013KT 9999 RA FEW028 OVC050 12/07 Q0998 TEMPO NSW
12-04-24 METAR EDDT 241720Z 26008KT 7000 RA SCT032 OVC040 11/07 Q0998 TEMPO NSW
12-04-24 METAR EDDT 241750Z VRB03KT 9999 -RA FEW012 SCT024 OVC054 10/08 Q0998 RERA TEMPO RA
12-04-24 METAR EDDT 241820Z VRB02KT 7000 RA SCT030 OVC048 10/08 Q0998 TEMPO NSW BKN012
12-04-24 METAR EDDT 241850Z 25003KT 9999 RA FEW005 SCT036 OVC052 10/08 Q0998 TEMPO NSW BKN012
12-04-24 METAR EDDT 241920Z 25004KT 220V280 9999 RA FEW005 SCT029 OVC040 10/08 Q0998 TEMPO NSW BKN012
12-04-24 METAR EDDT 241950Z VRB01KT 6000 RA FEW005 SCT029 OVC040 10/08 Q0998 TEMPO
12-04-24 METAR EDDT 242020Z 05008KT 9000 RA FEW015 BKN036 BKN120 10/08 Q0997 TEMPO
12-04-24 METAR EDDT 242050Z 03004KT 9999 FEW040 BKN120 10/08 Q0997 RERA NOSIG
12-04-24 METAR EDDT 242120Z VRB02KT CAVOK 10/08 Q0998
12-04-24 METAR EDDT 242150Z VRB02KT 9999 -RA NSC 10/08 Q0997
12-04-24 METAR EDDT 242220Z 28003KT 9999 -RA NSC 09/08 Q0997
12-04-24 METAR EDDT 242250Z 29002KT CAVOK 09/08 Q0997
12-04-24 METAR EDDT 242320Z 30001KT 9999 SCT046 BKN054 09/08 Q0998
12-04-24 METAR EDDT 242350Z 00000KT 9999 -RA BKN038 09/08 Q0998
12-04-25 METAR EDDT 242350Z 00000KT 9999 -RA BKN038 09/08 Q0998
12-04-25 METAR EDDT 250020Z 14002KT 9999 BKN046 BKN052 09/08 Q0998
12-04-25 METAR EDDT 250050Z VRB02KT 9999 FEW046 BKN054 09/08 Q0998
12-04-25 METAR EDDT 250120Z 26002KT 9999 BKN042 BKN120 09/08 Q0998
12-04-25 METAR EDDT 250150Z 25003KT 9999 FEW042 BKN074 09/08 Q0998
12-04-25 METAR EDDT 250220Z 24003KT CAVOK 09/08 Q0998
12-04-25 METAR EDDT 250250Z 26009KT CAVOK 08/06 Q0998 NOSIG
12-04-25 METAR EDDT 250320Z 26009KT CAVOK 08/06 Q0998 NOSIG
12-04-25 METAR EDDT 250350Z 25010KT CAVOK 08/06 Q0999 NOSIG
12-04-25 METAR EDDT 250420Z 26011KT CAVOK 08/05 Q0999 NOSIG
12-04-25 METAR EDDT 250450Z 26011KT CAVOK 08/05 Q0999 NOSIG
12-04-25 METAR EDDT 250520Z 26011KT 9999 SCT045 BKN110 08/06 Q1000 NOSIG
12-04-25 METAR EDDT 250550Z 25012KT CAVOK 08/06 Q1000 NOSIG
12-04-25 METAR EDDT 250620Z 25013KT 9999 SCT042 SCT100 09/06 Q1000 NOSIG
12-04-25 METAR EDDT 250650Z 25015KT 9999 FEW017 BKN048 09/06 Q1001 NOSIG
12-04-25 METAR EDDT 250720Z 26014KT 9999 FEW018 BKN050 10/06 Q1001 NOSIG
12-04-25 METAR EDDT 250750Z 26014KT 9999 FEW018 BKN060 10/06 Q1001 NOSIG
12-04-25 METAR EDDT 250820Z 25015KT 9999 FEW020 SCT060 12/07 Q1002 NOSIG
12-04-25 METAR EDDT 250850Z 27014KT 9999 BKN025 BKN050 12/06 Q1002 NOSIG
12-04-25 METAR EDDT 250920Z 27015KT 9999 BKN030 SCT060 12/06 Q1003 NOSIG
12-04-25 METAR EDDT 250950Z 27013KT 9999 BKN030 13/06 Q1003 TEMPO 24015G25KT SHRA
12-04-25 METAR EDDT 251020Z 25014KT 9999 BKN033 BKN060 13/04 Q1003 TEMPO 24015G25KT SHRA
12-04-25 METAR EDDT 251050Z 24011KT 9999 SCT030 BKN050 13/05 Q1003 TEMPO 24015G25KT
12-04-25 METAR EDDT 251120Z 26010KT 9999 SCT030 BKN060 13/04 Q1004 TEMPO 24015G25KT
12-04-25 METAR EDDT 251150Z 24010KT 9999 SCT030 BKN050 14/05 Q1004 NOSIG
12-04-25 METAR EDDT 251220Z 22011KT 9999 SCT030 BKN060 13/05 Q1004 NOSIG
12-04-25 METAR EDDT 251250Z 24010KT 9999 BKN030 14/04 Q1004 NOSIG
12-04-25 METAR EDDT 251320Z 23009KT 9999 SCT035 SCT060 15/06 Q1004 NOSIG
12-04-25 METAR EDDT 251350Z 22011KT 9999 SCT040 SCT070 15/05 Q1004 NOSIG
12-04-25 METAR EDDT 251420Z 22009KT 9999 SCT045 15/04 Q1004 NOSIG
12-04-25 METAR EDDT 251450Z 22008KT 9999 SCT045 16/04 Q1004 NOSIG
12-04-25 METAR EDDT 251520Z 20009KT CAVOK 15/03 Q1004 NOSIG
12-04-25 METAR EDDT 251550Z 22011KT CAVOK 15/02 Q1004 NOSIG
12-04-25 METAR EDDT 251620Z 21012KT CAVOK 15/01 Q1004 NOSIG
12-04-25 METAR EDDT 251650Z 22011KT CAVOK 15/M01 Q1004 NOSIG
12-04-25 METAR EDDT 251720Z 21007KT CAVOK 15/01 Q1004 NOSIG
12-04-25 METAR EDDT 251750Z 20008KT CAVOK 15/01 Q1004 NOSIG
12-04-25 METAR EDDT 251820Z 19007KT CAVOK 15/01 Q1004 NOSIG
12-04-25 METAR EDDT 251850Z 18006KT CAVOK 14/02 Q1005 NOSIG
12-04-25 METAR EDDT 251920Z 17006KT CAVOK 13/02 Q1005 NOSIG
12-04-25 METAR EDDT 251950Z 15006KT CAVOK 13/02 Q1005 NOSIG
12-04-25 METAR EDDT 252020Z 15006KT CAVOK 13/03 Q1005 NOSIG
12-04-25 METAR EDDT 252050Z 15006KT CAVOK 13/03 Q1005 NOSIG
12-04-25 METAR EDDT 252120Z 14006KT 140V270 CAVOK 13/03 Q1005
12-04-25 METAR EDDT 252150Z 14007KT CAVOK 13/03 Q1005
12-04-25 METAR EDDT 252220Z 14007KT CAVOK 13/03 Q1005
12-04-25 METAR EDDT 252250Z 14007KT CAVOK 13/03 Q1005
12-04-25 METAR EDDT 252320Z 14008KT CAVOK 13/03 Q1005
12-04-25 METAR EDDT 252350Z 15008KT CAVOK 12/03 Q1005
12-04-26 METAR EDDT 252350Z 15008KT CAVOK 12/03 Q1005
12-04-26 METAR EDDT 260020Z 16006KT CAVOK 12/03 Q1005
12-04-26 METAR EDDT 260050Z 16007KT CAVOK 12/03 Q1005
12-04-26 METAR EDDT 260120Z 16006KT CAVOK 12/03 Q1004
12-04-26 METAR EDDT 260150Z 16009KT CAVOK 12/03 Q1005
12-04-26 METAR EDDT 260220Z 15006KT CAVOK 12/03 Q1004
12-04-26 METAR EDDT 260250Z 15005KT CAVOK 12/03 Q1005 NOSIG
12-04-26 METAR EDDT 260320Z 14004KT CAVOK 12/03 Q1005 NOSIG
12-04-26 METAR EDDT 260350Z 15007KT CAVOK 11/03 Q1005 NOSIG
12-04-26 METAR EDDT 260420Z 13005KT CAVOK 11/03 Q1005 NOSIG
12-04-26 METAR EDDT 260450Z 14006KT CAVOK 12/03 Q1005 NOSIG
12-04-26 METAR EDDT 260520Z 13006KT CAVOK 12/03 Q1005 NOSIG
12-04-26 METAR EDDT 260550Z 13007KT CAVOK 12/03 Q1005 NOSIG
12-04-26 METAR EDDT 260620Z 14009KT CAVOK 13/03 Q1005 NOSIG
12-04-26 METAR EDDT 260650Z 15008KT CAVOK 14/03 Q1005 NOSIG
12-04-26 METAR EDDT 260720Z 16007KT CAVOK 14/04 Q1005 NOSIG
12-04-26 METAR EDDT 260750Z 16007KT CAVOK 15/04 Q1006 NOSIG
12-04-26 METAR EDDT 260820Z 19010KT CAVOK 16/03 Q1006 NOSIG
12-04-26 METAR EDDT 260850Z 20009KT CAVOK 17/03 Q1006 NOSIG
12-04-26 METAR EDDT 260920Z 19013KT CAVOK 18/04 Q1006 NOSIG
12-04-26 METAR EDDT 260950Z 21011KT CAVOK 18/04 Q1006 NOSIG
12-04-26 METAR EDDT 261020Z 19010KT CAVOK 18/04 Q1007 NOSIG
12-04-26 METAR EDDT 261050Z 21012KT CAVOK 19/03 Q1007 NOSIG
12-04-26 METAR EDDT 261120Z 21014KT CAVOK 20/03 Q1007 NOSIG
12-04-26 METAR EDDT 261150Z 22016G26KT CAVOK 20/04 Q1007 NOSIG
12-04-26 METAR EDDT 261220Z 21014KT CAVOK 19/03 Q1008 NOSIG
12-04-26 METAR EDDT 261250Z 21014KT CAVOK 19/02 Q1008 NOSIG
12-04-26 METAR EDDT 261320Z 21018KT CAVOK 19/02 Q1008 NOSIG
12-04-26 METAR EDDT 261350Z 22014KT 9999 -RA NSC 19/03 Q1008 NOSIG
12-04-26 METAR EDDT 261420Z 21014KT 9999 -RA NSC 18/04 Q1009 NOSIG
12-04-26 METAR EDDT 261450Z 20011KT CAVOK 18/03 Q1009 NOSIG
12-04-26 METAR EDDT 261520Z 22011KT CAVOK 18/04 Q1009 NOSIG
12-04-26 METAR EDDT 261550Z 22009KT CAVOK 18/04 Q1009 NOSIG
12-04-26 METAR EDDT 261620Z 23010KT CAVOK 17/04 Q1009 NOSIG
12-04-26 METAR EDDT 261650Z 21008KT CAVOK 17/04 Q1009 NOSIG
12-04-26 METAR EDDT 261720Z 22008KT 9999 -RA NSC 17/04 Q1010 NOSIG
12-04-26 METAR EDDT 261750Z 21006KT 9999 -RA NSC 17/04 Q1010 NOSIG
12-04-26 METAR EDDT 261820Z 19007KT CAVOK 17/05 Q1010 NOSIG
12-04-26 METAR EDDT 261850Z 20007KT CAVOK 17/05 Q1010 NOSIG
12-04-26 METAR EDDT 261920Z 24003KT CAVOK 16/05 Q1010 NOSIG
12-04-26 METAR EDDT 261950Z 20005KT CAVOK 16/05 Q1010 NOSIG
12-04-26 METAR EDDT 262020Z 19004KT CAVOK 16/05 Q1011 NOSIG
12-04-26 METAR EDDT 262050Z 28005KT CAVOK 16/05 Q1011 NOSIG
12-04-26 METAR EDDT 262120Z 30002KT CAVOK 15/05 Q1011
12-04-26 METAR EDDT 262150Z VRB01KT 9999 -RA NSC 15/05 Q1012
12-04-26 METAR EDDT 262220Z 20003KT CAVOK 14/05 Q1012
12-04-26 METAR EDDT 262250Z 18003KT CAVOK 14/06 Q1012
12-04-26 METAR EDDT 262320Z 20005KT 9999 -RA NSC 15/05 Q1012
12-04-26 METAR EDDT 262350Z 20004KT CAVOK 14/05 Q1013
12-04-27 METAR EDDT 262350Z 20004KT CAVOK 14/05 Q1013
12-04-27 METAR EDDT 270020Z 20005KT CAVOK 14/05 Q1013
12-04-27 METAR EDDT 270050Z 19004KT CAVOK 14/05 Q1012
12-04-27 METAR EDDT 270120Z 28002KT CAVOK 13/05 Q1013
12-04-27 METAR EDDT 270150Z 16002KT CAVOK 12/05 Q1013
12-04-27 METAR EDDT 270220Z 15003KT CAVOK 13/06 Q1013
12-04-27 METAR EDDT 270250Z 18004KT CAVOK 13/06 Q1014 NOSIG
12-04-27 METAR EDDT 270320Z 19003KT CAVOK 13/06 Q1014 NOSIG
12-04-27 METAR EDDT 270350Z 19002KT 9999 -RA NSC 13/06 Q1014 NOSIG
12-04-27 METAR EDDT 270420Z 19004KT CAVOK 13/06 Q1014 NOSIG
12-04-27 METAR EDDT 270450Z 20004KT CAVOK 13/06 Q1015 NOSIG
12-04-27 METAR EDDT 270520Z 22004KT CAVOK 13/06 Q1015 NOSIG
12-04-27 METAR EDDT 270550Z 22007KT CAVOK 14/06 Q1015 NOSIG
12-04-27 METAR EDDT 270620Z 22006KT CAVOK 14/06 Q1016 NOSIG
12-04-27 METAR EDDT 270650Z 21006KT CAVOK 15/06 Q1016 NOSIG
12-04-27 METAR EDDT 270720Z 22006KT CAVOK 15/06 Q1016 NOSIG
12-04-27 METAR EDDT 270750Z 23006KT CAVOK 16/07 Q1016 NOSIG
12-04-27 METAR EDDT 270820Z 22006KT CAVOK 16/06 Q1016 NOSIG
12-04-27 METAR EDDT 270850Z 24008KT CAVOK 17/05 Q1016 NOSIG
12-04-27 METAR EDDT 270920Z 21006KT 190V250 CAVOK 18/06 Q1016 NOSIG
12-04-27 METAR EDDT 270950Z 25006KT CAVOK 18/05 Q1016 NOSIG
12-04-27 METAR EDDT 271020Z 23009KT CAVOK 20/05 Q1016 NOSIG
12-04-27 METAR EDDT 271050Z 27010KT CAVOK 20/05 Q1016 NOSIG
12-04-27 METAR EDDT 271120Z 25009KT CAVOK 21/07 Q1016 NOSIG
12-04-27 METAR EDDT 271150Z 22005KT 200V260 CAVOK 21/07 Q1016 NOSIG
12-04-27 METAR EDDT 271220Z 23009KT CAVOK 22/06 Q1016 NOSIG
12-04-27 METAR EDDT 271250Z 20008KT CAVOK 22/06 Q1016 NOSIG
12-04-27 METAR EDDT 271320Z 21007KT CAVOK 23/07 Q1016 NOSIG
12-04-27 METAR EDDT 271350Z 25006KT 220V290 CAVOK 23/05 Q1016 NOSIG
12-04-27 METAR EDDT 271420Z 27008KT CAVOK 23/05 Q1016 NOSIG
12-04-27 METAR EDDT 271450Z 27008KT CAVOK 23/06 Q1016 NOSIG
12-04-27 METAR EDDT 271520Z 27008KT CAVOK 23/06 Q1016 NOSIG
12-04-27 METAR EDDT 271550Z 25008KT 9999 FEW042 BKN120 22/07 Q1016 NOSIG
12-04-27 METAR EDDT 271620Z 26004KT CAVOK 22/08 Q1016 NOSIG
12-04-27 METAR EDDT 271650Z 26003KT CAVOK 21/08 Q1016 NOSIG
12-04-27 METAR EDDT 271720Z 36002KT CAVOK 22/07 Q1016 NOSIG
12-04-27 METAR EDDT 271750Z 02002KT CAVOK 21/07 Q1016 NOSIG
12-04-27 METAR EDDT 271820Z 35003KT CAVOK 21/08 Q1016 NOSIG
12-04-27 METAR EDDT 271850Z 36007KT CAVOK 20/08 Q1016 NOSIG
12-04-27 METAR EDDT 271920Z 36005KT CAVOK 19/08 Q1017 NOSIG
12-04-27 METAR EDDT 271950Z 03005KT CAVOK 19/08 Q1017 NOSIG
12-04-27 METAR EDDT 272020Z 02004KT CAVOK 18/08 Q1017 NOSIG
12-04-27 METAR EDDT 272050Z 03005KT CAVOK 17/08 Q1017 NOSIG
12-04-27 METAR EDDT 272120Z 04004KT CAVOK 16/08 Q1018
12-04-27 METAR EDDT 272150Z 05006KT CAVOK 16/08 Q1018
12-04-27 METAR EDDT 272220Z 06006KT CAVOK 16/08 Q1018
12-04-27 METAR EDDT 272250Z VRB02KT CAVOK 16/08 Q1019
12-04-27 METAR EDDT 272320Z VRB03KT CAVOK 15/08 Q1019
12-04-27 METAR EDDT 272350Z VRB03KT CAVOK 15/08 Q1018
12-04-28 METAR EDDT 272350Z VRB03KT CAVOK 15/08 Q1018
12-04-28 METAR EDDT 280020Z 03001KT CAVOK 15/07 Q1018
12-04-28 METAR EDDT 280050Z 04003KT CAVOK 15/07 Q1018
12-04-28 METAR EDDT 280120Z 04003KT CAVOK 14/07 Q1018
12-04-28 METAR EDDT 280150Z 06005KT CAVOK 14/07 Q1018
12-04-28 METAR EDDT 280220Z 07002KT CAVOK 13/07 Q1018
12-04-28 METAR EDDT 280250Z 05005KT CAVOK 13/08 Q1018 NOSIG
12-04-28 METAR EDDT 280320Z 06004KT CAVOK 13/08 Q1018 NOSIG
12-04-28 METAR EDDT 280350Z 04003KT CAVOK 12/08 Q1018 NOSIG
12-04-28 METAR EDDT 280420Z 02003KT CAVOK 13/08 Q1018 NOSIG
12-04-28 METAR EDDT 280450Z 03003KT CAVOK 13/08 Q1018 NOSIG
12-04-28 METAR EDDT 280520Z 05005KT CAVOK 14/08 Q1018 NOSIG
12-04-28 METAR EDDT 280550Z 06005KT CAVOK 15/09 Q1018 NOSIG
12-04-28 METAR EDDT 280620Z 04004KT CAVOK 16/09 Q1018 NOSIG
12-04-28 METAR EDDT 280650Z 36004KT CAVOK 17/09 Q1018 NOSIG
12-04-28 METAR EDDT 280720Z 08007KT CAVOK 19/10 Q1017 NOSIG
12-04-28 METAR EDDT 280750Z 09011KT CAVOK 20/10 Q1016 NOSIG
12-04-28 METAR EDDT 280820Z 08011KT CAVOK 21/10 Q1016 NOSIG
12-04-28 METAR EDDT 280850Z 08007KT CAVOK 22/10 Q1016 NOSIG
12-04-28 METAR EDDT 280920Z 11009KT CAVOK 23/08 Q1016 NOSIG
12-04-28 METAR EDDT 280950Z 11008KT CAVOK 24/10 Q1016 NOSIG
12-04-28 METAR EDDT 281020Z 11010KT CAVOK 25/09 Q1016 NOSIG
12-04-28 METAR EDDT 281050Z 16009KT CAVOK 26/07 Q1015 NOSIG
12-04-28 METAR EDDT 281120Z 13007KT CAVOK 27/08 Q1015 NOSIG
12-04-28 METAR EDDT 281150Z 16010KT CAVOK 28/08 Q1015 NOSIG
12-04-28 METAR EDDT 281220Z 15007KT CAVOK 28/08 Q1014 NOSIG
12-04-28 METAR EDDT 281250Z 16009KT CAVOK 29/07 Q1014 NOSIG
12-04-28 METAR EDDT 281320Z 14007KT CAVOK 29/08 Q1014 NOSIG
12-04-28 METAR EDDT 281350Z 13008KT CAVOK 29/08 Q1013 NOSIG
12-04-28 METAR EDDT 281420Z 15008KT CAVOK 30/07 Q1013 NOSIG
12-04-28 METAR EDDT 281450Z 13009KT CAVOK 30/05 Q1013 NOSIG
12-04-28 METAR EDDT 281520Z 15008KT CAVOK 30/06 Q1013 NOSIG
12-04-28 METAR EDDT 281550Z 13008KT CAVOK 30/08 Q1012 NOSIG
12-04-28 METAR EDDT 281620Z 14007KT CAVOK 30/05 Q1012 NOSIG
12-04-28 METAR EDDT 281650Z 14004KT CAVOK 29/04 Q1012 NOSIG
12-04-28 METAR EDDT 281720Z 10003KT CAVOK 28/04 Q1012 NOSIG
12-04-28 METAR EDDT 281750Z 06003KT CAVOK 28/05 Q1012 NOSIG
12-04-28 METAR EDDT 281820Z 03003KT CAVOK 27/06 Q1012 NOSIG
12-04-28 METAR EDDT 281850Z 03002KT CAVOK 26/07 Q1012 NOSIG
12-04-28 METAR EDDT 281920Z 29001KT CAVOK 24/08 Q1012 NOSIG
12-04-28 METAR EDDT 281950Z 05003KT CAVOK 23/09 Q1012 NOSIG
12-04-28 METAR EDDT 282020Z 36002KT CAVOK 23/09 Q1012 NOSIG
12-04-28 METAR EDDT 282050Z 33001KT CAVOK 21/09 Q1012 NOSIG
12-04-28 METAR EDDT 282120Z 06002KT CAVOK 20/10 Q1012
12-04-28 METAR EDDT 282150Z 01003KT CAVOK 20/10 Q1012
12-04-28 METAR EDDT 282220Z 02007KT CAVOK 20/10 Q1012
12-04-28 METAR EDDT 282250Z 05004KT CAVOK 19/10 Q1011
12-04-28 METAR EDDT 282320Z 05003KT CAVOK 19/10 Q1011
12-04-28 METAR EDDT 282350Z 04003KT CAVOK 18/10 Q1011
12-04-29 METAR EDDT 282350Z 04003KT CAVOK 18/10 Q1011
12-04-29 METAR EDDT 290020Z 06004KT CAVOK 17/10 Q1010
12-04-29 METAR EDDT 290050Z 05004KT CAVOK 17/10 Q1010
12-04-29 METAR EDDT 290120Z 04003KT CAVOK 17/10 Q1010
12-04-29 METAR EDDT 290150Z VRB02KT CAVOK 16/09 Q1010
12-04-29 METAR EDDT 290220Z 02002KT CAVOK 16/09 Q1009
12-04-29 METAR EDDT 290250Z 04003KT CAVOK 16/09 Q1009 NOSIG
12-04-29 METAR EDDT 290320Z 02002KT CAVOK 16/09 Q1009 NOSIG
12-04-29 METAR EDDT 290350Z 04004KT CAVOK 16/09 Q1008 NOSIG
12-04-29 METAR EDDT 290420Z 02004KT CAVOK 17/09 Q1008 NOSIG
12-04-29 METAR EDDT 290450Z 04004KT CAVOK 18/09 Q1008 NOSIG
12-04-29 METAR EDDT 290520Z 05005KT CAVOK 17/09 Q1008 NOSIG
12-04-29 METAR EDDT 290550Z 10006KT CAVOK 19/10 Q1008 NOSIG
12-04-29 METAR EDDT 290620Z 11008KT CAVOK 20/09 Q1008 NOSIG
12-04-29 METAR EDDT 290650Z 11007KT CAVOK 21/10 Q1008 NOSIG
12-04-29 METAR EDDT 290720Z 11006KT CAVOK 22/10 Q1008 NOSIG
12-04-29 METAR EDDT 290750Z 11007KT CAVOK 22/10 Q1008 NOSIG
12-04-29 METAR EDDT 290820Z 11007KT CAVOK 23/10 Q1007 NOSIG
12-04-29 METAR EDDT 290850Z 12009KT CAVOK 24/10 Q1007 NOSIG
12-04-29 METAR EDDT 290920Z 13009KT CAVOK 24/09 Q1007 NOSIG
12-04-29 METAR EDDT 290950Z 12008KT CAVOK 24/10 Q1007 NOSIG
12-04-29 METAR EDDT 291020Z 13009KT CAVOK 25/11 Q1007 NOSIG
12-04-29 METAR EDDT 291050Z 12008KT CAVOK 25/10 Q1007 NOSIG
12-04-29 METAR EDDT 291120Z 10007KT CAVOK 25/11 Q1007 NOSIG
12-04-29 METAR EDDT 291150Z 11006KT CAVOK 26/11 Q1007 NOSIG
12-04-29 METAR EDDT 291220Z 13009KT CAVOK 27/10 Q1007 NOSIG
12-04-29 METAR EDDT 291250Z 15009KT 9999 27/10 Q1007
12-04-29 METAR EDDT 291320Z 12010KT CAVOK 27/08 Q1006 NOSIG
12-04-29 METAR EDDT 291350Z 13007KT CAVOK 27/08 Q1006 NOSIG
12-04-29 METAR EDDT 291420Z 13007KT CAVOK 26/09 Q1006 NOSIG
12-04-29 METAR EDDT 291450Z 13010KT CAVOK 26/08 Q1006 NOSIG
12-04-29 METAR EDDT 291520Z 14007KT CAVOK 26/09 Q1007 NOSIG
12-04-29 METAR EDDT 291550Z 13007KT CAVOK 26/09 Q1006 NOSIG
12-04-29 METAR EDDT 291620Z 13005KT CAVOK 25/10 Q1006 BECMG 21005KT
12-04-29 METAR EDDT 291650Z 13005KT CAVOK 25/10 Q1007 BECMG 21005KT
12-04-29 METAR EDDT 291720Z 12003KT CAVOK 25/10 Q1007 BECMG 21005KT
12-04-29 METAR EDDT 291750Z 04002KT CAVOK 24/10 Q1007 BECMG 21005KT
12-04-29 METAR EDDT 291820Z 04002KT CAVOK 23/11 Q1007 BECMG 21005KT
12-04-29 METAR EDDT 291850Z VRB01KT CAVOK 22/11 Q1007 NOSIG
12-04-29 METAR EDDT 291920Z VRB01KT CAVOK 20/12 Q1007 NOSIG
12-04-29 METAR EDDT 291950Z 06002KT CAVOK 20/12 Q1008 NOSIG
12-04-29 METAR EDDT 292020Z 04001KT CAVOK 19/12 Q1008 NOSIG
12-04-29 METAR EDDT 292050Z 28005KT CAVOK 18/12 Q1009 NOSIG
12-04-29 METAR EDDT 292120Z 27006KT CAVOK 19/12 Q1009
12-04-29 METAR EDDT 292150Z 32006KT CAVOK 18/13 Q1010
12-04-29 METAR EDDT 292220Z 34006KT CAVOK 17/13 Q1010
12-04-29 METAR EDDT 292250Z 31004KT CAVOK 16/12 Q1011
12-04-29 METAR EDDT 292320Z 31003KT CAVOK 15/12 Q1011
12-04-29 METAR EDDT 292350Z 31005KT CAVOK 15/12 Q1011
12-04-30 METAR EDDT 292350Z 31005KT CAVOK 15/12 Q1011
12-04-30 METAR EDDT 300020Z 30005KT CAVOK 14/12 Q1012
12-04-30 METAR EDDT 300050Z 31005KT CAVOK 14/11 Q1013
12-04-30 METAR EDDT 300120Z 29006KT CAVOK 13/10 Q1013
12-04-30 METAR EDDT 300150Z 31005KT CAVOK 13/10 Q1013
12-04-30 METAR EDDT 300220Z 30005KT CAVOK 13/10 Q1014
12-04-30 METAR EDDT 300250Z 32006KT CAVOK 13/10 Q1014 NOSIG
12-04-30 METAR EDDT 300320Z 32007KT CAVOK 13/10 Q1014 NOSIG
12-04-30 METAR EDDT 300350Z 31005KT CAVOK 12/09 Q1015 NOSIG
12-04-30 METAR EDDT 300420Z 32004KT CAVOK 12/09 Q1015 NOSIG
12-04-30 METAR EDDT 300450Z 35004KT CAVOK 12/09 Q1015 NOSIG
12-04-30 METAR EDDT 300520Z 32004KT CAVOK 13/10 Q1015 NOSIG
12-04-30 METAR EDDT 300550Z 29005KT CAVOK 13/10 Q1016 NOSIG
12-04-30 METAR EDDT 300620Z 33005KT CAVOK 14/10 Q1016 NOSIG
12-04-30 METAR EDDT 300650Z 27004KT CAVOK 15/11 Q1017 NOSIG
12-04-30 METAR EDDT 300720Z 30004KT CAVOK 16/10 Q1017 NOSIG
12-04-30 METAR EDDT 300750Z 35011KT CAVOK 17/10 Q1017 NOSIG
12-04-30 METAR EDDT 300820Z 34010KT CAVOK 18/10 Q1017 NOSIG
12-04-30 METAR EDDT 300850Z 35012KT CAVOK 19/10 Q1017 NOSIG
12-04-30 METAR EDDT 300920Z 34010KT CAVOK 20/09 Q1017 NOSIG
12-04-30 METAR EDDT 300950Z 34012KT CAVOK 20/08 Q1017 NOSIG
12-04-30 METAR EDDT 301020Z 35011KT CAVOK 20/07 Q1017 NOSIG
12-04-30 METAR EDDT 301050Z 35010KT CAVOK 21/06 Q1018 NOSIG
12-04-30 METAR EDDT 301120Z 34011KT CAVOK 22/07 Q1018 NOSIG
12-04-30 METAR EDDT 301150Z 35011KT CAVOK 23/08 Q1018 NOSIG
12-04-30 METAR EDDT 301220Z 36011KT CAVOK 23/07 Q1017 NOSIG
12-04-30 METAR EDDT 301250Z 35010KT CAVOK 23/05 Q1017 NOSIG
12-04-30 METAR EDDT 301320Z 33010KT CAVOK 24/06 Q1017 NOSIG
12-04-30 METAR EDDT 301350Z 35009KT CAVOK 23/04 Q1017 NOSIG
12-04-30 METAR EDDT 301420Z 01012KT CAVOK 24/04 Q1017 NOSIG
12-04-30 METAR EDDT 301450Z 01010KT CAVOK 23/05 Q1017 NOSIG
12-04-30 METAR EDDT 301520Z 34009KT CAVOK 23/07 Q1017 NOSIG
12-04-30 METAR EDDT 301550Z 35009KT CAVOK 22/07 Q1017 NOSIG
12-04-30 METAR EDDT 301620Z 36007KT CAVOK 22/08 Q1017 NOSIG
12-04-30 METAR EDDT 301650Z 02007KT CAVOK 21/06 Q1017 NOSIG
12-04-30 METAR EDDT 301720Z 36008KT CAVOK 21/06 Q1017 NOSIG
12-04-30 METAR EDDT 301750Z 36005KT CAVOK 20/07 Q1017 NOSIG
12-04-30 METAR EDDT 301820Z 02009KT CAVOK 20/08 Q1017 NOSIG
12-04-30 METAR EDDT 301850Z 02009KT CAVOK 18/09 Q1017 NOSIG
12-04-30 METAR EDDT 301920Z 36005KT CAVOK 17/10 Q1017 NOSIG
12-04-30 METAR EDDT 301950Z 03008KT CAVOK 16/10 Q1018 NOSIG
12-04-30 METAR EDDT 302020Z 01008KT CAVOK 15/09 Q1018 NOSIG
12-04-30 METAR EDDT 302050Z 01007KT CAVOK 14/09 Q1018 NOSIG
12-04-30 METAR EDDT 302120Z 02006KT 9999 -SHRA NSC 13/08 Q1018
12-04-30 METAR EDDT 302150Z 03007KT CAVOK 12/07 Q1018
12-04-30 METAR EDDT 302220Z 01008KT CAVOK 12/07 Q1017
12-04-30 METAR EDDT 302250Z 02007KT CAVOK 11/07 Q1017
12-04-30 METAR EDDT 302320Z 02007KT CAVOK 11/07 Q1017
12-04-30 METAR EDDT 302350Z 03005KT CAVOK 10/07 Q1017
12-05-01 METAR EDDT 302350Z 03005KT CAVOK 10/07 Q1017
12-05-01 METAR EDDT 010020Z 04005KT CAVOK 10/06 Q1017
12-05-01 METAR EDDT 010050Z 03005KT CAVOK 10/06 Q1017
12-05-01 METAR EDDT 010120Z 05005KT CAVOK 10/06 Q1017
12-05-01 METAR EDDT 010150Z 04005KT CAVOK 10/06 Q1017
12-05-01 METAR EDDT 010220Z 05005KT CAVOK 09/06 Q1017
12-05-01 METAR EDDT 010250Z 03003KT CAVOK 09/06 Q1017 NOSIG
12-05-01 METAR EDDT 010320Z 05005KT CAVOK 09/06 Q1017 NOSIG
12-05-01 METAR EDDT 010350Z 06006KT CAVOK 09/06 Q1017 NOSIG
12-05-01 METAR EDDT 010420Z 05006KT CAVOK 09/06 Q1017 NOSIG
12-05-01 METAR EDDT 010450Z 04006KT CAVOK 10/07 Q1017 NOSIG
12-05-01 METAR EDDT 010520Z 05006KT CAVOK 11/07 Q1017 NOSIG
12-05-01 METAR EDDT 010550Z 06007KT CAVOK 12/08 Q1017 NOSIG
12-05-01 METAR EDDT 010620Z 05009KT CAVOK 13/08 Q1017 NOSIG
12-05-01 METAR EDDT 010650Z 08011KT CAVOK 14/08 Q1017 NOSIG
12-05-01 METAR EDDT 010720Z 06010KT CAVOK 15/09 Q1016 NOSIG
12-05-01 METAR EDDT 010750Z 05008KT CAVOK 16/10 Q1016 NOSIG
12-05-01 METAR EDDT 010820Z 04008KT CAVOK 18/11 Q1016 NOSIG
12-05-01 METAR EDDT 010850Z 06006KT CAVOK 19/11 Q1016 NOSIG
12-05-01 METAR EDDT 010920Z 04006KT CAVOK 20/11 Q1016 NOSIG
12-05-01 METAR EDDT 010950Z 05006KT CAVOK 21/11 Q1016 NOSIG
12-05-01 METAR EDDT 011020Z 07006KT CAVOK 22/12 Q1016 NOSIG
12-05-01 METAR EDDT 011050Z 05011KT CAVOK 23/13 Q1016 NOSIG
12-05-01 METAR EDDT 011120Z 06007KT CAVOK 25/14 Q1016 NOSIG
12-05-01 METAR EDDT 011150Z 10008KT CAVOK 24/12 Q1016 NOSIG
12-05-01 METAR EDDT 011220Z 06007KT CAVOK 25/13 Q1015 NOSIG
12-05-01 METAR EDDT 011250Z 05010KT CAVOK 25/13 Q1015 NOSIG
12-05-01 METAR EDDT 011320Z 07009KT CAVOK 26/13 Q1015 NOSIG
12-05-01 METAR EDDT 011350Z 07008KT 9999 FEW050CB 27/13 Q1015 NOSIG
12-05-01 METAR EDDT 011420Z 08007KT 9999 FEW050CB 27/12 Q1015 NOSIG
12-05-01 METAR EDDT 011450Z 07008KT 9999 FEW050CB 27/13 Q1014 NOSIG
12-05-01 METAR EDDT 011520Z 04008KT 9999 FEW050CB 27/12 Q1014 NOSIG
12-05-01 METAR EDDT 011550Z 06005KT 030V090 9999 FEW050CB 28/13 Q1014 TEMPO TSRA
12-05-01 METAR EDDT 011620Z 01006KT 9999 VCTS FEW050CB 28/12 Q1014 TEMPO -TSRA
12-05-01 METAR EDDT 011650Z 10011KT 070V130 9999 TSRA SCT040CB SCT060 24/16 Q1014 BECMG NSW
12-05-01 METAR EDDT 011720Z 03002KT 9999 TSRA SCT040CB BKN060 22/17 Q1015 BECMG NSW
12-05-01 METAR EDDT 011750Z 02004KT 9999 -SHRA FEW018 SCT040CB BKN060 21/16 Q1015 RETS NOSIG
12-05-01 METAR EDDT 011820Z 05007KT 9999 -SHRA FEW020 FEW040CB BKN060 20/14 Q1015
12-05-01 METAR EDDT 011850Z 04005KT 9999 FEW025 SCT060 20/13 Q1016 NOSIG
12-05-01 METAR EDDT 011920Z 05007KT 9999 FEW025 SCT060 19/13 Q1016 TEMPO 05015G25KT TSRA
12-05-01 METAR EDDT 011950Z 05005KT 9999 FEW025 SCT060 19/12 Q1016 TEMPO 05015G25KT
12-05-01 METAR EDDT 012020Z 06006KT CAVOK 19/12 Q1016 NOSIG
12-05-01 METAR EDDT 012050Z 06008KT CAVOK 18/12 Q1016 NOSIG
12-05-01 METAR EDDT 012120Z 07007KT CAVOK 18/12 Q1016
12-05-01 METAR EDDT 012150Z 06004KT CAVOK 18/12 Q1016
12-05-01 METAR EDDT 012220Z 03002KT CAVOK 18/12 Q1016
12-05-01 METAR EDDT 012250Z 36002KT CAVOK 17/13 Q1016
12-05-01 METAR EDDT 012320Z 36004KT CAVOK 17/12 Q1016
12-05-01 METAR EDDT 012350Z VRB02KT CAVOK 17/12 Q1016
12-05-02 METAR EDDT 012350Z VRB02KT CAVOK 17/12 Q1016
12-05-02 METAR EDDT 020020Z 01003KT CAVOK 17/12 Q1016
12-05-02 METAR EDDT 020050Z 01005KT CAVOK 16/12 Q1016
12-05-02 METAR EDDT 020120Z 03005KT CAVOK 16/12 Q1016
12-05-02 METAR EDDT 020150Z 03006KT CAVOK 16/12 Q1016
12-05-02 METAR EDDT 020220Z 04005KT CAVOK 15/12 Q1016
12-05-02 METAR EDDT 020250Z 06007KT CAVOK 15/12 Q1016 NOSIG
12-05-02 METAR EDDT 020320Z 06007KT CAVOK 15/12 Q1016 NOSIG
12-05-02 METAR EDDT 020350Z 05004KT CAVOK 15/11 Q1015 NOSIG
12-05-02 METAR EDDT 020420Z 04003KT CAVOK 15/12 Q1015 NOSIG
12-05-02 METAR EDDT 020450Z 02003KT CAVOK 15/11 Q1015 NOSIG
12-05-02 METAR EDDT 020520Z 04005KT CAVOK 15/11 Q1015 NOSIG
12-05-02 METAR EDDT 020550Z 04007KT CAVOK 16/11 Q1015 NOSIG
12-05-02 METAR EDDT 020620Z 04005KT CAVOK 16/11 Q1015 NOSIG
12-05-02 METAR EDDT 020650Z 04009KT CAVOK 18/11 Q1015 NOSIG
12-05-02 METAR EDDT 020720Z 05008KT CAVOK 18/11 Q1015 NOSIG
12-05-02 METAR EDDT 020750Z 05009KT CAVOK 19/10 Q1015 NOSIG
12-05-02 METAR EDDT 020820Z 06008KT CAVOK 19/11 Q1015 NOSIG
12-05-02 METAR EDDT 020850Z 06009KT 9999 FEW040 21/11 Q1015 NOSIG
12-05-02 METAR EDDT 020920Z 06010KT 9999 FEW040 21/11 Q1015 NOSIG
12-05-02 METAR EDDT 020950Z 06009KT 9999 FEW045 22/12 Q1015 NOSIG
12-05-02 METAR EDDT 021020Z 05009KT CAVOK 23/12 Q1014 NOSIG
12-05-02 METAR EDDT 021050Z 07012KT 9999 FEW045 24/12 Q1014 NOSIG
12-05-02 METAR EDDT 021120Z 06011KT CAVOK 25/12 Q1014 NOSIG
12-05-02 METAR EDDT 021150Z 06011KT CAVOK 25/11 Q1013 NOSIG
12-05-02 METAR EDDT 021220Z 05012KT CAVOK 25/12 Q1013 NOSIG
12-05-02 METAR EDDT 021250Z 05012KT CAVOK 25/12 Q1013 NOSIG
12-05-02 METAR EDDT 021320Z 04012KT CAVOK 25/12 Q1013 NOSIG
12-05-02 METAR EDDT 021350Z 06011KT CAVOK 25/12 Q1012 NOSIG
12-05-02 METAR EDDT 021420Z 06011KT CAVOK 26/12 Q1012 NOSIG
12-05-02 METAR EDDT 021450Z 07012KT CAVOK 26/13 Q1012 NOSIG
12-05-02 METAR EDDT 021520Z 06011KT CAVOK 26/12 Q1012 NOSIG
12-05-02 METAR EDDT 021550Z 04011KT CAVOK 25/12 Q1011 NOSIG
12-05-02 METAR EDDT 021620Z 04010KT CAVOK 25/12 Q1011 NOSIG
12-05-02 METAR EDDT 021650Z 03009KT CAVOK 24/13 Q1011 NOSIG
12-05-02 METAR EDDT 021720Z 04009KT CAVOK 24/13 Q1011 NOSIG
12-05-02 METAR EDDT 021750Z 04008KT CAVOK 23/13 Q1011 NOSIG
12-05-02 METAR EDDT 021820Z 04008KT CAVOK 22/13 Q1011 NOSIG
12-05-02 METAR EDDT 021850Z 02006KT 9999 FEW040TCU SCT060 20/12 Q1012 NOSIG
12-05-02 METAR EDDT 021920Z 02006KT 9999 FEW040TCU SCT080 20/12 Q1012 NOSIG
12-05-02 METAR EDDT 021950Z 02005KT 9999 FEW040CB 19/11 Q1011 NOSIG
12-05-02 METAR EDDT 022020Z 02006KT 9999 FEW040CB BKN300 18/10 Q1011 NOSIG
12-05-02 METAR EDDT 022050Z VRB03KT 9999 FEW040CB BKN080 18/10 Q1013 TEMPO
12-05-02 METAR EDDT 022120Z 03006KT 9999 TS SCT040CB SCT080 18/10 Q1012
12-05-02 METAR EDDT 022150Z 04007KT 9999 FEW040CB BKN090 17/09 Q1012 RETS
12-05-02 METAR EDDT 022220Z 03006KT 9999 FEW040CB BKN090 17/10 Q1011
12-05-02 METAR EDDT 022250Z 01002KT 9999 TS FEW040CB BKN090 17/09 Q1011
12-05-02 METAR EDDT 022320Z 03006KT 9999 FEW040CB SCT090 BKN120 16/09 Q1011 RETS
12-05-02 METAR EDDT 022350Z 03004KT 9999 FEW040CB BKN090 16/09 Q1011
12-05-03 METAR EDDT 022350Z 03004KT 9999 FEW040CB BKN090 16/09 Q1011
12-05-03 METAR EDDT 030020Z 03003KT 9999 FEW040CB BKN090 15/09 Q1010
12-05-03 METAR EDDT 030050Z 31004KT 280V340 9999 VCTS FEW040CB BKN090 15/09 Q1011
12-05-03 METAR EDDT 030120Z 34004KT 9999 -TSRA SCT040CB BKN090 15/09 Q1011
12-05-03 METAR EDDT 030150Z 34004KT 9999 -TSRA SCT015CB SCT030 BKN090 15/09 Q1011
12-05-03 METAR EDDT 030220Z 03007KT 9999 -SHRA FEW015CB SCT030 BKN090 14/10 Q1011 RETS
12-05-03 METAR EDDT 030250Z VRB02KT 9999 -SHRA FEW011CB SCT020 BKN090 14/10 Q1010 NOSIG
12-05-03 METAR EDDT 030320Z VRB03KT 9999 -RA FEW011 SCT030 BKN080 13/11 Q1010 NOSIG
12-05-03 METAR EDDT 030350Z VRB02KT 9999 -RA SCT025 BKN060 13/11 Q1010 NOSIG
12-05-03 METAR EDDT 030420Z 04004KT 9999 -RA SCT040 BKN060 13/11 Q1009 NOSIG
12-05-03 METAR EDDT 030450Z 04006KT 9999 SCT040 BKN060 BKN090 13/11 Q1009 NOSIG
12-05-03 METAR EDDT 030520Z 11005KT 080V170 CAVOK 13/11 Q1009 NOSIG
12-05-03 METAR EDDT 030550Z 15003KT CAVOK 15/12 Q1010 NOSIG
12-05-03 METAR EDDT 030620Z 28003KT CAVOK 16/12 Q1010 NOSIG
12-05-03 METAR EDDT 030650Z 26004KT CAVOK 16/13 Q1009 NOSIG
12-05-03 METAR EDDT 030720Z 23007KT CAVOK 17/14 Q1010 NOSIG
12-05-03 METAR EDDT 030750Z 23004KT CAVOK 17/14 Q1010 NOSIG
12-05-03 METAR EDDT 030820Z 22005KT CAVOK 17/14 Q1010 NOSIG
12-05-03 METAR EDDT 030850Z 27005KT CAVOK 18/13 Q1010 NOSIG
12-05-03 METAR EDDT 030920Z 27007KT 9999 -RA NSC 18/13 Q1010 NOSIG
12-05-03 METAR EDDT 030950Z 28006KT CAVOK 18/13 Q1010 NOSIG
12-05-03 METAR EDDT 031020Z 28008KT CAVOK 18/12 Q1010 NOSIG
12-05-03 METAR EDDT 031050Z 30007KT CAVOK 18/11 Q1010 NOSIG
12-05-03 METAR EDDT 031120Z 29007KT 9999 -RA NSC 18/12 Q1010 NOSIG
12-05-03 METAR EDDT 031150Z 30006KT CAVOK 18/12 Q1010 NOSIG
12-05-03 METAR EDDT 031220Z 26005KT CAVOK 19/13 Q1010 NOSIG
12-05-03 METAR EDDT 031250Z 30005KT 270V340 CAVOK 20/12 Q1009 NOSIG
12-05-03 METAR EDDT 031320Z 32006KT CAVOK 20/13 Q1009 NOSIG
12-05-03 METAR EDDT 031350Z 30006KT CAVOK 20/12 Q1009 NOSIG
12-05-03 METAR EDDT 031420Z 31006KT 9999 FEW030 SCT060 BKN090 20/12 Q1008 NOSIG
12-05-03 METAR EDDT 031450Z 31006KT 9999 FEW030 SCT090 20/12 Q1008 NOSIG
12-05-03 METAR EDDT 031520Z 29004KT 280V340 9999 VCSH FEW030 BKN090 20/12 Q1008 TEMPO SHRA
12-05-03 METAR EDDT 031550Z 26006KT 9999 -SHRA SCT030 SCT060 BKN090 19/13 Q1008
12-05-03 METAR EDDT 031620Z 28004KT 9999 -SHRA SCT030 SCT060 BKN090 19/14 Q1007
12-05-03 METAR EDDT 031650Z 24005KT 9999 FEW030 SCT060 BKN090 19/14 Q1007 NOSIG
12-05-03 METAR EDDT 031720Z 26005KT 9999 FEW030 BKN090 18/14 Q1007 NOSIG
12-05-03 METAR EDDT 031750Z 26005KT 9999 FEW030 BKN090 18/13 Q1007 NOSIG
12-05-03 METAR EDDT 031820Z 22005KT 9999 -SHRA SCT035 BKN090 18/14 Q1007 TEMPO SHRA
12-05-03 METAR EDDT 031850Z 25009KT 9999 FEW018 SCT030 BKN090 17/14 Q1008 TEMPO
12-05-03 METAR EDDT 031920Z 29004KT 260V320 9999 SHRA FEW015 SCT030CB BKN090 16/15 Q1008 RETS BECMG NSW
12-05-03 METAR EDDT 031950Z 31002KT 9999 BKN024 BKN090 16/15 Q1007 RERA NOSIG
12-05-03 METAR EDDT 032020Z 30003KT 9999 FEW011 BKN025 BKN090 16/15 Q1008 TEMPO
12-05-03 METAR EDDT 032050Z 26002KT 9999 -SHRA FEW011 SCT025 BKN050 16/14 Q1007
12-05-03 METAR EDDT 032120Z 27003KT 9999 -SHRA SCT025 BKN050 16/14 Q1007
12-05-03 METAR EDDT 032150Z 20003KT 8000 FEW025 SCT050 BKN090 16/15 Q1007
12-05-03 METAR EDDT 032220Z 23005KT 8000 FEW025 BKN090 16/15 Q1007
12-05-03 METAR EDDT 032250Z 25005KT 9000 NSC 16/14 Q1007
12-05-03 METAR EDDT 032320Z 29005KT 9000 FEW030 BKN100 16/14 Q1007
12-05-03 METAR EDDT 032350Z 28006KT 9999 SCT030 BKN100 15/14 Q1006
12-05-04 METAR EDDT 032350Z 28006KT 9999 SCT030 BKN100 15/14 Q1006
12-05-04 METAR EDDT 040020Z 29005KT 9999 BKN030 BKN100 15/14 Q1006
12-05-04 METAR EDDT 040050Z 29004KT 9999 BKN030 15/13 Q1006
12-05-04 METAR EDDT 040120Z 28005KT 9999 BKN030 15/13 Q1006
12-05-04 METAR EDDT 040150Z 29004KT 9999 BKN030 14/13 Q1006
12-05-04 METAR EDDT 040220Z 27005KT 9999 SCT030 BKN040 14/13 Q1006
12-05-04 METAR EDDT 040250Z 29005KT 9999 SCT040 BKN050 14/12 Q1006 NOSIG
12-05-04 METAR EDDT 040320Z 27003KT 9999 FEW040 BKN060 14/12 Q1006 NOSIG
12-05-04 METAR EDDT 040350Z 26004KT 7000 FEW045 BKN060 14/12 Q1006 NOSIG
12-05-04 METAR EDDT 040420Z 27007KT 6000 FEW045 BKN060 14/12 Q1006 NOSIG
12-05-04 METAR EDDT 040450Z 26007KT 4400 BR NSC 13/12 Q1006 BECMG 5000
12-05-04 METAR EDDT 040520Z 26007KT 4600 BR NSC 14/12 Q1006 BECMG 5000
12-05-04 METAR EDDT 040550Z 26007KT 8000 NSC 15/12 Q1005 NOSIG
12-05-04 METAR EDDT 040620Z 27006KT 9000 NSC 15/11 Q1006 NOSIG
12-05-04 METAR EDDT 040650Z 29006KT CAVOK 15/10 Q1006 NOSIG
12-05-04 METAR EDDT 040720Z 30005KT CAVOK 15/11 Q1005 NOSIG
12-05-04 METAR EDDT 040750Z 26007KT 9999 FEW030 SCT250 16/10 Q1005 NOSIG
12-05-04 METAR EDDT 040820Z 27008KT 9999 FEW030 SCT070 16/10 Q1005 NOSIG
12-05-04 METAR EDDT 040850Z 25009KT 9999 SCT033 17/09 Q1005 NOSIG
12-05-04 METAR EDDT 040920Z 24010KT 9999 SCT040 18/09 Q1005 NOSIG
12-05-04 METAR EDDT 040950Z 26011KT 9999 SCT040 18/07 Q1004 NOSIG
12-05-04 METAR EDDT 041020Z 25010KT 210V270 9999 BKN045 19/08 Q1004 NOSIG
12-05-04 METAR EDDT 041050Z 28009KT 9999 SCT045 BKN070 18/08 Q1004 NOSIG
12-05-04 METAR EDDT 041120Z 25011KT 9999 FEW045 BKN070 18/07 Q1004 NOSIG
12-05-04 METAR EDDT 041150Z 26013KT 9999 FEW045 BKN070 18/07 Q1004 NOSIG
12-05-04 METAR EDDT 041220Z 24010KT 9999 FEW045 BKN070 18/06 Q1004 NOSIG
12-05-04 METAR EDDT 041250Z 27009KT 9999 FEW045 SCT060 BKN080 17/07 Q1004 NOSIG
12-05-04 METAR EDDT 041320Z 26010KT 9999 FEW045 SCT060 BKN080 18/07 Q1004 NOSIG
12-05-04 METAR EDDT 041350Z 26010KT 9999 FEW045 BKN090 19/07 Q1003 NOSIG
12-05-04 METAR EDDT 041420Z 27012KT CAVOK 19/07 Q1003 NOSIG
12-05-04 METAR EDDT 041450Z 24010KT CAVOK 19/06 Q1003 NOSIG
12-05-04 METAR EDDT 041520Z 24011KT CAVOK 19/05 Q1003 NOSIG
12-05-04 METAR EDDT 041550Z 25008KT CAVOK 19/05 Q1002 NOSIG
12-05-04 METAR EDDT 041620Z 22007KT CAVOK 20/04 Q1002 NOSIG
12-05-04 METAR EDDT 041650Z 26008KT CAVOK 19/05 Q1002 NOSIG
12-05-04 METAR EDDT 041720Z 25006KT CAVOK 18/06 Q1002 NOSIG
12-05-04 METAR EDDT 041750Z 20004KT CAVOK 19/05 Q1002 NOSIG
12-05-04 METAR EDDT 041820Z 19005KT CAVOK 18/05 Q1002 NOSIG
12-05-04 METAR EDDT 041850Z 20006KT CAVOK 18/06 Q1001 NOSIG
12-05-04 METAR EDDT 041920Z 19006KT CAVOK 18/07 Q1002 NOSIG
12-05-04 METAR EDDT 041950Z 20005KT CAVOK 18/06 Q1001 NOSIG
12-05-04 METAR EDDT 042020Z 19007KT CAVOK 18/07 Q1001 NOSIG
12-05-04 METAR EDDT 042050Z 20007KT CAVOK 17/07 Q1001 NOSIG
12-05-04 METAR EDDT 042120Z 20006KT CAVOK 16/07 Q1001
12-05-04 METAR EDDT 042150Z 21005KT CAVOK 15/07 Q1001
12-05-04 METAR EDDT 042220Z 20005KT CAVOK 15/07 Q1001
12-05-04 METAR EDDT 042250Z 21004KT CAVOK 14/07 Q1001
12-05-04 METAR EDDT 042320Z 26007KT CAVOK 14/08 Q1002
12-05-04 METAR EDDT 042350Z 29005KT CAVOK 14/08 Q1002
12-05-05 METAR EDDT 042350Z 29005KT CAVOK 14/08 Q1002
12-05-05 METAR EDDT 050020Z 27005KT CAVOK 13/08 Q1002
12-05-05 METAR EDDT 050050Z 30004KT CAVOK 13/08 Q1002
12-05-05 METAR EDDT 050120Z 34004KT CAVOK 13/09 Q1002
12-05-05 METAR EDDT 050150Z 34003KT CAVOK 13/09 Q1002
12-05-05 METAR EDDT 050220Z 35003KT CAVOK 13/09 Q1002
12-05-05 METAR EDDT 050250Z 33004KT CAVOK 13/09 Q1002 NOSIG
12-05-05 METAR EDDT 050320Z 31002KT CAVOK 12/09 Q1002 NOSIG
12-05-05 METAR EDDT 050350Z 35003KT CAVOK 12/08 Q1002 NOSIG
12-05-05 METAR EDDT 050420Z 35002KT CAVOK 12/09 Q1003 NOSIG
12-05-05 METAR EDDT 050450Z 29003KT 9999 -RA NSC 12/09 Q1003 NOSIG
12-05-05 METAR EDDT 050520Z 36003KT CAVOK 12/09 Q1003 NOSIG
12-05-05 METAR EDDT 050550Z VRB02KT 8000 FEW010 BKN110 12/10 Q1003 NOSIG
12-05-05 METAR EDDT 050620Z 27004KT 7000 FEW014 BKN065 12/09 Q1004 TEMPO 4000 RA BKN008
12-05-05 METAR EDDT 050650Z VRB03KT 7000 FEW014 BKN065 13/09 Q1003 TEMPO 4000 RA
12-05-05 METAR EDDT 050720Z 36004KT 8000 SCT014 SCT018 BKN065 13/09 Q1004 TEMPO 4000 RA BKN008
12-05-05 METAR EDDT 050750Z 31006KT 8000 -RA SCT012 SCT019 12/09 Q1004 TEMPO 4000 RA
12-05-05 METAR EDDT 050820Z 31005KT 8000 -RA FEW014 BKN018 12/09 Q1005 TEMPO 4000 RA
12-05-05 METAR EDDT 050850Z 32006KT 8000 -RA SCT010 SCT019 BKN120 12/09 Q1005 TEMPO BKN014
12-05-05 METAR EDDT 050920Z 32006KT 7000 -RA FEW007 BKN010 BKN020 11/09 Q1005 NOSIG
12-05-05 METAR EDDT 050950Z 34006KT 7000 -RA FEW008 BKN010 BKN015 11/09 Q1005 NOSIG
12-05-05 METAR EDDT 051020Z 33006KT 7000 -RA FEW006 BKN008 BKN015 11/09 Q1005 BECMG BKN015
12-05-05 METAR EDDT 051050Z 35006KT 9000 BKN009 BKN013 10/08 Q1006 BECMG BKN015
12-05-05 METAR EDDT 051120Z 35006KT 9999 FEW008 BKN010 BKN013 10/08 Q1006 NOSIG
12-05-05 METAR EDDT 051150Z 36006KT 9999 SCT008 BKN010 10/07 Q1006 TEMPO BKN015
12-05-05 METAR EDDT 051220Z 36008KT 9999 FEW007 BKN009 10/07 Q1006 TEMPO BKN015
12-05-05 METAR EDDT 051250Z 36006KT 9999 -RA FEW010 BKN013 10/07 Q1006 TEMPO RA
12-05-05 METAR EDDT 051320Z 35006KT 9999 -RA BKN012 10/07 Q1006 TEMPO RA BKN015
12-05-05 METAR EDDT 051350Z 34006KT 9999 -RA BKN014 BKN017 10/06 Q1006 TEMPO RA
12-05-05 METAR EDDT 051420Z 34006KT 9999 -RA BKN012 10/07 Q1006 TEMPO RA BKN015
12-05-05 METAR EDDT 051450Z 35006KT 9999 -RA FEW012 SCT060 BKN120 10/06 Q1006 TEMPO RA BKN012
12-05-05 METAR EDDT 051520Z 34006KT 9999 -RA FEW014 SCT060 BKN120 09/06 Q1007 TEMPO
12-05-05 METAR EDDT 051550Z 01008KT 8000 RA FEW011 SCT030 BKN060 08/04 Q1007 TEMPO
12-05-05 METAR EDDT 051620Z 35005KT 9999 RA FEW011 SCT035 BKN050 07/05 Q1007 TEMPO
12-05-05 METAR EDDT 051650Z 36006KT 9999 RA FEW011 SCT040 BKN060 07/05 Q1007 TEMPO
12-05-05 METAR EDDT 051720Z 02006KT 9999 -RA FEW012 SCT030 BKN060 07/04 Q1007 RERA TEMPO BKN012
12-05-05 METAR EDDT 051750Z 04005KT 9999 -RA FEW012 BKN050 07/04 Q1007 TEMPO BKN012
12-05-05 METAR EDDT 051820Z 04004KT 9999 -RA FEW012 SCT030 BKN060 07/05 Q1007 TEMPO
12-05-05 METAR EDDT 051850Z 04005KT 9999 -RA FEW012 BKN030 BKN044 07/05 Q1007 TEMPO RA
12-05-05 METAR EDDT 051920Z 03006KT 9999 -RA SCT030 BKN060 07/04 Q1007 TEMPO RA
12-05-05 METAR EDDT 051950Z 03003KT 9999 BKN030 07/04 Q1007 NOSIG
12-05-05 METAR EDDT 052020Z 02005KT 9999 BKN033 07/04 Q1007 NOSIG
12-05-05 METAR EDDT 052050Z 02005KT 9999 -RA BKN030 07/04 Q1007 TEMPO RA
12-05-05 METAR EDDT 052120Z 36003KT 9999 RA BKN030 07/03 Q1008
12-05-05 METAR EDDT 052150Z 36004KT 9999 RA BKN033 06/04 Q1008
12-05-05 METAR EDDT 052220Z 36003KT 9999 -RA BKN033 06/04 Q1008 RERA
12-05-05 METAR EDDT 052250Z 02004KT 9999 RA BKN035 06/03 Q1008
12-05-05 METAR EDDT 052320Z 01003KT 9999 RA BKN033 OVC040 06/03 Q1008
12-05-05 METAR EDDT 052350Z 35002KT 9999 -RA BKN030 06/04 Q1008 RERA
12-05-06 METAR EDDT 052350Z 35002KT 9999 -RA BKN030 06/04 Q1008 RERA
12-05-06 METAR EDDT 060020Z 34003KT 9999 -RA BKN030 06/04 Q1008
12-05-06 METAR EDDT 060050Z 34003KT 9999 RA SCT025 BKN035 06/04 Q1008
12-05-06 METAR EDDT 060120Z 32004KT 9999 -RA FEW025 BKN030 OVC050 06/04 Q1008 RERA
12-05-06 METAR EDDT 060150Z 34004KT 9999 -RA BKN033 06/04 Q1008
12-05-06 METAR EDDT 060220Z 35005KT 9999 -RA BKN033 06/04 Q1008
12-05-06 METAR EDDT 060250Z 35004KT 9999 -RA FEW007 SCT025 BKN045 06/04 Q1008 TEMPO BKN012
12-05-06 METAR EDDT 060320Z 32004KT 9999 -RA SCT007 SCT012 BKN038 06/04 Q1009 TEMPO
12-05-06 METAR EDDT 060350Z 34005KT 9999 -RA SCT010 BKN020 BKN027 05/04 Q1009 TEMPO BKN010
12-05-06 METAR EDDT 060420Z 35006KT 9999 -RA FEW007 SCT010 BKN018 05/03 Q1009 TEMPO
12-05-06 METAR EDDT 060450Z 36006KT 9999 -RA SCT009 BKN016 05/03 Q1010 TEMPO BKN010
12-05-06 METAR EDDT 060520Z 36004KT 9999 -RA FEW009 BKN017 05/03 Q1010 TEMPO BKN010
12-05-06 METAR EDDT 060550Z 01004KT 9999 -RA FEW009 SCT020 BKN030 05/03 Q1010 NOSIG
12-05-06 METAR EDDT 060620Z 35003KT 9999 FEW008 BKN030 06/03 Q1011 NOSIG
12-05-06 METAR EDDT 060650Z 36003KT 9999 BKN008 BKN030 06/04 Q1011 BECMG BKN010
12-05-06 METAR EDDT 060720Z VRB03KT 9999 SCT009 BKN035 06/04 Q1011 NOSIG
12-05-06 METAR EDDT 060750Z 01003KT 9999 SCT010 BKN040 07/04 Q1011 NOSIG
12-05-06 METAR EDDT 060820Z 03004KT 9999 SCT012 BKN045 07/04 Q1012 NOSIG
12-05-06 METAR EDDT 060850Z 06005KT 030V090 9999 SCT014 BKN050 07/03 Q1012 NOSIG
12-05-06 METAR EDDT 060920Z 08003KT 9999 SCT015 SCT030 BKN050 08/04 Q1012 NOSIG
12-05-06 METAR EDDT 060950Z 36002KT 9999 SCT016 BKN050 08/03 Q1012 NOSIG
12-05-06 METAR EDDT 061020Z VRB02KT 9999 BKN017 BKN035 08/03 Q1012 NOSIG
12-05-06 METAR EDDT 061050Z 04004KT 9999 BKN020 BKN035 08/03 Q1012 NOSIG
12-05-06 METAR EDDT 061120Z 09004KT 9999 SCT020 BKN035 09/03 Q1013 NOSIG
12-05-06 METAR EDDT 061150Z 07005KT 9999 SCT025 BKN040 09/03 Q1013 NOSIG
12-05-06 METAR EDDT 061220Z 33005KT 9999 FEW019 SCT025 BKN040 09/03 Q1013 NOSIG
12-05-06 METAR EDDT 061250Z 34003KT 9999 FEW020 BKN030 09/03 Q1013 NOSIG
12-05-06 METAR EDDT 061320Z 01003KT 9999 FEW020 SCT030 BKN040 09/03 Q1013 NOSIG
12-05-06 METAR EDDT 061350Z 02002KT 9999 FEW020 BKN040 10/03 Q1013 NOSIG
12-05-06 METAR EDDT 061420Z 09004KT 9999 FEW025 BKN040 10/03 Q1013 NOSIG
12-05-06 METAR EDDT 061450Z 10005KT 9999 FEW025 BKN045 BKN220 10/03 Q1013 NOSIG
12-05-06 METAR EDDT 061520Z 10005KT 9999 FEW025 SCT045 OVC220 10/02 Q1013 NOSIG
12-05-06 METAR EDDT 061550Z 10005KT 9999 FEW030 BKN140 10/03 Q1013 NOSIG
12-05-06 METAR EDDT 061620Z 11004KT 9999 FEW030 BKN140 10/03 Q1013 NOSIG
12-05-06 METAR EDDT 061650Z 14005KT 9999 FEW030 BKN140 10/03 Q1013 NOSIG
12-05-06 METAR EDDT 061720Z 14003KT 9999 FEW040 OVC140 10/04 Q1013 NOSIG
12-05-06 METAR EDDT 061750Z 16003KT 9999 FEW040 OVC140 09/03 Q1013 NOSIG
12-05-06 METAR EDDT 061820Z 13004KT 9999 FEW040 OVC140 09/03 Q1013 NOSIG
12-05-06 METAR EDDT 061850Z 36001KT CAVOK 09/03 Q1014 NOSIG
12-05-06 METAR EDDT 061920Z VRB02KT CAVOK 09/04 Q1014 NOSIG
12-05-06 METAR EDDT 061950Z 18003KT CAVOK 09/04 Q1014 NOSIG
12-05-06 METAR EDDT 062020Z VRB01KT CAVOK 08/04 Q1014 NOSIG
12-05-06 METAR EDDT 062050Z 00000KT 9999 FEW045 OVC120 09/04 Q1014 NOSIG
12-05-06 METAR EDDT 062120Z VRB01KT 9999 -RA FEW045 OVC120 09/04 Q1015
12-05-06 METAR EDDT 062150Z 00000KT 9999 -RA FEW040 OVC120 08/04 Q1015
12-05-06 METAR EDDT 062220Z 00000KT 9999 -RA FEW020 SCT020 OVC100 08/04 Q1015
12-05-06 METAR EDDT 062250Z VRB02KT 9999 -RA FEW020 BKN030 OVC100 08/05 Q1015
12-05-06 METAR EDDT 062320Z 14003KT 9999 -RA FEW020 BKN030 OVC100 08/05 Q1015
12-05-06 METAR EDDT 062350Z VRB01KT 9999 FEW020 BKN030 BKN100 08/04 Q1015
12-05-07 METAR EDDT 062350Z VRB01KT 9999 FEW020 BKN030 BKN100 08/04 Q1015
12-05-07 METAR EDDT 070020Z 05001KT 9999 FEW020 BKN030 BKN100 08/05 Q1015
12-05-07 METAR EDDT 070050Z 02002KT 9999 FEW020 BKN040 08/05 Q1016
12-05-07 METAR EDDT 070120Z VRB01KT CAVOK 08/05 Q1016
12-05-07 METAR EDDT 070150Z 29001KT CAVOK 08/05 Q1016
12-05-07 METAR EDDT 070220Z VRB01KT CAVOK 08/05 Q1016
12-05-07 METAR EDDT 070250Z 01002KT CAVOK 08/04 Q1016 NOSIG
12-05-07 METAR EDDT 070320Z 02002KT CAVOK 08/04 Q1016 NOSIG
12-05-07 METAR EDDT 070420Z 06004KT CAVOK 08/05 Q1016 NOSIG
12-05-07 METAR EDDT 070450Z 06003KT CAVOK 08/05 Q1016 NOSIG
12-05-07 METAR EDDT 070520Z 06005KT CAVOK 09/04 Q1017 NOSIG
12-05-07 METAR EDDT 070550Z 10004KT CAVOK 09/04 Q1017 NOSIG
12-05-07 METAR EDDT 070620Z 08004KT CAVOK 09/04 Q1017 NOSIG
12-05-07 METAR EDDT 070650Z 09006KT CAVOK 10/03 Q1017 NOSIG
12-05-07 METAR EDDT 070720Z 06007KT 9999 FEW025 BKN120 10/03 Q1017 NOSIG
12-05-07 METAR EDDT 070750Z 07006KT 9999 FEW025 SCT060 BKN120 11/03 Q1017 NOSIG
12-05-07 METAR EDDT 070820Z 10006KT 050V110 9999 FEW025 BKN050 BKN120 11/02 Q1018 NOSIG
12-05-07 METAR EDDT 070850Z 12004KT 9999 SCT030 BKN050 11/03 Q1018 NOSIG
12-05-07 METAR EDDT 070920Z 10006KT 070V130 9999 SCT030 BKN050 11/03 Q1018 NOSIG
12-05-07 METAR EDDT 070950Z 09006KT 030V120 9999 BKN034 BKN120 12/04 Q1018 NOSIG
12-05-07 METAR EDDT 071020Z 11007KT 9999 BKN034 BKN120 12/04 Q1018 NOSIG
12-05-07 METAR EDDT 071050Z 12006KT 9999 BKN036 BKN054 12/03 Q1018 NOSIG
12-05-07 METAR EDDT 071120Z 14005KT 9999 BKN036 BKN054 12/03 Q1018 NOSIG
12-05-07 METAR EDDT 071150Z 13005KT 090V170 9999 BKN037 BKN050 12/03 Q1018 NOSIG
12-05-07 METAR EDDT 071220Z 16005KT 9999 BKN038 BKN060 12/03 Q1018 NOSIG
12-05-07 METAR EDDT 071250Z 17004KT 9999 BKN038 BKN060 12/03 Q1018 NOSIG
12-05-07 METAR EDDT 071320Z 22004KT 180V240 9999 SCT035 BKN038 12/04 Q1019 NOSIG
12-05-07 METAR EDDT 071350Z VRB02KT 9999 FEW034 BKN037 BKN050 13/04 Q1018 NOSIG
12-05-07 METAR EDDT 071420Z VRB03G13KT 9999 BKN035 BKN050 13/04 Q1018 NOSIG
12-05-07 METAR EDDT 071450Z VRB01KT 9999 BKN035 13/04 Q1018 NOSIG
12-05-07 METAR EDDT 071520Z VRB02KT 9999 BKN035 13/04 Q1018 NOSIG
12-05-07 METAR EDDT 071550Z VRB02KT 9999 BKN034 13/05 Q1018 NOSIG
12-05-07 METAR EDDT 071620Z VRB01KT 9999 BKN033 BKN042 13/05 Q1018 NOSIG
12-05-07 METAR EDDT 071650Z 32003KT 9999 FEW028 BKN032 12/05 Q1019 NOSIG
12-05-07 METAR EDDT 071720Z 35003KT 9999 FEW028 SCT032 BKN050 12/05 Q1019 NOSIG
12-05-07 METAR EDDT 071750Z 36003KT 9999 FEW028 BKN050 12/05 Q1019 NOSIG
12-05-07 METAR EDDT 071820Z 02002KT 9999 FEW028 SCT050 12/05 Q1019 NOSIG
12-05-07 METAR EDDT 071850Z VRB02KT 9999 FEW028 SCT050 11/05 Q1019 NOSIG
12-05-07 METAR EDDT 071920Z 36001KT CAVOK 11/05 Q1019 NOSIG
12-05-07 METAR EDDT 071950Z 28001KT CAVOK 09/05 Q1019 NOSIG
12-05-07 METAR EDDT 072020Z 02002KT CAVOK 09/05 Q1019 NOSIG
12-05-07 METAR EDDT 072050Z 04003KT CAVOK 09/06 Q1019 NOSIG
12-05-07 METAR EDDT 072120Z 05003KT CAVOK 10/06 Q1019
12-05-07 METAR EDDT 072150Z 36001KT CAVOK 10/06 Q1019
12-05-07 METAR EDDT 072220Z VRB01KT CAVOK 10/06 Q1019
12-05-07 METAR EDDT 072250Z 02002KT CAVOK 10/06 Q1019
12-05-07 METAR EDDT 072320Z VRB01KT CAVOK 10/06 Q1019
12-05-07 METAR EDDT 072350Z VRB01KT CAVOK 10/06 Q1019
12-05-08 METAR EDDT 072350Z VRB01KT CAVOK 10/06 Q1019
12-05-08 METAR EDDT 080020Z 01001KT CAVOK 10/06 Q1019
12-05-08 METAR EDDT 080050Z 06001KT CAVOK 10/06 Q1019
12-05-08 METAR EDDT 080120Z 36001KT CAVOK 09/06 Q1019
12-05-08 METAR EDDT 080150Z 03001KT CAVOK 09/06 Q1019
12-05-08 METAR EDDT 080220Z 04002KT CAVOK 09/06 Q1019
12-05-08 METAR EDDT 080250Z 05002KT CAVOK 09/06 Q1018 NOSIG
12-05-08 METAR EDDT 080320Z 04001KT CAVOK 09/06 Q1018 NOSIG
12-05-08 METAR EDDT 080350Z 07003KT CAVOK 09/06 Q1018 NOSIG
12-05-08 METAR EDDT 080420Z 10003KT CAVOK 10/06 Q1018 NOSIG
12-05-08 METAR EDDT 080450Z 12005KT CAVOK 10/07 Q1018 NOSIG
12-05-08 METAR EDDT 080520Z 13006KT CAVOK 10/07 Q1018 NOSIG
12-05-08 METAR EDDT 080550Z 12006KT CAVOK 11/08 Q1018 NOSIG
12-05-08 METAR EDDT 080620Z 12005KT CAVOK 11/07 Q1018 NOSIG
12-05-08 METAR EDDT 080650Z 13007KT CAVOK 12/07 Q1018 NOSIG
12-05-08 METAR EDDT 080720Z 13007KT CAVOK 13/07 Q1018 NOSIG
12-05-08 METAR EDDT 080750Z 11007KT CAVOK 14/07 Q1018 NOSIG
12-05-08 METAR EDDT 080820Z 12008KT 9999 FEW030 BKN270 15/08 Q1018 NOSIG
12-05-08 METAR EDDT 080850Z 13008KT 9999 FEW030 BKN270 16/08 Q1017 NOSIG
12-05-08 METAR EDDT 080920Z 14006KT 9999 FEW033 BKN270 16/07 Q1017 NOSIG
12-05-08 METAR EDDT 080950Z 15007KT 110V170 9999 FEW038 BKN270 17/08 Q1017 NOSIG
12-05-08 METAR EDDT 081020Z 15007KT 120V180 9999 SCT038 SCT270 17/08 Q1017 NOSIG
12-05-08 METAR EDDT 081050Z 17007KT 9999 SCT040 SCT110 17/08 Q1016 NOSIG
12-05-08 METAR EDDT 081120Z 16008KT 130V190 9999 SCT036 SCT110 17/08 Q1016 NOSIG
12-05-08 METAR EDDT 081150Z 13006KT 9999 SCT030 SCT070 BKN270 17/07 Q1016 NOSIG
12-05-08 METAR EDDT 081220Z 15007KT 9999 SCT040 SCT070 BKN270 18/08 Q1016 NOSIG
12-05-08 METAR EDDT 081250Z 18006KT 9999 SCT044 BKN070 18/07 Q1016 NOSIG
12-05-08 METAR EDDT 081320Z 16007KT 9999 SCT044 BKN070 18/08 Q1016 NOSIG
12-05-08 METAR EDDT 081420Z 14008KT 9999 FEW044 BKN100 19/08 Q1015 NOSIG
12-05-08 METAR EDDT 081450Z 15008KT 9999 FEW044 SCT120 BKN270 19/07 Q1015 NOSIG
12-05-08 METAR EDDT 081520Z 14010KT 9999 FEW044 SCT120 BKN270 19/06 Q1014 NOSIG
12-05-08 METAR EDDT 081550Z 14007KT 9999 FEW048 SCT120 BKN270 19/07 Q1014 NOSIG
12-05-08 METAR EDDT 081620Z 14009KT 9999 FEW048 SCT120 BKN270 19/06 Q1014 NOSIG
12-05-08 METAR EDDT 081650Z 14009KT CAVOK 19/06 Q1014 NOSIG
12-05-08 METAR EDDT 081720Z 15006KT CAVOK 19/07 Q1014 NOSIG
12-05-08 METAR EDDT 081750Z 13005KT CAVOK 18/07 Q1014 NOSIG
12-05-08 METAR EDDT 081820Z 12007KT CAVOK 17/07 Q1014 NOSIG
12-05-08 METAR EDDT 081850Z 12007KT CAVOK 17/07 Q1014 NOSIG
12-05-08 METAR EDDT 081920Z 12006KT CAVOK 16/08 Q1014 NOSIG
12-05-08 METAR EDDT 081950Z 12007KT CAVOK 15/08 Q1014 NOSIG
12-05-08 METAR EDDT 082020Z 12006KT CAVOK 15/08 Q1014 NOSIG
12-05-08 METAR EDDT 082050Z 13009KT CAVOK 16/08 Q1014 NOSIG
12-05-08 METAR EDDT 082120Z 13010KT CAVOK 15/08 Q1014
12-05-08 METAR EDDT 082150Z 13009KT CAVOK 15/08 Q1014
12-05-08 METAR EDDT 082220Z 13009KT CAVOK 15/09 Q1014
12-05-08 METAR EDDT 082250Z 13009KT CAVOK 15/08 Q1014
12-05-08 METAR EDDT 082320Z 13007KT CAVOK 15/08 Q1014
12-05-09 METAR EDDT 082350Z 14007KT CAVOK 14/08 Q1014
12-05-09 METAR EDDT 090020Z 14006KT CAVOK 14/08 Q1013
12-05-09 METAR EDDT 090050Z 13006KT CAVOK 13/08 Q1013
12-05-09 METAR EDDT 090120Z 13005KT CAVOK 13/08 Q1013
12-05-09 METAR EDDT 090150Z 13004KT CAVOK 13/08 Q1013
12-05-09 METAR EDDT 090220Z 13003KT CAVOK 12/08 Q1013
12-05-09 METAR EDDT 090250Z 12003KT CAVOK 12/08 Q1013 NOSIG
12-05-09 METAR EDDT 090320Z 12003KT CAVOK 12/08 Q1013 NOSIG
12-05-09 METAR EDDT 090420Z 14004KT CAVOK 13/08 Q1013 NOSIG
12-05-09 METAR EDDT 090450Z 14006KT CAVOK 13/08 Q1013 NOSIG
12-05-09 METAR EDDT 090520Z 16005KT CAVOK 14/09 Q1013 NOSIG
12-05-09 METAR EDDT 090550Z 16007KT CAVOK 14/09 Q1013 NOSIG
12-05-09 METAR EDDT 090620Z 17006KT CAVOK 15/08 Q1014 NOSIG
12-05-09 METAR EDDT 090650Z 17007KT CAVOK 15/08 Q1014 NOSIG
12-05-09 METAR EDDT 090720Z 20008KT CAVOK 17/10 Q1014 NOSIG
12-05-09 METAR EDDT 090750Z 21005KT 9999 -RA SCT045 BKN070 16/10 Q1014 TEMPO RA
12-05-09 METAR EDDT 090820Z 20004KT 9999 -RA FEW030 BKN060 15/11 Q1014 TEMPO RA
12-05-09 METAR EDDT 090850Z 16005KT 9999 -RA FEW018 SCT030 BKN070 16/11 Q1014 NOSIG
12-05-09 METAR EDDT 090920Z 16007KT 9999 -RA FEW030 BKN070 16/11 Q1014 NOSIG
12-05-09 METAR EDDT 090950Z 17009KT 9999 FEW030 BKN070 17/11 Q1014 NOSIG
12-05-09 METAR EDDT 091020Z 17010KT 9999 FEW025 BKN070 18/11 Q1014 NOSIG
12-05-09 METAR EDDT 091050Z 18010KT 9999 FEW030 BKN090 20/12 Q1014 NOSIG
12-05-09 METAR EDDT 091120Z 19013KT 9999 SCT033 SCT100 21/12 Q1014 NOSIG
12-05-09 METAR EDDT 091150Z 20013KT 9999 BKN035 BKN100 20/12 Q1014 NOSIG
12-05-09 METAR EDDT 091220Z 22014KT 9999 BKN035 BKN090 21/12 Q1014 NOSIG
12-05-09 METAR EDDT 091250Z 21011KT 9999 SCT035 BKN090 21/13 Q1014 NOSIG
12-05-09 METAR EDDT 091320Z 22013KT 9999 BKN035 BKN090 20/12 Q1014 NOSIG
12-05-09 METAR EDDT 091350Z 22011KT 9999 SCT035 BKN050 20/12 Q1015 NOSIG
12-05-09 METAR EDDT 091420Z 21012KT 9999 SCT035 SCT050 21/12 Q1015 NOSIG
12-05-09 METAR EDDT 091450Z 22011KT 9999 BKN035 SCT100 21/12 Q1015 NOSIG
12-05-09 METAR EDDT 091520Z 24011KT 9999 SCT038 SCT060 21/11 Q1015 NOSIG
12-05-09 METAR EDDT 091550Z 23010KT 9999 FEW040 BKN100 22/12 Q1015 NOSIG
12-05-09 METAR EDDT 091620Z 22010KT 9999 FEW040 SCT100 BKN250 21/12 Q1015 NOSIG
12-05-09 METAR EDDT 091650Z 21010KT 9999 FEW044TCU BKN100 BKN270 21/12 Q1015 NOSIG
12-05-09 METAR EDDT 091720Z 22010KT 9999 FEW044 BKN100 BKN270 21/12 Q1015 NOSIG
12-05-09 METAR EDDT 091750Z 21008KT CAVOK 20/12 Q1015 NOSIG
12-05-09 METAR EDDT 091820Z 21005KT CAVOK 20/12 Q1016 NOSIG
12-05-09 METAR EDDT 091850Z 20005KT CAVOK 20/12 Q1016 NOSIG
12-05-09 METAR EDDT 091920Z 20005KT CAVOK 20/12 Q1016 NOSIG
12-05-09 METAR EDDT 091950Z 19006KT CAVOK 20/12 Q1016 NOSIG
12-05-09 METAR EDDT 092020Z 19005KT CAVOK 19/12 Q1017 NOSIG
12-05-09 METAR EDDT 092050Z 18004KT CAVOK 18/12 Q1017 NOSIG
12-05-09 METAR EDDT 092120Z 18004KT CAVOK 18/12 Q1017
12-05-09 METAR EDDT 092150Z 19006KT CAVOK 18/12 Q1017
12-05-09 METAR EDDT 092220Z 21005KT CAVOK 17/12 Q1017
12-05-09 METAR EDDT 092250Z 20004KT CAVOK 17/12 Q1017
12-05-09 METAR EDDT 092320Z 21003KT CAVOK 16/12 Q1017
12-05-09 METAR EDDT 092350Z 20003KT CAVOK 16/12 Q1017
12-05-10 METAR EDDT 092350Z 20003KT CAVOK 16/12 Q1017
12-05-10 METAR EDDT 100020Z VRB02KT CAVOK 15/12 Q1018
12-05-10 METAR EDDT 100050Z 21002KT CAVOK 15/12 Q1018
12-05-10 METAR EDDT 100120Z 19001KT CAVOK 15/12 Q1018
12-05-10 METAR EDDT 100150Z 16002KT CAVOK 14/12 Q1018
12-05-10 METAR EDDT 100220Z 17001KT CAVOK 14/12 Q1018
12-05-10 METAR EDDT 100250Z 16002KT 9999 MIFG NSC 14/12 Q1018 MOSIG
12-05-10 METAR EDDT 100320Z 16003KT 9999 MIFG NSC 14/12 Q1018 MOSIG
12-05-10 METAR EDDT 100350Z 17003KT 9999 MIFG NSC 14/12 Q1019 NOSIG
12-05-10 METAR EDDT 100420Z 18004KT 9999 MIFG NSC 14/12 Q1019 NOSIG
12-05-10 METAR EDDT 100450Z 19003KT CAVOK 15/13 Q1019 NOSIG
12-05-10 METAR EDDT 100520Z 21005KT CAVOK 16/13 Q1019 NOSIG
12-05-10 METAR EDDT 100550Z 21004KT CAVOK 17/14 Q1019 NOSIG
12-05-10 METAR EDDT 100620Z 23006KT CAVOK 18/14 Q1019 NOSIG
12-05-10 METAR EDDT 100650Z 21005KT CAVOK 18/14 Q1020 NOSIG
12-05-10 METAR EDDT 100720Z 22006KT CAVOK 19/14 Q1020 NOSIG
12-05-10 METAR EDDT 100750Z 20007KT CAVOK 21/14 Q1020 NOSIG
12-05-10 METAR EDDT 100820Z 20010KT 9999 FEW030 BKN270 21/13 Q1020 NOSIG
12-05-10 METAR EDDT 100850Z 18009KT 9999 FEW036 BKN270 22/13 Q1019 NOSIG
12-05-10 METAR EDDT 100920Z 19011KT 9999 FEW040 BKN270 23/14 Q1019 NOSIG
12-05-10 METAR EDDT 100950Z 20010KT 9999 FEW040 SCT120 BKN270 24/14 Q1019 NOSIG
12-05-10 METAR EDDT 101020Z 19012KT 9999 FEW040 BKN120 BKN270 23/13 Q1019 NOSIG
12-05-10 METAR EDDT 101050Z 20011KT 9999 FEW044 BKN120 24/13 Q1019 NOSIG
12-05-10 METAR EDDT 101120Z 21011KT 9999 FEW044 BKN120 24/13 Q1019 NOSIG
12-05-10 METAR EDDT 101150Z 21013KT 9999 FEW044 BKN120 24/12 Q1019 NOSIG
12-05-10 METAR EDDT 101220Z 22011G21KT 9999 FEW046 BKN120 24/12 Q1019 NOSIG
12-05-10 METAR EDDT 101250Z 22012KT CAVOK 25/13 Q1019 NOSIG
12-05-10 METAR EDDT 101320Z 23011KT CAVOK 25/12 Q1018 NOSIG
12-05-10 METAR EDDT 101350Z 20012KT CAVOK 25/12 Q1018 NOSIG
12-05-10 METAR EDDT 101420Z 21010KT CAVOK 25/12 Q1018 NOSIG
12-05-10 METAR EDDT 101450Z 20011KT CAVOK 25/13 Q1018 NOSIG
12-05-10 METAR EDDT 101520Z 21013KT CAVOK 25/12 Q1018 NOSIG
12-05-10 METAR EDDT 101550Z 23011KT 9999 -RA NSC 25/10 Q1018 NOSIG
12-05-10 METAR EDDT 101620Z 23010KT CAVOK 24/11 Q1018 NOSIG
12-05-10 METAR EDDT 101650Z 21007KT 9999 -RA NSC 24/11 Q1018 NOSIG
12-05-10 METAR EDDT 101720Z 20007KT 9999 -RA NSC 23/14 Q1018 NOSIG
12-05-10 METAR EDDT 101750Z 19005KT CAVOK 23/14 Q1018 NOSIG
12-05-10 METAR EDDT 101820Z 19006KT CAVOK 23/13 Q1018 NOSIG
12-05-10 METAR EDDT 101850Z 18007KT CAVOK 23/13 Q1018 NOSIG
12-05-10 METAR EDDT 101920Z 18007KT CAVOK 23/13 Q1018 NOSIG
12-05-10 METAR EDDT 101950Z 19007KT CAVOK 23/13 Q1018 NOSIG
12-05-10 METAR EDDT 102020Z 19008KT CAVOK 22/13 Q1018 NOSIG
12-05-10 METAR EDDT 102050Z 19009KT CAVOK 23/13 Q1017 NOSIG
12-05-10 METAR EDDT 102120Z 19008KT CAVOK 22/13 Q1017
12-05-10 METAR EDDT 102150Z 19008KT CAVOK 22/13 Q1017
12-05-10 METAR EDDT 102220Z 19009KT CAVOK 22/13 Q1017
12-05-10 METAR EDDT 102250Z 19009KT CAVOK 22/13 Q1017
12-05-10 METAR EDDT 102320Z 21008KT 9999 -RA NSC 22/13 Q1017
12-05-10 METAR EDDT 102350Z 20006KT 9999 -RA NSC 21/13 Q1017
12-05-11 METAR EDDT 102350Z 20006KT 9999 -RA NSC 21/13 Q1017
12-05-11 METAR EDDT 110020Z 33004KT 9999 -RA NSC 21/14 Q1018
12-05-11 METAR EDDT 110050Z 15002KT 9999 -RA NSC 20/14 Q1017
12-05-11 METAR EDDT 110120Z 26001KT 9999 -RA FEW018 SCT030 BKN050 19/15 Q1018
12-05-11 METAR EDDT 110150Z VRB02KT 9999 TSRA FEW008 SCT030CB BKN090 18/16 Q1018
12-05-11 METAR EDDT 110220Z 16004KT 9999 FEW030CB SCT060 BKN110 18/16 Q1017 RETS
12-05-11 METAR EDDT 110250Z VRB02KT CAVOK 18/16 Q1017 NOSIG
12-05-11 METAR EDDT 110320Z 21002KT CAVOK 18/16 Q1017 NOSIG
12-05-11 METAR EDDT 110350Z 14003KT CAVOK 18/16 Q1017 NOSIG
12-05-11 METAR EDDT 110420Z 15004KT CAVOK 18/16 Q1017 NOSIG
12-05-11 METAR EDDT 110450Z VRB02KT CAVOK 19/16 Q1017 NOSIG
12-05-11 METAR EDDT 110520Z 19006KT CAVOK 20/15 Q1017 NOSIG
12-05-11 METAR EDDT 110550Z 20007KT CAVOK 20/15 Q1017 NOSIG
12-05-11 METAR EDDT 110620Z 21009KT CAVOK 21/16 Q1018 NOSIG
12-05-11 METAR EDDT 110650Z 21009KT CAVOK 22/16 Q1018 NOSIG
12-05-11 METAR EDDT 110720Z 21010KT CAVOK 24/17 Q1018 NOSIG
12-05-11 METAR EDDT 110750Z 22012KT CAVOK 25/15 Q1018 NOSIG
12-05-11 METAR EDDT 110820Z 22010KT CAVOK 25/16 Q1018 NOSIG
12-05-11 METAR EDDT 110850Z 24013KT CAVOK 26/15 Q1018 NOSIG
12-05-11 METAR EDDT 110920Z 25015KT 9999 FEW045 BKN270 27/15 Q1018 TEMPO 25015G25KT
12-05-11 METAR EDDT 110950Z 25014KT 9999 FEW037 SCT130 BKN270 27/13 Q1017 TEMPO 25015G25KT
12-05-11 METAR EDDT 111020Z 25015KT 9999 FEW037 SCT130 BKN270 27/13 Q1017 TEMPO
12-05-11 METAR EDDT 111050Z 24015KT 9999 FEW037 SCT070 BKN270 27/13 Q1017 TEMPO
12-05-11 METAR EDDT 111120Z 24015KT 9999 FEW037 SCT070 BKN270 27/13 Q1017 TEMPO
12-05-11 METAR EDDT 111150Z 24015KT 9999 FEW037 SCT120 BKN270 28/13 Q1017 TEMPO
12-05-11 METAR EDDT 111220Z 24015KT 9999 FEW040 SCT250 BKN270 28/12 Q1017 TEMPO
12-05-11 METAR EDDT 111250Z 23015G25KT 9999 SCT040 SCT250 BKN270 27/13 Q1017 NOSIG
12-05-11 METAR EDDT 111320Z 24013KT 9999 -SHRA FEW025CB SCT040 BKN270 26/15 Q1017 TEMPO 24020G35 TSRA
12-05-11 METAR EDDT 111350Z 24015KT 9999 VCTS -SHRA FEW015 FEW020CB SCT060 BKN270 21/18 Q1018 TEMPO 24015G25KT
12-05-11 METAR EDDT 111420Z 26004KT 9999 FEW025CB SCT035 BKN270 22/18 Q1017 TEMPO 24015G25KT
12-05-11 METAR EDDT 111450Z 26004KT 9999 FEW035 SCT060 BKN110 23/18 Q1017 TEMPO
12-05-11 METAR EDDT 111520Z 28004KT 9999 FEW025CB SCT060 BKN120 23/19 Q1017 TEMPO 24015G25KT TSRA
12-05-11 METAR EDDT 111550Z 23006KT 200V260 9999 VCTS FEW015CB SCT060 BKN120 20/17 Q1018 TEMPO 24015G25KT TSRA
12-05-11 METAR EDDT 111620Z VRB02KT 9999 -RA SCT025CB BKN120 20/18 Q1018 TEMPO
12-05-11 METAR EDDT 111650Z 30009KT 9999 -SHRA SCT025TCU SCT060 BKN120 20/17 Q1018 TEMPO 24015G25KT TSRA
12-05-11 METAR EDDT 111720Z 31005KT 9999 -SHRA FEW025TCU SCT060 BKN120 19/17 Q1017 NOSIG
12-05-11 METAR EDDT 111750Z 29006KT 9999 FEW025 SCT060 BKN100 19/17 Q1018 NOSIG
12-05-11 METAR EDDT 111820Z 28006KT 9999 FEW020 SCT060 BKN100 19/17 Q1018 NOSIG
12-05-11 METAR EDDT 111850Z 29007KT 9999 -RA FEW020 SCT060 BKN100 18/16 Q1018 NOSIG
12-05-11 METAR EDDT 111920Z 30006KT 9999 -RA FEW020 SCT060 BKN100 18/16 Q1018 NOSIG
12-05-11 METAR EDDT 111950Z 30010KT 9999 -RA BKN024 18/14 Q1018 NOSIG
12-05-11 METAR EDDT 112020Z 30008KT 9999 -RA BKN028 17/13 Q1019 NOSIG
12-05-11 METAR EDDT 112050Z 28009KT 9999 -RA BKN038 16/13 Q1020 NOSIG
12-05-11 METAR EDDT 112120Z 29006KT 9999 -RA SCT028 BKN040 15/13 Q1020
12-05-11 METAR EDDT 112150Z 33010KT 9999 -RA SCT032 BKN050 14/11 Q1021
12-05-11 METAR EDDT 112220Z 32007KT 9999 -RA SCT020 BKN038 13/10 Q1021
12-05-11 METAR EDDT 112250Z 32004KT 9999 SCT030 BKN060 13/10 Q1021
12-05-11 METAR EDDT 112320Z 32004KT 9999 -RA SCT037 BKN060 13/10 Q1021
12-05-11 METAR EDDT 112350Z 29004KT CAVOK 13/10 Q1021
12-05-12 METAR EDDT 112350Z 29004KT CAVOK 13/10 Q1021
12-05-12 METAR EDDT 120020Z 29004KT CAVOK 12/10 Q1022
12-05-12 METAR EDDT 120050Z 30009KT 9999 BKN040 12/08 Q1022
12-05-12 METAR EDDT 120120Z 30010KT 9999 BKN040 12/07 Q1022
12-05-12 METAR EDDT 120150Z 31008KT CAVOK 11/07 Q1023
12-05-12 METAR EDDT 120220Z 31008KT CAVOK 10/06 Q1023
12-05-12 METAR EDDT 120250Z 29008KT 9999 FEW020 10/06 Q1023 NOSIG
12-05-12 METAR EDDT 120320Z 30009KT 9999 FEW020 BKN120 10/06 Q1023 NOSIG
12-05-12 METAR EDDT 120350Z 30009KT 9999 FEW020 BKN120 09/05 Q1024 NOSIG
12-05-12 METAR EDDT 120420Z 31010KT 9999 FEW020 BKN120 09/04 Q1024 NOSIG
12-05-12 METAR EDDT 120450Z 29010KT 9999 FEW020 BKN120 09/04 Q1024 NOSIG
12-05-12 METAR EDDT 120520Z 29010KT 9999 FEW020 SCT110 09/04 Q1025 NOSIG
12-05-12 METAR EDDT 120550Z 29011KT 9999 SCT022 BKN039 09/04 Q1025 NOSIG
12-05-12 METAR EDDT 120620Z 29008KT 9999 BKN022 BKN039 09/05 Q1025 NOSIG
12-05-12 METAR EDDT 120650Z 29011KT 9999 FEW022 SCT110 09/04 Q1026 NOSIG
12-05-12 METAR EDDT 120720Z 29010G21KT 9999 BKN025 SCT035 10/03 Q1026 NOSIG
12-05-12 METAR EDDT 120750Z 31011KT 9999 FEW028 SCT110 10/02 Q1026 NOSIG
12-05-12 METAR EDDT 120820Z 32010KT 9999 SCT030 11/02 Q1027 NOSIG
12-05-12 METAR EDDT 120850Z 29012KT 9999 SCT032 11/03 Q1027 NOSIG
12-05-12 METAR EDDT 120920Z 30011KT 9999 BKN032 11/03 Q1027 NOSIG
12-05-12 METAR EDDT 120950Z 30011KT 9999 BKN035 11/02 Q1027 NOSIG
12-05-12 METAR EDDT 121020Z 29015G25KT 9999 SCT039 12/02 Q1027 NOSIG
12-05-12 METAR EDDT 121050Z 30014G24KT 9999 SCT040 12/02 Q1027 NOSIG
12-05-12 METAR EDDT 121120Z 30014G26KT 9999 SCT044 12/01 Q1027 NOSIG
12-05-12 METAR EDDT 121150Z 28016G27KT 9999 SCT046 13/03 Q1027 NOSIG
12-05-12 METAR EDDT 121220Z 30015KT 9999 SCT048 13/01 Q1028 TEMPO 30015G25KT
12-05-12 METAR EDDT 121250Z 29015KT 9999 SCT048 13/01 Q1028 TEMPO 30015G25KT
12-05-12 METAR EDDT 121320Z 29015KT 9999 BKN048 13/M01 Q1028 TEMPO 30015G25KT
12-05-12 METAR EDDT 121350Z 30012KT 9999 FEW030 SCT048 BKN060 12/01 Q1028 TEMPO
12-05-12 METAR EDDT 121420Z 30015KT 9999 SCT048 SCT060 13/01 Q1028 TEMPO 30015G25KT
12-05-12 METAR EDDT 121450Z 29016KT 9999 FEW048 SCT070 13/M00 Q1028 TEMPO
12-05-12 METAR EDDT 121520Z 29015KT CAVOK 13/M00 Q1028 TEMPO 30015G25KT
12-05-12 METAR EDDT 121550Z 28018KT CAVOK 13/M01 Q1029 TEMPO 30015G25KT
12-05-12 METAR EDDT 121620Z 29012KT CAVOK 12/M01 Q1029 TEMPO 30015G25KT
12-05-12 METAR EDDT 121650Z 31011KT CAVOK 12/M01 Q1029 TEMPO 30015G25KT
12-05-12 METAR EDDT 121720Z 32010KT CAVOK 12/M01 Q1029 TEMPO 30015G25KT
12-05-12 METAR EDDT 121750Z 30011KT CAVOK 11/M02 Q1029 NOSIG
12-05-12 METAR EDDT 121820Z 30013G23KT CAVOK 11/M02 Q1029 NOSIG
12-05-12 METAR EDDT 121850Z 30010KT CAVOK 10/M01 Q1029 NOSIG
12-05-12 METAR EDDT 121920Z 29010G20KT CAVOK 09/M01 Q1030 NOSIG
12-05-12 METAR EDDT 121950Z 29008KT CAVOK 09/M00 Q1030 NOSIG
12-05-12 METAR EDDT 122020Z 29007KT CAVOK 08/01 Q1030 NOSIG
12-05-12 METAR EDDT 122050Z 29010KT CAVOK 08/01 Q1030 NOSIG
12-05-12 METAR EDDT 122120Z 29011KT CAVOK 08/01 Q1030
12-05-12 METAR EDDT 122150Z 29010KT CAVOK 07/01 Q1030
12-05-12 METAR EDDT 122220Z 29009KT CAVOK 07/01 Q1031
12-05-12 METAR EDDT 122250Z 29010KT CAVOK 06/02 Q1030
12-05-12 METAR EDDT 122320Z 29008KT CAVOK 06/02 Q1030
12-05-12 METAR EDDT 122350Z 29007KT CAVOK 06/02 Q1030
12-05-13 METAR EDDT 122350Z 29007KT CAVOK 06/02 Q1030
12-05-13 METAR EDDT 130020Z 29008KT CAVOK 05/02 Q1030
12-05-13 METAR EDDT 130050Z 28008KT CAVOK 05/02 Q1030
12-05-13 METAR EDDT 130120Z 29008KT CAVOK 05/02 Q1030
12-05-13 METAR EDDT 130150Z 29008KT CAVOK 05/02 Q1030
12-05-13 METAR EDDT 130220Z 29007KT CAVOK 04/02 Q1030
12-05-13 METAR EDDT 130250Z 29006KT CAVOK 04/02 Q1030 NOSIG
12-05-13 METAR EDDT 130320Z 29007KT CAVOK 04/02 Q1030 NOSIG
12-05-13 METAR EDDT 130350Z 28007KT CAVOK 05/02 Q1030 NOSIG
12-05-13 METAR EDDT 130420Z 28006KT CAVOK 05/03 Q1030 NOSIG
12-05-13 METAR EDDT 130450Z 29009KT 9999 FEW011 BKN050 05/03 Q1030 NOSIG
12-05-13 METAR EDDT 130520Z 29007KT 9999 SCT015 BKN050 06/03 Q1030 NOSIG
12-05-13 METAR EDDT 130550Z 29008KT 9999 SCT015 BKN050 06/03 Q1030 NOSIG
12-05-13 METAR EDDT 130620Z 32007KT 9999 BKN015 BKN050 07/03 Q1030 NOSIG
12-05-13 METAR EDDT 130650Z 31008KT 9999 BKN015 BKN050 07/03 Q1030 NOSIG
12-05-13 METAR EDDT 130720Z 30007KT 9999 BKN016 07/04 Q1030 NOSIG
12-05-13 METAR EDDT 130750Z 29009KT 9999 BKN018 BKN050 08/03 Q1030 NOSIG
12-05-13 METAR EDDT 130820Z 29007KT 9999 BKN018 BKN050 08/03 Q1030 NOSIG
12-05-13 METAR EDDT 130850Z 29009KT 9999 BKN020 BKN050 08/03 Q1030 NOSIG
12-05-13 METAR EDDT 130920Z 34005KT 9999 -SHRA BKN020 BKN030 08/04 Q1030 NOSIG
12-05-13 METAR EDDT 130950Z 32005KT 9999 BKN020 BKN045 09/04 Q1030 NOSIG
12-05-13 METAR EDDT 131020Z 29008KT 280V340 9999 SCT022 SCT040 BKN070 10/04 Q1030 NOSIG
12-05-13 METAR EDDT 131050Z 29009KT 9999 BKN022 BKN060 11/04 Q1029 NOSIG
12-05-13 METAR EDDT 131120Z 33007KT 9999 SCT025 BKN060 10/03 Q1029 NOSIG
12-05-13 METAR EDDT 131150Z 28007KT 9999 SCT025 BKN060 11/02 Q1029 NOSIG
12-05-13 METAR EDDT 131220Z 33007KT 9999 BKN033 BKN060 11/02 Q1029 NOSIG
12-05-13 METAR EDDT 131250Z 35005KT 9999 BKN033 BKN050 10/03 Q1029 NOSIG
12-05-13 METAR EDDT 131320Z 30004KT 9999 SCT033 BKN050 10/04 Q1029 NOSIG
12-05-13 METAR EDDT 131350Z 29006KT 250V320 9999 BKN033 BKN060 10/03 Q1028 NOSIG
12-05-13 METAR EDDT 131420Z 29006KT 9999 SCT033 BKN060 10/03 Q1028 NOSIG
12-05-13 METAR EDDT 131450Z 31005KT 9999 SCT033 BKN050 10/02 Q1028 NOSIG
12-05-13 METAR EDDT 131520Z 29007KT 9999 SCT030 BKN060 11/02 Q1028 NOSIG
12-05-13 METAR EDDT 131550Z 31003KT 9999 FEW035 BKN050 11/03 Q1028 NOSIG
12-05-13 METAR EDDT 131620Z 35004KT 9999 FEW035 BKN060 11/02 Q1028 NOSIG
12-05-13 METAR EDDT 131650Z VRB02KT 9999 FEW040 BKN060 11/01 Q1027 NOSIG
12-05-13 METAR EDDT 131720Z 14002KT 9999 FEW040 BKN060 11/02 Q1027 NOSIG
12-05-13 METAR EDDT 131750Z 27004KT 9999 FEW040 BKN060 11/02 Q1027 NOSIG
12-05-13 METAR EDDT 131820Z 25003KT CAVOK 10/03 Q1027 NOSIG
12-05-13 METAR EDDT 131850Z 26003KT CAVOK 10/02 Q1027 NOSIG
12-05-13 METAR EDDT 131920Z 00000KT CAVOK 10/02 Q1027 NOSIG
12-05-13 METAR EDDT 131950Z 00000KT CAVOK 09/02 Q1027 NOSIG
12-05-13 METAR EDDT 132020Z 23002KT CAVOK 08/02 Q1027 NOSIG
12-05-13 METAR EDDT 132050Z 24002KT CAVOK 08/03 Q1027 NOSIG
12-05-13 METAR EDDT 132120Z VRB02KT CAVOK 07/03 Q1027
12-05-13 METAR EDDT 132150Z 26001KT CAVOK 06/02 Q1026
12-05-13 METAR EDDT 132220Z 24002KT CAVOK 06/03 Q1026
12-05-13 METAR EDDT 132250Z 24001KT CAVOK 06/03 Q1026
12-05-13 METAR EDDT 132320Z 29001KT CAVOK 05/03 Q1026
12-05-13 METAR EDDT 132350Z 36001KT 9999 MIFG NSC 04/02 Q1026