
13-01-07 LEBL 070000Z 32015KT CAVOK 10/02 Q1024 NOSIG
13-01-07 LEBL 070030Z 32014KT CAVOK 10/03 Q1024 NOSIG
13-01-07 LEBL 070100Z 31014KT CAVOK 09/03 Q1024 NOSIG
13-01-07 LEBL 070130Z 32012KT CAVOK 09/03 Q1023 NOSIG
13-01-07 LEBL 070200Z 32014KT CAVOK 09/03 Q1023 NOSIG
13-01-07 LEBL 070230Z 32014KT CAVOK 09/02 Q1023 NOSIG
13-01-07 LEBL 070300Z 32013KT CAVOK 09/02 Q1023 NOSIG
13-01-07 LEBL 070330Z 31015KT CAVOK 09/03 Q1023 NOSIG
13-01-07 LEBL 070400Z 31015KT CAVOK 09/03 Q1022 NOSIG
13-01-07 LEBL 070430Z 31016KT CAVOK 09/02 Q1022 NOSIG
13-01-07 LEBL 070500Z 32017KT CAVOK 09/02 Q1022 NOSIG
13-01-07 LEBL 070530Z 31017KT CAVOK 09/02 Q1022 NOSIG
13-01-07 LEBL 070600Z 32016KT CAVOK 09/02 Q1022 NOSIG
13-01-07 LEBL 070630Z 32017KT CAVOK 09/02 Q1022 NOSIG
13-01-07 LEBL 070700Z 31015KT CAVOK 09/02 Q1022 NOSIG
13-01-07 LEBL 070730Z 32013KT CAVOK 09/02 Q1022 NOSIG
13-01-07 LEBL 070800Z 32015KT 280V340 CAVOK 10/02 Q1022 NOSIG
13-01-07 LEBL 070830Z 32014G24KT CAVOK 10/02 Q1022 NOSIG
13-01-07 LEBL 070900Z 31018KT CAVOK 11/03 Q1022 NOSIG
13-01-07 LEBL 070930Z 31014KT 290V350 CAVOK 11/03 Q1022 NOSIG
13-01-07 LEBL 071000Z 31014KT CAVOK 13/03 Q1023 NOSIG
13-01-07 LEBL 071030Z 32011KT 290V350 CAVOK 14/03 Q1023 NOSIG
13-01-07 LEBL 071100Z 31015G25KT CAVOK 15/03 Q1022 NOSIG
13-01-07 LEBL 071130Z 31010KT CAVOK 16/03 Q1022 NOSIG
13-01-07 LEBL 071200Z 32013KT CAVOK 17/03 Q1022 NOSIG
13-01-07 LEBL 071230Z 35007G17KT 290V070 CAVOK 18/03 Q1022 NOSIG
13-01-07 LEBL 071300Z 07008KT 030V100 CAVOK 19/03 Q1022 NOSIG
13-01-07 LEBL 071330Z 07011KT CAVOK 18/07 Q1022 NOSIG
13-01-07 LEBL 071400Z 06011KT CAVOK 17/08 Q1022 NOSIG
13-01-07 LEBL 071430Z 05011KT CAVOK 17/06 Q1022 NOSIG
13-01-07 LEBL 071500Z 05012KT CAVOK 17/08 Q1022 NOSIG
13-01-07 LEBL 071530Z 06011KT CAVOK 16/09 Q1022 NOSIG
13-01-07 LEBL 071600Z 07009KT CAVOK 16/10 Q1022 NOSIG
13-01-07 LEBL 071630Z 06007KT CAVOK 15/10 Q1023 NOSIG
13-01-07 LEBL 071700Z 06007KT CAVOK 14/10 Q1023 NOSIG
13-01-07 LEBL 071730Z 06007KT CAVOK 13/11 Q1023 NOSIG
13-01-07 LEBL 071800Z 07006KT 9999 FEW025 13/11 Q1023 NOSIG
13-01-07 LEBL 071830Z 06004KT 9999 FEW025 13/11 Q1024 NOSIG
13-01-07 LEBL 071900Z 04006KT 350V080 9999 FEW025 12/11 Q1024 NOSIG
13-01-07 LEBL 071930Z VRB02KT 9999 FEW025 11/09 Q1024 NOSIG
13-01-07 LEBL 072000Z 03005KT 330V060 CAVOK 11/09 Q1024 NOSIG
13-01-07 LEBL 072030Z 04004KT 350V080 CAVOK 11/09 Q1024 NOSIG
13-01-07 LEBL 072100Z 32002KT CAVOK 10/08 Q1025 NOSIG
13-01-07 LEBL 072130Z 32005KT 200V350 CAVOK 10/07 Q1025 NOSIG
13-01-07 LEBL 072200Z 32004KT 280V340 CAVOK 09/07 Q1025 NOSIG
13-01-07 LEBL 072230Z 32003KT CAVOK 09/06 Q1025 NOSIG
13-01-07 LEBL 072300Z 33005KT CAVOK 09/06 Q1025 NOSIG
13-01-07 LEBL 072330Z 33007KT CAVOK 09/05 Q1025 NOSIG
13-01-08 LEBL 080000Z 33008KT 9999 FEW020 09/04 Q1025 NOSIG
13-01-08 LEBL 080030Z 33008KT 9999 FEW020 09/04 Q1025 NOSIG
13-01-08 LEBL 080100Z 33009KT CAVOK 09/03 Q1025 NOSIG
13-01-08 LEBL 080130Z 33008KT CAVOK 09/03 Q1025 NOSIG
13-01-08 LEBL 080200Z 31009KT CAVOK 08/03 Q1025 NOSIG
13-01-08 LEBL 080230Z 33010KT CAVOK 08/03 Q1025 NOSIG
13-01-08 LEBL 080300Z 32011KT CAVOK 08/03 Q1025 NOSIG
13-01-08 LEBL 080330Z 33011KT CAVOK 08/03 Q1025 NOSIG
13-01-08 LEBL 080400Z 33011KT CAVOK 07/03 Q1025 NOSIG
13-01-08 LEBL 080430Z 33011KT CAVOK 07/03 Q1025 NOSIG
13-01-08 LEBL 080500Z 32009KT CAVOK 07/03 Q1024 NOSIG
13-01-08 LEBL 080530Z 32010KT CAVOK 07/03 Q1024 NOSIG
13-01-08 LEBL 080600Z 32010KT CAVOK 07/03 Q1025 NOSIG
13-01-08 LEBL 080630Z 32011KT CAVOK 07/03 Q1025 NOSIG
13-01-08 LEBL 080700Z 33012KT CAVOK 07/03 Q1025 NOSIG
13-01-08 LEBL 080730Z 33011KT 260V350 CAVOK 07/03 Q1025 NOSIG
13-01-08 LEBL 080800Z 33013KT CAVOK 08/03 Q1025 NOSIG
13-01-08 LEBL 080830Z 33010KT 310V020 CAVOK 08/03 Q1026 NOSIG
13-01-08 LEBL 080900Z 31010KT CAVOK 09/03 Q1026 NOSIG
13-01-08 LEBL 080930Z 32011KT CAVOK 10/03 Q1026 NOSIG
13-01-08 LEBL 081000Z 33008KT 260V360 CAVOK 11/04 Q1026 NOSIG
13-01-08 LEBL 081030Z 33007KT CAVOK 12/04 Q1027 NOSIG
13-01-08 LEBL 081100Z 31005KT 240V020 CAVOK 14/05 Q1026 NOSIG
13-01-08 LEBL 081130Z 26003KT 210V300 CAVOK 15/06 Q1026 NOSIG
13-01-08 LEBL 081200Z 23003KT CAVOK 15/09 Q1026 NOSIG
13-01-08 LEBL 081230Z 20007KT 170V230 CAVOK 15/09 Q1025 NOSIG
13-01-08 LEBL 081300Z 20008KT CAVOK 14/10 Q1025 NOSIG
13-01-08 LEBL 081330Z 20007KT 170V230 CAVOK 15/11 Q1024 NOSIG
13-01-08 LEBL 081400Z 21007KT CAVOK 15/09 Q1024 NOSIG
13-01-08 LEBL 081430Z 21007KT 180V240 CAVOK 15/10 Q1024 NOSIG
13-01-08 LEBL 081500Z 21005KT 160V230 CAVOK 14/09 Q1024 NOSIG
13-01-08 LEBL 081530Z 19005KT 160V220 CAVOK 14/09 Q1024 NOSIG
13-01-08 LEBL 081600Z 20004KT CAVOK 14/08 Q1024 NOSIG
13-01-08 LEBL 081630Z 18002KT CAVOK 13/09 Q1024 NOSIG
13-01-08 LEBL 081700Z 00000KT CAVOK 13/09 Q1024 NOSIG
13-01-08 LEBL 081730Z 00000KT CAVOK 13/09 Q1024 NOSIG
13-01-08 LEBL 081800Z 00000KT CAVOK 12/10 Q1024 NOSIG
13-01-08 LEBL 081830Z VRB01KT CAVOK 11/08 Q1025 NOSIG
13-01-08 LEBL 081900Z 29003KT 240V320 CAVOK 10/08 Q1025 NOSIG
13-01-08 LEBL 081930Z 32003KT 240V350 CAVOK 10/08 Q1025 NOSIG
13-01-08 LEBL 082000Z 32005KT 240V350 CAVOK 10/08 Q1025 NOSIG
13-01-08 LEBL 082030Z 30004KT 220V350 CAVOK 10/07 Q1025 NOSIG
13-01-08 LEBL 082100Z 30005KT 240V320 CAVOK 10/05 Q1025 NOSIG
13-01-08 LEBL 082130Z 31004KT 250V340 CAVOK 10/04 Q1024 NOSIG
13-01-08 LEBL 082200Z 33005KT 280V010 CAVOK 10/04 Q1024 NOSIG
13-01-08 LEBL 082230Z 33009KT CAVOK 10/04 Q1024 NOSIG
13-01-08 LEBL 082300Z 32010KT CAVOK 10/04 Q1024 NOSIG
13-01-08 LEBL 082330Z 31008KT CAVOK 09/04 Q1024 NOSIG
13-01-09 LEBL 090000Z 32010KT CAVOK 09/04 Q1024 NOSIG
13-01-09 LEBL 090030Z 31008KT CAVOK 09/04 Q1024 NOSIG
13-01-09 LEBL 090100Z 31009KT CAVOK 09/04 Q1023 NOSIG
13-01-09 LEBL 090130Z 31009KT CAVOK 08/04 Q1023 NOSIG
13-01-09 LEBL 090200Z 30005KT 270V330 CAVOK 08/04 Q1023 NOSIG
13-01-09 LEBL 090230Z 32007KT 290V360 CAVOK 08/04 Q1023 NOSIG
13-01-09 LEBL 090300Z 31010KT CAVOK 08/04 Q1023 NOSIG
13-01-09 LEBL 090330Z 33013KT CAVOK 08/04 Q1023 NOSIG
13-01-09 LEBL 090400Z 32012KT CAVOK 08/03 Q1022 NOSIG
13-01-09 LEBL 090430Z 32012KT CAVOK 08/04 Q1022 NOSIG
13-01-09 LEBL 090500Z 32012KT CAVOK 07/03 Q1022 NOSIG
13-01-09 LEBL 090530Z 33011KT CAVOK 07/03 Q1022 NOSIG
13-01-09 LEBL 090600Z 33012KT CAVOK 07/03 Q1022 NOSIG
13-01-09 LEBL 090630Z 33013KT 210V350 CAVOK 07/03 Q1022 NOSIG
13-01-09 LEBL 090700Z 33013KT CAVOK 07/03 Q1023 NOSIG
13-01-09 LEBL 090730Z 33012G24KT CAVOK 07/03 Q1023 NOSIG
13-01-09 LEBL 090800Z 33011G21KT 300V360 CAVOK 07/03 Q1023 NOSIG
13-01-09 LEBL 090830Z 33011KT 290V020 CAVOK 07/03 Q1023 NOSIG
13-01-09 LEBL 090900Z 33011KT CAVOK 08/03 Q1023 NOSIG
13-01-09 LEBL 090930Z 33013KT CAVOK 09/04 Q1023 NOSIG
13-01-09 LEBL 091000Z 33012KT 290V350 CAVOK 10/04 Q1023 NOSIG
13-01-09 LEBL 091030Z 33010KT 300V010 CAVOK 10/04 Q1023 NOSIG
13-01-09 LEBL 091100Z 33011KT CAVOK 11/04 Q1023 NOSIG
13-01-09 LEBL 091130Z 33008KT CAVOK 12/05 Q1022 NOSIG
13-01-09 LEBL 091200Z 33006KT CAVOK 13/05 Q1022 NOSIG
13-01-09 LEBL 091230Z 25002KT CAVOK 14/06 Q1021 NOSIG
13-01-09 LEBL 091300Z 24003KT CAVOK 14/08 Q1021 NOSIG
13-01-09 LEBL 091330Z 22007KT 160V240 CAVOK 13/08 Q1021 NOSIG
13-01-09 LEBL 091400Z 22007KT CAVOK 13/08 Q1021 NOSIG
13-01-09 LEBL 091430Z 22007KT 9000 FEW020 13/08 Q1021 NOSIG
13-01-09 LEBL 091500Z 22007KT 9000 FEW020 13/08 Q1021 NOSIG
13-01-09 LEBL 091530Z 28006G16KT 240V340 9000 SCT019 13/09 Q1021 NOSIG
13-01-09 LEBL 091600Z 33012KT 9000 SCT019 11/02 Q1020 NOSIG
13-01-09 LEBL 091630Z 32013KT 290V360 9999 SCT020 10/02 Q1020 NOSIG
13-01-09 LEBL 091700Z 31014KT 250V340 9999 FEW020 10/01 Q1020 NOSIG
13-01-09 LEBL 091730Z 32013KT 9999 FEW020 10/01 Q1020 NOSIG
13-01-09 LEBL 091800Z 32013KT 290V350 9999 FEW020 09/02 Q1020 NOSIG
13-01-09 LEBL 091830Z 31014KT 9999 FEW020 08/02 Q1020 NOSIG
13-01-09 LEBL 091900Z 32011KT 9999 FEW020 08/02 Q1020 NOSIG
13-01-09 LEBL 091930Z 32011KT 280V340 9999 FEW020 08/02 Q1020 NOSIG
13-01-09 LEBL 092000Z 33012KT 9999 FEW020 07/02 Q1020 NOSIG
13-01-09 LEBL 092030Z 33011KT 290V350 9999 FEW020 07/02 Q1020 NOSIG
13-01-09 LEBL 092100Z 34008KT 9999 FEW020 07/01 Q1020 NOSIG
13-01-09 LEBL 092130Z 33010KT 300V360 9999 FEW020 07/02 Q1020 NOSIG
13-01-09 LEBL 092200Z 34010KT 300V020 9999 FEW020 07/02 Q1020 NOSIG
13-01-09 LEBL 092230Z 32010KT 9999 FEW020 06/01 Q1020 NOSIG
13-01-09 LEBL 092300Z 33009KT 9999 FEW020 07/02 Q1019 NOSIG
13-01-09 LEBL 092330Z 32009KT 9999 FEW020 06/01 Q1019 NOSIG
13-01-10 LEBL 100000Z 33013KT 9999 FEW020 07/02 Q1019 NOSIG
13-01-10 LEBL 100030Z 33011KT 9999 FEW020 06/02 Q1019 NOSIG
13-01-10 LEBL 100100Z 34011KT 9999 FEW020 SCT040 06/02 Q1018 NOSIG
13-01-10 LEBL 100130Z 32010KT 9999 FEW020 SCT040 06/02 Q1018 NOSIG
13-01-10 LEBL 100200Z 33012KT 9999 FEW020 SCT040 07/02 Q1018 NOSIG
13-01-10 LEBL 100230Z 33011KT 9999 FEW020 SCT040 07/02 Q1018 NOSIG
13-01-10 LEBL 100300Z 34011KT 9999 FEW020 07/03 Q1018 NOSIG
13-01-10 LEBL 100330Z 31007KT 9999 SCT028 07/03 Q1018 NOSIG
13-01-10 LEBL 100400Z 30007KT 230V330 9999 FEW028 07/03 Q1018 NOSIG
13-01-10 LEBL 100430Z 32008KT 9999 FEW028 07/03 Q1018 NOSIG
13-01-10 LEBL 100500Z 32008KT 9999 FEW028 07/03 Q1018 NOSIG
13-01-10 LEBL 100530Z 31011KT 9999 FEW028 07/03 Q1018 NOSIG
13-01-10 LEBL 100600Z 30011G29KT 230V320 9999 FEW028 07/03 Q1019 NOSIG
13-01-10 LEBL 100630Z 32008KT 9999 FEW025 06/03 Q1019 NOSIG
13-01-10 LEBL 100700Z 31011KT 9999 FEW025 07/03 Q1019 NOSIG
13-01-10 LEBL 100730Z 32009KT 280V350 9999 FEW025 07/03 Q1019 NOSIG
13-01-10 LEBL 100800Z 33009KT 280V350 9999 FEW025 07/04 Q1019 NOSIG
13-01-10 LEBL 100830Z 34008KT 300V020 9999 FEW025 08/04 Q1020 NOSIG
13-01-10 LEBL 100900Z 33008KT 310V010 9999 FEW025 08/04 Q1020 NOSIG
13-01-10 LEBL 100930Z 31008KT 210V340 9999 FEW025 09/04 Q1020 NOSIG
13-01-10 LEBL 101000Z 30009KT 240V330 9999 FEW025 10/04 Q1020 NOSIG
13-01-10 LEBL 101030Z 32004KT 9999 FEW020 10/04 Q1020 NOSIG
13-01-10 LEBL 101100Z 33005KT 250V020 9999 FEW020 11/04 Q1020 NOSIG
13-01-10 LEBL 101130Z 34005KT 310V010 9999 FEW020 12/05 Q1020 NOSIG
13-01-10 LEBL 101200Z 03004KT 350V080 9999 FEW020 12/05 Q1019 NOSIG
13-01-10 LEBL 101230Z VRB02KT 9999 FEW020 13/05 Q1019 NOSIG
13-01-10 LEBL 101300Z 19003KT 160V230 9999 FEW020 13/06 Q1019 NOSIG
13-01-10 LEBL 101330Z VRB02KT 9999 FEW020 14/06 Q1019 NOSIG
13-01-10 LEBL 101400Z VRB01KT 9999 FEW020 14/06 Q1018 NOSIG
13-01-10 LEBL 101430Z 23004KT 200V260 9999 FEW020 14/06 Q1019 NOSIG
13-01-10 LEBL 101500Z 21005KT CAVOK 14/06 Q1019 NOSIG
13-01-10 LEBL 101530Z 20005KT CAVOK 13/06 Q1019 NOSIG
13-01-10 LEBL 101600Z 22005KT CAVOK 13/06 Q1019 NOSIG
13-01-10 LEBL 101630Z 25006KT CAVOK 13/07 Q1019 NOSIG
13-01-10 LEBL 101700Z 26006KT 230V300 CAVOK 12/07 Q1019 NOSIG
13-01-10 LEBL 101730Z 23006KT CAVOK 11/07 Q1019 NOSIG
13-01-10 LEBL 101800Z 24007KT CAVOK 11/07 Q1019 NOSIG
13-01-10 LEBL 101830Z 26006KT 9999 FEW030 10/07 Q1019 NOSIG
13-01-10 LEBL 101900Z 29003KT 260V330 9999 FEW030 10/07 Q1019 NOSIG
13-01-10 LEBL 101930Z 31003KT 280V340 9999 FEW030 09/06 Q1019 NOSIG
13-01-10 LEBL 102000Z 32004KT 260V360 9999 FEW030 09/06 Q1019 NOSIG
13-01-10 LEBL 102030Z 32005KT 260V340 9999 FEW030 08/06 Q1019 NOSIG
13-01-10 LEBL 102100Z 35005KT 310V010 CAVOK 09/06 Q1019 NOSIG
13-01-10 LEBL 102130Z 33007KT 280V350 CAVOK 08/06 Q1019 NOSIG
13-01-10 LEBL 102200Z 33005KT 280V030 CAVOK 08/06 Q1019 NOSIG
13-01-10 LEBL 102230Z 33007KT CAVOK 09/06 Q1019 NOSIG
13-01-10 LEBL 102300Z 33008KT CAVOK 09/06 Q1019 NOSIG
13-01-10 LEBL 102330Z 32009KT CAVOK 08/06 Q1019 NOSIG
13-01-11 LEBL 110000Z 32010KT CAVOK 08/06 Q1019 NOSIG
13-01-11 LEBL 110030Z 32009KT CAVOK 09/06 Q1019 NOSIG
13-01-11 LEBL 110100Z 33010KT CAVOK 09/06 Q1019 NOSIG
13-01-11 LEBL 110130Z 34008KT CAVOK 09/05 Q1019 NOSIG
13-01-11 LEBL 110200Z 32009KT CAVOK 09/06 Q1019 NOSIG
13-01-11 LEBL 110230Z 30011KT 9999 FEW030 09/05 Q1019 NOSIG
13-01-11 LEBL 110300Z 32014KT 9999 FEW030 08/05 Q1019 NOSIG
13-01-11 LEBL 110330Z 31014KT 9999 FEW030 07/05 Q1019 NOSIG
13-01-11 LEBL 110400Z 32012KT CAVOK 09/05 Q1019 NOSIG
13-01-11 LEBL 110430Z 34008KT 310V010 9999 FEW030 08/05 Q1019 NOSIG
13-01-11 LEBL 110500Z 34012KT 9999 FEW030 08/05 Q1019 NOSIG
13-01-11 LEBL 110530Z 32012KT 9999 FEW030 09/05 Q1020 NOSIG
13-01-11 LEBL 110600Z 33012KT 9999 FEW030 08/04 Q1020 NOSIG
13-01-11 LEBL 110630Z 32011KT 9999 FEW030 08/04 Q1020 NOSIG
13-01-11 LEBL 110700Z 32010KT 9999 FEW025 07/04 Q1020 NOSIG
13-01-11 LEBL 110730Z 32013KT 280V350 9999 FEW025 07/04 Q1021 NOSIG
13-01-11 LEBL 110800Z 32011G21KT 280V350 9999 FEW025 07/04 Q1021 NOSIG
13-01-11 LEBL 110830Z 33011KT 260V350 9999 FEW025 08/03 Q1021 NOSIG
13-01-11 LEBL 110900Z 33011KT CAVOK 08/03 Q1021 NOSIG
13-01-11 LEBL 110930Z 33011KT CAVOK 09/03 Q1021 NOSIG
13-01-11 LEBL 111000Z 32008G18KT 260V340 CAVOK 10/03 Q1021 NOSIG
13-01-11 LEBL 111030Z 33009G22KT CAVOK 11/03 Q1021 NOSIG
13-01-11 LEBL 111100Z 33009G19KT 300V010 CAVOK 13/03 Q1021 NOSIG
13-01-11 LEBL 111130Z 34007KT 310V010 CAVOK 13/03 Q1021 NOSIG
13-01-11 LEBL 111200Z 32007KT 280V350 9999 FEW025 14/02 Q1020 NOSIG
13-01-11 LEBL 111230Z 31006KT 280V340 9999 FEW025 15/02 Q1020 NOSIG
13-01-11 LEBL 111300Z 32003KT 280V010 9999 FEW025 16/03 Q1019 NOSIG
13-01-11 LEBL 111330Z 20006KT CAVOK 15/05 Q1019 NOSIG
13-01-11 LEBL 111400Z 19006KT CAVOK 15/04 Q1019 NOSIG
13-01-11 LEBL 111430Z 19003KT 130V230 CAVOK 15/05 Q1019 NOSIG
13-01-11 LEBL 111500Z 21009KT 160V240 CAVOK 14/07 Q1019 NOSIG
13-01-11 LEBL 111530Z 22009KT CAVOK 14/06 Q1019 NOSIG
13-01-11 LEBL 111600Z 22008KT CAVOK 14/07 Q1019 NOSIG
13-01-11 LEBL 111630Z 21007KT CAVOK 13/06 Q1019 NOSIG
13-01-11 LEBL 111700Z 24005KT 210V300 CAVOK 12/06 Q1019 NOSIG
13-01-11 LEBL 111730Z 32004KT 260V050 CAVOK 12/04 Q1020 NOSIG
13-01-11 LEBL 111800Z 33009KT 280V350 CAVOK 12/03 Q1020 NOSIG
13-01-11 LEBL 111830Z 33009KT 280V350 CAVOK 11/03 Q1020 NOSIG
13-01-11 LEBL 111900Z 33011KT CAVOK 11/03 Q1020 NOSIG
13-01-11 LEBL 111930Z 33010KT CAVOK 10/02 Q1020 NOSIG
13-01-11 LEBL 112000Z 33010KT 290V010 CAVOK 09/03 Q1020 NOSIG
13-01-11 LEBL 112030Z 31011KT CAVOK 10/02 Q1020 NOSIG
13-01-11 LEBL 112100Z 32012KT 290V350 CAVOK 09/03 Q1020 NOSIG
13-01-11 LEBL 112130Z 32011KT 280V350 CAVOK 09/03 Q1020 NOSIG
13-01-11 LEBL 112200Z 32011KT CAVOK 08/03 Q1020 NOSIG
13-01-11 LEBL NIL
13-01-12 LEBL 120000Z 33011KT CAVOK 07/02 Q1020 NOSIG
13-01-12 LEBL 120030 33010KT CAVOK 06/02 Q1020 NOSIG
13-01-12 LEBL 120030Z 33010KT CAVOK 06/02 Q1020 NOSIG
13-01-12 LEBL 120100Z 32010KT CAVOK 06/02 Q1019 NOSIG
13-01-12 LEBL 120100Z 32012KT CAVOK 06/02 Q1019 NOSIG
13-01-12 LEBL 120130Z 32011KT CAVOK 05/02 Q1019 NOSIG
13-01-12 LEBL 120200Z 32011KT CAVOK 05/02 Q1019 NOSIG
13-01-12 LEBL 120230Z 32011KT CAVOK 05/02 Q1019 NOSIG
13-01-12 LEBL 120300Z 32012KT CAVOK 05/02 Q1019 NOSIG
13-01-12 LEBL 120330Z 33011KT CAVOK 05/02 Q1018 NOSIG
13-01-12 LEBL 120400Z 32010KT CAVOK 04/01 Q1018 NOSIG
13-01-12 LEBL 120430Z 32010KT CAVOK 04/01 Q1017 NOSIG
13-01-12 LEBL 120500Z 32013KT 9999 FEW020 04/01 Q1017 NOSIG
13-01-12 LEBL 120530Z 32009KT 290V350 9999 FEW020 04/01 Q1017 NOSIG
13-01-12 LEBL 120600Z 32009KT 300V360 9999 FEW020 04/01 Q1017 NOSIG
13-01-12 LEBL 120630Z 32009KT 9999 FEW020 05/01 Q1017 NOSIG
13-01-12 LEBL 120700Z 32008KT 9999 FEW020 05/01 Q1017 NOSIG
13-01-12 LEBL 120730Z 32007KT 9999 FEW020 05/01 Q1017 NOSIG
13-01-12 LEBL 120800Z 32011KT 9999 FEW020 05/01 Q1017 NOSIG
13-01-12 LEBL 120830Z 32013KT 9999 FEW020 05/00 Q1018 NOSIG
13-01-12 LEBL 120900Z 32013KT 9999 FEW020 06/01 Q1018 NOSIG
13-01-12 LEBL 120930Z 32013KT 9999 FEW020 07/01 Q1018 NOSIG
13-01-12 LEBL 121000Z 32014KT 9999 FEW020 08/01 Q1018 NOSIG
13-01-12 LEBL 121030Z 32010KT 280V340 CAVOK 09/02 Q1018 NOSIG
13-01-12 LEBL 121100Z 32009G22KT 260V350 CAVOK 10/02 Q1018 NOSIG
13-01-12 LEBL 121130Z 31008KT CAVOK 11/02 Q1017 NOSIG
13-01-12 LEBL 121200Z 32007KT CAVOK 11/02 Q1017 NOSIG
13-01-12 LEBL 121230Z 31006KT CAVOK 12/03 Q1017 NOSIG
13-01-12 LEBL 121300Z VRB02KT CAVOK 13/05 Q1016 NOSIG
13-01-12 LEBL 121330Z 21004KT 180V250 9999 FEW025 13/05 Q1016 NOSIG
13-01-12 LEBL 121400Z VRB02KT 9999 FEW025 13/06 Q1015 NOSIG
13-01-12 LEBL 121430Z VRB02KT 9999 FEW025 13/06 Q1015 NOSIG
13-01-12 LEBL 121500Z VRB02KT 9999 FEW025 13/06 Q1015 NOSIG
13-01-12 LEBL 121530Z 13003KT 100V160 9999 FEW025 14/06 Q1015 NOSIG
13-01-12 LEBL 121600Z 21005KT 130V250 9999 FEW025 14/08 Q1015 NOSIG
13-01-12 LEBL 121630Z 22008KT 9999 FEW025 13/09 Q1015 NOSIG
13-01-12 LEBL 121700Z 22006KT 9999 FEW025 13/09 Q1015 NOSIG
13-01-12 LEBL 121730Z 23007KT 9999 FEW025 12/09 Q1015 NOSIG
13-01-12 LEBL 121800Z 24007KT 9999 FEW025 11/08 Q1015 NOSIG
13-01-12 LEBL 121830Z 24007KT 9999 FEW025 11/09 Q1014 NOSIG
13-01-12 LEBL 121900Z 25007KT 9999 FEW025 11/09 Q1014 NOSIG
13-01-12 LEBL 121930Z 36001KT 9999 FEW020 11/09 Q1014 NOSIG
13-01-12 LEBL 122000Z VRB02KT 9999 FEW015 10/09 Q1013 NOSIG
13-01-12 LEBL 122030Z 34001KT 9999 FEW015 11/09 Q1013 NOSIG
13-01-12 LEBL 122100Z 33004KT 250V010 9999 FEW015 10/07 Q1013 NOSIG
13-01-12 LEBL 122130Z 30004KT 270V350 9999 SCT015 10/06 Q1013 NOSIG
13-01-12 LEBL 122200Z 36004KT 320V070 9999 FEW015 09/06 Q1012 NOSIG
13-01-12 LEBL 122230Z VRB01KT 9999 SCT015 10/06 Q1012 NOSIG
13-01-12 LEBL 122300Z 34004KT 9999 SCT015 10/07 Q1011 NOSIG
13-01-12 LEBL 122330Z 33017KT 9999 BKN015 10/06 Q1012 NOSIG
13-01-13 LEBL 130000Z 33014KT 9999 SCT015 10/06 Q1012 NOSIG
13-01-13 LEBL 130030Z 34012KT 9999 FEW015 10/06 Q1011 NOSIG
13-01-13 LEBL 130100Z 33010KT 9999 FEW015 SCT055 10/05 Q1011 NOSIG
13-01-13 LEBL 130130Z 34007KT 9999 FEW015 SCT055 10/06 Q1010 NOSIG
13-01-13 LEBL 130200Z 33009KT 9999 FEW015 10/06 Q1010 NOSIG
13-01-13 LEBL 130230Z 30007KT 9999 FEW015 10/06 Q1010 NOSIG
13-01-13 LEBL 130300Z 29004KT 180V340 9999 -RA FEW042 SCT054 11/06 Q1010 NOSIG
13-01-13 LEBL 130330Z 27008KT 230V300 9999 RA FEW030 SCT040 BKN052 10/06 Q1010 NOSIG
13-01-13 LEBL 130400Z 14003KT 120V180 9999 FEW030 SCT040 09/07 Q1008 RERA NOSIG
13-01-13 LEBL 130430Z 27006KT 210V310 9999 FEW030 SCT055 09/07 Q1009 NOSIG
13-01-13 LEBL 130500Z 31005KT 9999 FEW030 SCT055 09/06 Q1008 NOSIG
13-01-13 LEBL 130530Z 31005KT 220V350 9999 FEW030 09/06 Q1008 NOSIG
13-01-13 LEBL 130600Z 29004KT 260V320 9999 FEW030 09/05 Q1008 NOSIG
13-01-13 LEBL 130630Z 32005KT 300V360 9999 FEW030 09/05 Q1008 NOSIG
13-01-13 LEBL 130700Z 32005KT 270V340 9999 FEW025 08/06 Q1008 NOSIG
13-01-13 LEBL 130730Z 30004KT 9999 SCT025 08/06 Q1008 NOSIG
13-01-13 LEBL 130800Z 34004KT 230V020 9999 SCT025 09/06 Q1008 NOSIG
13-01-13 LEBL 130830Z 31004KT 260V350 9999 SCT025 08/06 Q1008 NOSIG
13-01-13 LEBL 130900Z 27006KT 9999 FEW025 SCT030 09/05 Q1008 NOSIG
13-01-13 LEBL 130930Z 30006KT 260V320 9999 SCT030 10/04 Q1009 NOSIG
13-01-13 LEBL 131000Z 34007G17KT 290V010 9999 SCT030 10/04 Q1009 NOSIG
13-01-13 LEBL 131030Z 32009KT 9999 SCT030 10/04 Q1009 NOSIG
13-01-13 LEBL 131100Z 31011KT 9999 SCT030 10/04 Q1009 NOSIG
13-01-13 LEBL 131130Z 30011KT 9999 SCT030 SCT050 09/04 Q1008 NOSIG
13-01-13 LEBL 131200Z 30009G19KT 9999 SCT030 BKN044 09/04 Q1008 NOSIG
13-01-13 LEBL 131230Z 31009KT 9999 -RA FEW018TCU BKN038 09/04 Q1008 NOSIG
13-01-13 LEBL 131330Z 01006KT 330V040 6000 RA SCT018TCU BKN028 08/06 Q1009 NOSIG
13-01-13 LEBL 131400Z 32004KT 260V020 9000 -RA SCT018TCU BKN040 09/07 Q1009 NOSIG
13-01-13 LEBL 131430Z 28004KT 9999 FEW018TCU BKN038 09/07 Q1009 NOSIG
13-01-13 LEBL 131500Z 24003KT 200V290 9999 BKN040 09/07 Q1009 NOSIG
13-01-13 LEBL 131530Z 23003KT 9999 SCT040 BKN055 10/07 Q1009 NOSIG
13-01-13 LEBL 131600Z 23004KT 210V280 9999 FEW040 10/06 Q1010 NOSIG
13-01-13 LEBL 131630Z 24005KT 9999 FEW025 10/06 Q1009 NOSIG
13-01-13 LEBL 131700Z 24006KT 9999 FEW025 09/06 Q1010 NOSIG
13-01-13 LEBL 131730Z 26006KT 9999 FEW025 08/06 Q1010 NOSIG
13-01-13 LEBL 131800Z 27005KT 240V310 9999 FEW025 08/05 Q1010 NOSIG
13-01-13 LEBL 131830Z 31005KT 260V340 9999 FEW025 07/06 Q1010 NOSIG
13-01-13 LEBL 131900Z 31006KT 230V350 9999 FEW025 07/05 Q1010 NOSIG
13-01-13 LEBL 131930Z 33006KT 9999 FEW025 07/05 Q1010 NOSIG
13-01-13 LEBL 132000Z 32002KT 9999 FEW025 07/05 Q1011 NOSIG
13-01-13 LEBL 132030Z VRB02KT 9999 FEW025 07/05 Q1011 NOSIG
13-01-13 LEBL 132100Z 31005KT 250V350 9999 FEW025 08/05 Q1011 NOSIG
13-01-13 LEBL 132130Z 29007KT 9999 FEW025 08/04 Q1011 NOSIG
13-01-13 LEBL 132200Z 32006KT 250V360 9999 FEW025 07/04 Q1011 NOSIG
13-01-13 LEBL 132230Z 32007KT 9999 FEW025 07/04 Q1012 NOSIG
13-01-13 LEBL 132300Z 32005KT 9999 FEW025 07/04 Q1012 NOSIG
13-01-13 LEBL 132330Z 30007KT 9999 FEW025 07/04 Q1012 NOSIG
13-01-14 LEBL 140000Z 32009KT 9999 FEW025 07/04 Q1013 NOSIG
13-01-14 LEBL 140030Z 33007KT 9999 FEW025 07/04 Q1013 NOSIG
13-01-14 LEBL 140100Z 33009KT 9999 FEW025 08/04 Q1013 NOSIG
13-01-14 LEBL 140130Z 33007KT 9999 FEW025 07/04 Q1013 NOSIG
13-01-14 LEBL 140200Z 32007KT 9999 FEW025 07/03 Q1013 NOSIG
13-01-14 LEBL 140230Z 33007KT 9999 FEW025 07/03 Q1013 NOSIG
13-01-14 LEBL 140300Z 32007KT 9999 FEW025 06/03 Q1013 NOSIG
13-01-14 LEBL 140330Z 32008KT 9999 FEW025 06/03 Q1013 NOSIG
13-01-14 LEBL 140400Z 32008KT 9999 FEW025 05/03 Q1013 NOSIG
13-01-14 LEBL 140430Z 33007KT 9999 FEW025 05/03 Q1013 NOSIG
13-01-14 LEBL 140500Z 34008KT 9999 FEW025 05/02 Q1013 NOSIG
13-01-14 LEBL 140530Z 32006KT 9999 FEW025 06/02 Q1013 NOSIG
13-01-14 LEBL 140600Z 31005KT 9999 FEW025 06/02 Q1013 NOSIG
13-01-14 LEBL 140630Z 31005KT 9999 FEW025 06/02 Q1013 NOSIG
13-01-14 LEBL 140700Z 32005KT 9999 FEW025 05/01 Q1014 NOSIG
13-01-14 LEBL 140730Z 32006KT 9999 FEW025 06/01 Q1014 NOSIG
13-01-14 LEBL 140800Z 31006KT 260V350 9999 FEW025 06/01 Q1014 NOSIG
13-01-14 LEBL NIL
13-01-14 LEBL 140830Z 32008KT 280V360 9999 FEW025 07/00 Q1014 NOSIG
13-01-14 LEBL 140900Z NIL
13-01-14 LEBL 140930Z NIL
13-01-14 LEBL 141000Z 31010KT 9999 FEW025 08/02 Q1015 NOSIG
13-01-14 LEBL 141030Z 33010KT 290V010 9999 FEW025 09/02 Q1015 NOSIG
13-01-14 LEBL 141100Z 32010KT 300V010 9999 FEW025 10/02 Q1014 NOSIG
13-01-14 LEBL 141130Z 32011KT 290V360 9999 FEW025 11/02 Q1014 NOSIG
13-01-14 LEBL 141200Z 32009G21KT 270V350 9999 FEW025 11/01 Q1013 NOSIG
13-01-14 LEBL 141230Z 31009KT 9999 FEW025 12/01 Q1013 NOSIG
13-01-14 LEBL 141300Z 32006KT 280V010 9999 FEW025 12/00 Q1013 NOSIG
13-01-14 LEBL 141330Z 19004KT 9999 FEW025 12/01 Q1012 NOSIG
13-01-14 LEBL 141400Z 16006KT 150V210 9999 FEW025 13/00 Q1012 NOSIG
13-01-14 LEBL 141430Z NIL
13-01-14 LEBL 141500Z 31006KT 280V350 9999 FEW025 12/00 Q1012 NOSIG
13-01-14 LEBL 141530Z 28005KT 220V320 9999 FEW025 12/00 Q1013 NOSIG
13-01-14 LEBL 141600Z 29007KT 260V330 9999 FEW025 12/02 Q1013 NOSIG
13-01-14 LEBL 141630Z 29009KT 260V340 9999 FEW025 12/01 Q1013 NOSIG
13-01-14 LEBL 141700Z 31011KT 290V350 9999 FEW025 12/01 Q1013 NOSIG
13-01-14 LEBL 141730Z NIL
13-01-14 LEBL 141800Z 32012KT 9999 FEW025 11/02 Q1013 NOSIG
13-01-14 LEBL 141830Z 32009KT 9999 FEW025 11/02 Q1013 NOSIG
13-01-14 LEBL 141900Z 32011KT 290V350 9999 FEW025 11/02 Q1013 NOSIG
13-01-14 LEBL 141930Z 31014KT 290V350 9999 FEW025 10/02 Q1013 NOSIG
13-01-14 LEBL 142000Z 31012KT 270V340 9999 FEW025 10/02 Q1014 NOSIG
13-01-14 LEBL 142030Z 34012KT 310V010 9999 FEW025 10/03 Q1014 NOSIG
13-01-14 LEBL 142100Z 33009KT 300V020 9999 FEW025 09/03 Q1014 NOSIG
13-01-14 LEBL 142130Z 33010KT 290V010 9999 FEW025 09/02 Q1014 NOSIG
13-01-14 LEBL 142200Z 34010KT 9999 FEW025 09/03 Q1014 NOSIG
13-01-14 LEBL 142230Z 36012KT 9999 FEW025 09/02 Q1015 NOSIG
13-01-14 LEBL 142300Z 36008KT 9999 FEW025 08/02 Q1015 NOSIG
13-01-14 LEBL 142330Z 33007KT 9999 FEW025 08/02 Q1015 NOSIG
13-01-15 LEBL 150000Z 33009KT 9999 FEW025 08/02 Q1015 NOSIG
13-01-15 LEBL 150030Z 33009KT 9999 FEW025 08/02 Q1015 NOSIG
13-01-15 LEBL 150100Z 33011KT 9999 FEW025 07/02 Q1014 NOSIG
13-01-15 LEBL 150130Z 32010KT 9999 FEW030 07/02 Q1015 NOSIG
13-01-15 LEBL 150200Z 32009KT 9999 FEW030 07/02 Q1015 NOSIG
13-01-15 LEBL 150230Z 32005KT 9999 FEW025 07/02 Q1015 NOSIG
13-01-15 LEBL 150300Z 32005KT 9999 FEW025 07/02 Q1014 NOSIG
13-01-15 LEBL 150330Z 34006KT 9999 FEW025 07/02 Q1014 NOSIG
13-01-15 LEBL 150400Z 33005KT 9999 FEW025 06/02 Q1013 NOSIG
13-01-15 LEBL 150430Z 31007KT 9999 FEW025 06/02 Q1013 NOSIG
13-01-15 LEBL 150500Z 30005KT 9999 FEW025 06/01 Q1013 NOSIG
13-01-15 LEBL 150530Z 31006KT 9999 FEW025 05/01 Q1012 NOSIG
13-01-15 LEBL 150600Z VRB02KT 9999 FEW025 05/01 Q1012 NOSIG
13-01-15 LEBL 150630Z VRB02KT 9999 FEW025 05/01 Q1011 NOSIG
13-01-15 LEBL 150700Z VRB01KT 9999 FEW030 05/01 Q1011 NOSIG
13-01-15 LEBL 150730Z 29003KT 250V010 9999 BKN034 05/02 Q1010 NOSIG
13-01-15 LEBL 150800Z 27003KT 220V030 9999 BKN033 07/03 Q1010 NOSIG
13-01-15 LEBL NIL
13-01-15 LEBL 150830Z 26005KT 240V300 9999 BKN033 09/04 Q1010 NOSIG
13-01-15 LEBL 150900Z 28005G18KT 210V350 9999 BKN033 10/04 Q1009 NOSIG
13-01-15 LEBL 150930Z 27007KT 230V330 9999 BKN033 11/04 Q1009 NOSIG
13-01-15 LEBL 151000Z 29013KT 9999 FEW020 BKN040 11/03 Q1010 NOSIG
13-01-15 LEBL 151030Z 30017G29KT 9999 FEW020 BKN040 12/03 Q1009 NOSIG
13-01-15 LEBL 151100Z NIL
13-01-15 LEBL 151100Z 28016G26KT 9999 FEW020 12/03 Q1008 NOSIG
13-01-15 LEBL 151130Z 29017KT 9999 FEW020 SCT040 12/03 Q1008 NOSIG
13-01-15 LEBL 151200Z 31011KT 260V350 9999 FEW020 SCT040 12/03 Q1008 NOSIG
13-01-15 LEBL 151230Z 31012KT 280V020 9999 FEW020 SCT040 12/03 Q1009 NOSIG
13-01-15 LEBL 151300Z 33011KT 290V030 9999 FEW020 SCT040 13/03 Q1009 NOSIG
13-01-15 LEBL 151330Z 32008KT 290V010 9999 FEW020 SCT040 13/03 Q1008 NOSIG
13-01-15 LEBL 151400Z 32012KT 280V340 9999 FEW020 SCT040 13/02 Q1008 NOSIG
13-01-15 LEBL 151430Z 30013G24KT 9999 FEW020 SCT040 13/02 Q1009 NOSIG
13-01-15 LEBL 151500Z 30012KT 270V340 9999 FEW020 13/02 Q1009 NOSIG
13-01-15 LEBL 151530Z 31010KT 240V340 9999 FEW020 13/00 Q1009 NOSIG
13-01-15 LEBL 151600Z 32009KT 290V350 9999 FEW020 13/01 Q1010 NOSIG
13-01-15 LEBL 151630Z 30010KT 9999 FEW020 12/01 Q1010 NOSIG
13-01-15 LEBL 151700Z 29008KT 9999 FEW020 12/01 Q1011 NOSIG
13-01-15 LEBL 151730Z 29008KT 260V320 9999 FEW020 11/01 Q1011 NOSIG
13-01-15 LEBL 151800Z 30009KT 260V320 9999 FEW020 10/01 Q1012 NOSIG
13-01-15 LEBL 151830Z 29011KT 9999 FEW020 10/02 Q1012 NOSIG
13-01-15 LEBL 151900Z 30012KT 9999 FEW020 09/02 Q1012 NOSIG
13-01-15 LEBL 151930Z 30007KT 260V330 9999 FEW020 09/02 Q1013 NOSIG
13-01-15 LEBL 152000Z VRB02KT 9999 FEW020 09/02 Q1013 NOSIG
13-01-15 LEBL 152030Z NIL
13-01-15 LEBL 152100Z 30005KT 240V350 9999 FEW020 08/02 Q1012 NOSIG
13-01-15 LEBL 152130Z 29005KT 260V320 9999 FEW020 08/02 Q1012 NOSIG
13-01-15 LEBL 152200Z 25009KT 9999 FEW020 08/01 Q1012 NOSIG
13-01-15 LEBL 152230Z 27007KT 9999 FEW020 08/01 Q1012 NOSIG
13-01-15 LEBL 152300Z 25008KT 210V280 9999 FEW025 08/02 Q1012 NOSIG
13-01-15 LEBL 152330Z 26008KT 240V300 9999 FEW025 08/02 Q1012 NOSIG
13-01-16 LEBL 160000Z 27008KT 9999 FEW025 08/01 Q1012 NOSIG
13-01-16 LEBL 160030Z 31005KT 260V340 9999 FEW025 08/02 Q1012 NOSIG
13-01-16 LEBL 160100Z 31005KT 9999 FEW025 07/02 Q1011 NOSIG
13-01-16 LEBL 160130Z 29003KT 9999 FEW025 06/02 Q1011 NOSIG
13-01-16 LEBL 160200Z 32006KT 9999 FEW025 07/02 Q1011 NOSIG
13-01-16 LEBL 160230Z 31003KT 230V350 9999 FEW025 06/02 Q1011 NOSIG
13-01-16 LEBL 160300Z 31004KT 9999 FEW025 06/02 Q1011 NOSIG
13-01-16 LEBL 160330Z 34004KT 9999 FEW025 06/02 Q1010 NOSIG
13-01-16 LEBL 160400Z 30003KT 9999 SCT035 07/03 Q1010 NOSIG
13-01-16 LEBL 160430Z 34007KT 9999 BKN035 07/03 Q1010 NOSIG
13-01-16 LEBL 160500Z 35006KT 9999 BKN035 07/03 Q1009 NOSIG
13-01-16 LEBL 160530Z 34003KT 9999 BKN035 07/03 Q1009 NOSIG
13-01-16 LEBL 160600Z VRB01KT 9999 BKN035 07/03 Q1009 NOSIG
13-01-16 LEBL 160630Z VRB02KT 9999 BKN040 07/03 Q1009 NOSIG
13-01-16 LEBL 160700Z 34003KT 240V050 9999 BKN040 07/03 Q1008 NOSIG
13-01-16 LEBL 160730Z 05003KT 9999 FEW025 BKN043 07/03 Q1008 NOSIG
13-01-16 LEBL 160800Z 03003KT 340V070 9999 FEW025 BKN043 07/03 Q1008 NOSIG
13-01-16 LEBL NIL
13-01-16 LEBL 160830Z 34003KT 9999 FEW025 BKN045 07/04 Q1008 NOSIG
13-01-16 LEBL 160900Z 33003KT 270V020 9999 FEW025 SCT045 08/04 Q1008 NOSIG
13-01-16 LEBL 160930Z 00000KT 9999 FEW025 SCT045 09/04 Q1007 NOSIG
13-01-16 LEBL 161000Z 02003KT 310V070 9999 FEW025 SCT045 09/05 Q1007 NOSIG
13-01-16 LEBL 161030Z 36003KT 280V050 9999 FEW025 BKN045 10/04 Q1007 NOSIG
13-01-16 LEBL 161100Z 25001KT 9999 FEW025 BKN047 12/04 Q1006 NOSIG
13-01-16 LEBL 161130Z 25013KT 9999 FEW025 BKN047 12/04 Q1005 NOSIG
13-01-16 LEBL 161200Z 25015KT 9999 FEW025 BKN047 13/05 Q1004 NOSIG
13-01-16 LEBL 161230Z 25015KT 9999 FEW025 BKN047 13/05 Q1004 NOSIG
13-01-16 LEBL 161300Z 27012KT 9999 FEW025 BKN045 14/04 Q1003 NOSIG
13-01-16 LEBL 161330Z 26016KT 9999 FEW025 BKN047 14/04 Q1002 NOSIG
13-01-16 LEBL 161400Z 26017KT 9999 FEW025 BKN047 14/04 Q1002 NOSIG
13-01-16 LEBL 161430Z 27015KT 9999 FEW025 BKN047 14/04 Q1001 NOSIG
13-01-16 LEBL 161500Z 28016KT 250V310 9999 FEW025 BKN047 14/05 Q1001 NOSIG
13-01-16 LEBL 161530Z 27015KT 9999 FEW025 BKN045 15/05 Q1001 NOSIG
13-01-16 LEBL 161600Z 28018KT 9999 FEW025 BKN045 14/05 Q1001 NOSIG
13-01-16 LEBL 161630Z 29020KT 9999 FEW025 SCT045 14/05 Q1001 NOSIG
13-01-16 LEBL 161700Z 28016KT 9999 FEW025 SCT045 14/05 Q1001 NOSIG
13-01-16 LEBL 161730Z 28020KT 9999 FEW025 SCT045 14/06 Q1001 NOSIG
13-01-16 LEBL 161800Z 28011G25KT 240V310 9999 FEW025 SCT045 14/05 Q1001 NOSIG
13-01-16 LEBL 161830Z 28007G18KT 200V330 9999 FEW025 SCT045 14/05 Q1001 NOSIG
13-01-16 LEBL 161900Z 28006KT 220V330 9999 FEW025 SCT042 14/06 Q1001 NOSIG
13-01-16 LEBL 161930Z 25003KT 9999 FEW040 14/06 Q1001 NOSIG
13-01-16 LEBL 162000Z 29005KT 9999 FEW040 14/06 Q1002 NOSIG
13-01-16 LEBL 162030Z 28005KT 220V330 9999 FEW040 15/06 Q1002 NOSIG
13-01-16 LEBL 162100Z 06012KT 9999 SCT040 12/08 Q1002 NOSIG
13-01-16 LEBL 162130Z 08011KT 9999 SCT040 11/09 Q1003 NOSIG
13-01-16 LEBL 162200Z 08011KT 9999 SCT040 11/08 Q1003 NOSIG
13-01-16 LEBL 162230Z 07012KT 9999 SCT040 10/07 Q1003 NOSIG
13-01-16 LEBL 162300Z 07010KT 030V100 9999 SCT040 10/07 Q1003 NOSIG
13-01-16 LEBL 162330Z 08007KT 9999 SCT040 10/07 Q1004 NOSIG
13-01-17 LEBL 170000Z 07012KT 9999 FEW018 SCT035 10/07 Q1004 NOSIG
13-01-17 LEBL 170030Z 07010KT 040V100 9999 FEW018 SCT035 10/07 Q1004 NOSIG
13-01-17 LEBL 170100Z 06010KT 9999 FEW015 SCT021 09/05 Q1004 NOSIG
13-01-17 LEBL 170130Z 07010KT 9999 FEW015 SCT020 10/06 Q1005 NOSIG
13-01-17 LEBL 170130Z 07009KT 9999 FEW015 SCT030 09/06 Q1005 NOSIG
13-01-17 LEBL 170200Z NIL
13-01-17 LEBL 170230Z 08006KT 9999 FEW015 SCT030 09/05 Q1005 NOSIG
13-01-17 LEBL 170300Z 08007KT 050V110 9999 FEW015 SCT030 09/05 Q1005 NOSIG
13-01-17 LEBL 170330Z 09004KT 9999 SCT018 09/05 Q1005 NOSIG
13-01-17 LEBL 170400Z 09005KT 060V130 9999 SCT018 10/06 Q1005 NOSIG
13-01-17 LEBL 170430Z 10005KT 9999 SCT018 10/06 Q1005 NOSIG
13-01-17 LEBL 170500Z 10005KT 080V150 9999 SCT018 10/06 Q1005 NOSIG
13-01-17 LEBL 170530Z NIL
13-01-17 LEBL 170530Z 09003KT 060V120 9999 SCT018 10/06 Q1006 NOSIG
13-01-17 LEBL 170600Z 07002KT 9999 SCT018 09/06 Q1006 NOSIG
13-01-17 LEBL 170630Z 10003KT 9999 SCT020 09/06 Q1006 NOSIG
13-01-17 LEBL 170700Z 04001KT 9999 SCT020 09/06 Q1007 NOSIG
13-01-17 LEBL 170730Z 00000KT 9999 SCT020 10/06 Q1007 NOSIG
13-01-17 LEBL 170800Z 29001KT 9999 FEW016 SCT020 09/06 Q1008 NOSIG
13-01-17 LEBL NIL
13-01-17 LEBL 170830Z VRB02KT 9999 FEW016 BKN020 09/06 Q1008 NOSIG
13-01-17 LEBL 170900Z 30003KT 240V340 9999 FEW016 BKN020 10/06 Q1009 NOSIG
13-01-17 LEBL 170930Z 23003KT 130V270 9999 FEW016 BKN020 11/07 Q1009 NOSIG
13-01-17 LEBL 171000Z 20005KT 160V230 9999 SCT018 12/07 Q1009 NOSIG
13-01-17 LEBL 171030Z 19007KT 9999 SCT018 12/07 Q1009 NOSIG
13-01-17 LEBL 171100Z 22009KT 9999 SCT017 12/07 Q1009 NOSIG
13-01-17 LEBL 171130Z 19009KT 9999 FEW015 SCT020 13/07 Q1008 NOSIG
13-01-17 LEBL 171200Z 18009KT 9999 FEW015 SCT020 12/07 Q1008 NOSIG
13-01-17 LEBL 171230Z 19010KT 9999 FEW018 SCT025 13/08 Q1008 NOSIG
13-01-17 LEBL 171300Z 19012KT 9999 FEW018 SCT025 13/08 Q1008 NOSIG
13-01-17 LEBL 171330Z 19013KT 160V220 9999 SCT025 13/08 Q1007 NOSIG
13-01-17 LEBL 171400Z 19014KT 9999 FEW018 SCT025 13/08 Q1007 NOSIG
13-01-17 LEBL 171430Z 19016KT 9999 FEW020 13/09 Q1007 NOSIG
13-01-17 LEBL 171500Z 19014KT 9999 FEW020 14/09 Q1007 NOSIG
13-01-17 LEBL 171530Z 19009KT 150V220 9999 FEW020 14/05 Q1007 NOSIG
13-01-17 LEBL 171600Z 21009KT 160V260 9999 FEW020 14/03 Q1007 NOSIG
13-01-17 LEBL 171630Z 18004KT 9999 FEW020 14/04 Q1007 NOSIG
13-01-17 LEBL 171700Z 24004KT 170V300 9999 FEW020 13/02 Q1007 NOSIG
13-01-17 LEBL 171730Z VRB02KT 9999 FEW020 13/M00 Q1007 NOSIG
13-01-17 LEBL 171800Z 30013KT 240V320 9999 FEW020 12/M04 Q1008 NOSIG
13-01-17 LEBL 171830Z 28007KT 9999 FEW020 12/M06 Q1008 NOSIG
13-01-17 LEBL 171900Z 29011KT 9999 FEW020 12/M06 Q1008 NOSIG
13-01-17 LEBL 171930Z 33009KT 300V360 9999 FEW020 11/M06 Q1008 NOSIG
13-01-17 LEBL 172000Z 33011G22KT 300V030 9999 FEW020 11/M05 Q1008 NOSIG
13-01-17 LEBL 172030Z 31012KT 9999 FEW020 10/M06 Q1008 NOSIG
13-01-17 LEBL 172100Z 32011KT 300V360 9999 FEW020 11/M03 Q1009 NOSIG
13-01-17 LEBL 172130Z 30012KT 270V330 9999 FEW020 10/02 Q1009 NOSIG
13-01-17 LEBL 172200Z 33007KT 260V360 9999 FEW020 10/05 Q1009 NOSIG
13-01-17 LEBL 172230Z 07007KT 020V110 9999 FEW020 10/05 Q1008 NOSIG
13-01-17 LEBL 172300Z 07009KT 9999 FEW020 11/06 Q1008 NOSIG
13-01-17 LEBL 172330Z 07008KT 030V100 9999 FEW020 11/06 Q1008 NOSIG
13-01-18 LEBL 180000Z 11010KT 080V140 9999 FEW020 12/06 Q1008 NOSIG
13-01-18 LEBL 180030Z 13008KT 100V160 9999 SCT025 12/07 Q1008 NOSIG
13-01-18 LEBL 180100Z 13008KT 100V170 9999 FEW020 SCT035 12/07 Q1008 NOSIG
13-01-18 LEBL 180130Z 13006KT 090V170 9999 FEW025 SCT035 10/02 Q1008 NOSIG
13-01-18 LEBL 180200Z 10006KT 070V140 9999 FEW025 SCT035 09/01 Q1008 NOSIG
13-01-18 LEBL 180230Z 09004KT 030V120 9999 FEW025 SCT035 09/00 Q1008 NOSIG
13-01-18 LEBL 180300Z 33008KT 9999 SCT022 09/M00 Q1007 NOSIG
13-01-18 LEBL 180330Z 34008KT 9999 SCT022 08/M01 Q1007 NOSIG
13-01-18 LEBL 180400Z 32009KT 9999 SCT020 08/M01 Q1007 NOSIG
13-01-18 LEBL 180430Z 33010KT 9999 SCT020 08/M01 Q1007 NOSIG
13-01-18 LEBL 180500Z 33008KT 9999 SCT020 07/M02 Q1007 NOSIG
13-01-18 LEBL 180530Z 33008KT 9999 SCT025 08/M02 Q1007 NOSIG
13-01-18 LEBL 180600Z 33006KT 9999 DZ SCT025 BKN055 07/00 Q1006 NOSIG
13-01-18 LEBL 180630Z 32006KT 210V350 9999 -RA SCT025 BKN050 06/01 Q1006 NOSIG
13-01-18 LEBL 180700Z 33008KT 9999 DZ SCT025 BKN055 06/01 Q1006 NOSIG
13-01-18 LEBL 180730Z 33007KT 270V080 9999 SCT025 BKN050 06/01 Q1006 REDZ NOSIG
13-01-18 LEBL 180800Z 33009KT 270V010 9999 SCT025 BKN050 06/01 Q1006 NOSIG
13-01-18 LEBL 180830Z 32009KT 9999 FEW022 BKN035 06/01 Q1006 NOSIG
13-01-18 LEBL 180900Z 32007KT 260V350 9999 FEW022 BKN035 07/03 Q1006 NOSIG
13-01-18 LEBL 180930Z 32005KT 290V030 9999 SCT022 BKN035 07/02 Q1006 NOSIG
13-01-18 LEBL 181000Z 31006KT 9999 SCT022 BKN035 08/03 Q1006 NOSIG
13-01-18 LEBL 181030Z 33005KT 270V010 9999 FEW022 BKN035 09/03 Q1006 NOSIG
13-01-18 LEBL 181100Z 32004KT 260V050 9999 FEW022 BKN035 09/04 Q1006 NOSIG
13-01-18 LEBL 181130Z 32005KT 9999 FEW020 BKN030 10/04 Q1005 NOSIG
13-01-18 LEBL 181200Z 31004KT 220V340 9999 FEW020 BKN025 10/04 Q1005 NOSIG
13-01-18 LEBL 181230Z 30005KT 260V350 9999 FEW020 BKN025 11/04 Q1004 NOSIG
13-01-18 LEBL 181300Z 31003KT 250V020 9999 FEW020 BKN025 11/05 Q1004 NOSIG
13-01-18 LEBL 181330Z VRB02KT 9999 FEW020 BKN025 12/06 Q1003 NOSIG
13-01-18 LEBL 181400Z 27003KT 210V340 9999 FEW020 SCT030 12/07 Q1003 NOSIG
13-01-18 LEBL 181430Z 21005KT 180V250 9999 FEW020 SCT030 12/07 Q1003 NOSIG
13-01-18 LEBL 181500Z 20005KT 9999 FEW020 12/08 Q1002 NOSIG
13-01-18 LEBL 181530Z 20004KT 170V240 9999 FEW020 12/08 Q1002 NOSIG
13-01-18 LEBL 181600Z NIL
13-01-18 LEBL 181600Z 23008KT 190V250 9999 FEW020 12/09 Q1001 NOSIG
13-01-18 LEBL 181630Z 22011KT 9999 FEW020 SCT055 12/09 Q1001 NOSIG
13-01-18 LEBL 181700Z 22009KT 9999 FEW020 12/09 Q1001 NOSIG
13-01-18 LEBL 181730Z 22007KT 9999 FEW020 12/09 Q1001 NOSIG
13-01-18 LEBL 181800Z 22008KT 9999 FEW020 SCT055 12/09 Q1001 NOSIG
13-01-18 LEBL 181830Z 22007KT 9999 FEW020 SCT055 12/09 Q1000 NOSIG
13-01-18 LEBL 181900Z 22007KT 9999 FEW020 SCT055 12/10 Q1000 NOSIG
13-01-18 LEBL 181930Z 21006KT 9999 FEW020 SCT055 12/10 Q0999 NOSIG
13-01-18 LEBL 182000Z 21009KT 9999 FEW011 SCT055 12/10 Q0999 NOSIG
13-01-18 LEBL 182030Z 23006KT 9999 SCT011 SCT055 12/10 Q0998 NOSIG
13-01-18 LEBL 182100Z 22006KT 9999 FEW011 SCT055 12/10 Q0998 NOSIG
13-01-18 LEBL 182130Z 26003KT 220V310 9999 FEW015 SCT055 12/10 Q0997 NOSIG
13-01-18 LEBL 182200Z 31003KT 280V350 9999 FEW015 SCT055 12/10 Q0997 NOSIG
13-01-18 LEBL 182230Z 32004KT 9999 FEW015 SCT055 11/09 Q0997 NOSIG
13-01-18 LEBL 182300Z 32003KT 290V360 9999 FEW015 SCT055 11/09 Q0996 NOSIG
13-01-18 LEBL 182330Z 27003KT 210V300 9999 FEW015 SCT055 11/09 Q0996 NOSIG
13-01-19 LEBL 190000Z 34001KT 9999 FEW015 SCT055 11/09 Q0995 NOSIG
13-01-19 LEBL 190030Z VRB02KT 8000 FEW015 SCT055 12/10 Q0994 NOSIG
13-01-19 LEBL 190100Z 03002KT 9999 FEW015 SCT055 12/10 Q0994 NOSIG
13-01-19 LEBL 190130Z 02002KT 9999 FEW015 SCT055 13/10 Q0994 NOSIG
13-01-19 LEBL 190200Z 02003KT 350V100 9999 FEW015 SCT055 13/10 Q0993 NOSIG
13-01-19 LEBL 190230Z 27001KT 9999 FEW015 SCT055 13/11 Q0993 NOSIG
13-01-19 LEBL 190300Z 02001KT 9999 FEW015 SCT055 14/11 Q0993 NOSIG
13-01-19 LEBL 190330Z VRB02KT 9999 FEW015 12/09 Q0992 NOSIG
13-01-19 LEBL 190400Z 33004KT 250V360 9999 FEW015 11/08 Q0992 NOSIG
13-01-19 LEBL 190430Z 35003KT 9999 FEW020 11/08 Q0991 NOSIG
13-01-19 LEBL 190500Z 00000KT 9999 FEW020 11/08 Q0991 NOSIG
13-01-19 LEBL 190530Z VRB01KT 9999 FEW020 10/08 Q0991 NOSIG
13-01-19 LEBL 190600Z 33003KT 280V040 9999 FEW020 11/08 Q0991 NOSIG
13-01-19 LEBL 190630Z VRB01KT 9999 FEW015 10/08 Q0990 NOSIG
13-01-19 LEBL 190700Z 34003KT 260V360 9999 FEW015 10/08 Q0990 NOSIG
13-01-19 LEBL 190730Z 32003KT 250V360 9999 FEW015 10/08 Q0989 NOSIG
13-01-19 LEBL 190800Z 32001KT 9999 FEW020 11/08 Q0989 NOSIG
13-01-19 LEBL 190830Z VRB02KT 9000 DZ FEW020 12/10 Q0989 NOSIG
13-01-19 LEBL 190900Z 00000KT 9999 DZ FEW020 14/12 Q0989 NOSIG
13-01-19 LEBL 190930Z 22006KT 9000 FEW020 15/12 Q0988 REDZ NOSIG
13-01-19 LEBL 191000Z 22007KT 9000 FEW020 15/11 Q0988 NOSIG
13-01-19 LEBL 191030Z 22011KT 9000 FEW020 16/12 Q0988 NOSIG
13-01-19 LEBL 191100Z 22010KT 9000 DZ FEW020 16/13 Q0987 NOSIG
13-01-19 LEBL 191130Z 21008KT 7000 RA FEW020 SCT030 15/13 Q0986 NOSIG
13-01-19 LEBL 191200Z 21006KT 7000 RA FEW020 SCT040 15/13 Q0986 NOSIG
13-01-19 LEBL 191230Z 22008KT 6000 RA BKN010 14/13 Q0985 NOSIG
13-01-19 LEBL 191300Z 22007KT 5000 RA BKN010 14/13 Q0985 NOSIG
13-01-19 LEBL 191330Z 22007KT 5000 +RA SCT009 BKN014 14/13 Q0984 NOSIG
13-01-19 LEBL 191400Z 16003KT 140V200 5000 RA SCT009 BKN014 14/13 Q0983 NOSIG
13-01-19 LEBL 191430Z 14003KT 090V170 4000 RA FEW010 BKN015 14/13 Q0983 NOSIG
13-01-19 LEBL 191500Z 19009KT 5000 DZ SCT015 BKN022 14/13 Q0982 NOSIG
13-01-19 LEBL 191530Z 18007KT 150V210 6000 BKN017 SCT022 14/13 Q0981 REDZ NOSIG
13-01-19 LEBL 191600Z 17008KT 140V200 6000 FEW020 BKN025 14/13 Q0980 NOSIG
13-01-19 LEBL 191630Z 19010KT 5000 RA FEW020 BKN027 14/13 Q0980 NOSIG
13-01-19 LEBL 191700Z 21014KT 4000 RA SCT006 BKN027 14/13 Q0980 NOSIG
13-01-19 LEBL 191730Z 21019KT 6000 FEW014 SCT025 BKN048 13/12 Q0980 RERA NOSIG
13-01-19 LEBL 191800Z 23021KT 9999 SCT024 BKN040 13/10 Q0981 NOSIG
13-01-19 LEBL 191830Z 23013KT 9000 DZ BKN022 SCT028 13/10 Q0982 NOSIG
13-01-19 LEBL 191900Z 22021KT 9000 SCT022 BKN045 13/10 Q0982 REDZ NOSIG
13-01-19 LEBL 191930Z 22018KT 9000 SCT022 SCT055 13/10 Q0982 NOSIG
13-01-19 LEBL 192000Z 21014KT 9000 FEW010 SCT035 14/10 Q0982 NOSIG
13-01-19 LEBL 192019Z 23015KT 6000 RA FEW010 SCT035 12/10 Q0983 NOSIG
13-01-19 LEBL 192030Z 23012KT 8000 -RA FEW010 SCT035 12/10 Q0983 NOSIG
13-01-19 LEBL 192100Z 29009KT 270V330 9999 FEW012 SCT050 12/07 Q0983 NOSIG
13-01-19 LEBL 192130Z 27004KT 9999 FEW014 11/06 Q0984 NOSIG
13-01-19 LEBL 192200Z 27004KT 240V310 9999 FEW018 11/06 Q0984 NOSIG
13-01-19 LEBL 192230Z VRB02KT 9999 FEW018 10/06 Q0984 NOSIG
13-01-19 LEBL 192300Z 00000KT 9999 -SHRA FEW018TCU SCT030 10/07 Q0985 NOSIG
13-01-19 LEBL 192330Z 31003KT 9999 -SHRA FEW018TCU SCT035 10/08 Q0985 NOSIG
13-01-20 LEBL 200000Z 29006KT 240V310 7000 RA FEW018 SCT035 10/08 Q0985 NOSIG
13-01-20 LEBL 200030Z 30006KT 9999 -RA FEW018 SCT035 10/08 Q0985 NOSIG
13-01-20 LEBL 200100Z 30008KT 9999 -RA FEW018 SCT035 11/08 Q0985 NOSIG
13-01-20 LEBL 200130Z 32006KT 9999 FEW018 10/08 Q0985 NOSIG
13-01-20 LEBL 200200Z 32009KT 9999 FEW018 10/07 Q0985 NOSIG
13-01-20 LEBL 200230Z 32013KT 9999 FEW018 09/07 Q0985 NOSIG
13-01-20 LEBL 200300Z 33009KT 9999 FEW018 09/07 Q0985 NOSIG
13-01-20 LEBL 200330Z 29006KT 260V330 9999 FEW018 08/07 Q0986 NOSIG
13-01-20 LEBL 200400Z 31007KT 9999 FEW018 09/07 Q0986 NOSIG
13-01-20 LEBL 200430Z 33004KT 9999 FEW018 08/06 Q0986 NOSIG
13-01-20 LEBL 200500Z 30008KT 9999 FEW022 08/06 Q0987 NOSIG
13-01-20 LEBL 200530Z 30010KT 9999 FEW022 09/06 Q0988 NOSIG
13-01-20 LEBL 200600Z 30009KT 9999 FEW020 10/06 Q0988 NOSIG
13-01-20 LEBL 200630Z 30009G19KT 9999 FEW020 10/05 Q0989 NOSIG
13-01-20 LEBL 200700Z 29005KT 9999 FEW020 09/05 Q0990 NOSIG
13-01-20 LEBL 200730Z 21001KT 9999 FEW020 09/05 Q0990 NOSIG
13-01-20 LEBL 200800Z 34005KT 290V020 9999 FEW020 09/06 Q0991 NOSIG
13-01-20 LEBL 200830Z 34011KT 310V020 9999 FEW020 10/06 Q0992 NOSIG
13-01-20 LEBL 200900Z 31013G23KT 260V340 9999 FEW020 10/05 Q0993 NOSIG
13-01-20 LEBL 200930Z 31012KT 280V340 9999 FEW020 11/05 Q0993 NOSIG
13-01-20 LEBL 201000Z 31013KT 290V350 9999 FEW020 11/05 Q0993 NOSIG
13-01-20 LEBL 201030Z 32014KT 290V350 9999 FEW020 11/05 Q0994 NOSIG
13-01-20 LEBL 201100Z 31011KT 280V350 9999 FEW020 11/05 Q0994 NOSIG
13-01-20 LEBL 201130Z 32008KT 9999 FEW025 12/05 Q0994 NOSIG
13-01-20 LEBL 201200Z 32005KT 260V010 9999 FEW025 13/04 Q0994 NOSIG
13-01-20 LEBL 201230Z 26008KT 9999 FEW025 13/05 Q0994 NOSIG
13-01-20 LEBL 201300Z 29009KT 260V320 9999 FEW025 13/04 Q0994 NOSIG
13-01-20 LEBL 201330Z 27013G24KT 9999 FEW025 14/03 Q0995 NOSIG
13-01-20 LEBL 201400Z 28013KT 9999 FEW025 14/05 Q0995 NOSIG
13-01-20 LEBL 201430Z 29015KT 9999 FEW025 14/03 Q0995 NOSIG
13-01-20 LEBL 201500Z 28016G26KT 260V320 9999 FEW025 14/02 Q0996 NOSIG
13-01-20 LEBL 201530Z 29013KT 260V320 9999 FEW025 14/03 Q0996 NOSIG
13-01-20 LEBL 201600Z 28012G22KT 240V320 9999 FEW025 13/03 Q0996 NOSIG
13-01-20 LEBL 201630Z 30015KT 240V330 9999 FEW025 13/03 Q0997 NOSIG
13-01-20 LEBL 201700Z 29010KT 9999 FEW025 12/02 Q0997 NOSIG
13-01-20 LEBL 201730Z 30014KT 280V340 9999 FEW025 12/02 Q0997 NOSIG
13-01-20 LEBL 201800Z 30013KT 260V320 9999 FEW025 12/02 Q0998 NOSIG
13-01-20 LEBL 201830Z 31019KT 9999 FEW025 12/01 Q0998 NOSIG
13-01-20 LEBL 201900Z 31018KT 280V340 9999 FEW025 12/M01 Q0998 NOSIG
13-01-20 LEBL 201930Z 29013KT 9999 FEW025 12/M01 Q0999 NOSIG
13-01-20 LEBL 202000Z 29008KT 260V330 9999 FEW025 12/M01 Q1000 NOSIG
13-01-20 LEBL 202030Z 28008KT 9999 FEW025 12/M00 Q1000 NOSIG
13-01-20 LEBL 202100Z 30008G18KT 250V330 9999 FEW025 12/00 Q1000 NOSIG
13-01-20 LEBL 202130Z 33004KT 270V020 9999 FEW025 12/00 Q1000 NOSIG
13-01-20 LEBL 202200Z VRB01KT 9999 FEW025 11/00 Q1000 NOSIG
13-01-20 LEBL 202230Z 32004KT 290V350 9999 FEW025 11/01 Q1000 NOSIG
13-01-20 LEBL 202300Z 00000KT 9999 FEW025 11/01 Q1000 NOSIG
13-01-20 LEBL 202330Z 00000KT 9999 FEW025 12/01 Q1000 NOSIG
13-01-21 LEBL 210000Z 36001KT 9999 FEW025 11/01 Q1000 NOSIG
13-01-21 LEBL 210030Z 22007KT 9999 FEW025 11/03 Q1000 NOSIG
13-01-21 LEBL 210100Z 23012KT 9999 FEW025 11/03 Q0999 NOSIG
13-01-21 LEBL 210130Z 24010KT 9999 FEW025 10/03 Q1000 NOSIG
13-01-21 LEBL 210200Z 24006KT 9999 FEW025 10/03 Q0999 NOSIG
13-01-21 LEBL 210230Z 24011KT 9999 FEW025 10/03 Q0999 NOSIG
13-01-21 LEBL 210300Z 25007KT 9999 FEW025 09/03 Q0999 NOSIG
13-01-21 LEBL 210330Z 24003KT 9999 FEW025 09/03 Q0999 NOSIG
13-01-21 LEBL 210400Z 26005KT 9999 FEW025 SCT055 09/03 Q0999 NOSIG
13-01-21 LEBL 210430Z 27005KT 240V310 9999 FEW025 SCT055 09/03 Q0999 NOSIG
13-01-21 LEBL 210500Z 31007KT 9999 FEW025 SCT055 08/03 Q0999 NOSIG
13-01-21 LEBL 210530Z 31005KT 9999 FEW025 08/03 Q0999 NOSIG
13-01-21 LEBL 210600Z 33008KT 9999 FEW025 07/03 Q0999 NOSIG
13-01-21 LEBL 210630Z 03001KT 9999 FEW025 07/03 Q0999 NOSIG
13-01-21 LEBL 210700Z 35007KT 230V030 9999 FEW025 08/03 Q1000 NOSIG
13-01-21 LEBL 210730Z 34009KT 260V360 9999 FEW025 SCT045 08/03 Q1000 NOSIG
13-01-21 LEBL 210800Z 32005KT 250V020 9999 FEW020 SCT045 09/03 Q1001 NOSIG
13-01-21 LEBL 210830Z 33008KT 300V030 9999 FEW020 SCT045 07/03 Q1001 NOSIG
13-01-21 LEBL 210900Z 34008KT 290V040 9999 FEW020 SCT045 09/04 Q1001 NOSIG
13-01-21 LEBL 210930Z 33006KT 290V010 9999 FEW020 SCT040 09/04 Q1002 NOSIG
13-01-21 LEBL 211000Z 31009KT 9999 FEW020 SCT038 10/04 Q1002 NOSIG
13-01-21 LEBL 211030Z 31009KT 9999 FEW020 SCT038 11/04 Q1002 NOSIG
13-01-21 LEBL 211100Z 31010KT 280V340 9999 FEW020 SCT036 11/03 Q1003 NOSIG
13-01-21 LEBL 211130Z 31011KT 9999 FEW020 SCT040 11/03 Q1003 NOSIG
13-01-21 LEBL 211200Z 32010KT 9999 FEW020 13/03 Q1003 NOSIG
13-01-21 LEBL 211230Z 35008KT 300V030 9999 FEW020 13/04 Q1002 NOSIG
13-01-21 LEBL 211300Z 33007KT 290V010 9999 FEW030 13/03 Q1003 NOSIG
13-01-21 LEBL 211330Z 35004KT 280V080 9999 FEW030 SCT040 13/03 Q1003 NOSIG
13-01-21 LEBL 211400Z 32007KT 290V020 9999 SCT043 13/03 Q1003 NOSIG
13-01-21 LEBL 211430Z 07005KT 020V110 9999 SCT050 14/03 Q1003 NOSIG
13-01-21 LEBL 211500Z 11003KT 040V160 9999 FEW050 SCT056 13/04 Q1004 NOSIG
13-01-21 LEBL NIL
13-01-21 LEBL 211530Z 18004KT 130V290 9999 FEW050 13/04 Q1004 NOSIG
13-01-21 LEBL 211600Z 22006KT 170V300 9999 FEW050 14/00 Q1004 NOSIG
13-01-21 LEBL 211630Z 30010KT 270V350 9999 FEW050 13/01 Q1004 NOSIG
13-01-21 LEBL 211700Z VRB05KT 9999 FEW045 13/M01 Q1004 NOSIG
13-01-21 LEBL 211730Z 31014KT 280V340 9999 FEW045 12/M01 Q1005 NOSIG
13-01-21 LEBL 211800Z 31019KT 9999 FEW045 12/M02 Q1005 NOSIG
13-01-21 LEBL 211830Z 31016KT 9999 FEW045 11/M01 Q1006 NOSIG
13-01-21 LEBL 211900Z 31016KT 9999 FEW045 11/M02 Q1007 NOSIG
13-01-21 LEBL 211930Z 31017KT 9999 FEW030 11/M01 Q1007 NOSIG
13-01-21 LEBL 212000Z 32010KT 280V350 9999 FEW030 11/M02 Q1008 NOSIG
13-01-21 LEBL 212030Z 32016KT 9999 FEW030 11/M02 Q1008 NOSIG
13-01-21 LEBL 212100Z 32014G24KT 300V010 9999 FEW030 09/M01 Q1008 NOSIG
13-01-21 LEBL 212130Z 32011KT 270V340 9999 FEW030 09/M01 Q1008 NOSIG
13-01-21 LEBL 212200Z 25005KT 210V350 9999 FEW030 09/M01 Q1009 NOSIG
13-01-21 LEBL 212230Z 28008KT 250V310 9999 FEW030 09/M02 Q1009 NOSIG
13-01-21 LEBL 212300Z 31007KT 280V340 9999 FEW030 09/M01 Q1009 NOSIG
13-01-21 LEBL 212330Z 33006KT 300V360 9999 FEW030 08/M01 Q1009 NOSIG
13-01-22 LEBL 220000Z 33005KT 270V020 9999 FEW030 09/M02 Q1010 NOSIG
13-01-22 LEBL 220030Z 35006KT 9999 FEW030 08/M01 Q1010 NOSIG
13-01-22 LEBL 220100Z 34007KT 9999 FEW025 08/M01 Q1010 NOSIG
13-01-22 LEBL 220130Z 34005KT 9999 FEW025 07/M01 Q1010 NOSIG
13-01-22 LEBL 220200Z 36004KT 9999 FEW025 08/M02 Q1010 NOSIG
13-01-22 LEBL 220230Z 33004KT 300V040 9999 FEW025 08/M02 Q1010 NOSIG
13-01-22 LEBL 220300Z 34007KT 9999 FEW025 07/M01 Q1010 NOSIG
13-01-22 LEBL 220330Z 34006KT 9999 FEW025 07/M01 Q1009 NOSIG
13-01-22 LEBL 220400Z 33007KT 9999 FEW025 07/M01 Q1009 NOSIG
13-01-22 LEBL 220430Z 16003KT 070V220 9999 FEW025 07/M01 Q1009 NOSIG
13-01-22 LEBL 220500Z VRB01KT 9999 FEW025 07/M01 Q1009 NOSIG
13-01-22 LEBL 220530Z 34004KT 310V010 9999 FEW025 07/M01 Q1009 NOSIG
13-01-22 LEBL 220600Z 34005KT 310V030 9999 FEW025 06/M00 Q1009 NOSIG
13-01-22 LEBL 220630Z 34002KT 9999 FEW025 06/M01 Q1009 NOSIG
13-01-22 LEBL 220700Z 32004KT 280V360 9999 FEW025 06/M01 Q1009 NOSIG
13-01-22 LEBL 220730Z 32005KT 9999 FEW025 06/M01 Q1009 NOSIG
13-01-22 LEBL 220800Z 31007KT 260V330 9999 FEW025 05/M00 Q1009 NOSIG
13-01-22 LEBL 220830Z 30005KT 270V330 9999 FEW025 06/M00 Q1009 NOSIG
13-01-22 LEBL 220900Z 29006KT 260V320 9999 FEW025 07/00 Q1009 NOSIG
13-01-22 LEBL 220930Z 28003KT 250V310 9999 FEW025 10/M00 Q1009 NOSIG
13-01-22 LEBL 221000Z 25010KT 9999 FEW025 11/00 Q1009 NOSIG
13-01-22 LEBL 221030Z 22012KT 9999 FEW025 11/M01 Q1009 NOSIG
13-01-22 LEBL 221100Z 22011KT 9999 FEW025 12/00 Q1008 NOSIG
13-01-22 LEBL 221130Z 22012KT 9999 FEW025 12/M01 Q1007 NOSIG
13-01-22 LEBL 221200Z 23016KT 9999 FEW025 12/00 Q1007 NOSIG
13-01-22 LEBL 221230Z 22016KT 9999 FEW025 12/M00 Q1006 NOSIG
13-01-22 LEBL 221300Z 23017KT 9999 FEW025 12/M01 Q1006 NOSIG
13-01-22 LEBL 221330Z 24017KT 9999 FEW025 12/M00 Q1005 NOSIG
13-01-22 LEBL 221400Z 24019KT 9999 FEW025 12/M04 Q1005 NOSIG
13-01-22 LEBL 221430Z 24016KT 9999 FEW025 12/M01 Q1005 NOSIG
13-01-22 LEBL 221500Z 24015KT 9999 FEW025 12/01 Q1004 NOSIG
13-01-22 LEBL 221530Z 24016KT 9999 FEW025 12/02 Q1004 NOSIG
13-01-22 LEBL 221600Z 25015KT 9999 FEW025 11/03 Q1004 NOSIG
13-01-22 LEBL 221630Z 26009KT 9999 FEW025 11/03 Q1003 NOSIG
13-01-22 LEBL 221700Z 29006KT 270V330 9999 FEW025 11/03 Q1003 NOSIG
13-01-22 LEBL 221730Z 28004KT 9999 FEW025 11/03 Q1002 NOSIG
13-01-22 LEBL 221800Z 30004KT 9999 FEW025 11/02 Q1002 NOSIG
13-01-22 LEBL 221830Z 28004KT 240V310 9999 FEW025 SCT040 10/02 Q1002 NOSIG
13-01-22 LEBL 221900Z 29001KT 9999 -SHRA FEW018TCU SCT040 10/03 Q1002 NOSIG
13-01-22 LEBL 221930Z 17003KT 110V270 8000 SHRA FEW018TCU BKN035 09/06 Q1002 NOSIG
13-01-22 LEBL 222000Z VRB01KT 8000 -RA FEW018TCU BKN030 09/06 Q1001 NOSIG
13-01-22 LEBL 222030Z 36003KT 340V050 8000 -RA FEW018TCU BKN030 08/06 Q1001 NOSIG
13-01-22 LEBL 222100Z 34008KT 310V010 8000 +RA FEW018TCU BKN030 08/05 Q1000 NOSIG
13-01-22 LEBL 222130Z 36005KT 300V110 8000 RA FEW018TCU SCT030 BKN040 08/06 Q0999 NOSIG
13-01-22 LEBL 222200Z 34005KT 8000 RA FEW018TCU SCT030 BKN038 08/05 Q1000 NOSIG
13-01-22 LEBL 222230Z 33008KT 310V020 8000 RA FEW018TCU SCT030 BKN038 07/05 Q1000
13-01-22 LEBL 222300Z 32009KT 290V350 9000 RA FEW018TCU SCT030 BKN038 08/05 Q1000
13-01-22 LEBL 222330Z 36005KT 300V020 9000 RA FEW018TCU SCT030 BKN038 08/05 Q1000
13-01-23 LEBL 230000Z 33005KT 9000 RA FEW018TCU SCT030 BKN038 08/04 Q1000 NOSIG
13-01-23 LEBL 230030Z 33005KT 9000 RA FEW018TCU SCT038 07/04 Q1000 NOSIG
13-01-23 LEBL 230100Z 33005KT 9000 RA FEW015TCU SCT025 07/04 Q1001 NOSIG
13-01-23 LEBL 230130Z 33013KT 9000 RA FEW015TCU SCT028 06/04 Q1001 NOSIG
13-01-23 LEBL 230200Z 30007KT 9000 DZ FEW015TCU SCT028 06/04 Q1001 NOSIG
13-01-23 LEBL 230230Z 30007KT 9000 DZ FEW015TCU SCT028 06/04 Q1002 NOSIG
13-01-23 LEBL 230400Z VRB02KT 9999 DZ FEW018TCU SCT030 07/04 Q1001 NOSIG
13-01-23 LEBL 230500Z 30004KT 9999 FEW020 SCT040 07/04 Q1001 NOSIG
13-01-23 LEBL 230530Z 29004KT 9999 FEW020 SCT040 06/04 Q1001 NOSIG
13-01-23 LEBL 230600Z 31005KT 9999 FEW030 07/03 Q1001 NOSIG
13-01-23 LEBL 230630Z 32006KT 9999 FEW030 07/02 Q1001 NOSIG
13-01-23 LEBL 230700Z 32004KT 250V350 9999 FEW030 07/01 Q1001 NOSIG
13-01-23 LEBL 230730Z 33005KT 9999 FEW030 06/01 Q1001 NOSIG
13-01-23 LEBL 230800Z 33007KT 290V360 9999 FEW030 06/02 Q1002 NOSIG
13-01-23 LEBL 230830Z 31010G20KT 9999 FEW025 06/02 Q1002 NOSIG
13-01-23 LEBL 230900Z 31012KT 290V350 9999 FEW025 07/02 Q1002 NOSIG
13-01-23 LEBL 230930Z 30013KT 9999 FEW025 08/02 Q1002 NOSIG
13-01-23 LEBL 231000Z 30010KT 240V350 9999 FEW025 08/01 Q1003 NOSIG
13-01-23 LEBL 231030Z 30010KT 9999 FEW025 09/01 Q1003 NOSIG
13-01-23 LEBL 231100Z 30014KT 270V340 9999 FEW025 10/01 Q1003 NOSIG
13-01-23 LEBL 231130Z 30018KT 9999 FEW025 10/03 Q1003 NOSIG
13-01-23 LEBL 231200Z 31020KT 9999 FEW025 11/01 Q1003 NOSIG
13-01-23 LEBL 231230Z 31021G33KT 9999 FEW025 12/02 Q1002 NOSIG
13-01-23 LEBL 231300Z 31022KT 9999 FEW025 12/03 Q1003 NOSIG
13-01-23 LEBL 231330Z 31020G30KT 9999 FEW025 13/02 Q1003 NOSIG
13-01-23 LEBL 231400Z 30018KT 280V340 9999 FEW025 13/01 Q1003 NOSIG
13-01-23 LEBL 231430Z 31016KT 9999 FEW025 12/01 Q1004 NOSIG
13-01-23 LEBL 231500Z 29015KT 9999 FEW025 12/01 Q1004 NOSIG
13-01-23 LEBL 231530Z 31016KT 270V340 9999 FEW025 12/01 Q1004 NOSIG
13-01-23 LEBL 231600Z 31012KT 9999 FEW025 12/01 Q1004 NOSIG
13-01-23 LEBL 231630Z 31011G21KT 9999 FEW025 12/01 Q1005 NOSIG
13-01-23 LEBL 231700Z 31012KT 9999 FEW025 12/01 Q1005 NOSIG
13-01-23 LEBL 231730Z 30013KT 9999 FEW025 11/01 Q1005 NOSIG
13-01-23 LEBL 231800Z 31013KT 9999 FEW025 11/01 Q1006 NOSIG
13-01-23 LEBL 231830Z 30014KT 9999 FEW025 11/01 Q1006 NOSIG
13-01-23 LEBL 231900Z 30014KT 9999 FEW025 11/01 Q1006 NOSIG
13-01-23 LEBL 231930Z 31019KT 9999 FEW025 11/01 Q1006 NOSIG
13-01-23 LEBL 232000Z 30012KT 270V330 9999 FEW025 11/00 Q1006 NOSIG
13-01-23 LEBL 232030Z 29008KT 260V340 9999 FEW025 10/01 Q1007 NOSIG
13-01-23 LEBL 232100Z 31013KT 9999 FEW025 10/00 Q1007 NOSIG
13-01-23 LEBL 232130Z 31014KT 9999 FEW025 10/M00 Q1007 NOSIG
13-01-23 LEBL 232200Z 31017KT 9999 FEW025 09/00 Q1007 NOSIG
13-01-23 LEBL 232230Z 32016KT 9999 FEW025 09/00 Q1007 NOSIG
13-01-23 LEBL 232300Z 30015KT 9999 FEW025 08/00 Q1007 NOSIG
13-01-23 LEBL 232330Z 31011KT 9999 FEW025 09/M00 Q1007 NOSIG
13-01-24 LEBL 240000Z 31018KT 9999 FEW025 09/M01 Q1006 NOSIG
13-01-24 LEBL 240030Z 31018KT 9999 FEW025 10/M02 Q1006 NOSIG
13-01-24 LEBL 240100Z 31016KT 9999 FEW025 10/M01 Q1005 NOSIG
13-01-24 LEBL 240130Z 29013KT 270V330 9999 FEW025 10/M01 Q1005 NOSIG
13-01-24 LEBL 240200Z 27013KT 240V300 9999 FEW025 09/M00 Q1005 NOSIG
13-01-24 LEBL 240230Z 30013KT 9999 FEW025 09/00 Q1005 NOSIG
13-01-24 LEBL 240300Z 30008KT 9999 FEW025 SCT050 09/01 Q1005 NOSIG
13-01-24 LEBL 240330Z 32010KT 9999 FEW025 SCT045 09/01 Q1004 NOSIG
13-01-24 LEBL 240400Z NIL
13-01-24 LEBL 240430Z NIL
13-01-24 LEBL 240500Z 33006KT 9999 FEW020 SCT045 08/02 Q1003 NOSIG
13-01-24 LEBL 240530Z 35004KT 9999 FEW020 SCT040 08/02 Q1003 NOSIG
13-01-24 LEBL 240600Z 01006KT 9999 FEW020 SCT040 08/02 Q1002 NOSIG
13-01-24 LEBL 240630Z 35006KT 9999 FEW020 SCT038 08/03 Q1002 NOSIG
13-01-24 LEBL 240700Z 34007KT 9999 FEW020 SCT035 08/03 Q1003 NOSIG
13-01-24 LEBL 240730Z 32004KT 9999 SCT030 08/03 Q1003 NOSIG
13-01-24 LEBL 240800Z 31007KT 9999 SCT030 08/03 Q1003 NOSIG
13-01-24 LEBL 240830Z 33004KT 290V060 9999 FEW020 08/03 Q1002 NOSIG
13-01-24 LEBL 240900Z 29009KT 9999 FEW020 SCT030 08/03 Q1004 NOSIG
13-01-24 LEBL 240930Z 34008KT 310V020 9999 FEW020 SCT030 08/03 Q1003 NOSIG
13-01-24 LEBL 241000Z 35008KT 290V060 9999 FEW020 SCT030 08/03 Q1004 NOSIG
13-01-24 LEBL 241030Z NIL
13-01-24 LEBL 241030Z 33014KT 300V360 9999 FEW020 SCT030 09/03 Q1004 NOSIG
13-01-24 LEBL 241100Z 32013G24KT 290V350 9999 FEW020 09/03 Q1004 NOSIG
13-01-24 LEBL 241130Z 32013KT 290V020 9999 FEW020 10/03 Q1004 NOSIG
13-01-24 LEBL 241200Z 31012KT 9999 FEW020 10/03 Q1004 NOSIG
13-01-24 LEBL 241230Z 31013KT 9999 FEW020 11/03 Q1004 NOSIG
13-01-24 LEBL 241300Z 33011KT 280V360 9999 FEW020 11/03 Q1003 NOSIG
13-01-24 LEBL 241330Z 32007KT 290V010 9999 FEW020 11/03 Q1003 NOSIG
13-01-24 LEBL 241400Z 35006KT 280V020 9999 FEW020 12/03 Q1003 NOSIG
13-01-24 LEBL 241430Z 34007KT 310V010 9999 FEW020 12/03 Q1003 NOSIG
13-01-24 LEBL 241500Z 28006KT 220V350 9999 FEW025 12/04 Q1004 NOSIG
13-01-24 LEBL 241530Z 18007KT 9999 FEW025 12/03 Q1004 NOSIG
13-01-24 LEBL 241600Z 17007KT 150V210 9999 FEW025 12/04 Q1004 NOSIG
13-01-24 LEBL 241630Z 16005KT 130V190 9999 FEW025 12/04 Q1004 NOSIG
13-01-24 LEBL 241700Z 15005KT 9999 FEW025 11/04 Q1005 NOSIG
13-01-24 LEBL 241730Z 15004KT 120V190 9999 FEW025 11/05 Q1005 NOSIG
13-01-24 LEBL 241800Z 14003KT 110V170 9999 FEW025 11/05 Q1005 NOSIG
13-01-24 LEBL 241830Z 13004KT 9999 FEW025 11/05 Q1006 NOSIG
13-01-24 LEBL 241900Z 10003KT 060V160 9999 FEW025 11/05 Q1006 NOSIG
13-01-24 LEBL 241930Z VRB02KT 9999 FEW012 09/05 Q1007 NOSIG
13-01-24 LEBL 242000Z 06004KT 9999 FEW014 09/05 Q1007 NOSIG
13-01-24 LEBL 242030Z 35004KT 9999 FEW018 09/05 Q1007 NOSIG
13-01-24 LEBL 242100Z 31008KT 280V340 9999 FEW020 09/05 Q1007 NOSIG
13-01-24 LEBL 242130Z 33006KT 260V010 9999 FEW020 08/05 Q1008 NOSIG
13-01-24 LEBL 242200Z 29006KT 250V330 9999 FEW020 07/05 Q1008 NOSIG
13-01-24 LEBL 242230Z 30006KT 9999 FEW020 07/04 Q1008 NOSIG
13-01-24 LEBL 242300Z 33005KT 9999 FEW020 07/04 Q1008 NOSIG
13-01-24 LEBL 242330Z 30005KT 9999 FEW020 07/04 Q1008 NOSIG
13-01-25 LEBL 250000Z 32007KT 9999 FEW020 07/02 Q1008 NOSIG
13-01-25 LEBL 250030Z 33008KT 9999 FEW020 08/M03 Q1008 NOSIG
13-01-25 LEBL 250100Z 32012KT 9999 FEW020 09/M06 Q1008 NOSIG
13-01-25 LEBL 250130Z 32014KT 9999 FEW020 08/M06 Q1008 NOSIG
13-01-25 LEBL 250200Z 32014KT 9999 FEW020 09/M07 Q1008 NOSIG
13-01-25 LEBL 250230Z 33015KT 9999 FEW020 08/M05 Q1008 NOSIG
13-01-25 LEBL 250300Z 32015KT CAVOK 07/M05 Q1009 NOSIG
13-01-25 LEBL 250330Z 33015KT CAVOK 07/M04 Q1009 NOSIG
13-01-25 LEBL 250400Z 33017KT CAVOK 07/M04 Q1009 NOSIG
13-01-25 LEBL 250430Z 33015KT CAVOK 07/M05 Q1009 NOSIG
13-01-25 LEBL 250500Z 33017KT CAVOK 07/M04 Q1009 NOSIG
13-01-25 LEBL 250530Z 33017KT CAVOK 07/M04 Q1009 NOSIG
13-01-25 LEBL 250600Z 32016KT CAVOK 07/M04 Q1010 NOSIG
13-01-25 LEBL 250630Z 33016KT CAVOK 07/M04 Q1010 NOSIG
13-01-25 LEBL 250700Z 32017KT CAVOK 07/M04 Q1010 NOSIG
13-01-25 LEBL 250730Z 33018KT 280V350 CAVOK 06/M04 Q1011 NOSIG
13-01-25 LEBL 250800Z 33019KT CAVOK 06/M04 Q1011 NOSIG
13-01-25 LEBL 250830Z 33018G28KT CAVOK 07/M04 Q1011 NOSIG
13-01-25 LEBL 250900Z 33016KT CAVOK 07/M04 Q1011 NOSIG
13-01-25 LEBL 250930Z 33017G27KT CAVOK 08/M04 Q1011 NOSIG
13-01-25 LEBL 251000Z 31013KT CAVOK 09/M03 Q1012 NOSIG
13-01-25 LEBL 251030Z 31013KT 250V360 CAVOK 10/M04 Q1012 NOSIG
13-01-25 LEBL 251100Z 32015KT CAVOK 11/M03 Q1012 NOSIG
13-01-25 LEBL 251130Z 31013KT CAVOK 12/M04 Q1012 NOSIG
13-01-25 LEBL 251200Z 32013KT CAVOK 13/M04 Q1012 NOSIG
13-01-25 LEBL 251230Z 32013KT 280V350 CAVOK 14/M02 Q1012 NOSIG
13-01-25 LEBL 251300Z 31011KT 220V340 CAVOK 13/00 Q1011 NOSIG
13-01-25 LEBL 251330Z 28006KT CAVOK 14/M04 Q1011 NOSIG
13-01-25 LEBL 251400Z 32009KT 300V360 CAVOK 15/M01 Q1011 NOSIG
13-01-25 LEBL 251430Z 32012KT CAVOK 15/M06 Q1011 NOSIG
13-01-25 LEBL 251500Z 31010KT 290V350 CAVOK 15/M07 Q1011 NOSIG
13-01-25 LEBL 251530Z 30010KT CAVOK 15/M07 Q1011 NOSIG
13-01-25 LEBL 251600Z 31012KT CAVOK 15/M05 Q1011 NOSIG
13-01-25 LEBL 251630Z 31013KT 280V350 CAVOK 14/M05 Q1011 NOSIG
13-01-25 LEBL 251700Z 30010KT CAVOK 13/M04 Q1011 NOSIG
13-01-25 LEBL 251730Z 30006KT 260V340 CAVOK 12/M04 Q1012 NOSIG
13-01-25 LEBL 251800Z 28006KT CAVOK 12/M04 Q1012 NOSIG
13-01-25 LEBL 251830Z 30009KT 270V340 CAVOK 12/M05 Q1012 NOSIG
13-01-25 LEBL 251900Z 29013KT 260V340 CAVOK 11/M04 Q1012 NOSIG
13-01-25 LEBL 251930Z 28009KT CAVOK 11/M03 Q1012 NOSIG
13-01-25 LEBL 252000Z 30006KT 240V350 9999 FEW030 11/M01 Q1012 NOSIG
13-01-25 LEBL 252030Z 31005KT 240V360 9999 FEW030 10/M01 Q1012 NOSIG
13-01-25 LEBL 252100Z 29004KT 190V330 9999 FEW030 09/M01 Q1012 NOSIG
13-01-25 LEBL 252130Z 30009KT 250V340 CAVOK 09/M01 Q1012 NOSIG
13-01-25 LEBL 252200Z 31010KT CAVOK 08/M00 Q1011 NOSIG
13-01-25 LEBL 252230Z 33013KT 9999 FEW030 08/M00 Q1011 NOSIG
13-01-25 LEBL 252300Z 32008KT 9999 FEW030 08/M01 Q1011 NOSIG
13-01-25 LEBL 252330Z 32008KT 9999 FEW030 07/M00 Q1011 NOSIG
13-01-26 LEBL 260000Z 32007KT 9999 FEW030 07/M00 Q1011 NOSIG
13-01-26 LEBL 260030Z 32007KT 9999 FEW030 07/M01 Q1010 NOSIG
13-01-26 LEBL 260100Z 31006KT 9999 FEW030 07/M00 Q1010 NOSIG
13-01-26 LEBL 260130Z 32007KT 9999 FEW025 07/M00 Q1009 NOSIG
13-01-26 LEBL 260200Z 32008KT 9999 FEW025 07/M00 Q1009 NOSIG
13-01-26 LEBL 260230Z 33008KT 9999 FEW025 07/M00 Q1008 NOSIG
13-01-26 LEBL 260300Z 30011KT 9999 DZ SCT025 07/00 Q1008 NOSIG
13-01-26 LEBL 260330Z 33008KT 9999 SCT025 08/00 Q1008 NOSIG
13-01-26 LEBL 260400Z 34007KT 9999 FEW025 08/M00 Q1007 NOSIG
13-01-26 LEBL 260530Z 31010KT 9999 FEW020 BKN025 07/03 Q1008 NOSIG
13-01-26 LEBL 260730Z 35007KT 250V060 9999 FEW018 BKN045 07/04 Q1008 NOSIG
13-01-26 LEBL NIL
13-01-26 LEBL 260800Z 32007KT 260V350 9999 FEW018 SCT050 07/04 Q1009 NOSIG
13-01-26 LEBL 260830Z 32008KT 240V350 9999 FEW018 SCT050 08/04 Q1009 NOSIG
13-01-26 LEBL 260900Z 32011KT 9999 FEW025 08/04 Q1010 NOSIG
13-01-26 LEBL 260930Z 32010KT 290V350 9999 FEW025 08/04 Q1010 NOSIG
13-01-26 LEBL 261000Z 33007KT 290V010 9999 FEW025 09/04 Q1011 NOSIG
13-01-26 LEBL 261030Z 32006KT 250V360 9999 FEW025 09/04 Q1011 NOSIG
13-01-26 LEBL 261100Z NIL
13-01-26 LEBL 261130Z 01002KT 9999 FEW025 12/04 Q1012 NOSIG
13-01-26 LEBL 261200Z 11006KT CAVOK 13/04 Q1012 NOSIG
13-01-26 LEBL 261230Z 10008KT CAVOK 12/05 Q1012 NOSIG
13-01-26 LEBL 261300Z 11008KT 080V150 CAVOK 12/06 Q1012 NOSIG
13-01-26 LEBL 261330Z 11007KT 080V160 CAVOK 12/06 Q1013 NOSIG
13-01-26 LEBL 261400Z 11007KT 080V150 CAVOK 12/06 Q1013 NOSIG
13-01-26 LEBL 261430Z 11007KT 080V140 CAVOK 12/06 Q1013 NOSIG
13-01-26 LEBL 261500Z 13006KT 9999 FEW030 12/07 Q1013 NOSIG
13-01-26 LEBL 261530Z 14006KT 9999 FEW025 12/06 Q1014 NOSIG
13-01-26 LEBL 261600Z 18004KT 150V210 9999 FEW025 12/07 Q1014 NOSIG
13-01-26 LEBL 261630Z 19004KT 9999 FEW025 12/07 Q1014 NOSIG
13-01-26 LEBL 261700Z 19005KT 9999 SCT022 12/07 Q1015 NOSIG
13-01-26 LEBL 261730Z 18006KT 150V210 9999 FEW020 SCT030 12/07 Q1015 NOSIG
13-01-26 LEBL 261800Z 19007KT 9999 FEW020 SCT030 12/08 Q1015 NOSIG
13-01-26 LEBL 261830Z 19007KT 9999 FEW020 SCT030 12/08 Q1016 NOSIG
13-01-26 LEBL 261900Z 20006KT 9999 FEW020 SCT030 12/08 Q1017 NOSIG
13-01-26 LEBL 261930Z 20005KT 9999 FEW025 12/08 Q1017 NOSIG
13-01-26 LEBL 262000Z 19002KT 9999 FEW025 11/08 Q1017 NOSIG
13-01-26 LEBL 262030Z 00000KT 9999 BKN024 SCT035 09/07 Q1017 NOSIG
13-01-26 LEBL 262100Z 34004KT 300V010 9999 SCT030 09/07 Q1017 NOSIG
13-01-26 LEBL 262130Z 32006KT 9999 SCT022 08/07 Q1018 NOSIG
13-01-26 LEBL 262200Z 32006KT 9999 SCT022 SCT029 08/06 Q1018 NOSIG
13-01-26 LEBL 262230Z 31007KT 9999 SCT022 SCT035 08/06 Q1018 NOSIG
13-01-26 LEBL 262300Z 33008KT 9999 SCT030 09/07 Q1018 NOSIG
13-01-26 LEBL 262330Z 33008KT 9999 SCT030 08/06 Q1018 NOSIG
13-01-27 LEBL 270000Z 31006KT 9999 FEW030 07/06 Q1018 NOSIG
13-01-27 LEBL 270030Z 31007KT 9999 FEW030 07/06 Q1018 NOSIG
13-01-27 LEBL 270100Z 33009KT 9000 FEW030 07/06 Q1018 NOSIG
13-01-27 LEBL 270130Z 32010KT 9000 FEW030 07/05 Q1018 NOSIG
13-01-27 LEBL 270200Z 33008KT 9000 FEW030 08/06 Q1018 NOSIG
13-01-27 LEBL 270230Z 30009KT 8000 FEW030 07/05 Q1017 NOSIG
13-01-27 LEBL NIL
13-01-27 LEBL 270300Z 30008KT 9999 FEW030 08/05 Q1017 NOSIG
13-01-27 LEBL 270330Z 32010KT 9999 FEW030 09/03 Q1017 NOSIG
13-01-27 LEBL 270400Z 32011KT 9999 FEW030 07/04 Q1017 NOSIG
13-01-27 LEBL 270430Z 33011KT 9999 FEW030 06/04 Q1016 NOSIG
13-01-27 LEBL 270500Z 32012KT 9999 FEW030 06/04 Q1016 NOSIG
13-01-27 LEBL 270530Z 32012KT 9999 FEW030 06/03 Q1016 NOSIG
13-01-27 LEBL 270600Z 32011KT 9999 FEW030 07/03 Q1016 NOSIG
13-01-27 LEBL 270630Z 32009KT 9999 FEW030 06/03 Q1016 NOSIG
13-01-27 LEBL 270700Z 32010KT 9999 FEW025 06/03 Q1016 NOSIG
13-01-27 LEBL 270730Z 32010KT 280V360 9999 FEW025 06/03 Q1016 NOSIG
13-01-27 LEBL 270800Z 33008KT 9999 FEW025 06/03 Q1016 NOSIG
13-01-27 LEBL 270830Z 33009KT 9999 FEW025 07/03 Q1016 NOSIG
13-01-27 LEBL 270900Z 32010KT 290V350 9999 FEW025 08/03 Q1016 NOSIG
13-01-27 LEBL 270930Z NIL
13-01-27 LEBL 270930Z 33009KT 9999 FEW025 09/03 Q1016 NOSIG
13-01-27 LEBL 271000Z 34008KT 9999 FEW025 09/03 Q1016 NOSIG
13-01-27 LEBL 271030Z 33009KT 290V350 9999 FEW025 10/03 Q1016 NOSIG
13-01-27 LEBL 271100Z 32007G17KT 9999 FEW025 10/03 Q1015 NOSIG
13-01-27 LEBL 271130Z 32005KT 280V010 9999 FEW025 11/04 Q1015 NOSIG
13-01-27 LEBL 271200Z 29003KT 220V320 9999 FEW025 13/04 Q1015 NOSIG
13-01-27 LEBL 271230Z 30002KT 9999 FEW025 13/04 Q1014 NOSIG
13-01-27 LEBL 271300Z VRB02KT 9999 FEW020 13/06 Q1014 NOSIG
13-01-27 LEBL 271330Z 23007KT 200V260 9999 FEW020 13/07 Q1014 NOSIG
13-01-27 LEBL 271400Z 23007KT 200V260 9999 FEW020 13/07 Q1013 NOSIG
13-01-27 LEBL 271430Z 23009KT 9999 FEW020 13/07 Q1013 NOSIG
13-01-27 LEBL 271500Z 23009KT 9999 FEW020 13/08 Q1013 NOSIG
13-01-27 LEBL 271530Z 23011KT 9999 FEW020 13/08 Q1012 NOSIG
13-01-27 LEBL 271600Z 23010KT 9999 FEW020 13/09 Q1013 NOSIG
13-01-27 LEBL 271630Z 24009KT 9999 FEW020 13/10 Q1012 NOSIG
13-01-27 LEBL 271700Z 25008KT 9999 FEW020 13/09 Q1012 NOSIG
13-01-27 LEBL 271730Z 25006KT 220V290 9999 FEW020 13/09 Q1012 NOSIG
13-01-27 LEBL 271800Z 23009KT 9999 FEW020 13/09 Q1012 NOSIG
13-01-27 LEBL 271830Z 23007KT 9999 FEW020 13/07 Q1011 NOSIG
13-01-27 LEBL 271900Z 34005KT 300V010 9999 FEW020 12/07 Q1011 NOSIG
13-01-27 LEBL 271930Z VRB01KT 9999 FEW020 13/07 Q1011 NOSIG
13-01-27 LEBL 272000Z 32002KT 9999 FEW020 13/06 Q1011 NOSIG
13-01-27 LEBL 272030Z 35006KT 9999 FEW020 13/04 Q1010 NOSIG
13-01-27 LEBL 272100Z 35005KT 270V080 9999 FEW020 12/04 Q1010 NOSIG
13-01-27 LEBL 272130Z 34008KT 300V010 9999 FEW020 12/04 Q1009 NOSIG
13-01-27 LEBL 272200Z 33004KT 290V350 9999 RA SCT020 12/04 Q1009 NOSIG
13-01-27 LEBL 272230Z 26004KT 220V300 9999 RA FEW020 BKN055 11/06 Q1010 NOSIG
13-01-27 LEBL 272300Z 36003KT 9999 RA FEW020 BKN048 11/08 Q1010 NOSIG
13-01-27 LEBL 272330Z NIL
13-01-28 LEBL 280000Z 33004KT 290V020 9999 RA FEW020 BKN048 12/08 Q1010 NOSIG
13-01-28 LEBL 280030Z 30007KT 9999 RA FEW020 BKN048 12/09 Q1009 NOSIG
13-01-28 LEBL 280100Z 33004KT 250V040 9999 FEW020 SCT050 12/09 Q1009 RERA NOSIG
13-01-28 LEBL 280130Z 04005KT 9999 FEW020 SCT050 11/09 Q1010 NOSIG
13-01-28 LEBL 280200Z 05012KT 9999 RA FEW020 BKN043 12/09 Q1011 NOSIG
13-01-28 LEBL 280230Z 03008KT 9999 RA FEW020 BKN031 11/09 Q1012 NOSIG
13-01-28 LEBL 280300Z 05005KT 360V080 9999 DZ SCT009 BKN028 10/09 Q1012 NOSIG
13-01-28 LEBL 280330Z 12006KT 9999 FEW010 SCT016 11/09 Q1012 REDZ NOSIG
13-01-28 LEBL 280400Z 28007KT 9999 FEW013 BKN018 10/09 Q1013 NOSIG
13-01-28 LEBL 280430Z 26007KT 220V280 9999 FEW020 SCT042 10/09 Q1014 NOSIG
13-01-28 LEBL 280500Z 25007KT 9999 FEW014 SCT055 10/09 Q1015 NOSIG
13-01-28 LEBL 280530Z 25006KT 9999 SCT014 10/09 Q1015 NOSIG
13-01-28 LEBL 280600Z 28005KT 9999 FEW014 SCT018 09/09 Q1016 NOSIG
13-01-28 LEBL 280630Z 30005KT 9999 FEW015 09/08 Q1016 NOSIG
13-01-28 LEBL 280700Z 30007KT 250V350 9999 FEW025 09/08 Q1017 NOSIG
13-01-28 LEBL 280730Z 29006KT 250V320 9999 FEW025 08/07 Q1017 NOSIG
13-01-28 LEBL 280800Z 33005KT 280V020 CAVOK 08/07 Q1018 NOSIG
13-01-28 LEBL 280830Z 33005KT 280V010 CAVOK 10/04 Q1018 NOSIG
13-01-28 LEBL 280900Z 30007KT 270V010 CAVOK 10/04 Q1018 NOSIG
13-01-28 LEBL 280930Z 31012KT 280V010 CAVOK 12/04 Q1019 NOSIG
13-01-28 LEBL 281000Z 32011KT 250V350 CAVOK 13/02 Q1020 NOSIG
13-01-28 LEBL 281030Z 33007KT 280V070 CAVOK 14/02 Q1020 NOSIG
13-01-28 LEBL 281100Z 29010KT 260V320 CAVOK 15/02 Q1020 NOSIG
13-01-28 LEBL 281130Z 29013KT CAVOK 15/02 Q1020 NOSIG
13-01-28 LEBL 281200Z 29014KT CAVOK 15/03 Q1020 NOSIG
13-01-28 LEBL 281230Z 29014KT 250V330 9999 FEW025 16/03 Q1020 NOSIG
13-01-28 LEBL NIL
13-01-28 LEBL 281300Z 28014KT 230V310 9999 FEW030 16/04 Q1020 NOSIG
13-01-28 LEBL 281330Z 27014KT 9999 FEW030 16/03 Q1020 NOSIG
13-01-28 LEBL 281400Z 28012KT 240V310 9999 FEW030 17/03 Q1020 NOSIG
13-01-28 LEBL 281430Z 27010KT 9999 FEW030 17/04 Q1020 NOSIG
13-01-28 LEBL 281500Z 28010KT 250V310 CAVOK 17/04 Q1020 NOSIG
13-01-28 LEBL 281530Z 28012KT CAVOK 17/04 Q1020 NOSIG
13-01-28 LEBL 281600Z 29011KT CAVOK 17/04 Q1020 NOSIG
13-01-28 LEBL 281630Z 29004KT 240V350 CAVOK 16/04 Q1021 NOSIG
13-01-28 LEBL 281700Z 30004KT 240V330 CAVOK 15/05 Q1021 NOSIG
13-01-28 LEBL 281730Z VRB01KT CAVOK 15/04 Q1022 NOSIG
13-01-28 LEBL 281800Z 36003G14KT CAVOK 14/04 Q1022 NOSIG
13-01-28 LEBL 281830Z 02004KT 320V060 CAVOK 14/04 Q1023 NOSIG
13-01-28 LEBL 281900Z 01004KT 320V080 CAVOK 13/05 Q1023 NOSIG
13-01-28 LEBL 281930Z 01004KT 330V050 CAVOK 13/04 Q1024 NOSIG
13-01-28 LEBL 282000Z 35005KT CAVOK 11/05 Q1025 NOSIG
13-01-28 LEBL 282030Z 32007KT CAVOK 11/05 Q1025 NOSIG
13-01-28 LEBL 282100Z 33008KT 290V030 9999 FEW030 11/06 Q1025 NOSIG
13-01-28 LEBL 282130Z 31009KT 9999 FEW030 11/06 Q1025 NOSIG
13-01-28 LEBL 282200Z 32009KT 9999 FEW030 11/06 Q1025 NOSIG
13-01-28 LEBL 282230Z 31010KT 9999 FEW030 11/07 Q1026 NOSIG
13-01-28 LEBL 282300Z 32010KT 9999 FEW030 11/07 Q1026 NOSIG
13-01-28 LEBL 282330Z 33008KT 9999 FEW030 11/07 Q1026 NOSIG
13-01-29 LEBL 290000Z 33009KT 9999 FEW030 10/06 Q1026 NOSIG
13-01-29 LEBL 290030Z 34009KT 9999 FEW030 10/06 Q1026 NOSIG
13-01-29 LEBL 290100Z 01004KT 340V050 9999 FEW030 09/06 Q1026 NOSIG
13-01-29 LEBL 290130Z 33008KT 9999 FEW030 10/05 Q1026 NOSIG
13-01-29 LEBL 290200Z NIL
13-01-29 LEBL 290230Z 30004KT 9999 FEW030 09/05 Q1026 NOSIG
13-01-29 LEBL 290300Z 31010KT 9999 FEW030 08/05 Q1026 NOSIG
13-01-29 LEBL 290330Z 32006KT 9999 FEW030 08/04 Q1026 NOSIG
13-01-29 LEBL 290400Z NIL
13-01-29 LEBL 290430Z NIL
13-01-29 LEBL 290430Z 34010KT 9999 FEW030 08/04 Q1027 NOSIG
13-01-29 LEBL 290500Z 34007KT 9999 FEW030 08/04 Q1026 NOSIG
13-01-29 LEBL 290530Z 33007KT 9999 FEW030 08/04 Q1026 NOSIG
13-01-29 LEBL 290600Z 33008KT 9999 FEW030 08/04 Q1026 NOSIG
13-01-29 LEBL 290630Z 32008KT 9999 FEW030 08/04 Q1026 NOSIG
13-01-29 LEBL 290700Z 31008KT 9999 FEW030 08/04 Q1027 NOSIG
13-01-29 LEBL 290730Z 32008KT 9999 FEW030 08/04 Q1027 NOSIG
13-01-29 LEBL 290800Z 32007KT 240V350 9999 FEW030 08/04 Q1027 NOSIG
13-01-29 LEBL 290830Z 32007KT 290V360 9999 FEW030 09/04 Q1027 NOSIG
13-01-29 LEBL 290900Z 32005KT 270V360 9999 FEW030 09/05 Q1028 NOSIG
13-01-29 LEBL 290930Z 32008KT 9999 FEW030 11/05 Q1028 NOSIG
13-01-29 LEBL 291000Z 32004KT 250V020 9999 FEW030 12/05 Q1028 NOSIG
13-01-29 LEBL 291030Z 29004KT 250V340 CAVOK 13/06 Q1027 NOSIG
13-01-29 LEBL 291100Z 24003KT 190V300 CAVOK 14/07 Q1027 NOSIG
13-01-29 LEBL 291130Z 22006KT 190V260 CAVOK 14/07 Q1027 NOSIG
13-01-29 LEBL 291200Z 22006KT 170V260 CAVOK 14/07 Q1027 NOSIG
13-01-29 LEBL 291230Z 22006KT 190V250 CAVOK 14/08 Q1026 NOSIG
13-01-29 LEBL 291300Z 20006KT 170V250 CAVOK 15/08 Q1026 NOSIG
13-01-29 LEBL 291330Z 25004KT 190V290 CAVOK 15/07 Q1026 NOSIG
13-01-29 LEBL 291400Z 23011KT CAVOK 15/06 Q1026 NOSIG
13-01-29 LEBL 291430Z 23012KT CAVOK 15/06 Q1025 NOSIG
13-01-29 LEBL 291500Z 24012KT CAVOK 15/07 Q1026 NOSIG
13-01-29 LEBL 291530Z 24011KT CAVOK 15/07 Q1026 NOSIG
13-01-29 LEBL 291600Z 23010KT CAVOK 15/08 Q1026 NOSIG
13-01-29 LEBL 291630Z 23008KT CAVOK 14/09 Q1026 NOSIG
13-01-29 LEBL 291700Z 26007KT 240V300 CAVOK 13/09 Q1026 NOSIG
13-01-29 LEBL 291730Z 21004KT 190V250 CAVOK 13/09 Q1026 NOSIG
13-01-29 LEBL 291800Z 23005KT CAVOK 13/09 Q1026 NOSIG
13-01-29 LEBL 291830Z 29003KT 250V350 CAVOK 12/09 Q1027 NOSIG
13-01-29 LEBL 291900Z 31003KT 260V020 CAVOK 12/09 Q1027 NOSIG
13-01-29 LEBL 291930Z 32002KT CAVOK 12/09 Q1027 NOSIG
13-01-29 LEBL 292000Z 33004KT 260V020 CAVOK 11/07 Q1027 NOSIG
13-01-29 LEBL 292030Z 31006KT 260V330 CAVOK 10/05 Q1027 NOSIG
13-01-29 LEBL 292100Z 32006KT CAVOK 10/04 Q1027 NOSIG
13-01-29 LEBL 292130Z 32008KT 280V360 CAVOK 10/04 Q1027 NOSIG
13-01-29 LEBL 292200Z 31005KT 230V350 CAVOK 10/04 Q1027 NOSIG
13-01-29 LEBL 292230Z 31007KT CAVOK 10/04 Q1027 NOSIG
13-01-29 LEBL 292300Z 32008KT 9999 FEW030 10/04 Q1027 NOSIG
13-01-29 LEBL 292330Z 30006KT 9999 FEW030 09/04 Q1027 NOSIG
13-01-30 LEBL 300000Z 33005KT 300V010 9999 FEW030 09/04 Q1027 NOSIG
13-01-30 LEBL 300030Z 31007KT 9999 FEW030 09/04 Q1027 NOSIG
13-01-30 LEBL 300100Z 31010KT 9999 FEW030 09/04 Q1026 NOSIG
13-01-30 LEBL 300130Z 31007KT 9999 FEW030 09/04 Q1026 NOSIG
13-01-30 LEBL 300200Z 32008KT 9999 FEW030 09/04 Q1026 NOSIG
13-01-30 LEBL 300230Z 32009KT 9999 FEW030 09/04 Q1026 NOSIG
13-01-30 LEBL 300300Z 33011KT 9999 FEW030 09/04 Q1026 NOSIG
13-01-30 LEBL 300330Z 33004KT 9999 FEW030 09/04 Q1025 NOSIG
13-01-30 LEBL 300400Z 31011KT 9999 FEW030 08/04 Q1025 NOSIG
13-01-30 LEBL 300430Z 33009KT 9999 FEW030 08/04 Q1025 NOSIG
13-01-30 LEBL 300500Z 33004KT 260V060 9999 FEW030 08/04 Q1025 NOSIG
13-01-30 LEBL 300530Z 30012KT 9999 FEW030 09/04 Q1025 NOSIG
13-01-30 LEBL 300600Z 32012KT 9999 FEW030 09/03 Q1025 NOSIG
13-01-30 LEBL 300630Z 32010KT 290V350 9999 FEW030 08/03 Q1025 NOSIG
13-01-30 LEBL 300700Z 32011KT 9999 FEW030 08/03 Q1025 NOSIG
13-01-30 LEBL 300730Z 31010G20KT 270V330 CAVOK 08/04 Q1025 NOSIG
13-01-30 LEBL 300800Z 29008KT CAVOK 08/04 Q1025 NOSIG
13-01-30 LEBL 300830Z 30010KT 260V330 CAVOK 09/04 Q1025 NOSIG
13-01-30 LEBL 300900Z 31009KT 270V330 9999 FEW025 10/04 Q1025 NOSIG
13-01-30 LEBL 300930Z 31009KT 9999 FEW025 11/05 Q1025 NOSIG
13-01-30 LEBL 301000Z 31009KT 280V340 9999 FEW025 12/05 Q1026 NOSIG
13-01-30 LEBL 301030Z 31007KT 280V340 9999 FEW025 14/06 Q1026 NOSIG
13-01-30 LEBL NIL
13-01-30 LEBL 301100Z 27003KT 240V310 9999 FEW025 15/06 Q1026 NOSIG
13-01-30 LEBL 301130Z 32003KT 280V010 9999 FEW025 15/07 Q1025 NOSIG
13-01-30 LEBL 301200Z 32004KT 290V350 9999 FEW030 15/07 Q1025 NOSIG
13-01-30 LEBL 301230Z 27003KT 210V330 9999 FEW030 16/09 Q1025 NOSIG
13-01-30 LEBL 301300Z 26004KT 220V290 9999 FEW030 17/09 Q1024 NOSIG
13-01-30 LEBL 301330Z 24009KT 9999 FEW030 16/10 Q1024 NOSIG
13-01-30 LEBL 301400Z 23007KT 9999 FEW030 17/10 Q1023 NOSIG
13-01-30 LEBL 301430Z 24009KT 9999 FEW030 16/10 Q1023 NOSIG
13-01-30 LEBL 301500Z 22009KT 9999 FEW030 16/10 Q1023 NOSIG
13-01-30 LEBL 301530Z 22008KT 9999 FEW030 16/10 Q1023 NOSIG
13-01-30 LEBL 301600Z 22006KT 9999 FEW030 16/10 Q1023 NOSIG
13-01-30 LEBL 301630Z 21007KT 9999 FEW030 15/10 Q1023 NOSIG
13-01-30 LEBL 301700Z 22005KT 9999 FEW030 14/11 Q1024 NOSIG
13-01-30 LEBL 301730Z 22007KT 9999 FEW030 14/11 Q1024 NOSIG
13-01-30 LEBL 301800Z 22004KT 9999 FEW030 14/11 Q1025 NOSIG
13-01-30 LEBL 301830Z 22003KT 9999 FEW030 14/11 Q1025 NOSIG
13-01-30 LEBL 301900Z VRB02KT CAVOK 13/11 Q1025 NOSIG
13-01-30 LEBL 301930Z 24003KT CAVOK 13/11 Q1026 NOSIG
13-01-30 LEBL 302000Z VRB01KT 9000 FEW030 13/11 Q1026 NOSIG
13-01-30 LEBL 302030Z 00000KT 9000 FEW030 12/11 Q1026 NOSIG
13-01-30 LEBL 302100Z VRB01KT 9000 FEW030 12/11 Q1026 NOSIG
13-01-30 LEBL 302130Z 28004KT 230V300 9000 FEW030 12/10 Q1026 NOSIG
13-01-30 LEBL 302200Z 30005KT 270V330 9999 FEW030 11/09 Q1026 NOSIG
13-01-30 LEBL 302230Z 30005KT 9999 FEW030 11/09 Q1026 NOSIG
13-01-30 LEBL 302300Z 31009KT 9999 FEW030 11/09 Q1027 NOSIG
13-01-30 LEBL 302330Z 32011KT 9999 FEW030 12/09 Q1027 NOSIG
13-01-31 LEBL 310000Z 31011KT 9999 FEW030 12/09 Q1027 NOSIG
13-01-31 LEBL 310030Z 32009KT 9999 FEW030 13/09 Q1027 NOSIG
13-01-31 LEBL 310100Z 32007KT 290V350 9999 FEW030 13/08 Q1027 NOSIG
13-01-31 LEBL 310130Z 29010KT 9999 FEW030 11/08 Q1027 NOSIG
13-01-31 LEBL 310200Z 31007KT 9999 FEW030 12/09 Q1027 NOSIG
13-01-31 LEBL 310230Z 33005KT 300V010 9999 FEW030 11/08 Q1027 NOSIG
13-01-31 LEBL 310300Z 33013KT 9999 FEW030 12/08 Q1027 NOSIG
13-01-31 LEBL 310330Z 32013KT 9999 FEW030 12/08 Q1027 NOSIG
13-01-31 LEBL 310400Z 33010KT 9999 FEW030 11/07 Q1027 NOSIG
13-01-31 LEBL 310430Z 32008KT 9999 FEW030 11/07 Q1027 NOSIG
13-01-31 LEBL 310500Z 31008KT 9999 FEW030 12/08 Q1028 NOSIG
13-01-31 LEBL 310530Z 31014KT 9999 FEW030 12/07 Q1027 NOSIG
13-01-31 LEBL 310600Z 31009KT 9999 FEW030 11/07 Q1028 NOSIG
13-01-31 LEBL 310630Z 32012KT 9999 FEW030 11/07 Q1028 NOSIG
13-01-31 LEBL 310700Z 31012KT CAVOK 11/07 Q1029 NOSIG
13-01-31 LEBL 310730Z 32012KT CAVOK 11/07 Q1029 NOSIG
13-01-31 LEBL 310800Z 29011KT 250V310 CAVOK 12/07 Q1029 NOSIG
13-01-31 LEBL 310830Z 30011KT 250V340 CAVOK 12/07 Q1029 NOSIG
13-01-31 LEBL 310900Z 32013KT CAVOK 13/08 Q1030 NOSIG
13-01-31 LEBL 310930Z 31009KT CAVOK 14/08 Q1030 NOSIG
13-01-31 LEBL 311000Z 32009KT 280V350 CAVOK 15/08 Q1030 NOSIG
13-01-31 LEBL 311030Z 31008KT 270V340 CAVOK 15/08 Q1030 NOSIG
13-01-31 LEBL 311100Z 33005KT 280V010 CAVOK 16/09 Q1030 NOSIG
13-01-31 LEBL 311130Z VRB02KT CAVOK 17/09 Q1029 NOSIG
13-01-31 LEBL 311200Z VRB02KT CAVOK 17/09 Q1029 NOSIG
13-01-31 LEBL 311230Z 19007KT CAVOK 17/09 Q1029 NOSIG
13-01-31 LEBL 311300Z 17007KT 130V200 CAVOK 17/10 Q1028 NOSIG
13-01-31 LEBL 311330Z 18008KT CAVOK 16/11 Q1028 NOSIG
13-01-31 LEBL 311400Z 19006KT CAVOK 16/10 Q1027 NOSIG
13-01-31 LEBL 311430Z 20005KT 160V230 CAVOK 16/10 Q1027 NOSIG
13-01-31 LEBL 311500Z 20006KT CAVOK 17/11 Q1027 NOSIG
13-01-31 LEBL 311530Z 17006KT 130V210 CAVOK 16/11 Q1026 NOSIG
13-01-31 LEBL 311600Z 17007KT CAVOK 17/11 Q1026 NOSIG
13-01-31 LEBL 311630Z 21010KT CAVOK 17/10 Q1026 NOSIG
13-01-31 LEBL 311700Z 19007KT CAVOK 17/10 Q1026 NOSIG
13-01-31 LEBL 311730Z 19008KT CAVOK 16/10 Q1027 NOSIG
13-01-31 LEBL 311800Z 19007KT CAVOK 16/10 Q1027 NOSIG
13-01-31 LEBL 311830Z 19006KT CAVOK 15/10 Q1027 NOSIG
13-01-31 LEBL 311900Z 22006KT CAVOK 15/11 Q1027 NOSIG
13-01-31 LEBL 311930Z 24006KT 220V280 CAVOK 14/11 Q1027 NOSIG
13-01-31 LEBL 312000Z 25006KT CAVOK 13/11 Q1027 NOSIG
13-01-31 LEBL 312030Z 26006KT CAVOK 13/11 Q1027 NOSIG
13-01-31 LEBL 312100Z 25005KT CAVOK 13/11 Q1027 NOSIG
13-01-31 LEBL 312130Z 29004KT 260V330 CAVOK 13/11 Q1027 NOSIG
13-01-31 LEBL 312200Z 27003KT 240V330 CAVOK 13/11 Q1027 NOSIG
13-01-31 LEBL 312230Z 30003KT CAVOK 12/10 Q1026 NOSIG
13-01-31 LEBL 312300Z 28005KT 250V340 CAVOK 13/11 Q1026 NOSIG
13-01-31 LEBL 312330Z 31006KT 280V340 CAVOK 13/10 Q1026 NOSIG
13-02-01 LEBL 010000Z 32008KT CAVOK 12/09 Q1026 NOSIG
13-02-01 LEBL 010030Z 31008KT CAVOK 12/09 Q1025 NOSIG
13-02-01 LEBL 010100Z 32009KT CAVOK 12/09 Q1025 NOSIG
13-02-01 LEBL 010130Z 31008KT CAVOK 12/09 Q1025 NOSIG
13-02-01 LEBL 010200Z 31008KT CAVOK 12/09 Q1024 NOSIG
13-02-01 LEBL 010230Z 31007KT CAVOK 11/09 Q1024 NOSIG
13-02-01 LEBL 010300Z 30008KT CAVOK 11/08 Q1023 NOSIG
13-02-01 LEBL 010330Z 31007KT CAVOK 11/08 Q1023 NOSIG
13-02-01 LEBL 010400Z 31005KT CAVOK 11/08 Q1023 NOSIG
13-02-01 LEBL 010430Z 31005KT CAVOK 11/08 Q1022 NOSIG
13-02-01 LEBL 010500Z 31007KT CAVOK 10/08 Q1022 NOSIG
13-02-01 LEBL 010530Z 30008KT CAVOK 10/08 Q1022 NOSIG
13-02-01 LEBL 010600Z 32009KT CAVOK 10/08 Q1021 NOSIG
13-02-01 LEBL 010630Z 32009KT 9999 FEW030 10/08 Q1021 NOSIG
13-02-01 LEBL 010700Z 32009KT 9999 FEW030 10/08 Q1021 NOSIG
13-02-01 LEBL 010730Z 32009KT 9999 FEW035 10/08 Q1021 NOSIG
13-02-01 LEBL 010800Z 32007KT 230V010 9999 FEW035 11/08 Q1020 NOSIG
13-02-01 LEBL 010830Z 31004KT 280V350 9999 FEW035 11/08 Q1020 NOSIG
13-02-01 LEBL 010900Z 28001KT CAVOK 13/10 Q1020 NOSIG
13-02-01 LEBL 010930Z 20003KT 150V250 CAVOK 14/10 Q1019 NOSIG
13-02-01 LEBL 011000Z 23004KT CAVOK 16/11 Q1019 NOSIG
13-02-01 LEBL 011030Z 20004KT CAVOK 17/12 Q1019 NOSIG
13-02-01 LEBL 011100Z NIL
13-02-01 LEBL 011100Z 22004KT CAVOK 17/12 Q1018 NOSIG
13-02-01 LEBL 011130Z 20009KT CAVOK 17/11 Q1017 NOSIG
13-02-01 LEBL 011200Z 21007KT CAVOK 18/11 Q1017 NOSIG
13-02-01 LEBL 011230Z 22008KT CAVOK 18/10 Q1016 NOSIG
13-02-01 LEBL 011300Z 24005KT 180V290 CAVOK 19/08 Q1015 NOSIG
13-02-01 LEBL 011330Z 32008KT 280V350 CAVOK 21/05 Q1014 NOSIG
13-02-01 LEBL 011400Z 33013G26KT 290V020 9999 FEW030 21/05 Q1013 NOSIG
13-02-01 LEBL 011430Z 33013KT 9999 FEW030 21/04 Q1013 NOSIG
13-02-01 LEBL 011500Z 33011KT 9999 FEW025 21/05 Q1012 NOSIG
13-02-01 LEBL 011530Z 33009KT 300V010 9999 FEW025 20/05 Q1012 NOSIG
13-02-01 LEBL 011600Z 32009KT 9999 FEW025 20/06 Q1011 NOSIG
13-02-01 LEBL 011630Z 33006KT 290V360 9999 FEW025 19/06 Q1011 NOSIG
13-02-01 LEBL 011700Z 33004KT 300V010 9999 FEW025 18/05 Q1010 NOSIG
13-02-01 LEBL 011730Z 34005KT 9999 FEW025 18/03 Q1010 NOSIG
13-02-01 LEBL 011800Z VRB05KT 9999 FEW025 16/07 Q1010 NOSIG
13-02-01 LEBL 011830Z 30003KT 260V360 9999 FEW025 15/08 Q1010 NOSIG
13-02-01 LEBL 011900Z 26011KT 230V300 9999 FEW025 15/10 Q1009 NOSIG
13-02-01 LEBL 011930Z 26013KT 9999 FEW025 15/10 Q1009 NOSIG
13-02-01 LEBL 012000Z 24013KT 9999 FEW025 15/09 Q1008 NOSIG
13-02-01 LEBL 012030Z 24014KT 9999 FEW025 15/09 Q1008 NOSIG
13-02-01 LEBL 012100Z 25014KT 9999 FEW025 15/09 Q1007 NOSIG
13-02-01 LEBL 012130Z 23015KT 9999 FEW025 14/10 Q1007 NOSIG
13-02-01 LEBL 012200Z 22013KT 9999 FEW025 14/10 Q1006 NOSIG
13-02-01 LEBL 012230Z 21010KT 9999 FEW025 15/10 Q1005 NOSIG
13-02-01 LEBL 012300Z 21007KT 9999 FEW025 15/09 Q1005 NOSIG
13-02-01 LEBL 012330Z 23006KT 9999 FEW025 15/08 Q1005 NOSIG
13-02-02 LEBL 020000Z 23008KT 9999 FEW025 16/07 Q1005 NOSIG
13-02-02 LEBL 020030Z 28016KT 240V310 9999 FEW025 18/05 Q1004 NOSIG
13-02-02 LEBL 020100Z 27011G21KT 230V300 9999 FEW025 17/05 Q1003 NOSIG
13-02-02 LEBL 020130Z 26010KT 240V300 9999 FEW025 17/06 Q1003 NOSIG
13-02-02 LEBL 020200Z 26013KT 9999 FEW025 SCT050 16/06 Q1002 NOSIG
13-02-02 LEBL 020230Z 26017KT 9999 FEW045 15/07 Q1001 NOSIG
13-02-02 LEBL 020300Z 26014KT 9999 FEW015 SCT045 15/07 Q1000 NOSIG
13-02-02 LEBL 020330Z 28014G24KT 9999 FEW015 SCT045 15/06 Q1000 NOSIG
13-02-02 LEBL 020400Z 28015G27KT 9999 FEW025 15/06 Q1000 NOSIG
13-02-02 LEBL 020430Z 29009KT 250V340 9999 FEW025 14/06 Q1000 NOSIG
13-02-02 LEBL 020500Z 32009KT 9999 FEW025 14/05 Q1000 NOSIG
13-02-02 LEBL 020530Z 30013KT 9999 FEW025 14/05 Q1000 NOSIG
13-02-02 LEBL 020600Z 30013KT 9999 FEW025 13/05 Q1000 NOSIG
13-02-02 LEBL 020630Z 31017KT 9999 FEW025 13/04 Q1000 NOSIG
13-02-02 LEBL 020700Z 31017KT 9999 FEW025 13/03 Q1000 NOSIG
13-02-02 LEBL 020730Z 31019KT 9999 FEW025 13/M01 Q1001 NOSIG
13-02-02 LEBL 020800Z 33016KT 9999 FEW025 13/01 Q1002 NOSIG
13-02-02 LEBL 020830Z 33016KT 9999 FEW025 13/01 Q1002 NOSIG
13-02-02 LEBL 020900Z 35010KT 300V070 9999 FEW025 13/02 Q1003 NOSIG
13-02-02 LEBL 020930Z 32015KT 9999 FEW025 12/01 Q1004 NOSIG
13-02-02 LEBL 021000Z 31014G27KT 280V350 9999 FEW025 12/00 Q1004 NOSIG
13-02-02 LEBL 021030Z 31014KT 9999 FEW025 14/M01 Q1004 NOSIG
13-02-02 LEBL 021100Z 31016KT 9999 FEW025 13/M01 Q1004 NOSIG
13-02-02 LEBL 021130Z 30021KT 9999 FEW025 13/00 Q1004 NOSIG
13-02-02 LEBL 021200Z 29022KT 9999 FEW025 14/M01 Q1004 NOSIG
13-02-02 LEBL 021230Z 29022KT 9999 FEW025 14/00 Q1004 NOSIG
13-02-02 LEBL 021300Z 31022KT 9999 FEW025 15/M00 Q1004 NOSIG
13-02-02 LEBL 021330Z 29020KT 9999 FEW025 15/M00 Q1004 NOSIG
13-02-02 LEBL 021400Z 31021G31KT 270V330 9999 FEW025 15/00 Q1004 NOSIG
13-02-02 LEBL 021430Z 30023G37KT 9999 FEW025 14/M01 Q1004 NOSIG
13-02-02 LEBL 021500Z 29016KT 250V320 9999 FEW025 14/00 Q1005 NOSIG
13-02-02 LEBL 021530Z 30024KT 9999 FEW025 14/M01 Q1005 NOSIG
13-02-02 LEBL 021600Z 30019KT 280V340 9999 FEW025 15/M01 Q1005 NOSIG
13-02-02 LEBL 021630Z 29021KT 9999 FEW025 14/M01 Q1006 NOSIG
13-02-02 LEBL 021700Z 28015KT 9999 FEW025 14/M02 Q1006 NOSIG
13-02-02 LEBL 021730Z 31017G29KT 9999 FEW025 14/M04 Q1007 NOSIG
13-02-02 LEBL 021800Z 30014KT 9999 FEW025 12/M02 Q1008 NOSIG
13-02-02 LEBL 021830Z 31016KT 9999 FEW025 12/M02 Q1008 NOSIG
13-02-02 LEBL 021900Z 31013KT 9999 FEW025 11/M02 Q1009 NOSIG
13-02-02 LEBL 021930Z 31016G27KT 9999 FEW025 11/M02 Q1009 NOSIG
13-02-02 LEBL 022000Z 32015G25KT 290V350 CAVOK 11/M03 Q1009 NOSIG
13-02-02 LEBL 022030Z 32006KT 290V030 CAVOK 11/M04 Q1010 NOSIG
13-02-02 LEBL 022100Z 32008KT 300V010 CAVOK 11/M04 Q1010 NOSIG
13-02-02 LEBL 022130Z 32003KT CAVOK 11/M05 Q1011 NOSIG
13-02-02 LEBL 022200Z 33004KT 280V040 CAVOK 11/M05 Q1011 NOSIG
13-02-02 LEBL 022230Z 30007KT 250V340 CAVOK 10/M05 Q1011 NOSIG
13-02-02 LEBL 022300Z 31011KT 290V350 CAVOK 10/M05 Q1012 NOSIG
13-02-02 LEBL 022330Z 30009KT CAVOK 09/M06 Q1012 NOSIG
13-02-03 LEBL 030000Z 30008KT CAVOK 09/M05 Q1012 NOSIG
13-02-03 LEBL 030030Z 29007KT CAVOK 09/M05 Q1012 NOSIG
13-02-03 LEBL 030100Z 31009KT CAVOK 09/M06 Q1012 NOSIG
13-02-03 LEBL 030130Z 30009KT CAVOK 09/M07 Q1012 NOSIG
13-02-03 LEBL 030200Z 30009KT 230V310 CAVOK 09/M09 Q1012 NOSIG
13-02-03 LEBL 030230Z 28007KT CAVOK 08/M10 Q1013 NOSIG
13-02-03 LEBL 030300Z 29008KT 250V020 CAVOK 08/M11 Q1012 NOSIG
13-02-03 LEBL 030330Z 29006KT 270V330 CAVOK 08/M11 Q1013 NOSIG
13-02-03 LEBL 030400Z 29003KT 240V340 CAVOK 08/M11 Q1013 NOSIG
13-02-03 LEBL 030430Z 28007KT 260V350 CAVOK 07/M11 Q1014 NOSIG
13-02-03 LEBL 030500Z 32008KT CAVOK 07/M11 Q1014 NOSIG
13-02-03 LEBL 030530Z 27004KT 170V330 CAVOK 07/M09 Q1015 NOSIG
13-02-03 LEBL 030600Z 29007KT 270V330 CAVOK 07/M10 Q1015 NOSIG
13-02-03 LEBL 030630Z 33013KT CAVOK 09/M14 Q1015 NOSIG
13-02-03 LEBL 030700Z 33015G26KT 290V360 CAVOK 09/M14 Q1016 NOSIG
13-02-03 LEBL 030730Z 34014KT 300V010 CAVOK 09/M14 Q1016 NOSIG
13-02-03 LEBL 030800Z 34018KT 300V360 CAVOK 09/M15 Q1016 NOSIG
13-02-03 LEBL 030830Z 33021G33KT 310V020 9999 FEW030 10/M15 Q1017 NOSIG
13-02-03 LEBL 030900Z 34023G34KT 310V030 9999 FEW030 11/M16 Q1017 NOSIG
13-02-03 LEBL 030930Z 34019G29KT CAVOK 11/M16 Q1018 NOSIG
13-02-03 LEBL 031000Z 33018KT 280V360 CAVOK 12/M15 Q1018 NOSIG
13-02-03 LEBL 031030Z 31016KT CAVOK 12/M14 Q1018 NOSIG
13-02-03 LEBL 031100Z 29020KT CAVOK 12/M14 Q1018 NOSIG
13-02-03 LEBL 031130Z 31018KT CAVOK 13/M12 Q1018 NOSIG
13-02-03 LEBL 031200Z 31021KT CAVOK 13/M12 Q1018 NOSIG
13-02-03 LEBL 031230Z 29018KT CAVOK 13/M11 Q1018 NOSIG
13-02-03 LEBL 031330Z 31018G28KT CAVOK 14/M12 Q1018 NOSIG
13-02-03 LEBL 031400Z 31018KT 290V350 CAVOK 14/M10 Q1018 NOSIG
13-02-03 LEBL 031430Z 30016KT CAVOK 14/M11 Q1019 NOSIG
13-02-03 LEBL 031500Z 32013G24KT 290V360 CAVOK 14/M11 Q1019 NOSIG
13-02-03 LEBL 031530Z 31015KT CAVOK 14/M10 Q1020 NOSIG
13-02-03 LEBL 031600Z 31011KT 290V360 CAVOK 14/M11 Q1020 NOSIG
13-02-03 LEBL 031630Z 31012KT CAVOK 14/M10 Q1021 NOSIG
13-02-03 LEBL 031700Z 31009KT CAVOK 13/M09 Q1021 NOSIG
13-02-03 LEBL 031730Z 29007KT 250V330 CAVOK 12/M10 Q1022 NOSIG
13-02-03 LEBL 031800Z 29008KT 250V330 CAVOK 12/M10 Q1022 NOSIG
13-02-03 LEBL 031830Z 31009KT 250V330 CAVOK 12/M10 Q1023 NOSIG
13-02-03 LEBL 031900Z 31011KT CAVOK 11/M09 Q1023 NOSIG
13-02-03 LEBL 031930Z 32012KT 300V360 CAVOK 11/M09 Q1023 NOSIG
13-02-03 LEBL 032000Z 32013G23KT 280V340 CAVOK 11/M07 Q1023 NOSIG
13-02-03 LEBL 032030Z 32013KT 290V360 CAVOK 10/M06 Q1024 NOSIG
13-02-03 LEBL 032100Z 34012KT 310V010 CAVOK 10/M06 Q1024 NOSIG
13-02-03 LEBL 032130Z 32012KT CAVOK 10/M06 Q1025 NOSIG
13-02-03 LEBL 032200Z 33012KT CAVOK 09/M05 Q1025 NOSIG
13-02-03 LEBL 032230Z 33012KT CAVOK 09/M05 Q1025 NOSIG
13-02-03 LEBL 032300Z 32012KT CAVOK 08/M05 Q1026 NOSIG
13-02-03 LEBL 032330Z 32009KT CAVOK 09/M05 Q1026 NOSIG
13-02-04 LEBL 040000Z 31010KT CAVOK 08/M04 Q1026 NOSIG
13-02-04 LEBL 040030Z 30009KT CAVOK 09/M06 Q1026 NOSIG
13-02-04 LEBL 040100Z 30006KT CAVOK 09/M06 Q1026 NOSIG
13-02-04 LEBL 040130Z 32012KT CAVOK 08/M05 Q1026 NOSIG
13-02-04 LEBL 040200Z 32014KT 9999 FEW020 08/M05 Q1026 NOSIG
13-02-04 LEBL 040230Z 33012KT 9999 FEW020 08/M04 Q1026 NOSIG
13-02-04 LEBL 040300Z NIL
13-02-04 LEBL 040300Z 33011KT 310V010 9999 FEW020 07/M03 Q1026 NOSIG
13-02-04 LEBL 040330Z 34010KT 9999 FEW020 07/M03 Q1026 NOSIG
13-02-04 LEBL 040400Z NIL
13-02-04 LEBL 040400Z 33009KT 9999 FEW020 06/M03 Q1026 NOSIG
13-02-04 LEBL 040430Z 34011KT 9999 FEW020 06/M02 Q1026 NOSIG
13-02-04 LEBL 040500Z 33014KT 9999 FEW020 06/M02 Q1026 NOSIG
13-02-04 LEBL 040530Z 33009KT 9999 FEW020 06/M02 Q1026 NOSIG
13-02-04 LEBL 040600Z 33009KT 9999 FEW020 06/M02 Q1026 NOSIG
13-02-04 LEBL 040630Z 33013KT 9999 FEW020 06/M02 Q1026 NOSIG
13-02-04 LEBL 040700Z 31008KT 280V340 9999 FEW020 06/M02 Q1026 NOSIG
13-02-04 LEBL 040730Z 31012KT 9999 FEW025 07/M02 Q1026 NOSIG
13-02-04 LEBL 040800Z 31013KT 290V360 9999 FEW025 07/M02 Q1026 NOSIG
13-02-04 LEBL 040830Z 32013KT 9999 FEW025 07/M02 Q1027 NOSIG
13-02-04 LEBL 040900Z 33015KT CAVOK 08/M01 Q1027 NOSIG
13-02-04 LEBL 040930Z 33011KT CAVOK 09/M01 Q1027 NOSIG
13-02-04 LEBL 041000Z 32010KT 260V360 CAVOK 09/M01 Q1027 NOSIG
13-02-04 LEBL 041030Z 32006KT 220V030 CAVOK 10/M01 Q1027 NOSIG
13-02-04 LEBL 041100Z 26003KT 210V290 CAVOK 12/M01 Q1027 NOSIG
13-02-04 LEBL 041130Z 23004KT 160V280 CAVOK 13/00 Q1026 NOSIG
13-02-04 LEBL 041200Z 22006KT CAVOK 12/01 Q1025 NOSIG
13-02-04 LEBL 041230Z 22007KT 190V250 CAVOK 12/02 Q1025 NOSIG
13-02-04 LEBL 041300Z 22010KT CAVOK 13/02 Q1025 NOSIG
13-02-04 LEBL 041330Z 22012KT CAVOK 14/04 Q1024 NOSIG
13-02-04 LEBL 041400Z 23015KT CAVOK 14/05 Q1024 NOSIG
13-02-04 LEBL 041430Z 23015KT CAVOK 14/07 Q1023 NOSIG
13-02-04 LEBL 041500Z 23015KT CAVOK 14/08 Q1024 NOSIG
13-02-04 LEBL 041530Z 23015KT CAVOK 15/08 Q1024 NOSIG
13-02-04 LEBL 041600Z 23012KT CAVOK 14/09 Q1024 NOSIG
13-02-04 LEBL 041630Z 22010KT CAVOK 14/09 Q1024 NOSIG
13-02-04 LEBL 041700Z 22009KT CAVOK 14/10 Q1024 NOSIG
13-02-04 LEBL 041730Z 23007KT CAVOK 13/10 Q1024 NOSIG
13-02-04 LEBL 041800Z 21008KT CAVOK 13/10 Q1024 NOSIG
13-02-04 LEBL 041830Z 24008KT CAVOK 12/10 Q1025 NOSIG
13-02-04 LEBL 041900Z 24007KT CAVOK 12/10 Q1025 NOSIG
13-02-04 LEBL 041930Z 27004KT 240V320 CAVOK 11/10 Q1025 NOSIG
13-02-04 LEBL 042000Z 25003KT 220V310 CAVOK 11/09 Q1025 NOSIG
13-02-04 LEBL 042030Z 30004KT 250V340 9999 FEW045 11/07 Q1025 NOSIG
13-02-04 LEBL 042100Z 33005KT 240V020 9999 FEW045 11/06 Q1025 NOSIG
13-02-04 LEBL 042130Z 32008KT 280V340 9999 FEW045 10/06 Q1024 NOSIG
13-02-04 LEBL 042200Z 32009KT 9999 FEW045 10/06 Q1024 NOSIG
13-02-04 LEBL 042230Z 32009KT 9999 FEW045 10/05 Q1024 NOSIG
13-02-04 LEBL 042300Z 33007KT 9999 FEW045 10/05 Q1024 NOSIG
13-02-04 LEBL 042330Z 32008KT 9999 FEW045 10/04 Q1024 NOSIG
13-02-05 LEBL 050000Z 32009KT CAVOK 10/04 Q1024 NOSIG
13-02-05 LEBL 050030Z 33006KT CAVOK 09/04 Q1024 NOSIG
13-02-05 LEBL 050100Z 32009KT CAVOK 09/04 Q1024 NOSIG
13-02-05 LEBL 050130Z 32009KT CAVOK 08/03 Q1023 NOSIG
13-02-05 LEBL 050200Z 32012KT CAVOK 09/04 Q1023 NOSIG
13-02-05 LEBL 050230Z 31009KT CAVOK 08/04 Q1023 NOSIG
13-02-05 LEBL 050300Z 32009KT CAVOK 08/04 Q1022 NOSIG
13-02-05 LEBL 050330Z 32006KT CAVOK 08/04 Q1022 NOSIG
13-02-05 LEBL 050400Z NIL
13-02-05 LEBL 050430Z 32007KT 9999 FEW030 08/03 Q1022 NOSIG
13-02-05 LEBL 050500Z 33009KT 9999 FEW030 08/04 Q1022 NOSIG
13-02-05 LEBL 050530Z 31005KT 9999 FEW030 08/04 Q1022 NOSIG
13-02-05 LEBL 050600Z 33008KT 9999 FEW030 08/03 Q1021 NOSIG
13-02-05 LEBL 050630Z 32009KT 9999 FEW030 08/03 Q1021 NOSIG
13-02-05 LEBL 050700Z 32007KT 260V360 9999 FEW030 08/04 Q1021 NOSIG
13-02-05 LEBL 050730Z 32008KT 9999 FEW030 08/04 Q1022 NOSIG
13-02-05 LEBL 050800Z 32009KT 9999 FEW030 09/04 Q1022 NOSIG
13-02-05 LEBL 050830Z 32012KT 280V350 CAVOK 10/05 Q1022 NOSIG
13-02-05 LEBL 050900Z 31012G23KT 260V340 CAVOK 10/05 Q1021 NOSIG
13-02-05 LEBL 050930Z 32012KT 300V010 CAVOK 12/06 Q1021 NOSIG
13-02-05 LEBL 051000Z 32011KT 280V350 CAVOK 12/06 Q1021 NOSIG
13-02-05 LEBL NIL
13-02-05 LEBL 051100Z 33010KT 280V360 CAVOK 14/06 Q1021 NOSIG
13-02-05 LEBL 051130Z 34009KT CAVOK 15/06 Q1020 NOSIG
13-02-05 LEBL 051200Z 33008KT CAVOK 16/06 Q1020 NOSIG
13-02-05 LEBL 051230Z 31006KT CAVOK 14/07 Q1019 NOSIG
13-02-05 LEBL 051300Z 21006KT 180V240 CAVOK 16/08 Q1019 NOSIG
13-02-05 LEBL 051330Z 21009KT CAVOK 15/09 Q1018 NOSIG
13-02-05 LEBL 051400Z 22010KT CAVOK 16/08 Q1018 NOSIG
13-02-05 LEBL 051430Z 20007KT 190V250 CAVOK 16/08 Q1017 NOSIG
13-02-05 LEBL 051500Z 22011KT CAVOK 15/09 Q1017 NOSIG
13-02-05 LEBL 051530Z 20008KT CAVOK 15/10 Q1016 NOSIG
13-02-05 LEBL 051600Z 20005KT 170V230 9999 FEW023 15/10 Q1016 NOSIG
13-02-05 LEBL 051630Z 22009KT 9999 FEW023 15/10 Q1016 NOSIG
13-02-05 LEBL 051700Z 22007KT 160V250 9999 FEW022 15/09 Q1015 NOSIG
13-02-05 LEBL 051730Z 25012KT 9999 FEW022 15/09 Q1015 NOSIG
13-02-05 LEBL 051800Z 26012KT 9999 FEW022 15/05 Q1014 NOSIG
13-02-05 LEBL 051830Z 27008KT 240V310 9999 FEW025 16/05 Q1014 NOSIG
13-02-05 LEBL 051900Z 27006KT 220V300 9999 FEW025 16/00 Q1014 NOSIG
13-02-05 LEBL 051930Z 21003KT 9999 FEW025 16/M04 Q1014 NOSIG
13-02-05 LEBL 052000Z 28009G19KT 240V330 9999 FEW025 16/M05 Q1013 NOSIG
13-02-05 LEBL 052030Z 27007KT 240V310 9999 FEW025 16/M05 Q1013 NOSIG
13-02-05 LEBL 052100Z 26010KT 230V290 9999 FEW025 15/M04 Q1012 NOSIG
13-02-05 LEBL 052130Z 26014KT 9999 FEW025 15/M02 Q1012 NOSIG
13-02-05 LEBL 052200Z 26014KT 240V300 9999 FEW025 14/M00 Q1012 NOSIG
13-02-05 LEBL 052230Z 25011KT 9999 FEW025 13/01 Q1012 NOSIG
13-02-05 LEBL 052300Z 26013KT 9999 FEW020 13/01 Q1012 NOSIG
13-02-05 LEBL 052330Z 28007KT 9999 FEW020 14/01 Q1012 NOSIG
13-02-06 LEBL 060000Z 29025KT 9999 FEW020 14/00 Q1011 NOSIG
13-02-06 LEBL 060030Z 29024KT 9999 FEW020 12/02 Q1011 NOSIG
13-02-06 LEBL 060100Z 27013G23KT 9999 FEW020 12/02 Q1011 NOSIG
13-02-06 LEBL 060130Z 22011KT 9999 FEW020 11/03 Q1010 NOSIG
13-02-06 LEBL 060200Z 27015KT 9999 FEW020 11/03 Q1010 NOSIG
13-02-06 LEBL 060230Z 29009KT 9999 FEW020 10/02 Q1010 NOSIG
13-02-06 LEBL 060300Z 30012KT 9999 FEW020 11/00 Q1010 NOSIG
13-02-06 LEBL 060330Z 30012KT 9999 FEW020 10/M00 Q1010 NOSIG
13-02-06 LEBL 060400Z NIL
13-02-06 LEBL 060400Z 32014KT 9999 FEW020 09/M00 Q1009 NOSIG
13-02-06 LEBL 060430Z 32012KT 9999 FEW020 09/M00 Q1009 NOSIG
13-02-06 LEBL 060500Z 32012KT 9999 FEW020 09/M01 Q1010 NOSIG
13-02-06 LEBL 060530Z 31009KT 280V340 9999 FEW020 09/M01 Q1010 NOSIG
13-02-06 LEBL 060600Z 32012KT 9999 FEW020 09/M01 Q1009 NOSIG
13-02-06 LEBL 060630Z 31016KT 9999 FEW020 08/M01 Q1010 NOSIG
13-02-06 LEBL 060700Z 32012KT 9999 FEW025 08/M01 Q1010 NOSIG
13-02-06 LEBL 060730Z 33015KT 9999 FEW025 08/M01 Q1010 NOSIG
13-02-06 LEBL 060800Z 32013G23KT 270V340 9999 FEW025 09/M01 Q1010 NOSIG
13-02-06 LEBL 060830Z 33017KT 9999 FEW025 09/M01 Q1010 NOSIG
13-02-06 LEBL 060900Z 32014G25KT 9999 FEW025 10/M01 Q1010 NOSIG
13-02-06 LEBL 060930Z 32008KT 290V360 9999 FEW025 11/M01 Q1011 NOSIG
13-02-06 LEBL 061000Z 32016KT 260V350 9999 FEW025 12/M01 Q1010 NOSIG
13-02-06 LEBL 061030Z 32020KT 9999 FEW025 12/M01 Q1010 NOSIG
13-02-06 LEBL 061100Z 31015KT CAVOK 12/M01 Q1010 NOSIG
13-02-06 LEBL 061130Z 30017KT 280V340 9999 FEW015 12/M01 Q1009 NOSIG
13-02-06 LEBL 061200Z 31019G32KT 9999 FEW015 12/M01 Q1008 NOSIG
13-02-06 LEBL 061230Z 31023G33KT 9999 FEW015 13/M00 Q1008 NOSIG
13-02-06 LEBL 061300Z 30024G34KT 9999 FEW015 13/00 Q1007 NOSIG
13-02-06 LEBL 061330Z 28018KT 9999 FEW015 13/00 Q1007 NOSIG
13-02-06 LEBL 061400Z 31020KT 9999 FEW015 13/00 Q1007 NOSIG
13-02-06 LEBL 061430Z 29019KT 9999 FEW015 14/00 Q1006 NOSIG
13-02-06 LEBL 061500Z 28018KT 9999 FEW025 14/00 Q1006 NOSIG
13-02-06 LEBL 061530Z 28017KT 240V300 9999 FEW025 13/00 Q1006 NOSIG
13-02-06 LEBL 061600Z 29016G27KT 270V330 9999 FEW025 13/00 Q1006 NOSIG
13-02-06 LEBL 061630Z 30017KT 9999 FEW025 13/01 Q1006 NOSIG
13-02-06 LEBL 061700Z 29013KT 240V330 9999 FEW025 12/01 Q1006 NOSIG
13-02-06 LEBL 061730Z 28013KT 250V310 9999 FEW025 12/00 Q1006 NOSIG
13-02-06 LEBL 061800Z 30011KT 9999 FEW025 12/00 Q1006 NOSIG
13-02-06 LEBL 061830Z 31007KT 270V340 9999 FEW025 11/00 Q1007 NOSIG
13-02-06 LEBL 061900Z 29009KT 250V340 9999 FEW025 11/00 Q1007 NOSIG
13-02-06 LEBL 061930Z 31015KT 9999 FEW025 11/M00 Q1007 NOSIG
13-02-06 LEBL 062000Z 30014KT 9999 FEW025 10/M01 Q1007 NOSIG
13-02-06 LEBL 062030Z 31015KT 9999 FEW015 10/M01 Q1007 NOSIG
13-02-06 LEBL 062100Z 32012KT 9999 FEW015 10/M01 Q1008 NOSIG
13-02-06 LEBL 062130Z 32013KT 9999 FEW015 10/M01 Q1008 NOSIG
13-02-06 LEBL 062200Z 32015KT 9999 FEW015 09/M01 Q1008 NOSIG
13-02-06 LEBL 062230Z 31017KT 9999 FEW015 09/M01 Q1009 NOSIG
13-02-06 LEBL 062300Z 32013KT 9999 FEW015 09/M00 Q1009 NOSIG
13-02-06 LEBL 062330Z 32014KT 9999 FEW015 08/M01 Q1009 NOSIG
13-02-07 LEBL 070000Z 32014KT 9999 FEW015 09/M01 Q1009 NOSIG
13-02-07 LEBL 070030Z 32017KT 290V350 9999 FEW015 08/M01 Q1009 NOSIG
13-02-07 LEBL 070100Z 33015KT 9999 FEW015 08/M01 Q1009 NOSIG
13-02-07 LEBL 070130Z 32016KT 9999 FEW015 08/M01 Q1010 NOSIG
13-02-07 LEBL 070200Z 31017KT 9999 FEW015 08/M01 Q1010 NOSIG
13-02-07 LEBL 070230Z 32012KT 9999 FEW015 08/M00 Q1010 NOSIG
13-02-07 LEBL 070300Z 32015KT 9999 FEW015 08/M01 Q1010 NOSIG
13-02-07 LEBL 070330Z 32015KT 9999 FEW015 08/M01 Q1011 NOSIG
13-02-07 LEBL 070400Z 32011KT 290V350 9999 FEW020 07/M00 Q1010 NOSIG
13-02-07 LEBL 070430Z 31017KT 9999 FEW020 07/M00 Q1011 NOSIG
13-02-07 LEBL 070500Z 31018KT 9999 FEW020 07/00 Q1011 NOSIG
13-02-07 LEBL 070530Z 34006KT 310V060 9999 FEW020 06/M01 Q1012 NOSIG
13-02-07 LEBL 070600Z 30007KT 9999 FEW020 06/M01 Q1012 NOSIG
13-02-07 LEBL 070630Z 32010KT 9999 FEW020 07/M03 Q1013 NOSIG
13-02-07 LEBL 070700Z 32009KT 9999 FEW020 07/M05 Q1013 NOSIG
13-02-07 LEBL 070730Z 33010KT 290V360 9999 FEW020 07/M05 Q1013 NOSIG
13-02-07 LEBL 070800Z 33014KT 9999 FEW025 07/M04 Q1014 NOSIG
13-02-07 LEBL 070830Z 33013KT 290V350 9999 FEW025 08/M05 Q1014 NOSIG
13-02-07 LEBL 070900Z 31012KT 280V340 9999 FEW025 09/M06 Q1015 NOSIG
13-02-07 LEBL 070930Z 30010KT 240V330 9999 FEW025 09/M06 Q1015 NOSIG
13-02-07 LEBL 071000Z 29012KT 250V330 9999 FEW025 10/M07 Q1015 NOSIG
13-02-07 LEBL 071030Z 31015KT 270V340 9999 FEW025 10/M07 Q1015 NOSIG
13-02-07 LEBL 071100Z 30016KT 9999 FEW025 11/M07 Q1016 NOSIG
13-02-07 LEBL 071130Z 31013KT 9999 FEW025 12/M08 Q1016 NOSIG
13-02-07 LEBL 071200Z 31014G24KT 280V350 9999 FEW025 12/M09 Q1016 NOSIG
13-02-07 LEBL 071230Z 32011G22KT 290V020 9999 FEW025 12/M10 Q1015 NOSIG
13-02-07 LEBL 071300Z 34013KT 290V020 9999 FEW025 12/M12 Q1015 NOSIG
13-02-07 LEBL 071330Z 31013G26KT 290V350 9999 FEW025 12/M12 Q1015 NOSIG
13-02-07 LEBL 071400Z 32015KT 290V350 9999 FEW025 13/M11 Q1015 NOSIG
13-02-07 LEBL 071430Z 31015G25KT 290V350 9999 FEW025 13/M12 Q1015 NOSIG
13-02-07 LEBL 071500Z 30017G27KT 9999 FEW025 13/M13 Q1016 NOSIG
13-02-07 LEBL 071530Z NIL
13-02-07 LEBL 071600Z 33013G24KT 250V350 9999 FEW025 13/M14 Q1016 NOSIG
13-02-07 LEBL 071630Z 34012G22KT 310V010 9999 FEW025 12/M14 Q1016 NOSIG
13-02-07 LEBL 071700Z 30008KT 270V350 9999 FEW025 12/M14 Q1016 NOSIG
13-02-07 LEBL 071730Z 31014G27KT 260V360 9999 FEW025 11/M14 Q1017 NOSIG
13-02-07 LEBL 071800Z 33006G16KT 220V020 9999 FEW025 11/M13 Q1017 NOSIG
13-02-07 LEBL 071830Z 33003KT 250V020 9999 FEW025 10/M13 Q1017 NOSIG
13-02-07 LEBL 071900Z 29003KT 240V340 9999 FEW025 10/M12 Q1017 NOSIG
13-02-07 LEBL 071930Z 33006KT 280V360 9999 FEW025 10/M13 Q1017 NOSIG
13-02-07 LEBL 072000Z 29005KT 230V340 9999 FEW025 09/M12 Q1017 NOSIG
13-02-07 LEBL 072030Z 00000KT 9999 FEW025 09/M13 Q1017 NOSIG
13-02-07 LEBL 072100Z 26002KT 9999 FEW025 07/M07 Q1017 NOSIG
13-02-07 LEBL 072130Z 27005KT 240V320 9999 FEW025 07/M08 Q1017 NOSIG
13-02-07 LEBL 072200Z 28004KT 240V310 9999 FEW025 07/M07 Q1017 NOSIG
13-02-07 LEBL 072230Z 26003KT 220V300 9999 FEW025 07/M06 Q1017 NOSIG
13-02-07 LEBL 072300Z 27005KT 9999 FEW025 07/M05 Q1017 NOSIG
13-02-07 LEBL 072330Z 27003KT 9999 FEW025 07/M06 Q1017 NOSIG
13-02-08 LEBL 080000Z 29005KT 9999 FEW025 07/M05 Q1017 NOSIG
13-02-08 LEBL 080030Z 33003KT 9999 FEW025 07/M07 Q1017 NOSIG
13-02-08 LEBL 080100Z VRB01KT 9999 FEW025 07/M05 Q1017 NOSIG
13-02-08 LEBL 080130Z 34005KT 9999 FEW025 07/M04 Q1016 NOSIG
13-02-08 LEBL 080200Z 33005KT 9999 FEW020 07/M03 Q1016 NOSIG
13-02-08 LEBL 080230Z 31006KT 270V340 9999 FEW020 08/M05 Q1015 NOSIG
13-02-08 LEBL 080300Z 32009KT 9999 FEW020 07/M04 Q1015 NOSIG
13-02-08 LEBL 080330Z 33011KT 9999 FEW020 06/M03 Q1014 NOSIG
13-02-08 LEBL 080400Z 33012KT 9999 FEW020 06/M03 Q1014 NOSIG
13-02-08 LEBL 080430Z 32012KT 9999 FEW020 06/M03 Q1014 NOSIG
13-02-08 LEBL 080500Z 33011KT 9999 FEW020 06/M03 Q1014 NOSIG
13-02-08 LEBL 080530Z 33013KT 9999 FEW020 06/M02 Q1014 NOSIG
13-02-08 LEBL 080600Z 34011KT 9999 FEW020 06/M01 Q1014 NOSIG
13-02-08 LEBL 080630Z 33010KT 9999 FEW020 06/M02 Q1013 NOSIG
13-02-08 LEBL 080700Z 29011KT 9999 FEW025 05/M01 Q1013 NOSIG
13-02-08 LEBL 080730Z 30008KT 9999 FEW025 06/M01 Q1014 NOSIG
13-02-08 LEBL 080800Z 32007KT 240V010 9999 FEW025 07/M01 Q1014 NOSIG
13-02-08 LEBL 080830Z 31006KT 270V360 9999 FEW025 07/00 Q1014 NOSIG
13-02-08 LEBL 080900Z 31009KT 260V340 9999 FEW025 08/M00 Q1014 NOSIG
13-02-08 LEBL 080930Z 32008KT 280V350 9999 FEW025 08/M00 Q1014 NOSIG
13-02-08 LEBL 081000Z 31011KT 270V350 9999 FEW025 08/M00 Q1014 NOSIG
13-02-08 LEBL 081030Z 32010KT 9999 FEW025 09/M00 Q1014 NOSIG
13-02-08 LEBL 081100Z 31007KT 260V350 9999 FEW025 10/M01 Q1014 NOSIG
13-02-08 LEBL 081130Z 31009KT 260V350 9999 FEW025 10/M01 Q1013 NOSIG
13-02-08 LEBL 081200Z 34005KT 9999 FEW025 09/M01 Q1013 NOSIG
13-02-08 LEBL 081230Z 33004KT 260V050 9999 FEW025 10/M01 Q1013 NOSIG
13-02-08 LEBL 081300Z 06003KT 010V100 9999 FEW025 10/M00 Q1013 NOSIG
13-02-08 LEBL 081330Z 09001KT 9999 FEW035 10/M01 Q1012 NOSIG
13-02-08 LEBL 081400Z VRB01KT 9999 SCT045 11/M01 Q1012 NOSIG
13-02-08 LEBL 081430Z 10004KT 080V150 9999 SCT045 10/M00 Q1012 NOSIG
13-02-08 LEBL 081500Z 12005KT 9999 FEW025 SCT055 10/01 Q1012 NOSIG
13-02-08 LEBL 081530Z 13004KT 100V160 9999 FEW025 SCT055 10/01 Q1012 NOSIG
13-02-08 LEBL 081600Z 11004KT 080V160 9999 FEW025 SCT055 10/02 Q1012 NOSIG
13-02-08 LEBL 081630Z 12004KT 9999 FEW025 SCT055 10/02 Q1012 NOSIG
13-02-08 LEBL 081700Z 10004KT 070V140 9999 FEW025 SCT055 10/02 Q1012 NOSIG
13-02-08 LEBL 081730Z 08004KT 060V120 9999 FEW025 SCT055 10/02 Q1013 NOSIG
13-02-08 LEBL 081800Z 05003KT 350V110 9999 FEW025 SCT040 10/02 Q1013 NOSIG
13-02-08 LEBL 081830Z 05007KT 9999 FEW025 SCT040 10/01 Q1014 NOSIG
13-02-08 LEBL 081900Z 05004KT 360V100 9999 FEW025 SCT040 10/01 Q1014 NOSIG
13-02-08 LEBL 081930Z 07005KT 040V100 9999 FEW025 SCT045 10/01 Q1014 NOSIG
13-02-08 LEBL 082000Z 07007KT 030V090 9999 FEW025 SCT040 10/01 Q1014 NOSIG
13-02-08 LEBL 082030Z 05010KT 9999 FEW025 SCT053 09/02 Q1015 NOSIG
13-02-08 LEBL 082100Z 04005KT 010V070 9999 FEW030 SCT050 09/02 Q1015 NOSIG
13-02-08 LEBL 082130Z 02004KT 9999 FEW030 SCT050 09/01 Q1016 NOSIG
13-02-08 LEBL 082200Z 36003KT 9999 DZ FEW030 SCT050 09/02 Q1016 NOSIG
13-02-08 LEBL 082230Z 32006KT 9999 FEW030 08/02 Q1016 REDZ NOSIG
13-02-08 LEBL 082300Z 32006KT 9999 FEW025 08/01 Q1016 NOSIG
13-02-08 LEBL 082330Z 32008KT 9999 FEW025 07/01 Q1016 NOSIG
13-02-09 LEBL 090000Z 31010KT 9999 FEW025 07/01 Q1017 NOSIG
13-02-09 LEBL 090030Z 32008KT 9999 FEW025 06/01 Q1017 NOSIG
13-02-09 LEBL 090100Z 32007KT 9999 FEW025 06/01 Q1017 NOSIG
13-02-09 LEBL 090130Z 33009KT 9999 FEW025 06/00 Q1017 NOSIG
13-02-09 LEBL 090200Z 33009KT 9999 FEW025 05/00 Q1017 NOSIG
13-02-09 LEBL 090230Z 33009KT 9999 FEW025 05/00 Q1018 NOSIG
13-02-09 LEBL 090300Z 33008KT 9999 FEW025 05/M00 Q1018 NOSIG
13-02-09 LEBL 090330Z 32007KT 9999 FEW025 04/M00 Q1017 NOSIG
13-02-09 LEBL 090400Z 33007KT 9999 FEW025 04/M00 Q1017 NOSIG
13-02-09 LEBL 090430Z 32002KT 9999 FEW025 04/M01 Q1018 NOSIG
13-02-09 LEBL 090500Z 27003KT 230V310 9999 FEW025 04/M01 Q1017 NOSIG
13-02-09 LEBL 090530Z 33009KT 9999 FEW025 04/M02 Q1018 NOSIG
13-02-09 LEBL 090600Z 33008KT 9999 FEW025 04/M03 Q1018 NOSIG
13-02-09 LEBL 090630Z 30004KT 260V350 9999 FEW025 03/M02 Q1018 NOSIG
13-02-09 LEBL 090700Z 34003KT 300V020 9999 FEW025 03/M02 Q1018 NOSIG
13-02-09 LEBL 090730Z 32007KT 9999 FEW025 04/M02 Q1019 NOSIG
13-02-09 LEBL 090800Z 30009KT 9999 FEW025 04/M01 Q1019 NOSIG
13-02-09 LEBL 090830Z 35005KT 9999 FEW025 05/M01 Q1020 NOSIG
13-02-09 LEBL 090900Z 33008KT 9999 FEW025 06/M02 Q1020 NOSIG
13-02-09 LEBL 090930Z 34007KT 310V030 9999 FEW025 08/M04 Q1020 NOSIG
13-02-09 LEBL 091000Z 34003KT 9999 FEW025 08/M05 Q1020 NOSIG
13-02-09 LEBL 091030Z 31004KT 230V350 9999 FEW025 09/M06 Q1020 NOSIG
13-02-09 LEBL 091100Z 12002KT 9999 FEW025 10/M07 Q1020 NOSIG
13-02-09 LEBL 091130Z 13005KT 060V210 9999 FEW025 10/M05 Q1020 NOSIG
13-02-09 LEBL 091200Z 16008KT 120V200 9999 FEW025 10/M01 Q1020 NOSIG
13-02-09 LEBL 091230Z 17009KT 130V200 9999 FEW025 10/M02 Q1019 NOSIG
13-02-09 LEBL 091300Z 17008KT 130V210 9999 FEW025 10/M02 Q1019 NOSIG
13-02-09 LEBL 091330Z 20007KT 160V240 9999 FEW025 10/M03 Q1019 NOSIG
13-02-09 LEBL 091400Z 20008KT 9999 FEW025 10/M02 Q1019 NOSIG
13-02-09 LEBL 091430Z 19009KT 160V220 9999 FEW025 11/M03 Q1019 NOSIG
13-02-09 LEBL 091500Z 21010KT 9999 FEW025 11/M03 Q1019 NOSIG
13-02-09 LEBL 091530Z 20011KT 9999 FEW025 11/M02 Q1018 NOSIG
13-02-09 LEBL 091600Z 21008KT 9999 FEW025 12/M00 Q1018 NOSIG
13-02-09 LEBL 091630Z 24007KT 220V290 9999 FEW030 12/M05 Q1018 NOSIG
13-02-09 LEBL 091700Z 28007KT 240V310 9999 FEW030 11/M05 Q1018 NOSIG
13-02-09 LEBL 091730Z 26004KT 220V300 9999 FEW030 11/M07 Q1018 NOSIG
13-02-09 LEBL 091800Z 23006KT 9999 FEW030 11/M07 Q1018 NOSIG
13-02-09 LEBL 091830Z 28004KT 260V320 9999 FEW030 10/M08 Q1018 NOSIG
13-02-09 LEBL 091900Z 30004KT 270V340 9999 FEW030 10/M03 Q1018 NOSIG
13-02-09 LEBL 091930Z 28004KT 260V330 9999 FEW030 09/M06 Q1018 NOSIG
13-02-09 LEBL 092000Z 28007KT 250V310 9999 FEW030 09/M03 Q1018 NOSIG
13-02-09 LEBL 092030Z 32004KT 290V350 9999 FEW030 11/M01 Q1018 NOSIG
13-02-09 LEBL 092100Z NIL
13-02-09 LEBL 092130Z 30005KT 270V330 9999 FEW030 08/M02 Q1017 NOSIG
13-02-09 LEBL 092200Z 31008KT 220V340 9999 FEW030 08/M01 Q1017 NOSIG
13-02-09 LEBL 092230Z 32008KT 290V350 9999 FEW030 08/M00 Q1017 NOSIG
13-02-09 LEBL 092300Z 29006KT 260V330 9999 FEW030 08/00 Q1017 NOSIG
13-02-09 LEBL 092330Z 03003KT 340V080 9999 FEW030 08/00 Q1018 NOSIG
13-02-10 LEBL 100000Z 35007KT 9999 FEW030 08/01 Q1018 NOSIG
13-02-10 LEBL 100030Z 34007KT 9999 FEW030 08/01 Q1018 NOSIG
13-02-10 LEBL 100100Z 32006KT 9999 FEW020 08/02 Q1018 NOSIG
13-02-10 LEBL 100130Z 30011KT 9999 FEW020 08/02 Q1018 NOSIG
13-02-10 LEBL 100200Z 30011KT 9999 FEW020 07/02 Q1017 NOSIG
13-02-10 LEBL 100230Z 31013KT 9999 FEW020 07/02 Q1017 NOSIG
13-02-10 LEBL 100300Z 32009KT 9999 FEW020 07/01 Q1017 NOSIG
13-02-10 LEBL 100330Z 33009KT 9999 FEW020 06/01 Q1017 NOSIG
13-02-10 LEBL 100400Z 31008KT 9999 FEW020 06/01 Q1017 NOSIG
13-02-10 LEBL 100430Z 31006KT 9999 FEW020 05/01 Q1017 NOSIG
13-02-10 LEBL 100500Z 29006KT 9999 FEW020 04/01 Q1017 NOSIG
13-02-10 LEBL 100530Z 31008KT 9999 FEW020 04/01 Q1016 NOSIG
13-02-10 LEBL 100600Z 32009KT 9999 FEW020 04/01 Q1016 NOSIG
13-02-10 LEBL 100630Z 33007KT 9999 FEW020 04/01 Q1016 NOSIG
13-02-10 LEBL 100700Z 33008KT 9999 FEW020 04/01 Q1016 NOSIG
13-02-10 LEBL 100730Z 34008KT 260V010 9999 FEW020 04/01 Q1016 NOSIG
13-02-10 LEBL 100800Z 35005KT 250V020 9999 FEW025 05/01 Q1016 NOSIG
13-02-10 LEBL 100830Z 33007KT 280V350 9999 FEW025 06/01 Q1016 NOSIG
13-02-10 LEBL 100900Z 32005KT 270V350 9999 FEW025 06/02 Q1016 NOSIG
13-02-10 LEBL 100930Z 33005KT 290V350 9999 FEW025 10/03 Q1016 NOSIG
13-02-10 LEBL 101000Z VRB01KT 9999 FEW025 11/04 Q1015 NOSIG
13-02-10 LEBL 101030Z 21005KT 170V260 9999 FEW025 10/04 Q1015 NOSIG
13-02-10 LEBL 101100Z 16004KT 110V220 9999 FEW025 12/03 Q1014 NOSIG
13-02-10 LEBL 101130Z 20009KT 9999 FEW025 13/02 Q1014 NOSIG
13-02-10 LEBL 101200Z 21015KT 9999 FEW025 12/04 Q1013 NOSIG
13-02-10 LEBL 101230Z 22012KT 9999 FEW025 14/03 Q1012 NOSIG
13-02-10 LEBL 101300Z 21016KT 9999 FEW015 14/04 Q1012 NOSIG
13-02-10 LEBL 101330Z 22021KT 9999 FEW015 14/02 Q1011 NOSIG
13-02-10 LEBL 101400Z 22020KT 9999 FEW020 14/03 Q1010 NOSIG
13-02-10 LEBL 101430Z 23015KT 9999 FEW020 14/05 Q1010 NOSIG
13-02-10 LEBL NIL
13-02-10 LEBL 101500Z 22014KT 9999 FEW025 13/06 Q1009 NOSIG
13-02-10 LEBL 101530Z 24010KT 9999 FEW025 13/07 Q1009 NOSIG
13-02-10 LEBL 101600Z 23012KT 9999 FEW025 13/07 Q1008 NOSIG
13-02-10 LEBL 101630Z 23014KT 9999 FEW025 13/08 Q1008 NOSIG
13-02-10 LEBL 101700Z 23012KT 9999 FEW025 13/08 Q1007 NOSIG
13-02-10 LEBL 101730Z 23012KT 9999 FEW025 12/07 Q1007 NOSIG
13-02-10 LEBL 101800Z 24010KT 9999 FEW025 12/07 Q1007 NOSIG
13-02-10 LEBL 101830Z 23009KT 9999 FEW025 12/07 Q1006 NOSIG
13-02-10 LEBL 101900Z 24010KT 9999 FEW025 12/07 Q1006 NOSIG
13-02-10 LEBL 101930Z 24008KT 9999 FEW025 12/07 Q1005 NOSIG
13-02-10 LEBL 102000Z 26008KT 240V300 9999 FEW025 12/07 Q1004 NOSIG
13-02-10 LEBL 102030Z 29007KT 250V310 9999 FEW025 SCT050 11/07 Q1005 NOSIG
13-02-10 LEBL 102100Z 31003KT 210V020 9999 FEW025 SCT050 12/06 Q1003 NOSIG
13-02-10 LEBL 102130Z 28003KT 210V010 9999 FEW025 11/03 Q1003 NOSIG
13-02-10 LEBL 102200Z 32011G26KT 9999 FEW025 11/03 Q1003 NOSIG
13-02-10 LEBL 102230Z 31008KT 9999 FEW025 11/03 Q1002 NOSIG
13-02-10 LEBL 102300Z 31009KT 9999 FEW025 11/03 Q1002 NOSIG
13-02-10 LEBL 102330Z 29006KT 250V340 9999 FEW025 SCT055 12/03 Q1002 NOSIG
13-02-11 LEBL 110130Z 26010KT 230V300 9999 FEW025 11/02 Q1002 NOSIG
13-02-11 LEBL 110200Z 26010KT 9999 FEW025 11/02 Q1001 NOSIG
13-02-11 LEBL 110230Z 29007KT 250V310 9999 FEW025 11/00 Q1001 NOSIG
13-02-11 LEBL 110300Z 27007KT 9999 FEW025 11/M01 Q1001 NOSIG
13-02-11 LEBL 110330Z 26011KT 9999 FEW025 10/M01 Q1001 NOSIG
13-02-11 LEBL 110400Z 25016KT 9999 FEW025 10/M00 Q1000 NOSIG
13-02-11 LEBL 110430Z 25012KT 9999 FEW025 09/M01 Q1000 NOSIG
13-02-11 LEBL 110500Z 29011KT 9999 FEW025 10/M01 Q1001 NOSIG
13-02-11 LEBL 110530Z 30014KT 9999 FEW025 09/M00 Q1000 NOSIG
13-02-11 LEBL 110600Z 30011KT 9999 FEW025 08/M00 Q1001 NOSIG
13-02-11 LEBL 110630Z 30014KT 9999 FEW025 09/00 Q1001 NOSIG
13-02-11 LEBL 110700Z 31011KT 9999 FEW025 08/00 Q1001 NOSIG
13-02-11 LEBL 110730Z 31008KT 260V350 9999 FEW025 08/00 Q1001 NOSIG
13-02-11 LEBL 110800Z 30009G19KT 270V330 9999 FEW025 09/00 Q1002 NOSIG
13-02-11 LEBL 110830Z 31007KT 260V360 9999 FEW025 09/00 Q1002 NOSIG
13-02-11 LEBL 110900Z 01005KT 9999 FEW025 09/01 Q1002 NOSIG
13-02-11 LEBL 110930Z 34006KT 9999 FEW025 09/00 Q1002 NOSIG
13-02-11 LEBL 111000Z 33009KT 300V360 9999 FEW025 09/M00 Q1002 NOSIG
13-02-11 LEBL 111030Z 32009KT 290V350 9999 FEW025 10/00 Q1002 NOSIG
13-02-11 LEBL 111100Z 31008KT 280V350 9999 FEW025 10/M00 Q1002 NOSIG
13-02-11 LEBL NIL
13-02-11 LEBL 111130Z NIL
13-02-11 LEBL 111200Z 32009KT 280V350 9999 FEW025 11/M01 Q1002 NOSIG
13-02-11 LEBL 111230Z 31012KT 290V350 9999 FEW025 11/M02 Q1002 NOSIG
13-02-11 LEBL 111300Z 30010KT 230V350 9999 FEW025 11/M02 Q1002 NOSIG
13-02-11 LEBL 111330Z 29007KT 250V330 9999 FEW025 12/M01 Q1002 NOSIG
13-02-11 LEBL 111400Z 31015KT 9999 FEW025 12/M02 Q1002 NOSIG
13-02-11 LEBL 111430Z 29014KT 270V330 9999 FEW025 13/M01 Q1002 NOSIG
13-02-11 LEBL 111500Z 30016G26KT 9999 FEW025 12/M01 Q1002 NOSIG
13-02-11 LEBL 111530Z 29017KT 9999 FEW025 12/M01 Q1002 NOSIG
13-02-11 LEBL 111600Z 29015KT 9999 FEW025 12/M02 Q1002 NOSIG
13-02-11 LEBL 111630Z 29013KT 9999 FEW025 12/M03 Q1002 NOSIG
13-02-11 LEBL 111700Z 31017KT 9999 FEW025 12/M02 Q1002 NOSIG
13-02-11 LEBL 111730Z 30015KT 260V330 9999 FEW025 11/M02 Q1003 NOSIG
13-02-11 LEBL 111800Z 31017G28KT 270V360 9999 FEW025 11/M04 Q1003 NOSIG
13-02-11 LEBL 111830Z 33013KT 9999 FEW018 11/M04 Q1004 NOSIG
13-02-11 LEBL 111900Z 31018KT 9999 FEW018 11/M02 Q1004 NOSIG
13-02-11 LEBL 111930Z 29009KT 260V330 9999 FEW018 10/M02 Q1004 NOSIG
13-02-11 LEBL 112000Z 30013KT 280V340 9999 FEW018 10/M02 Q1004 NOSIG
13-02-11 LEBL 112030Z 29013KT 9999 FEW018 10/M02 Q1004 NOSIG
13-02-11 LEBL 112100Z 30006KT 220V020 9999 FEW018 10/M02 Q1004 NOSIG
13-02-11 LEBL 112130Z 34003KT 9999 FEW018 10/M02 Q1004 NOSIG
13-02-11 LEBL 112200Z 28005KT 220V330 9999 FEW018 12/M04 Q1004 NOSIG
13-02-11 LEBL 112230Z 28007KT 240V310 9999 FEW018 11/M04 Q1004 NOSIG
13-02-11 LEBL 112300Z 24015KT 9999 FEW018 11/M02 Q1004 NOSIG
13-02-11 LEBL 112330Z 25017KT 9999 FEW018 11/M02 Q1004 NOSIG
13-02-12 LEBL 120000Z 27012KT 9999 FEW018 11/M02 Q1004 NOSIG
13-02-12 LEBL 120030Z 26012KT 9999 FEW018 10/M02 Q1004 NOSIG
13-02-12 LEBL 120100Z 26012KT 240V300 9999 FEW018 11/M02 Q1004 NOSIG
13-02-12 LEBL 120130Z 26017KT 240V300 9999 FEW018 11/M03 Q1003 NOSIG
13-02-12 LEBL 120200Z 28014KT 9999 FEW018 10/M03 Q1003 NOSIG
13-02-12 LEBL 120230Z 29010KT 9999 FEW018 SCT055 10/M02 Q1002 NOSIG
13-02-12 LEBL 120300Z 29013KT 9999 FEW018 SCT050 10/M01 Q1002 NOSIG
13-02-12 LEBL 120330Z 30009KT 270V020 9999 FEW018 SCT045 09/M00 Q1002 NOSIG
13-02-12 LEBL 120400Z 32007KT 260V360 9999 FEW018 BKN040 09/00 Q1003 NOSIG
13-02-12 LEBL 120430Z 31013KT 9999 FEW018 SCT035 08/00 Q1002 NOSIG
13-02-12 LEBL 120500Z 31005KT 270V010 9999 FEW020 08/00 Q1003 NOSIG
13-02-12 LEBL 120530Z 31014KT 9999 FEW020 08/00 Q1003 NOSIG
13-02-12 LEBL 120600Z 31017KT 9999 FEW020 08/01 Q1003 NOSIG
13-02-12 LEBL 120630Z 31018KT 9999 FEW020 08/01 Q1003 NOSIG
13-02-12 LEBL 120700Z 32014KT 290V350 9999 FEW020 07/01 Q1004 NOSIG
13-02-12 LEBL 120730Z 32011KT 9999 FEW020 07/01 Q1005 NOSIG
13-02-12 LEBL 120800Z 32009KT 9999 FEW020 07/01 Q1006 NOSIG
13-02-12 LEBL 120830Z 31009G24KT 270V350 9999 FEW020 08/01 Q1006 NOSIG
13-02-12 LEBL 120900Z 33010KT 260V350 9999 FEW020 09/01 Q1007 NOSIG
13-02-12 LEBL 120930Z 32009KT 9999 FEW020 10/01 Q1008 NOSIG
13-02-12 LEBL 121000Z 31008KT 290V010 9999 FEW020 11/00 Q1008 NOSIG
13-02-12 LEBL 121030Z 29007KT 170V340 CAVOK 11/M01 Q1008 NOSIG
13-02-12 LEBL 121100Z 29005KT 240V340 CAVOK 13/M04 Q1009 NOSIG
13-02-12 LEBL 121130Z 28005KT 250V320 9999 FEW025 13/M03 Q1009 NOSIG
13-02-12 LEBL 121200Z 30010KT 9999 FEW025 13/00 Q1009 NOSIG
13-02-12 LEBL 121230Z 29008KT 9999 FEW025 14/M06 Q1009 NOSIG
13-02-12 LEBL 121300Z 31012KT 280V350 9999 FEW025 15/M07 Q1009 NOSIG
13-02-12 LEBL 121330Z 30015KT 9999 FEW025 15/M07 Q1009 NOSIG
13-02-12 LEBL 121400Z 30015KT 9999 FEW025 15/M07 Q1008 NOSIG
13-02-12 LEBL 121430Z 31016G26KT 9999 FEW025 15/M07 Q1009 NOSIG
13-02-12 LEBL 121500Z 30011KT 270V330 9999 FEW025 15/M06 Q1009 NOSIG
13-02-12 LEBL 121530Z 30013KT 260V330 9999 FEW025 15/M08 Q1009 NOSIG
13-02-12 LEBL 121600Z 29014KT 9999 FEW025 15/M07 Q1009 NOSIG
13-02-12 LEBL 121630Z 29012KT 9999 FEW025 15/M05 Q1009 NOSIG
13-02-12 LEBL 121700Z 28010G20KT 9999 FEW025 14/M03 Q1009 NOSIG
13-02-12 LEBL 121730Z 26011KT 9999 FEW025 13/M02 Q1010 NOSIG
13-02-12 LEBL 121800Z 29015KT 9999 FEW025 13/M01 Q1010 NOSIG
13-02-12 LEBL 121830Z 29012KT 250V310 9999 FEW025 12/01 Q1011 NOSIG
13-02-12 LEBL 121900Z 31015KT 9999 FEW025 12/01 Q1011 NOSIG
13-02-12 LEBL 121930Z 31014KT 9999 FEW025 12/02 Q1011 NOSIG
13-02-12 LEBL 122000Z 31009KT 280V360 9999 FEW025 11/02 Q1011 NOSIG
13-02-12 LEBL 122030Z 24006KT 200V290 9999 FEW025 11/02 Q1012 NOSIG
13-02-12 LEBL 122100Z 27007KT 240V320 9999 FEW025 11/02 Q1012 NOSIG
13-02-12 LEBL 122130Z 31008KT 9999 FEW025 10/02 Q1012 NOSIG
13-02-12 LEBL 122200Z 34005KT 310V020 9999 FEW025 09/02 Q1012 NOSIG
13-02-12 LEBL 122230Z 36006KT 9999 FEW025 09/02 Q1012 NOSIG
13-02-12 LEBL 122300Z 34008KT 9999 FEW025 09/02 Q1013 NOSIG
13-02-12 LEBL 122330Z 36007KT 9999 FEW025 09/03 Q1013 NOSIG
13-02-13 LEBL 130000Z 32009KT 9999 FEW022 08/02 Q1013 NOSIG
13-02-13 LEBL 130030Z 32013KT 9999 FEW022 08/02 Q1013 NOSIG
13-02-13 LEBL 130100Z 33010KT 9999 FEW022 08/02 Q1013 NOSIG
13-02-13 LEBL 130130Z 32012KT 9999 FEW020 08/02 Q1013 NOSIG
13-02-13 LEBL 130200Z 33012KT 9999 FEW020 08/02 Q1013 NOSIG
13-02-13 LEBL 130230Z 34011KT 9999 FEW020 07/02 Q1013 NOSIG
13-02-13 LEBL 130300Z 32012KT 9999 FEW020 07/02 Q1013 NOSIG
13-02-13 LEBL 130330Z 32012KT 9999 FEW018 07/02 Q1013 NOSIG
13-02-13 LEBL 130400Z 32013KT 9999 FEW018 SCT030 07/02 Q1013 NOSIG
13-02-13 LEBL 130430Z 33011KT 9999 FEW018 BKN030 07/02 Q1014 NOSIG
13-02-13 LEBL 130500Z 34011KT 9999 FEW018 BKN028 07/02 Q1014 NOSIG
13-02-13 LEBL 130530Z 33009KT 9999 FEW018 BKN028 07/02 Q1014 NOSIG
13-02-13 LEBL 130600Z 32008KT 9999 FEW018 BKN030 07/02 Q1014 NOSIG
13-02-13 LEBL 130630Z 33007KT 9999 FEW018 BKN030 07/02 Q1015 NOSIG
13-02-13 LEBL 130700Z 33007KT 9999 FEW018 BKN030 07/02 Q1015 NOSIG
13-02-13 LEBL 130730Z 32009G19KT 280V350 9999 FEW018 BKN030 07/02 Q1015 NOSIG
13-02-13 LEBL 130800Z 32010KT 280V340 9999 FEW018 SCT030 06/01 Q1016 NOSIG
13-02-13 LEBL 130830Z 32008KT 9999 FEW025 07/01 Q1016 NOSIG
13-02-13 LEBL 130900Z 34010KT 9999 FEW030 08/02 Q1016 NOSIG
13-02-13 LEBL 130930Z 33007KT 9999 FEW030 09/02 Q1016 NOSIG
13-02-13 LEBL 131000Z 30004KT 280V340 9999 FEW030 11/02 Q1016 NOSIG
13-02-13 LEBL 131030Z 28003KT 240V330 CAVOK 12/04 Q1016 NOSIG
13-02-13 LEBL 131100Z NIL
13-02-13 LEBL 131130Z 20006KT 170V230 CAVOK 12/03 Q1016 NOSIG
13-02-13 LEBL 131200Z 22008KT 9999 FEW030 13/03 Q1016 NOSIG
13-02-13 LEBL 131230Z 21009KT 9999 FEW030 13/03 Q1016 NOSIG
13-02-13 LEBL 131300Z 22013KT 9999 FEW030 13/03 Q1015 NOSIG
13-02-13 LEBL 131330Z 22012KT 9999 FEW030 13/04 Q1015 NOSIG
13-02-13 LEBL 131400Z 21012KT 9999 FEW030 14/05 Q1015 NOSIG
13-02-13 LEBL 131430Z 20011KT 9999 FEW030 13/05 Q1015 NOSIG
13-02-13 LEBL 131500Z 19012KT CAVOK 13/05 Q1015 NOSIG
13-02-13 LEBL 131530Z 17009KT 150V210 CAVOK 13/05 Q1016 NOSIG
13-02-13 LEBL 131600Z 16008KT 130V190 CAVOK 13/05 Q1016 NOSIG
13-02-13 LEBL 131630Z 15006KT CAVOK 13/05 Q1016 NOSIG
13-02-13 LEBL 131700Z 16004KT CAVOK 13/06 Q1017 NOSIG
13-02-13 LEBL 131730Z 14003KT 110V170 CAVOK 13/05 Q1017 NOSIG
13-02-13 LEBL 131800Z VRB02KT CAVOK 12/05 Q1017 NOSIG
13-02-13 LEBL 131830Z 10004KT CAVOK 12/06 Q1018 NOSIG
13-02-13 LEBL 131900Z 10002KT CAVOK 12/06 Q1018 NOSIG
13-02-13 LEBL 131930Z 09003KT 030V110 CAVOK 11/06 Q1018 NOSIG
13-02-13 LEBL 132000Z 06003KT 310V110 9999 FEW025 10/05 Q1018 NOSIG
13-02-13 LEBL 132030Z 32003KT 9999 FEW025 09/05 Q1019 NOSIG
13-02-13 LEBL 132100Z 33005KT 290V020 9999 FEW025 09/05 Q1019 NOSIG
13-02-13 LEBL 132130Z 34006KT 310V020 9999 FEW025 08/04 Q1019 NOSIG
13-02-13 LEBL 132200Z 33005KT 9999 FEW025 08/05 Q1019 NOSIG
13-02-13 LEBL 132230Z 33007KT 9999 FEW025 08/05 Q1019 NOSIG
13-02-13 LEBL 132300Z 33006KT 9999 FEW025 08/04 Q1019 NOSIG
13-02-13 LEBL 132330Z 33008KT 9999 FEW025 08/04 Q1019 NOSIG
13-02-14 LEBL 140000Z 33007KT 9999 FEW025 08/04 Q1020 NOSIG
13-02-14 LEBL 140030Z 33007KT 9999 FEW020 08/04 Q1020 NOSIG
13-02-14 LEBL 140100Z 33008KT 9999 FEW020 09/04 Q1020 NOSIG
13-02-14 LEBL 140130Z 32009KT 9999 FEW020 09/04 Q1020 NOSIG
13-02-14 LEBL 140200Z 33009KT 9999 FEW020 08/04 Q1020 NOSIG
13-02-14 LEBL 140230Z 33008KT 9999 FEW020 08/04 Q1020 NOSIG
13-02-14 LEBL 140300Z 33010KT 9999 FEW020 08/04 Q1020 NOSIG
13-02-14 LEBL 140330Z 33008KT 9999 FEW020 08/04 Q1020 NOSIG
13-02-14 LEBL 140400Z 33010KT 9999 FEW020 08/04 Q1019 NOSIG
13-02-14 LEBL 140430Z 32009KT 9999 FEW020 07/03 Q1019 NOSIG
13-02-14 LEBL 140500Z 33010KT 9999 FEW020 07/03 Q1019 NOSIG
13-02-14 LEBL 140530Z 33010KT 9999 FEW020 07/02 Q1020 NOSIG
13-02-14 LEBL 140600Z 33011KT 9999 SCT032 07/02 Q1020 NOSIG
13-02-14 LEBL 140630Z 33011KT 9999 SCT032 07/02 Q1020 NOSIG
13-02-14 LEBL 140700Z 33011KT 9999 BKN030 06/02 Q1020 NOSIG
13-02-14 LEBL 140730Z 32009KT 260V350 9999 BKN030 07/02 Q1020 NOSIG
13-02-14 LEBL 140800Z 33009KT 300V010 9999 SCT030 07/03 Q1021 NOSIG
13-02-14 LEBL 140830Z 32010KT 280V350 9999 SCT030 08/03 Q1021 NOSIG
13-02-14 LEBL 140900Z 32008KT 250V350 9999 FEW030 10/04 Q1021 NOSIG
13-02-14 LEBL 140930Z 30008KT 9999 FEW030 11/05 Q1021 NOSIG
13-02-14 LEBL 141000Z 31005KT 280V350 9999 FEW030 12/05 Q1021 NOSIG
13-02-14 LEBL 141030Z 31005G17KT 270V010 9999 FEW030 13/05 Q1022 NOSIG
13-02-14 LEBL 141100Z 32007G17KT 240V350 9999 FEW030 13/05 Q1022 NOSIG
13-02-14 LEBL 141130Z 09002KT 9999 FEW030 14/05 Q1022 NOSIG
13-02-14 LEBL 141200Z 14008KT 9999 FEW030 15/06 Q1021 NOSIG
13-02-14 LEBL 141230Z 16006KT 060V220 9999 FEW020 SCT045 14/06 Q1021 NOSIG
13-02-14 LEBL 141300Z 18008KT 9999 FEW020 SCT045 14/06 Q1021 NOSIG
13-02-14 LEBL 141330Z 18010KT 9999 FEW020 14/08 Q1021 NOSIG
13-02-14 LEBL 141400Z 18009KT 9999 FEW020 14/08 Q1021 NOSIG
13-02-14 LEBL 141430Z 18008KT 9999 FEW020 14/08 Q1020 NOSIG
13-02-14 LEBL 141500Z 17008KT 9999 FEW020 14/09 Q1020 NOSIG
13-02-14 LEBL 141530Z 17007KT 9999 FEW020 14/09 Q1020 NOSIG
13-02-14 LEBL 141600Z 18006KT 9999 FEW020 14/09 Q1020 NOSIG
13-02-14 LEBL 141630Z 20006KT 9999 FEW020 14/09 Q1020 NOSIG
13-02-14 LEBL 141700Z 21005KT 160V220 9999 FEW020 SCT055 13/09 Q1020 NOSIG
13-02-14 LEBL 141730Z 21005KT 9999 FEW020 SCT055 13/09 Q1020 NOSIG
13-02-14 LEBL 141800Z 21004KT 9999 FEW020 SCT055 13/09 Q1020 NOSIG
13-02-14 LEBL 141830Z 22005KT 9999 FEW020 SCT055 13/09 Q1021 NOSIG
13-02-14 LEBL 141900Z 23003KT 210V280 9999 SCT018 SCT055 13/10 Q1021 NOSIG
13-02-14 LEBL 141930Z 23004KT 200V260 9999 SCT018 SCT055 13/09 Q1021 NOSIG
13-02-14 LEBL 142000Z 29003KT 260V350 9999 SCT018 SCT055 13/09 Q1021 NOSIG
13-02-14 LEBL 142030Z 30003KT 250V340 9999 FEW020 SCT055 13/08 Q1021 NOSIG
13-02-14 LEBL 142100Z VRB01KT 9999 FEW020 SCT055 13/08 Q1021 NOSIG
13-02-14 LEBL 142130Z 28003KT 210V340 9999 FEW020 SCT055 12/08 Q1021 NOSIG
13-02-14 LEBL 142200Z 21002KT 9999 FEW025 12/09 Q1020 NOSIG
13-02-14 LEBL 142230Z 32005KT 9999 FEW025 10/08 Q1020 NOSIG
13-02-14 LEBL 142300Z 31005KT 9999 FEW025 10/07 Q1020 NOSIG
13-02-14 LEBL 142330Z 32005KT 9999 FEW025 10/08 Q1020 NOSIG
13-02-15 LEBL 150000Z 31006KT 9999 FEW025 09/07 Q1020 NOSIG
13-02-15 LEBL 150030Z 32006KT 9000 FEW025 09/07 Q1020 NOSIG
13-02-15 LEBL 150100Z 32005KT 9000 FEW025 09/07 Q1019 NOSIG
13-02-15 LEBL 150130Z 32004KT 8000 NSC 09/07 Q1019 NOSIG
13-02-15 LEBL 150200Z 32006KT 8000 NSC 09/06 Q1019 NOSIG
13-02-15 LEBL 150230Z 33008KT 9000 NSC 09/06 Q1019 NOSIG
13-02-15 LEBL NIL
13-02-15 LEBL 150300Z 32007KT 9000 NSC 09/06 Q1018 NOSIG
13-02-15 LEBL 150330Z 32008KT CAVOK 09/06 Q1018 NOSIG
13-02-15 LEBL 150400Z 32007KT 290V350 CAVOK 09/05 Q1018 NOSIG
13-02-15 LEBL 150430Z 33007KT CAVOK 08/05 Q1018 NOSIG
13-02-15 LEBL 150500Z 33007KT CAVOK 08/05 Q1018 NOSIG
13-02-15 LEBL 150530Z 34009KT CAVOK 08/05 Q1018 NOSIG
13-02-15 LEBL 150600Z 34009KT CAVOK 08/05 Q1018 NOSIG
13-02-15 LEBL 150630Z 33009KT CAVOK 08/05 Q1018 NOSIG
13-02-15 LEBL 150700Z 33010KT 310V010 CAVOK 09/05 Q1018 NOSIG
13-02-15 LEBL 150730Z 30015KT 260V330 CAVOK 08/05 Q1019 NOSIG
13-02-15 LEBL 150800Z 31011KT CAVOK 10/05 Q1019 NOSIG
13-02-15 LEBL 150830Z 32009KT 280V350 CAVOK 10/05 Q1019 NOSIG
13-02-15 LEBL 150900Z 33009G19KT 280V350 9999 FEW020 11/05 Q1020 NOSIG
13-02-15 LEBL 150930Z 33008KT 270V350 9999 FEW020 12/05 Q1020 NOSIG
13-02-15 LEBL 151000Z 05011KT 9999 FEW020 13/05 Q1020 NOSIG
13-02-15 LEBL 151030Z 04008KT 010V070 9999 FEW018 SCT025 13/07 Q1020 NOSIG
13-02-15 LEBL 151100Z 05007KT 020V080 9999 FEW018 SCT030 13/07 Q1020 NOSIG
13-02-15 LEBL 151130Z 04004KT 360V080 9999 FEW018 SCT030 14/07 Q1020 NOSIG
13-02-15 LEBL 151200Z 06003KT 030V130 9999 FEW018 BKN030 14/06 Q1020 NOSIG
13-02-15 LEBL 151230Z 11003KT 030V160 9999 FEW020 SCT040 14/06 Q1020 NOSIG
13-02-15 LEBL 151300Z 13005KT 100V160 9999 SCT040 14/07 Q1020 NOSIG
13-02-15 LEBL 151330Z 13008KT 100V170 9999 FEW040 14/06 Q1019 NOSIG
13-02-15 LEBL 151400Z 15007KT 120V180 9999 FEW030 14/07 Q1019 NOSIG
13-02-15 LEBL 151430Z 15007KT 9999 FEW030 14/08 Q1019 NOSIG
13-02-15 LEBL 151500Z 16007KT 130V200 9999 FEW038 14/07 Q1019 NOSIG
13-02-15 LEBL 151530Z 17007KT 9999 SCT036 14/08 Q1019 NOSIG
13-02-15 LEBL 151600Z 18007KT 140V200 9999 SCT036 14/07 Q1019 NOSIG
13-02-15 LEBL 151630Z 18007KT 9999 FEW030 14/08 Q1019 NOSIG
13-02-15 LEBL 151700Z 18005KT 150V210 9999 FEW030 13/08 Q1020 NOSIG
13-02-15 LEBL 151730Z 18004KT 9999 FEW030 13/08 Q1020 NOSIG
13-02-15 LEBL 151800Z 17003KT 9999 SCT030 13/08 Q1020 NOSIG
13-02-15 LEBL 151830Z 18004KT 9999 SCT030 13/08 Q1021 NOSIG
13-02-15 LEBL 151900Z 19004KT 9999 SCT030 13/08 Q1021 NOSIG
13-02-15 LEBL 151930Z 20006KT 9999 BKN033 13/08 Q1021 NOSIG
13-02-15 LEBL 152000Z 20005KT 9999 BKN033 13/08 Q1021 NOSIG
13-02-15 LEBL 152030Z 20004KT 9999 BKN033 13/08 Q1021 NOSIG
13-02-15 LEBL 152100Z 19005KT 9999 BKN033 13/08 Q1021 NOSIG
13-02-15 LEBL 152130Z 20004KT 9999 BKN033 13/08 Q1021 NOSIG
13-02-15 LEBL 152200Z 20005KT 9999 BKN033 13/08 Q1021 NOSIG
13-02-15 LEBL 152230Z 20004KT 9999 BKN033 13/08 Q1021 NOSIG
13-02-15 LEBL 152300Z 22006KT 9999 BKN033 13/08 Q1021 NOSIG
13-02-16 LEBL 160000Z 22006KT 9999 BKN040 13/09 Q1021 NOSIG
13-02-16 LEBL 160030Z 22007KT 9999 FEW018 BKN055 13/09 Q1021 NOSIG
13-02-16 LEBL 160100Z 21008KT 9999 FEW018 BKN055 13/09 Q1021 NOSIG
13-02-16 LEBL 160130Z NIL
13-02-16 LEBL 160200Z 20004KT 9999 RA FEW018 BKN055 13/09 Q1021 NOSIG
13-02-16 LEBL 160230Z 18006KT 150V210 9999 DZ FEW018 BKN055 13/08 Q1021 NOSIG
13-02-16 LEBL 160300Z NIL
13-02-16 LEBL 160300Z 18006KT 9999 DZ FEW018 BKN055 13/08 Q1021 NOSIG
13-02-16 LEBL 160330Z 18003KT 150V270 9999 RA BKN024 13/08 Q1021 NOSIG
13-02-16 LEBL 160400Z 18005KT 9999 RA BKN024 13/08 Q1020 NOSIG
13-02-16 LEBL 160430Z 19003KT 150V240 9999 RA BKN024 12/09 Q1021 NOSIG
13-02-16 LEBL 160500Z 32003KT 260V020 9999 -RA BKN024 12/09 Q1020 NOSIG
13-02-16 LEBL 160530Z VRB02KT 9999 -RA BKN020 12/09 Q1020 NOSIG
13-02-16 LEBL 160600Z 20008KT 9999 DZ BKN020 13/08 Q1020 NOSIG
13-02-16 LEBL 160730Z 21010KT 9999 BKN020 12/10 Q1021 NOSIG
13-02-16 LEBL 160800Z 21006KT 9000 -RA SCT015 SCT025 12/10 Q1021 NOSIG
13-02-16 LEBL 160900Z 22006KT 9999 SCT015 SCT025 12/10 Q1021 NOSIG
13-02-16 LEBL 160930Z 21005KT 9999 SCT020 SCT040 13/10 Q1021 NOSIG
13-02-16 LEBL 161000Z 23005KT 210V290 9999 SCT020 SCT040 13/10 Q1021 NOSIG
13-02-16 LEBL 161030Z 22007KT 9999 SCT020 SCT050 13/10 Q1021 NOSIG
13-02-16 LEBL 161100Z 22007KT 190V260 9999 SCT020 SCT050 13/10 Q1021 NOSIG
13-02-16 LEBL 161130Z 23009KT 9999 SCT020 SCT050 13/10 Q1021 NOSIG
13-02-16 LEBL 161230Z 22009KT 9000 SCT020 SCT040 13/11 Q1020 NOSIG
13-02-16 LEBL 161300Z 22009KT 9999 SCT020 14/11 Q1020 NOSIG
13-02-16 LEBL 161330Z 22012KT 9999 SCT020 14/11 Q1019 NOSIG
13-02-16 LEBL 161400Z 22013KT 9999 SCT020 14/11 Q1019 NOSIG
13-02-16 LEBL 161430Z 23014KT 9999 SCT020 13/11 Q1019 NOSIG
13-02-16 LEBL 161500Z 23013KT 9999 SCT020 SCT056 14/11 Q1019 NOSIG
13-02-16 LEBL 161530Z 22011KT 9999 SCT020 SCT056 13/11 Q1018 NOSIG
13-02-16 LEBL 161600Z 22009KT 9999 SCT015 BKN056 14/11 Q1018 NOSIG
13-02-16 LEBL 161630Z 23009KT 9999 SCT020 SCT056 13/11 Q1018 NOSIG
13-02-16 LEBL 161700Z 24010KT 9999 SCT020 BKN056 13/11 Q1018 NOSIG
13-02-16 LEBL 161730Z 23009KT 9999 SCT015 13/10 Q1018 NOSIG
13-02-16 LEBL 161800Z 23010KT 9999 SCT015 13/11 Q1018 NOSIG
13-02-16 LEBL 161830Z 23009KT 9999 SCT015 SCT056 12/10 Q1018 NOSIG
13-02-16 LEBL 161900Z 25006KT 9999 SCT015 SCT056 13/10 Q1019 NOSIG
13-02-16 LEBL 161930Z 24004KT 210V270 9999 SCT015 SCT056 12/10 Q1019 NOSIG
13-02-16 LEBL NIL
13-02-16 LEBL 162100Z 27001KT 9999 FEW020 SCT056 12/10 Q1019 NOSIG
13-02-16 LEBL 162130Z 03007KT 9999 BKN025 12/10 Q1019 NOSIG
13-02-16 LEBL 162200Z 04006KT 9999 BKN025 12/10 Q1019 NOSIG
13-02-16 LEBL 162230Z 05005KT 9999 FEW016 SCT025 BKN055 12/10 Q1018 NOSIG
13-02-16 LEBL 162300Z 05006KT 9999 FEW016 SCT025 BKN055 12/10 Q1018 NOSIG
13-02-16 LEBL 162330Z 05004KT 9999 FEW016 SCT055 12/10 Q1018 NOSIG
13-02-17 LEBL 170000Z 06006KT 9999 SCT020 12/10 Q1018 NOSIG
13-02-17 LEBL 170030Z 06006KT 9999 FEW018 SCT022 12/10 Q1018 NOSIG
13-02-17 LEBL 170100Z 06006KT 9999 DZ FEW016 BKN024 12/10 Q1018 NOSIG
13-02-17 LEBL 170130Z 06006KT 9999 DZ BKN016 12/10 Q1018 NOSIG
13-02-17 LEBL 170200Z 05006KT 9999 DZ BKN016 12/10 Q1018 NOSIG
13-02-17 LEBL 170230Z 05006KT 9999 BKN016 11/10 Q1017 REDZ NOSIG
13-02-17 LEBL 170300Z 06006KT 9999 DZ BKN018 11/10 Q1017 NOSIG
13-02-17 LEBL 170400Z 05006KT 9999 FEW015 BKN020 11/09 Q1017 NOSIG
13-02-17 LEBL 170430Z 05006KT 9999 SCT015 BKN055 11/09 Q1016 NOSIG
13-02-17 LEBL 170500Z 02004KT 9999 BKN015 11/09 Q1016 NOSIG
13-02-17 LEBL 170530Z 03005KT 9999 BKN016 11/09 Q1016 NOSIG
13-02-17 LEBL 170600Z 03005KT 9999 FEW016 BKN055 11/09 Q1016 NOSIG
13-02-17 LEBL 170630Z 02004KT 9999 FEW016 SCT030 BKN055 11/09 Q1016 NOSIG
13-02-17 LEBL 170700Z 03005KT 010V070 9999 FEW016 SCT030 BKN055 11/09 Q1016 NOSIG
13-02-17 LEBL 170730Z 04005KT 360V060 9999 FEW018 SCT030 BKN055 11/09 Q1016 NOSIG
13-02-17 LEBL 170800Z 04004KT 330V070 9999 FEW016 BKN035 11/09 Q1016 NOSIG
13-02-17 LEBL 170830Z 03003KT 330V080 9999 FEW016 BKN035 12/09 Q1016 NOSIG
13-02-17 LEBL 170900Z 02005KT 290V090 9999 FEW015 SCT025 BKN035 12/09 Q1016 NOSIG
13-02-17 LEBL 170930Z NIL
13-02-17 LEBL 170930Z 04007KT 9999 FEW015 SCT025 BKN035 12/09 Q1016 NOSIG
13-02-17 LEBL 171000Z 05007KT 020V080 9999 FEW015 SCT025 BKN035 13/09 Q1016 NOSIG
13-02-17 LEBL 171030Z 06008KT 010V080 9999 FEW015 SCT025 BKN040 13/09 Q1016 NOSIG
13-02-17 LEBL 171100Z 06008KT 030V090 9999 FEW015 SCT025 BKN040 13/09 Q1016 NOSIG
13-02-17 LEBL 171130Z 06009KT 9999 FEW015 BKN025 13/09 Q1016 NOSIG
13-02-17 LEBL 171300Z 08007KT 050V110 9999 SCT015 BKN022 13/09 Q1015 NOSIG
13-02-17 LEBL 171330Z 08007KT 060V120 9999 FEW015 SCT022 BKN033 13/09 Q1014 NOSIG
13-02-17 LEBL 171400Z 09006KT 9999 FEW015 SCT030 BKN055 13/09 Q1014 NOSIG
13-02-17 LEBL 171430Z 08007KT 9999 FEW012 SCT055 14/09 Q1013 NOSIG
13-02-17 LEBL 171500Z 09006KT 060V120 9999 FEW015 SCT055 14/09 Q1013 NOSIG
13-02-17 LEBL 171530Z 09007KT 9999 FEW015 SCT020 13/09 Q1013 NOSIG
13-02-17 LEBL 171600Z 10005KT 9999 FEW015 SCT020 13/09 Q1013 NOSIG
13-02-17 LEBL 171630Z 08005KT 040V110 9999 FEW015 SCT020 13/10 Q1013 NOSIG
13-02-17 LEBL 171700Z 07005KT 040V100 9999 FEW015 13/10 Q1013 NOSIG
13-02-17 LEBL 171730Z 08005KT 9999 SCT014 13/10 Q1013 NOSIG
13-02-17 LEBL 171800Z 09003KT 9999 FEW009 SCT014 13/10 Q1013 NOSIG
13-02-17 LEBL 171830Z 06003KT 020V100 9999 FEW009 SCT014 13/10 Q1013 NOSIG
13-02-17 LEBL 171900Z 06003KT 020V110 9999 FEW012 13/11 Q1013 NOSIG
13-02-17 LEBL 171930Z 08003KT 020V110 9999 FEW020 13/10 Q1013 NOSIG
13-02-17 LEBL 172000Z 09003KT 040V110 9999 SCT020 12/10 Q1013 NOSIG
13-02-17 LEBL 172030Z 00000KT 9999 SCT023 12/10 Q1013 NOSIG
13-02-17 LEBL 172100Z VRB01KT 9999 SCT020 12/10 Q1013 NOSIG
13-02-17 LEBL 172130Z VRB01KT 9999 SCT020 12/11 Q1013 NOSIG
13-02-17 LEBL 172200Z 04004KT 330V060 9999 FEW018 SCT025 13/11 Q1013 NOSIG
13-02-17 LEBL 172230Z 05003KT 9999 FEW018 SCT022 12/11 Q1013 NOSIG
13-02-17 LEBL 172300Z 00000KT 9999 FEW018 SCT043 12/10 Q1013 NOSIG
13-02-17 LEBL 172330Z 00000KT 9999 FEW018 SCT043 12/10 Q1013 NOSIG
13-02-18 LEBL 180000Z 30001KT 9000 SCT015 SCT043 12/10 Q1013 NOSIG
13-02-18 LEBL 180030Z 00000KT 9000 SCT015 SCT043 12/10 Q1013 NOSIG
13-02-18 LEBL 180100Z 00000KT 9000 SCT020 SCT050 12/10 Q1012 NOSIG
13-02-18 LEBL 180130Z 00000KT 9000 SCT020 SCT050 12/09 Q1012 NOSIG
13-02-18 LEBL 180200Z 34001KT 9000 SCT020 SCT050 11/09 Q1012 NOSIG
13-02-18 LEBL 180230Z 32003KT 290V360 8000 SCT020 SCT050 11/09 Q1012 NOSIG
13-02-18 LEBL 180300Z 32003KT 8000 SCT020 SCT050 11/09 Q1011 NOSIG
13-02-18 LEBL 180330Z 31003KT 8000 SCT018 SCT050 11/09 Q1011 NOSIG
13-02-18 LEBL 180400Z 34003KT 7000 SCT018 SCT050 11/09 Q1011 NOSIG
13-02-18 LEBL 180430Z 34004KT 7000 SCT018 SCT050 11/09 Q1011 NOSIG
13-02-18 LEBL 180500Z 32004KT 7000 SCT018 SCT055 11/09 Q1011 NOSIG
13-02-18 LEBL 180530Z 34005KT 7000 SCT018 SCT055 11/09 Q1012 NOSIG
13-02-18 LEBL 180600Z 34004KT 7000 SCT018 SCT055 11/09 Q1012 NOSIG
13-02-18 LEBL 180630Z 33003KT 7000 SCT019 SCT055 11/09 Q1012 NOSIG
13-02-18 LEBL 180700Z 33005KT 7000 SCT019 SCT055 11/09 Q1012 NOSIG
13-02-18 LEBL 180730Z 33004KT 7000 SCT020 SCT055 11/09 Q1012 NOSIG
13-02-18 LEBL 180800Z 33003KT 290V010 7000 BKN030 SCT055 11/09 Q1013 NOSIG
13-02-18 LEBL 180830Z 32004KT 230V010 7000 SCT015 SCT025 12/09 Q1013 NOSIG
13-02-18 LEBL 180900Z 34003KT 260V020 7000 BKN014 SCT030 12/09 Q1013 NOSIG
13-02-18 LEBL 180930Z 35004KT 310V010 8000 BKN016 SCT025 12/09 Q1013 NOSIG
13-02-18 LEBL 181000Z 03003KT 330V090 9000 BKN020 SCT025 12/09 Q1013 NOSIG
13-02-18 LEBL 181030Z 02002KT 9000 SCT020 BKN030 13/09 Q1013 NOSIG
13-02-18 LEBL 181100Z 09004KT 9000 SCT020 BKN033 13/09 Q1013 NOSIG
13-02-18 LEBL 181130Z 06006KT 030V100 9000 SCT020 BKN033 14/09 Q1014 NOSIG
13-02-18 LEBL 181200Z 08007KT 9999 SCT020 BKN039 13/10 Q1013 NOSIG
13-02-18 LEBL 181230Z 06010KT 9999 SCT020 BKN045 14/09 Q1013 NOSIG
13-02-18 LEBL 181300Z 07012KT 9999 SCT020 BKN045 14/09 Q1013 NOSIG
13-02-18 LEBL 181330Z 07013KT 040V100 9999 SCT020 SCT045 14/10 Q1013 NOSIG
13-02-18 LEBL 181400Z 07012KT 9999 FEW020 SCT055 13/10 Q1013 NOSIG
13-02-18 LEBL 181430Z 08013KT 9999 FEW020 SCT055 13/10 Q1013 NOSIG
13-02-18 LEBL 181500Z 08011KT 9999 FEW020 SCT055 13/10 Q1013 NOSIG
13-02-18 LEBL 181530Z 08009KT 9999 FEW020 SCT055 13/09 Q1013 NOSIG
13-02-18 LEBL 181600Z 08011KT 9999 FEW020 SCT055 13/10 Q1013 NOSIG
13-02-18 LEBL 181630Z 07007KT 9999 FEW020 13/09 Q1014 NOSIG
13-02-18 LEBL 181700Z 07009KT 9999 FEW020 13/09 Q1014 NOSIG
13-02-18 LEBL 181730Z 07008KT 9999 FEW015 SCT020 13/09 Q1014 NOSIG
13-02-18 LEBL 181800Z 08008KT 9999 FEW016 BKN038 13/09 Q1015 NOSIG
13-02-18 LEBL 181830Z 08008KT 9999 FEW016 BKN044 13/09 Q1015 NOSIG
13-02-18 LEBL 181900Z 09007KT 9999 FEW016 SCT044 13/09 Q1015 NOSIG
13-02-18 LEBL 181930Z 08009KT 9999 FEW016 SCT044 13/09 Q1015 NOSIG
13-02-18 LEBL 182000Z 07009KT 9999 FEW011 SCT016 12/09 Q1015 NOSIG
13-02-18 LEBL 182030Z 07010KT 9999 FEW011 SCT016 12/09 Q1015 NOSIG
13-02-18 LEBL 182100Z 07009KT 9999 FEW011 SCT016 12/09 Q1016 NOSIG
13-02-18 LEBL 182130Z 07010KT 9999 FEW016 12/09 Q1016 NOSIG
13-02-18 LEBL 182200Z 06010KT 9999 FEW016 12/08 Q1016 NOSIG
13-02-18 LEBL 182230Z 05009KT 9999 FEW016 SCT030 12/09 Q1016 NOSIG
13-02-18 LEBL 182300Z 05010KT 9999 FEW016 SCT028 12/09 Q1016 NOSIG
13-02-18 LEBL 182330Z 05008KT 9999 FEW017 12/08 Q1016 NOSIG
13-02-19 LEBL 190000Z 05008KT 9999 FEW017 BKN025 12/08 Q1016 NOSIG
13-02-19 LEBL 190100Z 05010KT 9999 FEW016 SCT020 BKN030 12/09 Q1016 NOSIG
13-02-19 LEBL 190130Z 05009KT 9999 FEW019 SCT030 12/09 Q1016 NOSIG
13-02-19 LEBL 190200Z 07007KT 9999 FEW019 SCT031 12/09 Q1016 NOSIG
13-02-19 LEBL 190230Z 06008KT 9999 FEW019 SCT031 12/08 Q1016 NOSIG
13-02-19 LEBL 190300Z 05009KT 9999 SCT015 BKN031 12/09 Q1016 NOSIG
13-02-19 LEBL 190330Z 04009KT 9999 SCT015 BKN031 12/08 Q1016 NOSIG
13-02-19 LEBL 190400Z 05009KT 9999 SCT018 BKN031 12/09 Q1016 NOSIG
13-02-19 LEBL 190430Z 06009KT 9999 SCT018 BKN040 12/08 Q1016 NOSIG
13-02-19 LEBL 190500Z 05009KT 9999 SCT020 11/08 Q1016 NOSIG
13-02-19 LEBL 190530Z 05009KT 9999 SCT020 12/08 Q1016 NOSIG
13-02-19 LEBL 190600Z 05007KT 9999 FEW020 SCT025 11/08 Q1016 NOSIG
13-02-19 LEBL 190630Z 05007KT 9999 FEW020 SCT030 11/08 Q1016 NOSIG
13-02-19 LEBL 190700Z 02004KT 9999 FEW020 BKN025 10/07 Q1016 NOSIG
13-02-19 LEBL 190730Z 08006KT 9999 SCT020 SCT040 11/07 Q1016 NOSIG
13-02-19 LEBL 190800Z 08007KT 9999 FEW020 SCT040 11/08 Q1016 NOSIG
13-02-19 LEBL 190830Z 09009KT 060V120 9999 FEW020 SCT040 13/07 Q1016 NOSIG
13-02-19 LEBL 190900Z 09007KT 9999 FEW020 SCT040 13/07 Q1016 NOSIG
13-02-19 LEBL 190930Z 09007KT 9999 FEW020 SCT040 13/07 Q1017 NOSIG
13-02-19 LEBL 191000Z 10008KT 9999 FEW020 SCT042 13/07 Q1017 NOSIG
13-02-19 LEBL 191030Z 10008KT 9999 FEW020 SCT042 14/06 Q1017 NOSIG
13-02-19 LEBL 191100Z 09007KT 060V150 9999 FEW020 SCT040 14/07 Q1017 NOSIG
13-02-19 LEBL 191130Z 11009KT 9999 FEW020 SCT040 14/07 Q1017 NOSIG
13-02-19 LEBL 191200Z 11009KT 9999 FEW020 SCT042 14/07 Q1016 NOSIG
13-02-19 LEBL 191230Z 11008KT 9999 FEW020 SCT042 14/06 Q1016 NOSIG
13-02-19 LEBL 191300Z 11009KT 080V150 9999 FEW025 14/07 Q1016 NOSIG
13-02-19 LEBL 191330Z 11007KT 070V150 9999 FEW025 14/07 Q1015 NOSIG
13-02-19 LEBL 191400Z 10009KT 9999 FEW025 14/07 Q1015 NOSIG
13-02-19 LEBL 191430Z 12009KT 9999 FEW025 14/07 Q1015 NOSIG
13-02-19 LEBL 191500Z 13008KT 9999 FEW025 14/07 Q1014 NOSIG
13-02-19 LEBL 191530Z 13007KT 9999 FEW025 14/07 Q1014 NOSIG
13-02-19 LEBL 191600Z 13007KT 100V170 9999 FEW025 13/07 Q1014 NOSIG
13-02-19 LEBL 191630Z 13006KT 100V160 9999 FEW025 13/06 Q1014 NOSIG
13-02-19 LEBL 191700Z 12004KT 9999 FEW025 13/06 Q1014 NOSIG
13-02-19 LEBL 191730Z 13003KT 9999 FEW025 13/06 Q1014 NOSIG
13-02-19 LEBL 191800Z 12003KT 9999 FEW025 12/06 Q1014 NOSIG
13-02-19 LEBL 191830Z 13003KT 9999 FEW025 12/06 Q1014 NOSIG
13-02-19 LEBL 191900Z 13002KT 9999 FEW025 12/06 Q1014 NOSIG
13-02-19 LEBL 191930Z 15003KT 9999 FEW025 11/06 Q1014 NOSIG
13-02-19 LEBL 192000Z VRB02KT 9999 FEW025 10/06 Q1014 NOSIG
13-02-19 LEBL 192030Z 29003KT 270V350 9999 FEW025 10/06 Q1015 NOSIG
13-02-19 LEBL 192100Z 30003KT 9999 FEW025 09/06 Q1015 NOSIG
13-02-19 LEBL 192130Z 32005KT 290V350 9999 FEW025 09/06 Q1015 NOSIG
13-02-19 LEBL 192200Z 32006KT 9999 FEW025 09/06 Q1015 NOSIG
13-02-19 LEBL 192230Z 32008KT 260V350 9999 FEW025 08/05 Q1015 NOSIG
13-02-19 LEBL 192300Z 33009KT 9999 FEW025 08/05 Q1015 NOSIG
13-02-19 LEBL 192330Z 33009KT 9999 FEW025 08/06 Q1014 NOSIG
13-02-20 LEBL 200000Z 33009KT 9999 FEW025 08/05 Q1014 NOSIG
13-02-20 LEBL 200030Z 33009KT 9999 FEW025 08/05 Q1014 NOSIG
13-02-20 LEBL 200100Z 32008KT 9999 FEW025 08/05 Q1014 NOSIG
13-02-20 LEBL 200130Z 33009KT 9999 FEW020 07/05 Q1014 NOSIG
13-02-20 LEBL 200200Z 32008KT 9999 FEW020 SCT030 08/05 Q1014 NOSIG
13-02-20 LEBL 200230Z 32009KT 9999 FEW020 SCT030 07/05 Q1014 NOSIG
13-02-20 LEBL 200300Z 33010KT 9999 FEW020 SCT034 08/05 Q1014 NOSIG
13-02-20 LEBL 200330Z 33011KT 9999 FEW020 SCT034 07/05 Q1013 NOSIG
13-02-20 LEBL 200400Z 33011KT 9999 FEW020 SCT034 07/05 Q1013 NOSIG
13-02-20 LEBL 200430Z 33011KT 9999 FEW020 SCT034 07/05 Q1013 NOSIG
13-02-20 LEBL 200500Z 33011KT 9999 FEW020 07/05 Q1013 NOSIG
13-02-20 LEBL 200530Z 33012KT 9999 FEW020 07/04 Q1013 NOSIG
13-02-20 LEBL 200600Z 33011KT 9999 FEW020 06/04 Q1013 NOSIG
13-02-20 LEBL 200630Z 33012KT 9000 FEW020 06/04 Q1013 NOSIG
13-02-20 LEBL 200700Z 33012KT 9000 FEW020 07/04 Q1013 NOSIG
13-02-20 LEBL 200730Z 33013G26KT 9000 FEW020 07/04 Q1013 NOSIG
13-02-20 LEBL 200800Z 32011KT 9000 FEW020 07/04 Q1013 NOSIG
13-02-20 LEBL 200830Z 32009G20KT 280V010 9000 FEW020 08/05 Q1014 NOSIG
13-02-20 LEBL 200900Z 32009KT 250V350 9000 FEW024 09/05 Q1013 NOSIG
13-02-20 LEBL 200930Z 33008KT 9000 FEW024 11/06 Q1013 NOSIG
13-02-20 LEBL 201000Z 34008KT 300V020 9999 FEW024 12/06 Q1013 NOSIG
13-02-20 LEBL 201030Z 33006KT 300V010 9999 FEW024 12/06 Q1013 NOSIG
13-02-20 LEBL 201100Z 27003KT 210V320 9999 FEW024 13/06 Q1013 NOSIG
13-02-20 LEBL 201130Z 21007KT 190V250 CAVOK 13/06 Q1013 NOSIG
13-02-20 LEBL 201200Z 21008KT 180V240 CAVOK 13/07 Q1012 NOSIG
13-02-20 LEBL 201230Z 21010KT 180V240 CAVOK 13/07 Q1012 NOSIG
13-02-20 LEBL 201300Z 20010KT CAVOK 14/07 Q1012 NOSIG
13-02-20 LEBL 201330Z 21011KT CAVOK 14/07 Q1011 NOSIG
13-02-20 LEBL 201400Z 21013KT CAVOK 14/07 Q1011 NOSIG
13-02-20 LEBL 201430Z 21012KT CAVOK 14/08 Q1011 NOSIG
13-02-20 LEBL 201500Z 21012KT CAVOK 14/08 Q1011 NOSIG
13-02-20 LEBL 201530Z 21012KT CAVOK 14/09 Q1011 NOSIG
13-02-20 LEBL 201600Z 21012KT CAVOK 14/08 Q1011 NOSIG
13-02-20 LEBL 201630Z 22012KT CAVOK 13/08 Q1010 NOSIG
13-02-20 LEBL 201700Z 21012KT CAVOK 13/09 Q1011 NOSIG
13-02-20 LEBL 201730Z 22010KT CAVOK 12/09 Q1011 NOSIG
13-02-20 LEBL 201800Z 23010KT 9999 FEW020 12/09 Q1011 NOSIG
13-02-20 LEBL 201830Z 23010KT 9999 FEW020 12/09 Q1011 NOSIG
13-02-20 LEBL 201900Z 23011KT 9999 FEW020 12/09 Q1012 NOSIG
13-02-20 LEBL 201930Z 24008KT 9999 FEW020 12/09 Q1012 NOSIG
13-02-20 LEBL 202030Z 24005KT 9999 FEW020 12/09 Q1012 NOSIG
13-02-20 LEBL 202000Z 24009KT 9999 FEW020 11/09 Q1012 NOSIG
13-02-20 LEBL 202100Z 26004KT 220V290 9999 FEW020 11/09 Q1012 NOSIG
13-02-20 LEBL NIL
13-02-20 LEBL 202130Z 25005KT 230V290 9999 FEW020 10/08 Q1012 NOSIG
13-02-20 LEBL 202200Z 29004KT 9999 FEW040 10/08 Q1012 NOSIG
13-02-20 LEBL 202230Z 31004KT 280V350 9999 FEW040 10/07 Q1012 NOSIG
13-02-20 LEBL 202300Z 31003KT 9999 FEW040 09/07 Q1012 NOSIG
13-02-20 LEBL 202330Z 30004KT 9000 FEW025 SCT053 09/07 Q1012 NOSIG
13-02-21 LEBL 210000Z 31005KT 8000 FEW011 SCT020 09/07 Q1012 NOSIG
13-02-21 LEBL 210030Z 32007KT 8000 BKN014 09/07 Q1011 NOSIG
13-02-21 LEBL 210100Z 32006KT 7000 BKN015 10/08 Q1011 NOSIG
13-02-21 LEBL 210130Z 32006KT 7000 BKN015 10/07 Q1011 NOSIG
13-02-21 LEBL 210200Z 31006KT 7000 BKN015 09/07 Q1011 NOSIG
13-02-21 LEBL 210230Z 32008KT 6000 BKN015 10/07 Q1010 NOSIG
13-02-21 LEBL 210300Z 32007KT 6000 BKN015 09/07 Q1010 NOSIG
13-02-21 LEBL 210330Z 33005KT 6000 BKN015 10/07 Q1010 NOSIG
13-02-21 LEBL 210400Z 32007KT 6000 BKN015 10/07 Q1009 NOSIG
13-02-21 LEBL 210430Z 33008KT 6000 BKN015 09/07 Q1009 NOSIG
13-02-21 LEBL 210500Z 33010KT 6000 BKN015 09/06 Q1009 NOSIG
13-02-21 LEBL 210530Z 32010KT 7000 BKN015 09/06 Q1009 NOSIG
13-02-21 LEBL 210600Z 33009KT 7000 BKN015 09/06 Q1009 NOSIG
13-02-21 LEBL 210630Z 32009KT 6000 BKN015 09/06 Q1009 NOSIG
13-02-21 LEBL 210700Z 33010KT 8000 BKN015 08/05 Q1009 NOSIG
13-02-21 LEBL 210730Z 33012KT 290V350 7000 BKN015 08/05 Q1009 NOSIG
13-02-21 LEBL 210800Z 33008KT 290V350 7000 BKN015 08/05 Q1009 NOSIG
13-02-21 LEBL 210830Z 33008KT 7000 BKN016 09/06 Q1010 NOSIG
13-02-21 LEBL 210900Z 32007KT 250V040 6000 BKN017 10/06 Q1010 NOSIG
13-02-21 LEBL 210930Z 34006KT 280V360 6000 FEW016 BKN023 11/06 Q1009 NOSIG
13-02-21 LEBL 211000Z 02005KT 340V070 7000 BKN020 12/07 Q1009 NOSIG
13-02-21 LEBL 211030Z 04007KT 020V080 8000 BKN020 13/08 Q1009 NOSIG
13-02-21 LEBL 211100Z 07008KT 040V110 9000 BKN020 13/08 Q1009 NOSIG
13-02-21 LEBL 211130Z 07008KT 040V100 8000 FEW018 13/08 Q1009 NOSIG
13-02-21 LEBL 211200Z 08007KT 8000 FEW022 13/08 Q1008 NOSIG
13-02-21 LEBL 211230Z 08007KT 050V130 9000 SCT017 14/09 Q1008 NOSIG
13-02-21 LEBL 211300Z 09007KT 9000 FEW015 13/09 Q1007 NOSIG
13-02-21 LEBL 211330Z 08007KT 9000 FEW020 13/08 Q1007 NOSIG
13-02-21 LEBL 211400Z 10005KT 070V130 9000 FEW020 SCT055 13/08 Q1007 NOSIG
13-02-21 LEBL 211430Z 11006KT 9000 FEW020 SCT055 13/09 Q1006 NOSIG
13-02-21 LEBL 211500Z 10007KT 060V140 9999 FEW020 13/09 Q1006 NOSIG
13-02-21 LEBL 211530Z 08006KT 9999 FEW020 SCT055 13/09 Q1006 NOSIG
13-02-21 LEBL 211600Z 10006KT 9999 FEW020 SCT055 13/09 Q1006 NOSIG
13-02-21 LEBL 211630Z 11005KT 9999 FEW020 SCT055 13/09 Q1006 NOSIG
13-02-21 LEBL 211700Z 11004KT 9999 FEW020 13/09 Q1006 NOSIG
13-02-21 LEBL 211730Z VRB02KT 9999 FEW020 13/09 Q1006 NOSIG
13-02-21 LEBL 211800Z 11002KT 9999 SCT015 13/10 Q1006 NOSIG
13-02-21 LEBL 211830Z VRB02KT 9999 FEW012 BKN016 13/10 Q1006 NOSIG
13-02-21 LEBL 211900Z 07005KT 9999 SCT013 13/10 Q1006 NOSIG
13-02-21 LEBL 211930Z 07006KT 030V100 9999 FEW015 13/10 Q1005 NOSIG
13-02-21 LEBL 212000Z 07005KT 9000 DZ FEW020 SCT056 13/10 Q1005 NOSIG
13-02-21 LEBL 212030Z 04006KT 340V070 9000 FEW020 SCT056 12/10 Q1005 NOSIG
13-02-21 LEBL 212100Z 04006KT 010V070 8000 SCT020 12/10 Q1005 NOSIG
13-02-21 LEBL 212130Z 05005KT 360V070 8000 FEW020 12/10 Q1005 NOSIG
13-02-21 LEBL 212200Z 04005KT 360V070 8000 FEW015 12/09 Q1004 NOSIG
13-02-21 LEBL 212230Z 03003KT 8000 FEW015 12/09 Q1004 NOSIG
13-02-21 LEBL 212300Z 02004KT 8000 FEW015 12/09 Q1004 NOSIG
13-02-21 LEBL 212330Z 03003KT 8000 FEW015 12/09 Q1004 NOSIG
13-02-22 LEBL 220000Z 05004KT 8000 FEW015 12/09 Q1003 NOSIG
13-02-22 LEBL 220030Z 05005KT 8000 FEW015 12/09 Q1003 NOSIG
13-02-22 LEBL 220100Z 05003KT 8000 FEW015 12/09 Q1003 NOSIG
13-02-22 LEBL 220130Z 04004KT 8000 FEW015 12/09 Q1002 NOSIG
13-02-22 LEBL 220200Z 05004KT 8000 SCT020 11/09 Q1002 NOSIG
13-02-22 LEBL 220230Z NIL
13-02-22 LEBL 220230Z 08003KT 5000 BR SCT020 12/10 Q1001 NOSIG
13-02-22 LEBL 220300Z 08004KT 040V100 5000 BR SCT020 12/10 Q1001 NOSIG
13-02-22 LEBL 220330Z 06004KT 030V090 7000 SCT010 12/10 Q1001 NOSIG
13-02-22 LEBL 220400Z 07009KT 7000 SCT010 12/10 Q1000 NOSIG
13-02-22 LEBL 220430Z 07011KT 7000 BKN010 12/10 Q1000 NOSIG
13-02-22 LEBL 220500Z 07015KT 7000 BKN010 11/09 Q1000 NOSIG
13-02-22 LEBL 220530Z 06013KT 7000 BKN010 10/08 Q1000 NOSIG
13-02-22 LEBL 220600Z 06014KT 030V100 7000 BKN010 10/07 Q1000 NOSIG
13-02-22 LEBL 220630Z 06016KT 9999 BKN010 09/07 Q1000 NOSIG
13-02-22 LEBL 220700Z 06017KT 9999 BKN010 09/06 Q1001 NOSIG
13-02-22 LEBL 220730Z 06014KT 9999 BKN010 09/06 Q1001 NOSIG
13-02-22 LEBL 220800Z 07014KT 9999 BKN010 09/06 Q1001 NOSIG
13-02-22 LEBL 220830Z 06014KT 9999 BKN010 09/06 Q1002 NOSIG
13-02-22 LEBL 220930Z 07015KT 9999 BKN010 OVC018 08/05 Q1002 NOSIG
13-02-22 LEBL 221000Z 07016KT 9999 SCT012 OVC020 08/04 Q1002 NOSIG
13-02-22 LEBL 221030Z 07014G24KT 040V100 9999 SCT013 OVC021 08/04 Q1002 NOSIG
13-02-22 LEBL 221100Z 07013KT 040V100 9999 SCT014 OVC023 08/04 Q1003 NOSIG
13-02-22 LEBL 221130Z 06013KT 9999 SCT012 OVC023 08/04 Q1003 NOSIG
13-02-22 LEBL 221200Z 07016KT 9999 SCT012 OVC028 08/04 Q1003 NOSIG
13-02-22 LEBL 221230Z 07012KT 9999 BKN012 OVC025 08/04 Q1003 NOSIG
13-02-22 LEBL 221300Z 07012KT 9000 SCT015 OVC022 08/04 Q1002 NOSIG
13-02-22 LEBL 221330Z 07011KT 9000 SCT016 OVC020 08/04 Q1002 NOSIG
13-02-22 LEBL 221400Z 06010KT 9000 BKN016 OVC020 08/04 Q1002 NOSIG
13-02-22 LEBL 221430Z 06009KT 9000 BKN013 OVC020 08/04 Q1002 NOSIG
13-02-22 LEBL 221500Z 07008KT 040V100 9999 BKN012 OVC020 08/05 Q1002 NOSIG
13-02-22 LEBL 221530Z 06008KT 9999 BKN012 OVC020 08/05 Q1002 NOSIG
13-02-22 LEBL 221600Z 06010KT 9999 BKN012 OVC015 08/05 Q1002 NOSIG
13-02-22 LEBL 221630Z 06008KT 9999 BKN012 OVC020 08/05 Q1002 NOSIG
13-02-22 LEBL 221700Z 06009KT 9999 BKN012 OVC020 08/05 Q1002 NOSIG
13-02-22 LEBL 221730Z 06008KT 9999 BKN012 OVC020 08/06 Q1002 NOSIG
13-02-22 LEBL 221800Z 07009KT 9999 BKN012 OVC020 09/06 Q1002 NOSIG
13-02-22 LEBL NIL
13-02-22 LEBL 221830Z 08009KT 050V110 9999 BKN012 OVC020 09/05 Q1002 NOSIG
13-02-22 LEBL 221900Z 08010KT 9999 BKN012 OVC020 09/06 Q1002 NOSIG
13-02-22 LEBL 221930Z 08011KT 9999 BKN012 OVC020 09/05 Q1002 NOSIG
13-02-22 LEBL 222000Z 08011KT 9999 BKN012 OVC020 09/05 Q1002 NOSIG
13-02-22 LEBL 222030Z 07011KT 9999 SCT012 OVC018 09/06 Q1002 NOSIG
13-02-22 LEBL 222130Z 07012KT 050V110 5000 RA SCT010 OVC017 09/06 Q1002 NOSIG
13-02-22 LEBL 222200Z 07014KT 5000 RA SCT012 OVC018 08/06 Q1001 NOSIG
13-02-22 LEBL 222230Z 07014KT 5000 RA SCT012 BKN020 08/06 Q1001 NOSIG
13-02-22 LEBL 222300Z 05015KT 8000 -RA SCT013 BKN022 07/04 Q1001 NOSIG
13-02-22 LEBL 222330Z 05017KT 7000 RA SCT017 BKN025 07/05 Q1000 NOSIG
13-02-23 LEBL 230000Z 05015KT 020V080 8000 -RA SCT015 BKN022 07/04 Q0999 NOSIG
13-02-23 LEBL 230030Z 05016KT 6000 RA SCT012 BKN018 06/04 Q0999 NOSIG
13-02-23 LEBL 230100Z 06018KT 5000 RA SCT012 BKN020 07/04 Q0999 NOSIG
13-02-23 LEBL 230116Z 05021KT 2500 +RA SCT010 BKN015 06/03 Q0998 NOSIG
13-02-23 LEBL 230130Z 06021KT 5000 1500 +RA SCT010 BKN015 06/04 Q0998 NOSIG
13-02-23 LEBL 230200Z 03015KT 360V060 3000 1200 RA SCT011 BKN015 FEW020TCU 04/03 Q0998 NOSIG
13-02-23 LEBL 230230Z 01011KT 2000 +RASN SCT008 BKN015 FEW020TCU 03/03 Q0998 NOSIG
13-02-23 LEBL 230300Z 03013KT 3000 RASN SCT005 BKN012 FEW020TCU 03/02 Q0998 NOSIG
13-02-23 LEBL 230330Z 03010KT 3000 RASN SCT006 BKN013 FEW020TCU 03/02 Q0997 NOSIG
13-02-23 LEBL 230400Z 04010KT 3500 SNRA SCT005 OVC010 03/02 Q0998 NOSIG
13-02-23 LEBL 230430Z 04014KT 3000 SN SCT007 OVC012 02/02 Q0998 NOSIG
13-02-23 LEBL 230500Z 03008KT 2500 SN SCT005 OVC013 02/02 Q0999 NOSIG
13-02-23 LEBL 230523Z 34005KT 1200 R25R/P2000 +SN SCT005 OVC010 01/01 Q1000 NOSIG
13-02-23 LEBL 230530Z 31004KT 250V010 1200 R25R/P2000 SN SCT005 OVC010 01/01 Q1000
13-02-23 LEBL 230600Z 27003KT 1800 +SN SCT005 OVC010 01/01 Q1000 BECMG -SN
13-02-23 LEBL 230630Z 27003KT 2500 SN SCT008 BKN015 02/02 Q1001 NOSIG
13-02-23 LEBL 230700Z VRB01KT 3500 -SNRA FEW007 SCT015 BKN025 02/02 Q1001 NOSIG
13-02-23 LEBL 230730Z 28003KT 250V320 3500 -SN FEW006 SCT013 BKN022 02/02 Q1001
13-02-23 LEBL 230800Z 30004KT 260V350 4000 -RASN FEW006 SCT015 BKN040 02/02 Q1002
13-02-23 LEBL 230830Z 31005KT 260V030 3800 BR SCT006 BKN015 03/02 Q1002 NOSIG
13-02-23 LEBL 230900Z 29003KT 240V010 4000 BR SCT006 BKN015 03/03 Q1002 NOSIG
13-02-23 LEBL 230917Z 32005KT 290V070 4000 BR SCT006 BKN012 04/03 Q1002 NOSIG
13-02-23 LEBL 230930Z 33005KT 4000 BR FEW006 BKN012 04/03 Q1003 NOSIG
13-02-23 LEBL 231000Z NIL
13-02-23 LEBL 231000Z 34005KT 260V360 4000 BR FEW006 SCT015 BKN020 04/03 Q1003
13-02-23 LEBL 231030Z 32006KT 260V340 7000 FEW009 SCT018 05/04 Q1003 NOSIG
13-02-23 LEBL 231100Z 33009KT 9999 SCT014 05/02 Q1003 NOSIG
13-02-23 LEBL 231130Z 31009KT 260V350 9999 SCT014 06/01 Q1004 NOSIG
13-02-23 LEBL 231200Z 29010KT 9999 FEW015 06/M00 Q1004 NOSIG
13-02-23 LEBL 231230Z 30011KT 9999 FEW015 07/00 Q1003 NOSIG
13-02-23 LEBL 231300Z 30009KT 9999 FEW015 07/M02 Q1004 NOSIG
13-02-23 LEBL 231330Z 29009KT 250V330 9999 FEW018 08/M04 Q1004 NOSIG
13-02-23 LEBL 231400Z 29012KT 250V330 9999 FEW018 08/M01 Q1004 NOSIG
13-02-23 LEBL 231430Z 29012KT 230V330 9999 FEW018 08/M01 Q1004 NOSIG
13-02-23 LEBL 231500Z 29012KT 260V320 9999 FEW020 09/M02 Q1004 NOSIG
13-02-23 LEBL 231530Z 29010KT 250V320 9999 FEW020 09/M03 Q1004 NOSIG
13-02-23 LEBL 231600Z 27010KT 9999 FEW020 09/M04 Q1004 NOSIG
13-02-23 LEBL 231630Z 28008KT 250V310 9999 FEW020 09/M03 Q1004 NOSIG
13-02-23 LEBL 231700Z 26006KT 230V310 9999 FEW022 09/M03 Q1005 NOSIG
13-02-23 LEBL 231730Z 28005KT 9999 FEW022 09/M03 Q1005 NOSIG
13-02-23 LEBL 231800Z 27008KT 240V300 9999 FEW022 08/M03 Q1005 NOSIG
13-02-23 LEBL 231830Z 28009KT 260V320 9999 FEW020 07/M03 Q1006 NOSIG
13-02-23 LEBL 231900Z 34008KT 300V020 9999 FEW020 07/M03 Q1007 NOSIG
13-02-23 LEBL 231930Z 35009KT 330V050 9999 FEW020 06/M03 Q1008 NOSIG
13-02-23 LEBL 232000Z 35009KT 300V030 9999 FEW020 06/M04 Q1008 NOSIG
13-02-23 LEBL 232030Z 34009KT 310V010 9999 FEW020 05/M04 Q1009 NOSIG
13-02-23 LEBL 232100Z 32005KT 9999 FEW020 05/M03 Q1009 NOSIG
13-02-23 LEBL 232130Z NIL
13-02-23 LEBL 232130Z 32011KT 9999 FEW020 04/M05 Q1010 NOSIG
13-02-23 LEBL 232200Z 33012KT 9999 FEW020 05/M09 Q1010 NOSIG
13-02-23 LEBL 232230Z 33006KT 300V010 9999 FEW020 05/M09 Q1010 NOSIG
13-02-23 LEBL 232300Z 32010KT 9999 FEW020 05/M10 Q1010 NOSIG
13-02-23 LEBL 232330Z NIL
13-02-24 LEBL 240000Z 32011KT 9999 FEW020 05/M12 Q1010 NOSIG
13-02-24 LEBL 240030Z 32012KT 9999 FEW020 05/M12 Q1011 NOSIG
13-02-24 LEBL 240100Z 31009KT 290V350 9999 FEW020 05/M11 Q1011 NOSIG
13-02-24 LEBL 240130Z 31011KT 9999 FEW020 05/M11 Q1011 NOSIG
13-02-24 LEBL 240200Z 31010KT 9999 FEW020 05/M11 Q1011 NOSIG
13-02-24 LEBL 240230Z 32014KT 9999 FEW020 05/M10 Q1010 NOSIG
13-02-24 LEBL 240300Z 33013KT 9999 FEW020 04/M10 Q1011 NOSIG
13-02-24 LEBL 240330Z 32010KT 9999 FEW020 04/M10 Q1011 NOSIG
13-02-24 LEBL 240400Z 32009KT 290V350 9999 FEW020 04/M10 Q1010 NOSIG
13-02-24 LEBL 240430Z 32014KT 9999 FEW020 04/M09 Q1010 NOSIG
13-02-24 LEBL 240500Z 32013KT 9999 FEW020 04/M08 Q1010 NOSIG
13-02-24 LEBL 240530Z 31008KT 280V340 9999 FEW020 04/M08 Q1011 NOSIG
13-02-24 LEBL 240600Z 30004KT 260V350 9999 FEW020 04/M08 Q1011 NOSIG
13-02-24 LEBL 240630Z 31015KT 9999 FEW020 04/M08 Q1011 NOSIG
13-02-24 LEBL 240700Z 31012KT 9999 FEW020 03/M06 Q1011 NOSIG
13-02-24 LEBL 240730Z 31013KT 260V350 9999 FEW020 03/M06 Q1012 NOSIG
13-02-24 LEBL 240800Z 32010KT 9999 FEW020 04/M05 Q1012 NOSIG
13-02-24 LEBL 240830Z 32007KT 280V010 9999 FEW020 03/M04 Q1012 NOSIG
13-02-24 LEBL 240900Z 31011KT 270V350 9999 FEW020 05/M04 Q1012 NOSIG
13-02-24 LEBL 240930Z 31011G21KT 290V010 9999 FEW020 06/M03 Q1011 NOSIG
13-02-24 LEBL 241000Z 31015KT 290V350 9999 FEW030 07/M04 Q1011 NOSIG
13-02-24 LEBL 241030Z 31013KT 280V340 9999 FEW030 08/M04 Q1011 NOSIG
13-02-24 LEBL 241100Z 31014G24KT 9999 FEW030 09/M04 Q1011 NOSIG
13-02-24 LEBL 241130Z 31015G32KT 280V350 9999 FEW030 09/M07 Q1011 NOSIG
13-02-24 LEBL 241200Z 31015G26KT 260V330 9999 FEW030 10/M07 Q1011 NOSIG
13-02-24 LEBL 241230Z 30012G23KT 250V330 9999 FEW030 10/M06 Q1011 NOSIG
13-02-24 LEBL 241300Z 32008G19KT 260V040 9999 FEW030 10/M07 Q1011 NOSIG
13-02-24 LEBL 241330Z 32010KT 270V010 9999 FEW030 11/M07 Q1010 NOSIG
13-02-24 LEBL 241400Z 30011G22KT 280V340 9999 FEW030 11/M06 Q1010 NOSIG
13-02-24 LEBL 241430Z 31005KT 210V020 9999 FEW030 12/M06 Q1010 NOSIG
13-02-24 LEBL 241500Z 13004KT 9999 FEW030 11/M07 Q1010 NOSIG
13-02-24 LEBL 241530Z 11007KT 050V170 9999 FEW030 12/M07 Q1010 NOSIG
13-02-24 LEBL 241600Z 10010KT 9999 FEW025 11/M02 Q1010 NOSIG
13-02-24 LEBL 241630Z 07013KT 9999 FEW025 10/M00 Q1010 NOSIG
13-02-24 LEBL 241700Z 07014KT 9999 FEW025 09/M02 Q1011 NOSIG
13-02-24 LEBL 241800Z NIL
13-02-24 LEBL 241830Z 07014KT 9999 FEW025 08/02 Q1012 NOSIG
13-02-24 LEBL 241900Z 08011KT 050V110 9999 FEW025 08/02 Q1013 NOSIG
13-02-24 LEBL 241930Z 01003KT 340V070 9999 FEW035 SCT045 07/02 Q1013 NOSIG
13-02-24 LEBL 242000Z 31009KT 9999 FEW035 SCT045 06/02 Q1014 NOSIG
13-02-24 LEBL 242030Z 32009KT 9999 FEW030 06/02 Q1014 NOSIG
13-02-24 LEBL 242100Z 32009KT 9999 FEW030 06/02 Q1014 NOSIG
13-02-24 LEBL 242130Z 32010KT 240V010 9999 FEW030 06/01 Q1014 NOSIG
13-02-24 LEBL 242200Z 32008KT 9999 FEW030 05/01 Q1015 NOSIG
13-02-24 LEBL 242230Z 31008KT 9999 FEW030 05/01 Q1015 NOSIG
13-02-24 LEBL 242300Z 32008KT 9999 FEW030 SCT050 05/01 Q1015 NOSIG
13-02-24 LEBL 242330Z 33007KT 9999 FEW030 SCT050 05/01 Q1015 NOSIG
13-02-25 LEBL 250000Z 33007KT 9999 BKN025 05/01 Q1015 NOSIG
13-02-25 LEBL 250030Z 34010KT 9999 BKN025 04/00 Q1015 NOSIG
13-02-25 LEBL 250100Z 33009KT 9999 BKN025 04/M01 Q1015 NOSIG
13-02-25 LEBL 250130Z 35008KT 9999 FEW025 BKN035 04/M03 Q1015 NOSIG
13-02-25 LEBL 250200Z 33012KT 9999 FEW025 BKN035 04/M05 Q1015 NOSIG
13-02-25 LEBL 250230Z 32009KT 9999 FEW020 SCT040 04/M04 Q1015 NOSIG
13-02-25 LEBL 250300Z 32006KT 9999 FEW020 SCT040 04/M05 Q1015 NOSIG
13-02-25 LEBL 250330Z 33006KT 9999 FEW020 04/M05 Q1015 NOSIG
13-02-25 LEBL 250400Z 35005KT 330V030 9999 FEW020 03/M04 Q1015 NOSIG
13-02-25 LEBL 250430Z 32005KT 9999 FEW020 03/M04 Q1015 NOSIG
13-02-25 LEBL 250500Z 32005KT 9999 FEW020 04/M05 Q1015 NOSIG
13-02-25 LEBL 250530Z 32006KT 9999 FEW020 04/M05 Q1015 NOSIG
13-02-25 LEBL 250600Z 32006KT 9999 FEW018 04/M06 Q1015 NOSIG
13-02-25 LEBL 250630Z 32003KT 290V350 9999 FEW018 04/M06 Q1015 NOSIG
13-02-25 LEBL 250700Z 32003KT 210V350 9999 FEW020 04/M06 Q1015 NOSIG
13-02-25 LEBL 250730Z 34006KT 240V020 9999 FEW020 04/M06 Q1016 NOSIG
13-02-25 LEBL 250800Z 32007KT 280V020 9999 FEW020 04/M05 Q1016 NOSIG
13-02-25 LEBL 250830Z 32008KT 270V350 9999 FEW020 05/M05 Q1016 NOSIG
13-02-25 LEBL 250900Z 33007KT 290V040 9999 FEW020 06/M06 Q1017 NOSIG
13-02-25 LEBL 250930Z 33008G20KT 280V040 9999 FEW025 07/M06 Q1017 NOSIG
13-02-25 LEBL 251000Z 32008KT 9999 FEW025 07/M06 Q1017 NOSIG
13-02-25 LEBL 251030Z 32008KT 250V010 9999 FEW025 07/M06 Q1017 NOSIG
13-02-25 LEBL 251100Z 32007KT 270V040 9999 FEW025 07/M07 Q1017 NOSIG
13-02-25 LEBL 251130Z 36005KT 310V080 9999 FEW025 07/M07 Q1017 NOSIG
13-02-25 LEBL 251200Z 03007KT 330V080 9999 FEW025 08/M06 Q1017 NOSIG
13-02-25 LEBL 251230Z 04005KT 340V070 9999 FEW025 08/M08 Q1016 NOSIG
13-02-25 LEBL 251300Z 08004KT 030V110 9999 FEW025 08/M06 Q1016 NOSIG
13-02-25 LEBL 251330Z 13006KT 100V160 9999 FEW025 09/M06 Q1016 NOSIG
13-02-25 LEBL 251400Z 16005KT 120V190 9999 FEW025 08/M06 Q1016 NOSIG
13-02-25 LEBL 251430Z 17006KT 120V220 9999 FEW025 09/M05 Q1016 NOSIG
13-02-25 LEBL 251500Z 18004KT 150V260 9999 FEW025 09/M06 Q1017 NOSIG
13-02-25 LEBL 251530Z 19005KT 170V230 9999 FEW025 09/M06 Q1017 NOSIG
13-02-25 LEBL 251600Z 17004KT 140V200 9999 FEW025 09/M04 Q1017 NOSIG
13-02-25 LEBL 251630Z 14004KT 110V170 9999 FEW025 09/M06 Q1017 NOSIG
13-02-25 LEBL 251700Z 14004KT 100V180 9999 FEW025 09/M05 Q1017 NOSIG
13-02-25 LEBL 251730Z NIL
13-02-25 LEBL 251800Z 14005KT 9999 FEW025 09/M05 Q1017 NOSIG
13-02-25 LEBL 251830Z NIL
13-02-25 LEBL 251900Z 14003KT 110V170 9999 FEW025 07/M04 Q1018 NOSIG
13-02-25 LEBL 251930Z 13003KT 9999 FEW025 07/M03 Q1018 NOSIG
13-02-25 LEBL 252000Z 12003KT 090V160 9999 FEW025 06/M02 Q1018 NOSIG
13-02-25 LEBL 252030Z 32006KT 180V350 9999 FEW025 05/M02 Q1018 NOSIG
13-02-25 LEBL 252100Z 33004KT 300V010 9999 FEW025 05/M02 Q1018 NOSIG
13-02-25 LEBL 252130Z 33005KT 290V040 9999 FEW025 SCT040 04/M01 Q1019 NOSIG
13-02-25 LEBL 252200Z 34009KT 9999 FEW025 SCT045 05/M00 Q1019 NOSIG
13-02-25 LEBL 252230Z 32006KT 9999 FEW025 SCT045 04/00 Q1019 NOSIG
13-02-25 LEBL 252300Z 33007KT 9999 FEW025 SCT045 05/01 Q1019 NOSIG
13-02-25 LEBL 252330Z 32006KT 9999 FEW025 SCT045 04/01 Q1019 NOSIG
13-02-26 LEBL 260000Z 31007KT 9999 FEW025 SCT035 04/01 Q1019 NOSIG
13-02-26 LEBL 260030Z 34003KT 9999 FEW020 SCT035 05/01 Q1019 NOSIG
13-02-26 LEBL 260100Z 08004KT 9999 FEW020 SCT035 05/01 Q1019 NOSIG
13-02-26 LEBL 260130Z 11015KT 9999 FEW020 SCT035 05/01 Q1019 NOSIG
13-02-26 LEBL 260147Z 16009KT 4000 +RA BKN019 SCT035 05/02 Q1019 NOSIG
13-02-26 LEBL 260200Z 18005KT 150V220 4000 +RA BKN015 SCT026 05/02 Q1020 NOSIG
13-02-26 LEBL 260230Z 23002KT 9000 -RA SCT015 BKN024 05/02 Q1019 NOSIG
13-02-26 LEBL NIL
13-02-26 LEBL 260300Z 32006KT 260V340 9000 -RA SCT020 BKN045 04/01 Q1019 NOSIG
13-02-26 LEBL 260330Z 33006KT 9000 DZ SCT020 BKN045 04/02 Q1019 NOSIG
13-02-26 LEBL 260400Z 33009KT 9000 FEW025 SCT035 04/01 Q1019 NOSIG
13-02-26 LEBL 260430Z 32011KT 9000 FEW025 SCT050 04/01 Q1019 NOSIG
13-02-26 LEBL 260500Z 32010KT 9000 FEW025 SCT050 03/01 Q1019 NOSIG
13-02-26 LEBL 260530Z 33010KT 9000 FEW025 SCT050 02/00 Q1019 NOSIG
13-02-26 LEBL 260600Z 32009KT 9000 FEW025 SCT050 02/M00 Q1019 NOSIG
13-02-26 LEBL 260630Z 32010G22KT 280V340 9000 FEW025 02/M01 Q1019 NOSIG
13-02-26 LEBL 260700Z 33011KT 9999 FEW025TCU 02/M01 Q1019 NOSIG
13-02-26 LEBL 260730Z 33010KT 9999 FEW025TCU 02/M01 Q1020 NOSIG
13-02-26 LEBL 260800Z 32011KT 290V350 9999 FEW025 03/M01 Q1020 NOSIG
13-02-26 LEBL 260830Z 33010G20KT 290V010 9999 FEW025 04/M00 Q1021 NOSIG
13-02-26 LEBL 260900Z 32010KT 280V350 9999 FEW025 05/M00 Q1021 NOSIG
13-02-26 LEBL 260930Z 32009KT 9999 FEW025 06/M01 Q1021 NOSIG
13-02-26 LEBL 261000Z 32008KT 280V010 9999 FEW025 07/M01 Q1021 NOSIG
13-02-26 LEBL 261030Z 31006KT 280V350 9999 FEW025 08/01 Q1021 NOSIG
13-02-26 LEBL 261100Z 29002KT 9999 FEW025 09/M00 Q1021 NOSIG
13-02-26 LEBL 261130Z VRB03KT 9999 FEW025 10/01 Q1021 NOSIG
13-02-26 LEBL 261200Z 20007KT 9999 FEW025 09/00 Q1021 NOSIG
13-02-26 LEBL 261230Z 20009KT 170V230 9999 FEW025 10/02 Q1020 NOSIG
13-02-26 LEBL 261300Z 20009KT 170V250 9999 FEW025 09/01 Q1020 NOSIG
13-02-26 LEBL 261330Z 21009KT 170V230 9999 FEW025 10/00 Q1020 NOSIG
13-02-26 LEBL 261330Z 21009KT 170V230 9999 FEW025 10/00 NOSIG
13-02-26 LEBL 261400Z 22010KT 160V240 9999 FEW025 10/00 Q1020 NOSIG
13-02-26 LEBL 261430Z 22012KT 9999 FEW025 10/01 Q1020 NOSIG
13-02-26 LEBL 261430Z 22012KT 9999 FEW025 10/01 Q1020 NOSIG ATENCION /LEER Y BORRAR ANTES DE ENVIAR// EL ORIGINADOR DEBE SER SIEMPRE LEMMYMYX
13-02-26 LEBL 261430Z 22012KT 9999 FEW025 10/01 Q1020 NOSIG ATENCION (LEER Y BORRAR ANTES DE ENVIAR): EL ORIGINADOR DEBE SER SIEMPRE LEMMYMYX
13-02-26 LEBL 261500Z 21011KT 9999 FEW025 10/01 Q1020 NOSIG
13-02-26 LEBL 261530Z 21009KT 9999 FEW025 10/M00 Q1020 NOSIG
13-02-26 LEBL 261600Z 22011KT 9999 FEW025 10/00 Q1020 NOSIG
13-02-26 LEBL 261630Z 22012KT 9999 FEW025 10/00 Q1019 NOSIG
13-02-26 LEBL 261700Z 22011KT 9999 FEW025 10/00 Q1020 NOSIG
13-02-26 LEBL 261730Z 23010KT 9999 FEW025 09/M00 Q1020 NOSIG
13-02-26 LEBL 261800Z 23009KT 9999 FEW025 09/M00 Q1020 NOSIG
13-02-26 LEBL 261830Z 24006KT 9999 FEW025 08/01 Q1021 NOSIG
13-02-26 LEBL 261900Z 27003KT 210V340 9999 FEW025 08/01 Q1021 NOSIG
13-02-26 LEBL 261930Z 31003KT 270V360 9999 FEW025 08/01 Q1021 NOSIG
13-02-26 LEBL 262000Z 32004KT 280V010 9999 FEW025 08/00 Q1022 NOSIG
13-02-26 LEBL 262030Z 31005KT 240V350 9999 FEW025 07/01 Q1022 NOSIG
13-02-26 LEBL 262100Z 30006KT 250V340 9999 FEW025 06/00 Q1022 NOSIG
13-02-26 LEBL 262130Z 31003KT 280V340 9999 FEW025 06/00 Q1022 NOSIG
13-02-26 LEBL 262200Z 31005KT 220V350 9999 FEW025 06/00 Q1022 NOSIG
13-02-26 LEBL 262230Z 31005KT 9999 FEW025 05/00 Q1022 NOSIG
13-02-26 LEBL 262300Z 32006KT 9999 FEW025 05/M00 Q1022 NOSIG
13-02-26 LEBL 262330Z 32008KT 9999 FEW025 05/M01 Q1022 NOSIG
13-02-27 LEBL 270000Z 32008KT 9999 FEW025 05/M01 Q1022 NOSIG
13-02-27 LEBL 270030Z 32008KT 9999 FEW025 05/M01 Q1022 NOSIG
13-02-27 LEBL 270100Z 31007KT 290V350 9999 FEW025 05/M02 Q1022 NOSIG
13-02-27 LEBL 270130Z 31009KT 9999 FEW025 04/M02 Q1022 NOSIG
13-02-27 LEBL 270200Z 31010KT 9999 FEW025 04/M03 Q1022 NOSIG
13-02-27 LEBL 270230Z 32009KT 9999 FEW025 03/M03 Q1022 NOSIG
13-02-27 LEBL 270300Z 32010KT 9999 FEW025 04/M03 Q1021 NOSIG
13-02-27 LEBL 270330Z 32011KT 9999 FEW025 03/M03 Q1022 NOSIG
13-02-27 LEBL 270400Z 32011KT 9999 FEW025 03/M03 Q1021 NOSIG
13-02-27 LEBL 270430Z 32010KT 9999 FEW025 03/M03 Q1021 NOSIG
13-02-27 LEBL 270500Z 33012KT 9999 FEW025 03/M03 Q1021 NOSIG
13-02-27 LEBL 270530Z 33013KT 9999 FEW025 02/M03 Q1022 NOSIG
13-02-27 LEBL 270600Z 33013KT 9999 FEW025 02/M03 Q1022 NOSIG
13-02-27 LEBL 270630Z 33012KT 9999 FEW025 03/M03 Q1022 NOSIG
13-02-27 LEBL 270700Z 33013KT 9999 FEW025 02/M03 Q1022 NOSIG
13-02-27 LEBL 270730Z 33012KT 290V010 9999 FEW025 03/M03 Q1022 NOSIG
13-02-27 LEBL 270800Z 32012G22KT 9999 FEW025 04/M03 Q1022 NOSIG
13-02-27 LEBL 270830Z 33011KT 290V350 9999 FEW025 05/M03 Q1022 NOSIG
13-02-27 LEBL 270900Z 33009KT 290V020 9999 FEW025 06/M03 Q1023 NOSIG
13-02-27 LEBL 270930Z 32009KT 9999 FEW025 08/M03 Q1022 NOSIG
13-02-27 LEBL 271000Z 33007KT 290V360 9999 FEW025 09/M02 Q1022 NOSIG
13-02-27 LEBL 271030Z 33006KT 260V350 9999 FEW020 SCT055 09/M02 Q1022 NOSIG
13-02-27 LEBL 271100Z 33003KT 280V010 9999 FEW020 SCT055 10/M02 Q1022 NOSIG
13-02-27 LEBL 271130Z VRB02KT 9999 FEW020 SCT055 11/M01 Q1022 NOSIG
13-02-27 LEBL 271200Z VRB02KT 9999 FEW020 SCT050 11/M02 Q1021 NOSIG
13-02-27 LEBL 271230Z 18003KT 9999 FEW020 SCT050 12/M01 Q1021 NOSIG
13-02-27 LEBL 271300Z 13004KT 110V170 9999 FEW020 SCT050 11/M01 Q1021 NOSIG
13-02-27 LEBL 271330Z 13005KT 090V160 9999 FEW020 SCT050 11/M01 Q1021 NOSIG
13-02-27 LEBL 271400Z 14004KT 060V190 9999 FEW020 SCT050 11/M01 Q1020 NOSIG
13-02-27 LEBL 271430Z 14005KT 100V190 9999 FEW020 SCT050 12/01 Q1020 NOSIG
13-02-27 LEBL 271500Z 12003KT 040V180 9999 FEW020 12/01 Q1020 NOSIG
13-02-27 LEBL 271530Z 10006KT 070V130 9999 FEW020 12/02 Q1020 NOSIG
13-02-27 LEBL 271600Z 09005KT 070V140 9999 FEW020 12/03 Q1020 NOSIG
13-02-27 LEBL 271630Z 10004KT 050V140 9999 FEW020 12/04 Q1019 NOSIG
13-02-27 LEBL 271700Z 06012KT 9999 SCT030 12/05 Q1020 NOSIG
13-02-27 LEBL 271730Z 06011KT 9999 SCT030 11/04 Q1020 NOSIG
13-02-27 LEBL 271800Z 06010KT 9999 FEW020 SCT050 11/03 Q1020 NOSIG
13-02-27 LEBL 271830Z 04009KT 9999 FEW014 SCT030 11/03 Q1020 NOSIG
13-02-27 LEBL 271900Z 06011KT 030V090 9999 FEW014 SCT030 11/04 Q1020 NOSIG
13-02-27 LEBL 271930Z 05011KT 9999 FEW014 SCT030 11/04 Q1020 NOSIG
13-02-27 LEBL 272000Z 04012KT 9999 FEW013 SCT035 11/03 Q1020 NOSIG
13-02-27 LEBL 272030Z 04014KT 9999 FEW015 10/03 Q1020 NOSIG
13-02-27 LEBL 272100Z 05015KT 9999 FEW015 FEW020TCU BKN050 10/05 Q1020 NOSIG
13-02-27 LEBL 272130Z 04009KT 9999 FEW015 FEW020TCU SCT050 10/05 Q1020 NOSIG
13-02-27 LEBL 272200Z 05011KT 010V070 9999 FEW015 FEW020TCU SCT030 10/04 Q1020 NOSIG
13-02-27 LEBL 272230Z 05013KT 9999 FEW015 FEW020TCU SCT030 10/04 Q1020 NOSIG
13-02-27 LEBL 272300Z 05012KT 8000 -SHRA FEW016 FEW020TCU BKN040 09/07 Q1020 NOSIG
13-02-27 LEBL 272317Z 06014KT 2500 TSRA FEW016 FEW022CB BKN040 09/07 Q1020 NOSIG
13-02-27 LEBL 272330Z 06013KT 3500 SHRA SCT012 FEW022CB BKN030 09/08 Q1020 RETS
13-02-28 LEBL 280000Z 04012KT 9999 -RA SCT012 FEW020TCU BKN035 09/07 Q1020 NOSIG
13-02-28 LEBL 280030Z 04014KT 9999 FEW015 FEW020TCU BKN030 09/06 Q1020 NOSIG
13-02-28 LEBL 280100Z 05012KT 9999 FEW020 SCT030 10/07 Q1020 NOSIG
13-02-28 LEBL 280130Z 09011KT 9999 FEW025 11/05 Q1019 NOSIG
13-02-28 LEBL 280200Z 06011KT 9999 FEW025 SCT035 10/07 Q1019 NOSIG
13-02-28 LEBL 280230Z 06009KT 9999 FEW025 BKN035 10/07 Q1019 NOSIG
13-02-28 LEBL 280300Z 04012KT 9999 FEW025 SCT050 10/06 Q1018 NOSIG
13-02-28 LEBL 280330Z 04012KT 9999 FEW025 SCT040 10/05 Q1018 NOSIG
13-02-28 LEBL 280400Z 04013KT 010V070 9999 FEW025 09/05 Q1018 NOSIG
13-02-28 LEBL 280430Z 04011KT 010V070 9999 FEW030 09/05 Q1018 NOSIG
13-02-28 LEBL 280500Z 04011KT 9999 -RA FEW030 SCT045 09/05 Q1017 NOSIG
13-02-28 LEBL 280530Z 06015KT 9999 -RA FEW017 BKN030 09/06 Q1018 NOSIG
13-02-28 LEBL 280600Z 05015KT 9999 -SHRA FEW017 FEW020TCU BKN030 09/06 Q1018 NOSIG
13-02-28 LEBL 280630Z 04014KT 9999 FEW017 FEW020TCU BKN040 09/05 Q1017 NOSIG
13-02-28 LEBL 280700Z 05018KT 9999 FEW020 SCT035 09/05 Q1018 NOSIG
13-02-28 LEBL 280730Z 04013KT 9999 FEW020 SCT035 09/05 Q1018 NOSIG
13-02-28 LEBL 280830Z 05017KT 9000 DZ FEW020 SCT035 10/06 Q1018 NOSIG
13-02-28 LEBL 280904Z 06022KT 5000 SHRA FEW020CB SCT036 10/06 Q1018 NOSIG
13-02-28 LEBL 280900Z 06020KT 9999 RA FEW020 SCT036 10/06 Q1017 NOSIG
13-02-28 LEBL 280930Z 05023KT 9999 FEW020CB SCT036 10/06 Q1017 RERA NOSIG
13-02-28 LEBL 280930Z NIL
13-02-28 LEBL 281000Z 04023KT 6000 RA FEW020CB SCT040 10/06 Q1017 NOSIG
13-02-28 LEBL 281030Z 05015KT 6000 RA FEW020CB SCT040 09/07 Q1017 NOSIG
13-02-28 LEBL 281100Z 05020KT 9999 FEW020CB SCT040 09/07 Q1017 RERA NOSIG
13-02-28 LEBL 281130Z 05021KT 9999 FEW020CB SCT045 10/06 Q1016 NOSIG
13-02-28 LEBL 281200Z 04021KT 9999 FEW020CB SCT045 10/06 Q1016 NOSIG
13-02-28 LEBL 281230Z 03017KT 9999 FEW025CB SCT045 10/07 Q1015 NOSIG
13-02-28 LEBL 281300Z 05022KT 9999 FEW025CB SCT045 11/07 Q1015 NOSIG
13-02-28 LEBL 281330Z 05024G35KT 9999 FEW025CB SCT045 11/07 Q1014 NOSIG
13-02-28 LEBL 281400Z 05021KT 9999 FEW025CB SCT045 11/07 Q1014 NOSIG
13-02-28 LEBL 281430Z 06023G33KT 020V080 4000 RA FEW022CB SCT035 11/08 Q1014 NOSIG
13-02-28 LEBL 281500Z 07023G34KT 4000 SHRA FEW022CB SCT035 10/08 Q1014 NOSIG
13-02-28 LEBL 281530Z 07022KT 040V100 9000 -RA SCT022CB SCT035 11/07 Q1013 NOSIG
13-02-28 LEBL 281600Z 07025G35KT 9000 DZ SCT022CB SCT038 11/06 Q1013 NOSIG
13-02-28 LEBL 281630Z 07025G37KT 9999 DZ SCT022CB SCT038 11/06 Q1013 NOSIG
13-02-28 LEBL 281700Z 06025G38KT 6000 SHRA SCT022CB SCT038 10/05 Q1013 NOSIG
13-02-28 LEBL 281730Z 08028G40KT 5000 SHRA SCT020CB SCT040 09/06 Q1013 NOSIG
13-02-28 LEBL 281800Z 08021KT 5000 SHRA SCT020CB SCT040 10/08 Q1013 NOSIG
13-02-28 LEBL 281830Z 09022KT 9000 DZ SCT017CB SCT040 11/07 Q1013 NOSIG
13-02-28 LEBL 281900Z 09023G35KT 9000 DZ SCT017CB SCT040 10/07 Q1013 NOSIG
13-02-28 LEBL 281930Z 08027KT 6000 -RA SCT017CB SCT040 10/07 Q1013 NOSIG
13-02-28 LEBL 282000Z 08025KT 6000 -RA SCT017CB SCT040 10/07 Q1013 NOSIG
13-02-28 LEBL 282030Z 07030G42KT 040V100 6000 +RA SCT017CB BKN025 10/07 Q1013 NOSIG
13-02-28 LEBL 282100Z 06030G41KT 9999 -RA SCT017CB SCT035 10/06 Q1013 NOSIG
13-02-28 LEBL 282130Z 06027KT 5000 RA SCT017CB SCT035 10/07 Q1013 NOSIG
13-02-28 LEBL 282200Z 06030G40KT 5000 RA SCT017CB SCT035 10/07 Q1013 NOSIG
13-02-28 LEBL 282230Z 06029G41KT 5000 +RA SCT017CB SCT035 09/09 Q1013 NOSIG
13-02-28 LEBL 282300Z 06031G42KT 5000 +RA SCT017CB SCT035 09/08 Q1012 NOSIG
13-02-28 LEBL 282330Z 06031G44KT 5000 +RA SCT017CB SCT035 09/08 Q1012 NOSIG
13-03-01 LEBL 010000Z 06029G39KT 5000 +RA SCT017CB SCT030 09/07 Q1012 NOSIG
13-03-01 LEBL 010030Z 06029G43KT 5000 +RA SCT017CB SCT030 09/08 Q1012 NOSIG
13-03-01 LEBL 010100Z 06026G36KT 030V090 6000 +RA SCT017CB SCT030 09/08 Q1011 NOSIG
13-03-01 LEBL 010130Z 05025KT 6000 +RA SCT007CB BKN018 09/08 Q1011 NOSIG
13-03-01 LEBL 010200Z 05024G34KT 6000 +RA SCT007CB BKN018 09/08 Q1011 NOSIG
13-03-01 LEBL 010230Z 05023KT 6000 +RA SCT007CB BKN018 09/08 Q1011 NOSIG
13-03-01 LEBL 010300Z 05021G31KT 6000 +RA SCT007CB BKN018 09/08 Q1010 NOSIG
13-03-01 LEBL 010330Z 04021KT 6000 +RA SCT010CB BKN022 09/07 Q1010 NOSIG
13-03-01 LEBL 010400Z 04020KT 7000 +RA SCT010CB BKN022 09/07 Q1010 NOSIG
13-03-01 LEBL 010430Z 04018KT 7000 +RA SCT010CB BKN022 09/07 Q1009 NOSIG
13-03-01 LEBL 010500Z 04022KT 7000 +RA SCT010CB BKN022 09/07 Q1009 NOSIG
13-03-01 LEBL 010530Z 04024KT 7000 +RA SCT010CB SCT030 09/07 Q1010 NOSIG
13-03-01 LEBL 010600Z 04022KT 360V060 9999 DZ SCT010CB SCT030 09/06 Q1009 NOSIG
13-03-01 LEBL 010630Z 04023KT 9999 FEW020 SCT055 09/06 Q1009 REDZ NOSIG
13-03-01 LEBL 010700Z 03020KT 9999 RA FEW020 SCT055 09/06 Q1010 NOSIG
13-03-01 LEBL 010700Z 04022G33KT 9999 FEW020 SCT055 09/06 Q1009 NOSIG
13-03-01 LEBL 010730Z 03015KT 9999 DZ FEW020 SCT055 09/06 Q1010 NOSIG
13-03-01 LEBL 010800Z 03016KT 9999 R07R/1400N DZ FEW020 SCT040 10/06 Q1010 NOSIG
13-03-01 LEBL 010830Z 03015KT 360V060 9999 FEW020 SCT035 10/06 Q1010 REDZ NOSIG
13-03-01 LEBL 010900Z 03014KT 9999 FEW020 BKN028 10/06 Q1010 NOSIG
13-03-01 LEBL 010930Z 03018G29KT 9999 FEW020 BKN028 10/06 Q1010 NOSIG
13-03-01 LEBL 011000Z 03020G31KT 9999 FEW020 BKN050 10/06 Q1010 NOSIG
13-03-01 LEBL 011030Z 03020G30KT 9999 FEW020 BKN050 11/05 Q1009 NOSIG
13-03-01 LEBL 011100Z 03018KT 9999 FEW020 SCT038 BKN056 11/05 Q1009 NOSIG
13-03-01 LEBL 011130Z 03022KT 9999 FEW020 SCT038 BKN056 12/05 Q1009 NOSIG
13-03-01 LEBL 011200Z 03023G35KT 9999 FEW020 SCT040 12/06 Q1009 NOSIG
13-03-01 LEBL 011230Z 03026G37KT 9999 FEW025 SCT040 12/05 Q1009 NOSIG
13-03-01 LEBL 011300Z 03024G35KT 9999 FEW025 SCT040 12/05 Q1009 NOSIG
13-03-01 LEBL 011330Z 02022G35KT 9999 FEW030 SCT050 12/05 Q1009 NOSIG
13-03-01 LEBL 011400Z 03025G35KT 9999 FEW030 SCT050 12/05 Q1009 NOSIG
13-03-01 LEBL 011430Z 03023G33KT 9999 FEW030 SCT050 13/05 Q1009 NOSIG
13-03-01 LEBL 011500Z 03018KT 9999 FEW030 SCT050 12/05 Q1009 NOSIG
13-03-01 LEBL 011530Z 03014KT 010V080 9999 DZ FEW025 BKN042 12/05 Q1009 NOSIG
13-03-01 LEBL 011600Z 01010KT 330V030 8000 RA FEW020 BKN042 11/06 Q1010 NOSIG
13-03-01 LEBL 011630Z 35010KT 9999 FEW020 BKN045 11/05 Q1010 NOSIG
13-03-01 LEBL 011700Z 01012KT 9999 FEW020 SCT045 12/05 Q1010 NOSIG
13-03-01 LEBL 011730Z 01009KT 9999 FEW020 SCT045 12/04 Q1011 NOSIG
13-03-01 LEBL 011800Z 03008G22KT 350V120 9999 FEW020 SCT045 12/03 Q1011 NOSIG
13-03-01 LEBL 011830Z 03007KT 9999 FEW020 SCT045 12/02 Q1012 NOSIG
13-03-01 LEBL 011900Z 36005KT 9999 FEW015 SCT045 12/01 Q1012 NOSIG
13-03-01 LEBL 011930Z 36003KT 310V010 9999 FEW015 SCT045 12/01 Q1012 NOSIG
13-03-01 LEBL 012000Z 33003KT 260V010 9999 FEW015 SCT050 12/01 Q1013 NOSIG
13-03-01 LEBL 012030Z VRB02KT 9999 FEW015 SCT050 12/02 Q1013 NOSIG
13-03-01 LEBL 012100Z 34003KT 300V030 9999 FEW015 SCT050 12/00 Q1013 NOSIG
13-03-01 LEBL 012130Z 33004KT 260V030 9999 FEW015 SCT050 11/02 Q1013 NOSIG
13-03-01 LEBL 012200Z 36004KT 9999 FEW015 SCT050 11/02 Q1013 NOSIG
13-03-01 LEBL 012230Z 33006KT 9999 FEW015 SCT050 11/03 Q1014 NOSIG
13-03-01 LEBL 012300Z 34004KT 9999 FEW015 SCT050 10/04 Q1014 NOSIG
13-03-01 LEBL 012330Z 33004KT 300V030 9999 FEW015 SCT050 10/04 Q1014 NOSIG
13-03-02 LEBL 020000Z 32006KT 280V340 9999 FEW015 SCT050 09/05 Q1015 NOSIG
13-03-02 LEBL 020030Z 32004KT 9999 FEW013 SCT050 09/05 Q1015 NOSIG
13-03-02 LEBL 020100Z 30004KT 9999 FEW013 SCT050 09/05 Q1015 NOSIG
13-03-02 LEBL 020130Z 33005KT 9999 FEW013 SCT050 09/05 Q1015 NOSIG
13-03-02 LEBL 020200Z 30005KT 9999 FEW013 SCT050 08/05 Q1015 NOSIG
13-03-02 LEBL 020230Z 31005KT 9999 FEW015 SCT050 09/04 Q1015 NOSIG
13-03-02 LEBL 020300Z 29005KT 270V330 9999 FEW015 SCT050 09/04 Q1015 NOSIG
13-03-02 LEBL 020330Z 32007KT 9999 FEW015 SCT050 09/04 Q1015 NOSIG
13-03-02 LEBL 020400Z 33006KT 9999 FEW015 SCT050 09/03 Q1015 NOSIG
13-03-02 LEBL 020430Z 32007KT 9999 FEW015 SCT050 08/04 Q1015 NOSIG
13-03-02 LEBL 020500Z 32008KT 9999 FEW020 SCT050 08/03 Q1015 NOSIG
13-03-02 LEBL 020530Z 33008KT 9999 FEW020 SCT050 08/03 Q1016 NOSIG
13-03-02 LEBL 020600Z 34009KT 9999 FEW020 SCT050 07/03 Q1016 NOSIG
13-03-02 LEBL 020630Z 33013G23KT 9999 FEW015 SCT055 08/03 Q1016 NOSIG
13-03-02 LEBL 020700Z 33011KT 9999 FEW015 SCT055 07/03 Q1016 NOSIG
13-03-02 LEBL 020730Z 34012KT 300V360 9999 FEW020 07/03 Q1017 NOSIG
13-03-02 LEBL 020800Z 33010KT 9999 FEW020 08/04 Q1017 NOSIG
13-03-02 LEBL 020830Z 32012KT 290V350 9999 FEW020 09/03 Q1017 NOSIG
13-03-02 LEBL 020900Z 33011KT 280V340 9999 FEW020 09/04 Q1017 NOSIG
13-03-02 LEBL 020930Z 33010KT 280V360 9999 FEW020 10/04 Q1018 NOSIG
13-03-02 LEBL 021000Z 32008KT 250V350 9999 FEW015 11/04 Q1018 NOSIG
13-03-02 LEBL 021030Z 33006G16KT 250V030 9999 FEW015 12/04 Q1018 NOSIG
13-03-02 LEBL 021100Z 27003KT 9999 FEW015 14/05 Q1018 NOSIG
13-03-02 LEBL 021130Z 21003KT 180V260 9999 FEW015 14/04 Q1018 NOSIG
13-03-02 LEBL 021200Z 16005KT 130V210 CAVOK 14/03 Q1018 NOSIG
13-03-02 LEBL 021230Z 18006KT 150V220 CAVOK 13/05 Q1018 NOSIG
13-03-02 LEBL 021300Z 20007KT 160V230 CAVOK 14/05 Q1017 NOSIG
13-03-02 LEBL 021330Z 19010KT CAVOK 14/05 Q1017 NOSIG
13-03-02 LEBL 021400Z 21009KT CAVOK 14/06 Q1017 NOSIG
13-03-02 LEBL 021430Z 21009KT CAVOK 14/06 Q1017 NOSIG
13-03-02 LEBL 021500Z 22011KT CAVOK 14/06 Q1017 NOSIG
13-03-02 LEBL 021530Z 21010KT CAVOK 14/06 Q1017 NOSIG
13-03-02 LEBL 021600Z 21012KT CAVOK 14/07 Q1017 NOSIG
13-03-02 LEBL 021630Z 22012KT CAVOK 14/07 Q1017 NOSIG
13-03-02 LEBL 021700Z 22011KT CAVOK 13/07 Q1017 NOSIG
13-03-02 LEBL 021730Z 22011KT CAVOK 13/07 Q1017 NOSIG
13-03-02 LEBL 021800Z 22010KT CAVOK 12/07 Q1017 NOSIG
13-03-02 LEBL 021830Z 22011KT CAVOK 12/07 Q1018 NOSIG
13-03-02 LEBL 021900Z 24010KT CAVOK 12/08 Q1018 NOSIG
13-03-02 LEBL 021930Z 27005KT 250V320 CAVOK 11/08 Q1018 NOSIG
13-03-02 LEBL 022000Z 24005KT CAVOK 11/07 Q1019 NOSIG
13-03-02 LEBL 022030Z 25005KT CAVOK 11/07 Q1019 NOSIG
13-03-02 LEBL 022100Z 30003KT 260V330 CAVOK 11/07 Q1019 NOSIG
13-03-02 LEBL 022130Z 33005KT 290V010 CAVOK 09/05 Q1019 NOSIG
13-03-02 LEBL 022200Z 28004KT 240V340 CAVOK 09/05 Q1019 NOSIG
13-03-02 LEBL 022230Z 30003KT 260V330 CAVOK 09/05 Q1019 NOSIG
13-03-02 LEBL 022300Z 32006KT CAVOK 09/05 Q1019 NOSIG
13-03-02 LEBL 022330Z 32006KT 9000 NSC 09/05 Q1019 NOSIG
13-03-03 LEBL 030000Z 30007KT 9000 NSC 08/05 Q1019 NOSIG
13-03-03 LEBL 030030Z 31007KT 9000 NSC 08/05 Q1018 NOSIG
13-03-03 LEBL 030100Z 32010KT 9000 NSC 08/04 Q1018 NOSIG
13-03-03 LEBL 030130Z 33009KT CAVOK 08/04 Q1018 NOSIG
13-03-03 LEBL 030200Z 32010KT CAVOK 08/04 Q1018 NOSIG
13-03-03 LEBL 030230Z 34008KT CAVOK 08/03 Q1018 NOSIG
13-03-03 LEBL 030300Z 33008KT CAVOK 07/03 Q1018 NOSIG
13-03-03 LEBL 030330Z 32009KT CAVOK 07/03 Q1017 NOSIG
13-03-03 LEBL 030400Z 32008KT 8000 NSC 07/03 Q1017 NOSIG
13-03-03 LEBL 030430Z 31008KT 8000 NSC 06/02 Q1017 NOSIG
13-03-03 LEBL 030500Z 32009KT 8000 NSC 06/02 Q1017 NOSIG
13-03-03 LEBL 030530Z 32009KT 9000 NSC 06/02 Q1017 NOSIG
13-03-03 LEBL 030600Z 32010KT CAVOK 06/02 Q1017 NOSIG
13-03-03 LEBL 030630Z 32009KT CAVOK 06/02 Q1017 NOSIG
13-03-03 LEBL 030700Z 32011KT CAVOK 06/01 Q1017 NOSIG
13-03-03 LEBL 030730Z 32013KT 290V350 CAVOK 06/02 Q1018 NOSIG
13-03-03 LEBL 030800Z 32011KT 280V340 CAVOK 08/02 Q1018 NOSIG
13-03-03 LEBL 030830Z 31010KT 280V340 CAVOK 09/02 Q1018 NOSIG
13-03-03 LEBL 030900Z 32007KT CAVOK 09/03 Q1018 NOSIG
13-03-03 LEBL 030930Z 32008G19KT 290V360 CAVOK 11/02 Q1018 NOSIG
13-03-03 LEBL 031000Z 32005KT 290V360 CAVOK 12/03 Q1018 NOSIG
13-03-03 LEBL 031030Z VRB02KT CAVOK 13/04 Q1018 NOSIG
13-03-03 LEBL 031100Z 26003KT 210V340 CAVOK 14/08 Q1017 NOSIG
13-03-03 LEBL 031130Z 21007KT 180V250 CAVOK 13/08 Q1017 NOSIG
13-03-03 LEBL 031200Z 20006KT 160V230 CAVOK 14/09 Q1017 NOSIG
13-03-03 LEBL 031230Z 20007KT CAVOK 14/09 Q1017 NOSIG
13-03-03 LEBL 031300Z 21008KT CAVOK 13/09 Q1016 NOSIG
13-03-03 LEBL 031330Z 21007KT 170V240 CAVOK 14/08 Q1016 NOSIG
13-03-03 LEBL 031400Z 20008KT CAVOK 14/08 Q1016 NOSIG
13-03-03 LEBL 031430Z 20008KT CAVOK 14/08 Q1015 NOSIG
13-03-03 LEBL 031500Z 19009KT 160V220 CAVOK 14/08 Q1015 NOSIG
13-03-03 LEBL 031530Z 20008KT 160V230 CAVOK 14/08 Q1015 NOSIG
13-03-03 LEBL 031600Z 20008KT CAVOK 14/08 Q1015 NOSIG
13-03-03 LEBL 031630Z 20010KT CAVOK 14/08 Q1015 NOSIG
13-03-03 LEBL 031700Z 20009KT CAVOK 14/08 Q1015 NOSIG
13-03-03 LEBL 031730Z 21008KT CAVOK 13/08 Q1015 NOSIG
13-03-03 LEBL 031800Z 22007KT CAVOK 13/09 Q1015 NOSIG
13-03-03 LEBL 031830Z 22005KT CAVOK 12/09 Q1016 NOSIG
13-03-03 LEBL 031900Z 21004KT CAVOK 12/09 Q1016 NOSIG
13-03-03 LEBL 031930Z 21004KT 9999 FEW015 12/09 Q1016 NOSIG
13-03-03 LEBL 032000Z 23003KT 9999 FEW018 12/09 Q1016 NOSIG
13-03-03 LEBL 032030Z 00000KT 9999 FEW018 11/08 Q1016 NOSIG
13-03-03 LEBL 032100Z 34003KT 300V030 9999 FEW018 11/07 Q1016 NOSIG
13-03-03 LEBL 032130Z 35003KT 290V030 9999 FEW018 10/07 Q1016 NOSIG
13-03-03 LEBL 032200Z 33003KT 270V010 9999 FEW018 10/05 Q1016 NOSIG
13-03-03 LEBL 032230Z 32003KT 9999 FEW018 09/05 Q1016 NOSIG
13-03-03 LEBL 032300Z 33005KT 9999 FEW025 09/04 Q1015 NOSIG
13-03-03 LEBL 032330Z 33006KT 9999 FEW025 08/04 Q1015 NOSIG
13-03-04 LEBL 040000Z 33005KT 9999 FEW025 09/04 Q1015 NOSIG
13-03-04 LEBL 040030Z 33007KT 9999 FEW025 08/04 Q1015 NOSIG
13-03-04 LEBL 040100Z 33008KT 9999 FEW025 08/04 Q1015 NOSIG
13-03-04 LEBL 040130Z 33007KT 9999 FEW025 08/04 Q1015 NOSIG
13-03-04 LEBL 040200Z 33008KT 9999 FEW025 07/04 Q1014 NOSIG
13-03-04 LEBL 040230Z 32008KT 9999 FEW025 07/04 Q1014 NOSIG
13-03-04 LEBL 040300Z 33007KT 9999 FEW025 08/04 Q1014 NOSIG
13-03-04 LEBL 040330Z 34009KT 9999 FEW025 07/04 Q1014 NOSIG
13-03-04 LEBL 040400Z 33007KT 9999 FEW025 07/04 Q1014 NOSIG
13-03-04 LEBL 040430Z 33007KT 9999 FEW025 07/04 Q1014 NOSIG
13-03-04 LEBL 040500Z 34008KT 9999 SCT016 07/04 Q1014 NOSIG
13-03-04 LEBL 040530Z 33008KT 9999 SCT016 08/03 Q1014 NOSIG
13-03-04 LEBL 040600Z 33009KT 9999 SCT022 08/03 Q1014 NOSIG
13-03-04 LEBL 040630Z 33007KT 9999 FEW015 SCT030 07/04 Q1014 NOSIG
13-03-04 LEBL 040700Z 33006KT 9999 FEW015 SCT032 08/04 Q1014 NOSIG
13-03-04 LEBL 040730Z 34007KT 250V010 9999 FEW014 BKN027 08/05 Q1014 NOSIG
13-03-04 LEBL 040900Z 04010KT 010V070 8000 BKN013 11/08 Q1014 NOSIG
13-03-04 LEBL 040930Z 06015KT 8000 SCT013 BKN030 13/10 Q1014 NOSIG
13-03-04 LEBL 041000Z 05015KT 8000 FEW013 SCT030 BKN045 13/10 Q1013 NOSIG
13-03-04 LEBL 041030Z 06014KT 8000 FEW013 SCT030 BKN045 13/10 Q1014 NOSIG
13-03-04 LEBL 041100Z 06015KT 9000 FEW013 BKN030 13/10 Q1013 NOSIG
13-03-04 LEBL 041130Z 06015KT 9999 FEW014 BKN027 13/10 Q1013 NOSIG
13-03-04 LEBL 041200Z 06016KT 9999 FEW015 BKN022 13/10 Q1012 NOSIG
13-03-04 LEBL 041200Z NIL
13-03-04 LEBL 041330Z 06017KT 8000 SCT013 BKN020 13/10 Q1011 NOSIG
13-03-04 LEBL 041400Z 06018KT 8000 FEW013 BKN025 14/10 Q1011 NOSIG
13-03-04 LEBL 041430Z 05018KT 8000 FEW013 BKN020 13/10 Q1011 NOSIG
13-03-04 LEBL 041500Z 05018KT 8000 FEW011 BKN020 14/11 Q1010 NOSIG
13-03-04 LEBL 041600Z 05018KT 8000 BKN011 BKN022 14/11 Q1010 NOSIG
13-03-04 LEBL 041630Z 06017KT 8000 BKN010 BKN022 14/12 Q1010 NOSIG
13-03-04 LEBL 041700Z 07014KT 8000 BKN011 BKN020 14/12 Q1010 NOSIG
13-03-04 LEBL 041730Z 07015KT 8000 BKN011 BKN023 14/12 Q1010 NOSIG
13-03-04 LEBL 041800Z 07015KT 8000 SCT012 BKN023 14/11 Q1010 NOSIG
13-03-04 LEBL 041830Z 07016KT 8000 SCT012 BKN023 14/11 Q1010 NOSIG
13-03-04 LEBL 041900Z 07016KT 7000 SCT012 BKN021 13/12 Q1010 NOSIG
13-03-04 LEBL 042000Z 06017KT 6000 DZ SCT012 BKN025 13/12 Q1009 NOSIG
13-03-04 LEBL 042030Z 07016KT 040V100 6000 SCT012 BKN025 13/12 Q1009 NOSIG
13-03-04 LEBL 042042Z 07016KT 6000 -RA SCT012 BKN025 13/12 Q1009 NOSIG
13-03-04 LEBL 042100Z 07015KT 6000 DZ SCT013 BKN025 13/12 Q1009 NOSIG
13-03-04 LEBL 042130Z 08016KT 6000 DZ SCT013 BKN025 13/12 Q1009 NOSIG
13-03-04 LEBL 042200Z 07015KT 6000 DZ SCT013 BKN025 13/12 Q1009 NOSIG
13-03-04 LEBL 042230Z 08016KT 5000 DZ SCT013 BKN025 13/12 Q1008 NOSIG
13-03-04 LEBL 042300Z 08016KT 4000 RA SCT013 BKN025 13/12 Q1008 NOSIG
13-03-04 LEBL 042330Z 07018KT 4000 RA SCT009 BKN025 13/12 Q1007 NOSIG
13-03-05 LEBL 050000Z 07017KT 4000 RA BKN009 SCT025 13/12 Q1007 NOSIG
13-03-05 LEBL 050030Z 07017KT 4000 RA BKN011 SCT025 13/12 Q1006 NOSIG
13-03-05 LEBL 050100Z 07014KT 4000 RA BKN011 SCT025 13/12 Q1006 NOSIG
13-03-05 LEBL 050130Z 07016KT 4000 RA BKN011 SCT025 12/12 Q1006 NOSIG
13-03-05 LEBL 050200Z 07016KT 4000 +RA BKN010 SCT025 12/12 Q1006 NOSIG
13-03-05 LEBL 050230Z 07015KT 3000 +RA FEW006 SCT015 12/12 Q1005 NOSIG
13-03-05 LEBL 050300Z 07014KT 3000 +RA BKN006 SCT015 12/12 Q1005 NOSIG
13-03-05 LEBL 050330Z 08014KT 3000 +RA BKN006 SCT015 12/12 Q1005 NOSIG
13-03-05 LEBL 050400Z 09013KT 3000 +RA BKN009 SCT015 12/12 Q1005 NOSIG
13-03-05 LEBL 050430Z 09013KT 3000 RA FEW009 SCT025 12/12 Q1004 NOSIG
13-03-05 LEBL 050500Z 09011KT 3000 RA SCT015 SCT035 12/12 Q1004 NOSIG
13-03-05 LEBL 050530Z 09013KT 3000 RA SCT015 SCT035 12/12 Q1004 NOSIG
13-03-05 LEBL 050600Z 08015KT 3000 RA FEW005 BKN014 12/12 Q1004 NOSIG
13-03-05 LEBL 050630Z 08013KT 3000 RA SCT007 BKN015 13/12 Q1004 NOSIG
13-03-05 LEBL 050700Z 08014KT 3000 RA BKN007 SCT015 12/12 Q1004 NOSIG
13-03-05 LEBL 050730Z 07016KT 3000 RA BKN007 SCT025 13/12 Q1003 NOSIG
13-03-05 LEBL 050800Z 07015KT 4000 RA BKN006 SCT025 12/12 Q1003 NOSIG
13-03-05 LEBL 050830Z 08016KT 5000 RA BKN007 SCT025 13/12 Q1004 NOSIG
13-03-05 LEBL NIL
13-03-05 LEBL 050900Z 07017KT 5000 DZ SCT009 SCT025 13/12 Q1003 NOSIG
13-03-05 LEBL 050930Z 08019KT 6000 SCT015 SCT025 14/13 Q1003 REDZ NOSIG
13-03-05 LEBL 051000Z 07019KT 6000 SCT015 SCT025 14/13 Q1003 NOSIG
13-03-05 LEBL 051030Z 06016KT 6000 SCT015 SCT025 14/13 Q1003 NOSIG
13-03-05 LEBL 051100Z 07018KT 6000 SCT015 SCT025 14/13 Q1003 NOSIG
13-03-05 LEBL 051130Z 06017KT 040V100 5000 BR SCT015 14/13 Q1002 NOSIG
13-03-05 LEBL 051200Z 06018KT 5000 BR SCT015 14/13 Q1002 NOSIG
13-03-05 LEBL 051230Z 05018KT 5000 BR SCT015 14/13 Q1002 NOSIG
13-03-05 LEBL 051300Z 06017KT 5000 BR SCT015 14/13 Q1001 NOSIG
13-03-05 LEBL 051330Z 06017KT 5000 BR SCT015 14/13 Q1001 NOSIG
13-03-05 LEBL 051400Z 06019KT 5000 BR SCT015 14/13 Q1000 NOSIG
13-03-05 LEBL 051430Z 06020KT 4000 BR SCT015 14/13 Q1000 NOSIG
13-03-05 LEBL 051500Z 05021KT 4000 BR SCT015 14/12 Q0999 NOSIG
13-03-05 LEBL 051530Z 06021KT 4000 BR SCT015 14/12 Q0999 NOSIG
13-03-05 LEBL 051600Z 05022KT 020V080 4000 BR SCT015 14/12 Q0999 NOSIG
13-03-05 LEBL 051630Z 05023KT 4000 BR SCT015 14/12 Q0999 NOSIG
13-03-05 LEBL 051700Z 05024KT 4000 R25R/1300VP2000D BR SCT015 14/12 Q0999 NOSIG
13-03-05 LEBL 051730Z 06021KT 3000 DZ SCT015 14/12 Q0999 NOSIG
13-03-05 LEBL 051800Z 05022KT 3000 RA SCT015 14/12 Q0998 NOSIG
13-03-05 LEBL 051830Z 05023KT 3000 RA SCT015 14/12 Q0998 NOSIG
13-03-05 LEBL 051900Z 06021KT 3000 R25R/1300N RA BKN012 13/12 Q0998 NOSIG
13-03-05 LEBL 051930Z 06020KT 3000 R25R/1300N -RA BKN012 13/12 Q0998 NOSIG
13-03-05 LEBL 052000Z 06019KT 2000 R25R/0900N -RA SCT007 BKN012 13/12 Q0998 NOSIG
13-03-05 LEBL 052030Z 06017KT 2500 R25R/1000U -RA SCT006 BKN010 13/12 Q0997 NOSIG
13-03-05 LEBL 052100Z 08017KT 2500 RA SCT005 BKN010 13/12 Q0997 NOSIG
13-03-05 LEBL 052130Z 07019KT 2500 R25R/1200U RA FEW003 SCT005 BKN030 13/12 Q0997 NOSIG
13-03-05 LEBL 052200Z 07018KT 2000 R25R/1300N +RA FEW003 SCT005 BKN012 13/12 Q0997
13-03-05 LEBL 052230Z 06019KT 3000 R25R/1300N RA FEW003 SCT005 BKN010 12/12 Q0996
13-03-05 LEBL 052300Z 06019KT 2000 R25R/1200D +RA FEW003 SCT004 BKN008 13/12 Q0995
13-03-05 LEBL 052317Z 05020KT 3000 R25R/1200N RA FEW003 SCT004 BKN009 13/12 Q0995
13-03-06 LEBL 060000Z 05020KT 5000 R25R/1300N BR FEW004 SCT005 BKN009 13/13 Q0994 NOSIG
13-03-06 LEBL 060030Z 05019KT 3500 R25R/1200N BR FEW006 SCT007 BKN009 13/13 Q0994 Q0993 NOSIG
13-03-06 LEBL 060119Z 07019KT 2500 R25R/0900N BR DZ FEW007 SCT009 BKN011 13/13 Q0993
13-03-06 LEBL 060130Z 06017KT 2300 R25R/0900N R07L/1300N R07R/1400N BR DZ FEW007 SCT010 BKN013 13/13 Q0993 NOSIG
13-03-06 LEBL 060200Z 06016KT 2000 R25R/0550V0800U R07L/1100N R07R/1200N BR -DZ FEW006 SCT008 BKN011 13/13 Q0992 NOSIG
13-03-06 LEBL 060230Z 06015KT 2000 R25R/0900N R07L/1100N R07R/1300N BR DZ FEW005 SCT008 BKN012 13/13 Q0992 NOSIG
13-03-06 LEBL 060300Z 06014KT 1500 R25R/0750N R07L/1000N R07R/1200N BR RA FEW005 SCT007 BKN008 13/13 Q0991 NOSIG
13-03-06 LEBL 060330Z 07015KT 1500 R25R/0800N R07L/1100N R07R/1200N BR DZ FEW003 SCT006 BKN010 13/13 Q0991 NOSIG
13-03-06 LEBL 060400Z 07015KT 1500 R25R/0800N R07L/1100N R07R/1200N BR DZ FEW003 SCT006 BKN009 14/13 Q0991 NOSIG
13-03-06 LEBL 060430Z 06013KT 1200 R25R/0800N R02/1900N R07L/1000N R07R/1200N RA BR FEW003 SCT006 BKN010 13/13 Q0990 NOSIG
13-03-06 LEBL 060500Z 05012KT 1500 R25R/0800N R07L/1000N R07R/1200N BR -RA FEW003 SCT005 BKN008 13/13 Q0990 NOSIG
13-03-06 LEBL 060530Z 04011KT 1100 R25R/0750N R02/1600N R07L/0900N R07R/1100N BR -RA FEW003 BKN007 13/13 Q0990 NOSIG
13-03-06 LEBL 060600Z 04011KT 1200 R25R/0800N R02/1700N R07L/1000N R07R/1100N BR -RA
13-03-06 LEBL 060630Z 04008KT 1200 R25R/0750N R07L/0900N R07R/1100N R25L/1700N BR -RA FEW003 BKN005 13/13 Q0990 NOSIG
13-03-06 LEBL 060700Z 04008KT 1100 R25R/0275V0800D R07L/0800N R07R/1000N R25L/1400N BR -RA FEW003 BKN004 13/13 Q0991 NOSIG
13-03-06 LEBL 060730Z 03006KT 1100 R25R/0800N R07L/0750N R07R/0800N R25L/1100N BR -RA FEW005 BKN008 13/13 Q0991 NOSIG
13-03-06 LEBL 060800Z 03009KT 350V060 1000 R25R/0800N R07L/0650N R07R/0750N R25L/1000N BR +RA FEW004 BKN006 13/13 Q0991 NOSIG
13-03-06 LEBL 060830Z 02009KT 1500 R25R/0900N R07L/0700N R07R/0750N R25L/1000N BR +RA FEW004 BKN006 13/13 Q0992 NOSIG
13-03-06 LEBL 060900Z 03010KT 350V060 3000 R25R/0800N R07L/0750N R07R/0750N R25L/1000N BR +RA FEW004 BKN006 14/13 Q0992 NOSIG
13-03-06 LEBL 060930Z 04010KT 4000 R25R/0900N R07L/0750N R07R/0750N R25L/1100N BR +RA FEW004 BKN006 14/13 Q0992 NOSIG
13-03-06 LEBL 061000Z 02007KT 350V060 4000 R25R/0800N R07L/0800N R07R/0800N R25L/1200N BR +RA FEW004 BKN007 13/13 Q0993 NOSIG
13-03-06 LEBL 061016Z 34008KT 310V020 4000 R25R/0900N R07L/0750N R07R/0800N
13-03-06 LEBL 061030Z 33007KT 9999 R25R/0900N R07L/0750N R07R/0800N R25L/1100N -RA FEW007 BKN018 13/12 Q0993 NOSIG
13-03-06 LEBL 061100Z 32007KT 9999 R25R/1000VP2000U R25L/1100VP2000U DZ FEW009 BKN022 14/13 Q0993 NOSIG
13-03-06 LEBL 061130Z 31007KT 280V340 9999 DZ FEW010 BKN027 15/13 Q0993 NOSIG
13-03-06 LEBL 061200Z 31010KT 9999 RA FEW010 BKN030 15/12 Q0994 NOSIG
13-03-06 LEBL 061230Z 29007KT 230V310 9999 RA FEW010 BKN035 15/12 Q0994 NOSIG
13-03-06 LEBL 061300Z 25006KT 220V300 8000 RA FEW010 BKN035 15/13 Q0994 NOSIG
13-03-06 LEBL 061330Z 23010KT 9000 RA FEW010 BKN033 14/13 Q0994 NOSIG
13-03-06 LEBL 061400Z 25006KT 9999 DZ FEW015 BKN040 15/14 Q0994 NOSIG
13-03-06 LEBL 061430Z 22007KT 8000 FEW012 BKN040 15/13 Q0995 NOSIG
13-03-06 LEBL 061500Z 23008KT 9999 FEW012 BKN055 15/14 Q0995 NOSIG
13-03-06 LEBL 061530Z 24007KT 7000 FEW012 BKN055 15/13 Q0995 NOSIG
13-03-06 LEBL 061600Z 25006KT 8000 FEW012 BKN055 16/14 Q0995 NOSIG
13-03-06 LEBL 061630Z 22006KT 7000 FEW012 BKN055 16/13 Q0995 NOSIG
13-03-06 LEBL 061700Z 22008KT 8000 FEW012 BKN055 15/13 Q0996 NOSIG
13-03-06 LEBL 061730Z 21007KT 8000 FEW015 BKN055 15/12 Q0996 NOSIG
13-03-06 LEBL 061800Z 20005KT 160V220 8000 FEW015 SCT055 14/12 Q0996 NOSIG
13-03-06 LEBL 061830Z VRB02KT 7000 FEW015 SCT055 13/12 Q0997 NOSIG
13-03-06 LEBL 061900Z VRB01KT 9999 FEW015 SCT055 14/12 Q0997 NOSIG
13-03-06 LEBL 061930Z 16003KT 8000 FEW015 13/11 Q0998 NOSIG
13-03-06 LEBL 062000Z VRB01KT 8000 FEW020 14/11 Q0998 NOSIG
13-03-06 LEBL 062030Z 19004KT 4000 BR FEW020 13/12 Q0998 NOSIG
13-03-06 LEBL 062100Z 00000KT 5000 BR FEW020 13/11 Q0999 NOSIG
13-03-06 LEBL 062130Z 24004KT 220V310 5000 BR FEW020 12/11 Q0999 NOSIG
13-03-06 LEBL 062200Z 32004KT 260V360 8000 FEW020 12/11 Q0999 NOSIG
13-03-06 LEBL 062230Z 28002KT 9999 FEW020 12/11 Q0999 NOSIG
13-03-06 LEBL 062300Z VRB01KT 9999 FEW020 11/10 Q0999 NOSIG
13-03-06 LEBL 062330Z VRB01KT 9999 FEW020 11/10 Q0999 NOSIG
13-03-07 LEBL 070000Z 00000KT 9999 FEW020 11/10 Q0999 NOSIG
13-03-07 LEBL 070030Z 31004KT 9999 FEW020 10/10 Q1000 NOSIG
13-03-07 LEBL 070100Z 32004KT 9999 FEW020 11/10 Q0999 NOSIG
13-03-07 LEBL 070130Z 29004KT 250V310 9999 FEW020 10/09 Q1000 NOSIG
13-03-07 LEBL 070200Z 30006KT 9999 FEW020 10/09 Q1000 NOSIG
13-03-07 LEBL 070230Z 30006KT 9999 FEW020 10/10 Q1000 NOSIG
13-03-07 LEBL 070300Z NIL
13-03-07 LEBL 070300Z 30006KT 9999 FEW020 10/10 Q1000 NOSIG
13-03-07 LEBL 070330Z 25006KT 220V290 9000 FEW020 12/11 Q1000 NOSIG
13-03-07 LEBL 070400Z 23005KT 7000 FEW020 11/10 Q1001 NOSIG
13-03-07 LEBL 070430Z 28004KT 200V310 7000 FEW020 10/09 Q1001 NOSIG
13-03-07 LEBL 070500Z VRB01KT 9999 FEW020 11/10 Q1001 NOSIG
13-03-07 LEBL 070530Z 00000KT 9999 FEW020 12/10 Q1001 NOSIG
13-03-07 LEBL 070600Z 01003KT 340V070 9999 FEW020 13/10 Q1002 NOSIG
13-03-07 LEBL 070630Z 32003KT 280V350 9999 FEW020 13/10 Q1002 NOSIG
13-03-07 LEBL 070700Z 27006KT 220V310 9999 FEW020 14/10 Q1002 NOSIG
13-03-07 LEBL 070730Z 28008KT 250V340 9999 FEW020 16/10 Q1002 NOSIG
13-03-07 LEBL 070800Z 31008KT 280V340 9999 FEW020 17/10 Q1003 NOSIG
13-03-07 LEBL 070830Z 28012KT 9999 FEW020 17/10 Q1003 NOSIG
13-03-07 LEBL 070900Z 29008KT 230V340 9999 FEW020 18/11 Q1003 NOSIG
13-03-07 LEBL 070930Z 34001KT 9999 FEW020 20/11 Q1003 NOSIG
13-03-07 LEBL 071000Z 28008KT 250V340 9999 FEW020 20/10 Q1003 NOSIG
13-03-07 LEBL 071030Z 23011KT 9999 FEW020 19/11 Q1003 NOSIG
13-03-07 LEBL 071100Z 21012KT 9999 FEW020 19/11 Q1003 NOSIG
13-03-07 LEBL 071130Z 22016KT 9999 FEW020 18/12 Q1004 NOSIG
13-03-07 LEBL 071200Z 21016KT 9999 FEW020 18/11 Q1004 NOSIG
13-03-07 LEBL 071230Z 22015KT 9999 FEW020 18/10 Q1004 NOSIG
13-03-07 LEBL 071300Z 21012KT 9999 FEW020 SCT025 16/11 Q1004 NOSIG
13-03-07 LEBL 071330Z 20004KT 150V230 9999 FEW020 SCT025 17/11 Q1003 NOSIG
13-03-07 LEBL 071400Z 20009KT 9999 FEW020 16/12 Q1003 NOSIG
13-03-07 LEBL 071430Z 21008KT 9999 FEW020 16/12 Q1003 NOSIG
13-03-07 LEBL 071500Z 23012KT 9999 FEW020 16/12 Q1002 NOSIG
13-03-07 LEBL 071530Z 21008KT 9999 FEW020 16/12 Q1002 NOSIG
13-03-07 LEBL 071600Z 23014KT 9999 FEW020 16/12 Q1002 NOSIG
13-03-07 LEBL 071630Z 24013KT 9999 FEW020 16/12 Q1002 NOSIG
13-03-07 LEBL 071700Z 22013KT 9999 FEW020 16/12 Q1002 NOSIG
13-03-07 LEBL 071730Z 23014KT 9999 FEW020 15/12 Q1001 NOSIG
13-03-07 LEBL 071800Z 21014KT 9999 FEW020 15/12 Q1001 NOSIG
13-03-07 LEBL 071830Z 21010KT 9999 FEW020 15/13 Q1001 NOSIG
13-03-07 LEBL 071900Z 22009KT 9999 FEW020 14/12 Q1001 NOSIG
13-03-07 LEBL 071930Z 21009KT 9999 FEW020 15/12 Q1001 NOSIG
13-03-07 LEBL 072000Z 21006KT 9999 FEW020 14/13 Q1001 NOSIG
13-03-07 LEBL 072030Z 25007KT 220V280 9999 FEW020 14/12 Q1001 NOSIG
13-03-07 LEBL 072100Z 22010KT 9999 FEW020 15/12 Q1000 NOSIG
13-03-07 LEBL 072130Z 22014KT 9999 FEW020 15/12 Q1000 NOSIG
13-03-07 LEBL 072200Z 20009KT 9999 DZ FEW020 15/13 Q1000 NOSIG
13-03-07 LEBL 072230Z 24014KT 9999 FEW020 15/13 Q1000 NOSIG
13-03-07 LEBL 072300Z 23018KT 9999 FEW020 15/12 Q0999 NOSIG
13-03-07 LEBL 072330Z 23016KT 9999 FEW020 15/12 Q0999 NOSIG
13-03-08 LEBL 080000Z 23016KT 9999 FEW020 14/12 Q0999 NOSIG
13-03-08 LEBL 080030Z 24015KT 9999 FEW020 14/12 Q0999 NOSIG
13-03-08 LEBL 080100Z 23015KT 9999 FEW020 14/13 Q0999 NOSIG
13-03-08 LEBL 080130Z 24013KT 9999 FEW020 14/12 Q0999 NOSIG
13-03-08 LEBL 080200Z 24013KT 9999 FEW020 14/11 Q1000 NOSIG
13-03-08 LEBL 080230Z 24013KT 9999 FEW020 14/11 Q1000 NOSIG
13-03-08 LEBL 080300Z 22011KT 9999 FEW020 14/11 Q1000 NOSIG
13-03-08 LEBL 080330Z 22010KT 9999 FEW020 15/09 Q1000 NOSIG
13-03-08 LEBL 080400Z 21009KT 190V250 9999 FEW020 15/08 Q1001 NOSIG
13-03-08 LEBL 080430Z 24012KT 9999 FEW020 15/07 Q1001 NOSIG
13-03-08 LEBL 080500Z 23017KT 9999 FEW020 15/07 Q1002 NOSIG
13-03-08 LEBL 080530Z 26014KT 9999 FEW020 14/08 Q1002 NOSIG
13-03-08 LEBL 080600Z 25014KT 9999 FEW020 14/08 Q1002 NOSIG
13-03-08 LEBL 080630Z 26014KT 9999 FEW020 14/08 Q1003 NOSIG
13-03-08 LEBL 080700Z 26017G27KT 9999 FEW020 16/06 Q1003 NOSIG
13-03-08 LEBL 080730Z 28018KT 9999 FEW020 15/07 Q1003 NOSIG
13-03-08 LEBL 080800Z 28013KT 9999 FEW020 16/05 Q1004 NOSIG
13-03-08 LEBL 080830Z 25013KT 220V290 9999 FEW020 16/07 Q1004 NOSIG
13-03-08 LEBL 080900Z 28015KT 230V310 9999 FEW020 17/07 Q1004 NOSIG
13-03-08 LEBL 080930Z 26012KT 190V300 9999 FEW020 18/05 Q1005 NOSIG
13-03-08 LEBL 081000Z 25016G30KT 220V290 9999 FEW020 19/07 Q1005 NOSIG
13-03-08 LEBL 081030Z 25012KT 220V280 9999 FEW020 19/05 Q1005 NOSIG
13-03-08 LEBL 081100Z 27018G28KT 9999 FEW020 20/04 Q1005 NOSIG
13-03-08 LEBL 081130Z 27016KT 9999 FEW020 20/04 Q1005 NOSIG
13-03-08 LEBL 081200Z 27014KT 230V300 9999 FEW020 18/10 Q1005 NOSIG
13-03-08 LEBL 081230Z 24016KT 210V270 9999 FEW020 19/09 Q1005 NOSIG
13-03-08 LEBL 081300Z 22017KT 9999 FEW020 19/08 Q1005 NOSIG
13-03-08 LEBL 081330Z 24023KT 9999 FEW020 19/08 Q1005 NOSIG
13-03-08 LEBL 081400Z 23022KT 9999 FEW020 19/08 Q1005 NOSIG
13-03-08 LEBL 081430Z 23025KT 9999 FEW020 18/10 Q1005 NOSIG
13-03-08 LEBL 081500Z 22021KT 9999 FEW020 18/11 Q1006 NOSIG
13-03-08 LEBL 081530Z 23018KT 9999 FEW020 17/10 Q1005 NOSIG
13-03-08 LEBL 081600Z 23018KT 9999 FEW020 17/09 Q1005 NOSIG
13-03-08 LEBL 081630Z 24015KT 9999 FEW020 17/09 Q1005 NOSIG
13-03-08 LEBL 081700Z 24015KT 9999 FEW025 17/08 Q1006 NOSIG
13-03-08 LEBL 081730Z 23016KT 9999 FEW025 17/08 Q1006 NOSIG
13-03-08 LEBL 081800Z 23013KT 9999 FEW025 16/08 Q1006 NOSIG
13-03-08 LEBL 081830Z 23011KT 9999 FEW025 16/08 Q1006 NOSIG
13-03-08 LEBL 081900Z 22009KT 9999 FEW025 16/08 Q1006 NOSIG
13-03-08 LEBL 081930Z 21007KT 170V240 9999 FEW025 16/09 Q1006 NOSIG
13-03-08 LEBL 082000Z 21009KT 9999 FEW025 15/10 Q1006 NOSIG
13-03-08 LEBL 082030Z 21008KT 9999 FEW025 15/10 Q1006 NOSIG
13-03-08 LEBL 082100Z 27005KT 240V300 9999 FEW025 15/11 Q1006 NOSIG
13-03-08 LEBL 082130Z 24005KT 220V280 9999 FEW025 14/11 Q1005 NOSIG
13-03-08 LEBL 082200Z 24004KT 200V310 9999 FEW025 15/11 Q1005 NOSIG
13-03-08 LEBL 082230Z 23003KT 9999 FEW025 15/11 Q1005 TEMPO RA
13-03-08 LEBL 082300Z 22006KT 8000 FEW025 14/12 Q1005 NOSIG
13-03-08 LEBL 082330Z 23004KT 9999 FEW025 14/11 Q1004 NOSIG
13-03-09 LEBL 090000Z 20006KT 9999 FEW025 14/12 Q1004 NOSIG
13-03-09 LEBL 090030Z 22009KT 9999 FEW025 SCT056 14/11 Q1004 NOSIG
13-03-09 LEBL 090100Z 25006KT 9999 FEW025 SCT056 14/11 Q1004 NOSIG
13-03-09 LEBL 090130Z 29006KT 9999 FEW025 14/11 Q1004 NOSIG
13-03-09 LEBL 090200Z 28003KT 250V330 9999 FEW025 13/10 Q1004 NOSIG
13-03-09 LEBL 090230Z 00000KT 9999 FEW025 13/10 Q1003 NOSIG
13-03-09 LEBL 090300Z 19003KT 130V220 9999 FEW025 13/09 Q1003 NOSIG
13-03-09 LEBL 090330Z 28008KT 9999 FEW025 13/09 Q1003 NOSIG
13-03-09 LEBL 090400Z 22007KT 9999 FEW025 13/09 Q1003 NOSIG
13-03-09 LEBL 090430Z 27004KT 230V300 9999 FEW025 13/09 Q1003 NOSIG
13-03-09 LEBL 090500Z 28007KT 9999 FEW025 13/09 Q1004 NOSIG
13-03-09 LEBL 090530Z 27007KT 9999 FEW025 13/08 Q1004 NOSIG
13-03-09 LEBL 090600Z 26013KT 9999 FEW025 13/08 Q1004 NOSIG
13-03-09 LEBL 090630Z 26009KT 9999 FEW025 13/08 Q1004 NOSIG
13-03-09 LEBL 090700Z 28004KT 9999 FEW025 13/08 Q1005 NOSIG
13-03-09 LEBL 090730Z 24006KT 9999 FEW025 14/08 Q1005 NOSIG
13-03-09 LEBL 090800Z 22008KT 9999 FEW025 14/08 Q1005 NOSIG
13-03-09 LEBL 090830Z 26003KT 220V310 9999 FEW025 15/08 Q1005 NOSIG
13-03-09 LEBL 090900Z 22011KT 9999 FEW030 16/08 Q1006 NOSIG
13-03-09 LEBL 090930Z 23015KT 9999 FEW030 16/08 Q1006 NOSIG
13-03-09 LEBL 091000Z 23016KT CAVOK 17/07 Q1006 NOSIG
13-03-09 LEBL 091030Z 22016KT CAVOK 16/09 Q1006 NOSIG
13-03-09 LEBL 091100Z 22018KT CAVOK 17/08 Q1006 NOSIG
13-03-09 LEBL 091130Z 22019KT CAVOK 17/09 Q1006 NOSIG
13-03-09 LEBL 091200Z 22020KT 9999 FEW025 17/09 Q1005 NOSIG
13-03-09 LEBL 091230Z 23023KT 9999 FEW025 18/09 Q1005 NOSIG
13-03-09 LEBL 091300Z 23018KT 9999 FEW025 18/10 Q1005 NOSIG
13-03-09 LEBL 091330Z 22017KT 9999 FEW025 18/10 Q1004 NOSIG
13-03-09 LEBL 091400Z 23018KT 9999 FEW025 19/07 Q1004 NOSIG
13-03-09 LEBL 091430Z 22018KT 9999 FEW025 17/09 Q1004 NOSIG
13-03-09 LEBL 091430Z NIL
13-03-09 LEBL 091500Z 23022KT 9999 FEW025 17/09 Q1004 NOSIG
13-03-09 LEBL 091530Z 22017KT 9999 FEW025 16/10 Q1004 NOSIG
13-03-09 LEBL 091600Z 23019KT 9999 FEW025 17/09 Q1004 NOSIG
13-03-09 LEBL 091630Z NIL
13-03-09 LEBL 091630Z 23014KT 9999 FEW025 17/09 Q1004 NOSIG
13-03-09 LEBL 091700Z 23011KT 9999 FEW025 17/09 Q1004 NOSIG
13-03-09 LEBL 091730Z 23010KT 200V260 9999 FEW025 16/10 Q1004 NOSIG
13-03-09 LEBL 091800Z 24010KT 9999 FEW025 16/09 Q1004 NOSIG
13-03-09 LEBL 091830Z 22011KT 9999 FEW025 15/10 Q1005 NOSIG
13-03-09 LEBL 091900Z 24011KT 9999 FEW025 14/09 Q1005 NOSIG
13-03-09 LEBL 091930Z 25010KT 9999 FEW025 14/10 Q1005 NOSIG
13-03-09 LEBL 092000Z 23007KT 9999 FEW025 14/09 Q1005 NOSIG
13-03-09 LEBL 092030Z 22010KT 9999 FEW025 14/10 Q1005 NOSIG
13-03-09 LEBL 092100Z 25006KT 220V280 9999 FEW025 13/10 Q1005 NOSIG
13-03-09 LEBL 092130Z 27003KT 200V340 9999 FEW025 13/10 Q1005 NOSIG
13-03-09 LEBL 092200Z 25005KT 230V290 9999 FEW025 13/10 Q1005 NOSIG
13-03-09 LEBL 092230Z 23006KT 9999 FEW025 13/11 Q1005 NOSIG
13-03-09 LEBL 092300Z 24005KT 9999 FEW025 13/11 Q1004 NOSIG
13-03-09 LEBL 092330Z 22005KT 9999 FEW025 13/12 Q1004 NOSIG
13-03-10 LEBL 100000Z 29002KT 9999 FEW025 12/11 Q1004 NOSIG
13-03-10 LEBL 100030Z 31005KT 9999 FEW025 12/09 Q1003 NOSIG
13-03-10 LEBL 100100Z 33006KT 300V010 9999 FEW025 13/07 Q1003 NOSIG
13-03-10 LEBL 100130Z 02005KT 330V060 9999 FEW025 13/07 Q1003 NOSIG
13-03-10 LEBL 100200Z 02002KT 9999 FEW025 13/07 Q1002 NOSIG
13-03-10 LEBL 100230Z 32004KT 290V360 9999 FEW025 13/07 Q1002 NOSIG
13-03-10 LEBL 100300Z 33008KT 9999 FEW025 13/07 Q1002 NOSIG
13-03-10 LEBL 100330Z 32008KT 9999 FEW025 13/07 Q1001 NOSIG
13-03-10 LEBL 100400Z 32011KT 9999 FEW025 12/07 Q1001 NOSIG
13-03-10 LEBL 100430Z 33008KT 9999 FEW025 12/07 Q1001 NOSIG
13-03-10 LEBL 100500Z 32009KT 9999 FEW025 12/07 Q1001 NOSIG
13-03-10 LEBL 100530Z 30007KT 9999 FEW025 12/07 Q1001 NOSIG
13-03-10 LEBL 100600Z 29005KT 9999 FEW025 12/07 Q1001 NOSIG
13-03-10 LEBL 100630Z 30005KT 280V340 9999 FEW025 12/06 Q1001 NOSIG
13-03-10 LEBL 100700Z 31009KT 9999 FEW025 13/06 Q1001 NOSIG
13-03-10 LEBL 100730Z 30010KT 250V330 9999 FEW025 14/07 Q1002 NOSIG
13-03-10 LEBL 100800Z 28010KT 260V320 9999 FEW025 15/06 Q1002 NOSIG
13-03-10 LEBL 100830Z 27007KT 210V340 9999 FEW025 16/06 Q1002 NOSIG
13-03-10 LEBL 100900Z NIL
13-03-10 LEBL 100900Z 24010KT 220V280 9999 FEW025 16/07 Q1002 NOSIG
13-03-10 LEBL 100930Z 22013KT 9999 FEW025 17/06 Q1002 NOSIG
13-03-10 LEBL 101000Z 27015KT 9999 FEW025 18/05 Q1002 NOSIG
13-03-10 LEBL 101030Z 28011KT 250V330 9999 FEW025 19/03 Q1002 NOSIG
13-03-10 LEBL 101100Z 28014KT 240V310 9999 FEW025 18/08 Q1002 NOSIG
13-03-10 LEBL 101130Z 22014KT 200V270 9999 FEW025 18/08 Q1002 NOSIG
13-03-10 LEBL 101200Z 29015KT 9999 FEW025 19/05 Q1002 NOSIG
13-03-10 LEBL 101230Z 24018KT 9999 FEW025 18/08 Q1002 NOSIG
13-03-10 LEBL 101230Z NIL
13-03-10 LEBL 101300Z 23020KT 9999 FEW025 SCT055 18/08 Q1001 NOSIG
13-03-10 LEBL 101330Z 24022KT 9999 FEW025 SCT055 18/08 Q1001 NOSIG
13-03-10 LEBL 101400Z 23019KT 9999 FEW025 SCT055 17/09 Q1001 NOSIG
13-03-10 LEBL 101430Z 23016KT 9999 FEW025 SCT055 17/08 Q1001 NOSIG
13-03-10 LEBL 101500Z 22024KT 9999 FEW025 SCT055 15/09 Q1001 NOSIG
13-03-10 LEBL 101530Z 23023KT 9999 FEW025 SCT055 16/09 Q1001 NOSIG
13-03-10 LEBL 101600Z 23024KT 9999 FEW025 16/09 Q1001 NOSIG
13-03-10 LEBL 101630Z 24022KT 9999 FEW025 16/09 Q1001 NOSIG
13-03-10 LEBL 101700Z 24020KT 9999 FEW025 16/08 Q1001 NOSIG
13-03-10 LEBL 101730Z 23018KT 9999 FEW025 15/09 Q1001 NOSIG
13-03-10 LEBL 101800Z 23019KT 9999 FEW025 15/08 Q1001 NOSIG
13-03-10 LEBL 101830Z 24016KT 9999 FEW025 15/08 Q1001 NOSIG
13-03-10 LEBL 101900Z 23013KT 9999 FEW025 15/08 Q1002 NOSIG
13-03-10 LEBL 101930Z 24014KT CAVOK 14/09 Q1002 NOSIG
13-03-10 LEBL 102000Z 24010KT CAVOK 14/10 Q1002 NOSIG
13-03-10 LEBL 102030Z 23008KT CAVOK 14/10 Q1002 NOSIG
13-03-10 LEBL 102100Z 25007KT 9999 FEW025 13/10 Q1002 NOSIG
13-03-10 LEBL 102130Z 27004KT 230V330 9999 FEW025 13/08 Q1002 NOSIG
13-03-10 LEBL 102200Z 23004KT 200V280 9999 FEW025 14/07 Q1002 NOSIG
13-03-10 LEBL 102230Z 23006KT 9999 FEW025 14/06 Q1002 NOSIG
13-03-10 LEBL 102300Z 23006KT 190V250 9999 FEW025 14/10 Q1002 NOSIG
13-03-10 LEBL 102330Z 24008KT 9999 FEW025 14/06 Q1002 NOSIG
13-03-11 LEBL 110000Z 25008KT 9999 FEW025 14/05 Q1002 NOSIG
13-03-11 LEBL 110030Z 24007KT 220V280 9999 FEW025 14/03 Q1002 NOSIG
13-03-11 LEBL 110100Z 26009KT 9999 FEW025 14/04 Q1002 NOSIG
13-03-11 LEBL 110130Z 34006KT 9999 FEW025 15/03 Q1002 NOSIG
13-03-11 LEBL 110200Z 33009KT 9999 FEW025 13/04 Q1002 NOSIG
13-03-11 LEBL 110230Z 33006KT 9999 FEW025 13/05 Q1001 NOSIG
13-03-11 LEBL 110300Z 32007KT 9999 FEW030 13/05 Q1001 NOSIG
13-03-11 LEBL 110330Z 33007KT 9999 FEW030 13/04 Q1001 NOSIG
13-03-11 LEBL 110400Z 33008KT 9999 FEW030 13/05 Q1001 NOSIG
13-03-11 LEBL 110430Z 31011KT 9999 FEW030 13/05 Q1001 NOSIG
13-03-11 LEBL 110500Z 32011KT 9999 FEW030 13/04 Q1001 NOSIG
13-03-11 LEBL 110530Z 33007KT 9999 FEW030 12/04 Q1002 NOSIG
13-03-11 LEBL 110600Z 33005KT 9999 FEW030 12/04 Q1002 NOSIG
13-03-11 LEBL 110630Z 35005KT 9999 FEW030 12/04 Q1002 NOSIG
13-03-11 LEBL 110700Z 31006KT 290V010 9999 FEW035 12/05 Q1002 NOSIG
13-03-11 LEBL 110730Z 31007KT 240V360 9999 FEW035 13/05 Q1002 NOSIG
13-03-11 LEBL 110800Z 32004KT 230V360 9999 FEW035 13/05 Q1003 NOSIG
13-03-11 LEBL 110830Z 30009KT 260V350 9999 FEW035 14/04 Q1003 NOSIG
13-03-11 LEBL 110900Z 31009KT 250V330 9999 FEW035 14/04 Q1003 NOSIG
13-03-11 LEBL NIL
13-03-11 LEBL 110930Z 30008KT 260V350 9999 FEW035 15/04 Q1003 NOSIG
13-03-11 LEBL 111000Z 22008KT 160V260 9999 FEW035 16/04 Q1003 NOSIG
13-03-11 LEBL 111030Z 30009KT 260V360 9999 FEW030 17/02 Q1003 NOSIG
13-03-11 LEBL 111100Z 28014KT 240V300 9999 FEW030 17/01 Q1002 NOSIG
13-03-11 LEBL 111130Z 29008KT 260V330 9999 FEW030 17/02 Q1002 NOSIG
13-03-11 LEBL 111200Z 24010KT 210V310 9999 FEW030 18/05 Q1002 NOSIG
13-03-11 LEBL 111230Z 22019KT 9999 FEW030 16/06 Q1002 NOSIG
13-03-11 LEBL 111300Z 24020KT 9999 FEW030 17/05 Q1002 NOSIG
13-03-11 LEBL 111330Z 29022KT 9999 FEW030 18/02 Q1001 NOSIG
13-03-11 LEBL 111400Z 26021KT 9999 FEW030 18/02 Q1001 NOSIG
13-03-11 LEBL 111430Z 28016KT 250V310 9999 FEW030 19/02 Q1001 NOSIG
13-03-11 LEBL 111500Z 23027KT 9999 FEW030 16/07 Q1001 NOSIG
13-03-11 LEBL 111530Z 23028G39KT 9999 FEW030 16/08 Q1000 NOSIG
13-03-11 LEBL 111600Z 23023KT 9999 FEW030 16/07 Q1000 NOSIG
13-03-11 LEBL 111630Z 23022KT 9999 FEW030 15/08 Q1000 NOSIG
13-03-11 LEBL 111700Z 24020KT 9999 FEW030 15/08 Q1000 NOSIG
13-03-11 LEBL 111730Z 24020KT 9999 FEW025 15/08 Q1001 NOSIG
13-03-11 LEBL 111800Z 24015KT 9999 FEW025 14/08 Q1001 NOSIG
13-03-11 LEBL 111830Z 25015KT 9999 FEW025 15/05 Q1001 NOSIG
13-03-11 LEBL 111900Z 25013KT 9999 FEW025 14/05 Q1001 NOSIG
13-03-11 LEBL 111930Z 25013KT 9999 FEW025 14/06 Q1001 NOSIG
13-03-11 LEBL 112000Z 25011KT 9999 FEW025 14/07 Q1001 NOSIG
13-03-11 LEBL 112030Z 24014KT 9999 FEW025 14/08 Q1001 NOSIG
13-03-11 LEBL 112100Z 24007KT 9999 FEW025 13/08 Q1001 NOSIG
13-03-11 LEBL 112130Z 32005KT 280V010 9999 FEW025 13/07 Q1001 NOSIG
13-03-11 LEBL 112200Z 31005KT 280V340 9999 FEW025 13/07 Q1001 NOSIG
13-03-11 LEBL 112230Z 32006KT 9999 FEW025 14/06 Q1001 NOSIG
13-03-11 LEBL 112300Z 33008KT 9999 FEW025 13/06 Q1001 NOSIG
13-03-11 LEBL 112330Z 32006KT 9999 FEW025 14/04 Q1001 NOSIG
13-03-12 LEBL 120000Z 35005KT 9999 FEW025 14/05 Q1001 NOSIG
13-03-12 LEBL 120030Z 34003KT 9999 FEW025 13/05 Q1001 NOSIG
13-03-12 LEBL 120100Z 00000KT 9999 FEW025 13/05 Q1001 NOSIG
13-03-12 LEBL 120130Z 00000KT 9999 FEW025 13/05 Q1000 NOSIG
13-03-12 LEBL 120200Z 24009KT 9999 FEW025 13/05 Q1000 NOSIG
13-03-12 LEBL 120230Z 22006KT 9999 FEW025 13/05 Q1000 NOSIG
13-03-12 LEBL 120300Z 25009KT 9999 FEW025 13/05 Q1000 NOSIG
13-03-12 LEBL 120330Z 26009KT 9999 FEW025 13/04 Q1000 NOSIG
13-03-12 LEBL 120400Z 26006KT 9999 FEW025 13/04 Q0999 NOSIG
13-03-12 LEBL 120430Z 27007KT 9999 FEW025 13/04 Q0999 NOSIG
13-03-12 LEBL 120500Z NIL
13-03-12 LEBL 120500Z 26012KT 9999 FEW025 13/03 Q0999 NOSIG
13-03-12 LEBL 120530Z 26013KT 9999 FEW025 13/03 Q0999 NOSIG
13-03-12 LEBL 120600Z 25011KT 9999 FEW025 13/04 Q0999 NOSIG
13-03-12 LEBL 120630Z 26009KT 240V300 9999 FEW025 SCT042 12/04 Q1000 NOSIG
13-03-12 LEBL 120700Z 30006G17KT 260V010 9999 FEW025 SCT042 13/05 Q1000 NOSIG
13-03-12 LEBL 120730Z 28009KT 9999 FEW025 SCT050 13/04 Q1000 NOSIG
13-03-12 LEBL 120800Z 30007KT 240V330 9999 FEW025 SCT050 13/04 Q1001 NOSIG
13-03-12 LEBL 120830Z 31003KT 9999 FEW025 SCT056 13/04 Q1001 NOSIG
13-03-12 LEBL 120900Z 27004KT 220V330 9999 FEW025 13/04 Q1001 NOSIG
13-03-12 LEBL 120930Z 34007KT 280V040 9999 FEW025 14/05 Q1001 NOSIG
13-03-12 LEBL 121000Z 30010KT 270V020 9999 FEW025 14/04 Q1001 NOSIG
13-03-12 LEBL 121030Z 33009G20KT 280V010 9999 FEW025 15/05 Q1001 NOSIG
13-03-12 LEBL 121100Z 31005KT 9999 FEW025 SCT050 15/06 Q1001 NOSIG
13-03-12 LEBL 121130Z 18009KT 9999 FEW025 SCT048 15/05 Q1001 NOSIG
13-03-12 LEBL 121200Z 18008KT 150V210 9999 FEW025 SCT055 15/05 Q1001 NOSIG
13-03-12 LEBL 121230Z 18008KT 9999 FEW025 SCT055 16/04 Q1001 NOSIG
13-03-12 LEBL 121300Z 16008KT 9999 FEW025 SCT055 16/05 Q1000 NOSIG
13-03-12 LEBL 121330Z 18010KT 9999 FEW025 SCT055 16/07 Q1000 NOSIG
13-03-12 LEBL 121400Z 20013KT 180V240 9999 FEW025 SCT055 16/08 Q1000 NOSIG
13-03-12 LEBL 121430Z 22013KT 9999 FEW025 SCT055 16/08 Q1000 NOSIG
13-03-12 LEBL 121500Z 23016KT 9999 FEW025 SCT055 15/07 Q1000 NOSIG
13-03-12 LEBL 121530Z 23014KT 9999 FEW025 SCT055 15/08 Q0999 NOSIG
13-03-12 LEBL 121600Z 23016KT 9999 FEW025 SCT055 16/08 Q0999 NOSIG
13-03-12 LEBL 121630Z 22017KT 9999 FEW025 SCT055 16/08 Q0999 NOSIG
13-03-12 LEBL 121700Z 22018KT 9999 FEW025 15/09 Q0999 NOSIG
13-03-12 LEBL 121730Z 23018KT 9999 FEW025 14/09 Q0999 NOSIG
13-03-12 LEBL 121800Z 23017KT 9999 SCT025 14/08 Q0999 NOSIG
13-03-12 LEBL 121830Z 24014KT 9999 SCT025 14/04 Q0999 NOSIG
13-03-12 LEBL 121900Z 24011KT 9999 SCT025 14/04 Q0999 NOSIG
13-03-12 LEBL 121930Z 25006KT 9999 SCT025 13/05 Q0999 NOSIG
13-03-12 LEBL 122000Z 21006KT 180V240 9999 FEW025 13/07 Q0999 NOSIG
13-03-12 LEBL 122030Z 22005KT 9999 FEW025 14/08 Q0999 NOSIG
13-03-12 LEBL 122100Z 20003KT 9999 FEW025 13/08 Q0999 NOSIG
13-03-12 LEBL 122130Z 16002KT 9999 FEW025 SCT055 13/08 Q0999 NOSIG
13-03-12 LEBL 122200Z 04008KT 010V070 9999 FEW025 SCT055 12/08 Q0999 NOSIG
13-03-12 LEBL 122230Z 05012KT 9999 FEW025 12/09 Q0999 NOSIG
13-03-12 LEBL 122300Z 06011KT 9999 FEW025 11/08 Q0999 NOSIG
13-03-12 LEBL 122330Z 07009KT 9999 FEW025 11/08 Q0999 NOSIG
13-03-13 LEBL 130000Z 07008KT 040V100 9999 FEW015 SCT025 11/08 Q0998 NOSIG
13-03-13 LEBL 130030Z 06009KT 9999 SCT015 SCT025 11/08 Q0998 NOSIG
13-03-13 LEBL 130100Z 05008KT 9999 FEW015 SCT025 11/08 Q0998 NOSIG
13-03-13 LEBL 130130Z 05007KT 9999 FEW015 SCT020 11/08 Q0997 NOSIG
13-03-13 LEBL 130200Z 01004KT 9999 FEW015 SCT020 10/06 Q0997 NOSIG
13-03-13 LEBL 130230Z 32007KT 9999 BKN018 09/06 Q0997 NOSIG
13-03-13 LEBL 130300Z 33008KT 9999 SCT018 10/06 Q0996 NOSIG
13-03-13 LEBL 130330Z 34004KT 9999 BKN018 10/06 Q0996 NOSIG
13-03-13 LEBL 130400Z 32006KT 9999 SCT018 09/06 Q0996 NOSIG
13-03-13 LEBL 130430Z 33004KT 9999 FEW018 10/06 Q0995 NOSIG
13-03-13 LEBL 130500Z 33006KT 9999 FEW020 09/06 Q0996 NOSIG
13-03-13 LEBL 130530Z 33008KT 9999 FEW020 09/05 Q0996 NOSIG
13-03-13 LEBL 130600Z 33007KT 9999 FEW020 08/05 Q0996 NOSIG
13-03-13 LEBL 130630Z 33007G18KT 290V350 9999 FEW018 08/05 Q0996 NOSIG
13-03-13 LEBL 130700Z 32007KT 300V360 9999 FEW015 SCT020 09/05 Q0995 NOSIG
13-03-13 LEBL 130730Z 32012KT 9999 BKN018 FEW020TCU 10/05 Q0995 TEMPO SHRA
13-03-13 LEBL 130800Z 32011KT 280V340 9999 -SHRA BKN018 FEW020TCU 10/06 Q0996 NOSIG
13-03-13 LEBL 130830Z 30010KT 5000 +SHRA BKN018 FEW020TCU 09/06 Q0996 NOSIG
13-03-13 LEBL 130900Z 31008KT 270V340 9999 -RA FEW010 FEW020TCU BKN035 10/06 Q0996 NOSIG
13-03-13 LEBL 130930Z 36005KT 320V060 9999 -RA FEW010 FEW020TCU BKN035 10/07 Q0996
13-03-13 LEBL 131000Z 01006KT 280V040 9999 -RA FEW012 FEW020CB SCT040 09/07 Q0996
13-03-13 LEBL 131010Z 03005KT 350V080 9000 -TSRA FEW012 FEW020CB SCT040 09/07 Q0996
13-03-13 LEBL 131030Z 02004KT 340V070 4000 -TSRA FEW012 FEW020CB SCT030 09/07 Q0996
13-03-13 LEBL 131049Z 03002KT 3500 TSRA SCT010 FEW020CB SCT030 09/06 Q0997 NOSIG
13-03-13 LEBL 131100Z 36002KT 2500 +RA SCT010 FEW018CB SCT030 08/05 Q0997 NOSIG
13-03-13 LEBL 131130Z NIL
13-03-13 LEBL 131130Z 32005KT 6000 RA SCT012 FEW018CB SCT030 08/05 Q0997 NOSIG
13-03-13 LEBL 131200Z 32009KT 300V360 5000 RA FEW012 FEW018TCU BKN022 07/04 Q0997
13-03-13 LEBL 131230Z 31008KT 260V350 4500 RA FEW010 FEW018TCU BKN025 06/04 Q0998
13-03-13 LEBL 131300Z 31007KT 5000 RA FEW010 FEW018TCU SCT025 06/04 Q0998 NOSIG
13-03-13 LEBL 131330Z 34006KT 330V060 6000 RA FEW009 BKN030 06/04 Q0997 NOSIG
13-03-13 LEBL 131400Z 34005KT 310V010 4800 RA FEW009 BKN030 06/04 Q0997 NOSIG
13-03-13 LEBL 131430Z 32005KT 290V360 5000 -RA FEW008 BKN025 06/05 Q0997 NOSIG
13-03-13 LEBL 131500Z 29005KT 260V330 6000 -RA FEW006 BKN025 06/04 Q0997 NOSIG
13-03-13 LEBL 131530Z 25005KT 210V270 7000 -RA FEW006 BKN030 06/05 Q0998 NOSIG
13-03-13 LEBL 131600Z VRB02KT 9000 -RA FEW006 BKN030 06/05 Q0998 NOSIG
13-03-13 LEBL 131630Z VRB02KT 9000 -RA FEW008 BKN030 06/05 Q0998 NOSIG
13-03-13 LEBL 131700Z 26003KT 220V310 9999 -RA FEW010 SCT035 07/05 Q0998 NOSIG
13-03-13 LEBL 131730Z 21008KT 9999 -RA FEW010 SCT040 07/05 Q0998 NOSIG
13-03-13 LEBL 131800Z 23006KT 200V260 9999 FEW012 SCT035 08/05 Q0998 NOSIG
13-03-13 LEBL 131830Z 24006KT 220V280 9999 FEW014 08/06 Q0999 NOSIG
13-03-13 LEBL 131900Z 26008KT 9999 FEW014 08/05 Q0999 NOSIG
13-03-13 LEBL 131930Z 26006KT 240V300 9999 FEW018 08/04 Q0999 NOSIG
13-03-13 LEBL 132000Z 28004KT 250V340 9999 FEW018 08/05 Q0999 NOSIG
13-03-13 LEBL 132030Z 32006KT 280V350 9999 FEW018 08/02 Q1000 NOSIG
13-03-13 LEBL 132100Z 31007KT 250V340 9999 FEW018 08/01 Q1000 NOSIG
13-03-13 LEBL 132130Z 32009KT 9999 FEW018 08/M01 Q1000 NOSIG
13-03-13 LEBL 132200Z 32009KT 280V340 9999 FEW018 07/M01 Q1001 NOSIG
13-03-13 LEBL 132230Z 33008KT 290V010 9999 FEW018 07/M02 Q1002 NOSIG
13-03-13 LEBL 132300Z 01002KT 9999 FEW018 07/M01 Q1002 NOSIG
13-03-13 LEBL 132330Z 35006KT 320V030 9999 FEW018 06/M01 Q1003 NOSIG
13-03-14 LEBL 140000Z 33008KT 9999 FEW018 07/M02 Q1003 NOSIG
13-03-14 LEBL 140030Z 32007KT 9999 FEW018 07/M04 Q1004 NOSIG
13-03-14 LEBL 140100Z 34006KT 310V020 9999 FEW018 06/M04 Q1003 NOSIG
13-03-14 LEBL 140130Z 33011KT 9999 FEW024 06/M06 Q1003 NOSIG
13-03-14 LEBL 140200Z 33013KT 9999 FEW024 06/M06 Q1003 NOSIG
13-03-14 LEBL 140230Z 32009KT 9999 FEW024 07/M08 Q1004 NOSIG
13-03-14 LEBL 140300Z 32013KT 9999 FEW022 07/M08 Q1003 NOSIG
13-03-14 LEBL 140330Z 32011KT 290V350 9999 FEW022 07/M08 Q1003 NOSIG
13-03-14 LEBL 140400Z 33012KT 9999 FEW022 06/M06 Q1003 NOSIG
13-03-14 LEBL 140430Z 33013KT 9999 FEW022 06/M06 Q1003 NOSIG
13-03-14 LEBL 140500Z 33009KT 9999 FEW025 06/M06 Q1003 NOSIG
13-03-14 LEBL 140530Z 32013KT 9999 FEW025 07/M08 Q1004 NOSIG
13-03-14 LEBL 140600Z 35011KT 9999 FEW025 06/M07 Q1004 NOSIG
13-03-14 LEBL 140630Z 34010KT 9999 FEW025 05/M06 Q1005 NOSIG
13-03-14 LEBL 140700Z 34011G22KT 9999 FEW025 06/M06 Q1005 NOSIG
13-03-14 LEBL 140730Z 33011KT 290V350 9999 FEW025 06/M05 Q1006 NOSIG
13-03-14 LEBL 140800Z 33009KT 280V010 9999 FEW025 07/M04 Q1006 NOSIG
13-03-14 LEBL 140830Z 32007KT 280V350 9999 FEW025 08/M07 Q1007 NOSIG
13-03-14 LEBL 140900Z 34006KT 280V020 9999 FEW025 09/M05 Q1007 NOSIG
13-03-14 LEBL 140930Z 33005KT 270V040 9999 FEW025 10/M06 Q1007 NOSIG
13-03-14 LEBL 141000Z 35004KT 9999 FEW025 11/M07 Q1007 NOSIG
13-03-14 LEBL 141030Z VRB03KT 9999 FEW025 12/M07 Q1007 NOSIG
13-03-14 LEBL 141100Z 20009KT 170V230 9999 FEW025 11/M06 Q1007 NOSIG
13-03-14 LEBL 141130Z 30014KT 260V330 9999 FEW025 13/M07 Q1006 NOSIG
13-03-14 LEBL 141200Z 31015G26KT 280V350 9999 FEW025 13/M06 Q1006 NOSIG
13-03-14 LEBL 141230Z 32017G28KT 290V350 9999 SCT025 13/M10 Q1006 NOSIG
13-03-14 LEBL 141300Z 30023G38KT 9999 SCT025 14/M10 Q1006 NOSIG
13-03-14 LEBL 141330Z 32018KT 290V350 9999 SCT025 13/M12 Q1006 NOSIG
13-03-14 LEBL 141400Z 32024G37KT 290V350 9999 SCT025 14/M12 Q1006 NOSIG
13-03-14 LEBL 141430Z 33022G33KT 300V360 9999 SCT025 14/M10 Q1006 NOSIG
13-03-14 LEBL 141500Z 33017KT 300V010 9999 SCT025 14/M12 Q1005 NOSIG
13-03-14 LEBL 141530Z 33012G22KT 290V040 9999 FEW025 14/M09 Q1006 NOSIG
13-03-14 LEBL 141600Z 35011KT 310V060 9999 FEW025 14/M09 Q1006 NOSIG
13-03-14 LEBL 141630Z 33015KT 9999 FEW025 13/M08 Q1006 NOSIG
13-03-14 LEBL 141700Z 34017KT 310V010 9999 FEW025 13/M08 Q1006 NOSIG
13-03-14 LEBL 141730Z 33009KT 9999 FEW025 12/M09 Q1007 NOSIG
13-03-14 LEBL 141800Z 33008KT 290V060 9999 FEW025 12/M07 Q1007 NOSIG
13-03-14 LEBL 141830Z 32005KT 240V010 9999 FEW025 12/M08 Q1007 NOSIG
13-03-14 LEBL 141900Z VRB02KT 9999 FEW025 11/M08 Q1008 NOSIG
13-03-14 LEBL 141930Z 29003KT 240V330 9999 FEW025 11/M07 Q1008 NOSIG
13-03-14 LEBL 142000Z 28007KT 260V330 9999 FEW025 09/M04 Q1008 NOSIG
13-03-14 LEBL 142030Z 29005KT 260V320 9999 FEW025 09/M03 Q1009 NOSIG
13-03-14 LEBL 142100Z 29003KT 260V350 9999 FEW025 09/M02 Q1009 NOSIG
13-03-14 LEBL 142130Z VRB02KT 9999 FEW028 09/M03 Q1009 NOSIG
13-03-14 LEBL 142200Z 34003KT 280V040 9999 FEW028 09/M04 Q1010 NOSIG
13-03-14 LEBL 142230Z 34005KT 300V010 9999 FEW030 09/M04 Q1010 NOSIG
13-03-14 LEBL 142300Z 31004KT 9999 FEW030 08/M04 Q1010 NOSIG
13-03-14 LEBL 142330Z 29005KT 250V320 9999 FEW030 08/M05 Q1010 NOSIG
13-03-15 LEBL 150000Z 31006KT CAVOK 08/M05 Q1010 NOSIG
13-03-15 LEBL 150030Z 31009KT 9999 FEW012 07/M04 Q1010 NOSIG
13-03-15 LEBL 150100Z 31012KT 9999 FEW014 08/M06 Q1010 NOSIG
13-03-15 LEBL 150130Z 31010KT 9999 FEW015 08/M07 Q1010 NOSIG
13-03-15 LEBL 150200Z 32011KT 9999 FEW018 08/M07 Q1010 NOSIG
13-03-15 LEBL 150230Z 31009KT 9999 FEW020 08/M08 Q1010 NOSIG
13-03-15 LEBL 150300Z 30009KT 9999 FEW020 08/M08 Q1010 NOSIG
13-03-15 LEBL 150330Z 31009KT 9999 FEW022 07/M08 Q1010 NOSIG
13-03-15 LEBL 150400Z 32005KT 290V010 9999 FEW022 07/M08 Q1010 NOSIG
13-03-15 LEBL 150430Z 29002KT 9999 FEW025 07/M07 Q1011 NOSIG
13-03-15 LEBL 150500Z 31006KT 9999 FEW025 07/M07 Q1011 NOSIG
13-03-15 LEBL 150530Z 31008KT 280V340 9999 FEW028 06/M06 Q1012 NOSIG
13-03-15 LEBL 150600Z 27003KT 210V330 9999 FEW025 05/M06 Q1012 NOSIG
13-03-15 LEBL 150630Z 11003KT 330V140 9999 FEW025 05/M06 Q1013 NOSIG
13-03-15 LEBL 150700Z 16002KT 9999 FEW025 06/M07 Q1013 NOSIG
13-03-15 LEBL 150730Z 33004KT 270V020 9999 FEW025 07/M07 Q1013 NOSIG
13-03-15 LEBL 150800Z 35008G18KT 310V030 CAVOK 08/M07 Q1014 NOSIG
13-03-15 LEBL 150830Z 35008KT 320V060 CAVOK 09/M07 Q1014 NOSIG
13-03-15 LEBL 150900Z 33008KT 250V360 CAVOK 10/M09 Q1015 NOSIG
13-03-15 LEBL 150930Z 32006KT 280V010 CAVOK 10/M09 Q1015 NOSIG
13-03-15 LEBL 151000Z 34005KT 280V040 CAVOK 11/M09 Q1015 NOSIG
13-03-15 LEBL 151030Z 12009KT 080V150 CAVOK 11/M07 Q1015 NOSIG
13-03-15 LEBL 151100Z 11009KT CAVOK 11/M06 Q1015 NOSIG
13-03-15 LEBL 151130Z 14008KT 100V170 CAVOK 12/M06 Q1016 NOSIG
13-03-15 LEBL 151200Z 13009KT 100V170 CAVOK 12/M04 Q1016 NOSIG
13-03-15 LEBL 151230Z 16009KT 120V200 CAVOK 12/M04 Q1016 NOSIG
13-03-15 LEBL 151300Z 19008KT 140V210 CAVOK 12/M06 Q1016 NOSIG
13-03-15 LEBL 151330Z 18008KT 140V220 CAVOK 12/M05 Q1016 NOSIG
13-03-15 LEBL 151400Z 18009KT 150V210 CAVOK 12/M04 Q1015 NOSIG
13-03-15 LEBL 151430Z 18008KT 130V210 CAVOK 12/M01 Q1015 NOSIG
13-03-15 LEBL 151500Z 18008KT 150V210 CAVOK 12/M01 Q1016 NOSIG
13-03-15 LEBL 151530Z 17009KT CAVOK 12/M00 Q1016 NOSIG
13-03-15 LEBL 151600Z 16008KT 130V190 CAVOK 12/01 Q1016 NOSIG
13-03-15 LEBL 151630Z 14006KT CAVOK 13/01 Q1016 NOSIG
13-03-15 LEBL 151700Z 17005KT 130V210 CAVOK 13/00 Q1016 NOSIG
13-03-15 LEBL 151730Z 14004KT 110V180 CAVOK 13/02 Q1016 NOSIG
13-03-15 LEBL 151800Z 12004KT CAVOK 12/03 Q1016 NOSIG
13-03-15 LEBL 151830Z 12003KT CAVOK 12/03 Q1017 NOSIG
13-03-15 LEBL 151900Z 09004KT CAVOK 12/02 Q1017 NOSIG
13-03-15 LEBL 151930Z 09005KT CAVOK 11/03 Q1017 NOSIG
13-03-15 LEBL 152000Z 05008KT 030V090 CAVOK 10/03 Q1017 NOSIG
13-03-15 LEBL 152030Z 05007KT 020V080 CAVOK 10/03 Q1018 NOSIG
13-03-15 LEBL 152100Z 06007KT 020V080 CAVOK 10/02 Q1018 NOSIG
13-03-15 LEBL 152130Z 04007KT 010V070 CAVOK 09/02 Q1018 NOSIG
13-03-15 LEBL 152200Z 34005KT 290V030 CAVOK 08/03 Q1018 NOSIG
13-03-15 LEBL 152230Z 33007KT CAVOK 08/02 Q1018 NOSIG
13-03-15 LEBL 152300Z 33007KT 9999 FEW025 08/02 Q1018 NOSIG
13-03-15 LEBL 152330Z 33008KT 9999 FEW025 07/02 Q1018 NOSIG
13-03-16 LEBL 160000Z 33009KT 9999 FEW025 07/02 Q1017 NOSIG
13-03-16 LEBL 160030Z 33009KT 9999 FEW025 07/02 Q1017 NOSIG
13-03-16 LEBL 160100Z 33009KT 9999 FEW025 07/02 Q1017 NOSIG
13-03-16 LEBL 160130Z 33009KT 9999 FEW025 06/02 Q1017 NOSIG
13-03-16 LEBL 160200Z 33010KT 9999 FEW025 06/02 Q1017 NOSIG
13-03-16 LEBL 160230Z 32008KT 9999 FEW025 06/02 Q1017 NOSIG
13-03-16 LEBL 160300Z 32009KT 9999 FEW025 06/01 Q1016 NOSIG
13-03-16 LEBL 160330Z 33009KT 9999 FEW025 06/01 Q1016 NOSIG
13-03-16 LEBL 160400Z 32009KT 9999 FEW025 05/01 Q1016 NOSIG
13-03-16 LEBL 160430Z 33009KT 9999 FEW025 05/01 Q1016 NOSIG
13-03-16 LEBL 160500Z 33009KT 9999 FEW025 05/01 Q1015 NOSIG
13-03-16 LEBL 160530Z 32010KT 9999 FEW025 05/01 Q1015 NOSIG
13-03-16 LEBL 160600Z 32008KT 9999 FEW025 05/01 Q1015 NOSIG
13-03-16 LEBL 160630Z 33011KT 9999 FEW025 05/01 Q1015 NOSIG
13-03-16 LEBL 160700Z 32010KT 9999 FEW025 06/01 Q1016 NOSIG
13-03-16 LEBL 160730Z 33009KT 290V350 9999 FEW025 06/01 Q1016 NOSIG
13-03-16 LEBL 160800Z 33008KT 270V350 9999 FEW025 07/01 Q1016 NOSIG
13-03-16 LEBL 160830Z 33007KT 250V010 9999 FEW025 09/02 Q1016 NOSIG
13-03-16 LEBL 160900Z 34004KT 280V060 9999 FEW025 10/03 Q1015 NOSIG
13-03-16 LEBL 160900Z NIL
13-03-16 LEBL 160930Z 34002KT 9999 FEW030 11/04 Q1015 NOSIG
13-03-16 LEBL 161000Z 23003KT 160V300 9999 SCT030 13/06 Q1015 NOSIG
13-03-16 LEBL 161030Z 16005KT 100V230 9999 SCT030 13/06 Q1014 NOSIG
13-03-16 LEBL 161100Z NIL
13-03-16 LEBL 161100Z 13005KT 9999 SCT030 13/07 Q1014 NOSIG
13-03-16 LEBL 161130Z 14004KT 9999 SCT025 13/07 Q1014 NOSIG
13-03-16 LEBL 161200Z 19012KT 9999 SCT025 14/08 Q1014 NOSIG
13-03-16 LEBL 161230Z 19015KT 9999 SCT025 14/08 Q1013 NOSIG
13-03-16 LEBL 161300Z 19015KT 9999 FEW018 SCT035 14/08 Q1013 NOSIG
13-03-16 LEBL 161330Z 20015KT 9999 FEW018 SCT030 14/08 Q1012 NOSIG
13-03-16 LEBL 161400Z 21016KT 9999 FEW018 SCT030 15/07 Q1012 NOSIG
13-03-16 LEBL 161430Z 21017KT 9999 FEW018 SCT055 14/07 Q1012 NOSIG
13-03-16 LEBL NIL
13-03-16 LEBL 161500Z 21016KT 9999 FEW018 SCT055 14/07 Q1011 NOSIG
13-03-16 LEBL 161530Z 22018KT 9999 FEW018 SCT035 14/07 Q1011 NOSIG
13-03-16 LEBL 161600Z NIL
13-03-16 LEBL 161600Z 21016KT 9999 FEW018 SCT035 14/08 Q1011 NOSIG
13-03-16 LEBL 161630Z 22016KT 9999 FEW018 SCT035 14/08 Q1011 NOSIG
13-03-16 LEBL 161700Z 22015KT 9999 FEW018 SCT035 14/09 Q1011 NOSIG
13-03-16 LEBL 161730Z 22013KT 9999 FEW018 SCT035 13/09 Q1011 NOSIG
13-03-16 LEBL 161800Z 21013KT 9999 FEW018 SCT035 13/09 Q1011 NOSIG
13-03-16 LEBL 161830Z 21014KT 9999 FEW018 SCT035 13/09 Q1011 NOSIG
13-03-16 LEBL 161900Z 21013KT 9999 FEW018 SCT055 13/09 Q1011 NOSIG
13-03-16 LEBL 161930Z 21012KT 9999 FEW025 SCT055 13/09 Q1011 NOSIG
13-03-16 LEBL 162000Z 21013KT 9999 FEW025 SCT055 13/09 Q1011 NOSIG
13-03-16 LEBL 162030Z 21012KT 9999 FEW020 SCT055 13/08 Q1011 NOSIG
13-03-16 LEBL 162100Z 21012KT 9999 FEW020 SCT040 13/09 Q1011 NOSIG
13-03-16 LEBL 162130Z 21012KT 9999 FEW020 SCT040 13/09 Q1011 NOSIG
13-03-16 LEBL 162200Z 21012KT 9999 FEW020 SCT055 13/09 Q1010 NOSIG
13-03-16 LEBL 162230Z 22011KT 9999 FEW020 SCT050 13/09 Q1010 NOSIG
13-03-16 LEBL 162300Z 22010KT 9999 FEW020 SCT050 12/09 Q1010 NOSIG
13-03-16 LEBL 162330Z 21009KT 9999 FEW020 SCT050 13/09 Q1010 NOSIG
13-03-17 LEBL 170000Z 22007KT 9999 FEW020 SCT050 12/09 Q1009 NOSIG
13-03-17 LEBL 170030Z 21008KT 9999 FEW018 SCT032 13/10 Q1009 NOSIG
13-03-17 LEBL 170100Z 21008KT 9999 FEW018 SCT050 12/10 Q1009 NOSIG
13-03-17 LEBL 170130Z 20006KT 9999 SCT020 12/10 Q1008 NOSIG
13-03-17 LEBL 170200Z 21006KT 9999 SCT020 12/10 Q1008 NOSIG
13-03-17 LEBL 170230Z 22005KT 9999 SCT016 12/10 Q1007 NOSIG
13-03-17 LEBL 170300Z 22005KT 9999 FEW019 SCT034 12/10 Q1007 NOSIG
13-03-17 LEBL 170330Z 21007KT 9999 FEW019 SCT034 12/10 Q1006 NOSIG
13-03-17 LEBL 170400Z 22010KT 9999 FEW019 SCT048 13/10 Q1007 NOSIG
13-03-17 LEBL 170430Z 22009KT 9999 FEW010 SCT048 12/10 Q1006 NOSIG
13-03-17 LEBL 170500Z 22007KT 9999 FEW010 SCT048 12/10 Q1006 NOSIG
13-03-17 LEBL 170530Z 25006KT 9999 FEW010 SCT035 12/10 Q1006 NOSIG
13-03-17 LEBL 170600Z 29003KT 9999 FEW018 SCT035 12/10 Q1005 NOSIG
13-03-17 LEBL 170630Z VRB02KT 9999 FEW011 SCT030 12/10 Q1005 NOSIG
13-03-17 LEBL 170700Z VRB02KT 9999 FEW011 SCT020 12/10 Q1005 NOSIG
13-03-17 LEBL 170730Z 32004KT 9999 DZ FEW011 SCT020 11/10 Q1005 NOSIG
13-03-17 LEBL 170800Z 34001KT 9999 -RA FEW012 SCT028 11/10 Q1004 NOSIG
13-03-17 LEBL 170830Z VRB02KT 9999 DZ SCT020 12/11 Q1004 NOSIG
13-03-17 LEBL 170900Z 18007KT 140V210 9999 DZ SCT020 13/10 Q1004 NOSIG
13-03-17 LEBL 170930Z 18008KT 150V220 9999 FEW020 13/09 Q1003 NOSIG
13-03-17 LEBL 171000Z 18005KT 150V220 9999 FEW020 14/09 Q1003 NOSIG
13-03-17 LEBL 171030Z 20007KT 9999 FEW020 14/10 Q1003 NOSIG
13-03-17 LEBL 171100Z 19005KT 130V210 9999 FEW020 14/10 Q1002 NOSIG
13-03-17 LEBL 171130Z 21006KT 170V240 9999 RA SCT014 13/10 Q1002 NOSIG
13-03-17 LEBL 171200Z 20004KT 160V230 9999 -RA SCT012 13/11 Q1001 NOSIG
13-03-17 LEBL 171300Z 19006KT 140V220 9999 FEW009 SCT015 14/12 Q1000 NOSIG
13-03-17 LEBL 171330Z 20004KT 160V250 9999 FEW012 SCT026 14/11 Q1000 NOSIG
13-03-17 LEBL 171400Z 21006KT 160V240 9999 SCT015 14/11 Q0999 NOSIG
13-03-17 LEBL 171430Z 19005KT 160V250 9999 SCT015 BKN030 14/09 Q0999 NOSIG
13-03-17 LEBL 171500Z 20004KT 170V250 9999 FEW014 BKN030 14/09 Q0999 NOSIG
13-03-17 LEBL 171530Z VRB02KT 9999 FEW014 BKN030 14/09 Q0998 NOSIG
13-03-17 LEBL 171600Z 22003KT 190V250 9999 FEW014 BKN025 14/10 Q0998 NOSIG
13-03-17 LEBL 171630Z VRB01KT 9999 FEW009 BKN020 14/10 Q0998 NOSIG
13-03-17 LEBL 171700Z VRB02KT 9999 FEW009 BKN016 14/10 Q0998 NOSIG
13-03-17 LEBL 171730Z 23003KT 200V270 9999 FEW010 BKN020 14/10 Q0997 NOSIG
13-03-17 LEBL 171800Z 15003KT 9999 FEW010 SCT020 14/10 Q0997 NOSIG
13-03-17 LEBL 171830Z 15004KT 9999 FEW012 13/10 Q0997 NOSIG
13-03-17 LEBL 171900Z VRB01KT 9999 FEW014 13/10 Q0997 NOSIG
13-03-17 LEBL 171930Z 19004KT 9999 FEW015 13/10 Q0997 NOSIG
13-03-17 LEBL 172000Z 19003KT 160V220 9999 FEW015 13/10 Q0997 NOSIG
13-03-17 LEBL 172030Z 19003KT 160V220 9999 FEW015 13/10 Q0997 NOSIG
13-03-17 LEBL 172100Z 18006KT 9999 FEW020 13/10 Q0997 NOSIG
13-03-17 LEBL 172130Z 20003KT 9999 FEW020 SCT055 13/11 Q0997 NOSIG
13-03-17 LEBL 172200Z 21002KT 9999 FEW020 SCT055 13/11 Q0997 NOSIG
13-03-17 LEBL 172230Z 30004KT 9999 FEW020 SCT055 13/11 Q0997 NOSIG
13-03-17 LEBL 172300Z 31003KT 9999 FEW020 SCT055 13/10 Q0997 NOSIG
13-03-17 LEBL 172330Z 31007KT 9000 -RA FEW020 SCT055 12/10 Q0997 NOSIG
13-03-18 LEBL 180000Z 32007KT 9000 -RA FEW020 SCT055 12/10 Q0997 NOSIG
13-03-18 LEBL 180030Z 32005KT 9000 -RA FEW020 SCT055 12/10 Q0997 NOSIG
13-03-18 LEBL 180100Z 31004KT 9000 -RA FEW020 SCT055 12/10 Q0997 NOSIG
13-03-18 LEBL 180130Z NIL
13-03-18 LEBL 180200Z NIL
13-03-18 LEBL 180200Z VRB01KT 9999 -RA FEW020 SCT055 12/10 Q0996 NOSIG
13-03-18 LEBL 180230Z 30006KT 9999 -RA FEW020 SCT055 11/10 Q0997 NOSIG
13-03-18 LEBL 180300Z NIL
13-03-18 LEBL 180300Z 23003KT 190V260 9000 -RA FEW020 SCT040 11/10 Q0997 NOSIG
13-03-18 LEBL 180330Z 00000KT 9999 FEW020 13/09 Q0997 RERA NOSIG
13-03-18 LEBL 180400Z 27008KT 9999 FEW020 13/08 Q0997 RERA NOSIG
13-03-18 LEBL 180430Z 28009KT 9999 FEW020 12/08 Q0998 NOSIG
13-03-18 LEBL 180500Z 27008KT 9999 FEW020 12/09 Q0998 NOSIG
13-03-18 LEBL 180530Z 24013KT 9999 FEW020 11/09 Q0998 NOSIG
13-03-18 LEBL 180600Z 24016KT 9999 FEW020 11/07 Q0998 NOSIG
13-03-18 LEBL 180630Z 24017KT 9999 FEW020 11/05 Q0999 NOSIG
13-03-18 LEBL 180700Z 23019KT 9999 FEW020 11/05 Q0999 NOSIG
13-03-18 LEBL 180730Z 22015KT 9999 FEW020 12/06 Q1000 NOSIG
13-03-18 LEBL 180800Z 23012KT 9999 FEW020 12/02 Q1000 NOSIG
13-03-18 LEBL 180830Z 22017KT 9999 FEW020 12/04 Q1000 NOSIG
13-03-18 LEBL 180900Z 22018KT 9999 FEW020 13/03 Q1000 NOSIG
13-03-18 LEBL 180930Z 26016G26KT 220V280 9999 FEW020 14/02 Q1001 NOSIG
13-03-18 LEBL 181000Z 27016G27KT 9999 FEW020 14/M01 Q1001 NOSIG
13-03-18 LEBL 181030Z 27015G25KT 250V310 9999 FEW020 14/00 Q1001 NOSIG
13-03-18 LEBL 181100Z 26018KT 240V300 9999 FEW020 15/M00 Q1001 NOSIG
13-03-18 LEBL 181130Z 27020G31KT 9999 FEW020 16/M01 Q1002 NOSIG
13-03-18 LEBL 181200Z NIL
13-03-18 LEBL 181200Z 27020G31KT 9999 FEW020 16/M01 Q1002 NOSIG
13-03-18 LEBL 181230Z 28021KT 9999 FEW020 16/M01 Q1002 NOSIG
13-03-18 LEBL 181300Z 28020KT 9999 FEW020 16/M01 Q1002 NOSIG
13-03-18 LEBL 181330Z 28020G30KT 9999 FEW020 16/M01 Q1002 NOSIG
13-03-18 LEBL 181400Z 28019G30KT 9999 FEW020 16/M01 Q1002 NOSIG
13-03-18 LEBL 181430Z 28020G30KT 9999 FEW020 16/M01 Q1002 NOSIG
13-03-18 LEBL 181500Z 28021G32KT 9999 FEW020 17/M01 Q1002 NOSIG
13-03-18 LEBL 181530Z 28019KT 9999 FEW020 17/M01 Q1002 NOSIG
13-03-18 LEBL 181600Z 29018G29KT 9999 FEW020 17/M02 Q1003 NOSIG
13-03-18 LEBL 181630Z 28020G31KT 250V310 9999 FEW020 17/M02 Q1003 NOSIG
13-03-18 LEBL 181700Z 28015KT 9999 FEW020 16/M02 Q1004 NOSIG
13-03-18 LEBL 181730Z 26015G25KT 230V300 9999 FEW020 16/M02 Q1004 NOSIG
13-03-18 LEBL 181800Z 27010KT 240V300 9999 FEW020 16/M02 Q1005 NOSIG
13-03-18 LEBL 181830Z 27010KT 240V310 9999 FEW020 15/M01 Q1005 NOSIG
13-03-18 LEBL 181900Z 27010KT 9999 FEW020 15/M01 Q1005 NOSIG
13-03-18 LEBL 181930Z 29008KT 9999 FEW020 15/M01 Q1005 NOSIG
13-03-18 LEBL 182000Z 18008KT 9999 FEW025 15/01 Q1006 NOSIG
13-03-18 LEBL 182030Z 24009KT 9999 FEW025 14/02 Q1006 NOSIG
13-03-18 LEBL 182100Z 25008KT 9999 FEW025 13/02 Q1006 NOSIG
13-03-18 LEBL 182130Z 21005KT 9999 FEW025 14/03 Q1006 NOSIG
13-03-18 LEBL 182200Z 23008KT 9999 FEW025 14/03 Q1007 NOSIG
13-03-18 LEBL 182230Z 25007KT 9999 FEW025 13/03 Q1007 NOSIG
13-03-18 LEBL 182300Z 23006KT 190V280 9999 FEW025 12/03 Q1007 NOSIG
13-03-18 LEBL 182330Z 28005KT 9999 FEW025 11/03 Q1007 NOSIG
13-03-19 LEBL 190000Z 32004KT 9999 FEW025 11/02 Q1007 NOSIG
13-03-19 LEBL 190030Z 35003KT 9999 FEW025 10/02 Q1007 NOSIG
13-03-19 LEBL 190100Z 32004KT 9999 FEW025 10/02 Q1007 NOSIG
13-03-19 LEBL 190130Z 28001KT 9999 FEW025 09/02 Q1007 NOSIG
13-03-19 LEBL 190200Z 32006KT 9999 FEW025 09/02 Q1007 NOSIG
13-03-19 LEBL 190230Z 32007KT 9999 FEW025 09/03 Q1007 NOSIG
13-03-19 LEBL 190300Z 32007KT 9999 FEW025 09/02 Q1006 NOSIG
13-03-19 LEBL 190330Z 31007KT 9999 FEW025 09/02 Q1006 NOSIG
13-03-19 LEBL 190400Z 31008KT 9999 FEW025 09/02 Q1006 NOSIG
13-03-19 LEBL 190430Z 32009KT 9999 FEW025 08/02 Q1006 NOSIG
13-03-19 LEBL 190500Z 31007KT 9999 FEW025 08/02 Q1006 NOSIG
13-03-19 LEBL 190530Z 32010KT 9999 FEW025 08/02 Q1006 NOSIG
13-03-19 LEBL 190600Z 33010KT 9999 FEW025 08/02 Q1007 NOSIG
13-03-19 LEBL 190630Z 32009KT 9999 FEW025 08/02 Q1007 NOSIG
13-03-19 LEBL 190700Z 32010KT 9999 FEW025 07/02 Q1007 NOSIG
13-03-19 LEBL 190730Z 32011KT 280V350 9999 FEW025 08/02 Q1007 NOSIG
13-03-19 LEBL 190800Z 32008KT 280V350 9999 FEW025 10/02 Q1007 NOSIG
13-03-19 LEBL 190830Z 33006KT 260V360 9999 FEW025 11/02 Q1007 NOSIG
13-03-19 LEBL 190900Z 34003KT 9999 FEW025 12/03 Q1007 NOSIG
13-03-19 LEBL 190930Z 07010KT 040V100 9999 FEW025 14/02 Q1007 NOSIG
13-03-19 LEBL 191000Z 07011KT 040V110 9999 FEW025 14/06 Q1007 NOSIG
13-03-19 LEBL 191030Z 06012KT 9999 FEW025 14/08 Q1007 NOSIG
13-03-19 LEBL 191100Z 07014KT 9999 FEW025 14/08 Q1006 NOSIG
13-03-19 LEBL 191130Z 07015KT 9999 FEW025 15/08 Q1006 NOSIG
13-03-19 LEBL 191200Z 07014KT 9999 FEW025 15/08 Q1006 NOSIG
13-03-19 LEBL 191230Z 07012KT 9999 FEW025 15/07 Q1006 NOSIG
13-03-19 LEBL 191300Z 08011KT 9999 FEW025 15/07 Q1005 NOSIG
13-03-19 LEBL 191330Z 08009KT 050V110 9999 FEW025 15/08 Q1005 NOSIG
13-03-19 LEBL 191400Z 08009KT 9999 FEW025 16/08 Q1004 NOSIG
13-03-19 LEBL 191430Z 09008KT 060V120 9999 FEW025 15/08 Q1003 NOSIG
13-03-19 LEBL 191500Z 10007KT 9999 FEW025 15/07 Q1003 NOSIG
13-03-19 LEBL 191530Z 12007KT 090V150 9999 FEW025 15/08 Q1003 NOSIG
13-03-19 LEBL 191600Z 13006KT 9999 FEW025 15/07 Q1003 NOSIG
13-03-19 LEBL 191630Z 12006KT 090V150 9999 FEW025 15/09 Q1003 NOSIG
13-03-19 LEBL 191700Z 12004KT 9999 FEW023 14/08 Q1002 NOSIG
13-03-19 LEBL 191730Z 12003KT 9999 FEW023 14/08 Q1002 NOSIG
13-03-19 LEBL 191800Z 11004KT 9999 FEW020 14/09 Q1002 NOSIG
13-03-19 LEBL 191830Z 09003KT 060V120 9999 FEW020 14/10 Q1002 NOSIG
13-03-19 LEBL 191900Z 06002KT 9999 FEW025 13/10 Q1002 NOSIG
13-03-19 LEBL 191930Z 04003KT 330V120 9999 FEW025 13/10 Q1002 NOSIG
13-03-19 LEBL 192000Z VRB01KT 9999 FEW025 13/10 Q1002 NOSIG
13-03-19 LEBL 192030Z 00000KT 9999 FEW016 12/09 Q1002 NOSIG
13-03-19 LEBL 192100Z VRB01KT 9999 FEW016 12/08 Q1003 NOSIG
13-03-19 LEBL 192130Z VRB02KT 9999 FEW011 12/08 Q1002 NOSIG
13-03-19 LEBL 192200Z 31003KT 280V040 9999 FEW011 12/08 Q1002 NOSIG
13-03-19 LEBL 192230Z 33004KT 9999 FEW011 12/07 Q1002 NOSIG
13-03-19 LEBL 192300Z 33005KT 9999 FEW011 11/07 Q1002 NOSIG
13-03-19 LEBL 192330Z 32006KT 9999 SCT010 12/07 Q1001 NOSIG
13-03-20 LEBL 200000Z 33007KT 9999 DZ SCT013 12/06 Q1001 NOSIG
13-03-20 LEBL 200200Z 33008KT 9999 DZ SCT013 BKN055 11/07 Q1001 NOSIG
13-03-20 LEBL 200230Z 33011KT 9999 -RA SCT013 BKN050 10/08 Q1001 NOSIG
13-03-20 LEBL 200300Z 32010KT 9999 -RA SCT013 BKN050 10/08 Q1001 NOSIG
13-03-20 LEBL 200330Z 32009KT 9999 -RA SCT013 BKN050 10/08 Q1001 NOSIG
13-03-20 LEBL 200530Z 32008KT 9999 SCT013 BKN036 10/08 Q1003 NOSIG
13-03-20 LEBL 200600Z 33007KT 9999 SCT013 BKN036 10/08 Q1003 NOSIG
13-03-20 LEBL 200630Z 33006KT 9999 SCT013 10/08 Q1003 NOSIG
13-03-20 LEBL 200700Z 34006KT 300V070 9999 SCT013 10/08 Q1004 NOSIG
13-03-20 LEBL 200730Z 31007KT 9999 FEW013 BKN037 10/08 Q1005 NOSIG
13-03-20 LEBL 200800Z 31006KT 240V330 9999 FEW025 BKN037 11/08 Q1006 NOSIG
13-03-20 LEBL 200830Z 31010KT 270V340 9999 FEW025 BKN050 11/08 Q1006 NOSIG
13-03-20 LEBL 200900Z VRB08KT 9999 FEW025 BKN055 12/08 Q1006 NOSIG
13-03-20 LEBL 200930Z 32004KT 9999 FEW025 BKN055 12/08 Q1007 NOSIG
13-03-20 LEBL 201000Z VRB02KT 9999 FEW025 SCT055 13/08 Q1008 NOSIG
13-03-20 LEBL 201030Z 22003KT 180V260 9999 FEW025 SCT055 14/09 Q1008 NOSIG
13-03-20 LEBL 201100Z 20009KT 170V240 9999 FEW025 SCT030 14/07 Q1009 NOSIG
13-03-20 LEBL 201130Z 20009KT 170V230 9999 FEW025 SCT030 14/07 Q1009 NOSIG
13-03-20 LEBL 201200Z 21008KT 190V250 9999 FEW025 14/07 Q1009 NOSIG
13-03-20 LEBL 201230Z 21012KT 9999 FEW025 15/07 Q1010 NOSIG
13-03-20 LEBL 201300Z 21013KT 9999 FEW025 15/07 Q1010 NOSIG
13-03-20 LEBL 201330Z 22014KT 9999 FEW025 16/07 Q1010 NOSIG
13-03-20 LEBL 201400Z 22016KT 9999 FEW025 15/07 Q1010 NOSIG
13-03-20 LEBL 201430Z 22016KT 9999 FEW025 15/09 Q1010 NOSIG
13-03-20 LEBL 201500Z 22017KT 9999 FEW025 15/09 Q1011 NOSIG
13-03-20 LEBL 201530Z 20014KT 9999 FEW025 15/08 Q1011 NOSIG
13-03-20 LEBL 201600Z 22014KT 9999 FEW025 15/09 Q1011 NOSIG
13-03-20 LEBL 201630Z 23018KT 9999 FEW025 15/10 Q1012 NOSIG
13-03-20 LEBL 201700Z 23016KT 9999 FEW025 15/09 Q1012 NOSIG
13-03-20 LEBL 201730Z 23015KT 9999 FEW025 15/09 Q1013 NOSIG
13-03-20 LEBL 201800Z 22012KT 9999 FEW025 14/09 Q1013 NOSIG
13-03-20 LEBL 201830Z 23011KT 9999 FEW025 14/10 Q1014 NOSIG
13-03-20 LEBL 201900Z 20009KT 170V230 9999 FEW025 14/09 Q1014 NOSIG
13-03-20 LEBL 201930Z 20012KT 9999 FEW025 14/10 Q1015 NOSIG
13-03-20 LEBL 202000Z 20010KT 9999 FEW025 14/10 Q1015 NOSIG
13-03-20 LEBL 202030Z 26006KT 220V290 9999 FEW025 13/10 Q1016 NOSIG
13-03-20 LEBL 202100Z 28005KT 250V320 9999 FEW025 12/09 Q1016 NOSIG
13-03-20 LEBL 202130Z 27002KT 9999 FEW025 12/08 Q1017 NOSIG
13-03-20 LEBL 202200Z 24003KT 200V300 CAVOK 13/10 Q1017 NOSIG
13-03-20 LEBL 202230Z 24006KT CAVOK 13/08 Q1017 NOSIG
13-03-20 LEBL 202300Z 24008KT CAVOK 12/08 Q1018 NOSIG
13-03-20 LEBL 202330Z 28003KT 260V320 CAVOK 12/07 Q1018 NOSIG
13-03-21 LEBL 210000Z 32003KT 260V010 CAVOK 10/07 Q1018 NOSIG
13-03-21 LEBL 210030Z 31006KT CAVOK 10/06 Q1018 NOSIG
13-03-21 LEBL 210100Z 30006KT 220V330 CAVOK 10/07 Q1018 NOSIG
13-03-21 LEBL 210130Z 32006KT CAVOK 09/07 Q1018 NOSIG
13-03-21 LEBL 210200Z 32007KT CAVOK 09/07 Q1019 NOSIG
13-03-21 LEBL 210230Z 32008KT CAVOK 09/07 Q1018 NOSIG
13-03-21 LEBL 210300Z 33010KT 9999 FEW030 09/07 Q1018 NOSIG
13-03-21 LEBL 210330Z 03003KT 300V100 9999 FEW030 09/07 Q1018 NOSIG
13-03-21 LEBL 210400Z 36005KT 330V030 9999 FEW030 08/06 Q1018 NOSIG
13-03-21 LEBL 210430Z 33010KT 9999 FEW030 09/06 Q1018 NOSIG
13-03-21 LEBL 210500Z 33010KT 9999 FEW030 08/04 Q1018 NOSIG
13-03-21 LEBL 210530Z 33009KT 9999 FEW030 08/04 Q1018 NOSIG
13-03-21 LEBL 210600Z 33009KT 9999 FEW030 07/03 Q1018 NOSIG
13-03-21 LEBL 210630Z 31010KT 280V350 9999 FEW030 07/03 Q1018 NOSIG
13-03-21 LEBL 210700Z 32009G24KT 290V350 9999 FEW030 08/04 Q1018 NOSIG
13-03-21 LEBL 210730Z 33009KT 9999 FEW030 08/04 Q1018 NOSIG
13-03-21 LEBL 210800Z 32009KT 300V360 CAVOK 10/04 Q1018 NOSIG
13-03-21 LEBL 210830Z 31008KT 270V340 CAVOK 11/03 Q1018 NOSIG
13-03-21 LEBL 210900Z 32006KT 250V350 CAVOK 12/03 Q1018 NOSIG
13-03-21 LEBL 210930Z 27004KT 220V340 CAVOK 14/04 Q1018 NOSIG
13-03-21 LEBL 211000Z 24002KT CAVOK 15/03 Q1018 NOSIG
13-03-21 LEBL 211030Z NIL
13-03-21 LEBL 211100Z 17006KT 130V230 CAVOK 14/05 Q1017 NOSIG
13-03-21 LEBL 211130Z 19006KT 150V220 CAVOK 15/07 Q1017 NOSIG
13-03-21 LEBL 211200Z 18007KT 150V210 CAVOK 15/09 Q1017 NOSIG
13-03-21 LEBL 211230Z 20011KT CAVOK 15/11 Q1017 NOSIG
13-03-21 LEBL 211300Z 21014KT CAVOK 15/12 Q1016 NOSIG
13-03-21 LEBL 211330Z 21015KT CAVOK 16/12 Q1016 NOSIG
13-03-21 LEBL 211400Z 21017KT 9999 FEW025 15/12 Q1015 NOSIG
13-03-21 LEBL 211430Z 21020KT 9999 FEW025 15/12 Q1015 NOSIG
13-03-21 LEBL 211500Z 22018KT 9999 FEW025 15/12 Q1015 NOSIG
13-03-21 LEBL 211530Z 22018KT 9999 FEW025 15/12 Q1015 NOSIG
13-03-21 LEBL 211600Z 22016KT 9999 FEW025 15/11 Q1014 NOSIG
13-03-21 LEBL 211630Z 22016KT 9999 FEW025 15/10 Q1014 NOSIG
13-03-21 LEBL 211700Z 23017KT 9999 FEW025 14/12 Q1014 NOSIG
13-03-21 LEBL 211730Z 22015KT 9999 FEW025 13/11 Q1014 NOSIG
13-03-21 LEBL 211800Z 22014KT 9999 FEW025 14/12 Q1014 NOSIG
13-03-21 LEBL 211830Z 22011KT 9999 FEW025 14/12 Q1014 NOSIG
13-03-21 LEBL 211900Z 23010KT 9999 FEW025 14/12 Q1014 NOSIG
13-03-21 LEBL 211930Z 22011KT 9999 FEW025 14/12 Q1014 NOSIG
13-03-21 LEBL 212000Z 22009KT 9999 FEW025 14/12 Q1014 NOSIG
13-03-21 LEBL 212030Z 22009KT 9999 FEW025 13/12 Q1014 NOSIG
13-03-21 LEBL 212100Z 22008KT 9999 FEW025 13/12 Q1014 NOSIG
13-03-21 LEBL 212130Z 22010KT 9999 FEW025 13/12 Q1014 NOSIG
13-03-21 LEBL 212200Z 22011KT 9999 FEW025 13/11 Q1013 NOSIG
13-03-21 LEBL 212230Z 22010KT 9999 FEW025 13/10 Q1013 NOSIG
13-03-21 LEBL 212300Z 23009KT 9999 FEW025 13/09 Q1013 NOSIG
13-03-21 LEBL 212330Z 25007KT 9999 FEW025 13/09 Q1012 NOSIG
13-03-22 LEBL 220000Z 26005KT 9999 FEW025 13/09 Q1012 NOSIG
13-03-22 LEBL 220030Z 29003KT 250V310 9999 FEW025 12/09 Q1012 NOSIG
13-03-22 LEBL 220100Z 29004KT 9999 FEW025 12/08 Q1011 NOSIG
13-03-22 LEBL 220130Z 29004KT 9999 FEW025 11/08 Q1011 NOSIG
13-03-22 LEBL 220200Z 30002KT 9999 FEW020 11/08 Q1011 NOSIG
13-03-22 LEBL 220230Z 32003KT 9000 SCT009 11/09 Q1010 NOSIG
13-03-22 LEBL 220300Z VRB01KT 9000 BKN006 11/09 Q1010 NOSIG
13-03-22 LEBL 220330Z 33003KT 9000 SCT006 10/07 Q1010 NOSIG
13-03-22 LEBL 220400Z 31004KT 9000 BKN008 10/07 Q1010 NOSIG
13-03-22 LEBL 220430Z 31004KT 9000 BKN010 11/08 Q1010 NOSIG
13-03-22 LEBL 220500Z 30005KT 9000 BKN012 11/08 Q1009 NOSIG
13-03-22 LEBL 220530Z 33006KT 9999 BKN013 11/08 Q1009 NOSIG
13-03-22 LEBL 220600Z 31003KT 280V350 9999 FEW012 BKN016 10/07 Q1009 NOSIG
13-03-22 LEBL 220630Z 32008KT 9999 FEW013 BKN016 10/07 Q1010 NOSIG
13-03-22 LEBL 220700Z 32007KT 260V340 9999 BKN017 10/06 Q1010 NOSIG
13-03-22 LEBL 220730Z 32007KT 9999 BKN018 10/07 Q1010 NOSIG
13-03-22 LEBL 220800Z 32007KT 9999 BKN014 12/08 Q1010 NOSIG
13-03-22 LEBL 220830Z 32006KT 290V360 9999 BKN018 12/09 Q1010 NOSIG
13-03-22 LEBL 220900Z 31003KT 210V010 9999 SCT018 14/10 Q1009 NOSIG
13-03-22 LEBL 220930Z 23007KT 200V290 9999 SCT014 15/12 Q1009 NOSIG
13-03-22 LEBL 221000Z 21010KT 9999 FEW020 15/11 Q1009 NOSIG
13-03-22 LEBL 221030Z 21014KT 9999 FEW020 15/12 Q1009 NOSIG
13-03-22 LEBL 221100Z 21012KT 9999 SCT012 15/12 Q1009 NOSIG
13-03-22 LEBL 221130Z 21012KT 9999 FEW012 16/12 Q1008 NOSIG
13-03-22 LEBL 221200Z 21012KT 9999 FEW012 16/12 Q1008 NOSIG
13-03-22 LEBL 221230Z 21013KT 9999 FEW012 16/12 Q1007 NOSIG
13-03-22 LEBL NIL
13-03-22 LEBL 221300Z 21011KT 180V250 9999 FEW014 16/12 Q1007 NOSIG
13-03-22 LEBL 221330Z 20010KT 9999 FEW014 16/12 Q1006 NOSIG
13-03-22 LEBL 221400Z 21010KT 170V240 9999 FEW014 16/12 Q1006 NOSIG
13-03-22 LEBL 221430Z NIL
13-03-22 LEBL 221430Z 20012KT 9999 SCT014 15/12 Q1006 NOSIG
13-03-22 LEBL 221500Z 21011KT 9999 SCT014 16/12 Q1006 NOSIG
13-03-22 LEBL 221530Z 23012KT 9999 SCT018 16/11 Q1006 NOSIG
13-03-22 LEBL 221600Z 22011KT 9999 FEW014 16/11 Q1006 NOSIG
13-03-22 LEBL 221630Z 21010KT 9999 FEW012 15/12 Q1006 NOSIG
13-03-22 LEBL 221700Z 22009KT 9999 FEW012 15/12 Q1006 NOSIG
13-03-22 LEBL 221730Z 23008KT 9999 FEW012 15/12 Q1006 NOSIG
13-03-22 LEBL 221800Z 21006KT 9999 FEW012 14/12 Q1006 NOSIG
13-03-22 LEBL 221830Z 20005KT 9999 FEW012 14/12 Q1006 NOSIG
13-03-22 LEBL 221900Z 19004KT 9999 SCT016 14/12 Q1006 NOSIG
13-03-22 LEBL 221930Z 20005KT 9999 SCT016 14/12 Q1006 NOSIG
13-03-22 LEBL 222000Z VRB02KT 9999 FEW020 14/12 Q1007 NOSIG
13-03-22 LEBL 222030Z 00000KT 9999 SCT013 14/12 Q1007 NOSIG
13-03-22 LEBL 222100Z 00000KT 9999 SCT011 14/13 Q1006 NOSIG
13-03-22 LEBL 222130Z 00000KT 9999 FEW011 SCT017 14/12 Q1007 NOSIG
13-03-22 LEBL 222200Z 00000KT 9999 FEW011 SCT018 14/12 Q1007 NOSIG
13-03-22 LEBL 222230Z 34003KT 9999 FEW011 SCT018 14/11 Q1006 NOSIG
13-03-22 LEBL 222300Z 31005KT 9999 FEW011 SCT018 13/11 Q1006 NOSIG
13-03-22 LEBL 222330Z 33005KT 9999 FEW011 SCT018 12/10 Q1006 NOSIG
13-03-23 LEBL 230000Z 32004KT 9999 SCT020 12/09 Q1006 NOSIG
13-03-23 LEBL 230030Z VRB02KT 9999 FEW020 12/09 Q1006 NOSIG
13-03-23 LEBL 230100Z 33006KT 9999 FEW020 12/10 Q1006 NOSIG
13-03-23 LEBL 230130Z 33006KT 9000 FEW020 12/10 Q1005 NOSIG
13-03-23 LEBL 230200Z 34006KT 8000 FEW020 11/09 Q1005 NOSIG
13-03-23 LEBL 230230Z VRB02KT 8000 FEW020 11/09 Q1005 NOSIG
13-03-23 LEBL 230300Z 28004KT 250V330 8000 FEW020 11/09 Q1005 NOSIG
13-03-23 LEBL 230330Z 29004KT 8000 FEW020 11/09 Q1005 NOSIG
13-03-23 LEBL 230400Z 33006KT 310V010 9000 FEW020 11/09 Q1005 NOSIG
13-03-23 LEBL 230430Z 36003KT 330V030 8000 FEW020 11/09 Q1005 NOSIG
13-03-23 LEBL 230500Z VRB02KT 8000 FEW012 12/10 Q1005 NOSIG
13-03-23 LEBL 230530Z 08006KT 8000 FEW007 SCT017 12/09 Q1005 NOSIG
13-03-23 LEBL 230600Z 06006KT 8000 BKN012 12/10 Q1005 NOSIG
13-03-23 LEBL 230630Z 04009KT 7000 FEW012 SCT020 12/10 Q1005 NOSIG
13-03-23 LEBL 230700Z 02005KT 350V050 7000 FEW009 SCT015 12/10 Q1005 NOSIG
13-03-23 LEBL 230730Z 02004KT 350V060 7000 FEW009 SCT015 12/10 Q1005 NOSIG
13-03-23 LEBL 230800Z 35004KT 7000 FEW012 SCT020 13/10 Q1005 NOSIG
13-03-23 LEBL 230830Z 02005KT 340V060 7000 FEW015 SCT020 14/10 Q1005 NOSIG
13-03-23 LEBL 230900Z 04008KT 010V070 9999 FEW015 SCT020 14/10 Q1005 NOSIG
13-03-23 LEBL 230930Z 04009KT 9999 FEW018 15/10 Q1005 NOSIG
13-03-23 LEBL 231000Z 07008KT 9999 FEW016 15/11 Q1005 NOSIG
13-03-23 LEBL 231030Z 07011KT 9999 FEW016 16/11 Q1005 NOSIG
13-03-23 LEBL 231100Z 07014KT 9999 FEW016 16/11 Q1005 NOSIG
13-03-23 LEBL 231130Z 06012KT 9999 FEW018 16/10 Q1004 NOSIG
13-03-23 LEBL 231200Z 07011KT 9999 FEW018 16/10 Q1004 NOSIG
13-03-23 LEBL 231230Z 07011KT 9999 FEW020 16/11 Q1004 NOSIG
13-03-23 LEBL 231300Z 10009KT 9999 FEW020 15/11 Q1004 NOSIG
13-03-23 LEBL 231330Z 09009KT 9999 FEW020 15/11 Q1003 NOSIG
13-03-23 LEBL 231400Z 09009KT 9999 FEW020 15/11 Q1003 NOSIG
13-03-23 LEBL 231430Z 09007KT 9999 FEW020 15/11 Q1003 NOSIG
13-03-23 LEBL 231500Z 10005KT 9999 FEW020 16/11 Q1003 NOSIG
13-03-23 LEBL 231530Z 12006KT 9999 FEW020 15/12 Q1002 NOSIG
13-03-23 LEBL 231600Z 11005KT 9999 FEW010 15/12 Q1002 NOSIG
13-03-23 LEBL 231630Z 12005KT 9999 FEW010 15/12 Q1002 NOSIG
13-03-23 LEBL 231700Z 11004KT 9999 FEW009 15/12 Q1002 NOSIG
13-03-23 LEBL 231730Z 12004KT 9999 FEW009 14/12 Q1002 NOSIG
13-03-23 LEBL 231800Z 11003KT 9999 FEW006 SCT012 14/12 Q1003 NOSIG
13-03-23 LEBL 231830Z 12002KT 9999 FEW008 BKN012 14/12 Q1002 NOSIG
13-03-23 LEBL 231900Z 01002KT 9999 FEW009 SCT014 14/12 Q1002 NOSIG
13-03-23 LEBL 231930Z VRB01KT 9999 SCT012 14/12 Q1002 NOSIG
13-03-23 LEBL 232000Z VRB01KT 9999 SCT012 14/11 Q1002 NOSIG
13-03-23 LEBL 232030Z VRB02KT 9999 FEW020 14/11 Q1002 NOSIG
13-03-23 LEBL 232100Z VRB02KT 9999 FEW020 14/11 Q1002 NOSIG
13-03-23 LEBL 232130Z 13005KT 9999 FEW020 14/11 Q1002 NOSIG
13-03-23 LEBL 232200Z 12005KT 8000 FEW020 14/12 Q1002 NOSIG
13-03-23 LEBL 232230Z VRB02KT 9999 SCT015 14/12 Q1002 NOSIG
13-03-23 LEBL 232300Z 10002KT 9999 BKN012 14/12 Q1002 NOSIG
13-03-23 LEBL 232330Z 00000KT 9999 BKN012 14/12 Q1002 NOSIG
13-03-24 LEBL 240000Z 00000KT 9999 BKN016 13/12 Q1002 NOSIG
13-03-24 LEBL 240030Z 00000KT 7000 BKN016 13/12 Q1002 NOSIG
13-03-24 LEBL 240100Z VRB02KT 7000 BKN018 13/11 Q1001 NOSIG
13-03-24 LEBL 240130Z 00000KT 7000 BKN014 13/11 Q1001 NOSIG
13-03-24 LEBL 240200Z 00000KT 7000 BKN014 13/11 Q1001 NOSIG
13-03-24 LEBL 240230Z 30002KT 7000 BKN014 13/11 Q1000 NOSIG
13-03-24 LEBL 240300Z 32007KT 7000 BKN014 13/11 Q1000 NOSIG
13-03-24 LEBL 240330Z 32006KT 7000 BKN014 13/11 Q1000 NOSIG
13-03-24 LEBL 240400Z 32005KT 7000 BKN014 13/11 Q1000 NOSIG
13-03-24 LEBL 240430Z 32005KT 5000 BR BKN014 12/10 Q1000 NOSIG
13-03-24 LEBL 240500Z 33007KT 5000 BR FEW018 12/10 Q1000 NOSIG
13-03-24 LEBL 240530Z NIL
13-03-24 LEBL 240600Z NIL
13-03-24 LEBL 240600Z 31005KT 5000 BR FEW018 12/10 Q0999 NOSIG
13-03-24 LEBL 240630Z 30006KT 240V330 5000 BR FEW018 11/10 Q0999 NOSIG
13-03-24 LEBL 240700Z 31007KT 250V340 5000 BR FEW018 12/10 Q1000 NOSIG
13-03-24 LEBL 240730Z 31005KT 240V350 6000 FEW020 12/10 Q1000 NOSIG
13-03-24 LEBL 240800Z 31006KT 6000 FEW020 12/10 Q1000 NOSIG
13-03-24 LEBL 240830Z 32008KT 290V360 6000 FEW020 13/10 Q1000 NOSIG
13-03-24 LEBL 240900Z 33010KT 7000 FEW020 13/10 Q1000 NOSIG
13-03-24 LEBL 240930Z 32007KT 260V340 9000 FEW020 14/10 Q1000 NOSIG
13-03-24 LEBL 241000Z 32007G17KT 290V020 9000 FEW025 15/09 Q1000 NOSIG
13-03-24 LEBL 241030Z 33005KT 260V030 9000 FEW026 16/09 Q1000 NOSIG
13-03-24 LEBL 241100Z 29003KT 9999 FEW030 15/09 Q1000 NOSIG
13-03-24 LEBL 241130Z 21012KT 9000 FEW025 15/10 Q1000 NOSIG
13-03-24 LEBL 241200Z 20011KT 9000 FEW030 15/10 Q1000 NOSIG
13-03-24 LEBL 241230Z 21011KT 9000 FEW025 15/10 Q0999 NOSIG
13-03-24 LEBL 241300Z 20010KT 170V230 9000 FEW025 15/11 Q0999 NOSIG
13-03-24 LEBL 241330Z 20009KT 9000 FEW025 15/11 Q0999 NOSIG
13-03-24 LEBL 241400Z 21011KT 9999 FEW025 15/11 Q0999 NOSIG
13-03-24 LEBL 241430Z 21009KT 9999 FEW025 15/11 Q0999 NOSIG
13-03-24 LEBL 241500Z 19006KT 9999 FEW025TCU 14/11 Q0999 NOSIG
13-03-24 LEBL 241530Z 18006KT 9999 FEW025TCU 15/11 Q0999 NOSIG
13-03-24 LEBL 241600Z 16005KT 120V200 9999 FEW015 SCT045TCU 14/11 Q1000 NOSIG
13-03-24 LEBL 241633Z 16004KT 120V190 5000 +RA FEW015 SCT038TCU 14/12 Q1000 NOSIG
13-03-24 LEBL 241630Z 16005KT 130V190 9999 -RA FEW015 SCT040TCU 14/12 Q1000 NOSIG
13-03-24 LEBL 241648Z 15005KT 110V190 5000 VCTS -RA FEW015 SCT038CB 14/12 Q1000
13-03-24 LEBL 241700Z 13004KT 060V160 6000 TSRA FEW015 SCT038CB 14/12 Q1000 NOSIG
13-03-24 LEBL 241706Z 22002KT 3000 TSRA SCT009 SCT038CB 14/12 Q1001 NOSIG
13-03-24 LEBL 241700Z 22002KT 4000 TSRA SCT009 SCT038CB 14/12 Q1001 NOSIG
13-03-24 LEBL 241730Z 13004KT 9999 TSRA SCT010 SCT030CB 14/11 Q1001 NOSIG
13-03-24 LEBL 241800Z 14005KT 4000 TSRA SCT010 SCT030CB 14/12 Q1001 NOSIG
13-03-24 LEBL 241830Z 13002KT 6000 RA SCT010 BKN050TCU 13/12 Q1002 NOSIG
13-03-24 LEBL 241846Z 31004KT 200V340 3000 +RA SCT010 BKN050TCU 13/12 Q1002 NOSIG
13-03-24 LEBL 241900Z 16004KT 130V210 5000 RA SCT010 BKN040TCU 13/12 Q1002 NOSIG
13-03-24 LEBL 241930Z 08006KT 350V120 5000 RA SCT007 SCT035TCU 13/12 Q1002 NOSIG
13-03-24 LEBL 242000Z 05005KT 010V100 6000 -RA SCT007 SCT020 FEW030TCU 13/12 Q1003
13-03-24 LEBL 242030Z 15003KT 110V170 8000 -RA FEW010 SCT020 13/12 Q1002 NOSIG
13-03-24 LEBL 242130Z 00000KT 9999 FEW008 SCT012 13/12 Q1003 NOSIG
13-03-24 LEBL 242200Z 02001KT 7000 SCT012 13/12 Q1003 NOSIG
13-03-24 LEBL 242230Z 03003KT 7000 FEW012 13/12 Q1003 NOSIG
13-03-24 LEBL 242300Z 32002KT 5000 BR FEW010 12/11 Q1003 NOSIG
13-03-24 LEBL 242330Z 32003KT 3500 BR FEW010 12/11 Q1003 NOSIG
13-03-25 LEBL 250000Z 35003KT 3500 BR FEW009 12/11 Q1003 NOSIG
13-03-25 LEBL 250030Z 00000KT 3000 BR FEW010 11/11 Q1003 NOSIG
13-03-25 LEBL 250100Z 30004KT 3000 BR FEW010 11/10 Q1003 NOSIG
13-03-25 LEBL 250130Z 31005KT 3500 BR FEW010 11/10 Q1003 NOSIG
13-03-25 LEBL 250230Z 31004KT 6000 FEW009 10/09 Q1003 NOSIG
13-03-25 LEBL 250300Z 32005KT 2500 1100 BR FEW005 10/09 Q1003 NOSIG
13-03-25 LEBL 250330Z 32006KT 1300 R25R/P2000 R02/1900N R07L/P2000 BR FEW004 10/09 Q1003 NOSIG
13-03-25 LEBL 250400Z 31007KT 0600 0200 R25R/P2000 R02/0650N R07L/0700N R25L/0600N FG BKN001 10/09 Q1004 NOSIG
13-03-25 LEBL 250410Z 32008KT 2000 0900 R07R/1100VP2000U R25L/0900VP2000U BR BCFG SCT001 10/10 Q1003 NOSIG
13-03-25 LEBL 250430Z 32007KT 2500 1200 BR BCFG FEW002 10/10 Q1004 NOSIG
13-03-25 LEBL 250500Z 31004KT 2200 BR FEW002 10/10 Q1004 NOSIG
13-03-25 LEBL 250530Z 00000KT 2500 BR FEW003 10/09 Q1004 NOSIG
13-03-25 LEBL 250600Z 35007KT 4000 BR FEW005 10/09 Q1004 NOSIG
13-03-25 LEBL 250630Z 32007KT 8000 FEW010 09/09 Q1005 NOSIG
13-03-25 LEBL 250700Z 29008KT 9999 FEW015 11/08 Q1005 NOSIG
13-03-25 LEBL 250730Z 34007KT 270V030 9999 FEW015 12/08 Q1005 NOSIG
13-03-25 LEBL 250800Z 32009KT 300V360 CAVOK 13/08 Q1005 NOSIG
13-03-25 LEBL 250830Z 31005KT 260V350 CAVOK 13/08 Q1005 NOSIG
13-03-25 LEBL 250900Z 21005KT 9999 FEW025 14/09 Q1005 NOSIG
13-03-25 LEBL 250930Z 21003KT 9999 FEW025 15/09 Q1005 NOSIG
13-03-25 LEBL 251000Z 18006KT 120V220 9999 FEW025 16/09 Q1005 NOSIG
13-03-25 LEBL 251030Z 22005KT 190V280 9999 FEW025 17/08 Q1005 NOSIG
13-03-25 LEBL 251100Z 23005KT 170V270 9999 FEW025 18/09 Q1004 NOSIG
13-03-25 LEBL 251130Z 17002KT 9999 FEW025 19/04 Q1004 NOSIG
13-03-25 LEBL 251200Z NIL
13-03-25 LEBL 251230Z 31014G24KT 260V330 9999 FEW025 20/04 Q1004 NOSIG
13-03-25 LEBL 251300Z 27015KT 9999 FEW025 20/03 Q1003 NOSIG
13-03-25 LEBL 251330Z 28016KT 260V330 9999 FEW025 20/08 Q1003 NOSIG
13-03-25 LEBL 251400Z 25019KT 9999 FEW025 19/08 Q1003 NOSIG
13-03-25 LEBL 251430Z 24019KT 9999 FEW025 19/08 Q1003 NOSIG
13-03-25 LEBL 251500Z 22019KT 9999 FEW025 18/08 Q1003 NOSIG
13-03-25 LEBL 251530Z 23023KT 9999 FEW025 17/09 Q1003 NOSIG
13-03-25 LEBL 251600Z 23027KT 9999 FEW025 16/09 Q1003 NOSIG
13-03-25 LEBL 251630Z 24027KT 9999 FEW010 16/09 Q1003 NOSIG
13-03-25 LEBL 251700Z 24026KT 9999 FEW025 16/08 Q1003 NOSIG
13-03-25 LEBL 251730Z 24023KT 9999 FEW025 16/10 Q1003 NOSIG
13-03-25 LEBL 251800Z 24018KT 9999 FEW025 16/11 Q1003 NOSIG
13-03-25 LEBL 251830Z 25015KT 9999 FEW025 16/09 Q1003 NOSIG
13-03-25 LEBL 251900Z 25014KT 9999 FEW025 17/07 Q1003 NOSIG
13-03-25 LEBL 251930Z 25015KT 9999 FEW025 16/06 Q1003 NOSIG
13-03-25 LEBL 252000Z 25015KT 9999 FEW025 16/07 Q1003 NOSIG
13-03-25 LEBL 252030Z 25012KT 9999 FEW020 16/07 Q1003 NOSIG
13-03-25 LEBL 252100Z 24008KT 220V280 9999 FEW020 16/07 Q1003 NOSIG
13-03-25 LEBL 252130Z 33004KT 9999 FEW020 16/08 Q1002 NOSIG
13-03-25 LEBL 252200Z 30003KT 260V350 9999 FEW020 SCT055 15/07 Q1002 NOSIG
13-03-25 LEBL 252230Z 35009KT 9999 FEW020 15/08 Q1001 NOSIG
13-03-25 LEBL 252300Z 33006KT 290V350 9999 FEW020 SCT055 15/09 Q1002 NOSIG
13-03-25 LEBL 252330Z 30004KT 260V330 9999 FEW020 BKN055 15/10 Q1002 NOSIG
13-03-26 LEBL 260000Z 32004KT 250V350 9999 FEW020 BKN050 15/10 Q1001 NOSIG
13-03-26 LEBL 260030Z 33009KT 9999 FEW020 BKN055 13/10 Q1001 NOSIG
13-03-26 LEBL 260100Z 32007KT 9999 FEW020 13/10 Q1001 NOSIG
13-03-26 LEBL 260130Z 34006KT 9999 FEW020 13/10 Q1000 NOSIG
13-03-26 LEBL 260200Z 33008KT 9999 FEW020 BKN052 13/10 Q1000 NOSIG
13-03-26 LEBL 260230Z 32007KT 9999 FEW020 13/10 Q1000 NOSIG
13-03-26 LEBL 260300Z 33007KT 9999 FEW020 BKN038 13/10 Q1001 NOSIG
13-03-26 LEBL 260330Z 32006KT 280V340 9999 FEW020 SCT040 13/10 Q1001 NOSIG
13-03-26 LEBL 260400Z 36005KT 9999 FEW030 SCT038 BKN045 13/09 Q1001 NOSIG
13-03-26 LEBL 260430Z 31007KT 9999 FEW035 13/09 Q1002 NOSIG
13-03-26 LEBL 260500Z 32008KT 300V360 9999 FEW033 13/09 Q1002 NOSIG
13-03-26 LEBL 260530Z 02003KT 9999 FEW035 13/08 Q1002 NOSIG
13-03-26 LEBL 260600Z 32006KT 9999 FEW034 13/08 Q1003 NOSIG
13-03-26 LEBL 260630Z 05004KT 9999 FEW034 13/08 Q1003 NOSIG
13-03-26 LEBL 260700Z 36003KT 290V020 CAVOK 14/08 Q1003 NOSIG
13-03-26 LEBL 260730Z 02004KT 330V070 CAVOK 14/08 Q1003 NOSIG
13-03-26 LEBL 260800Z 32004KT 280V020 CAVOK 14/08 Q1003 NOSIG
13-03-26 LEBL 260830Z 31003KT 280V030 9999 FEW020 15/08 Q1003 NOSIG
13-03-26 LEBL 260900Z 33001KT 9999 FEW025 16/08 Q1003 NOSIG
13-03-26 LEBL 260930Z 10003KT 040V160 9999 FEW025 16/08 Q1004 NOSIG
13-03-26 LEBL 261000Z 14007KT 100V180 9999 FEW025 16/07 Q1004 NOSIG
13-03-26 LEBL 261030Z 15007KT 110V190 9999 FEW025 SCT050 16/08 Q1004 NOSIG
13-03-26 LEBL 261100Z 14007KT 9999 FEW025 BKN054 16/08 Q1004 NOSIG
13-03-26 LEBL 261130Z 12008KT 9999 FEW025 BKN050 15/08 Q1004 NOSIG
13-03-26 LEBL 261200Z 10009KT 9999 FEW025 SCT055 17/08 Q1004 NOSIG
13-03-26 LEBL 261230Z 11010KT 9999 FEW025 SCT055 16/11 Q1004 NOSIG
13-03-26 LEBL 261300Z 10007KT 030V130 9999 FEW025 SCT055 16/10 Q1003 NOSIG
13-03-26 LEBL 261330Z 09009KT 9999 FEW025 SCT055 15/11 Q1003 NOSIG
13-03-26 LEBL 261400Z 11009KT 9999 FEW025 15/12 Q1003 NOSIG
13-03-26 LEBL 261430Z 11010KT 9999 FEW025 15/12 Q1003 NOSIG
13-03-26 LEBL 261500Z 12009KT 9999 FEW025 16/12 Q1003 NOSIG
13-03-26 LEBL 261530Z NIL
13-03-26 LEBL 261600Z 11010KT 9999 FEW025 16/12 Q1003 NOSIG
13-03-26 LEBL 261630Z 10008KT 9999 FEW025 15/12 Q1003 NOSIG
13-03-26 LEBL 261700Z 08008KT 9999 FEW025 15/12 Q1003 NOSIG
13-03-26 LEBL 261730Z 08009KT 9999 FEW025 15/12 Q1003 NOSIG
13-03-26 LEBL 261800Z 09008KT 9999 FEW025 15/13 Q1003 NOSIG
13-03-26 LEBL 261830Z 09007KT 070V130 9999 FEW020 SCT055 15/13 Q1003 NOSIG
13-03-26 LEBL 261900Z 10008KT 070V130 9999 SCT015 BKN019 15/12 Q1003 NOSIG
13-03-26 LEBL 261930Z 10006KT 9999 SCT011 BKN020 15/12 Q1003 NOSIG
13-03-26 LEBL 262000Z 08007KT 9999 FEW010 SCT020 14/12 Q1003 NOSIG
13-03-26 LEBL 262030Z 08007KT 9999 FEW015 SCT037 14/12 Q1003 NOSIG
13-03-26 LEBL 262100Z 05007KT 9999 FEW009 SCT018 14/12 Q1003 NOSIG
13-03-26 LEBL 262130Z 05009KT 9999 FEW009 SCT025 14/12 Q1003 NOSIG
13-03-26 LEBL 262200Z 05011KT 9999 FEW009 SCT025 14/11 Q1003 NOSIG
13-03-26 LEBL 262230Z 04010KT 9999 FEW014 SCT020 14/11 Q1003 NOSIG
13-03-26 LEBL 262300Z 05008KT 9999 DZ FEW014 SCT020 14/11 Q1003 NOSIG
13-03-26 LEBL 262330Z 05008KT 9999 DZ FEW014 SCT029 14/11 Q1002 NOSIG
13-03-27 LEBL 270000Z 04007KT 010V070 9999 FEW013 SCT023 14/11 Q1002 REDZ NOSIG
13-03-27 LEBL 270030Z 04005KT 9999 FEW020 SCT048 14/11 Q1002 NOSIG
13-03-27 LEBL 270100Z 03005KT 010V070 9999 FEW020 SCT048 14/11 Q1002 NOSIG
13-03-27 LEBL 270130Z 04005KT 9999 FEW020 SCT038 14/11 Q1001 NOSIG
13-03-27 LEBL 270200Z 04004KT 9999 FEW020 SCT038 14/11 Q1001 NOSIG
13-03-27 LEBL 270230Z 05003KT 9999 FEW020 SCT044 13/11 Q1001 NOSIG
13-03-27 LEBL 270300Z 06004KT 9999 FEW020 SCT044 13/11 Q1001 NOSIG
13-03-27 LEBL 270330Z NIL
13-03-27 LEBL 270400Z NIL
13-03-27 LEBL 270400Z 06005KT 9999 FEW020 SCT044 13/11 Q1001 NOSIG
13-03-27 LEBL 270430Z 05005KT 9999 FEW025 SCT035 13/11 Q1001 NOSIG
13-03-27 LEBL 270500Z 07005KT 9999 FEW015 SCT035 13/11 Q1001 NOSIG
13-03-27 LEBL 270530Z 06006KT 9999 FEW015 SCT039 13/11 Q1001 NOSIG
13-03-27 LEBL 270600Z 07005KT 9999 FEW015 SCT039 13/11 Q1001 NOSIG
13-03-27 LEBL 270632Z 08006KT 9999 RA FEW012 BKN035 14/11 Q1001 NOSIG
13-03-27 LEBL 270630Z 08005KT 9999 FEW012 SCT035 13/11 Q1001 NOSIG
13-03-27 LEBL 270700Z 09006KT 9999 DZ FEW012 BKN040 13/11 Q1001 NOSIG
13-03-27 LEBL 270730Z 09004KT 060V120 9999 DZ FEW012 BKN020 13/11 Q1002 NOSIG
13-03-27 LEBL 270830Z 10006KT 9999 SCT009 BKN020 14/12 Q1002 NOSIG
13-03-27 LEBL 270900Z 07007KT 030V100 9999 SCT010 BKN020 14/11 Q1002 NOSIG
13-03-27 LEBL 270930Z 07007KT 020V100 9999 SCT010 SCT015 14/11 Q1002 NOSIG
13-03-27 LEBL 271000Z 08006KT 9999 FEW010 SCT018 15/11 Q1003 NOSIG
13-03-27 LEBL 271030Z 08007KT 060V120 9999 FEW010 SCT016 15/11 Q1003 NOSIG
13-03-27 LEBL 271100Z 07007KT 9999 SCT014 15/11 Q1003 NOSIG
13-03-27 LEBL 271130Z 09008KT 060V120 9999 FEW014 16/11 Q1003 NOSIG
13-03-27 LEBL 271200Z 09010KT 9999 FEW012 16/10 Q1003 NOSIG
13-03-27 LEBL 271230Z 10010KT 9999 FEW016 15/10 Q1003 NOSIG
13-03-27 LEBL 271300Z 09009KT 9999 FEW020 15/11 Q1003 NOSIG
13-03-27 LEBL 271330Z 10009KT 9999 FEW010 SCT020 16/11 Q1002 NOSIG
13-03-27 LEBL 271400Z 08010KT 9999 SCT009 SCT020 15/12 Q1002 NOSIG
13-03-27 LEBL 271430Z 10010KT 9999 SCT009 15/11 Q1002 NOSIG
13-03-27 LEBL 271500Z 09008KT 060V120 9999 FEW009 15/12 Q1003 NOSIG
13-03-27 LEBL 271530Z 09009KT 9999 FEW008 15/12 Q1003 NOSIG
13-03-27 LEBL 271600Z 10009KT 9999 FEW008 15/12 Q1003 NOSIG
13-03-27 LEBL 271630Z 10008KT 9999 SCT007 14/12 Q1003 NOSIG
13-03-27 LEBL 271700Z 09007KT 060V120 9999 FEW007 SCT018 14/12 Q1003 NOSIG
13-03-27 LEBL 271730Z 09008KT 9999 FEW006 SCT018 14/12 Q1004 NOSIG
13-03-27 LEBL 271800Z 10007KT 9999 SCT006 BKN010 14/12 Q1004 NOSIG
13-03-27 LEBL 271830Z 09007KT 9999 SCT007 BKN012 14/12 Q1004 NOSIG
13-03-27 LEBL 271900Z 09006KT 9999 SCT007 BKN012 14/12 Q1004 NOSIG
13-03-27 LEBL 271930Z 09007KT 9999 FEW007 BKN015 14/12 Q1005 NOSIG
13-03-27 LEBL 272000Z 07007KT 9999 BKN016 SCT021 14/12 Q1005 NOSIG
13-03-27 LEBL 272030Z 07007KT 9999 BKN018 SCT020 14/12 Q1005 NOSIG
13-03-27 LEBL 272100Z 05007KT 9999 BKN018 SCT020 14/12 Q1005 NOSIG
13-03-27 LEBL 272130Z 05005KT 9999 SCT020 14/12 Q1005 NOSIG
13-03-27 LEBL 272200Z 05007KT 9999 SCT020 14/12 Q1005 NOSIG
13-03-27 LEBL 272230Z 07007KT 9999 FEW010 SCT020 13/12 Q1005 NOSIG
13-03-27 LEBL 272300Z 07008KT 9999 FEW008 SCT015 13/12 Q1005 NOSIG
13-03-27 LEBL 272330Z 07006KT 9999 FEW008 SCT015 13/12 Q1005 NOSIG
13-03-28 LEBL 280000Z NIL
13-03-28 LEBL 280030Z 04006KT 9999 FEW008 BKN015 13/11 Q1005 NOSIG
13-03-28 LEBL 280100Z 03007KT 9999 SCT013 BKN016 14/11 Q1004 NOSIG
13-03-28 LEBL 280130Z 03005KT 360V060 9999 SCT013 BKN016 14/11 Q1004 NOSIG
13-03-28 LEBL 280200Z 35005KT 9999 SCT010 BKN016 14/11 Q1004 NOSIG
13-03-28 LEBL 280230Z 36006KT 9999 SCT013 BKN016 14/11 Q1003 NOSIG
13-03-28 LEBL 280300Z 35003KT 320V020 9999 SCT014 BKN017 14/11 Q1003 NOSIG
13-03-28 LEBL 280330Z VRB02KT 9999 SCT013 BKN017 14/11 Q1003 NOSIG
13-03-28 LEBL 280400Z 32004KT 9999 SCT013 BKN017 14/11 Q1003 NOSIG
13-03-28 LEBL 280430Z 33005KT 9999 BKN018 14/11 Q1003 NOSIG
13-03-28 LEBL 280500Z 35003KT 9999 BKN016 14/11 Q1003 NOSIG
13-03-28 LEBL 280530Z 34002KT 9999 BKN016 14/11 Q1003 NOSIG
13-03-28 LEBL 280600Z 33005KT 9999 BKN017 14/11 Q1003 NOSIG
13-03-28 LEBL 280630Z 32006KT 260V350 9999 BKN017 14/11 Q1004 NOSIG
13-03-28 LEBL 280700Z 32006KT 260V340 9999 FEW016 SCT020 14/11 Q1004 NOSIG
13-03-28 LEBL 280730Z 31005KT 260V360 9999 SCT020 14/11 Q1004 NOSIG
13-03-28 LEBL 280800Z NIL
13-03-28 LEBL 280800Z 26003KT 220V300 9999 SCT020 15/11 Q1004 NOSIG
13-03-28 LEBL 280830Z 25004KT 190V300 9999 SCT020 15/11 Q1004 NOSIG
13-03-28 LEBL 280900Z 23005KT 190V260 9999 FEW015 16/12 Q1004 NOSIG
13-03-28 LEBL 280930Z 23009KT 9999 FEW015 16/12 Q1005 NOSIG
13-03-28 LEBL 281000Z 22012KT 9999 FEW015 16/11 Q1005 NOSIG
13-03-28 LEBL 281030Z 22011KT 9999 FEW015 16/12 Q1005 NOSIG
13-03-28 LEBL 281100Z 23015KT 9999 FEW015 16/12 Q1005 NOSIG
13-03-28 LEBL 281130Z 23016KT 9999 FEW016 16/12 Q1005 NOSIG
13-03-28 LEBL 281200Z 21017KT 9999 FEW016 17/13 Q1005 NOSIG
13-03-28 LEBL 281230Z 22018KT 9999 FEW016 SCT050 16/12 Q1004 NOSIG
13-03-28 LEBL 281300Z 22019KT 9999 FEW018 SCT045 17/13 Q1005 NOSIG
13-03-28 LEBL 281330Z 21018KT 9999 FEW018 SCT045 17/13 Q1005 NOSIG
13-03-28 LEBL 281400Z 22020KT 9999 FEW020 SCT050 17/13 Q1005 NOSIG
13-03-28 LEBL 281430Z 23022KT 9999 FEW015 17/13 Q1005 NOSIG
13-03-28 LEBL 281500Z 23021KT 9999 FEW015 18/13 Q1005 NOSIG
13-03-28 LEBL 281530Z 23019KT 9999 FEW020 17/14 Q1005 NOSIG
13-03-28 LEBL 281600Z 22017KT 9999 FEW020 17/13 Q1005 NOSIG
13-03-28 LEBL 281630Z 23018KT 9999 FEW020 16/13 Q1005 NOSIG
13-03-28 LEBL 281700Z 22012KT 9999 FEW020 17/13 Q1005 NOSIG
13-03-28 LEBL 281730Z 24017KT 9999 FEW025 17/12 Q1006 NOSIG
13-03-28 LEBL 281800Z 23012KT 9999 FEW025 16/12 Q1006 NOSIG
13-03-28 LEBL 281830Z 20006KT 180V240 9999 FEW025 16/12 Q1007 NOSIG
13-03-28 LEBL 281900Z 22010KT 9999 FEW025 15/13 Q1007 NOSIG
13-03-28 LEBL 281930Z 21009KT 9999 FEW025 15/12 Q1007 NOSIG
13-03-28 LEBL 282000Z 22007KT 9999 FEW025 15/13 Q1008 NOSIG
13-03-28 LEBL 282030Z 06005KT 310V090 9999 FEW025 15/13 Q1009 NOSIG
13-03-28 LEBL 282100Z 05010KT 010V070 9999 FEW022 15/13 Q1009 NOSIG
13-03-28 LEBL 282130Z 06009KT 9999 FEW022 15/13 Q1009 NOSIG
13-03-28 LEBL 282200Z 05007KT 8000 FEW022 15/13 Q1009 NOSIG
13-03-28 LEBL 282230Z 05007KT 7000 FEW022 15/13 Q1009 NOSIG
13-03-28 LEBL 282300Z 04006KT 6000 FEW022 14/13 Q1009 NOSIG
13-03-28 LEBL 282330Z 03006KT 7000 FEW022 15/13 Q1010 NOSIG
13-03-29 LEBL 290000Z 04008KT 9999 FEW020 15/12 Q1009 NOSIG
13-03-29 LEBL 290030Z 04006KT 010V070 9000 FEW020 15/12 Q1009 NOSIG
13-03-29 LEBL 290100Z 03005KT 8000 FEW020 15/12 Q1009 NOSIG
13-03-29 LEBL 290130Z 05005KT 7000 FEW020 14/12 Q1009 NOSIG
13-03-29 LEBL 290200Z 04004KT 7000 FEW022 14/12 Q1009 NOSIG
13-03-29 LEBL 290230Z 32003KT 6000 FEW016 13/12 Q1009 NOSIG
13-03-29 LEBL 290300Z 31003KT 6000 SCT014 13/12 Q1009 NOSIG
13-03-29 LEBL 290330Z 34004KT 6000 FEW014 13/12 Q1009 NOSIG
13-03-29 LEBL 290400Z 30004KT 6000 FEW014 13/11 Q1009 NOSIG
13-03-29 LEBL 290430Z 30004KT 6000 FEW012 13/11 Q1008 NOSIG
13-03-29 LEBL 290500Z 32005KT 6000 FEW012 13/12 Q1008 NOSIG
13-03-29 LEBL 290530Z 32004KT 6000 FEW014 13/12 Q1008 NOSIG
13-03-29 LEBL 290600Z 32003KT 7000 FEW014 14/12 Q1008 NOSIG
13-03-29 LEBL 290630Z VRB01KT 7000 FEW015 14/12 Q1008 NOSIG
13-03-29 LEBL 290700Z VRB01KT 7000 FEW018 14/12 Q1008 NOSIG
13-03-29 LEBL 290730Z 27002KT 8000 FEW018 15/12 Q1008 NOSIG
13-03-29 LEBL 290800Z VRB01KT 9999 FEW020 16/11 Q1008 NOSIG
13-03-29 LEBL 290830Z 00000KT 9999 FEW020 19/10 Q1008 NOSIG
13-03-29 LEBL 290900Z 20007KT 9999 FEW020 19/11 Q1008 NOSIG
13-03-29 LEBL 290930Z 21004KT 150V290 9999 FEW020 19/11 Q1008 NOSIG
13-03-29 LEBL 291000Z 23005KT 9999 FEW025 20/11 Q1008 NOSIG
13-03-29 LEBL 291030Z 22016KT 9999 FEW025 18/12 Q1008 NOSIG
13-03-29 LEBL 291100Z 23015KT 9999 FEW025 20/11 Q1007 NOSIG
13-03-29 LEBL 291130Z 21014KT 9999 FEW045 19/11 Q1007 NOSIG
13-03-29 LEBL 291200Z 22019KT 9999 FEW050 19/11 Q1007 NOSIG
13-03-29 LEBL 291230Z 23021KT 9999 SCT052 20/10 Q1008 NOSIG
13-03-29 LEBL 291300Z 22015KT 9999 FEW053 19/11 Q1007 NOSIG
13-03-29 LEBL 291330Z 24015KT 9999 FEW053 19/09 Q1007 NOSIG
13-03-29 LEBL 291400Z 23015KT 9999 FEW053 18/10 Q1007 NOSIG
13-03-29 LEBL 291430Z 22012KT 9999 FEW050 17/11 Q1007 NOSIG
13-03-29 LEBL 291500Z 24009KT 9999 FEW050 19/11 Q1006 NOSIG
13-03-29 LEBL 291530Z 23013KT 9999 FEW050 19/11 Q1006 NOSIG
13-03-29 LEBL 291600Z 23012KT 9999 FEW050 19/11 Q1006 NOSIG
13-03-29 LEBL 291630Z 24009KT 9999 FEW050 19/11 Q1005 NOSIG
13-03-29 LEBL 291700Z 21012KT 9999 FEW050 18/11 Q1005 NOSIG
13-03-29 LEBL 291730Z 23014KT 9999 FEW050 17/12 Q1005 NOSIG
13-03-29 LEBL 291800Z 24007KT 9999 FEW045 17/13 Q1004 NOSIG
13-03-29 LEBL 291830Z 22007KT 9999 FEW030 16/13 Q1004 NOSIG
13-03-29 LEBL 291900Z 24008KT 9999 FEW030 16/13 Q1004 NOSIG
13-03-29 LEBL 292000Z 24006KT 9999 FEW050 17/12 Q1004 NOSIG
13-03-29 LEBL 292030Z 25003KT 210V300 9999 FEW030 SCT055 17/12 Q1004 NOSIG
13-03-29 LEBL 292100Z 27006KT 240V320 9999 -RA FEW025 BKN045 18/12 Q1004 NOSIG
13-03-29 LEBL 292200Z 22007KT 190V260 9999 FEW025 SCT050 16/13 Q1004 NOSIG
13-03-29 LEBL 292300Z 21006KT 9999 FEW025 16/13 Q1003 NOSIG
13-03-29 LEBL 292330Z 22010KT 9999 FEW025 15/14 Q1002 NOSIG
13-03-30 LEBL 300000Z 22009KT 9999 FEW025 15/13 Q1001 NOSIG
13-03-30 LEBL 300030Z 24008KT 9999 FEW025 SCT050 15/13 Q1001 NOSIG
13-03-30 LEBL 300100Z 24013KT 9999 FEW025 SCT050 15/13 Q1001 NOSIG
13-03-30 LEBL 300130Z 23016KT 9999 FEW030 16/13 Q1001 NOSIG
13-03-30 LEBL 300200Z 22013KT 9999 FEW030 16/13 Q1001 NOSIG
13-03-30 LEBL 300230Z 22012KT 9999 FEW030 SCT045 16/13 Q1001 NOSIG
13-03-30 LEBL 300300Z 21015KT 9999 FEW030 16/13 Q1001 NOSIG
13-03-30 LEBL 300330Z 24013KT 9999 FEW030 16/11 Q1001 NOSIG
13-03-30 LEBL 300400Z 24017KT 9999 FEW030 17/10 Q1001 NOSIG
13-03-30 LEBL 300430Z 26020KT 9999 FEW030 17/10 Q1001 NOSIG
13-03-30 LEBL 300500Z 26018G29KT 240V300 9999 FEW035 16/09 Q1001 NOSIG
13-03-30 LEBL 300530Z 27016G29KT 9999 FEW035 16/10 Q1001 NOSIG
13-03-30 LEBL 300600Z 26016KT 9999 FEW035 16/09 Q1001 NOSIG
13-03-30 LEBL 300630Z 27014KT 9999 FEW035 16/08 Q1001 NOSIG
13-03-30 LEBL 300700Z 27017G28KT 9999 FEW035 16/08 Q1001 NOSIG
13-03-30 LEBL 300730Z 31006KT 250V020 9999 FEW035 17/08 Q1001 NOSIG
13-03-30 LEBL 300800Z 32009KT 280V010 9999 FEW035 17/08 Q1002 NOSIG
13-03-30 LEBL 300830Z 30010KT 9999 FEW030 17/08 Q1002 NOSIG
13-03-30 LEBL 300900Z 29012KT 270V340 9999 FEW030 17/07 Q1002 NOSIG
13-03-30 LEBL 300930Z 30015KT 9999 FEW025 17/07 Q1002 NOSIG
13-03-30 LEBL 301000Z 30021G31KT 290V350 9999 FEW025 17/07 Q1003 NOSIG
13-03-30 LEBL 301030Z 30017G27KT 280V340 9999 FEW025 17/07 Q1003 NOSIG
13-03-30 LEBL 301100Z 30019KT 9999 FEW025 19/07 Q1002 NOSIG
13-03-30 LEBL 301130Z 30018G28KT 9999 FEW025 19/07 Q1003 NOSIG
13-03-30 LEBL 301200Z 29024KT 9999 FEW025 20/07 Q1003 NOSIG
13-03-30 LEBL 301230Z 29020G30KT 9999 FEW025 19/06 Q1003 NOSIG
13-03-30 LEBL 301300Z 29018G29KT 9999 FEW025 20/04 Q1003 NOSIG
13-03-30 LEBL 301330Z 29015KT 260V330 9999 FEW025 21/04 Q1003 NOSIG
13-03-30 LEBL 301400Z 28018KT 9999 FEW025 21/04 Q1003 NOSIG
13-03-30 LEBL 301430Z 31017G29KT 9999 FEW025 21/04 Q1003 NOSIG
13-03-30 LEBL 301500Z 30017G28KT 250V330 9999 FEW025 21/03 Q1003 NOSIG
13-03-30 LEBL 301530Z 30018KT 260V330 9999 FEW025 21/02 Q1003 NOSIG
13-03-30 LEBL 301600Z 29013G23KT 260V330 9999 FEW025 21/01 Q1004 NOSIG
13-03-30 LEBL 301630Z 27006KT 200V310 9999 FEW025 21/02 Q1004 NOSIG
13-03-30 LEBL 301700Z 27007KT 190V340 9999 FEW025 21/00 Q1004 NOSIG
13-03-30 LEBL 301730Z 31004KT 210V020 9999 FEW025 21/00 Q1005 BECMG 09012KT
13-03-30 LEBL 301800Z 06010KT 9999 FEW025 18/08 Q1005 NOSIG
13-03-30 LEBL 301830Z 05011KT 360V090 9999 FEW020 16/10 Q1006 NOSIG
13-03-30 LEBL 301900Z 05011KT 9999 FEW020 15/10 Q1006 NOSIG
13-03-30 LEBL 301930Z 06011KT 9999 FEW020 14/11 Q1007 NOSIG
13-03-30 LEBL 302000Z 04008KT 9999 FEW020 15/09 Q1007 NOSIG
13-03-30 LEBL 302030Z 03005KT CAVOK 14/10 Q1007 NOSIG
13-03-30 LEBL 302100Z 14004KT 120V210 CAVOK 15/08 Q1008 NOSIG
13-03-30 LEBL 302130Z 31004KT CAVOK 16/06 Q1008 NOSIG
13-03-30 LEBL 302200Z 33005KT 250V010 CAVOK 17/03 Q1008 NOSIG
13-03-30 LEBL 302230Z 18005KT 9999 FEW025 14/07 Q1008 NOSIG
13-03-30 LEBL 302300Z 24003KT 210V270 9999 FEW025 14/08 Q1008 NOSIG
13-03-30 LEBL 302330Z VRB02KT 9999 FEW025 14/07 Q1008 NOSIG
13-03-31 LEBL 310000Z 34002KT 9999 FEW025 14/05 Q1008 NOSIG
13-03-31 LEBL 310030Z 31006KT 280V010 9999 FEW025 15/03 Q1008 NOSIG
13-03-31 LEBL 310100Z 32011KT 9999 FEW025 14/04 Q1008 NOSIG
13-03-31 LEBL 310130Z 32012KT 9999 FEW025 13/04 Q1008 NOSIG
13-03-31 LEBL 310200Z 28012KT 9999 FEW025 13/05 Q1007 NOSIG
13-03-31 LEBL 310230Z 26011KT 9999 FEW025 12/04 Q1007 NOSIG
13-03-31 LEBL 310300Z 27014KT 9999 FEW025 13/04 Q1006 NOSIG
13-03-31 LEBL 310330Z 26006KT 9999 FEW025 12/04 Q1006 NOSIG
13-03-31 LEBL 310400Z 30010KT 9999 FEW025 13/04 Q1006 NOSIG
13-03-31 LEBL 310430Z 19004KT 140V290 9999 FEW025 12/04 Q1006 NOSIG
13-03-31 LEBL 310500Z 33009KT 9999 FEW025 12/04 Q1006 NOSIG
13-03-31 LEBL 310530Z 09004KT 030V120 9999 FEW025 12/05 Q1007 NOSIG
13-03-31 LEBL 310600Z VRB02KT 9999 FEW025 11/05 Q1007 NOSIG
13-03-31 LEBL 310630Z 36006KT 270V070 9999 FEW025 12/05 Q1007 NOSIG
13-03-31 LEBL 310700Z 36005KT 310V050 9999 FEW025 12/05 Q1007 NOSIG
13-03-31 LEBL 310730Z 33006KT 300V010 9999 FEW025 12/05 Q1007 NOSIG
13-03-31 LEBL 310800Z 34010KT 9999 FEW025 13/04 Q1007 NOSIG
13-03-31 LEBL 310830Z 34006KT 310V010 9999 FEW025 13/04 Q1007 NOSIG
13-03-31 LEBL 310900Z 33006KT 290V050 9999 FEW025 14/05 Q1007 NOSIG
13-03-31 LEBL 310930Z VRB02KT 9999 FEW025 15/04 Q1007 NOSIG
13-03-31 LEBL 311000Z 19006KT 9999 FEW025 15/05 Q1007 NOSIG
13-03-31 LEBL 311030Z 17008KT 9999 FEW025 15/05 Q1007 NOSIG
13-03-31 LEBL 311100Z 18005KT 150V250 9999 FEW025 15/05 Q1007 NOSIG
13-03-31 LEBL 311130Z 20007KT 170V240 9999 FEW025 16/06 Q1006 NOSIG
13-03-31 LEBL 311200Z 16006KT 130V210 9999 FEW025 15/06 Q1006 NOSIG
13-03-31 LEBL 311230Z 14006KT 100V170 9999 FEW025 16/07 Q1006 NOSIG
13-03-31 LEBL 311300Z 11007KT 070V150 9999 FEW025 16/07 Q1006 NOSIG
13-03-31 LEBL 311330Z 11009KT 9999 FEW025 16/07 Q1005 NOSIG
13-03-31 LEBL 311400Z 11010KT 9999 FEW025 16/08 Q1005 NOSIG
13-03-31 LEBL 311430Z 10008KT 9999 FEW025 16/07 Q1005 NOSIG
13-03-31 LEBL 311500Z 13008KT 100V160 9999 FEW025 16/08 Q1004 NOSIG
13-03-31 LEBL 311530Z 12008KT 100V170 9999 FEW025 16/09 Q1004 NOSIG
13-03-31 LEBL 311600Z 10008KT 9999 FEW025 16/08 Q1004 NOSIG
13-03-31 LEBL 311630Z 12008KT 9999 FEW025 16/09 Q1004 NOSIG
13-03-31 LEBL 311700Z 11006KT 9999 FEW025 16/09 Q1004 NOSIG
13-03-31 LEBL 311730Z 09007KT 9999 FEW025 16/10 Q1004 NOSIG
13-03-31 LEBL 311800Z 05008KT 010V070 9999 FEW025 15/10 Q1004 NOSIG
13-03-31 LEBL 311830Z 07008KT 9999 FEW025 15/10 Q1004 NOSIG
13-03-31 LEBL 311900Z 04008KT 9999 FEW025 14/10 Q1004 NOSIG
13-03-31 LEBL 311930Z 06009KT 9999 FEW025 14/11 Q1003 NOSIG
13-03-31 LEBL 312000Z 05008KT 9999 FEW025 14/11 Q1003 NOSIG
13-03-31 LEBL 312030Z 05009KT 9999 FEW025 14/11 Q1003 NOSIG
13-03-31 LEBL 312100Z 04007KT 9999 FEW025 14/11 Q1003 NOSIG
13-03-31 LEBL 312130Z 04006KT 9999 FEW025 14/11 Q1003 NOSIG
13-03-31 LEBL 312200Z 05005KT 9999 FEW025 14/11 Q1003 NOSIG
13-03-31 LEBL 312230Z 03007KT 9999 FEW025 14/11 Q1002 NOSIG
13-03-31 LEBL 312300Z 05007KT 9999 SCT010 14/11 Q1001 NOSIG
13-03-31 LEBL 312330Z 04007KT 9999 SCT010 14/11 Q1001 NOSIG
13-04-01 LEBL 010000Z 04006KT 9999 FEW010 13/10 Q1001 NOSIG
13-04-01 LEBL 010030Z 04007KT 9999 SCT010 13/10 Q1000 NOSIG
13-04-01 LEBL 010100Z 04007KT 9999 SCT010 13/10 Q1000 NOSIG
13-04-01 LEBL 010130Z 04006KT 9999 SCT010 13/10 Q1000 NOSIG
13-04-01 LEBL 010200Z 04007KT 9999 SCT010 SCT022 13/10 Q0999 NOSIG
13-04-01 LEBL 010300Z 03007KT 9000 -RA BKN009 SCT022 13/10 Q0998 NOSIG
13-04-01 LEBL 010330Z 01005KT 9000 DZ BKN008 SCT022 12/11 Q0998 NOSIG
13-04-01 LEBL 010400Z 02005KT 340V040 9000 -RA BKN007 SCT022 12/11 Q0997 NOSIG
13-04-01 LEBL 010500Z 04007KT 7000 -RA BKN007 SCT022 13/12 Q0996 NOSIG
13-04-01 LEBL 010509Z 04007KT 4000 -RA BR BKN007 SCT022 12/11 Q0996 NOSIG
13-04-01 LEBL 010530Z 02007KT 4000 DZ BR BKN007 SCT022 12/11 Q0996 NOSIG
13-04-01 LEBL 010600Z 02006KT 340V070 6000 SCT005 BKN008 12/11 Q0995 NOSIG
13-04-01 LEBL 010630Z 33007KT 6000 SCT005 BKN008 12/11 Q0995 NOSIG
13-04-01 LEBL 010700Z 34004KT 6000 BKN006 SCT008 12/11 Q0995 NOSIG
13-04-01 LEBL 010730Z 33006KT 9000 BKN005 SCT007 12/12 Q0996 NOSIG
13-04-01 LEBL 010800Z 34006KT 290V030 9000 BKN005 SCT007 13/11 Q0995 NOSIG
13-04-01 LEBL 010830Z 32007KT 230V360 9000 BKN005 SCT007 13/12 Q0996 NOSIG
13-04-01 LEBL 010900Z 33006KT 240V020 9000 BKN005 SCT007 13/12 Q0996 NOSIG
13-04-01 LEBL 010930Z 32006KT 260V010 9000 BKN007 13/12 Q0996 NOSIG
13-04-01 LEBL 011000Z 31006KT 250V360 9999 BKN008 SCT017 14/12 Q0996 NOSIG
13-04-01 LEBL 011030Z 30003KT 240V360 9999 BKN014 SCT040 14/12 Q0996 NOSIG
13-04-01 LEBL 011100Z 31003KT 280V350 9999 BKN014 SCT055 15/12 Q0996 NOSIG
13-04-01 LEBL 011130Z 22007KT 170V280 9999 SCT014 SCT055 15/13 Q0996 NOSIG
13-04-01 LEBL 011200Z 21006KT 190V250 9999 FEW020 SCT045 17/11 Q0996 NOSIG
13-04-01 LEBL 011230Z 28018KT 240V310 9999 FEW020 SCT050 20/08 Q0995 NOSIG
13-04-01 LEBL 011300Z 27017KT 9999 FEW020 BKN055 19/07 Q0995 NOSIG
13-04-01 LEBL 011330Z 28016G26KT 250V310 9999 FEW020 BKN055 19/05 Q0995 NOSIG
13-04-01 LEBL 011400Z 30012G23KT 250V330 9999 FEW020 BKN055 20/03 Q0995 NOSIG
13-04-01 LEBL 011430Z 29016G27KT 260V330 9999 FEW025 BKN055 20/02 Q0995 NOSIG
13-04-01 LEBL 011500Z 29015KT 250V320 9999 FEW025 SCT055 21/01 Q0995 NOSIG
13-04-01 LEBL 011530Z 28016G26KT 250V310 9999 FEW025 20/02 Q0996 NOSIG
13-04-01 LEBL 011600Z 06012KT 9999 FEW025 20/02 Q0997 NOSIG
13-04-01 LEBL 011630Z 07016KT 9999 FEW025 SCT050 15/10 Q0998 NOSIG
13-04-01 LEBL 011700Z 08014KT 9999 FEW025 SCT050 14/10 Q0999 NOSIG
13-04-01 LEBL 011730Z 08010KT 9999 FEW025 SCT055 14/11 Q0999 NOSIG
13-04-01 LEBL 011800Z 06009KT 9999 -RA FEW025 SCT055 13/11 Q1000 NOSIG
13-04-01 LEBL 011830Z 07007KT 350V100 9999 FEW025 SCT055 13/10 Q1000 RERA NOSIG
13-04-01 LEBL 011900Z 08005KT 040V120 9999 FEW025 SCT055 13/10 Q1001 NOSIG
13-04-01 LEBL 011930Z 08007KT 9999 FEW025 SCT055 13/10 Q1002 NOSIG
13-04-01 LEBL 011930Z NIL
13-04-01 LEBL 012000Z 09007KT 9999 FEW025 13/10 Q1002 NOSIG
13-04-01 LEBL 012030Z 09006KT 9999 FEW020 13/09 Q1003 NOSIG
13-04-01 LEBL 012100Z 09004KT 9999 FEW020 12/09 Q1003 NOSIG
13-04-01 LEBL 012130Z 12003KT 9999 FEW020 12/09 Q1003 NOSIG
13-04-01 LEBL 012200Z 12003KT 100V170 9999 FEW020 12/09 Q1003 NOSIG
13-04-01 LEBL 012230Z 14003KT 9999 FEW015 12/09 Q1003 NOSIG
13-04-01 LEBL 012300Z 14003KT 9999 FEW015 12/09 Q1003 NOSIG
13-04-01 LEBL 012330Z 16003KT 9999 SCT015 11/08 Q1003 NOSIG
13-04-02 LEBL 020000Z 19004KT 9999 SCT015 11/09 Q1003 NOSIG
13-04-02 LEBL 020030Z 21004KT 9999 FEW015 SCT018 11/09 Q1004 NOSIG
13-04-02 LEBL 020100Z 19002KT 9999 FEW015 BKN018 12/09 Q1003 NOSIG
13-04-02 LEBL 020130Z 00000KT 9999 FEW014 BKN017 11/09 Q1003 NOSIG
13-04-02 LEBL 020200Z VRB02KT 9999 FEW014 SCT018 11/09 Q1003 NOSIG
13-04-02 LEBL 020230Z VRB02KT 9999 FEW014 11/09 Q1003 NOSIG
13-04-02 LEBL 020300Z VRB02KT 9999 FEW015 11/09 Q1003 NOSIG
13-04-02 LEBL 020330Z 31003KT 9999 FEW018 11/09 Q1003 NOSIG
13-04-02 LEBL 020400Z 31005KT 9999 FEW018 10/08 Q1003 NOSIG
13-04-02 LEBL 020430Z 32004KT 9999 FEW020 10/08 Q1003 NOSIG
13-04-02 LEBL 020500Z 32007KT 9999 FEW020 10/08 Q1003 NOSIG
13-04-02 LEBL 020530Z 32007KT 9999 FEW022 10/08 Q1003 NOSIG
13-04-02 LEBL 020600Z 32006KT 290V350 9999 FEW025 10/08 Q1003 NOSIG
13-04-02 LEBL 020630Z 32007KT 290V010 9999 FEW025 11/07 Q1003 NOSIG
13-04-02 LEBL 020700Z 33007KT 9999 FEW025 12/07 Q1003 NOSIG
13-04-02 LEBL 020730Z 33008KT 290V050 9999 FEW025 12/07 Q1004 NOSIG
13-04-02 LEBL 020800Z 34007KT 250V030 9999 FEW025 13/07 Q1004 NOSIG
13-04-02 LEBL 020830Z 33007KT 300V010 9999 FEW025 14/07 Q1004 NOSIG
13-04-02 LEBL 020900Z 32005KT 9999 FEW025 14/07 Q1004 NOSIG
13-04-02 LEBL 020930Z 27005KT 210V340 9999 FEW025 16/05 Q1004 NOSIG
13-04-02 LEBL 021000Z 29008G22KT 250V350 9999 FEW025 17/05 Q1004 NOSIG
13-04-02 LEBL 021030Z 30011KT 260V330 9999 FEW025 18/03 Q1004 NOSIG
13-04-02 LEBL 021100Z 31016KT 9999 FEW025 18/03 Q1004 NOSIG
13-04-02 LEBL 021130Z 30017G28KT 260V330 9999 FEW025 19/04 Q1004 NOSIG
13-04-02 LEBL 021200Z 31015KT 9999 FEW025 19/03 Q1003 NOSIG
13-04-02 LEBL 021230Z 30013KT 270V330 9999 FEW025 19/03 Q1003 NOSIG
13-04-02 LEBL 021300Z 31013G24KT 9999 FEW025 20/02 Q1003 NOSIG
13-04-02 LEBL 021330Z 31012KT 250V350 9999 FEW025 20/03 Q1003 NOSIG
13-04-02 LEBL 021400Z 30013KT 9999 FEW025 20/03 Q1003 NOSIG
13-04-02 LEBL 021430Z 30015KT 9999 FEW025 21/02 Q1003 NOSIG
13-04-02 LEBL 021500Z 30009KT 250V340 9999 FEW025 20/01 Q1003 NOSIG
13-04-02 LEBL 021530Z 29014KT 9999 FEW025 21/01 Q1003 NOSIG
13-04-02 LEBL 021600Z 29014KT 9999 FEW025 21/01 Q1003 NOSIG
13-04-02 LEBL 021630Z 27014KT 9999 FEW025 20/01 Q1003 NOSIG
13-04-02 LEBL 021700Z 27017KT 9999 FEW025 20/M01 Q1003 NOSIG
13-04-02 LEBL 021730Z 28012KT 250V310 9999 FEW025 20/M01 Q1004 NOSIG
13-04-02 LEBL 021748Z 07011KT 9999 FEW025 20/00 Q1005 NOSIG
13-04-02 LEBL 021800Z 06011KT 9999 FEW025 19/00 Q1005 NOSIG
13-04-02 LEBL 021830Z 07014KT 9999 FEW025 16/07 Q1006 NOSIG
13-04-02 LEBL 021900Z 06015KT 9999 FEW025 15/06 Q1007 NOSIG
13-04-02 LEBL 021930Z 06009KT 020V090 9999 FEW025 15/06 Q1007 NOSIG
13-04-02 LEBL 022000Z 07006KT 9999 FEW025 15/07 Q1007 NOSIG
13-04-02 LEBL 022030Z 08006KT 030V120 9999 FEW025 14/08 Q1008 NOSIG
13-04-02 LEBL 022100Z 05005KT 9999 FEW025 14/08 Q1008 NOSIG
13-04-02 LEBL 022130Z 06004KT 9999 FEW025 13/09 Q1008 NOSIG
13-04-02 LEBL 022200Z VRB02KT 9999 FEW025 13/08 Q1008 NOSIG
13-04-02 LEBL 022230Z 06002KT 9999 FEW025 13/08 Q1008 NOSIG
13-04-02 LEBL 022300Z 00000KT 9999 FEW025 12/08 Q1008 NOSIG
13-04-02 LEBL 022330Z 35002KT 9999 FEW025 12/07 Q1008 NOSIG
13-04-03 LEBL 030000Z VRB02KT 9999 FEW025 12/07 Q1008 NOSIG
13-04-03 LEBL 030030Z 31004KT 9999 FEW025 11/07 Q1008 NOSIG
13-04-03 LEBL 030100Z 30005KT 9999 FEW025 11/07 Q1009 NOSIG
13-04-03 LEBL 030130Z 32005KT 9999 FEW025 10/07 Q1008 NOSIG
13-04-03 LEBL 030200Z 34006KT 9999 FEW025 10/07 Q1008 NOSIG
13-04-03 LEBL 030230Z 33007KT 9999 FEW025 10/07 Q1008 NOSIG
13-04-03 LEBL 030300Z 32009KT 9999 FEW025 10/06 Q1008 NOSIG
13-04-03 LEBL 030330Z 32009KT 9999 FEW025 10/06 Q1008 NOSIG
13-04-03 LEBL 030400Z 33010KT 9999 FEW025 10/06 Q1007 NOSIG
13-04-03 LEBL 030430Z 31009KT 9999 FEW025 10/06 Q1008 NOSIG
13-04-03 LEBL 030500Z 33009KT 9999 FEW025 10/06 Q1008 NOSIG
13-04-03 LEBL 030530Z 32011KT 9999 FEW025 09/06 Q1008 NOSIG
13-04-03 LEBL 030600Z 32009KT 9999 FEW025 09/06 Q1008 NOSIG
13-04-03 LEBL 030630Z 33008KT 290V030 9999 FEW025 09/06 Q1008 NOSIG
13-04-03 LEBL 030700Z 33008KT 9999 FEW025 10/05 Q1008 NOSIG
13-04-03 LEBL 030730Z 33008KT 9999 FEW025 11/06 Q1008 NOSIG
13-04-03 LEBL 030800Z 32005KT 230V360 9999 FEW025 12/06 Q1008 NOSIG
13-04-03 LEBL 030830Z 29001KT 9999 FEW025 14/06 Q1008 NOSIG
13-04-03 LEBL 030900Z 05002KT 9999 FEW025 15/07 Q1008 NOSIG
13-04-03 LEBL 030930Z 11005KT 080V170 9999 FEW025 16/08 Q1007 NOSIG
13-04-03 LEBL 031000Z 09006KT 060V120 9999 FEW025 16/08 Q1007 NOSIG
13-04-03 LEBL 031030Z 08007KT 050V110 9999 FEW025 16/10 Q1007 NOSIG
13-04-03 LEBL 031100Z 08010KT 9999 FEW025 16/10 Q1007 NOSIG
13-04-03 LEBL 031130Z 08008KT 050V120 9999 FEW025 16/10 Q1007 NOSIG
13-04-03 LEBL 031200Z 10009KT 9999 FEW025 16/10 Q1007 NOSIG
13-04-03 LEBL 031230Z 11011KT 9999 FEW018 16/11 Q1006 NOSIG
13-04-03 LEBL 031300Z 10011KT 9999 FEW018 16/11 Q1006 NOSIG
13-04-03 LEBL 031330Z 11011KT 080V150 9999 SCT019 16/11 Q1006 NOSIG
13-04-03 LEBL 031400Z 08011KT 9999 SCT019 16/12 Q1005 NOSIG
13-04-03 LEBL 031430Z 08011KT 9999 SCT019 16/11 Q1005 NOSIG
13-04-03 LEBL 031500Z 09011KT 9999 SCT019 16/11 Q1005 NOSIG
13-04-03 LEBL 031530Z 09011KT 030V110 9999 SCT019 15/11 Q1004 NOSIG
13-04-03 LEBL 031600Z 07011KT 9999 SCT019 15/11 Q1004 NOSIG
13-04-03 LEBL 031630Z 10008KT 9999 SCT014 15/11 Q1004 NOSIG
13-04-03 LEBL 031700Z 07008KT 040V110 9999 SCT012 15/11 Q1004 NOSIG
13-04-03 LEBL 031730Z 10006KT 060V120 9999 SCT012 15/11 Q1004 NOSIG
13-04-03 LEBL 031800Z 09005KT 9999 SCT012 14/12 Q1004 NOSIG
13-04-03 LEBL 031830Z 09005KT 9999 SCT014 14/12 Q1004 NOSIG
13-04-03 LEBL 031900Z 07003KT 9999 SCT014 14/12 Q1004 NOSIG
13-04-03 LEBL 031930Z 04006KT 9999 SCT014 14/12 Q1004 NOSIG
13-04-03 LEBL 032000Z 02004KT 300V070 9999 SCT020 14/11 Q1004 NOSIG
13-04-03 LEBL 032030Z 02005KT 310V070 9999 FEW020 14/11 Q1004 NOSIG
13-04-03 LEBL 032100Z 03006KT 340V060 9999 FEW020 15/10 Q1003 NOSIG
13-04-03 LEBL 032130Z 04005KT 9999 FEW020 14/11 Q1003 NOSIG
13-04-03 LEBL 032200Z VRB01KT 9999 FEW020 14/10 Q1003 NOSIG
13-04-03 LEBL 032230Z 35003KT 9999 FEW020 14/10 Q1003 NOSIG
13-04-03 LEBL 032300Z 00000KT 9999 FEW020 14/09 Q1003 NOSIG
13-04-03 LEBL 032330Z 02004KT 9999 FEW020 14/10 Q1002 NOSIG
13-04-04 LEBL 040000Z 34004KT 9999 FEW020 14/10 Q1002 NOSIG
13-04-04 LEBL 040030Z 33005KT 9999 FEW020 14/10 Q1002 NOSIG
13-04-04 LEBL 040100Z 33006KT 9999 FEW020 13/10 Q1001 NOSIG
13-04-04 LEBL 040130Z 34007KT 9999 FEW020 14/09 Q1001 NOSIG
13-04-04 LEBL 040200Z 34005KT 9999 FEW020 13/09 Q1001 NOSIG
13-04-04 LEBL 040230Z 33007KT 9999 FEW020 13/09 Q1000 NOSIG
13-04-04 LEBL 040300Z 32006KT 9999 FEW020 14/09 Q1000 NOSIG
13-04-04 LEBL 040330Z 35004KT 310V090 9999 FEW020 13/09 Q1000 NOSIG
13-04-04 LEBL 040400Z 33004KT 9999 FEW020 13/09 Q1000 NOSIG
13-04-04 LEBL 040430Z 32007KT 9999 FEW020 13/09 Q0999 NOSIG
13-04-04 LEBL 040500Z 33006KT 9999 FEW020 13/09 Q0999 NOSIG
13-04-04 LEBL 040530Z 03003KT 010V080 9999 SCT013 13/09 Q0999 NOSIG
13-04-04 LEBL 040600Z 05008KT 020V080 9999 SCT012 13/09 Q0999 NOSIG
13-04-04 LEBL 040630Z 05007KT 9999 SCT011 13/09 Q0999 NOSIG
13-04-04 LEBL 040700Z 03004KT 360V070 9999 SCT012 13/08 Q0999 NOSIG
13-04-04 LEBL 040730Z 03005KT 300V110 9999 FEW010 SCT013 14/09 Q0999 NOSIG
13-04-04 LEBL 040800Z 03006KT 330V070 9999 FEW010 SCT014 14/08 Q0999 NOSIG
13-04-04 LEBL 040830Z 07008KT 020V100 9999 FEW011 SCT015 15/09 Q0999 NOSIG
13-04-04 LEBL 040900Z 06009KT 030V100 9999 SCT015 15/11 Q0999 NOSIG
13-04-04 LEBL 040930Z 06009KT 9999 FEW016 15/11 Q0999 NOSIG
13-04-04 LEBL 041000Z 07009KT 9999 SCT015 16/11 Q0999 NOSIG
13-04-04 LEBL 041030Z 07009KT 9999 FEW018 16/10 Q0999 NOSIG
13-04-04 LEBL 041100Z 08008KT 050V120 9999 FEW018 SCT055 16/10 Q0999 NOSIG
13-04-04 LEBL 041130Z 10008KT 9999 FEW018 BKN055 16/11 Q0999 NOSIG
13-04-04 LEBL 041205Z 11006KT 5000 +SHRA FEW018 FEW020TCU BKN050 14/12 Q0999 NOSIG
13-04-04 LEBL 041200Z 10007KT 7000 -SHRA FEW018 FEW020TCU BKN050 15/12 Q0999 NOSIG
13-04-04 LEBL 041230Z 15006KT 4000 SHRA FEW012 FEW020TCU BKN040 14/11 Q0999 NOSIG
13-04-04 LEBL 041240Z 10003KT 070V160 9999 FEW015 FEW020TCU BKN045 14/11 Q0999
13-04-04 LEBL 041330Z VRB03KT 9999 FEW016 FEW025TCU BKN055 14/11 Q0998 NOSIG
13-04-04 LEBL 041400Z 10003KT 030V170 9999 FEW015 FEW025TCU 14/10 Q0999 NOSIG
13-04-04 LEBL 041430Z 10007KT 9999 FEW015 FEW025TCU 15/10 Q0998 NOSIG
13-04-04 LEBL 041500Z 10006KT 9999 FEW010 FEW025CB 15/12 Q0999 TEMPO TSRA
13-04-04 LEBL 041530Z 10007KT 070V130 9999 SCT009 BKN016 FEW025CB 14/12 Q0999 NOSIG
13-04-04 LEBL 041600Z 11005KT 8000 -SHRA SCT008 BKN018 FEW025TCU 14/12 Q0999 NOSIG
13-04-04 LEBL 041630Z 10006KT 070V130 9000 -RA SCT010 BKN020 FEW025TCU 14/12 Q0999
13-04-04 LEBL 041730Z 12005KT 9999 FEW015 FEW020TCU BKN025 14/11 Q0999 NOSIG
13-04-04 LEBL 041800Z 12004KT 9999 FEW013 FEW020TCU BKN025 14/11 Q0999 NOSIG
13-04-04 LEBL 041830Z VRB02KT 9999 SCT015 BKN030 14/11 Q1000 NOSIG
13-04-04 LEBL 041900Z 11003KT 060V150 9999 SCT015 BKN035 14/11 Q1000 NOSIG
13-04-04 LEBL 041930Z 12002KT 9999 SCT015 BKN035 14/12 Q1000 NOSIG
13-04-04 LEBL 042000Z 00000KT 9999 FEW013 SCT040 14/12 Q1001 NOSIG
13-04-04 LEBL 042030Z 07003KT 040V100 9999 SCT013 14/12 Q1001 NOSIG
13-04-04 LEBL 042100Z 00000KT 9000 SCT008 14/12 Q1001 NOSIG
13-04-04 LEBL 042130Z 09003KT 9999 FEW008 SCT040 14/12 Q1001 NOSIG
13-04-04 LEBL 042200Z 07005KT 9999 SCT010 SCT040 13/12 Q1001 NOSIG
13-04-04 LEBL 042230Z 08003KT 9999 SCT010 SCT040 14/12 Q1002 NOSIG
13-04-04 LEBL 042300Z 06003KT 9999 SCT010 SCT040 14/12 Q1002 NOSIG
13-04-04 LEBL 042330Z 05006KT 9999 SCT010 SCT040 13/12 Q1002 NOSIG
13-04-05 LEBL 050000Z 05005KT 9999 SCT010 SCT040 13/12 Q1002 NOSIG
13-04-05 LEBL 050030Z 33003KT 300V030 8000 SCT010 SCT040 13/11 Q1002 NOSIG
13-04-05 LEBL 050100Z VRB02KT 8000 SCT010 SCT040 13/11 Q1002 NOSIG
13-04-05 LEBL 050130Z VRB02KT 8000 SCT010 SCT040 13/11 Q1002 NOSIG
13-04-05 LEBL 050200Z 12002KT 8000 FEW018 SCT055 13/11 Q1002 NOSIG
13-04-05 LEBL 050230Z 00000KT 8000 FEW018 SCT055 12/11 Q1002 NOSIG
13-04-05 LEBL 050300Z 00000KT 8000 FEW018 SCT055 13/11 Q1002 NOSIG
13-04-05 LEBL 050330Z 11003KT 8000 FEW018 SCT055 12/11 Q1002 NOSIG
13-04-05 LEBL 050400Z 13004KT 9999 FEW018 SCT055 12/10 Q1002 NOSIG
13-04-05 LEBL 050430Z 35006KT 310V020 9999 SCT010 SCT055 12/11 Q1003 NOSIG
13-04-05 LEBL 050500Z 33006KT 9999 SCT010 SCT055 11/07 Q1003 NOSIG
13-04-05 LEBL 050530Z 33008KT 9999 SCT020 SCT055 11/07 Q1003 NOSIG
13-04-05 LEBL 050600Z 33010KT 9999 SCT020 SCT055 10/06 Q1003 NOSIG
13-04-05 LEBL 050630Z 33011KT 300V360 9999 SCT020 10/06 Q1003 NOSIG
13-04-05 LEBL 050700Z 32011KT 9999 SCT020 SCT031 11/06 Q1004 NOSIG
13-04-05 LEBL 050730Z 32010G20KT 260V350 9999 SCT023 SCT031 11/06 Q1004 NOSIG
13-04-05 LEBL 050800Z 32013KT 290V350 9999 SCT023 SCT031 11/05 Q1004 NOSIG
13-04-05 LEBL 050830Z 33012KT 290V360 9999 SCT023 SCT031 11/05 Q1005 NOSIG
13-04-05 LEBL 050900Z 33011KT 300V360 9999 SCT023 BKN031 11/04 Q1005 NOSIG
13-04-05 LEBL 050930Z 33010KT 280V010 9999 SCT023 BKN031 11/05 Q1006 NOSIG
13-04-05 LEBL 051000Z 33007KT 5000 RA BKN023 10/06 Q1006 NOSIG
13-04-05 LEBL 051100Z 34006KT 230V020 7000 -RA FEW012 BKN018 11/07 Q1006 NOSIG
13-04-05 LEBL 051230Z 05004KT 020V080 9999 SCT015 BKN040 13/06 Q1006 NOSIG
13-04-05 LEBL 051300Z 35009KT 300V020 9999 SCT015 BKN052 12/05 Q1006 NOSIG
13-04-05 LEBL 051330Z 33014KT 9999 SCT015 BKN053 11/05 Q1006 NOSIG
13-04-05 LEBL 051400Z 33013KT 300V360 9999 SCT015 BKN053 11/05 Q1006 NOSIG
13-04-05 LEBL 051430Z 33012KT 300V010 9999 SCT015 BKN053 11/05 Q1006 NOSIG
13-04-05 LEBL 051444Z 32011KT 290V350 9999 DZ SCT020 BKN053 11/05 Q1006 NOSIG
13-04-05 LEBL 051530Z 31011KT 9999 SCT020 BKN045 11/05 Q1006 NOSIG
13-04-05 LEBL 051600Z 31008KT 280V340 9999 RA SCT020 BKN045 11/05 Q1007 NOSIG
13-04-05 LEBL 051630Z 32008KT 290V350 9999 RA SCT020 BKN045 11/05 Q1007 NOSIG
13-04-05 LEBL 051700Z 32006KT 280V360 9999 RA SCT020 BKN040 10/06 Q1007 NOSIG
13-04-05 LEBL 051730Z 30006KT 250V330 9000 RA SCT020 BKN040 10/06 Q1007 NOSIG
13-04-05 LEBL 051800Z 27003KT 250V330 8000 RA SCT020 BKN040 09/06 Q1007 NOSIG
13-04-05 LEBL 051830Z 00000KT 9000 -RA SCT020 BKN040 09/06 Q1007 NOSIG
13-04-05 LEBL 051900Z VRB02KT 8000 -RA SCT020 BKN040 09/07 Q1008 NOSIG
13-04-05 LEBL 051930Z 08008KT 7000 -RA SCT020 BKN040 09/08 Q1008 NOSIG
13-04-05 LEBL 052000Z 08010KT 9000 SCT020 BKN040 09/08 Q1008 NOSIG
13-04-05 LEBL 052030Z 05010KT 9999 FEW015 BKN040 10/07 Q1008 NOSIG
13-04-05 LEBL 052100Z 06009KT 9999 SCT015 SCT050 10/07 Q1008 NOSIG
13-04-05 LEBL 052130Z 06007KT 9999 SCT015 SCT050 10/07 Q1009 NOSIG
13-04-06 LEBL 060100Z 09009KT 030V110 9999 SCT020 BKN035 09/06 Q1009 NOSIG
13-04-06 LEBL 060230Z 10007KT 070V130 9999 FEW017 BKN035 09/06 Q1009 NOSIG
13-04-06 LEBL 060300Z 09005KT 9999 FEW017 BKN035 09/06 Q1009 NOSIG
13-04-06 LEBL 060330Z VRB02KT 9999 FEW016 BKN025 09/06 Q1009 NOSIG
13-04-06 LEBL 060400Z 33004KT 9999 BKN016 09/06 Q1009 NOSIG
13-04-06 LEBL 060430Z 32006KT 9999 FEW015 BKN022 08/03 Q1009 NOSIG
13-04-06 LEBL 060500Z 33006KT 9999 FEW015 BKN022 08/03 Q1009 NOSIG
13-04-06 LEBL 060530Z 33008KT 300V010 9999 FEW015 BKN023 08/03 Q1010 NOSIG
13-04-06 LEBL 060600Z 33008KT 260V010 9999 FEW018 BKN035 07/03 Q1010 NOSIG
13-04-06 LEBL 060630Z 32010KT 9999 FEW018 BKN035 08/02 Q1010 NOSIG
13-04-06 LEBL 060700Z 30011KT 9999 FEW018 SCT035 08/02 Q1010 NOSIG
13-04-06 LEBL 060730Z 31010KT 9999 FEW018 08/03 Q1010 NOSIG
13-04-06 LEBL 060800Z 32014KT 9999 FEW018 08/02 Q1010 NOSIG
13-04-06 LEBL 060830Z 33011KT 260V350 9999 FEW020 09/02 Q1010 NOSIG
13-04-06 LEBL 060900Z 31008KT 270V030 9999 FEW018 10/02 Q1010 NOSIG
13-04-06 LEBL 060930Z 31006KT 260V010 9999 FEW018 10/02 Q1010 NOSIG
13-04-06 LEBL 061000Z 32006KT 270V350 9999 FEW018 11/02 Q1010 NOSIG
13-04-06 LEBL 061030Z 19009KT 160V220 9999 FEW018 SCT040 11/02 Q1010 NOSIG
13-04-06 LEBL 061100Z 18009KT 9999 FEW018 SCT040 11/02 Q1010 NOSIG
13-04-06 LEBL 061130Z 17009KT 140V210 9999 FEW018 11/04 Q1010 NOSIG
13-04-06 LEBL 061200Z 20010KT 160V230 9999 FEW020 12/02 Q1010 NOSIG
13-04-06 LEBL 061230Z 19009KT 160V220 9999 FEW020 12/04 Q1010 NOSIG
13-04-06 LEBL 061300Z 19008KT 160V230 9999 FEW020 12/01 Q1010 NOSIG
13-04-06 LEBL 061330Z 17007KT 130V210 9999 FEW020 12/02 Q1010 NOSIG
13-04-06 LEBL 061400Z 18006KT 150V220 9999 FEW020 FEW025TCU 13/02 Q1010 NOSIG
13-04-06 LEBL 061430Z 17005KT 140V240 9999 FEW020 FEW025CB 12/02 Q1010 NOSIG
13-04-06 LEBL 061500Z 16006KT 120V190 9999 FEW020 FEW025TCU 12/02 Q1010 NOSIG
13-04-06 LEBL 061530Z 23004KT 200V290 9999 FEW020 FEW025TCU 12/03 Q1011 NOSIG
13-04-06 LEBL 061600Z 27007KT 200V310 9999 FEW020 FEW025TCU 12/03 Q1011 NOSIG
13-04-06 LEBL 061630Z 23006KT 9999 FEW020 13/02 Q1011 NOSIG
13-04-06 LEBL 061700Z 20006KT 170V230 9999 FEW020 13/02 Q1011 NOSIG
13-04-06 LEBL 061730Z 20005KT 9999 FEW020 13/03 Q1011 NOSIG
13-04-06 LEBL 061800Z 20005KT 160V220 9999 FEW020 12/02 Q1012 NOSIG
13-04-06 LEBL 061830Z 21005KT 9999 FEW020 12/04 Q1012 NOSIG
13-04-06 LEBL 061900Z 23006KT 9999 FEW020 12/03 Q1013 NOSIG
13-04-06 LEBL 061930Z 22004KT 9999 FEW020 12/04 Q1013 NOSIG
13-04-06 LEBL 062000Z 24006KT 9999 FEW020 12/04 Q1013 NOSIG
13-04-06 LEBL 062030Z 24004KT 230V290 9999 FEW020 11/05 Q1014 NOSIG
13-04-06 LEBL 062100Z 21003KT 190V270 9999 FEW020 11/05 Q1014 NOSIG
13-04-06 LEBL 062130Z VRB02KT 9999 FEW020 11/05 Q1014 NOSIG
13-04-06 LEBL 062200Z 20002KT 9999 FEW020 11/06 Q1014 NOSIG
13-04-06 LEBL 062230Z VRB01KT 9999 FEW020 12/05 Q1014 NOSIG
13-04-06 LEBL 062300Z 30002KT 9999 FEW020 11/05 Q1014 NOSIG
13-04-06 LEBL 062330Z 34004KT 9999 FEW020 11/05 Q1014 NOSIG
13-04-07 LEBL 070000Z 33006KT 9999 FEW020 10/05 Q1015 NOSIG
13-04-07 LEBL 070030Z 33008KT 9999 FEW020 10/05 Q1015 NOSIG
13-04-07 LEBL 070100Z 32009KT 9999 FEW020 09/05 Q1015 NOSIG
13-04-07 LEBL 070130Z 32006KT 9999 FEW020 09/04 Q1014 NOSIG
13-04-07 LEBL 070200Z 33009KT 9999 FEW020 09/03 Q1014 NOSIG
13-04-07 LEBL 070230Z 31011KT 9999 FEW020 10/00 Q1014 NOSIG
13-04-07 LEBL 070300Z 31009KT 280V340 9999 FEW020 10/01 Q1015 NOSIG
13-04-07 LEBL 070330Z 31013KT 9999 FEW020 09/00 Q1014 NOSIG
13-04-07 LEBL 070400Z 31010KT 280V340 9999 FEW015 09/00 Q1014 NOSIG
13-04-07 LEBL 070430Z 30009KT 260V340 9999 FEW015 09/00 Q1015 NOSIG
13-04-07 LEBL 070500Z 31014KT 9999 FEW015 09/00 Q1014 NOSIG
13-04-07 LEBL 070530Z 30012G25KT 9999 FEW015 09/00 Q1015 NOSIG
13-04-07 LEBL 070600Z 30009KT 260V340 9999 FEW020 09/00 Q1015 NOSIG
13-04-07 LEBL 070630Z 32015KT 290V350 9999 FEW020 09/01 Q1015 NOSIG
13-04-07 LEBL 070700Z 33013KT 300V010 9999 FEW020 09/01 Q1015 NOSIG
13-04-07 LEBL 070730Z 34014G27KT 290V030 9999 FEW025 09/01 Q1015 NOSIG
13-04-07 LEBL 070800Z 34011G21KT 310V030 CAVOK 11/02 Q1016 NOSIG
13-04-07 LEBL 070830Z 34011KT 300V010 CAVOK 11/01 Q1016 NOSIG
13-04-07 LEBL 070900Z 35010KT 310V030 CAVOK 12/02 Q1016 NOSIG
13-04-07 LEBL 070930Z 34008KT 240V040 CAVOK 13/03 Q1016 NOSIG
13-04-07 LEBL 071000Z 30003KT CAVOK 13/03 Q1016 NOSIG
13-04-07 LEBL 071030Z 21007KT CAVOK 13/03 Q1016 NOSIG
13-04-07 LEBL 071100Z 19008KT 160V220 CAVOK 13/03 Q1016 NOSIG
13-04-07 LEBL 071130Z 18008KT 150V210 CAVOK 14/03 Q1015 NOSIG
13-04-07 LEBL 071200Z 18010KT 9999 FEW030 14/04 Q1015 NOSIG
13-04-07 LEBL 071230Z 20013KT 9999 FEW030 14/04 Q1014 NOSIG
13-04-07 LEBL 071300Z 20011KT 170V230 CAVOK 14/04 Q1014 NOSIG
13-04-07 LEBL 071330Z 21013KT CAVOK 14/06 Q1014 NOSIG
13-04-07 LEBL 071400Z 22015KT CAVOK 14/05 Q1013 NOSIG
13-04-07 LEBL 071430Z 22017KT CAVOK 15/07 Q1013 NOSIG
13-04-07 LEBL 071500Z 22018KT 9999 FEW030 15/07 Q1013 NOSIG
13-04-07 LEBL 071530Z 22020KT 9999 FEW030 14/08 Q1013 NOSIG
13-04-07 LEBL 071600Z 22021KT 9999 FEW030 14/06 Q1013 NOSIG
13-04-07 LEBL 071630Z 23023KT 9999 FEW030 14/07 Q1013 NOSIG
13-04-07 LEBL 071700Z 23023KT 9999 FEW030 14/07 Q1012 NOSIG
13-04-07 LEBL 071730Z 23021KT 9999 FEW030 13/07 Q1012 NOSIG
13-04-07 LEBL 071800Z 23019KT 9999 FEW030 13/07 Q1012 NOSIG
13-04-07 LEBL 071830Z 24016KT 9999 FEW030 13/07 Q1012 NOSIG
13-04-07 LEBL 071900Z 25017KT 9999 FEW030 13/07 Q1012 NOSIG
13-04-07 LEBL 071930Z 24015KT 9999 FEW030 13/07 Q1012 NOSIG
13-04-07 LEBL 072000Z 23015KT 9999 FEW030 13/08 Q1012 NOSIG
13-04-07 LEBL 072030Z 24016KT 9999 FEW030 13/08 Q1012 NOSIG
13-04-07 LEBL 072100Z 23015KT 9999 FEW028 13/09 Q1012 NOSIG
13-04-07 LEBL 072130Z 24012KT 9999 FEW028 13/08 Q1012 NOSIG
13-04-07 LEBL 072200Z 23014KT 9999 FEW028 13/09 Q1012 NOSIG
13-04-07 LEBL 072230Z 24014KT 9999 FEW025 13/09 Q1012 NOSIG
13-04-07 LEBL 072300Z 24014KT 9999 FEW025 13/09 Q1012 NOSIG
13-04-07 LEBL 072330Z 24012KT 9999 FEW025 12/09 Q1011 NOSIG
13-04-08 LEBL 080000Z 25010KT 9999 FEW025 12/09 Q1011 NOSIG
13-04-08 LEBL 080030Z 24010KT 9999 FEW025 12/09 Q1011 NOSIG
13-04-08 LEBL 080100Z 24009KT 9999 FEW025 12/09 Q1011 NOSIG
13-04-08 LEBL 080130Z 24011KT 9999 FEW025 12/10 Q1010 NOSIG
13-04-08 LEBL 080200Z 26009KT 9999 FEW025 12/09 Q1010 NOSIG
13-04-08 LEBL 080230Z 28007KT 9999 FEW025 11/08 Q1010 NOSIG
13-04-08 LEBL 080300Z 28006KT 230V300 9999 FEW025 11/07 Q1010 NOSIG
13-04-08 LEBL 080330Z 26006KT 9999 FEW025 12/08 Q1009 NOSIG
13-04-08 LEBL 080400Z 22005KT 9999 FEW025 12/08 Q1009 NOSIG
13-04-08 LEBL 080430Z VRB01KT 9999 FEW025 11/06 Q1009 NOSIG
13-04-08 LEBL 080500Z 31004KT 9999 FEW025 11/06 Q1009 NOSIG
13-04-08 LEBL 080530Z 33002KT 9999 FEW025 11/06 Q1009 NOSIG
13-04-08 LEBL 080600Z 35004KT 280V020 9999 FEW025 11/06 Q1009 NOSIG
13-04-08 LEBL 080630Z 32002KT 9999 FEW025 12/07 Q1009 NOSIG
13-04-08 LEBL 080700Z 36004KT 270V080 9999 FEW025 13/06 Q1009 NOSIG
13-04-08 LEBL 080730Z 30007KT 230V350 9999 FEW025 15/05 Q1009 NOSIG
13-04-08 LEBL 080800Z 24008KT 9999 FEW025 15/05 Q1009 NOSIG
13-04-08 LEBL 080830Z 25011KT 220V280 9999 FEW025 15/05 Q1009 NOSIG
13-04-08 LEBL 080900Z 24011KT 9999 FEW025 16/06 Q1009 NOSIG
13-04-08 LEBL 080930Z 22013KT 9999 FEW025 16/05 Q1009 NOSIG
13-04-08 LEBL 081000Z 23015KT 9999 FEW025 16/06 Q1009 NOSIG
13-04-08 LEBL 081030Z 22014KT 9999 FEW025 15/08 Q1009 NOSIG
13-04-08 LEBL 081100Z 22015KT 9999 FEW025 16/08 Q1009 NOSIG
13-04-08 LEBL 081130Z 22016KT 9999 FEW025 17/09 Q1009 NOSIG
13-04-08 LEBL 081200Z 21017KT 9999 FEW025 17/08 Q1008 NOSIG
13-04-08 LEBL 081230Z 21017KT 9999 FEW025 18/07 Q1008 NOSIG
13-04-08 LEBL 081300Z 20016KT 9999 FEW025 18/08 Q1008 NOSIG
13-04-08 LEBL 081330Z 26010KT 230V310 9999 FEW025 19/02 Q1007 NOSIG
13-04-08 LEBL 081400Z 23015G26KT 200V260 9999 FEW025 18/08 Q1008 NOSIG
13-04-08 LEBL 081430Z 22018KT 9999 FEW025 17/07 Q1007 NOSIG
13-04-08 LEBL 081500Z 22019KT 9999 FEW025 18/07 Q1007 NOSIG
13-04-08 LEBL 081530Z 23019KT 9999 FEW025 18/07 Q1008 NOSIG
13-04-08 LEBL 081600Z 23016KT 9999 FEW025 18/06 Q1008 NOSIG
13-04-08 LEBL 081630Z 23014KT 9999 FEW025 18/08 Q1008 NOSIG
13-04-08 LEBL 081700Z 23011KT 9999 FEW025 17/07 Q1008 NOSIG
13-04-08 LEBL 081730Z 23007KT 190V260 9999 FEW025 18/06 Q1008 NOSIG
13-04-08 LEBL 081800Z 05012KT 9999 FEW025 14/09 Q1009 NOSIG
13-04-08 LEBL 081830Z 06011KT 9999 FEW025 14/09 Q1009 NOSIG
13-04-08 LEBL 081900Z 07008KT 9999 FEW025 14/09 Q1010 NOSIG
13-04-08 LEBL 081930Z 07010KT 9999 FEW025 13/09 Q1010 NOSIG
13-04-08 LEBL 082000Z 06009KT 9999 FEW025 13/09 Q1010 NOSIG
13-04-08 LEBL 082030Z 06004KT 030V110 9999 FEW025 13/09 Q1011 NOSIG
13-04-08 LEBL 082100Z 05008KT 9999 FEW025 13/09 Q1011 NOSIG
13-04-08 LEBL 082130Z 05006KT 9999 FEW025 13/09 Q1011 NOSIG
13-04-08 LEBL 082200Z 05005KT 9999 FEW025 13/09 Q1011 NOSIG
13-04-08 LEBL 082230Z 05003KT 9999 FEW025 12/09 Q1011 NOSIG
13-04-08 LEBL 082300Z 01004KT 300V090 9999 FEW025 12/08 Q1011 NOSIG
13-04-08 LEBL 082330Z 30004KT 9999 FEW025 11/08 Q1011 NOSIG
13-04-09 LEBL 090000Z VRB02KT 9999 FEW025 11/08 Q1010 NOSIG
13-04-09 LEBL 090030Z 31003KT 9999 FEW025 10/07 Q1010 NOSIG
13-04-09 LEBL 090100Z 33005KT 9999 FEW025 10/07 Q1010 NOSIG
13-04-09 LEBL 090130Z 31005KT 9999 FEW025 10/07 Q1010 NOSIG
13-04-09 LEBL 090200Z 32006KT 9999 FEW025 09/07 Q1009 NOSIG
13-04-09 LEBL 090230Z 31007KT 9999 FEW025 09/07 Q1009 NOSIG
13-04-09 LEBL 090300Z 32004KT 9999 FEW025 09/06 Q1009 NOSIG
13-04-09 LEBL 090330Z 29002KT 9999 FEW025 10/07 Q1009 NOSIG
13-04-09 LEBL 090400Z VRB02KT 9999 FEW025 10/08 Q1009 NOSIG
13-04-09 LEBL 090430Z 03003KT 9999 FEW025 09/07 Q1009 NOSIG
13-04-09 LEBL 090500Z 35003KT 9999 FEW025 09/08 Q1009 NOSIG
13-04-09 LEBL 090530Z VRB01KT 9000 FEW025 10/08 Q1009 NOSIG
13-04-09 LEBL 090600Z VRB02KT 9999 FEW025 09/06 Q1009 NOSIG
13-04-09 LEBL 090630Z 35002KT 9999 FEW025 14/05 Q1009 NOSIG
13-04-09 LEBL 090700Z 15001KT 9999 FEW025 15/05 Q1009 NOSIG
13-04-09 LEBL 090730Z 28011KT 240V300 9999 FEW025 16/05 Q1009 NOSIG
13-04-09 LEBL 090800Z 26012KT 240V300 9999 FEW025 17/05 Q1009 NOSIG
13-04-09 LEBL 090830Z 25013KT 9999 FEW025 17/05 Q1009 NOSIG
13-04-09 LEBL 090900Z 26015G26KT 220V290 9999 FEW025 18/04 Q1009 NOSIG
13-04-09 LEBL 090930Z 22015KT 9999 FEW025 18/05 Q1009 NOSIG
13-04-09 LEBL 091000Z 23017KT 9999 FEW025 18/06 Q1009 NOSIG
13-04-09 LEBL 091030Z 23018KT 9999 FEW020 18/04 Q1009 NOSIG
13-04-09 LEBL 091100Z 23018KT 9999 FEW020 18/04 Q1009 NOSIG
13-04-09 LEBL 091130Z 22021KT 9999 FEW020 18/07 Q1009 NOSIG
13-04-09 LEBL 091200Z 22022KT 9999 FEW020 20/04 Q1008 NOSIG
13-04-09 LEBL 091230Z 22022KT 9999 FEW020 18/08 Q1008 NOSIG
13-04-09 LEBL 091300Z 21017KT 9999 FEW020 19/09 Q1008 NOSIG
13-04-09 LEBL 091330Z 22020KT 9999 FEW020 18/08 Q1009 NOSIG
13-04-09 LEBL 091400Z 22020KT 9999 FEW020 17/09 Q1009 NOSIG
13-04-09 LEBL 091430Z 22020KT 9999 FEW020 18/09 Q1009 NOSIG
13-04-09 LEBL 091500Z 23021KT 9999 FEW020 18/08 Q1009 NOSIG
13-04-09 LEBL 091530Z 23022KT 9999 FEW020 17/09 Q1009 NOSIG
13-04-09 LEBL 091600Z 23020KT 9999 FEW020 17/10 Q1009 NOSIG
13-04-09 LEBL 091630Z 24021KT 9999 FEW020 17/10 Q1009 NOSIG
13-04-09 LEBL 091700Z 24019KT 9999 FEW020 17/09 Q1009 NOSIG
13-04-09 LEBL 091730Z 24015KT 9999 FEW020 17/09 Q1010 NOSIG
13-04-09 LEBL 091800Z 24015KT 9999 FEW020 17/08 Q1010 NOSIG
13-04-09 LEBL 091830Z 25009KT 9999 FEW020 17/09 Q1010 NOSIG
13-04-09 LEBL 091900Z 26008KT 9999 FEW025 16/10 Q1011 NOSIG
13-04-09 LEBL 091930Z 08009KT 9999 FEW025 16/09 Q1012 NOSIG
13-04-09 LEBL 092000Z 05013KT 9999 FEW025 15/10 Q1012 NOSIG
13-04-09 LEBL 092030Z 04015KT 010V090 9999 FEW025 15/10 Q1013 NOSIG
13-04-09 LEBL 092100Z 04015KT 9999 FEW025 15/10 Q1013 NOSIG
13-04-09 LEBL 092130Z 06015KT 020V080 9999 FEW025 14/10 Q1014 NOSIG
13-04-09 LEBL 092200Z 05011KT 9999 FEW025 14/11 Q1014 NOSIG
13-04-09 LEBL 092230Z 05010KT 9999 FEW025 14/11 Q1014 NOSIG
13-04-09 LEBL 092300Z 05009KT 9999 FEW025 14/10 Q1015 NOSIG
13-04-09 LEBL 092330Z 04008KT 9999 FEW025 14/10 Q1015 NOSIG
13-04-10 LEBL 100000Z 05006KT 9999 FEW025 14/10 Q1015 NOSIG
13-04-10 LEBL 100030Z 03005KT 9999 FEW025 14/10 Q1015 NOSIG
13-04-10 LEBL 100100Z 03004KT 9999 FEW020 14/10 Q1015 NOSIG
13-04-10 LEBL 100130Z 04004KT 9999 FEW020 14/10 Q1015 NOSIG
13-04-10 LEBL 100200Z 03004KT 350V060 9999 FEW020 14/10 Q1015 NOSIG
13-04-10 LEBL 100230Z 03005KT 9999 FEW025 14/09 Q1015 NOSIG
13-04-10 LEBL 100300Z 02004KT 9999 FEW025 14/09 Q1015 NOSIG
13-04-10 LEBL 100330Z 01004KT 350V050 9999 FEW025 14/09 Q1015 NOSIG
13-04-10 LEBL 100400Z 35004KT 9999 FEW025 14/09 Q1015 NOSIG
13-04-10 LEBL 100430Z 33004KT 9999 FEW025 13/09 Q1015 NOSIG
13-04-10 LEBL 100500Z 33004KT 9999 FEW025 13/09 Q1015 NOSIG
13-04-10 LEBL 100530Z 32005KT 9999 FEW025 13/09 Q1015 NOSIG
13-04-10 LEBL 100600Z 33005KT 280V010 9999 FEW030 13/09 Q1016 NOSIG
13-04-10 LEBL 100630Z 33007KT 9999 FEW030 13/09 Q1016 NOSIG
13-04-10 LEBL 100700Z 33006KT 260V350 9999 FEW030 14/09 Q1016 NOSIG
13-04-10 LEBL 100730Z 33006KT 210V010 9999 FEW030 14/09 Q1016 NOSIG
13-04-10 LEBL 100800Z 32004KT 230V020 9999 FEW030 15/09 Q1016 NOSIG
13-04-10 LEBL 100830Z VRB02KT 9999 FEW030 16/09 Q1016 NOSIG
13-04-10 LEBL 100900Z 22003KT 150V310 9999 FEW030 17/09 Q1016 NOSIG
13-04-10 LEBL 100930Z 19003KT 9999 FEW030 16/09 Q1017 NOSIG
13-04-10 LEBL 101000Z 14005KT 090V170 9999 FEW030 16/09 Q1016 NOSIG
13-04-10 LEBL 101030Z 14006KT 110V170 9999 FEW030 17/09 Q1016 NOSIG
13-04-10 LEBL 101100Z 14007KT 110V190 9999 FEW030 16/09 Q1016 NOSIG
13-04-10 LEBL 101130Z 19006KT 110V260 9999 FEW030 17/10 Q1016 NOSIG
13-04-10 LEBL 101200Z 17006KT 120V210 9999 FEW030 16/10 Q1015 NOSIG
13-04-10 LEBL 101230Z 16007KT 110V200 9999 FEW030 SCT055 16/12 Q1015 NOSIG
13-04-10 LEBL 101300Z 21009KT 170V240 9999 FEW030 SCT055 16/13 Q1015 NOSIG
13-04-10 LEBL 101330Z 21009KT 170V240 9999 FEW030 SCT055 17/13 Q1015 NOSIG
13-04-10 LEBL 101400Z 22017KT 9999 FEW030 SCT055 19/11 Q1014 NOSIG
13-04-10 LEBL 101430Z 23019KT 9999 FEW030 19/10 Q1014 NOSIG
13-04-10 LEBL 101500Z 23020KT 9999 FEW030 19/09 Q1014 NOSIG
13-04-10 LEBL 101530Z 23020KT 9999 FEW030 19/09 Q1014 NOSIG
13-04-10 LEBL 101600Z 23019KT 9999 FEW030 19/09 Q1014 NOSIG
13-04-10 LEBL 101630Z 22018KT 9999 FEW030 18/10 Q1014 NOSIG
13-04-10 LEBL 101700Z 23017KT 9999 FEW030 18/10 Q1014 NOSIG
13-04-10 LEBL 101730Z 21014KT 9999 FEW030 18/09 Q1014 NOSIG
13-04-10 LEBL 101800Z 20010KT 170V230 CAVOK 18/09 Q1014 NOSIG
13-04-10 LEBL 101830Z 23013KT CAVOK 18/09 Q1014 NOSIG
13-04-10 LEBL 101900Z 21009KT CAVOK 18/08 Q1014 NOSIG
13-04-10 LEBL 101930Z 18006KT CAVOK 18/08 Q1015 NOSIG
13-04-10 LEBL 102000Z 21006KT CAVOK 18/09 Q1015 NOSIG
13-04-10 LEBL 102030Z 22009KT CAVOK 17/10 Q1015 NOSIG
13-04-10 LEBL 102100Z 22014KT CAVOK 16/12 Q1015 NOSIG
13-04-10 LEBL 102130Z 23013KT CAVOK 16/12 Q1015 NOSIG
13-04-10 LEBL 102200Z NIL
13-04-10 LEBL 102230Z NIL
13-04-10 LEBL 102300Z 20010KT CAVOK 16/10 Q1015 NOSIG
13-04-10 LEBL 102330Z 20007KT CAVOK 16/10 Q1015 NOSIG
13-04-11 LEBL 110000Z 27003KT 230V330 CAVOK 16/09 Q1015 NOSIG
13-04-11 LEBL 110030Z 20005KT CAVOK 16/08 Q1014 NOSIG
13-04-11 LEBL 110100Z 23003KT 190V280 CAVOK 16/08 Q1013 NOSIG
13-04-11 LEBL 110130Z 22005KT CAVOK 15/12 Q1013 NOSIG
13-04-11 LEBL 110200Z 23004KT CAVOK 15/12 Q1013 NOSIG
13-04-11 LEBL 110230Z 21006KT CAVOK 15/13 Q1013 NOSIG
13-04-11 LEBL 110300Z 21005KT CAVOK 15/13 Q1013 NOSIG
13-04-11 LEBL 110330Z NIL
13-04-11 LEBL 110330Z 21004KT CAVOK 14/13 Q1012 NOSIG
13-04-11 LEBL 110400Z 22006KT CAVOK 14/13 Q1012 NOSIG
13-04-11 LEBL 110430Z NIL
13-04-11 LEBL 110430Z 22010KT CAVOK 14/13 Q1012 NOSIG
13-04-11 LEBL 110500Z 23005KT 210V290 9999 FEW020 14/13 Q1012 NOSIG
13-04-11 LEBL 110530Z 26004KT 9999 FEW020 14/13 Q1011 NOSIG
13-04-11 LEBL 110600Z 23007KT 9999 FEW020 14/13 Q1012 NOSIG
13-04-11 LEBL 110630Z 25006KT 220V290 9999 FEW020 15/13 Q1012 NOSIG
13-04-11 LEBL 110700Z 24009KT 9999 FEW020 15/13 Q1012 NOSIG
13-04-11 LEBL 110730Z NIL
13-04-11 LEBL 110730Z 25006KT 220V280 9999 FEW020 17/13 Q1012 NOSIG
13-04-11 LEBL 110800Z 24008KT 9999 FEW020 18/11 Q1012 NOSIG
13-04-11 LEBL 110830Z 23014KT 9999 FEW020 20/10 Q1012 NOSIG
13-04-11 LEBL 110900Z 22014KT 9999 FEW020 21/10 Q1012 NOSIG
13-04-11 LEBL 110930Z 20012KT 9999 FEW022 16/11 Q1012 NOSIG
13-04-11 LEBL 111000Z 21013KT 9999 FEW022 18/11 Q1011 NOSIG
13-04-11 LEBL 111030Z 21016KT 9999 FEW020 17/13 Q1011 NOSIG
13-04-11 LEBL 111100Z 21017KT 9999 FEW020 17/14 Q1011 NOSIG
13-04-11 LEBL 111130Z 22017KT 9999 FEW020 18/14 Q1011 NOSIG
13-04-11 LEBL 111200Z 22019KT 9999 FEW020 17/13 Q1010 NOSIG
13-04-11 LEBL 111230Z 22020KT 9999 FEW020 18/13 Q1010 NOSIG
13-04-11 LEBL 111300Z 22017KT 9999 FEW022 19/13 Q1009 NOSIG
13-04-11 LEBL 111330Z 23018KT 9999 FEW022 18/13 Q1009 NOSIG
13-04-11 LEBL 111400Z 22019KT 9999 FEW025 19/13 Q1009 NOSIG
13-04-11 LEBL 111430Z 22019KT 9999 FEW025 18/13 Q1009 NOSIG
13-04-11 LEBL 111500Z 22020KT 9999 FEW025 18/13 Q1008 NOSIG
13-04-11 LEBL 111530Z 21018KT 9999 FEW025 18/13 Q1008 NOSIG
13-04-11 LEBL 111600Z 21018KT 9999 FEW025 17/13 Q1007 NOSIG
13-04-11 LEBL 111630Z 22019KT 9999 FEW030 17/13 Q1008 NOSIG
13-04-11 LEBL 111700Z 21019KT 9999 FEW030 17/13 Q1008 NOSIG
13-04-11 LEBL 111730Z 21014KT 9999 FEW030 16/14 Q1007 NOSIG
13-04-11 LEBL 111800Z 21016KT 9999 FEW030 16/13 Q1007 NOSIG
13-04-11 LEBL 111830Z 21015KT 9999 FEW030 15/13 Q1008 NOSIG
13-04-11 LEBL 111900Z 21014KT 9999 FEW030 16/13 Q1008 NOSIG
13-04-11 LEBL 111930Z 21013KT 9999 FEW030 16/13 Q1008 NOSIG
13-04-11 LEBL 112000Z 24016KT 9999 FEW030 16/13 Q1009 NOSIG
13-04-11 LEBL 112030Z 24015KT 9999 FEW030 16/13 Q1009 NOSIG
13-04-11 LEBL 112100Z 26014KT 240V300 9999 FEW030 16/12 Q1010 NOSIG
13-04-11 LEBL 112130Z 28014KT 250V310 9999 FEW030 21/06 Q1010 NOSIG
13-04-11 LEBL 112200Z 28010KT 250V330 9999 FEW030 20/06 Q1010 NOSIG
13-04-11 LEBL 112230Z 30015KT 230V340 9999 FEW030 20/05 Q1010 NOSIG
13-04-11 LEBL 112300Z 25010KT 220V290 9999 FEW030 20/05 Q1011 NOSIG
13-04-11 LEBL 112330Z 27006KT 200V340 9999 FEW030 19/05 Q1011 NOSIG
13-04-12 LEBL 120000Z 29010KT 9999 FEW030 19/04 Q1012 NOSIG
13-04-12 LEBL 120030Z 29006KT 250V320 9999 FEW030 18/05 Q1012 NOSIG
13-04-12 LEBL 120100Z 13005KT 9999 FEW030 18/04 Q1012 NOSIG
13-04-12 LEBL 120130Z 33005KT 9999 FEW030 16/05 Q1012 NOSIG
13-04-12 LEBL 120200Z 08006KT 9999 FEW025 15/09 Q1012 NOSIG
13-04-12 LEBL 120230Z VRB01KT 9999 FEW025 15/11 Q1012 NOSIG
13-04-12 LEBL 120300Z 02005KT 350V060 8000 FEW013 14/11 Q1012 NOSIG
13-04-12 LEBL 120330Z 08004KT 020V120 7000 FEW012 14/12 Q1013 NOSIG
13-04-12 LEBL 120400Z 11006KT 070V130 6000 FEW010 14/12 Q1013 NOSIG
13-04-12 LEBL 120430Z 09007KT 7000 FEW010 14/12 Q1013 NOSIG
13-04-12 LEBL 120500Z 08003KT 6000 FEW015 13/12 Q1013 NOSIG
13-04-12 LEBL 120530Z 36003KT 7000 FEW015 13/12 Q1013 NOSIG
13-04-12 LEBL 120600Z 30001KT 6000 FEW015 13/11 Q1014 NOSIG
13-04-12 LEBL 120630Z 27003KT 220V010 6000 FEW015 13/12 Q1014 NOSIG
13-04-12 LEBL 120700Z VRB01KT 6000 FEW015 15/13 Q1014 NOSIG
13-04-12 LEBL 120730Z VRB01KT 9999 FEW020 16/11 Q1014 NOSIG
13-04-12 LEBL 120800Z 21004KT 160V240 9999 FEW020 17/09 Q1015 NOSIG
13-04-12 LEBL 120830Z 19007KT 160V230 9999 FEW020 17/09 Q1015 NOSIG
13-04-12 LEBL 120900Z 22013KT 9999 FEW020 18/09 Q1015 NOSIG
13-04-12 LEBL 120930Z 21013KT 9999 FEW020 18/09 Q1015 NOSIG
13-04-12 LEBL 121000Z 22015KT 9999 FEW020 19/07 Q1015 NOSIG
13-04-12 LEBL 121030Z 22015KT 9999 FEW020 20/06 Q1015 NOSIG
13-04-12 LEBL 121100Z 22015KT 9999 FEW020 20/07 Q1014 NOSIG
13-04-12 LEBL 121130Z 22015KT 9999 FEW020 19/07 Q1014 NOSIG
13-04-12 LEBL 121200Z 22015KT 9999 FEW020 21/05 Q1014 NOSIG
13-04-12 LEBL 121230Z 22016KT 9999 FEW020 21/07 Q1014 NOSIG
13-04-12 LEBL 121300Z 22019KT 9999 FEW020 20/06 Q1014 NOSIG
13-04-12 LEBL 121330Z 23019KT CAVOK 21/05 Q1014 NOSIG
13-04-12 LEBL 121400Z 24019KT CAVOK 21/04 Q1014 NOSIG
13-04-12 LEBL 121430Z 22020KT CAVOK 20/07 Q1013 NOSIG
13-04-12 LEBL 121500Z 22021KT CAVOK 19/09 Q1013 NOSIG
13-04-12 LEBL 121530Z 22022KT CAVOK 19/09 Q1014 NOSIG
13-04-12 LEBL 121600Z 23023KT CAVOK 19/08 Q1014 NOSIG
13-04-12 LEBL 121630Z 24023KT CAVOK 19/08 Q1014 NOSIG
13-04-12 LEBL 121700Z 24024KT 9999 FEW025 18/08 Q1014 NOSIG
13-04-12 LEBL 121730Z 24022KT 9999 FEW025 18/08 Q1015 NOSIG
13-04-12 LEBL 121800Z 24018KT CAVOK 18/08 Q1015 NOSIG
13-04-12 LEBL 121830Z 24016KT CAVOK 17/08 Q1015 NOSIG
13-04-12 LEBL 121900Z 25011KT CAVOK 17/08 Q1015 NOSIG
13-04-12 LEBL 121930Z 24011KT CAVOK 17/08 Q1016 NOSIG
13-04-12 LEBL 122000Z 23010KT CAVOK 17/08 Q1016 NOSIG
13-04-12 LEBL 122030Z 23011KT CAVOK 17/08 Q1017 NOSIG
13-04-12 LEBL 122100Z 23009KT CAVOK 16/08 Q1017 NOSIG
13-04-12 LEBL 122130Z 24008KT CAVOK 16/08 Q1017 NOSIG
13-04-12 LEBL 122200Z 26005KT 230V350 CAVOK 16/08 Q1017 NOSIG
13-04-12 LEBL 122230Z 25003KT 220V290 CAVOK 17/07 Q1018 NOSIG
13-04-12 LEBL 122300Z 33005KT 290V350 CAVOK 17/06 Q1018 NOSIG
13-04-12 LEBL 122330Z 06005KT CAVOK 16/07 Q1018 NOSIG
13-04-13 LEBL 130000Z 03005KT CAVOK 15/07 Q1018 NOSIG
13-04-13 LEBL 130030Z 33003KT 240V020 CAVOK 15/07 Q1019 NOSIG
13-04-13 LEBL 130100Z 32005KT CAVOK 14/07 Q1019 NOSIG
13-04-13 LEBL 130130Z 34005KT CAVOK 13/07 Q1019 NOSIG
13-04-13 LEBL 130200Z 35006KT CAVOK 14/07 Q1019 NOSIG
13-04-13 LEBL 130230Z 05009KT CAVOK 16/09 Q1019 NOSIG
13-04-13 LEBL 130300Z 05009KT CAVOK 15/10 Q1020 NOSIG
13-04-13 LEBL 130330Z 06008KT CAVOK 15/10 Q1020 NOSIG
13-04-13 LEBL 130400Z 07006KT CAVOK 14/10 Q1020 NOSIG
13-04-13 LEBL 130430Z 05004KT CAVOK 13/09 Q1021 NOSIG
13-04-13 LEBL 130500Z 03004KT CAVOK 12/08 Q1021 NOSIG
13-04-13 LEBL 130530Z 33003KT 260V040 CAVOK 12/08 Q1021 NOSIG
13-04-13 LEBL 130600Z 31004KT 260V340 CAVOK 12/08 Q1021 NOSIG
13-04-13 LEBL 130630Z 33004KT 250V040 CAVOK 13/09 Q1022 NOSIG
13-04-13 LEBL 130700Z 33004KT 280V020 CAVOK 13/09 Q1022 NOSIG
13-04-13 LEBL 130730Z 35003KT 290V100 CAVOK 15/09 Q1022 NOSIG
13-04-13 LEBL 130800Z 05006KT 020V090 CAVOK 16/07 Q1023 NOSIG
13-04-13 LEBL 130830Z 06006KT 010V100 CAVOK 17/08 Q1023 NOSIG
13-04-13 LEBL 130900Z 08006KT 360V130 CAVOK 18/07 Q1023 NOSIG
13-04-13 LEBL 130930Z 07007KT 050V110 CAVOK 18/06 Q1023 NOSIG
13-04-13 LEBL 131000Z 08007KT 040V110 CAVOK 18/06 Q1023 NOSIG
13-04-13 LEBL 131030Z 10007KT 050V140 CAVOK 18/05 Q1023 NOSIG
13-04-13 LEBL 131100Z 10007KT 060V130 CAVOK 19/05 Q1023 NOSIG
13-04-13 LEBL 131130Z 11007KT 080V140 CAVOK 18/04 Q1023 NOSIG
13-04-13 LEBL 131200Z 11007KT 090V150 9999 FEW025 18/06 Q1023 NOSIG
13-04-13 LEBL 131230Z 12008KT 090V160 9999 FEW025 18/06 Q1023 NOSIG
13-04-13 LEBL 131300Z 14007KT 110V170 9999 FEW025 18/07 Q1023 NOSIG
13-04-13 LEBL 131330Z 15007KT 110V190 CAVOK 17/07 Q1023 NOSIG
13-04-13 LEBL 131400Z 16007KT 130V190 CAVOK 17/08 Q1022 NOSIG
13-04-13 LEBL 131430Z 17008KT CAVOK 18/09 Q1022 NOSIG
13-04-13 LEBL 131500Z 18008KT CAVOK 17/10 Q1022 NOSIG
13-04-13 LEBL 131530Z 17008KT CAVOK 17/11 Q1022 NOSIG
13-04-13 LEBL 131600Z 17008KT 140V200 CAVOK 17/11 Q1022 NOSIG
13-04-13 LEBL 131630Z 18007KT 150V210 CAVOK 16/12 Q1022 NOSIG
13-04-13 LEBL 131700Z 18007KT CAVOK 16/12 Q1022 NOSIG
13-04-13 LEBL 131730Z 21008KT CAVOK 16/12 Q1022 NOSIG
13-04-13 LEBL 131800Z 22007KT CAVOK 16/12 Q1022 NOSIG
13-04-13 LEBL 131830Z 20005KT CAVOK 15/13 Q1023 NOSIG
13-04-13 LEBL 131830Z NIL
13-04-13 LEBL 131900Z 20005KT CAVOK 15/13 Q1023 NOSIG
13-04-13 LEBL 131930Z 18003KT CAVOK 15/13 Q1023 NOSIG
13-04-13 LEBL 132000Z 19003KT CAVOK 15/13 Q1024 NOSIG
13-04-13 LEBL 132030Z 23004KT CAVOK 14/13 Q1024 NOSIG
13-04-13 LEBL 132100Z 24003KT 210V280 CAVOK 14/13 Q1024 NOSIG
13-04-13 LEBL 132130Z 00000KT CAVOK 14/13 Q1024 NOSIG
13-04-13 LEBL 132200Z 00000KT CAVOK 14/13 Q1024 NOSIG
13-04-13 LEBL 132230Z 25003KT CAVOK 14/12 Q1024 NOSIG
13-04-13 LEBL 132300Z 29003KT 240V320 CAVOK 14/10 Q1024 NOSIG
13-04-13 LEBL 132330Z 32006KT CAVOK 13/10 Q1024 NOSIG
13-04-14 LEBL 140000Z 33003KT CAVOK 13/09 Q1024 NOSIG
13-04-14 LEBL 140030Z 33005KT CAVOK 13/09 Q1024 NOSIG
13-04-14 LEBL 140100Z 33004KT CAVOK 13/09 Q1024 NOSIG
13-04-14 LEBL 140130Z 33003KT 290V360 CAVOK 12/09 Q1024 NOSIG
13-04-14 LEBL 140200Z 32008KT CAVOK 12/09 Q1024 NOSIG
13-04-14 LEBL 140230Z 32007KT CAVOK 12/09 Q1024 NOSIG
13-04-14 LEBL 140300Z 33008KT CAVOK 12/09 Q1024 NOSIG
13-04-14 LEBL 140330Z 33010KT CAVOK 12/09 Q1023 NOSIG
13-04-14 LEBL 140400Z 33010KT CAVOK 12/09 Q1023 NOSIG
13-04-14 LEBL 140430Z 32009KT CAVOK 12/08 Q1024 NOSIG
13-04-14 LEBL 140500Z 31011KT CAVOK 12/08 Q1024 NOSIG
13-04-14 LEBL 140530Z 31010KT CAVOK 12/08 Q1024 NOSIG
13-04-14 LEBL 140600Z 32009KT 290V350 CAVOK 12/08 Q1024 NOSIG
13-04-14 LEBL NIL
13-04-14 LEBL 140630Z 32012KT 290V360 CAVOK 13/08 Q1024 NOSIG
13-04-14 LEBL 140700Z 32010KT 280V360 CAVOK 13/08 Q1024 NOSIG
13-04-14 LEBL 140730Z 32008KT 290V360 CAVOK 14/09 Q1025 NOSIG
13-04-14 LEBL 140800Z 32007KT CAVOK 16/08 Q1025 NOSIG
13-04-14 LEBL 140830Z 35003KT 250V020 CAVOK 17/08 Q1025 NOSIG
13-04-14 LEBL 140900Z 14005KT 080V190 CAVOK 18/11 Q1025 NOSIG
13-04-14 LEBL 140930Z 14003KT 090V190 CAVOK 18/12 Q1025 NOSIG
13-04-14 LEBL 141000Z 11003KT 060V160 CAVOK 18/11 Q1025 NOSIG
13-04-14 LEBL 141030Z 15005KT 100V200 CAVOK 17/11 Q1025 NOSIG
13-04-14 LEBL 141100Z 16005KT 130V210 CAVOK 18/12 Q1025 NOSIG
13-04-14 LEBL 141130Z 18005KT 130V240 CAVOK 18/09 Q1025 NOSIG
13-04-14 LEBL 141200Z 18004KT 140V210 CAVOK 19/08 Q1025 NOSIG
13-04-14 LEBL 141230Z 17006KT 130V210 CAVOK 19/08 Q1025 NOSIG
13-04-14 LEBL 141300Z 16008KT 130V190 CAVOK 19/09 Q1025 NOSIG
13-04-14 LEBL 141330Z 14007KT 110V170 CAVOK 18/10 Q1025 NOSIG
13-04-14 LEBL 141400Z NIL
13-04-14 LEBL 141430Z 11006KT 070V150 CAVOK 19/12 Q1025 NOSIG
13-04-14 LEBL 141500Z 09006KT 060V130 CAVOK 19/11 Q1025 NOSIG
13-04-14 LEBL 141530Z 10005KT 060V150 CAVOK 19/10 Q1024 NOSIG
13-04-14 LEBL 141600Z 11005KT 060V150 CAVOK 19/09 Q1024 NOSIG
13-04-14 LEBL 141630Z 10005KT 070V140 CAVOK 19/08 Q1024 NOSIG
13-04-14 LEBL 141700Z 11005KT 070V160 CAVOK 18/08 Q1024 NOSIG
13-04-14 LEBL 141730Z 10005KT 060V120 CAVOK 18/09 Q1024 NOSIG
13-04-14 LEBL 141800Z 05004KT 350V120 CAVOK 18/06 Q1024 NOSIG
13-04-14 LEBL 141830Z 08004KT 030V090 CAVOK 18/09 Q1024 NOSIG
13-04-14 LEBL 141900Z 05004KT 360V080 CAVOK 17/09 Q1024 NOSIG
13-04-14 LEBL 141930Z 05005KT 020V080 CAVOK 17/09 Q1024 NOSIG
13-04-14 LEBL 142000Z 05003KT 020V120 CAVOK 17/09 Q1025 NOSIG
13-04-14 LEBL 142030Z 07003KT 020V100 CAVOK 17/08 Q1025 NOSIG
13-04-14 LEBL 142100Z 36003KT 290V040 9999 FEW025 16/08 Q1025 NOSIG
13-04-14 LEBL 142130Z 00000KT 9999 FEW025 16/07 Q1025 NOSIG
13-04-14 LEBL 142200Z VRB01KT 9999 FEW025 16/07 Q1024 NOSIG
13-04-14 LEBL 142230Z 00000KT 9999 FEW025 16/07 Q1024 NOSIG
13-04-14 LEBL 142300Z 35002KT 9999 FEW025 15/07 Q1024 NOSIG
13-04-14 LEBL 142330Z 34003KT 9999 FEW025 15/07 Q1024 NOSIG
13-04-15 LEBL 150000Z 32002KT 9999 FEW025 14/07 Q1024 NOSIG
13-04-15 LEBL 150030Z 34004KT 9999 FEW025 15/06 Q1024 NOSIG
13-04-15 LEBL 150100Z 33005KT 9999 FEW025 14/07 Q1024 NOSIG
13-04-15 LEBL 150130Z 33006KT 9999 FEW025 14/06 Q1024 NOSIG
13-04-15 LEBL 150200Z 33011KT 9999 FEW025 14/06 Q1024 NOSIG
13-04-15 LEBL 150230Z 34010KT 9999 FEW025 14/05 Q1024 NOSIG
13-04-15 LEBL 150300Z 35007KT 9999 FEW025 14/06 Q1024 NOSIG
13-04-15 LEBL 150330Z 35007KT 9999 FEW025 13/05 Q1024 NOSIG
13-04-15 LEBL 150400Z 33007KT 9999 FEW025 13/05 Q1024 NOSIG
13-04-15 LEBL 150430Z 34007KT 310V010 9999 FEW025 13/05 Q1023 NOSIG
13-04-15 LEBL 150500Z 33006KT 9999 FEW025 13/05 Q1023 NOSIG
13-04-15 LEBL 150530Z 33003KT 9999 FEW025 13/05 Q1023 NOSIG
13-04-15 LEBL 150600Z 33007KT 260V040 9999 FEW025 13/05 Q1023 NOSIG
13-04-15 LEBL 150630Z 34008KT 9999 FEW025 13/05 Q1023 NOSIG
13-04-15 LEBL 150700Z 33007KT 300V050 9999 FEW025 15/05 Q1023 NOSIG
13-04-15 LEBL 150730Z 33006KT 290V360 9999 FEW025 16/05 Q1023 NOSIG
13-04-15 LEBL 150800Z 35004KT 290V040 9999 FEW025 17/05 Q1024 NOSIG
13-04-15 LEBL 150830Z 08003KT 010V130 9999 FEW025 18/05 Q1023 NOSIG
13-04-15 LEBL 150900Z 10005KT 060V120 9999 FEW025 19/07 Q1023 NOSIG
13-04-15 LEBL 150930Z 10006KT 9999 FEW025 19/10 Q1023 NOSIG
13-04-15 LEBL 151000Z 12006KT 9999 FEW025 19/12 Q1023 NOSIG
13-04-15 LEBL 151030Z 12006KT 080V150 9999 FEW025 19/10 Q1023 NOSIG
13-04-15 LEBL 151100Z 11006KT 080V140 9999 FEW025 19/11 Q1023 NOSIG
13-04-15 LEBL 151130Z 11007KT 080V150 9999 FEW025 19/11 Q1023 NOSIG
13-04-15 LEBL 151200Z 11007KT 080V160 9999 FEW025 19/12 Q1023 NOSIG
13-04-15 LEBL 151230Z 14006KT 100V170 9999 FEW025 19/12 Q1023 NOSIG
13-04-15 LEBL 151300Z 13006KT 090V190 9999 FEW025 19/12 Q1023 NOSIG
13-04-15 LEBL 151330Z 15006KT 9999 FEW025 19/12 Q1022 NOSIG
13-04-15 LEBL 151400Z 13006KT 100V170 9999 FEW025 18/13 Q1022 NOSIG
13-04-15 LEBL 151430Z 14006KT 9999 FEW025 18/13 Q1022 NOSIG
13-04-15 LEBL 151500Z 15006KT 120V190 9999 FEW025 18/12 Q1021 NOSIG
13-04-15 LEBL 151530Z 15004KT 110V200 9999 FEW025 18/12 Q1021 NOSIG
13-04-15 LEBL 151600Z 16006KT 130V200 9999 FEW025 18/13 Q1021 NOSIG
13-04-15 LEBL 151630Z 16006KT 130V190 9999 FEW025 18/12 Q1021 NOSIG
13-04-15 LEBL 151700Z 17006KT 150V210 9999 FEW025 17/13 Q1020 NOSIG
13-04-15 LEBL 151730Z NIL
13-04-15 LEBL 151800Z 19003KT 150V220 9999 FEW025 17/13 Q1021 NOSIG
13-04-15 LEBL 151830Z 20004KT 9999 FEW025 16/14 Q1021 NOSIG
13-04-15 LEBL 151900Z 22005KT 9999 FEW025 16/14 Q1021 NOSIG
13-04-15 LEBL 151930Z 23005KT 190V260 9999 FEW025 16/14 Q1021 NOSIG
13-04-15 LEBL 152000Z 25006KT 9999 FEW025 16/14 Q1021 NOSIG
13-04-15 LEBL 152030Z 22005KT 9999 FEW025 16/14 Q1021 NOSIG
13-04-15 LEBL 152100Z 22004KT 9999 FEW025 16/13 Q1021 NOSIG
13-04-15 LEBL 152130Z 24007KT 9999 FEW025 15/13 Q1021 NOSIG
13-04-15 LEBL 152200Z 25004KT 230V310 9999 FEW025 15/13 Q1021 NOSIG
13-04-15 LEBL 152230Z 00000KT 9999 FEW025 16/13 Q1021 NOSIG
13-04-15 LEBL 152300Z NIL
13-04-15 LEBL 152330Z 00000KT 9999 FEW025 17/11 Q1021 NOSIG
13-04-16 LEBL 160000Z 00000KT 9999 FEW025 16/11 Q1021 NOSIG
13-04-16 LEBL 160000Z NIL
13-04-16 LEBL 160030Z 20004KT 9999 FEW025 16/10 Q1021 NOSIG
13-04-16 LEBL 160100Z 28003KT 9999 FEW025 16/10 Q1020 NOSIG
13-04-16 LEBL 160130Z 28004KT 9999 FEW025 15/09 Q1021 NOSIG
13-04-16 LEBL 160200Z 30004KT 9999 FEW025 14/08 Q1020 NOSIG
13-04-16 LEBL 160230Z 31007KT 9999 FEW025 14/07 Q1020 NOSIG
13-04-16 LEBL 160300Z 32005KT 9999 FEW025 14/07 Q1020 NOSIG
13-04-16 LEBL 160330Z 33006KT 9999 FEW025 14/07 Q1021 NOSIG
13-04-16 LEBL 160400Z 36005KT 9999 FEW025 14/07 Q1021 NOSIG
13-04-16 LEBL 160430Z 01003KT 340V060 9999 FEW025 14/07 Q1021 NOSIG
13-04-16 LEBL 160500Z 33002KT 9999 FEW025 14/07 Q1021 NOSIG
13-04-16 LEBL 160530Z 32003KT 9999 FEW025 13/07 Q1021 NOSIG
13-04-16 LEBL 160600Z 32005KT 280V010 CAVOK 14/07 Q1022 NOSIG
13-04-16 LEBL 160630Z 35004KT 310V060 CAVOK 14/07 Q1022 NOSIG
13-04-16 LEBL 160700Z 05007KT CAVOK 15/08 Q1022 NOSIG
13-04-16 LEBL 160730Z 04007KT 350V080 CAVOK 17/11 Q1022 NOSIG
13-04-16 LEBL 160800Z 06006KT CAVOK 18/10 Q1022 NOSIG
13-04-16 LEBL 160830Z 09005KT 030V110 CAVOK 18/11 Q1023 NOSIG
13-04-16 LEBL 160900Z 09006KT CAVOK 19/11 Q1023 NOSIG
13-04-16 LEBL 160930Z 09004KT 060V130 CAVOK 20/10 Q1023 NOSIG
13-04-16 LEBL 161000Z 11005KT 080V150 CAVOK 20/11 Q1023 NOSIG
13-04-16 LEBL 161030Z 12006KT 080V150 9999 FEW015 20/10 Q1022 NOSIG
13-04-16 LEBL 161100Z 12006KT 090V170 9999 FEW015 19/11 Q1022 NOSIG
13-04-16 LEBL 161130Z 15005KT 110V170 9999 FEW015 19/12 Q1022 NOSIG
13-04-16 LEBL 161200Z 16005KT 120V210 9999 FEW018 20/12 Q1022 NOSIG
13-04-16 LEBL 161230Z 16005KT 130V190 9999 FEW018 20/12 Q1022 NOSIG
13-04-16 LEBL 161300Z 16006KT 140V220 9999 FEW020 19/13 Q1022 NOSIG
13-04-16 LEBL 161330Z 17005KT 130V220 9999 FEW020 19/12 Q1022 NOSIG
13-04-16 LEBL 161400Z 17004KT 100V230 CAVOK 20/11 Q1022 NOSIG
13-04-16 LEBL 161430Z 16005KT 120V210 CAVOK 19/13 Q1021 NOSIG
13-04-16 LEBL 161500Z 18005KT 150V210 9999 FEW025 19/12 Q1021 NOSIG
13-04-16 LEBL 161530Z 18005KT 140V220 9999 FEW025 19/11 Q1021 NOSIG
13-04-16 LEBL 161600Z 19006KT 160V230 CAVOK 19/12 Q1021 NOSIG
13-04-16 LEBL 161630Z 21007KT CAVOK 19/11 Q1021 NOSIG
13-04-16 LEBL 161700Z 21007KT CAVOK 19/11 Q1021 NOSIG
13-04-16 LEBL 161730Z 21006KT CAVOK 19/10 Q1021 NOSIG
13-04-16 LEBL 161800Z 21007KT CAVOK 19/11 Q1021 NOSIG
13-04-16 LEBL 161830Z 22006KT CAVOK 18/11 Q1021 NOSIG
13-04-16 LEBL 161900Z 22005KT CAVOK 17/13 Q1021 NOSIG
13-04-16 LEBL 161930Z 21004KT CAVOK 17/13 Q1022 NOSIG
13-04-16 LEBL 162000Z VRB02KT CAVOK 17/13 Q1022 NOSIG
13-04-16 LEBL 162030Z VRB01KT CAVOK 16/13 Q1022 NOSIG
13-04-16 LEBL 162100Z 00000KT CAVOK 16/13 Q1022 NOSIG
13-04-16 LEBL 162130Z 25004KT CAVOK 16/13 Q1022 NOSIG
13-04-16 LEBL 162200Z 25004KT CAVOK 16/13 Q1022 NOSIG
13-04-16 LEBL 162230Z 26004KT CAVOK 16/14 Q1022 NOSIG
13-04-16 LEBL 162300Z NIL
13-04-16 LEBL 162300Z 26003KT CAVOK 15/13 Q1022 NOSIG
13-04-16 LEBL 162330Z 28003KT CAVOK 15/13 Q1022 NOSIG
13-04-17 LEBL 170000Z 28003KT CAVOK 16/10 Q1022 NOSIG
13-04-17 LEBL 170030Z 25002KT CAVOK 15/10 Q1022 NOSIG
13-04-17 LEBL 170100Z 28003KT 250V310 9999 FEW025 15/10 Q1022 NOSIG
13-04-17 LEBL 170130Z 28003KT 9999 FEW025 15/09 Q1022 NOSIG
13-04-17 LEBL 170200Z 31005KT 9999 FEW025 15/08 Q1021 NOSIG
13-04-17 LEBL 170230Z 31007KT 9999 FEW025 16/08 Q1021 NOSIG
13-04-17 LEBL 170300Z 31008KT 9999 FEW025 16/08 Q1021 NOSIG
13-04-17 LEBL 170330Z 30007KT 9999 FEW025 13/08 Q1021 NOSIG
13-04-17 LEBL 170400Z 31010KT 9999 FEW025 14/08 Q1022 NOSIG
13-04-17 LEBL 170430Z 32010KT 9999 FEW025 15/08 Q1022 NOSIG
13-04-17 LEBL 170500Z 32008KT 9999 FEW025 15/09 Q1022 NOSIG
13-04-17 LEBL 170530Z 35006KT 9999 FEW025 15/09 Q1022 NOSIG
13-04-17 LEBL 170600Z 35005KT 9999 FEW025 15/09 Q1022 NOSIG
13-04-17 LEBL 170630Z 32006KT 280V020 CAVOK 16/09 Q1022 NOSIG
13-04-17 LEBL 170700Z 33006KT 240V050 CAVOK 16/09 Q1022 NOSIG
13-04-17 LEBL 170730Z 32006KT 270V360 CAVOK 17/10 Q1022 NOSIG
13-04-17 LEBL 170800Z 32007KT 290V360 CAVOK 19/09 Q1022 NOSIG
13-04-17 LEBL 170830Z 32003KT 250V350 CAVOK 20/09 Q1023 NOSIG
13-04-17 LEBL 170900Z VRB01KT CAVOK 22/09 Q1023 NOSIG
13-04-17 LEBL 170930Z 15005KT 110V200 CAVOK 20/09 Q1023 NOSIG
13-04-17 LEBL 171000Z 18005KT 140V220 CAVOK 20/08 Q1023 NOSIG
13-04-17 LEBL 171030Z 18004KT 140V220 CAVOK 21/10 Q1023 NOSIG
13-04-17 LEBL 171100Z 16006KT 130V190 CAVOK 21/09 Q1023 NOSIG
13-04-17 LEBL 171130Z 18006KT CAVOK 21/09 Q1023 NOSIG
13-04-17 LEBL 171200Z 20008KT 170V230 CAVOK 20/09 Q1023 NOSIG
13-04-17 LEBL 171230Z 21009KT CAVOK 20/11 Q1022 NOSIG
13-04-17 LEBL 171300Z 21010KT CAVOK 20/10 Q1022 NOSIG
13-04-17 LEBL 171330Z 21011KT CAVOK 21/07 Q1022 NOSIG
13-04-17 LEBL 171400Z 21010KT CAVOK 21/06 Q1022 NOSIG
13-04-17 LEBL 171430Z 20009KT CAVOK 20/11 Q1021 NOSIG
13-04-17 LEBL 171500Z 21009KT CAVOK 20/11 Q1021 NOSIG
13-04-17 LEBL 171530Z 21009KT CAVOK 20/10 Q1021 NOSIG
13-04-17 LEBL 171600Z 20007KT CAVOK 20/08 Q1021 NOSIG
13-04-17 LEBL 171630Z 21008KT CAVOK 20/08 Q1021 NOSIG
13-04-17 LEBL 171700Z 21009KT CAVOK 20/10 Q1021 NOSIG
13-04-17 LEBL 171730Z 21007KT CAVOK 19/08 Q1021 NOSIG
13-04-17 LEBL 171800Z 21006KT CAVOK 19/10 Q1021 NOSIG
13-04-17 LEBL 171830Z 21007KT CAVOK 18/07 Q1021 NOSIG
13-04-17 LEBL 171900Z 21006KT CAVOK 18/07 Q1021 NOSIG
13-04-17 LEBL 171930Z 21006KT CAVOK 18/07 Q1021 NOSIG
13-04-17 LEBL 172000Z 20006KT CAVOK 18/08 Q1021 NOSIG
13-04-17 LEBL 172030Z 20004KT CAVOK 17/12 Q1021 NOSIG
13-04-17 LEBL 172100Z 19005KT CAVOK 17/13 Q1021 NOSIG
13-04-17 LEBL 172130Z 18005KT CAVOK 17/14 Q1022 NOSIG
13-04-17 LEBL 172200Z 18005KT CAVOK 16/15 Q1022 NOSIG
13-04-17 LEBL 172230Z 18004KT CAVOK 16/15 Q1022 NOSIG
13-04-17 LEBL 172300Z 23003KT 8000 NSC 15/14 Q1022 NOSIG
13-04-17 LEBL 172330Z 25003KT 220V280 8000 NSC 15/13 Q1022 NOSIG
13-04-18 LEBL 180000Z 28004KT CAVOK 15/08 Q1022 NOSIG
13-04-18 LEBL 180030Z 29002KT 9999 FEW003 14/07 Q1022 NOSIG
13-04-18 LEBL 180100Z 32004KT 9999 FEW002 14/08 Q1021 NOSIG
13-04-18 LEBL 180130Z 29005KT 9999 FEW002 14/07 Q1021 NOSIG
13-04-18 LEBL 180200Z 30005KT 9999 FEW002 14/07 Q1021 NOSIG
13-04-18 LEBL 180230Z 32006KT 9999 FEW003 14/06 Q1021 NOSIG
13-04-18 LEBL 180300Z 30004KT CAVOK 13/06 Q1021 NOSIG
13-04-18 LEBL 180330Z 31007KT CAVOK 14/06 Q1021 NOSIG
13-04-18 LEBL 180400Z 31006KT CAVOK 13/06 Q1021 NOSIG
13-04-18 LEBL 180430Z 31006KT CAVOK 14/05 Q1021 NOSIG
13-04-18 LEBL 180500Z 29007KT CAVOK 14/05 Q1021 NOSIG
13-04-18 LEBL 180530Z 31009KT CAVOK 13/05 Q1021 NOSIG
13-04-18 LEBL 180600Z 32007KT 280V350 CAVOK 13/05 Q1021 NOSIG
13-04-18 LEBL 180630Z 33007KT 310V030 CAVOK 14/05 Q1021 NOSIG
13-04-18 LEBL 180700Z 33006KT CAVOK 14/05 Q1022 NOSIG
13-04-18 LEBL 180730Z 35003KT 250V040 CAVOK 16/06 Q1022 NOSIG
13-04-18 LEBL 180800Z 05009KT CAVOK 17/07 Q1022 NOSIG
13-04-18 LEBL 180830Z 06009KT 030V100 CAVOK 18/12 Q1022 NOSIG
13-04-18 LEBL 180900Z 07010KT 040V100 CAVOK 18/13 Q1022 NOSIG
13-04-18 LEBL 180930Z 06012KT CAVOK 18/13 Q1022 NOSIG
13-04-18 LEBL 181000Z 06011KT 040V110 CAVOK 18/12 Q1022 NOSIG
13-04-18 LEBL 181030Z 07011KT CAVOK 19/12 Q1022 NOSIG
13-04-18 LEBL 181100Z 07010KT CAVOK 19/12 Q1022 NOSIG
13-04-18 LEBL 181130Z 09010KT 060V120 9999 FEW008 18/12 Q1022 TEMPO BKN002
13-04-18 LEBL 181200Z 09010KT 060V120 5000 HZ FEW002 BKN004 17/13 Q1022 TEMPO BKN002
13-04-18 LEBL 181230Z 10008KT 060V140 9999 FEW004 17/13 Q1022 NOSIG
13-04-18 LEBL 181300Z 09008KT 060V130 9999 FEW008 18/14 Q1022 NOSIG
13-04-18 LEBL 181330Z 08008KT 050V120 9999 FEW008 18/13 Q1021 NOSIG
13-04-18 LEBL 181400Z 11007KT 060V160 9999 FEW010 18/13 Q1021 NOSIG
13-04-18 LEBL 181430Z 11007KT 060V130 9999 FEW012 19/13 Q1021 NOSIG
13-04-18 LEBL 181500Z 10006KT 040V140 9999 FEW012 18/13 Q1021 NOSIG
13-04-18 LEBL 181530Z 13007KT 100V160 9999 FEW015 18/14 Q1020 NOSIG
13-04-18 LEBL 181600Z 10006KT 070V150 9999 FEW015 18/14 Q1020 NOSIG
13-04-18 LEBL 181630Z 10006KT 070V150 9999 FEW015 18/14 Q1020 NOSIG
13-04-18 LEBL 181700Z 09005KT 040V130 9999 FEW010 17/14 Q1020 NOSIG
13-04-18 LEBL 181730Z 09005KT 060V120 9999 FEW010 17/13 Q1020 NOSIG
13-04-18 LEBL 181800Z 10003KT 9999 FEW010 17/13 Q1020 NOSIG
13-04-18 LEBL 181830Z 10003KT 070V130 9999 FEW010 17/13 Q1020 NOSIG
13-04-18 LEBL 181900Z 02003KT 300V060 9999 FEW015 16/14 Q1021 NOSIG
13-04-18 LEBL 181930Z VRB02KT 9999 FEW015 16/13 Q1021 NOSIG
13-04-18 LEBL 182000Z VRB02KT 9999 FEW015 16/14 Q1021 NOSIG
13-04-18 LEBL 182030Z 00000KT 9999 FEW015 16/13 Q1021 NOSIG
13-04-18 LEBL 182100Z 00000KT 9999 FEW015 16/13 Q1021 NOSIG
13-04-18 LEBL 182130Z 00000KT 9000 FEW015 16/12 Q1021 NOSIG
13-04-18 LEBL 182200Z 00000KT 9000 FEW015 15/12 Q1021 NOSIG
13-04-18 LEBL 182230Z 00000KT 9000 FEW015 15/12 Q1021 NOSIG
13-04-18 LEBL 182300Z 32004KT 9000 FEW015 15/11 Q1021 NOSIG
13-04-18 LEBL 182330Z 32005KT 9000 FEW015 14/11 Q1021 NOSIG
13-04-19 LEBL 190000Z 33005KT 9000 FEW015 14/11 Q1021 NOSIG
13-04-19 LEBL 190030Z 34006KT 9000 FEW015 14/11 Q1021 NOSIG
13-04-19 LEBL 190100Z 32006KT 9000 FEW015 14/11 Q1020 NOSIG
13-04-19 LEBL 190130Z 33005KT 9000 FEW015 14/11 Q1020 NOSIG
13-04-19 LEBL 190200Z 33006KT 9000 FEW015 14/11 Q1020 NOSIG
13-04-19 LEBL 190230Z 33006KT 9000 FEW015 14/11 Q1020 NOSIG
13-04-19 LEBL 190300Z 33006KT 9000 FEW015 14/10 Q1020 NOSIG
13-04-19 LEBL 190330Z 33005KT 8000 FEW015 14/10 Q1019 NOSIG
13-04-19 LEBL 190400Z 33006KT 7000 FEW015 14/10 Q1019 NOSIG
13-04-19 LEBL 190430Z 32007KT 7000 FEW015 14/10 Q1019 NOSIG
13-04-19 LEBL 190500Z 33007KT 7000 FEW015 14/10 Q1019 NOSIG
13-04-19 LEBL 190530Z 33008KT 7000 FEW015 13/10 Q1020 NOSIG
13-04-19 LEBL 190600Z 32007KT 300V360 7000 FEW015 13/10 Q1020 NOSIG
13-04-19 LEBL 190630Z 32009KT 7000 FEW015 14/10 Q1020 NOSIG
13-04-19 LEBL 190700Z 31008KT 9000 SCT020 15/10 Q1020 NOSIG
13-04-19 LEBL 190730Z 32007G18KT 260V350 9000 SCT020 15/10 Q1020 NOSIG
13-04-19 LEBL 190800Z 32008KT 280V020 9999 FEW020 SCT055 17/10 Q1020 NOSIG
13-04-19 LEBL 190830Z 32009KT 280V350 9999 FEW020 SCT055 18/10 Q1020 NOSIG
13-04-19 LEBL 190900Z 29004KT 220V350 9999 FEW020TCU SCT055 18/10 Q1020 NOSIG
13-04-19 LEBL 190930Z 25004KT 200V310 9999 FEW020TCU SCT055 18/11 Q1020 NOSIG
13-04-19 LEBL 191000Z 22006KT 170V260 9999 FEW020TCU SCT055 19/10 Q1020 NOSIG
13-04-19 LEBL 191030Z 19007KT 9999 FEW020TCU 19/11 Q1020 NOSIG
13-04-19 LEBL 191100Z 20009KT 9999 FEW020TCU 20/10 Q1020 NOSIG
13-04-19 LEBL 191130Z 19009KT 9999 FEW020TCU 19/11 Q1020 NOSIG
13-04-19 LEBL 191200Z 20009KT 9999 FEW020TCU 18/12 Q1020 NOSIG
13-04-19 LEBL 191230Z 20009KT 9999 FEW020TCU 19/11 Q1020 NOSIG
13-04-19 LEBL 191300Z 19009KT 9999 FEW020TCU 19/11 Q1020 NOSIG
13-04-19 LEBL 191330Z 19011KT 9999 FEW020TCU 19/12 Q1019 NOSIG
13-04-19 LEBL 191400Z 20011KT 170V230 9999 FEW020TCU 19/14 Q1020 NOSIG
13-04-19 LEBL 191430Z 23010KT 200V260 9999 FEW020TCU BKN050 19/11 Q1020 NOSIG
13-04-19 LEBL 191500Z 34010KT 290V060 9999 FEW020 BKN045 18/06 Q1020 NOSIG
13-04-19 LEBL 191530Z 32012KT 9999 FEW020 BKN050 18/06 Q1020 NOSIG
13-04-19 LEBL 191600Z 33014KT 280V010 9999 DZ FEW020 BKN055 17/07 Q1020 NOSIG
13-04-19 LEBL 191630Z 33011KT 290V350 9999 FEW020 SCT055 17/07 Q1020 NOSIG
13-04-19 LEBL 191700Z 32010KT 9999 FEW020 BKN055 17/07 Q1020 NOSIG
13-04-19 LEBL 191730Z 31007KT 280V340 9999 FEW020 BKN050 17/07 Q1020 NOSIG
13-04-19 LEBL 191800Z 09008KT 9999 FEW020 BKN055 17/09 Q1021 NOSIG
13-04-19 LEBL 191830Z 08011KT 9999 FEW020 BKN055 15/11 Q1021 NOSIG
13-04-19 LEBL 191900Z 07011KT 9999 FEW020 BKN055 14/11 Q1022 NOSIG
13-04-19 LEBL 191930Z 08010KT 9999 FEW020 SCT055 14/11 Q1022 NOSIG
13-04-19 LEBL 192000Z 08007KT 9999 SCT020 14/10 Q1022 NOSIG
13-04-19 LEBL 192030Z 08005KT 9999 FEW020 13/10 Q1023 NOSIG
13-04-19 LEBL 192100Z 08007KT 9999 FEW020 14/09 Q1022 NOSIG
13-04-19 LEBL 192130Z 08003KT 040V110 9999 FEW020 13/09 Q1022 NOSIG
13-04-19 LEBL 192200Z 33003KT 300V010 9999 FEW020 13/09 Q1022 NOSIG
13-04-19 LEBL 192230Z 30004KT 9999 FEW020 13/09 Q1022 NOSIG
13-04-19 LEBL 192300Z 28002KT 9999 FEW020 12/09 Q1022 NOSIG
13-04-19 LEBL 192330Z 29005KT 9999 FEW008 12/09 Q1022 NOSIG
13-04-20 LEBL 200000Z 30005KT 9999 FEW035 12/09 Q1022 NOSIG
13-04-20 LEBL 200030Z 29004KT 9999 FEW038 12/08 Q1022 NOSIG
13-04-20 LEBL 200100Z 29005KT 9999 FEW036 12/08 Q1022 NOSIG
13-04-20 LEBL 200130Z 30003KT 9999 FEW004 SCT032 12/08 Q1022 NOSIG
13-04-20 LEBL 200200Z 30002KT 9999 FEW030 12/08 Q1022 NOSIG
13-04-20 LEBL 200230Z 00000KT 9999 FEW018 SCT025 12/08 Q1022 NOSIG
13-04-20 LEBL 200300Z 32004KT 270V340 9999 SCT025 13/10 Q1021 NOSIG
13-04-20 LEBL 200330Z 32008KT 9999 FEW025 12/08 Q1021 NOSIG
13-04-20 LEBL 200400Z 32008KT 9999 FEW025 11/04 Q1021 NOSIG
13-04-20 LEBL 200430Z 28005KT 250V310 9999 FEW022 10/02 Q1022 NOSIG
13-04-20 LEBL 200500Z 30010KT 9999 FEW022 11/01 Q1022 NOSIG
13-04-20 LEBL 200530Z 29008KT 250V340 9999 FEW022 11/01 Q1022 NOSIG
13-04-20 LEBL 200600Z 29008KT 9999 FEW025 11/01 Q1022 NOSIG
13-04-20 LEBL 200630Z 32009KT 280V340 9999 FEW025 11/02 Q1022 NOSIG
13-04-20 LEBL 200700Z 33006KT 280V030 9999 FEW025 12/02 Q1022 NOSIG
13-04-20 LEBL 200730Z 33009G21KT 300V360 9999 FEW025 13/03 Q1023 NOSIG
13-04-20 LEBL 200800Z 34011KT 310V020 9999 FEW025 13/01 Q1022 NOSIG
13-04-20 LEBL 200830Z 34011KT 300V030 9999 FEW025 14/01 Q1022 NOSIG
13-04-20 LEBL 200900Z 32009G19KT 280V360 9999 FEW025 15/02 Q1022 NOSIG
13-04-20 LEBL 200930Z 31008KT 270V360 9999 FEW025 16/M00 Q1022 NOSIG
13-04-20 LEBL 201000Z 25008KT 190V330 9999 FEW025 16/M01 Q1022 NOSIG
13-04-20 LEBL 201030Z 20010KT 170V240 9999 FEW025 16/02 Q1021 NOSIG
13-04-20 LEBL 201100Z 19012KT 9999 FEW025 16/04 Q1021 NOSIG
13-04-20 LEBL 201130Z 20014KT 9999 FEW025 16/04 Q1020 NOSIG
13-04-20 LEBL 201200Z 20014KT 9999 FEW025 17/06 Q1020 NOSIG
13-04-20 LEBL 201230Z 19015KT 9999 FEW025 17/06 Q1020 NOSIG
13-04-20 LEBL 201300Z 21017KT 9999 FEW025 18/07 Q1019 NOSIG
13-04-20 LEBL 201330Z 22019KT 9999 FEW025 19/05 Q1019 NOSIG
13-04-20 LEBL 201400Z 22022KT 9999 FEW025 19/03 Q1018 NOSIG
13-04-20 LEBL 201430Z 22020KT 9999 FEW025 19/04 Q1018 NOSIG
13-04-20 LEBL 201500Z 22020KT 9999 FEW025 19/03 Q1018 NOSIG
13-04-20 LEBL 201530Z 22021KT 9999 FEW025 18/05 Q1017 NOSIG
13-04-20 LEBL 201600Z 22020KT 9999 FEW025 18/05 Q1017 NOSIG
13-04-20 LEBL 201630Z 23019KT 9999 FEW025 17/07 Q1017 NOSIG
13-04-20 LEBL 201700Z 22022KT 9999 FEW025 16/10 Q1017 NOSIG
13-04-20 LEBL 201730Z 23020KT 9999 FEW025 16/09 Q1017 NOSIG
13-04-20 LEBL 201800Z 23020KT 9999 FEW025 15/09 Q1017 NOSIG
13-04-20 LEBL 201800Z 24020KT 9999 FEW025 15/09 Q1017 BECMG 06012KT
13-04-20 LEBL 201830Z 24019KT 9999 FEW025 15/09 Q1017 BECMG 06012KT
13-04-20 LEBL 201900Z 24014KT 9999 FEW025 15/10 Q1018 BECMG 06012KT
13-04-20 LEBL 201930Z 36005KT 300V040 9999 FEW025 16/08 Q1019 BECMG 06012KT
13-04-20 LEBL 202000Z 01006KT 9999 FEW025 15/09 Q1019 NOSIG
13-04-20 LEBL 202030Z 01007KT 9999 FEW025 15/09 Q1020 NOSIG
13-04-20 LEBL 202100Z 03007KT 9999 FEW025 15/08 Q1020 NOSIG
13-04-20 LEBL 202130Z 02005KT 9999 FEW025 14/08 Q1020 NOSIG
13-04-20 LEBL 202200Z 34003KT 280V020 9999 FEW025 13/08 Q1020 NOSIG
13-04-20 LEBL 202230Z 32006KT 9999 FEW025 13/08 Q1020 NOSIG
13-04-20 LEBL 202300Z 33007KT 9999 FEW025 13/08 Q1020 NOSIG
13-04-20 LEBL 202330Z 34007KT 9999 FEW025 13/08 Q1019 NOSIG
13-04-21 LEBL 210000Z 33006KT 9999 FEW025 13/08 Q1019 NOSIG
13-04-21 LEBL 210030Z NIL
13-04-21 LEBL 210100Z 32004KT 9999 FEW025 12/07 Q1019 NOSIG
13-04-21 LEBL 210130Z 34006KT 9999 FEW025 12/07 Q1019 NOSIG
13-04-21 LEBL 210200Z 33006KT 310V010 9999 FEW025 12/07 Q1019 NOSIG
13-04-21 LEBL 210230Z 36007KT 330V030 9999 FEW025 12/07 Q1018 NOSIG
13-04-21 LEBL 210300Z 35007KT 9999 FEW023 12/07 Q1018 NOSIG
13-04-21 LEBL 210330Z 34008KT 9999 SCT025 11/06 Q1018 NOSIG
13-04-21 LEBL 210400Z 33005KT 300V360 9999 SCT025 11/06 Q1018 NOSIG
13-04-21 LEBL 210430Z 32007KT 9999 SCT025 11/06 Q1018 NOSIG
13-04-21 LEBL 210500Z 32007KT 9999 SCT027 11/05 Q1019 NOSIG
13-04-21 LEBL 210530Z 32007KT 9999 FEW025 BKN030 11/05 Q1019 NOSIG
13-04-21 LEBL 210600Z 32007KT 290V360 9999 FEW025 BKN036 11/04 Q1019 NOSIG
13-04-21 LEBL 210630Z 33008KT 290V060 9999 FEW025 BKN035 11/04 Q1019 NOSIG
13-04-21 LEBL 210700Z 32008KT 9999 FEW025 BKN035 12/04 Q1020 NOSIG
13-04-21 LEBL 210730Z 33008KT 9999 FEW025 BKN035 13/04 Q1020 NOSIG
13-04-21 LEBL 210800Z 32008KT 9999 FEW025 BKN035 14/04 Q1020 NOSIG
13-04-21 LEBL 210830Z 33007G19KT 9999 FEW025 15/05 Q1019 NOSIG
13-04-21 LEBL 210900Z 32004KT 230V010 9999 FEW025 16/05 Q1020 NOSIG
13-04-21 LEBL 210930Z 10005KT 060V140 9999 FEW025 SCT035 16/05 Q1020 NOSIG
13-04-21 LEBL 211000Z 14007KT 9999 FEW025 SCT035 17/05 Q1020 NOSIG
13-04-21 LEBL 211030Z 13008KT 110V200 9999 FEW025 SCT035 16/06 Q1019 NOSIG
13-04-21 LEBL 211100Z 14010KT 9999 FEW025 16/06 Q1019 NOSIG
13-04-21 LEBL 211130Z 13010KT 100V170 9999 FEW025 16/08 Q1019 NOSIG
13-04-21 LEBL 211200Z 13009KT 9999 FEW025 16/08 Q1019 NOSIG
13-04-21 LEBL 211230Z 14010KT 110V190 9999 FEW025 16/08 Q1018 NOSIG
13-04-21 LEBL 211300Z 15012KT 120V180 9999 FEW025 16/07 Q1018 NOSIG
13-04-21 LEBL 211330Z 15012KT 110V180 9999 FEW025 16/08 Q1018 NOSIG
13-04-21 LEBL 211400Z 15011KT 9999 FEW025 17/08 Q1018 NOSIG
13-04-21 LEBL 211430Z 16011KT 120V190 9999 FEW025 16/09 Q1018 NOSIG
13-04-21 LEBL 211500Z 15010KT 120V190 9999 FEW025 16/09 Q1017 NOSIG
13-04-21 LEBL 211530Z 16009KT 130V190 9999 FEW025 16/10 Q1017 NOSIG
13-04-21 LEBL 211600Z 15009KT 130V190 9999 FEW025 16/10 Q1017 NOSIG
13-04-21 LEBL 211630Z 16008KT 130V190 9999 FEW025 16/11 Q1017 NOSIG
13-04-21 LEBL 211700Z 14006KT 110V170 9999 FEW025 15/11 Q1017 NOSIG
13-04-21 LEBL 211730Z 13006KT 100V160 9999 FEW025 16/12 Q1017 NOSIG
13-04-21 LEBL 211800Z 12006KT 9999 FEW025 15/11 Q1017 NOSIG
13-04-21 LEBL 211830Z 11004KT 9999 FEW025 15/12 Q1018 NOSIG
13-04-21 LEBL 211900Z 12005KT 9999 SCT020 15/11 Q1018 NOSIG
13-04-21 LEBL 211930Z 11005KT 9999 SCT020 15/11 Q1018 NOSIG
13-04-21 LEBL 212000Z 12003KT 9999 SCT020 15/10 Q1019 NOSIG
13-04-21 LEBL 212030Z 12004KT 9999 FEW020 SCT055 15/10 Q1019 NOSIG
13-04-21 LEBL 212100Z 12003KT 9999 FEW020 SCT050 15/10 Q1019 NOSIG
13-04-21 LEBL 212130Z 13003KT 9999 FEW020 SCT050 15/10 Q1019 NOSIG
13-04-21 LEBL 212200Z 13002KT 9999 FEW020 SCT050 15/10 Q1019 NOSIG
13-04-21 LEBL 212230Z 14002KT 9999 FEW020 SCT050 15/10 Q1019 NOSIG
13-04-21 LEBL 212300Z 13002KT 9999 FEW025 14/10 Q1019 NOSIG
13-04-21 LEBL 212330Z VRB01KT 9999 FEW025 14/10 Q1019 NOSIG
13-04-22 LEBL 220000Z 29001KT 9999 FEW025 13/10 Q1018 NOSIG
13-04-22 LEBL 220030Z 30004KT 9999 FEW025 13/10 Q1018 NOSIG
13-04-22 LEBL 220100Z 32002KT 9999 FEW025 13/10 Q1018 NOSIG
13-04-22 LEBL 220130Z 33004KT 9999 FEW025 12/10 Q1018 NOSIG
13-04-22 LEBL 220200Z 31004KT 9999 FEW019 12/09 Q1017 NOSIG
13-04-22 LEBL 220230Z 34006KT 9999 FEW016 SCT054 12/09 Q1017 NOSIG
13-04-22 LEBL 220300Z 32003KT 9999 FEW016 SCT054 12/09 Q1017 NOSIG
13-04-22 LEBL 220330Z 34004KT 9999 FEW020 12/09 Q1017 NOSIG
13-04-22 LEBL 220400Z 32006KT 9999 FEW016 11/09 Q1016 NOSIG
13-04-22 LEBL 220430Z 33008KT 9999 SCT015 11/09 Q1016 NOSIG
13-04-22 LEBL 220500Z 33007KT 9999 SCT015 11/09 Q1017 NOSIG
13-04-22 LEBL 220530Z 33009KT 9999 SCT018 11/09 Q1017 NOSIG
13-04-22 LEBL 220600Z 33007KT 9999 FEW020 11/09 Q1017 NOSIG
13-04-22 LEBL 220630Z 32007G19KT 9999 FEW020 11/09 Q1017 NOSIG
13-04-22 LEBL NIL
13-04-22 LEBL 220700Z 32008KT 9999 FEW020 12/09 Q1017 NOSIG
13-04-22 LEBL 220730Z 31008KT 270V340 9999 FEW020 13/09 Q1017 NOSIG
13-04-22 LEBL 220800Z 32008KT 260V340 9999 FEW020 13/09 Q1017 NOSIG
13-04-22 LEBL 220830Z 31008KT 280V010 9999 FEW020 15/06 Q1017 NOSIG
13-04-22 LEBL 220900Z 31007KT 280V350 9999 SCT020 15/07 Q1017 NOSIG
13-04-22 LEBL 220930Z 34005KT 280V050 9999 SCT020 16/07 Q1017 NOSIG
13-04-22 LEBL 221000Z 20008KT 170V230 9999 FEW020 16/09 Q1017 NOSIG
13-04-22 LEBL 221030Z 20007KT 160V230 9999 SCT020 16/09 Q1017 NOSIG
13-04-22 LEBL 221100Z 19007KT 160V220 9999 SCT020 16/11 Q1017 NOSIG
13-04-22 LEBL 221130Z 18011KT 150V220 9999 FEW020 16/10 Q1017 NOSIG
13-04-22 LEBL 221200Z 19011KT 160V220 9999 FEW020 16/10 Q1017 NOSIG
13-04-22 LEBL 221230Z NIL
13-04-22 LEBL 221230Z 19012KT 9999 FEW020 16/10 Q1016 NOSIG
13-04-22 LEBL 221300Z 19012KT 9999 FEW020 16/10 Q1016 NOSIG
13-04-22 LEBL 221330Z 19013KT 9999 FEW020 16/09 Q1016 NOSIG
13-04-22 LEBL 221400Z 20013KT 9999 FEW020 16/08 Q1016 NOSIG
13-04-22 LEBL 221430Z 20013KT 9999 FEW020 17/08 Q1016 NOSIG
13-04-22 LEBL 221500Z 21013KT 9999 FEW020 17/07 Q1015 NOSIG
13-04-22 LEBL 221530Z 19010KT 9999 FEW020 16/06 Q1015 NOSIG
13-04-22 LEBL 221600Z 18009KT 150V210 9999 FEW020 17/06 Q1015 NOSIG
13-04-22 LEBL 221630Z 18008KT 9999 FEW025 16/07 Q1016 NOSIG
13-04-22 LEBL 221700Z 19007KT 160V220 9999 FEW025 16/07 Q1016 NOSIG
13-04-22 LEBL 221730Z 18005KT 150V210 9999 FEW025 16/06 Q1016 NOSIG
13-04-22 LEBL 221800Z 14004KT 9999 FEW025 16/06 Q1017 NOSIG
13-04-22 LEBL 221830Z 12003KT 9999 FEW020 15/08 Q1017 NOSIG
13-04-22 LEBL 221900Z 12003KT 9999 FEW020 15/07 Q1018 NOSIG
13-04-22 LEBL 221930Z 13004KT 9999 FEW020 15/08 Q1018 NOSIG
13-04-22 LEBL 222000Z 14003KT 9999 FEW020 15/08 Q1019 NOSIG
13-04-22 LEBL 222030Z 15003KT 9999 FEW020 15/08 Q1019 NOSIG
13-04-22 LEBL 222100Z VRB02KT 9999 FEW020 15/08 Q1019 NOSIG
13-04-22 LEBL 222130Z 17002KT 9999 FEW020 15/08 Q1020 NOSIG
13-04-22 LEBL 222200Z NIL
13-04-22 LEBL 222200Z 21004KT 9999 FEW020 14/09 Q1020 NOSIG
13-04-22 LEBL 222230Z 22005KT 9999 FEW020 14/09 Q1020 NOSIG
13-04-22 LEBL 222300Z 29004KT 9999 FEW020 13/08 Q1020 NOSIG
13-04-22 LEBL 222330Z 31004KT 9999 FEW020 13/08 Q1020 NOSIG
13-04-23 LEBL 230000Z 32005KT 9999 FEW020 13/08 Q1020 NOSIG
13-04-23 LEBL 230030Z 32004KT 9999 FEW020 13/08 Q1020 NOSIG
13-04-23 LEBL 230100Z 33003KT 9999 FEW020 13/07 Q1020 NOSIG
13-04-23 LEBL 230130Z 32004KT 9999 FEW020 13/07 Q1019 NOSIG
13-04-23 LEBL 230200Z NIL
13-04-23 LEBL 230200Z 32005KT 9999 FEW020 13/08 Q1019 NOSIG
13-04-23 LEBL 230230Z 32005KT 9999 FEW020 13/08 Q1019 NOSIG
13-04-23 LEBL 230300Z 32005KT 9999 FEW020 13/08 Q1019 NOSIG
13-04-23 LEBL 230330Z NIL
13-04-23 LEBL 230330Z 32007KT 9999 FEW020 13/08 Q1020 NOSIG
13-04-23 LEBL 230400Z 32008KT 9999 FEW020 13/08 Q1020 NOSIG
13-04-23 LEBL 230430Z 33007KT 9999 FEW020 12/08 Q1020 NOSIG
13-04-23 LEBL 230500Z 32007KT 9999 FEW020 12/07 Q1020 NOSIG
13-04-23 LEBL 230530Z 32009KT 9999 FEW020 12/07 Q1020 NOSIG
13-04-23 LEBL 230600Z 32007KT 260V360 9999 FEW020 12/07 Q1021 NOSIG
13-04-23 LEBL 230630Z 32007G19KT 9999 FEW020 12/07 Q1021 NOSIG
13-04-23 LEBL 230700Z 32008KT 260V350 CAVOK 13/06 Q1022 NOSIG
13-04-23 LEBL 230730Z 32009KT 280V350 CAVOK 14/06 Q1022 NOSIG
13-04-23 LEBL 230800Z 33007KT 300V010 CAVOK 15/06 Q1022 NOSIG
13-04-23 LEBL 230830Z 34004KT CAVOK 16/06 Q1022 NOSIG
13-04-23 LEBL 230900Z 07010KT CAVOK 17/06 Q1023 NOSIG
13-04-23 LEBL 230930Z 08009KT 030V110 CAVOK 17/07 Q1023 NOSIG
13-04-23 LEBL 231000Z 09009KT 9999 FEW030 17/07 Q1023 NOSIG
13-04-23 LEBL 231030Z 10010KT 030V130 9999 FEW030 17/07 Q1023 NOSIG
13-04-23 LEBL 231100Z 11009KT 9999 FEW030 17/08 Q1023 NOSIG
13-04-23 LEBL 231130Z 12008KT 100V160 9999 FEW030 17/10 Q1023 NOSIG
13-04-23 LEBL 231200Z 14009KT 110V170 9999 FEW030 17/10 Q1023 NOSIG
13-04-23 LEBL 231230Z 15008KT 9999 FEW030 17/10 Q1022 NOSIG
13-04-23 LEBL 231300Z 15008KT 110V190 9999 FEW030 17/10 Q1023 NOSIG
13-04-23 LEBL 231330Z 16009KT 130V200 9999 FEW030 17/11 Q1023 NOSIG
13-04-23 LEBL 231400Z 17009KT 9999 FEW030 17/09 Q1023 NOSIG
13-04-23 LEBL 231430Z 14008KT 120V180 9999 FEW030 17/10 Q1023 NOSIG
13-04-23 LEBL 231500Z 14008KT 9999 FEW030 17/10 Q1022 NOSIG
13-04-23 LEBL 231530Z 12009KT 9999 FEW030 17/09 Q1022 NOSIG
13-04-23 LEBL 231600Z 12008KT 080V140 9999 FEW030 17/07 Q1022 NOSIG
13-04-23 LEBL 231630Z 12007KT 080V150 9999 FEW030 17/07 Q1022 NOSIG
13-04-23 LEBL 231700Z 12006KT 080V150 9999 FEW030 17/07 Q1022 NOSIG
13-04-23 LEBL 231730Z 11005KT 090V150 9999 FEW030 17/07 Q1023 NOSIG
13-04-23 LEBL 231800Z 13004KT 080V160 9999 FEW030 16/07 Q1023 NOSIG
13-04-23 LEBL 231830Z VRB02KT 9999 FEW030 16/08 Q1023 NOSIG
13-04-23 LEBL 231900Z 10002KT 9999 FEW030 16/07 Q1023 NOSIG
13-04-23 LEBL 231930Z VRB02KT 9999 FEW030 16/08 Q1024 NOSIG
13-04-23 LEBL 232000Z 03003KT 9999 FEW030 16/08 Q1024 NOSIG
13-04-23 LEBL 232030Z VRB02KT 9999 FEW030 15/08 Q1024 NOSIG
13-04-23 LEBL 232100Z 04003KT 350V070 9999 FEW030 15/07 Q1024 NOSIG
13-04-23 LEBL 232130Z NIL
13-04-23 LEBL 232130Z 01003KT 340V060 9999 FEW030 14/06 Q1024 NOSIG
13-04-23 LEBL 232200Z 01003KT 340V060 9999 FEW030 14/06 Q1024 NOSIG
13-04-23 LEBL 232230Z 33002KT 9999 FEW030 14/07 Q1024 NOSIG
13-04-23 LEBL 232300Z 33005KT 9999 FEW030 14/06 Q1024 NOSIG
13-04-23 LEBL 232330Z 33005KT 9999 FEW025 13/06 Q1024 NOSIG
13-04-24 LEBL 240000Z 34003KT 9999 FEW025 13/06 Q1024 NOSIG
13-04-24 LEBL 240030Z VRB02KT 9999 FEW025 13/06 Q1024 NOSIG
13-04-24 LEBL 240100Z 34003KT 9999 FEW025 13/06 Q1024 NOSIG
13-04-24 LEBL 240130Z 34005KT 9999 FEW030 13/06 Q1024 NOSIG
13-04-24 LEBL 240200Z 35003KT 9999 FEW030 12/06 Q1024 NOSIG
13-04-24 LEBL 240230Z 34005KT 9999 FEW030 12/06 Q1024 NOSIG
13-04-24 LEBL 240300Z 35005KT 330V040 9999 FEW030 11/06 Q1024 NOSIG
13-04-24 LEBL 240330Z 32006KT 9999 FEW030 11/06 Q1024 NOSIG
13-04-24 LEBL 240400Z 33005KT 310V010 9999 FEW030 12/07 Q1024 NOSIG
13-04-24 LEBL 240430Z 36004KT 330V060 9999 FEW018 11/06 Q1024 NOSIG
13-04-24 LEBL 240500Z 34004KT 320V020 9999 FEW018 11/06 Q1024 NOSIG
13-04-24 LEBL 240530Z 34005KT 310V020 9999 FEW018 11/06 Q1024 NOSIG
13-04-24 LEBL 240600Z 32006KT 270V350 9999 FEW020 11/06 Q1025 NOSIG
13-04-24 LEBL 240630Z 32005KT 260V340 9999 FEW020 12/06 Q1025 NOSIG
13-04-24 LEBL 240700Z 04010KT 010V070 9999 FEW020 14/07 Q1025 NOSIG
13-04-24 LEBL 240730Z 06013KT 9999 FEW020 16/07 Q1025 NOSIG
13-04-24 LEBL 240800Z 06015KT 9999 FEW020 16/08 Q1026 NOSIG
13-04-24 LEBL 240830Z 06015KT 040V100 9999 FEW020 17/07 Q1026 NOSIG
13-04-24 LEBL 240900Z 07017KT 9999 FEW020 17/06 Q1026 NOSIG
13-04-24 LEBL 240930Z 07016KT 9999 FEW020 17/08 Q1026 NOSIG
13-04-24 LEBL 241000Z 08017KT 9999 FEW020 18/09 Q1026 NOSIG
13-04-24 LEBL 241030Z 08018KT 9999 FEW020 18/10 Q1026 NOSIG
13-04-24 LEBL 241100Z 08019KT 9999 FEW025 18/10 Q1026 NOSIG
13-04-24 LEBL 241130Z 08019KT 9999 FEW025 18/10 Q1025 NOSIG
13-04-24 LEBL 241200Z 08017KT 9999 FEW025 18/10 Q1025 NOSIG
13-04-24 LEBL 241230Z 08019KT 9999 FEW025 19/10 Q1025 NOSIG
13-04-24 LEBL 241300Z 09018KT 9999 FEW025 18/10 Q1025 NOSIG
13-04-24 LEBL 241330Z 08020G30KT 9999 FEW025 18/09 Q1024 NOSIG
13-04-24 LEBL 241400Z 08020KT 9999 FEW025 18/08 Q1024 NOSIG
13-04-24 LEBL 241430Z 08018KT 050V110 9999 FEW025 18/07 Q1024 NOSIG
13-04-24 LEBL 241500Z 08019KT 9999 FEW025 19/07 Q1024 NOSIG
13-04-24 LEBL 241530Z 08020KT 050V110 9999 FEW025 18/09 Q1024 NOSIG
13-04-24 LEBL 241600Z 08019G29KT 9999 FEW025 18/07 Q1024 NOSIG
13-04-24 LEBL 241630Z 07017KT 9999 FEW025 18/06 Q1024 NOSIG
13-04-24 LEBL 241700Z 06015KT CAVOK 18/06 Q1023 NOSIG
13-04-24 LEBL 241730Z 08013KT CAVOK 18/06 Q1023 NOSIG
13-04-24 LEBL 241800Z 06012KT CAVOK 17/07 Q1023 NOSIG
13-04-24 LEBL 241830Z 05011KT CAVOK 17/09 Q1023 NOSIG
13-04-24 LEBL 241900Z 05013KT 9999 FEW020 17/10 Q1023 NOSIG
13-04-24 LEBL 241930Z 05011KT 9999 FEW020 17/09 Q1023 NOSIG
13-04-24 LEBL 242000Z 04010KT 9999 FEW020 17/08 Q1024 NOSIG
13-04-24 LEBL 242030Z 04009KT 9999 FEW020 18/06 Q1024 NOSIG
13-04-24 LEBL 242100Z 06010KT 9999 FEW020 17/08 Q1024 NOSIG
13-04-24 LEBL 242130Z 04009KT 9999 FEW020 18/05 Q1024 NOSIG
13-04-24 LEBL 242200Z 03012KT 9999 FEW020 18/05 Q1023 NOSIG
13-04-24 LEBL 242230Z 03011KT 9999 FEW020 19/05 Q1023 NOSIG
13-04-24 LEBL 242300Z 03010KT 9999 FEW020 18/05 Q1023 NOSIG
13-04-24 LEBL 242330Z 04007KT 9999 FEW020 18/04 Q1023 NOSIG
13-04-25 LEBL 250000Z 05008KT 9999 FEW020 17/09 Q1023 NOSIG
13-04-25 LEBL 250030Z 04007KT 9999 FEW020 18/08 Q1022 NOSIG
13-04-25 LEBL 250100Z 05009KT 9999 FEW020 17/08 Q1022 NOSIG
13-04-25 LEBL 250130Z 06012KT 9999 FEW020 18/06 Q1022 NOSIG
13-04-25 LEBL 250200Z 05013KT 9999 DZ FEW020 17/09 Q1021 NOSIG
13-04-25 LEBL 250230Z 04013KT 9999 DZ FEW020 17/09 Q1021 NOSIG
13-04-25 LEBL 250300Z 04013KT 9999 DZ FEW020 17/09 Q1021 NOSIG
13-04-25 LEBL 250400Z 04016KT 9999 FEW020 17/09 Q1020 NOSIG
13-04-25 LEBL 250430Z 04019KT 9999 FEW020 17/08 Q1020 NOSIG
13-04-25 LEBL 250500Z 04017KT 9999 FEW020 17/07 Q1020 NOSIG
13-04-25 LEBL 250530Z 04013KT 9999 FEW020 17/08 Q1020 NOSIG
13-04-25 LEBL 250600Z 04011KT 010V070 9999 FEW020 17/08 Q1020 NOSIG
13-04-25 LEBL 250630Z 04014KT 9999 FEW020 17/08 Q1020 NOSIG
13-04-25 LEBL 250700Z 04013G25KT 9999 FEW020 SCT055 18/08 Q1020 NOSIG
13-04-25 LEBL 250730Z 05017G29KT 010V070 9999 FEW020 SCT055 18/07 Q1019 NOSIG
13-04-25 LEBL 250800Z 04017KT 9999 FEW020 SCT055 18/09 Q1019 NOSIG
13-04-25 LEBL 250830Z 04017G28KT 9999 FEW020 SCT055 18/09 Q1019 NOSIG
13-04-25 LEBL 250900Z 05021KT 9999 FEW020 SCT055 18/08 Q1020 NOSIG
13-04-25 LEBL 250930Z 05023KT 9999 FEW020 SCT055 18/09 Q1020 NOSIG
13-04-25 LEBL 251000Z 05021KT 9999 FEW020 SCT055 18/09 Q1020 NOSIG
13-04-25 LEBL 251030Z 05021KT 9999 FEW020 SCT040 19/09 Q1020 NOSIG
13-04-25 LEBL 251100Z 05025G35KT 9999 FEW020 SCT055 19/11 Q1020 NOSIG
13-04-25 LEBL 251130Z 05022KT 9999 FEW020 SCT055 19/09 Q1019 NOSIG
13-04-25 LEBL 251200Z 05023KT 9999 FEW020 SCT055 19/10 Q1019 NOSIG
13-04-25 LEBL 251230Z 05022KT 9999 FEW020 SCT055 19/10 Q1019 NOSIG
13-04-25 LEBL 251300Z 05018KT 9999 FEW020 19/10 Q1019 NOSIG
13-04-25 LEBL 251330Z 06021KT 9999 DZ FEW020 18/12 Q1019 NOSIG
13-04-25 LEBL 251336Z 07020KT 8000 RA FEW020 17/13 Q1020 NOSIG
13-04-25 LEBL 251400Z 04021KT 8000 RA FEW020 SCT055 16/13 Q1019 NOSIG
13-04-25 LEBL 251430Z 05020KT 7000 RA FEW020 BKN050 16/13 Q1019 NOSIG
13-04-25 LEBL 251500Z 05017G28KT 7000 RA FEW015 BKN045 16/13 Q1019 NOSIG
13-04-25 LEBL 251530Z 07014KT 4000 +RA BKN020 SCT045 15/14 Q1020 NOSIG
13-04-25 LEBL 251600Z 03020KT 4000 +RA BKN020 SCT045 15/13 Q1019 NOSIG
13-04-25 LEBL 251630Z 03015KT 5000 +RA BKN020 SCT045 15/14 Q1018 NOSIG
13-04-25 LEBL 251700Z 03016KT 010V070 6000 RA SCT020 BKN030 15/14 Q1019 NOSIG
13-04-25 LEBL 251730Z 05018KT 020V080 7000 RA SCT020 BKN050 15/14 Q1019 NOSIG
13-04-25 LEBL 251800Z 03013KT 9999 DZ BKN024 SCT050 16/13 Q1018 NOSIG
13-04-25 LEBL 251830Z 06014G24KT 9999 BKN024 16/13 Q1018 REDZ NOSIG
13-04-25 LEBL 251900Z 05012KT 9999 BKN024 16/13 Q1018 NOSIG
13-04-25 LEBL 252030Z 07018KT 9999 FEW012 SCT020 BKN030 16/13 Q1019 NOSIG
13-04-25 LEBL 252100Z 06015KT 9999 -RA FEW013 BKN022 15/13 Q1019 NOSIG
13-04-25 LEBL 252130Z 06019KT 9999 FEW013 SCT020 BKN035 16/13 Q1019 NOSIG
13-04-25 LEBL 252200Z 06016KT 9999 FEW015 SCT025 BKN040 16/13 Q1019 NOSIG
13-04-25 LEBL 252230Z 06012KT 9999 FEW015 SCT025 BKN040 15/13 Q1018 NOSIG
13-04-25 LEBL 252300Z 05016KT 9999 SCT020 BKN035 16/13 Q1018 NOSIG
13-04-25 LEBL 252330Z 04015KT 9999 SCT020 BKN035 16/13 Q1018 NOSIG
13-04-26 LEBL 260000Z 05016KT 9999 FEW018 BKN030 16/12 Q1017 NOSIG
13-04-26 LEBL 260030Z 04016KT 9999 FEW020 BKN035 16/12 Q1017 NOSIG
13-04-26 LEBL 260100Z 05016KT 9999 FEW020 BKN040 17/11 Q1016 NOSIG
13-04-26 LEBL 260130Z 05015KT 9999 FEW020 BKN045 16/12 Q1016 NOSIG
13-04-26 LEBL 260200Z 05016KT 9999 FEW020 BKN050 16/11 Q1015 NOSIG
13-04-26 LEBL 260230Z 05016KT 9999 FEW020 BKN055 16/11 Q1015 NOSIG
13-04-26 LEBL 260300Z 03011KT 9999 FEW020 BKN055 17/11 Q1015 NOSIG
13-04-26 LEBL 260330Z 36006KT 9999 FEW020 SCT055 16/11 Q1015 NOSIG
13-04-26 LEBL 260400Z 34007KT 310V020 9999 FEW020 16/11 Q1015 NOSIG
13-04-26 LEBL 260430Z 01006KT 9999 FEW020 16/12 Q1014 NOSIG
13-04-26 LEBL 260500Z 03007KT 9999 FEW020 17/11 Q1014 NOSIG
13-04-26 LEBL 260530Z 04009KT 010V070 9999 FEW020 17/11 Q1014 NOSIG
13-04-26 LEBL 260600Z 04011KT 9999 FEW020 17/10 Q1014 NOSIG
13-04-26 LEBL 260630Z 05012KT 020V080 9999 FEW020 17/11 Q1014 NOSIG
13-04-26 LEBL 260700Z 06017KT 9999 FEW020 17/11 Q1014 NOSIG
13-04-26 LEBL 260730Z 06015KT 9999 FEW020 17/11 Q1014 NOSIG
13-04-26 LEBL 260800Z 04015KT 020V080 9999 FEW020 17/11 Q1014 NOSIG
13-04-26 LEBL 260830Z 04017KT 9999 FEW020 18/11 Q1014 NOSIG
13-04-26 LEBL 260900Z 06017KT 9999 FEW020 18/09 Q1014 NOSIG
13-04-26 LEBL 260930Z 06016KT 9999 FEW020 18/09 Q1014 NOSIG
13-04-26 LEBL 261000Z 06014KT 040V100 9999 FEW020 SCT046 17/09 Q1014 NOSIG
13-04-26 LEBL 261030Z 07013KT 9999 FEW020 SCT050 17/09 Q1014 NOSIG
13-04-26 LEBL 261100Z 07014KT 050V110 9999 FEW020 SCT055 17/08 Q1013 NOSIG
13-04-26 LEBL 261130Z 06015KT 040V100 9999 FEW020 SCT055 17/09 Q1013 NOSIG
13-04-26 LEBL 261200Z 07014KT 040V100 9999 FEW020 SCT055 17/09 Q1013 NOSIG
13-04-26 LEBL 261230Z 07016KT 9999 FEW020 SCT055 17/09 Q1012 NOSIG
13-04-26 LEBL 261300Z 07013KT 9999 FEW020 SCT055 18/12 Q1012 NOSIG
13-04-26 LEBL 261330Z 06012KT 9999 FEW020 SCT055 17/12 Q1012 NOSIG
13-04-26 LEBL 261400Z 07010KT 030V100 9999 FEW020 SCT045 17/11 Q1012 NOSIG
13-04-26 LEBL 261430Z 08012KT 9999 FEW020 SCT045 18/11 Q1011 NOSIG
13-04-26 LEBL 261500Z 07010KT 9999 FEW020 SCT045 17/11 Q1011 NOSIG
13-04-26 LEBL 261530Z 05009KT 9999 FEW020 SCT055 17/12 Q1011 NOSIG
13-04-26 LEBL 261600Z 06010KT 030V090 9999 FEW020 SCT055 16/12 Q1011 NOSIG
13-04-26 LEBL 261630Z NIL
13-04-26 LEBL 261630Z 06010KT 9999 FEW020 SCT055 16/12 Q1011 NOSIG
13-04-26 LEBL 261700Z 06008KT 020V090 9999 FEW020 SCT055 16/12 Q1010 NOSIG
13-04-26 LEBL 261730Z 05007KT 020V080 9999 FEW020 SCT055 16/12 Q1010 NOSIG
13-04-26 LEBL 261800Z 05007KT 010V090 9999 DZ FEW020 SCT055 16/12 Q1011 NOSIG
13-04-26 LEBL 261830Z 03003KT 350V090 9999 DZ FEW020 SCT055 16/12 Q1011 NOSIG
13-04-26 LEBL 261900Z 03004KT 330V070 9000 RA FEW020 BKN050 16/12 Q1011 NOSIG
13-04-26 LEBL 261930Z 03003KT 340V080 9000 RA FEW020 BKN032 16/12 Q1011 NOSIG
13-04-26 LEBL 262000Z VRB02KT 9000 -RA FEW018 SCT032 BKN050 15/13 Q1012 NOSIG
13-04-26 LEBL 262030Z 36001KT 9000 -RA FEW018 SCT032 BKN050 15/13 Q1012 NOSIG
13-04-26 LEBL 262100Z 11005KT 9000 RA FEW018 SCT037 BKN047 15/13 Q1012 NOSIG
13-04-26 LEBL 262130Z 10003KT 070V160 8000 -RA FEW024 BKN045 15/13 Q1011 NOSIG
13-04-26 LEBL 262200Z VRB02KT 5000 -RA BKN010 SCT023 15/14 Q1011 NOSIG
13-04-26 LEBL 262230Z VRB02KT 5000 -RA BKN009 SCT040 15/14 Q1011 NOSIG
13-04-26 LEBL 262300Z VRB02KT 6000 DZ BKN009 SCT040 14/13 Q1011 NOSIG
13-04-26 LEBL 262330Z VRB01KT 6000 DZ BKN007 SCT040 15/14 Q1010 NOSIG
13-04-27 LEBL 270000Z 15003KT 6000 DZ BKN007 SCT040 15/14 Q1010 NOSIG
13-04-27 LEBL 270030Z 19003KT 5000 DZ BKN009 SCT018 14/14 Q1009 NOSIG
13-04-27 LEBL 270100Z 19006KT 6000 DZ SCT010 BKN020 14/13 Q1009 NOSIG
13-04-27 LEBL 270130Z 19006KT 6000 SCT010 BKN020 14/14 Q1008 REDZ NOSIG
13-04-27 LEBL 270200Z 22010KT 2000 SHRA SCT006 SCT012TCU BKN020 14/13 Q1008 NOSIG
13-04-27 LEBL 270230Z 23013KT 3000 RA FEW006 SCT015TCU BKN020 13/13 Q1008 NOSIG
13-04-27 LEBL 270300Z 24013KT 6000 DZ FEW015 SCT025 BKN035 12/12 Q1007 NOSIG
13-04-27 LEBL 270330Z 24012KT 6000 DZ FEW018 SCT025 BKN040 12/12 Q1007 NOSIG
13-04-27 LEBL 270400Z 25012KT 8000 RA SCT018 BKN040 12/11 Q1007 NOSIG
13-04-27 LEBL 270430Z 25007KT 9000 DZ SCT008 BKN040 12/12 Q1006 NOSIG
13-04-27 LEBL 270500Z 25010KT 9000 FEW018 SCT035 BKN050 12/12 Q1006 REDZ NOSIG
13-04-27 LEBL 270530Z 26011KT 9000 DZ FEW018 BKN048 12/12 Q1006 NOSIG
13-04-27 LEBL 270600Z 25007KT 9999 FEW018 BKN030 12/11 Q1006 NOSIG
13-04-27 LEBL 270630Z 25008KT 230V290 9999 DZ FEW022 BKN050 13/11 Q1006 NOSIG
13-04-27 LEBL 270700Z 25014KT 9999 DZ FEW022 BKN050 12/11 Q1006 NOSIG
13-04-27 LEBL 270730Z 26014KT 4000 +RA FEW018 BKN030 12/11 Q1006 NOSIG
13-04-27 LEBL 270800Z 29007KT 250V320 8000 RA FEW018 BKN030 12/11 Q1006 NOSIG
13-04-27 LEBL NIL
13-04-27 LEBL 270830Z 31014KT 5000 +RA FEW018 BKN030 12/11 Q1006 NOSIG
13-04-27 LEBL 270900Z 30009KT 260V340 5000 +RA FEW018 BKN030 11/10 Q1006 NOSIG
13-04-27 LEBL 270930Z 31008KT 260V350 8000 RA FEW020 BKN040 11/09 Q1006 NOSIG
13-04-27 LEBL 271000Z 30008KT 260V350 9000 DZ FEW020 BKN040 11/09 Q1007 NOSIG
13-04-27 LEBL 271030Z 30008KT 250V350 9999 DZ FEW020 BKN040 12/09 Q1006 NOSIG
13-04-27 LEBL 271100Z 31011G21KT 280V340 9999 DZ FEW020 BKN040 12/10 Q1007 NOSIG
13-04-27 LEBL 271130Z 29005KT 260V340 7000 +RA FEW018 BKN030 11/09 Q1007 NOSIG
13-04-27 LEBL 271130Z 29005KT 260V340 7000 RA FEW018 BKN030 11/09 Q1007 NOSIG
13-04-27 LEBL 271200Z 33004KT 260V040 9999 DZ FEW018 BKN040 11/10 Q1006 NOSIG
13-04-27 LEBL 271230Z 31010G20KT 9999 DZ FEW018 BKN040 11/09 Q1007 NOSIG
13-04-27 LEBL 271300Z 31008KT 280V350 9999 DZ FEW020 BKN050 11/10 Q1007 NOSIG
13-04-27 LEBL 271330Z 34007KT 280V050 9999 DZ FEW020 BKN050 11/10 Q1007 NOSIG
13-04-27 LEBL 271500Z 10007KT 9999 FEW020 BKN055 13/09 Q1006 NOSIG
13-04-27 LEBL 271630Z 11008KT 9999 BKN012 12/10 Q1007 REDZ NOSIG
13-04-27 LEBL 271700Z 11010KT 9999 BKN012 12/10 Q1007 NOSIG
13-04-27 LEBL 271730Z 09010KT 9999 BKN012 12/10 Q1007 NOSIG
13-04-27 LEBL 271800Z 10010KT 9999 BKN012 12/09 Q1008 NOSIG
13-04-27 LEBL 271830Z 08010KT 9999 SCT012 BKN029 11/09 Q1008 NOSIG
13-04-27 LEBL 271900Z 06010KT 9999 SCT009 BKN029 11/09 Q1008 NOSIG
13-04-27 LEBL 271930Z 07010KT 9999 SCT015 BKN029 11/09 Q1008 NOSIG
13-04-27 LEBL 272000Z 08010KT 9999 SCT015 BKN033 11/08 Q1009 NOSIG
13-04-27 LEBL 272030Z 07008KT 040V100 9999 SCT015 BKN033 11/08 Q1009 NOSIG
13-04-27 LEBL 272100Z 05005KT 9999 FEW020 SCT035 12/08 Q1009 NOSIG
13-04-27 LEBL 272130Z 04005KT 340V070 9999 FEW020 BKN039 11/08 Q1009 NOSIG
13-04-27 LEBL 272200Z 05006KT 9999 FEW020 BKN043 12/08 Q1009 NOSIG
13-04-27 LEBL 272230Z 04005KT 9999 FEW020 BKN049 12/07 Q1009 NOSIG
13-04-27 LEBL 272300Z 06003KT 9999 RA FEW020 BKN049 11/08 Q1009 NOSIG
13-04-27 LEBL 272330Z 33004KT 300V020 9999 RA FEW020 BKN049 11/08 Q1009 NOSIG
13-04-28 LEBL 280000Z 32005KT 9999 RA SCT020 BKN050 10/09 Q1009 NOSIG
13-04-28 LEBL 280030Z 33006KT 9999 RA SCT020 BKN045 10/09 Q1009 NOSIG
13-04-28 LEBL 280100Z 32006KT 9999 RA SCT020 BKN050 10/09 Q1009 NOSIG
13-04-28 LEBL 280130Z 34006KT 9999 RA SCT020 BKN050 10/09 Q1009 NOSIG
13-04-28 LEBL 280200Z 34004KT 9999 DZ FEW020 SCT045 10/09 Q1009 NOSIG
13-04-28 LEBL 280300Z 02010KT 9999 RA FEW020 SCT041 10/09 Q1009 NOSIG
13-04-28 LEBL 280330Z 36009KT 9999 RA FEW020 SCT041 10/08 Q1009 NOSIG
13-04-28 LEBL 280430Z 33007KT 9999 RA FEW020 SCT041 09/08 Q1008 NOSIG
13-04-28 LEBL 280500Z NIL
13-04-28 LEBL 280530Z 32009KT 9999 FEW020 SCT050 09/07 Q1008 RERA NOSIG
13-04-28 LEBL 280600Z 34011KT 310V010 9999 FEW020 SCT050 09/07 Q1008 NOSIG
13-04-28 LEBL 280630Z 34006G16KT 290V040 9999 RA FEW020 SCT050 09/07 Q1008 NOSIG
13-04-28 LEBL 280700Z 02006KT 350V070 9999 -RA FEW018 SCT035 09/07 Q1009 NOSIG
13-04-28 LEBL 280730Z 01008KT 300V070 8000 RA FEW018 BKN035 09/08 Q1008 NOSIG
13-04-28 LEBL 280800Z 03009KT 350V080 8000 RA FEW018 SCT035 BKN051 09/06 Q1009 NOSIG
13-04-28 LEBL NIL
13-04-28 LEBL 280830Z 03007KT 010V070 8000 RA FEW018 SCT030 BKN047 09/06 Q1009
13-04-28 LEBL 280900Z 36008KT 310V040 8000 RA FEW018 SCT030 BKN043 09/07 Q1009
13-04-28 LEBL 280930Z 35007KT 8000 DZ FEW015 SCT025 BKN043 09/07 Q1009 NOSIG
13-04-28 LEBL 281300Z 36007KT 300V060 9999 FEW012 SCT022 OVC035 10/08 Q1008 NOSIG
13-04-28 LEBL 281330Z 01010KT 350V050 9999 FEW012 SCT022 BKN033 11/07 Q1008 NOSIG
13-04-28 LEBL 281400Z 01009KT 9999 FEW012 SCT022 BKN035 11/06 Q1008 NOSIG
13-04-28 LEBL 281430Z 01005KT 340V040 6000 -RA FEW010 SCT018 BKN033 11/08 Q1008
13-04-28 LEBL 281500Z 36006KT 9999 FEW010 SCT018 BKN033 11/08 Q1008 NOSIG
13-04-28 LEBL 281530Z 36005KT 9999 FEW010 SCT018 BKN033 11/08 Q1008 NOSIG
13-04-28 LEBL 281600Z 02006KT 9999 FEW015 BKN033 11/08 Q1008 NOSIG
13-04-28 LEBL 281630Z 05011KT 9999 FEW015 BKN030 13/08 Q1008 NOSIG
13-04-28 LEBL 281700Z 06013KT 9999 FEW015 BKN030 12/07 Q1008 NOSIG
13-04-28 LEBL 281730Z 06017KT 9999 FEW017 BKN030 12/08 Q1008 NOSIG
13-04-28 LEBL 281800Z 07014KT 9999 FEW020 BKN030 12/08 Q1009 NOSIG
13-04-28 LEBL 281830Z 06015KT 020V080 9999 FEW020 BKN030 12/08 Q1009 NOSIG
13-04-28 LEBL 281900Z 06013G23KT 9999 FEW020 BKN030 12/08 Q1009 NOSIG
13-04-28 LEBL 281930Z 07013KT 9999 FEW020 BKN030 13/08 Q1010 NOSIG
13-04-28 LEBL 282000Z 06014KT 9999 FEW020 BKN040 13/08 Q1010 NOSIG
13-04-28 LEBL 282030Z 06012KT 9999 FEW020 BKN040 13/08 Q1010 NOSIG
13-04-28 LEBL 282100Z 05010KT 010V080 9999 FEW020 BKN040 12/08 Q1010 NOSIG
13-04-28 LEBL 282130Z NIL
13-04-28 LEBL 282130Z 05010KT 010V080 9999 FEW020 BKN040 12/08 Q1010 NOSIG
13-04-28 LEBL 282200Z 33005KT 9000 RA FEW020 BKN030 11/09 Q1011 NOSIG
13-04-28 LEBL 282230Z 33005KT 310V010 9000 DZ FEW020 BKN030 11/09 Q1011 NOSIG
13-04-28 LEBL 282300Z 33007KT 9000 DZ FEW020 BKN030 11/09 Q1011 NOSIG
13-04-28 LEBL 282330Z 32008KT 9000 DZ FEW020 BKN030 11/09 Q1011 NOSIG
13-04-29 LEBL 290000Z 33008KT 9000 DZ FEW020 BKN030 10/09 Q1010 NOSIG
13-04-29 LEBL 290030Z 33006KT 9999 DZ FEW020 BKN030 11/09 Q1010 NOSIG
13-04-29 LEBL 290100Z 34008KT 9999 DZ FEW020 BKN040 11/09 Q1010 NOSIG
13-04-29 LEBL 290130Z 32005KT 9999 DZ FEW020 BKN040 11/09 Q1010 NOSIG
13-04-29 LEBL 290200Z 32005KT 9999 DZ FEW020 BKN040 11/10 Q1010 NOSIG
13-04-29 LEBL 290230Z 33005KT 9999 DZ FEW020 BKN040 11/10 Q1010 NOSIG
13-04-29 LEBL 290300Z NIL
13-04-29 LEBL 290300Z 33004KT 9999 DZ FEW020 BKN040 11/10 Q1010 NOSIG
13-04-29 LEBL 290330Z 31004KT 280V340 9999 DZ FEW020 BKN040 11/10 Q1011 NOSIG
13-04-29 LEBL 290400Z VRB02KT 9999 RA FEW020 BKN040 11/10 Q1011 NOSIG
13-04-29 LEBL 290430Z 34005KT 9999 RA FEW020 BKN040 11/10 Q1010 NOSIG
13-04-29 LEBL 290500Z 33005KT 9999 RA FEW020 BKN040 11/10 Q1010 NOSIG
13-04-29 LEBL 290530Z 33006KT 9999 RA FEW020 BKN055 11/10 Q1010 NOSIG
13-04-29 LEBL 290600Z 33007KT 9999 RA FEW020 BKN033 11/10 Q1010 NOSIG
13-04-29 LEBL 290630Z 33007G17KT 280V360 9999 -RA FEW020 BKN033 11/10 Q1010 NOSIG
13-04-29 LEBL 290700Z 33007KT 270V020 9999 -RA FEW020 BKN033 11/10 Q1010 NOSIG
13-04-29 LEBL 290730Z 33008KT 300V010 9999 RA FEW020 BKN033 11/10 Q1010 NOSIG
13-04-29 LEBL 290800Z 35006KT 220V030 9999 RA FEW020 BKN033 12/10 Q1010 NOSIG
13-04-29 LEBL 290830Z 36006KT 310V050 9999 -RA FEW020 BKN033 12/11 Q1010 NOSIG
13-04-29 LEBL 290900Z 03010KT 360V070 9999 FEW020 BKN045 13/12 Q1010 NOSIG
13-04-29 LEBL 290930Z 02008KT 350V050 9999 -RA SCT020 BKN045 14/12 Q1010 NOSIG
13-04-29 LEBL 291000Z 01006KT 9999 DZ BKN028 14/12 Q1009 NOSIG
13-04-29 LEBL 291030Z 01006KT 9999 RA BKN026 14/12 Q1008 NOSIG
13-04-29 LEBL 291100Z 03007KT 9999 -RA BKN025 14/12 Q1008 NOSIG
13-04-29 LEBL 291130Z 03007KT 360V060 9999 -RA BKN025 14/12 Q1008 NOSIG
13-04-29 LEBL 291200Z 04009KT 020V100 8000 RA BKN025 14/12 Q1008 TEMPO TSRA
13-04-29 LEBL 291230Z 05014KT 9000 RA FEW012 BKN026 15/13 Q1007 TEMPO TSRA
13-04-29 LEBL 291237Z 06016KT 9999 FEW012 BKN026 15/12 Q1007 NOSIG
13-04-29 LEBL 291300Z 05019KT 9999 FEW012 BKN026 15/12 Q1007 NOSIG
13-04-29 LEBL 291330Z 06024KT 9000 -RA FEW012 BKN026 15/12 Q1007 NOSIG
13-04-29 LEBL 291430Z 06026G37KT 9999 FEW012 BKN035 15/12 Q1006 NOSIG
13-04-29 LEBL 291500Z 06025KT 9999 FEW012 BKN045 16/12 Q1006 NOSIG
13-04-29 LEBL 291530Z 06022KT 030V090 9999 FEW012 BKN030 16/12 Q1006 NOSIG
13-04-29 LEBL 291600Z 06020KT 9999 FEW012 BKN030 16/12 Q1006 NOSIG
13-04-29 LEBL 291630Z 06018KT 9999 FEW012 BKN029 15/12 Q1007 NOSIG
13-04-29 LEBL 291700Z 06019KT 9999 FEW012 BKN023 15/12 Q1007 NOSIG
13-04-29 LEBL 291730Z 06020KT 030V100 9999 FEW012 BKN025 15/12 Q1007 NOSIG
13-04-29 LEBL 291800Z 06021KT 9999 FEW012 BKN025 15/12 Q1007 NOSIG
13-04-29 LEBL 291830Z 05016KT 9999 FEW012 BKN025 15/11 Q1007 NOSIG
13-04-29 LEBL 291910Z 31006KT 280V340 6000 DZ FEW010 BKN023 14/13 Q1008 NOSIG
13-04-29 LEBL 292000Z 31008KT 260V340 3000 RA FEW010 SCT014 BKN023 13/12 Q1009 NOSIG
13-04-29 LEBL 292030Z 31009KT 6000 DZ FEW011 SCT016 BKN022 13/12 Q1009 NOSIG
13-04-29 LEBL 292100Z 32007KT 300V010 6000 DZ FEW011 SCT016 BKN022 13/12 Q1009
13-04-30 LEBL 300117Z 01013KT 3500 -RA BR FEW002 BKN017 12/12 Q1007 NOSIG
13-04-30 LEBL 300130Z 02003KT 340V100 9000 FEW004 BKN015 13/12 Q1008 NOSIG
13-04-30 LEBL 300146Z 22013KT 9000 SCT004 BKN009 13/13 Q1009 NOSIG
13-04-30 LEBL 300200Z 22007KT 190V250 9000 SCT006 BKN010 13/13 Q1009 NOSIG
13-04-30 LEBL 300230Z 16003KT 120V210 7000 SCT008 BKN013 14/13 Q1010 NOSIG NOSIG
13-04-30 LEBL 300330Z 18004KT 4000 -RA SCT004 BKN009 12/12 Q1010 NOSIG
13-04-30 LEBL 300400Z 24007KT 4000 -RA FEW004 SCT009 BKN015 12/12 Q1010 NOSIG
13-04-30 LEBL 300430Z 23007KT 4000 -RA BR FEW004 SCT012 BKN017 12/11 Q1010 NOSIG
13-04-30 LEBL 300500Z 23009KT 4500 -RA BR FEW004 SCT013 BKN020 12/11 Q1011 NOSIG
13-04-30 LEBL 300530Z 25005KT 9999 FEW007 SCT016 BKN025 12/11 Q1011 NOSIG
13-04-30 LEBL 300600Z 33004KT 290V010 9999 FEW010 SCT022 BKN030 13/12 Q1011 NOSIG
13-04-30 LEBL 300630Z 29003KT 220V350 9999 FEW007 SCT012 BKN020 13/12 Q1012 NOSIG
13-04-30 LEBL 300700Z 31009G19KT 280V350 9999 SCT007 BKN012 12/11 Q1012 NOSIG
13-04-30 LEBL 300730Z 32006KT 280V010 9999 SCT007 BKN011 13/11 Q1012 NOSIG
13-04-30 LEBL 300800Z 34002KT 9999 FEW007 BKN009 13/12 Q1012 NOSIG
13-04-30 LEBL 300830Z 22010KT 9999 FEW007 BKN011 13/12 Q1013 NOSIG
13-04-30 LEBL 300900Z 24009KT 9999 SCT018 14/12 Q1013 NOSIG
13-04-30 LEBL 300930Z 22013KT 9999 FEW018 15/12 Q1013 NOSIG
13-04-30 LEBL 301000Z 21014KT 9999 FEW018 15/10 Q1013 NOSIG
13-04-30 LEBL NIL
13-04-30 LEBL 301130Z 22016KT 9999 FEW020 16/08 Q1013 NOSIG
13-04-30 LEBL 301200Z 22014KT 9999 FEW020 16/09 Q1013 NOSIG
13-04-30 LEBL 301230Z 22014KT 9999 FEW020 16/10 Q1014 NOSIG
13-04-30 LEBL 301300Z 22015KT 9999 FEW020 16/09 Q1014 NOSIG
13-04-30 LEBL 301330Z 24016KT 9999 FEW020 16/10 Q1013 NOSIG
13-04-30 LEBL 301400Z 22015KT 9999 FEW020 17/08 Q1013 NOSIG
13-04-30 LEBL 301430Z 21014KT 9999 FEW025 16/09 Q1013 NOSIG
13-04-30 LEBL 301500Z 21016KT 9999 FEW025 16/09 Q1013 NOSIG
13-04-30 LEBL 301530Z 22020KT 9999 FEW025 16/09 Q1013 NOSIG
13-04-30 LEBL 301600Z 23016KT 9999 FEW014 15/10 Q1013 NOSIG
13-04-30 LEBL 301630Z 23015KT 9999 FEW014 16/10 Q1013 NOSIG
13-04-30 LEBL 301700Z 21013KT 9999 FEW014 15/10 Q1014 NOSIG
13-04-30 LEBL 301730Z 22011KT 9999 FEW014 15/11 Q1014 NOSIG
13-04-30 LEBL 301800Z NIL
13-04-30 LEBL 301830Z VRB01KT 9999 FEW014 16/08 Q1013 NOSIG
13-04-30 LEBL 301900Z 19008KT 9999 FEW014 14/11 Q1014 NOSIG
13-04-30 LEBL 301930Z 20010KT 9999 FEW014 14/11 Q1015 NOSIG
13-04-30 LEBL 302000Z 21008KT 9999 FEW015 14/11 Q1015 NOSIG
13-04-30 LEBL 302030Z 22009KT 9999 FEW015 13/11 Q1015 NOSIG
13-04-30 LEBL 302100Z 23009KT 9999 FEW015 13/11 Q1016 NOSIG
13-04-30 LEBL 302130Z 23007KT 9999 FEW015 13/11 Q1016 NOSIG
13-04-30 LEBL 302200Z 25006KT 9999 FEW015 13/11 Q1016 NOSIG
13-04-30 LEBL 302230Z 25005KT 9999 FEW015 12/11 Q1016 NOSIG
13-04-30 LEBL 302300Z 25006KT 220V290 9999 FEW015 12/11 Q1016 NOSIG
13-04-30 LEBL 302330Z 26004KT 9999 FEW015 12/11 Q1016 NOSIG
13-05-01 LEBL 010000Z NIL
13-05-01 LEBL 010030Z NIL
13-05-01 LEBL 010030Z 36002KT 9999 FEW015 12/09 Q1015 NOSIG
13-05-01 LEBL 010100Z VRB02KT 9999 FEW015 12/09 Q1015 NOSIG
13-05-01 LEBL 010130Z 31004KT 9999 FEW015 11/09 Q1015 NOSIG
13-05-01 LEBL 010200Z 31005KT 9999 FEW015 12/09 Q1015 NOSIG
13-05-01 LEBL 010230Z 32005KT 9999 FEW015 12/09 Q1015 NOSIG
13-05-01 LEBL 010300Z 30005KT 9999 FEW015 12/09 Q1015 NOSIG
13-05-01 LEBL 010330Z 32002KT 9999 FEW015 12/09 Q1016 NOSIG
13-05-01 LEBL 010400Z 31004KT 9999 FEW015 12/09 Q1016 NOSIG
13-05-01 LEBL 010430Z 30004KT 9999 FEW015 11/09 Q1017 NOSIG
13-05-01 LEBL 010500Z 33003KT 300V020 9999 FEW015 11/08 Q1017 NOSIG
13-05-01 LEBL 010530Z 32008KT 9999 FEW015 11/08 Q1017 NOSIG
13-05-01 LEBL 010600Z 32007KT 280V350 9999 FEW015 11/07 Q1016 NOSIG
13-05-01 LEBL 010630Z 33009KT 290V030 9999 FEW015 12/07 Q1016 NOSIG
13-05-01 LEBL 010700Z 32008G19KT 280V350 9999 FEW020 12/08 Q1016 NOSIG
13-05-01 LEBL 010730Z 33007KT 250V010 9999 FEW020 14/08 Q1016 NOSIG
13-05-01 LEBL 010800Z 33005KT 9999 FEW020 15/08 Q1017 NOSIG
13-05-01 LEBL 010830Z 23003KT 170V330 9999 FEW020 16/07 Q1017 NOSIG
13-05-01 LEBL 010900Z 21005KT 170V240 9999 FEW020 17/05 Q1017 NOSIG
13-05-01 LEBL 010930Z 20008KT 160V220 9999 FEW020 16/07 Q1017 NOSIG
13-05-01 LEBL 011000Z 21008KT 9999 FEW020 16/07 Q1017 NOSIG
13-05-01 LEBL 011030Z 20009KT 160V230 9999 FEW025 17/10 Q1017 NOSIG
13-05-01 LEBL 011100Z 19009KT 150V220 9999 FEW025 16/10 Q1017 NOSIG
13-05-01 LEBL 011130Z 20009KT 130V230 9999 FEW025 16/10 Q1017 NOSIG
13-05-01 LEBL 011200Z 21008KT 180V240 9999 FEW025 17/10 Q1017 NOSIG
13-05-01 LEBL 011230Z 20011KT 9999 FEW025 17/11 Q1017 NOSIG
13-05-01 LEBL 011300Z 21011KT 180V240 9999 FEW025 17/09 Q1017 NOSIG
13-05-01 LEBL 011330Z 20012KT 9999 FEW025 17/10 Q1016 NOSIG
13-05-01 LEBL 011400Z 18013KT 9999 FEW025 17/10 Q1016 NOSIG
13-05-01 LEBL 011430Z 18014KT 9999 FEW025 17/11 Q1016 NOSIG
13-05-01 LEBL 011500Z 19013KT 9999 FEW025 17/11 Q1016 NOSIG
13-05-01 LEBL 011530Z 19011KT 9999 FEW025 17/11 Q1016 NOSIG
13-05-01 LEBL 011600Z 19010KT 160V220 9999 FEW025 16/11 Q1016 NOSIG
13-05-01 LEBL 011630Z 19009KT 160V220 9999 FEW020 16/11 Q1016 NOSIG
13-05-01 LEBL 011700Z 20010KT 9999 FEW020 16/11 Q1016 NOSIG
13-05-01 LEBL 011730Z 21008KT 9999 FEW020 16/11 Q1016 NOSIG
13-05-01 LEBL 011800Z 21009KT 9999 FEW020 16/11 Q1016 NOSIG
13-05-01 LEBL 011830Z 23008KT 9999 FEW025 15/10 Q1016 NOSIG
13-05-01 LEBL 011900Z 23008KT 9999 FEW025 14/10 Q1016 NOSIG
13-05-01 LEBL 011930Z 24007KT 9999 FEW025 14/10 Q1017 NOSIG
13-05-01 LEBL 012000Z 22005KT 9999 FEW025 14/10 Q1017 NOSIG
13-05-01 LEBL 012030Z 20006KT 9999 FEW025 14/10 Q1017 NOSIG
13-05-01 LEBL 012100Z 22007KT 9999 FEW025 14/10 Q1017 NOSIG
13-05-01 LEBL 012130Z 22007KT 9999 FEW025 13/10 Q1017 NOSIG
13-05-01 LEBL 012200Z 25007KT 9999 FEW018 13/09 Q1017 NOSIG
13-05-01 LEBL 012230Z 27004KT 9999 FEW018 13/09 Q1017 NOSIG
13-05-01 LEBL 012300Z VRB02KT 9999 FEW018 13/08 Q1017 NOSIG
13-05-01 LEBL 012330Z VRB01KT 9999 FEW018 12/08 Q1017 NOSIG
13-05-02 LEBL 020000Z 31002KT 9999 FEW020 12/08 Q1017 NOSIG
13-05-02 LEBL 020030Z 32004KT 9999 FEW020 12/08 Q1017 NOSIG
13-05-02 LEBL 020100Z 32003KT 9999 FEW020 12/08 Q1017 NOSIG
13-05-02 LEBL 020130Z 31005KT 9999 FEW022 12/08 Q1016 NOSIG
13-05-02 LEBL 020200Z 31006KT 9999 FEW022 11/08 Q1016 NOSIG
13-05-02 LEBL 020230Z 31007KT 9999 FEW022 11/08 Q1016 NOSIG
13-05-02 LEBL 020300Z 31007KT 9999 FEW025 11/08 Q1016 NOSIG
13-05-02 LEBL 020330Z 32005KT 9999 FEW025 11/08 Q1015 NOSIG
13-05-02 LEBL 020400Z 31005KT 9999 FEW025 11/08 Q1015 NOSIG
13-05-02 LEBL 020430Z 31007KT 9999 FEW025 11/08 Q1015 NOSIG
13-05-02 LEBL 020500Z 32007KT 9999 FEW025 10/08 Q1015 NOSIG
13-05-02 LEBL 020530Z 32007KT 9999 FEW025 10/08 Q1016 NOSIG
13-05-02 LEBL 020600Z 32009KT 290V350 9999 FEW025 11/08 Q1016 NOSIG
13-05-02 LEBL 020630Z 31007G17KT 260V010 9999 FEW025 11/08 Q1016 NOSIG
13-05-02 LEBL 020700Z 31006KT 210V360 9999 FEW025 12/08 Q1016 NOSIG
13-05-02 LEBL 020730Z NIL
13-05-02 LEBL 020800Z 31006KT 280V360 9999 FEW025 15/09 Q1016 NOSIG
13-05-02 LEBL 020830Z 32005KT 290V010 9999 FEW025 16/09 Q1016 NOSIG
13-05-02 LEBL 020900Z 08008KT 9999 FEW025 17/10 Q1016 NOSIG
13-05-02 LEBL 020930Z 05010KT 020V100 9999 FEW025 17/08 Q1017 NOSIG
13-05-02 LEBL 021000Z 07011KT 9999 FEW025 17/08 Q1017 NOSIG
13-05-02 LEBL 021030Z 08010KT 050V110 9999 FEW025 17/11 Q1017 NOSIG
13-05-02 LEBL 021100Z 09011KT 9999 FEW025 16/11 Q1017 NOSIG
13-05-02 LEBL 021130Z 09011KT 9999 FEW025 16/11 Q1017 NOSIG
13-05-02 LEBL 021200Z 11010KT 9999 FEW025 16/11 Q1017 NOSIG
13-05-02 LEBL 021230Z 12007KT 080V150 9999 FEW025 16/11 Q1017 NOSIG
13-05-02 LEBL 021300Z 11007KT 070V150 9999 FEW025 16/11 Q1017 NOSIG
13-05-02 LEBL 021330Z 11009KT 9999 FEW015 16/11 Q1017 NOSIG
13-05-02 LEBL 021400Z 14008KT 100V170 9999 FEW020 16/11 Q1017 NOSIG
13-05-02 LEBL 021430Z 13005KT 080V180 9999 FEW020 17/10 Q1016 NOSIG
13-05-02 LEBL 021500Z 12005KT 100V160 9999 FEW025 17/10 Q1016 NOSIG
13-05-02 LEBL 021530Z 11005KT 050V160 9999 FEW025 17/10 Q1016 NOSIG
13-05-02 LEBL 021600Z 13006KT 090V160 9999 FEW025 16/11 Q1016 NOSIG
13-05-02 LEBL 021630Z 14006KT 110V170 9999 FEW025 16/11 Q1016 NOSIG
13-05-02 LEBL 021700Z 18006KT 9999 FEW025 16/12 Q1016 NOSIG
13-05-02 LEBL 021730Z 20007KT 160V220 9999 FEW025 16/12 Q1016 NOSIG
13-05-02 LEBL 021800Z 21006KT 9999 FEW025 16/12 Q1016 NOSIG
13-05-02 LEBL 021830Z 21006KT 180V240 9999 FEW025 15/12 Q1016 NOSIG
13-05-02 LEBL 021900Z 21004KT 9999 FEW025 15/12 Q1016 NOSIG
13-05-02 LEBL 021930Z VRB02KT 9999 FEW025 15/12 Q1016 NOSIG
13-05-02 LEBL 022000Z 25004KT 220V280 9999 FEW025 15/12 Q1016 NOSIG
13-05-02 LEBL 022030Z VRB02KT 9999 FEW025 16/10 Q1016 NOSIG
13-05-02 LEBL 022100Z VRB02KT 9999 FEW025 15/08 Q1016 NOSIG
13-05-02 LEBL 022130Z 12002KT 9999 FEW025 16/08 Q1016 NOSIG
13-05-02 LEBL 022200Z 01003KT 330V070 9999 FEW025 16/07 Q1016 NOSIG
13-05-02 LEBL 022230Z 31004KT 9999 FEW025 15/09 Q1016 NOSIG
13-05-02 LEBL 022300Z 01005KT 9999 FEW025 14/08 Q1017 NOSIG
13-05-02 LEBL 022330Z 32007KT 9999 FEW025 15/08 Q1017 NOSIG
13-05-03 LEBL 030000Z 33006KT 9999 FEW025 14/08 Q1017 NOSIG
13-05-03 LEBL 030030Z 33006KT 9999 FEW025 13/08 Q1017 NOSIG
13-05-03 LEBL 030100Z 33006KT 9999 FEW025 13/08 Q1016 NOSIG
13-05-03 LEBL 030130Z 34006KT 9999 FEW025 13/08 Q1017 NOSIG
13-05-03 LEBL 030200Z 35004KT 9999 FEW025 13/07 Q1017 NOSIG
13-05-03 LEBL 030230Z 34004KT 310V010 9999 FEW025 13/07 Q1017 NOSIG
13-05-03 LEBL 030300Z 33007KT 9999 FEW025 12/07 Q1017 NOSIG
13-05-03 LEBL 030330Z 33008KT 9999 FEW025 12/07 Q1016 NOSIG
13-05-03 LEBL 030400Z 33011KT 9999 FEW025 12/07 Q1016 NOSIG
13-05-03 LEBL 030430Z 33011KT 9999 FEW025 11/07 Q1017 NOSIG
13-05-03 LEBL 030500Z 33012KT 9999 FEW025 11/07 Q1017 NOSIG
13-05-03 LEBL 030530Z 33013G23KT 310V020 9999 FEW025 11/07 Q1017 NOSIG
13-05-03 LEBL 030600Z 33013KT 9999 FEW025 11/07 Q1017 NOSIG
13-05-03 LEBL 030630Z 33014KT 9999 FEW025 12/07 Q1018 NOSIG
13-05-03 LEBL 030700Z 33014G26KT 300V360 9999 FEW025 13/07 Q1018 NOSIG
13-05-03 LEBL 030730Z 33014KT 9999 FEW025 13/07 Q1018 NOSIG
13-05-03 LEBL 030800Z 32013KT 300V020 9999 FEW025 14/07 Q1018 NOSIG
13-05-03 LEBL 030830Z 33013KT 9999 FEW025 15/07 Q1018 NOSIG
13-05-03 LEBL 030900Z 33011KT 260V010 9999 FEW025 16/07 Q1018 NOSIG
13-05-03 LEBL 030930Z 33006KT 270V020 9999 FEW025 16/07 Q1019 NOSIG
13-05-03 LEBL 031000Z 34002KT 9999 FEW035 17/08 Q1019 NOSIG
13-05-03 LEBL 031030Z 16008KT 120V200 9999 FEW035 17/08 Q1018 NOSIG
13-05-03 LEBL 031100Z 18009KT 150V210 9999 FEW035 17/09 Q1018 NOSIG
13-05-03 LEBL 031130Z 19009KT 9999 FEW035 17/09 Q1018 NOSIG
13-05-03 LEBL 031200Z 18009KT 9999 FEW025 17/09 Q1018 NOSIG
13-05-03 LEBL 031230Z 18010KT 160V230 9999 FEW025 17/10 Q1018 NOSIG
13-05-03 LEBL 031300Z 20010KT 160V230 9999 FEW025 17/09 Q1018 NOSIG
13-05-03 LEBL 031330Z 20010KT 9999 FEW025 17/11 Q1018 NOSIG
13-05-03 LEBL 031400Z 22012KT 9999 FEW025 17/10 Q1018 NOSIG
13-05-03 LEBL 031430Z 22012KT 9999 FEW025 18/10 Q1017 NOSIG
13-05-03 LEBL 031500Z 21012KT 9999 FEW025 17/10 Q1017 NOSIG
13-05-03 LEBL 031530Z 22011KT 9999 FEW025 17/10 Q1017 NOSIG
13-05-03 LEBL 031600Z 21011KT 9999 FEW025 17/10 Q1017 NOSIG
13-05-03 LEBL 031630Z 21011KT 9999 FEW025 16/10 Q1017 NOSIG
13-05-03 LEBL 031700Z 22011KT 9999 FEW025 17/10 Q1017 NOSIG
13-05-03 LEBL 031730Z 22010KT 9999 FEW025 16/09 Q1017 NOSIG
13-05-03 LEBL 031800Z 23009KT 9999 FEW035 16/09 Q1017 NOSIG
13-05-03 LEBL 031830Z 23009KT 9999 FEW035 15/10 Q1018 NOSIG
13-05-03 LEBL 031900Z 22006KT 9999 FEW030 15/10 Q1018 NOSIG
13-05-03 LEBL 031930Z 21005KT 9999 FEW030 15/10 Q1018 NOSIG
13-05-03 LEBL 032000Z 21006KT 9999 FEW030 15/10 Q1019 NOSIG
13-05-03 LEBL 032030Z 21004KT 9999 FEW030 15/10 Q1019 NOSIG
13-05-03 LEBL 032100Z 19005KT 9999 FEW030 15/11 Q1019 NOSIG
13-05-03 LEBL 032130Z 21006KT 9999 FEW030 14/11 Q1019 NOSIG
13-05-03 LEBL 032200Z NIL
13-05-03 LEBL 032200Z 22006KT 9999 FEW030 14/11 Q1019 NOSIG
13-05-03 LEBL 032230Z 22004KT 190V250 9999 FEW025 14/11 Q1019 NOSIG
13-05-03 LEBL 032300Z 26005KT 9999 FEW025 14/11 Q1019 NOSIG
13-05-03 LEBL 032330Z 28006KT 250V330 9999 FEW025 13/10 Q1019 NOSIG
13-05-04 LEBL 040000Z 00000KT 9999 FEW025 13/09 Q1019 NOSIG
13-05-04 LEBL 040030Z 28002KT 9999 FEW025 13/09 Q1019 NOSIG
13-05-04 LEBL 040100Z 29005KT 230V310 9999 FEW025 13/09 Q1018 NOSIG
13-05-04 LEBL 040130Z 27005KT 9999 FEW025 14/09 Q1018 NOSIG
13-05-04 LEBL 040200Z 30004KT 9999 FEW025 13/08 Q1018 NOSIG
13-05-04 LEBL 040230Z 33004KT 9999 FEW025 12/09 Q1018 NOSIG
13-05-04 LEBL 040300Z 30004KT 9999 FEW025 12/08 Q1018 NOSIG
13-05-04 LEBL 040330Z 31006KT 9999 FEW025 12/08 Q1018 NOSIG
13-05-04 LEBL 040400Z 31007KT 9999 FEW025 13/08 Q1018 NOSIG
13-05-04 LEBL 040430Z 30007KT 9999 FEW025 12/08 Q1018 NOSIG
13-05-04 LEBL 040500Z 32005KT 9999 FEW025 13/08 Q1019 NOSIG
13-05-04 LEBL 040530Z VRB02KT 9999 FEW025 12/08 Q1019 NOSIG
13-05-04 LEBL 040600Z 32007KT 280V350 9999 FEW025 13/08 Q1019 NOSIG
13-05-04 LEBL 040630Z 33008KT 9999 FEW025 14/08 Q1019 NOSIG
13-05-04 LEBL 040700Z 34010KT 290V010 9999 FEW025 15/09 Q1019 NOSIG
13-05-04 LEBL 040730Z 34010KT 300V020 CAVOK 15/08 Q1019 NOSIG
13-05-04 LEBL 040800Z 33009KT 310V010 CAVOK 16/08 Q1019 NOSIG
13-05-04 LEBL 040830Z 34006KT 300V360 9999 FEW025 17/08 Q1019 NOSIG
13-05-04 LEBL 040900Z VRB02KT 9999 FEW025 18/08 Q1019 NOSIG
13-05-04 LEBL 040930Z 14007KT 9999 FEW025 17/10 Q1019 NOSIG
13-05-04 LEBL 041000Z 18007KT 120V250 9999 FEW025 16/11 Q1019 NOSIG
13-05-04 LEBL 041030Z 19010KT 9999 FEW025 16/10 Q1019 NOSIG
13-05-04 LEBL 041100Z 20009KT 9999 FEW025 16/10 Q1019 NOSIG
13-05-04 LEBL 041130Z 20010KT 9999 FEW025 17/11 Q1019 NOSIG
13-05-04 LEBL 041200Z 20009KT 9999 FEW025 18/11 Q1019 NOSIG
13-05-04 LEBL 041230Z 21012KT 9999 FEW025 16/10 Q1019 NOSIG
13-05-04 LEBL 041300Z 21013KT 9999 FEW025 17/09 Q1018 NOSIG
13-05-04 LEBL 041330Z 21014KT 9999 FEW025 18/10 Q1018 NOSIG
13-05-04 LEBL 041400Z 22015KT 9999 FEW025 17/10 Q1018 NOSIG
13-05-04 LEBL 041430Z 21013KT 9999 FEW025 18/11 Q1018 NOSIG
13-05-04 LEBL 041500Z 21014KT 9999 FEW025 17/11 Q1018 NOSIG
13-05-04 LEBL 041530Z 22013KT 9999 FEW025 18/10 Q1018 NOSIG
13-05-04 LEBL 041600Z 22013KT 9999 FEW025 18/10 Q1018 NOSIG
13-05-04 LEBL 041630Z 19008KT 9999 FEW025 17/10 Q1018 NOSIG
13-05-04 LEBL 041700Z 18005KT 150V220 9999 FEW025 17/10 Q1018 NOSIG
13-05-04 LEBL 041730Z 20004KT 140V240 9999 FEW025 16/10 Q1019 NOSIG
13-05-04 LEBL 041800Z 20004KT 160V240 9999 FEW020 FEW025TCU 16/11 Q1019 NOSIG
13-05-04 LEBL 041830Z 21003KT 150V270 9999 FEW020 FEW025TCU 16/10 Q1019 BECMG TSRA
13-05-04 LEBL 041830Z 21003KT 150V270 9999 FEW020 FEW025TCU 16/10 Q1019 BECMG SHRA
13-05-04 LEBL 041900Z 19003KT 140V240 9999 FEW020 FEW025TCU 16/09 Q1020 BECMG SHRA
13-05-04 LEBL 041930Z 01007KT 340V040 9999 RA FEW020 FEW025TCU 15/11 Q1020 NOSIG
13-05-04 LEBL 042030Z VRB01KT 9999 SCT020 14/12 Q1020 NOSIG
13-05-04 LEBL 042100Z 31003KT 240V340 9999 FEW020 14/12 Q1020 NOSIG
13-05-04 LEBL 042130Z 32006KT 9999 FEW020 14/12 Q1021 NOSIG
13-05-04 LEBL 042200Z 31005KT 9999 FEW020 14/12 Q1020 NOSIG
13-05-04 LEBL 042230Z 33006KT 9999 FEW020 13/11 Q1021 NOSIG
13-05-04 LEBL 042300Z 31007KT 9999 FEW020 13/11 Q1021 NOSIG
13-05-04 LEBL 042330Z 31007KT 9999 FEW020 13/11 Q1020 NOSIG
13-05-05 LEBL 050000Z 30007KT 9999 FEW020 13/10 Q1020 NOSIG
13-05-05 LEBL 050030Z 31007KT 9999 FEW020 12/10 Q1020 NOSIG
13-05-05 LEBL 050100Z 29006KT 9999 FEW020 12/10 Q1020 NOSIG
13-05-05 LEBL 050130Z 32005KT 9999 FEW020 12/10 Q1019 NOSIG
13-05-05 LEBL 050200Z 29007KT 9999 FEW020 12/10 Q1019 NOSIG
13-05-05 LEBL 050230Z 30005KT 270V330 9999 FEW010 12/10 Q1019 NOSIG
13-05-05 LEBL 050300Z 32006KT 9999 FEW010 12/10 Q1019 NOSIG
13-05-05 LEBL 050330Z 32006KT 9999 FEW010 12/10 Q1019 NOSIG
13-05-05 LEBL 050400Z 31007KT 9999 FEW020 11/09 Q1019 NOSIG
13-05-05 LEBL 050430Z 32008KT 9999 FEW020 11/09 Q1019 NOSIG
13-05-05 LEBL 050500Z 32007KT 9999 FEW020 11/09 Q1019 NOSIG
13-05-05 LEBL 050530Z 32009KT CAVOK 11/09 Q1019 NOSIG
13-05-05 LEBL 050600Z 32009KT 280V350 CAVOK 11/09 Q1019 NOSIG
13-05-05 LEBL 050630Z 31008KT 270V360 CAVOK 12/10 Q1019 NOSIG
13-05-05 LEBL 050700Z 31007KT 270V340 CAVOK 13/10 Q1019 NOSIG
13-05-05 LEBL 050730Z 30006KT 260V350 CAVOK 14/10 Q1019 NOSIG
13-05-05 LEBL 050800Z 29006KT CAVOK 16/11 Q1019 NOSIG
13-05-05 LEBL 050830Z 29003KT 240V360 CAVOK 16/11 Q1019 NOSIG
13-05-05 LEBL 050900Z 24007KT 9999 FEW020 17/11 Q1019 NOSIG
13-05-05 LEBL 050930Z 21008KT 170V240 9999 FEW020 16/11 Q1019 NOSIG
13-05-05 LEBL 051000Z 20009KT 9999 FEW020 17/11 Q1019 NOSIG
13-05-05 LEBL 051030Z 21009KT 9999 FEW020 17/11 Q1019 NOSIG
13-05-05 LEBL 051100Z 21012KT 9999 FEW020 18/12 Q1019 NOSIG
13-05-05 LEBL 051130Z 21014KT 9999 FEW020 17/12 Q1019 NOSIG
13-05-05 LEBL 051200Z 22013KT 9999 FEW020 18/13 Q1019 NOSIG
13-05-05 LEBL 051230Z 21013KT 9999 FEW020 17/10 Q1018 NOSIG
13-05-05 LEBL 051300Z 21015KT 9999 FEW020 14/08 Q1018 NOSIG
13-05-05 LEBL 051330Z 22016KT 9999 FEW020 17/11 Q1018 NOSIG
13-05-05 LEBL 051400Z 22016KT 9999 FEW020 17/11 Q1018 NOSIG
13-05-05 LEBL 051430Z 21014KT 9999 FEW020 17/11 Q1018 NOSIG
13-05-05 LEBL 051500Z 21015KT 9999 FEW020 17/10 Q1018 NOSIG
13-05-05 LEBL 051530Z 21014KT 9999 FEW020 17/08 Q1017 NOSIG
13-05-05 LEBL 051600Z 22012KT 9999 FEW020 16/09 Q1018 NOSIG
13-05-05 LEBL 051630Z 21012KT 9999 FEW020 13/07 Q1018 NOSIG
13-05-05 LEBL 051700Z 21011KT 9999 FEW020 17/13 Q1018 NOSIG
13-05-05 LEBL 051730Z 20008KT 9999 FEW020 17/12 Q1018 NOSIG
13-05-05 LEBL 051800Z 18006KT 130V210 9999 FEW020 16/12 Q1019 NOSIG
13-05-05 LEBL 051830Z 12005KT 080V160 9999 FEW020 16/11 Q1019 NOSIG
13-05-05 LEBL 051900Z 09003KT 9999 FEW020 16/11 Q1019 NOSIG
13-05-05 LEBL 051930Z 10004KT 9999 -RA FEW020 16/11 Q1019 NOSIG
13-05-05 LEBL 052000Z VRB02KT 9999 FEW020 16/11 Q1020 NOSIG
13-05-05 LEBL 052030Z 15002KT 9999 FEW020 16/11 Q1020 NOSIG
13-05-05 LEBL 052100Z 25005KT 220V280 9999 FEW020 16/11 Q1020 NOSIG
13-05-05 LEBL 052130Z 27003KT 9999 FEW020 15/11 Q1020 NOSIG
13-05-05 LEBL 052200Z 27004KT 9999 FEW020 15/11 Q1020 NOSIG
13-05-05 LEBL 052230Z 25005KT 230V290 9999 FEW020 14/10 Q1020 NOSIG
13-05-05 LEBL 052300Z 25007KT 9999 FEW020 14/09 Q1020 NOSIG
13-05-05 LEBL 052330Z 26006KT 9999 FEW020 14/10 Q1020 NOSIG
13-05-06 LEBL 060000Z 28002KT 9999 FEW020 14/09 Q1020 NOSIG
13-05-06 LEBL 060030Z 27004KT 9999 FEW020 15/11 Q1020 NOSIG
13-05-06 LEBL 060100Z 27004KT CAVOK 14/09 Q1019 NOSIG
13-05-06 LEBL 060130Z 28003KT CAVOK 14/09 Q1019 NOSIG
13-05-06 LEBL 060200Z 29005KT 250V310 CAVOK 14/09 Q1019 NOSIG
13-05-06 LEBL 060230Z 29007KT CAVOK 14/09 Q1019 NOSIG
13-05-06 LEBL 060300Z 30006KT 9999 FEW025 14/09 Q1019 NOSIG
13-05-06 LEBL 060330Z 29008KT 9999 FEW025 14/09 Q1019 NOSIG
13-05-06 LEBL 060400Z 29008KT 9999 FEW025 14/09 Q1018 NOSIG
13-05-06 LEBL 060430Z 30009KT CAVOK 14/09 Q1018 NOSIG
13-05-06 LEBL 060500Z 32012KT CAVOK 13/09 Q1018 NOSIG
13-05-06 LEBL 060530Z 32011KT CAVOK 13/09 Q1019 NOSIG
13-05-06 LEBL 060600Z 31010KT 250V340 CAVOK 14/09 Q1019 NOSIG
13-05-06 LEBL 060630Z 29009KT 220V330 CAVOK 15/10 Q1019 NOSIG
13-05-06 LEBL 060700Z 30008G18KT 250V340 CAVOK 16/12 Q1019 NOSIG
13-05-06 LEBL 060730Z 30005KT 260V350 CAVOK 16/12 Q1019 NOSIG
13-05-06 LEBL 060800Z 22004KT 190V250 CAVOK 16/12 Q1019 NOSIG
13-05-06 LEBL 060830Z 23005KT 190V270 CAVOK 16/12 Q1019 NOSIG
13-05-06 LEBL 060900Z 22010KT CAVOK 16/12 Q1019 NOSIG
13-05-06 LEBL 060930Z 22011KT CAVOK 16/11 Q1019 NOSIG
13-05-06 LEBL 061000Z 22013KT 9999 FEW005 16/12 Q1019 NOSIG
13-05-06 LEBL 061030Z 22014KT 9999 FEW005 16/11 Q1019 NOSIG
13-05-06 LEBL 061100Z 21015KT 9999 FEW005 17/12 Q1019 NOSIG
13-05-06 LEBL 061130Z 21018KT 9999 FEW015 17/12 Q1019 NOSIG
13-05-06 LEBL 061200Z 22021KT 9999 FEW020 16/11 Q1018 NOSIG
13-05-06 LEBL 061230Z 22021KT 9999 FEW020 17/11 Q1018 NOSIG
13-05-06 LEBL 061300Z 22019KT 9999 FEW020 17/12 Q1018 NOSIG
13-05-06 LEBL 061330Z 21019KT 9999 FEW020 17/12 Q1018 NOSIG
13-05-06 LEBL 061400Z 21018KT 9999 FEW020 17/12 Q1017 NOSIG
13-05-06 LEBL 061430Z 22017KT 9999 FEW020 18/13 Q1017 NOSIG
13-05-06 LEBL 061500Z 22018KT 9999 FEW020 17/13 Q1017 NOSIG
13-05-06 LEBL 061530Z 21016KT 9999 FEW020 21/13 Q1017 NOSIG
13-05-06 LEBL 061600Z 22017KT 9999 FEW020 19/14 Q1017 NOSIG
13-05-06 LEBL 061630Z 22020KT 9999 FEW020 19/14 Q1017 NOSIG
13-05-06 LEBL 061700Z 22019KT 9999 FEW020 18/15 Q1017 NOSIG
13-05-06 LEBL 061730Z 22016KT 9999 FEW020 18/15 Q1016 NOSIG
13-05-06 LEBL 061800Z 22009KT 9999 FEW014 18/15 Q1017 NOSIG
13-05-06 LEBL 061830Z 22010KT 9999 FEW014 17/14 Q1017 NOSIG
13-05-06 LEBL 061900Z 21009KT 9999 FEW020 17/14 Q1017 NOSIG
13-05-06 LEBL 061930Z 20006KT 160V220 9999 FEW020 17/14 Q1017 NOSIG
13-05-06 LEBL 062000Z 18005KT 150V220 9999 FEW020 17/15 Q1018 NOSIG
13-05-06 LEBL 062030Z 20009KT 9999 FEW020 17/14 Q1018 NOSIG
13-05-06 LEBL 062100Z 21010KT 9999 FEW020 16/14 Q1018 NOSIG
13-05-06 LEBL 062130Z 22007KT 9999 FEW020 16/15 Q1018 NOSIG
13-05-06 LEBL 062200Z 21012KT 9999 FEW020 16/15 Q1018 NOSIG
13-05-06 LEBL 062230Z 21008KT 7000 FEW020 16/15 Q1018 NOSIG
13-05-06 LEBL 062300Z 19006KT 7000 FEW005 16/15 Q1018 NOSIG
13-05-06 LEBL 062330Z 20005KT 5000 BR FEW005 16/15 Q1018 NOSIG
13-05-07 LEBL 070000Z 20005KT 130V230 5000 BR FEW005 16/15 Q1017 NOSIG
13-05-07 LEBL 070030Z 22005KT 1000 R25R/P2000 R07L/1100VP2000U R07R/P2000 R25L/P2000 BR FEW001 15/15 Q1017 NOSIG
13-05-07 LEBL 070030Z 22006KT 1000 R25R/P2000 R07R/P2000 R25L/P2000 BR BKN001 15/15 Q1017 NOSIG
13-05-07 LEBL 070100Z 26006KT 2000 BR BKN002 15/15 Q1017 NOSIG
13-05-07 LEBL 070130Z 24006KT 2000 BR BKN002 15/15 Q1016 NOSIG
13-05-07 LEBL 070200Z NIL
13-05-07 LEBL 070200Z 26004KT 3000 R07R/1100N BR FEW002 15/15 Q1016 NOSIG
13-05-07 LEBL 070230Z 25005KT 3000 R07R/1200U BR FEW002 15/15 Q1016 NOSIG
13-05-07 LEBL 070300Z 24006KT 2000 R07R/0750N R25L/1200VP2000N BR FEW002 15/15 Q1016 NOSIG
13-05-07 LEBL 070330Z 23004KT 1500 BR FEW002 15/15 Q1015 NOSIG
13-05-07 LEBL 070400Z 23006KT 4000 BR FEW020 15/15 Q1015 NOSIG
13-05-07 LEBL 070430Z 24006KT 4000 BR FEW020 15/15 Q1015 NOSIG
13-05-07 LEBL 070500Z 23007KT 4000 BR FEW003 15/15 Q1016 NOSIG
13-05-07 LEBL 070530Z 22006KT 4000 BR FEW003 15/15 Q1016 NOSIG
13-05-07 LEBL 070600Z 21007KT 4000 BR FEW003 15/15 Q1016 NOSIG
13-05-07 LEBL 070630Z 22008KT 0900 R25R/1900N R07L/0600U R07R/0275N R25L/0300D BCFG SCT003 15/15 Q1016 NOSIG
13-05-07 LEBL 070700Z 22008KT 0900 R25R/0900VP2000U R07L/0600D R07R/0400U R25L/0350N BCFG FEW003 15/15 Q1016 NOSIG
13-05-07 LEBL 070730Z 22006KT 0900 R25R/P2000 R07L/0900VP2000U R07R/0300V0550N R25L/0450VP2000U BCFG FEW003 16/15 Q1016 NOSIG
13-05-07 LEBL 070800Z 22007KT 3000 R07R/0900U VCFG FEW010 16/15 Q1016 NOSIG
13-05-07 LEBL 070808Z 22007KT 9000 FEW016 18/16 Q1016 NOSIG
13-05-07 LEBL 070830Z 22007KT 9000 FEW016 18/16 Q1016 NOSIG
13-05-07 LEBL 070900Z 20003KT 120V240 9999 FEW020 21/16 Q1016 NOSIG
13-05-07 LEBL 070930Z 19006KT 160V220 9999 FEW020 21/15 Q1016 NOSIG
13-05-07 LEBL 071000Z 20008KT 9999 FEW025 19/15 Q1016 NOSIG
13-05-07 LEBL 071030Z 21010KT 9999 FEW025 19/16 Q1016 NOSIG
13-05-07 LEBL 071100Z 20008KT 9999 FEW025 20/15 Q1015 NOSIG
13-05-07 LEBL 071130Z 21008KT 9999 FEW025 21/14 Q1015 NOSIG
13-05-07 LEBL 071200Z 20008KT 9999 FEW025 22/13 Q1015 NOSIG
13-05-07 LEBL 071230Z 19007KT 9999 FEW025 22/13 Q1015 NOSIG
13-05-07 LEBL 071300Z 19008KT 160V220 9999 FEW025 23/14 Q1015 NOSIG
13-05-07 LEBL 071330Z 19010KT 150V220 9999 FEW025 23/13 Q1015 NOSIG
13-05-07 LEBL 071400Z 15007KT 100V250 9999 FEW025 25/12 Q1014 NOSIG
13-05-07 LEBL 071430Z 12006KT 070V170 9999 FEW025 23/13 Q1015 NOSIG
13-05-07 LEBL 071500Z 15005KT 090V210 9999 FEW025 22/14 Q1014 NOSIG
13-05-07 LEBL 071530Z 15005KT 080V200 9999 FEW025 22/13 Q1014 NOSIG
13-05-07 LEBL 071600Z 21013KT 190V250 9999 FEW025 SCT055 21/14 Q1014 NOSIG
13-05-07 LEBL 071630Z 22014KT 9999 FEW025 SCT055 23/10 Q1014 NOSIG
13-05-07 LEBL 071700Z 19007KT 160V220 9999 FEW025 SCT055 24/12 Q1014 NOSIG
13-05-07 LEBL 071730Z 07009KT 9999 FEW025 21/14 Q1015 NOSIG
13-05-07 LEBL 071800Z 07008KT 9999 FEW025 20/14 Q1015 NOSIG
13-05-07 LEBL 071830Z 06009KT 9999 FEW025 19/15 Q1015 NOSIG
13-05-07 LEBL 071900Z 06009KT 9999 FEW025 19/15 Q1016 NOSIG
13-05-07 LEBL 071930Z 06008KT 9999 FEW025 19/15 Q1016 NOSIG
13-05-07 LEBL 072000Z 06006KT 9999 FEW022 18/14 Q1016 NOSIG
13-05-07 LEBL 072030Z 06004KT 9999 FEW022 18/14 Q1016 NOSIG
13-05-07 LEBL 072100Z VRB01KT 9999 FEW020 18/14 Q1016 NOSIG
13-05-07 LEBL 072130Z VRB02KT 9999 FEW020 19/15 Q1016 NOSIG
13-05-07 LEBL 072200Z 06002KT 9999 FEW022 18/15 Q1016 NOSIG
13-05-07 LEBL 072230Z VRB02KT 9999 FEW022 18/14 Q1016 NOSIG
13-05-07 LEBL 072300Z 08003KT 030V100 9999 FEW022 18/13 Q1016 NOSIG
13-05-07 LEBL 072330Z 00000KT 9999 FEW022 18/13 Q1016 NOSIG
13-05-08 LEBL 080000Z 00000KT 9999 FEW020 18/13 Q1016 NOSIG
13-05-08 LEBL 080030Z 17001KT 9999 FEW020 18/13 Q1016 NOSIG
13-05-08 LEBL 080100Z VRB02KT 9999 FEW020 18/13 Q1015 NOSIG
13-05-08 LEBL 080130Z VRB02KT 9999 FEW012 17/12 Q1015 NOSIG
13-05-08 LEBL 080200Z 00000KT 9999 FEW012 18/12 Q1015 NOSIG
13-05-08 LEBL 080230Z 00000KT 9999 FEW012 17/11 Q1015 NOSIG
13-05-08 LEBL 080300Z VRB01KT 9999 FEW012 17/11 Q1014 NOSIG
13-05-08 LEBL 080330Z 34003KT 9999 FEW012 17/11 Q1014 NOSIG
13-05-08 LEBL 080400Z VRB02KT 9999 FEW015 17/11 Q1014 NOSIG
13-05-08 LEBL 080430Z 32004KT 270V340 9999 FEW018 17/11 Q1014 NOSIG
13-05-08 LEBL 080500Z 30006KT 260V340 9999 FEW018 17/11 Q1014 NOSIG
13-05-08 LEBL 080530Z 29008KT 9999 FEW018 17/11 Q1014 NOSIG
13-05-08 LEBL 080600Z 32008KT 9999 FEW012 18/11 Q1015 NOSIG
13-05-08 LEBL 080630Z 31006KT 260V350 9999 FEW015 19/11 Q1014 NOSIG
13-05-08 LEBL 080700Z 31006KT 9999 FEW015 20/12 Q1015 NOSIG
13-05-08 LEBL 080730Z 28003KT 240V330 9999 FEW015 21/10 Q1015 NOSIG
13-05-08 LEBL 080800Z VRB02KT 9999 FEW020 22/11 Q1015 NOSIG
13-05-08 LEBL 080830Z 23002KT 9999 FEW020 22/11 Q1015 NOSIG
13-05-08 LEBL 080900Z 21006KT 9999 FEW020 21/12 Q1015 NOSIG
13-05-08 LEBL 080930Z 20007KT 9999 FEW020 21/10 Q1015 NOSIG
13-05-08 LEBL 081000Z 19008KT 9999 FEW020 21/11 Q1015 NOSIG
13-05-08 LEBL 081030Z 19008KT 9999 FEW020 20/12 Q1015 NOSIG
13-05-08 LEBL 081100Z 19006KT 140V220 9999 FEW015 21/12 Q1015 NOSIG
13-05-08 LEBL 081130Z 18006KT 150V210 9999 FEW015 22/12 Q1015 NOSIG
13-05-08 LEBL 081200Z 17007KT 150V220 9999 FEW015 23/13 Q1015 NOSIG
13-05-08 LEBL 081230Z 16006KT 130V200 9999 FEW015 22/12 Q1014 NOSIG
13-05-08 LEBL 081300Z NIL
13-05-08 LEBL 081300Z 17006KT 130V200 9999 FEW020 21/14 Q1014 NOSIG
13-05-08 LEBL 081330Z 16006KT 130V200 9999 FEW020 21/14 Q1014 NOSIG
13-05-08 LEBL 081400Z 17006KT 130V200 9999 FEW030 21/15 Q1014 NOSIG
13-05-08 LEBL 081430Z 16005KT 120V190 9999 FEW030 20/15 Q1014 NOSIG
13-05-08 LEBL 081500Z 16003KT 120V210 9999 FEW030 20/15 Q1013 NOSIG
13-05-08 LEBL 081530Z 13003KT 080V160 9999 FEW020 20/15 Q1014 NOSIG
13-05-08 LEBL 081600Z 13003KT 100V170 9999 FEW020 21/15 Q1014 NOSIG
13-05-08 LEBL 081630Z 15004KT 110V200 9999 FEW020 20/15 Q1013 NOSIG
13-05-08 LEBL 081700Z 15003KT 9999 FEW020 20/15 Q1014 NOSIG
13-05-08 LEBL 081730Z 16004KT 130V200 9999 FEW020 20/16 Q1014 NOSIG
13-05-08 LEBL 081800Z 20003KT 170V230 9999 FEW020 20/16 Q1014 NOSIG
13-05-08 LEBL 081830Z 35001KT 9999 FEW020 20/15 Q1014 NOSIG
13-05-08 LEBL 081900Z 11003KT 9999 FEW020 21/15 Q1015 NOSIG
13-05-08 LEBL 081930Z 10003KT 070V140 9999 FEW020 20/16 Q1014 NOSIG
13-05-08 LEBL 082000Z 07003KT 9999 FEW020 20/16 Q1015 NOSIG
13-05-08 LEBL 082030Z 07007KT 020V110 9999 FEW020 20/16 Q1016 NOSIG
13-05-08 LEBL 082100Z 06010KT 9999 FEW020 19/16 Q1016 NOSIG
13-05-08 LEBL 082130Z 06007KT 9999 FEW020 19/16 Q1016 NOSIG
13-05-08 LEBL 082200Z 05008KT 9999 FEW020 20/15 Q1016 NOSIG
13-05-08 LEBL 082230Z 05009KT 9999 FEW020 20/15 Q1016 NOSIG
13-05-08 LEBL 082300Z 06005KT 9999 FEW020 19/15 Q1017 NOSIG
13-05-08 LEBL 082330Z 06004KT 9999 FEW020 19/15 Q1016 NOSIG
13-05-09 LEBL 090000Z 05004KT 9999 FEW020 19/15 Q1016 NOSIG
13-05-09 LEBL 090030Z 08003KT 030V110 9999 FEW020 18/15 Q1016 NOSIG
13-05-09 LEBL 090100Z VRB02KT 9999 FEW020 18/16 Q1016 NOSIG
13-05-09 LEBL 090130Z 07003KT 040V110 9999 FEW020 18/15 Q1016 NOSIG
13-05-09 LEBL 090200Z VRB02KT 9999 FEW020 18/15 Q1016 NOSIG
13-05-09 LEBL 090230Z 07002KT 9999 FEW020 18/15 Q1016 NOSIG
13-05-09 LEBL 090300Z 05005KT 9999 FEW020 18/15 Q1016 NOSIG
13-05-09 LEBL 090330Z 04004KT 9999 FEW020 18/15 Q1016 NOSIG
13-05-09 LEBL 090400Z 04004KT 9999 FEW020 18/15 Q1016 NOSIG
13-05-09 LEBL 090430Z 03004KT 9999 FEW020 18/15 Q1016 NOSIG
13-05-09 LEBL 090500Z 03004KT 9999 FEW020 18/15 Q1016 NOSIG
13-05-09 LEBL 090530Z 03005KT 9999 FEW025 18/15 Q1016 NOSIG
13-05-09 LEBL 090600Z 07003KT 360V100 9999 FEW025 18/15 Q1016 NOSIG
13-05-09 LEBL 090630Z VRB02KT 9999 FEW025 19/15 Q1017 NOSIG
13-05-09 LEBL 090700Z VRB01KT 9999 FEW025 19/16 Q1017 NOSIG
13-05-09 LEBL 090730Z VRB02KT 9999 FEW025 19/16 Q1017 NOSIG
13-05-09 LEBL 090800Z 00000KT 9999 FEW025 20/16 Q1017 NOSIG
13-05-09 LEBL 090830Z 09002KT 9999 FEW035 20/16 Q1017 NOSIG
13-05-09 LEBL 090900Z 15004KT 110V180 9999 FEW035 19/16 Q1017 NOSIG
13-05-09 LEBL 090930Z 16002KT 9999 FEW035 20/16 Q1017 NOSIG
13-05-09 LEBL 091000Z 16004KT 120V190 9999 FEW035 20/16 Q1017 NOSIG
13-05-09 LEBL 091030Z 16004KT 110V190 9999 FEW035 21/16 Q1017 NOSIG
13-05-09 LEBL 091100Z 14004KT 100V190 9999 FEW030 22/16 Q1016 NOSIG
13-05-09 LEBL 091130Z 17005KT 120V200 9999 FEW030 22/16 Q1016 NOSIG
13-05-09 LEBL 091200Z 17007KT 150V220 9999 FEW030 21/16 Q1016 NOSIG
13-05-09 LEBL 091230Z 18005KT 150V260 9999 FEW025 21/16 Q1016 NOSIG
13-05-09 LEBL 091300Z 17006KT 120V210 9999 FEW025 21/16 Q1016 NOSIG
13-05-09 LEBL 091330Z 17005KT 120V210 9999 FEW025 20/16 Q1015 NOSIG
13-05-09 LEBL 091400Z 15004KT 080V220 9999 FEW025 20/15 Q1015 NOSIG
13-05-09 LEBL 091430Z 13005KT 100V160 9999 FEW015 21/14 Q1015 NOSIG
13-05-09 LEBL 091500Z 11004KT 070V160 9999 FEW025 21/14 Q1015 NOSIG
13-05-09 LEBL 091530Z 13005KT 080V170 9999 FEW025 21/14 Q1014 NOSIG
13-05-09 LEBL 091600Z 13006KT 100V160 9999 FEW025 21/15 Q1014 NOSIG
13-05-09 LEBL 091630Z 15004KT 090V240 9999 FEW025 20/15 Q1014 NOSIG
13-05-09 LEBL 091700Z 17005KT 130V200 9999 FEW025 20/15 Q1014 NOSIG
13-05-09 LEBL 091730Z 17005KT 150V210 9999 FEW025 20/15 Q1014 NOSIG
13-05-09 LEBL 091800Z 16004KT 130V200 9999 FEW030 19/15 Q1014 NOSIG
13-05-09 LEBL 091830Z 16004KT 130V190 9999 FEW030 19/16 Q1014 NOSIG
13-05-09 LEBL 091900Z 20003KT 170V230 9999 FEW030 18/16 Q1014 NOSIG
13-05-09 LEBL 091930Z VRB02KT 9999 FEW030 19/16 Q1013 NOSIG
13-05-09 LEBL 092000Z VRB02KT 9999 FEW030 18/16 Q1014 NOSIG
13-05-09 LEBL 092030Z VRB02KT 9999 FEW030 18/16 Q1014 NOSIG
13-05-09 LEBL 092100Z 21003KT 9999 FEW030 18/16 Q1014 NOSIG
13-05-09 LEBL 092130Z 25006KT 9999 FEW030 18/16 Q1015 NOSIG
13-05-09 LEBL 092200Z 23009KT 9999 FEW030 18/16 Q1015 NOSIG
13-05-09 LEBL 092230Z 22008KT 9999 FEW030 18/16 Q1014 NOSIG
13-05-09 LEBL 092300Z 23005KT 9999 FEW020 18/16 Q1014 NOSIG
13-05-09 LEBL 092330Z NIL
13-05-10 LEBL 100000Z 25005KT 220V290 9999 FEW020 18/16 Q1014 NOSIG
13-05-10 LEBL 100030Z 26007KT 9999 FEW020 18/16 Q1014 NOSIG
13-05-10 LEBL 100100Z 27003KT 250V310 9999 FEW020 18/16 Q1014 NOSIG
13-05-10 LEBL 100130Z 34003KT 260V020 9999 FEW020 19/15 Q1014 NOSIG
13-05-10 LEBL 100200Z 04004KT 360V110 9999 FEW020 19/15 Q1014 NOSIG
13-05-10 LEBL 100230Z NIL
13-05-10 LEBL 100230Z 04010KT 9999 FEW020 19/16 Q1014 NOSIG
13-05-10 LEBL 100300Z 04011KT 9999 FEW020 18/16 Q1014 NOSIG
13-05-10 LEBL 100330Z 04011KT 9999 FEW020 SCT050 18/16 Q1015 NOSIG
13-05-10 LEBL 100400Z 05010KT 9999 SCT010 SCT050 18/16 Q1015 NOSIG
13-05-10 LEBL 100430Z 08009KT 9000 BKN009 18/16 Q1015 NOSIG
13-05-10 LEBL 100500Z 06005KT 9000 BKN009 18/16 Q1015 NOSIG
13-05-10 LEBL 100530Z 06004KT 9000 BKN009 18/16 Q1016 NOSIG
13-05-10 LEBL 100600Z VRB02KT 9999 BKN012 18/16 Q1016 NOSIG
13-05-10 LEBL 100630Z VRB02KT 9999 BKN011 18/16 Q1016 NOSIG
13-05-10 LEBL 100700Z VRB02KT 9999 SCT008 BKN013 18/16 Q1017 NOSIG
13-05-10 LEBL 100730Z 32004KT 9999 SCT014 BKN019 18/13 Q1017 NOSIG
13-05-10 LEBL 100800Z 32003KT 290V350 9999 SCT014 BKN019 19/13 Q1017 NOSIG
13-05-10 LEBL 100830Z 03003KT 330V140 9999 FEW014 BKN020 19/13 Q1017 NOSIG
13-05-10 LEBL 100900Z 11004KT 080V150 9999 FEW014 BKN020 19/15 Q1017 NOSIG
13-05-10 LEBL 100930Z 16004KT 130V190 9999 FEW012 BKN020 19/15 Q1017 NOSIG
13-05-10 LEBL 101000Z 19007KT 140V220 9999 FEW009 BKN018 19/16 Q1018 NOSIG
13-05-10 LEBL 101030Z 18009KT 150V210 9999 FEW015 SCT020 19/16 Q1018 NOSIG
13-05-10 LEBL 101100Z 18012KT 9999 FEW015 SCT020 20/16 Q1018 NOSIG
13-05-10 LEBL 101130Z 18013KT 160V220 9999 FEW010 SCT020 19/16 Q1018 NOSIG
13-05-10 LEBL 101200Z 19012KT 9999 FEW012 SCT019 19/16 Q1018 NOSIG
13-05-10 LEBL 101230Z 18009KT 150V220 9999 FEW012 SCT020 19/14 Q1018 NOSIG
13-05-10 LEBL 101300Z 19013KT 9999 FEW012 SCT023 19/14 Q1018 NOSIG
13-05-10 LEBL 101330Z 17011KT 9999 FEW010 SCT015 19/15 Q1018 NOSIG
13-05-10 LEBL 101400Z 18010KT 9999 FEW010 SCT014 19/15 Q1018 NOSIG
13-05-10 LEBL 101430Z 18010KT 150V210 9999 FEW010 SCT014 19/15 Q1018 NOSIG
13-05-10 LEBL 101500Z 19010KT 160V230 9999 SCT013 19/15 Q1017 NOSIG
13-05-10 LEBL 101530Z 18009KT 9999 SCT013 19/15 Q1017 NOSIG
13-05-10 LEBL 101600Z 19009KT 9999 SCT013 19/15 Q1017 NOSIG
13-05-10 LEBL 101630Z 18008KT 130V210 9999 SCT013 18/14 Q1017 NOSIG
13-05-10 LEBL 101700Z 17007KT 9999 SCT013 BKN016 18/14 Q1017 NOSIG
13-05-10 LEBL 101730Z 16007KT 9999 SCT014 BKN020 18/14 Q1017 NOSIG
13-05-10 LEBL 101800Z 15006KT 9999 SCT014 BKN020 18/14 Q1017 NOSIG
13-05-10 LEBL 101830Z 15006KT 9999 FEW016 SCT025 17/14 Q1018 NOSIG
13-05-10 LEBL 101900Z 15006KT 9999 FEW016 SCT025 18/14 Q1018 NOSIG
13-05-10 LEBL 101930Z 14007KT 110V170 9999 FEW016 SCT029 17/14 Q1018 NOSIG
13-05-10 LEBL 102000Z 16006KT 9999 FEW013 SCT022 17/14 Q1019 NOSIG
13-05-10 LEBL 102030Z 15005KT 9999 FEW013 SCT022 17/14 Q1019 NOSIG
13-05-10 LEBL 102100Z 15005KT 120V180 9999 FEW025 SCT030 17/14 Q1019 NOSIG
13-05-10 LEBL 102130Z 15005KT 9999 FEW025 SCT030 17/13 Q1019 NOSIG
13-05-10 LEBL 102200Z 15006KT 9999 BKN030 17/13 Q1020 NOSIG
13-05-10 LEBL 102230Z 16006KT 9999 BKN030 17/13 Q1020 NOSIG
13-05-10 LEBL 102300Z 16006KT 9999 BKN030 17/13 Q1020 NOSIG
13-05-10 LEBL 102330Z 16006KT 9999 BKN033 17/13 Q1019 NOSIG
13-05-11 LEBL 110000Z 16004KT 9999 BKN025 17/13 Q1019 NOSIG
13-05-11 LEBL 110030Z 17005KT 9999 BKN030 17/13 Q1019 NOSIG
13-05-11 LEBL 110100Z 16004KT 9999 BKN028 17/13 Q1019 NOSIG
13-05-11 LEBL 110130Z 16004KT 9999 SCT035 17/13 Q1019 NOSIG
13-05-11 LEBL 110200Z 15004KT 120V190 9999 FEW035 17/13 Q1018 NOSIG
13-05-11 LEBL 110230Z VRB02KT 9999 FEW035 16/14 Q1019 NOSIG
13-05-11 LEBL 110300Z 21003KT 9999 FEW030 17/14 Q1018 NOSIG
13-05-11 LEBL 110330Z 21002KT 9999 FEW025 16/14 Q1018 NOSIG
13-05-11 LEBL 110400Z 22002KT 9999 FEW025 16/14 Q1018 NOSIG
13-05-11 LEBL 110430Z VRB01KT 9999 FEW012 SCT038 16/14 Q1018 NOSIG
13-05-11 LEBL 110500Z VRB01KT 9999 FEW012 SCT033 16/14 Q1019 NOSIG
13-05-11 LEBL 110530Z 19003KT 9999 FEW012 SCT033 17/14 Q1019 NOSIG
13-05-11 LEBL 110600Z 18003KT 140V210 9999 FEW012 SCT033 17/14 Q1019 NOSIG
13-05-11 LEBL 110630Z 19004KT 9999 FEW012 BKN027 17/14 Q1019 NOSIG
13-05-11 LEBL 110700Z 23003KT 180V310 9999 FEW012 SCT035 17/15 Q1019 NOSIG
13-05-11 LEBL 110718Z 19004KT 8000 FEW012 SCT035 17/15 Q1020 NOSIG
13-05-11 LEBL 110720Z 20005KT 8000 DZ FEW012 SCT035 17/15 Q1020 NOSIG
13-05-11 LEBL 110730Z 20006KT 9999 FEW012 SCT025 17/15 Q1019 NOSIG
13-05-11 LEBL 110800Z 19008KT 9999 FEW012 SCT035 18/15 Q1019 NOSIG
13-05-11 LEBL 110830Z 19009KT 9999 FEW012 SCT035 18/15 Q1019 NOSIG
13-05-11 LEBL 110900Z 20011KT 9999 SCT012 SCT035 19/16 Q1019 NOSIG
13-05-11 LEBL 110930Z 20011KT 170V230 9999 SCT012 SCT035 19/16 Q1019 NOSIG
13-05-11 LEBL 111000Z 20010KT 9999 SCT012 SCT035 19/13 Q1019 NOSIG
13-05-11 LEBL 111030Z 20010KT 190V250 9999 SCT012 SCT045 20/11 Q1019 NOSIG
13-05-11 LEBL 111100Z 20009KT 160V230 9999 SCT015 SCT045 20/13 Q1019 NOSIG
13-05-11 LEBL 111130Z 20009KT 9999 SCT015 20/12 Q1019 NOSIG
13-05-11 LEBL 111200Z 20011KT 9999 FEW018 20/12 Q1019 NOSIG
13-05-11 LEBL 111230Z 20013KT 9999 FEW018 20/11 Q1019 NOSIG
13-05-11 LEBL 111300Z NIL
13-05-11 LEBL 111300Z 21011KT 160V240 9999 FEW018 19/10 Q1018 NOSIG
13-05-11 LEBL 111330Z 18012KT 9999 FEW018 20/11 Q1018 NOSIG
13-05-11 LEBL 111400Z 18013KT 9999 FEW018 19/11 Q1018 NOSIG
13-05-11 LEBL 111430Z 18013KT 9999 FEW018 19/11 Q1018 NOSIG
13-05-11 LEBL 111500Z 18012KT 9999 FEW018 19/12 Q1018 NOSIG
13-05-11 LEBL 111530Z 17011KT 150V210 9999 FEW018 19/13 Q1018 NOSIG
13-05-11 LEBL 111600Z 16008KT 130V200 9999 FEW018 19/12 Q1018 NOSIG
13-05-11 LEBL 111630Z 14007KT 110V170 9999 FEW015 19/13 Q1018 NOSIG
13-05-11 LEBL 111700Z 17008KT 140V200 9999 FEW015 19/15 Q1018 NOSIG
13-05-11 LEBL 111730Z 16009KT 130V190 9999 FEW010 SCT014 19/16 Q1018 NOSIG
13-05-11 LEBL 111800Z 15008KT 9999 FEW010 SCT014 18/15 Q1018 NOSIG
13-05-11 LEBL 111830Z 16007KT 120V190 9999 FEW010 SCT025 18/15 Q1019 NOSIG
13-05-11 LEBL 111900Z 15005KT 9999 FEW010 SCT025 18/14 Q1019 NOSIG
13-05-11 LEBL 111930Z 15007KT 9999 FEW016 SCT025 BKN034 18/15 Q1020 NOSIG
13-05-11 LEBL 112000Z 15006KT 110V180 9999 SCT020 BKN030 18/15 Q1020 NOSIG
13-05-11 LEBL 112030Z 14006KT 110V170 9999 FEW020 BKN030 17/14 Q1020 NOSIG
13-05-11 LEBL 112100Z 13007KT 100V160 9999 FEW020 SCT040 17/14 Q1021 NOSIG
13-05-11 LEBL 112130Z 14006KT 110V170 9999 FEW020 SCT035 17/14 Q1021 NOSIG
13-05-11 LEBL 112200Z 13009KT 9999 FEW020 SCT027 17/14 Q1021 NOSIG
13-05-11 LEBL 112230Z 14007KT 110V170 9999 FEW016 BKN022 17/14 Q1021 NOSIG
13-05-11 LEBL 112300Z 13008KT 9999 FEW016 BKN022 17/14 Q1021 NOSIG
13-05-11 LEBL 112330Z 13007KT 9999 SCT014 SCT022 17/14 Q1021 NOSIG
13-05-12 LEBL 120000Z 13007KT 100V160 9999 FEW012 BKN016 17/14 Q1021 NOSIG
13-05-12 LEBL 120030Z 14008KT 110V170 9999 FEW012 BKN016 17/14 Q1020 NOSIG
13-05-12 LEBL 120100Z 15008KT 120V180 9999 FEW010 SCT013 BKN030 17/14 Q1020 NOSIG
13-05-12 LEBL 120130Z 15007KT 120V180 9999 SCT012 BKN030 17/14 Q1020 NOSIG
13-05-12 LEBL 120200Z 15005KT 9999 FEW012 BKN030 17/14 Q1020 NOSIG
13-05-12 LEBL 120230Z 14005KT 110V170 9999 SCT012 BKN028 17/14 Q1020 NOSIG
13-05-12 LEBL 120300Z 14006KT 9999 SCT010 BKN015 17/15 Q1020 NOSIG
13-05-12 LEBL 120330Z 10003KT 030V150 9999 -RA BKN010 17/15 Q1019 NOSIG
13-05-12 LEBL 120400Z 08003KT 040V180 9999 FEW009 SCT015 BKN030 17/15 Q1019 NOSIG
13-05-12 LEBL 120430Z 05006KT 030V090 9999 FEW008 BKN015 16/14 Q1020 NOSIG
13-05-12 LEBL 120500Z 36006KT 9999 FEW008 BKN015 16/12 Q1020 NOSIG
13-05-12 LEBL 120530Z 34010KT 290V010 9999 FEW008 SCT015 BKN020 15/08 Q1020 NOSIG
13-05-12 LEBL 120600Z 35011G21KT 300V040 9999 FEW012 BKN020 15/08 Q1021 NOSIG
13-05-12 LEBL 120630Z 34014KT 300V360 9999 FEW014 SCT024 15/07 Q1021 NOSIG
13-05-12 LEBL 120700Z 33014KT 9999 FEW014 SCT025 15/06 Q1021 NOSIG
13-05-12 LEBL 120730Z 33014KT 9999 FEW016 SCT035 16/07 Q1021 NOSIG
13-05-12 LEBL 120800Z 33012KT 300V360 9999 FEW016 SCT035 17/07 Q1021 NOSIG
13-05-12 LEBL 120830Z 33010KT 260V360 9999 FEW017 SCT038 18/07 Q1021 NOSIG
13-05-12 LEBL 120900Z 33008KT 290V080 9999 FEW018 SCT037 18/07 Q1021 NOSIG
13-05-12 LEBL 120930Z 34006KT 280V020 9999 FEW018 BKN034 18/08 Q1021 NOSIG
13-05-12 LEBL 121000Z 09007KT 060V120 9999 FEW018 SCT045 19/08 Q1021 NOSIG
13-05-12 LEBL 121030Z 11011KT 9999 FEW020 SCT048 19/12 Q1021 NOSIG
13-05-12 LEBL 121100Z 11013G29KT 060V150 9999 FEW025 19/12 Q1021 NOSIG
13-05-12 LEBL 121130Z 12011KT 100V160 9999 FEW025 19/12 Q1021 NOSIG
13-05-12 LEBL 121200Z 14010KT 110V170 9999 FEW025 SCT050 18/12 Q1021 NOSIG
13-05-12 LEBL 121230Z 14010KT 100V190 9999 FEW025 SCT040 19/12 Q1021 NOSIG
13-05-12 LEBL 121300Z 15010KT 110V190 9999 FEW025 SCT040 19/12 Q1021 NOSIG
13-05-12 LEBL 121330Z 15011KT 100V170 9999 SCT025 SCT040 19/12 Q1021 NOSIG
13-05-12 LEBL 121400Z 15011KT 100V180 9999 FEW025 19/12 Q1020 NOSIG
13-05-12 LEBL 121430Z 15010KT 120V190 9999 FEW025 19/13 Q1020 NOSIG
13-05-12 LEBL 121500Z 15009KT 120V200 9999 FEW025 18/12 Q1020 NOSIG
13-05-12 LEBL 121530Z 15010KT 120V190 9999 FEW025 19/13 Q1020 NOSIG
13-05-12 LEBL 121600Z 13010KT 120V180 9999 FEW027 19/13 Q1020 NOSIG
13-05-12 LEBL 121630Z 13009KT 100V160 9999 FEW030 18/13 Q1020 NOSIG
13-05-12 LEBL 121700Z 13008KT 100V170 9999 FEW030 19/13 Q1020 NOSIG
13-05-12 LEBL 121730Z 12008KT 9999 FEW030 18/13 Q1021 NOSIG
13-05-12 LEBL 121800Z 12007KT 9999 FEW030 18/14 Q1021 NOSIG
13-05-12 LEBL 121830Z 12005KT 9999 FEW030 18/14 Q1021 NOSIG
13-05-12 LEBL 121900Z 12002KT 9999 FEW030 17/14 Q1021 NOSIG
13-05-12 LEBL 121930Z VRB02KT 9999 FEW030 17/12 Q1021 NOSIG
13-05-12 LEBL 122000Z VRB01KT 9999 FEW030 17/13 Q1022 NOSIG
13-05-12 LEBL 122030Z 03003KT 320V110 9999 FEW030 17/13 Q1022 NOSIG
13-05-12 LEBL 122100Z 03004KT 340V060 9999 FEW030 17/13 Q1022 NOSIG
13-05-12 LEBL 122130Z 07004KT 050V120 9999 FEW030 17/13 Q1022 NOSIG
13-05-12 LEBL 122200Z 11003KT 9999 FEW030 17/14 Q1022 NOSIG
13-05-12 LEBL 122230Z 14003KT 9999 FEW030 17/13 Q1022 NOSIG
13-05-12 LEBL 122300Z 17003KT 130V200 9999 FEW030 17/13 Q1022 NOSIG
13-05-12 LEBL 122330Z 18002KT 9999 FEW030 16/13 Q1022 NOSIG
13-05-13 LEBL 130000Z VRB01KT 9999 FEW030 16/13 Q1022 NOSIG
13-05-13 LEBL 130030Z 34002KT 9999 FEW030 16/13 Q1022 NOSIG
13-05-13 LEBL 130100Z 34003KT 9999 FEW030 15/12 Q1022 NOSIG
13-05-13 LEBL 130130Z 32003KT 9999 FEW030 15/12 Q1022 NOSIG
13-05-13 LEBL 130200Z 32004KT 9999 FEW030 14/12 Q1022 NOSIG
13-05-13 LEBL 130230Z 32005KT 9999 FEW030 14/12 Q1022 NOSIG
13-05-13 LEBL 130300Z 34005KT 9999 FEW030 14/12 Q1022 NOSIG
13-05-13 LEBL 130330Z 33005KT 9999 FEW030 14/12 Q1021 NOSIG
13-05-13 LEBL 130400Z 32006KT 9000 FEW030 14/12 Q1021 NOSIG
13-05-13 LEBL 130430Z 31006KT 9000 FEW030 14/11 Q1021 NOSIG
13-05-13 LEBL 130500Z 31006KT 9000 FEW030 14/12 Q1022 NOSIG
13-05-13 LEBL 130530Z 32006KT 280V350 9000 FEW020 14/12 Q1022 NOSIG
13-05-13 LEBL 130600Z 33006KT 240V350 9000 FEW020 14/12 Q1022 NOSIG
13-05-13 LEBL 130630Z 32007KT 300V360 9999 FEW020 15/12 Q1022 NOSIG
13-05-13 LEBL 130700Z 32006KT 270V350 9999 FEW020 16/12 Q1022 NOSIG
13-05-13 LEBL 130730Z 32007KT 290V360 9999 FEW020 17/12 Q1022 NOSIG
13-05-13 LEBL 130800Z 32003KT 9999 FEW020 17/11 Q1022 NOSIG
13-05-13 LEBL 130830Z 26002KT 9999 SCT025 19/12 Q1022 NOSIG
13-05-13 LEBL 130900Z 17006KT 140V200 9999 SCT025 18/11 Q1022 NOSIG
13-05-13 LEBL 130930Z 17007KT 120V210 9999 SCT030 19/12 Q1022 NOSIG
13-05-13 LEBL 131000Z 19009KT 150V220 9999 SCT030 18/12 Q1021 NOSIG
13-05-13 LEBL 131030Z 18008KT 140V210 9999 FEW035 19/11 Q1021 NOSIG
13-05-13 LEBL 131100Z 18008KT 150V220 9999 FEW035 19/12 Q1021 NOSIG
13-05-13 LEBL 131130Z 18009KT 130V210 9999 FEW035 19/13 Q1021 NOSIG
13-05-13 LEBL 131200Z 17009KT 130V210 9999 FEW035 19/13 Q1020 NOSIG
13-05-13 LEBL 131230Z 17010KT 130V210 9999 FEW035 19/14 Q1020 NOSIG
13-05-13 LEBL 131300Z 18011KT 150V210 9999 FEW035 20/14 Q1020 NOSIG
13-05-13 LEBL 131330Z 19013KT 160V220 9999 FEW035 20/13 Q1019 NOSIG
13-05-13 LEBL 131400Z 20014KT 9999 FEW035 20/13 Q1019 NOSIG
13-05-13 LEBL 131430Z 20014KT CAVOK 20/13 Q1019 NOSIG
13-05-13 LEBL 131500Z 21015KT 170V240 CAVOK 20/11 Q1018 NOSIG
13-05-13 LEBL 131530Z 21015KT CAVOK 20/12 Q1018 NOSIG
13-05-13 LEBL 131600Z 21016KT 9999 FEW020 20/12 Q1018 NOSIG
13-05-13 LEBL 131630Z 22016KT 9999 FEW020 20/12 Q1018 NOSIG
13-05-13 LEBL 131700Z 22015KT 9999 FEW020 19/13 Q1018 NOSIG
13-05-13 LEBL 131730Z 22013KT 9999 FEW020 19/13 Q1018 NOSIG
13-05-13 LEBL 131800Z 22014KT 9999 FEW020 18/13 Q1018 NOSIG
13-05-13 LEBL 131830Z 22014KT 9999 FEW020 18/13 Q1018 NOSIG
13-05-13 LEBL 131900Z 23012KT 9999 FEW020 17/14 Q1018 NOSIG
13-05-13 LEBL 131930Z 23013KT 9999 FEW020 17/14 Q1018 NOSIG
13-05-13 LEBL 132000Z 23012KT 9999 FEW020 17/14 Q1018 NOSIG
13-05-13 LEBL 132030Z 23013KT 9999 FEW020 17/14 Q1018 NOSIG
13-05-13 LEBL 132100Z 26007KT 240V300 9999 FEW020 17/13 Q1018 NOSIG
13-05-13 LEBL 132130Z 00000KT 9999 FEW020 17/13 Q1017 NOSIG
13-05-13 LEBL 132200Z 28003KT 240V330 9999 FEW020 17/13 Q1017 NOSIG
13-05-13 LEBL 132230Z 22005KT 9999 FEW020 17/14 Q1018 NOSIG
13-05-13 LEBL 132300Z 23006KT 9999 FEW020 16/14 Q1018 NOSIG
13-05-13 LEBL 132330Z 27004KT 240V310 9999 FEW020 16/13 Q1018 NOSIG
13-05-14 LEBL 140000Z 31004KT 9999 FEW020 16/13 Q1017 NOSIG
13-05-14 LEBL 140030Z 30005KT 9999 FEW020 15/13 Q1017 NOSIG
13-05-14 LEBL 140100Z 30003KT 9999 SCT015 16/13 Q1017 NOSIG
13-05-14 LEBL 140130Z 00000KT 9999 BKN017 16/14 Q1017 NOSIG
13-05-14 LEBL 140200Z 32004KT 9999 BKN017 16/13 Q1016 NOSIG
13-05-14 LEBL 140230Z 31005KT 9999 FEW015 BKN022 15/13 Q1016 NOSIG
13-05-14 LEBL 140300Z 31005KT 9000 SCT020 15/13 Q1016 NOSIG
13-05-14 LEBL 140330Z 32006KT 8000 FEW020 15/13 Q1015 NOSIG
13-05-14 LEBL 140400Z 32004KT 8000 FEW020 15/13 Q1015 NOSIG
13-05-14 LEBL 140430Z 29004KT 7000 FEW015 15/13 Q1015 NOSIG
13-05-14 LEBL 140500Z 31005KT 260V340 8000 SCT008 15/13 Q1015 NOSIG
13-05-14 LEBL 140530Z 34004KT 7000 FEW010 15/13 Q1014 NOSIG
13-05-14 LEBL 140600Z 31004KT 260V340 7000 FEW012 16/13 Q1015 NOSIG
13-05-14 LEBL 140630Z 29003KT 220V350 8000 FEW010 17/14 Q1015 NOSIG
13-05-14 LEBL 140700Z 29003KT 9999 FEW010 18/15 Q1014 NOSIG
13-05-14 LEBL 140730Z 22005KT 200V280 9999 FEW014 18/15 Q1015 NOSIG
13-05-14 LEBL 140800Z 21006KT 180V240 9999 FEW014 19/15 Q1015 NOSIG
13-05-14 LEBL 140830Z 20008KT 170V230 9999 FEW012 18/15 Q1015 NOSIG
13-05-14 LEBL 140900Z 21010KT 9999 FEW012 18/15 Q1015 NOSIG
13-05-14 LEBL 140930Z 21012KT 9999 FEW012 18/16 Q1015 NOSIG
13-05-14 LEBL 141000Z 22011KT 9999 FEW012 18/15 Q1015 NOSIG
13-05-14 LEBL 141030Z 22011KT 9999 FEW012 18/15 Q1014 NOSIG
13-05-14 LEBL 141100Z 21007KT 9999 DZ FEW012 18/16 Q1014 NOSIG
13-05-14 LEBL 141130Z 20004KT 160V230 9999 RA FEW012 SCT050 18/16 Q1013 NOSIG
13-05-14 LEBL 141200Z 23003KT 200V290 9999 FEW012 SCT050 18/16 Q1013 RERA NOSIG
13-05-14 LEBL 141230Z 21006KT 9999 FEW012 SCT050 18/16 Q1012 NOSIG
13-05-14 LEBL 141300Z 20010KT 9999 FEW012 SCT050 18/16 Q1012 NOSIG
13-05-14 LEBL 141330Z 21009KT 9999 FEW012 18/15 Q1012 NOSIG
13-05-14 LEBL 141400Z 20005KT 160V230 9999 FEW020 18/16 Q1011 NOSIG
13-05-14 LEBL 141430Z 19007KT 160V220 9999 FEW025 18/15 Q1011 NOSIG
13-05-14 LEBL 141500Z 20005KT 9999 RA SCT025 18/15 Q1010 NOSIG
13-05-14 LEBL 141530Z 19005KT 9999 SCT025 18/15 Q1010 RERA NOSIG
13-05-14 LEBL 141600Z 21005KT 9999 RA SCT025 18/14 Q1010 NOSIG
13-05-14 LEBL 141630Z 20004KT 150V220 9999 DZ SCT010 18/14 Q1010 NOSIG
13-05-14 LEBL 141700Z 16004KT 120V190 9999 SCT010 18/15 Q1009 REDZ NOSIG
13-05-14 LEBL 141730Z 16005KT 9999 SCT010 17/15 Q1009 NOSIG
13-05-14 LEBL 141800Z 20004KT 9999 RA FEW010 17/15 Q1009 NOSIG
13-05-14 LEBL 141830Z 23005KT 9999 FEW025 17/15 Q1009 RERA NOSIG
13-05-14 LEBL 141900Z 25005KT 220V280 9999 FEW010 17/15 Q1008 NOSIG
13-05-14 LEBL 141930Z 21003KT 170V240 9999 FEW010 17/15 Q1008 NOSIG
13-05-14 LEBL 142000Z 15003KT 9999 FEW010 17/15 Q1007 NOSIG
13-05-14 LEBL 142030Z 13003KT 110V170 9999 FEW010 17/15 Q1007 NOSIG
13-05-14 LEBL 142100Z VRB02KT 9999 FEW020 17/15 Q1007 NOSIG
13-05-14 LEBL 142130Z 00000KT 9999 FEW020 17/15 Q1007 NOSIG
13-05-14 LEBL 142200Z 00000KT 9999 FEW018 17/15 Q1007 NOSIG
13-05-14 LEBL 142230Z 02002KT 9999 FEW011 17/15 Q1007 NOSIG
13-05-14 LEBL 142300Z 32001KT 9999 FEW011 SCT015 BKN023 16/15 Q1007 NOSIG
13-05-14 LEBL 142330Z 34003KT 9999 FEW012 16/15 Q1006 NOSIG
13-05-15 LEBL 150000Z 32005KT 9999 FEW012 16/14 Q1006 NOSIG
13-05-15 LEBL 150030Z 33004KT 9999 FEW013 16/14 Q1005 NOSIG
13-05-15 LEBL 150100Z 32004KT 9999 FEW013 16/14 Q1005 NOSIG
13-05-15 LEBL 150130Z 31004KT 9999 FEW013 16/14 Q1004 NOSIG
13-05-15 LEBL 150200Z 32003KT 9999 FEW020 16/14 Q1004 NOSIG
13-05-15 LEBL 150230Z 33004KT 9000 FEW020 16/14 Q1003 NOSIG
13-05-15 LEBL 150300Z 34004KT 9000 FEW020 15/14 Q1003 NOSIG
13-05-15 LEBL 150330Z 33004KT 9000 FEW020 15/14 Q1002 NOSIG
13-05-15 LEBL 150400Z 32003KT 9000 FEW027 15/14 Q1002 NOSIG
13-05-15 LEBL 150430Z 33005KT 9000 FEW027 15/14 Q1002 NOSIG
13-05-15 LEBL 150500Z VRB01KT 9999 FEW022 15/14 Q1002 NOSIG
13-05-15 LEBL 150530Z 00000KT 9999 FEW024 15/14 Q1002 NOSIG
13-05-15 LEBL 150600Z VRB02KT 9999 FEW013 SCT022 BKN040 15/13 Q1002 NOSIG
13-05-15 LEBL 150630Z VRB02KT 9999 FEW022 BKN040 16/14 Q1002 NOSIG
13-05-15 LEBL 150700Z 09004KT 9999 FEW022 BKN040 17/14 Q1002 NOSIG
13-05-15 LEBL 150730Z 08003KT 040V110 9999 FEW022 BKN040 18/14 Q1002 NOSIG
13-05-15 LEBL 150800Z 09005KT 9999 FEW022 BKN040 17/15 Q1002 NOSIG
13-05-15 LEBL 150830Z 09005KT 9999 FEW022 BKN040 17/15 Q1002 NOSIG
13-05-15 LEBL 150900Z 08006KT 9999 FEW022 BKN040 18/15 Q1001 NOSIG
13-05-15 LEBL 150930Z 08005KT 040V120 9999 FEW022 BKN040 19/15 Q1001 NOSIG
13-05-15 LEBL 151000Z VRB04KT 9999 FEW022 BKN040 18/14 Q1001 NOSIG
13-05-15 LEBL 151030Z 12006KT 100V160 9999 FEW022 BKN040 19/14 Q1001 NOSIG
13-05-15 LEBL 151100Z 11007KT 090V150 9999 FEW022 BKN040 19/15 Q1001 NOSIG
13-05-15 LEBL 151130Z 12006KT 090V150 9999 FEW022 BKN040 19/13 Q1001 NOSIG
13-05-15 LEBL 151200Z 13005KT 070V170 9999 FEW022 BKN045 19/13 Q1001 NOSIG
13-05-15 LEBL 151230Z 12007KT 090V170 9999 FEW012 SCT048 19/15 Q1000 NOSIG
13-05-15 LEBL 151300Z 09007KT 020V120 9999 FEW012 SCT048 20/15 Q1000 NOSIG
13-05-15 LEBL 151330Z 09009KT 060V120 9999 FEW012 SCT048 19/14 Q1000 NOSIG
13-05-15 LEBL 151400Z 09009KT 060V130 9999 FEW012 SCT048 19/15 Q1000 NOSIG
13-05-15 LEBL 151430Z 09009KT 9999 FEW009 SCT015 BKN045 19/16 Q1000 NOSIG
13-05-15 LEBL 151500Z 10011KT 060V130 9999 SCT007 BKN055 18/16 Q1000 NOSIG
13-05-15 LEBL 151530Z 07013KT 030V110 9999 BKN008 18/15 Q1000 NOSIG
13-05-15 LEBL 151600Z 08021KT 050V110 9999 -RA BKN010 16/15 Q1000 NOSIG
13-05-15 LEBL 151700Z 07018KT 040V100 9999 BKN030 16/14 Q0999 REDZ NOSIG
13-05-15 LEBL 151730Z 08016KT 9999 BKN020 16/13 Q0999 NOSIG
13-05-15 LEBL 151800Z 06016KT 9999 DZ BKN020 16/12 Q1000 NOSIG
13-05-15 LEBL 151800Z 06016KT 9999 DZ BKN020 16/12 Q1000 BECMG TSRA
13-05-15 LEBL 151818Z 35012KT 5000 SHRA FEW009CB BKN016 15/13 Q1000 NOSIG
13-05-15 LEBL 151830Z 34008KT 4000 SHRA FEW009CB BKN016 14/14 Q1000 NOSIG
13-05-15 LEBL 151900Z 36005KT 310V030 6000 SHRA FEW009CB BKN020 14/13 Q1000 NOSIG
13-05-15 LEBL 151930Z 35007KT 6000 SHRA SCT009CB BKN045 14/13 Q1001 NOSIG
13-05-15 LEBL 152000Z 34005KT 6000 SHRA SCT009CB BKN040 14/13 Q1001 NOSIG
13-05-15 LEBL 152030Z 33004KT 6000 SHRA SCT009CB BKN030 14/13 Q1001 NOSIG
13-05-15 LEBL 152100Z 34003KT 310V010 6000 RA SCT009CB BKN039 14/13 Q1001 NOSIG
13-05-15 LEBL 152130Z 01003KT 340V040 9999 RA SCT020CB BKN055 14/13 Q1001 NOSIG
13-05-15 LEBL 152200Z 32005KT 290V350 9999 -RA FEW010 SCT025CB BKN055 14/13 Q1001 NOSIG
13-05-15 LEBL 152230Z 31010KT 9999 -RA SCT022CB BKN031 14/13 Q1001 NOSIG
13-05-15 LEBL 152300Z 31007KT 9999 -RA SCT018CB BKN035 14/11 Q1001 NOSIG
13-05-15 LEBL 152330Z 33006KT 300V360 9999 -RA FEW018CB BKN055 13/11 Q1001 NOSIG
13-05-16 LEBL 160000Z 34004KT 9999 -RA SCT055 13/11 Q1000 NOSIG
13-05-16 LEBL 160030Z 30006KT 9999 -RA SCT025 13/11 Q1000 NOSIG
13-05-16 LEBL 160100Z 30007KT 9999 BKN025 13/10 Q1000 NOSIG
13-05-16 LEBL 160130Z 31009KT 9999 BKN029 13/10 Q0999 NOSIG
13-05-16 LEBL 160200Z 31009KT 9999 BKN029 13/09 Q0999 NOSIG
13-05-16 LEBL 160230Z 31009KT 9999 BKN029 13/09 Q0999 NOSIG
13-05-16 LEBL 160300Z 30010KT 9999 SCT012 BKN030 13/08 Q0999 NOSIG
13-05-16 LEBL 160330Z 30012KT 9999 SCT012 BKN030 12/09 Q0998 NOSIG
13-05-16 LEBL 160400Z 30011KT 9999 -RA SCT012 BKN030 12/08 Q0999 NOSIG
13-05-16 LEBL 160430Z 31009KT 9999 SCT012 BKN030 12/08 Q0999 RERA NOSIG
13-05-16 LEBL 160500Z 31009KT 280V340 9999 -RA SCT030 BKN050 12/08 Q0999 NOSIG
13-05-16 LEBL 160530Z 31011KT 9999 -RA BKN027 11/08 Q0999 NOSIG
13-05-16 LEBL 160600Z 31011KT 280V350 9999 RA SCT027 BKN047 11/08 Q0999 NOSIG
13-05-16 LEBL 160630Z 31011KT 280V020 9999 DZ SCT027 BKN036 11/08 Q0999 NOSIG
13-05-16 LEBL 160730Z 31009KT 260V350 9999 SCT020 SCT030 12/08 Q0999 NOSIG
13-05-16 LEBL 160800Z 31009KT 9999 FEW020 SCT030 12/08 Q1000 NOSIG
13-05-16 LEBL 160830Z 31010KT 250V340 9999 FEW020 SCT050 13/07 Q1000 NOSIG
13-05-16 LEBL 160900Z 32008KT 290V020 9999 FEW020 13/08 Q1000 NOSIG
13-05-16 LEBL 160930Z 33011KT 280V030 9999 FEW018 14/09 Q1000 NOSIG
13-05-16 LEBL 161000Z 33008KT 280V010 9999 FEW018 14/09 Q1000 NOSIG
13-05-16 LEBL 161030Z 36009KT 320V040 9999 FEW018 SCT030 16/09 Q1000 NOSIG
13-05-16 LEBL 161100Z 34007G18KT 9999 FEW022 BKN040 15/09 Q1000 NOSIG
13-05-16 LEBL 161130Z 35009KT 310V030 9999 FEW015 BKN038 15/08 Q1000 NOSIG
13-05-16 LEBL 161200Z 35009KT 310V030 9999 FEW015 SCT035 16/07 Q1000 NOSIG
13-05-16 LEBL 161230Z 12009KT 9999 FEW015 SCT035 14/10 Q1000 BECMG 22010KT
13-05-16 LEBL 161300Z 11008KT 080V150 9999 FEW015 BKN030 15/10 Q1000 BECMG 22010KT
13-05-16 LEBL 161330Z 11006KT 080V150 9999 FEW015 BKN025 15/10 Q1000 BECMG 22010KT
13-05-16 LEBL 161400Z 11007KT 9999 SCT015 BKN025 15/10 Q1000 BECMG 22010KT
13-05-16 LEBL 161430Z 14005KT 100V190 9999 FEW015 SCT025 15/09 Q1000 BECMG 22010KT
13-05-16 LEBL 161500Z 17006KT 130V210 9999 FEW017 16/09 Q1000 NOSIG
13-05-16 LEBL 161530Z 16006KT 120V200 9999 FEW020 16/10 Q1000 NOSIG
13-05-16 LEBL 161600Z 17007KT 130V210 9999 FEW020 16/09 Q1000 NOSIG
13-05-16 LEBL 161630Z 18007KT 140V210 9999 FEW020 16/09 Q1000 NOSIG
13-05-16 LEBL 161700Z 16007KT 130V190 9999 FEW025 16/09 Q1000 NOSIG
13-05-16 LEBL 161730Z 20006KT 9999 FEW025 16/08 Q1000 NOSIG
13-05-16 LEBL 161800Z 19006KT 140V210 9999 FEW025 16/10 Q1000 NOSIG
13-05-16 LEBL 161830Z 18005KT 130V210 9999 FEW025 SCT035 16/10 Q1000 NOSIG
13-05-16 LEBL 161900Z 23012KT 9999 FEW025 SCT035 16/09 Q1000 NOSIG
13-05-16 LEBL 161930Z 23012KT 9999 FEW025 16/09 Q1001 NOSIG
13-05-16 LEBL 162000Z 23012KT 9999 FEW025 16/09 Q1001 NOSIG
13-05-16 LEBL 162030Z 22016KT 6000 TSRA FEW014CB SCT030 16/11 Q1001 BECMG NSW
13-05-16 LEBL 162030Z NIL
13-05-16 LEBL 162100Z 24013KT 6000 TSRA FEW014CB SCT030 15/12 Q1001 NOSIG
13-05-16 LEBL 162200Z 26008KT 9999 FEW015 SCT030 14/11 Q1001 REDZ NOSIG
13-05-16 LEBL 162230Z 29003KT 9999 FEW015 SCT030 14/11 Q1001 NOSIG
13-05-16 LEBL 162300Z NIL
13-05-16 LEBL 162330Z NIL
13-05-16 LEBL 162330Z 00000KT 9999 FEW012 SCT055 15/09 Q1001 NOSIG
13-05-17 LEBL 170000Z 00000KT 9999 FEW025 15/10 Q1001 NOSIG
13-05-17 LEBL 170030Z 31005KT 9999 RA FEW025 14/10 Q1000 NOSIG
13-05-17 LEBL 170100Z 20008KT 160V230 9999 RA FEW025 14/06 Q1000 NOSIG
13-05-17 LEBL 170130Z 15008KT 110V170 9999 RA FEW025 13/08 Q1000 NOSIG
13-05-17 LEBL 170200Z 18003KT 130V210 9999 DZ FEW025 13/08 Q1000 NOSIG
13-05-17 LEBL 170230Z 29005KT 9999 DZ FEW025 12/09 Q1000 NOSIG
13-05-17 LEBL 170300Z 30004KT 9999 DZ FEW025 12/09 Q1000 NOSIG
13-05-17 LEBL 170330Z 35003KT 9999 FEW025 11/09 Q1000 REDZ NOSIG
13-05-17 LEBL 170400Z 32005KT 9999 FEW025 11/09 Q1000 REDZ NOSIG
13-05-17 LEBL 170430Z 33005KT 9999 FEW025 11/10 Q1000 REDZ NOSIG
13-05-17 LEBL 170500Z 33007KT 9999 FEW025 11/09 Q1000 REDZ NOSIG
13-05-17 LEBL 170530Z 35005KT 9999 FEW025 11/09 Q1000 NOSIG
13-05-17 LEBL 170600Z 32006KT 290V360 9999 FEW025 11/09 Q1000 NOSIG
13-05-17 LEBL 170630Z 33006KT 290V010 9999 FEW025 12/09 Q1001 NOSIG
13-05-17 LEBL 170700Z 33004KT 9999 FEW025 13/09 Q1001 NOSIG
13-05-17 LEBL 170730Z 34003KT 280V080 9999 FEW025 15/10 Q1001 NOSIG
13-05-17 LEBL 170800Z 09005KT 9999 FEW025 16/09 Q1001 NOSIG
13-05-17 LEBL 170830Z 10005KT 070V140 9999 FEW025 17/09 Q1001 NOSIG
13-05-17 LEBL 170900Z 17005KT 120V240 9999 FEW025 16/09 Q1001 NOSIG
13-05-17 LEBL 170930Z 18005KT 130V210 9999 FEW025 17/09 Q1001 NOSIG
13-05-17 LEBL 171000Z 16006KT 100V200 9999 FEW025 17/09 Q1001 NOSIG
13-05-17 LEBL 171030Z 16006KT 100V210 9999 FEW025 17/08 Q1002 NOSIG
13-05-17 LEBL 171100Z 16007KT 130V210 9999 FEW025 18/07 Q1002 NOSIG
13-05-17 LEBL 171130Z 18008KT 150V220 9999 FEW025 18/09 Q1001 NOSIG
13-05-17 LEBL 171200Z 17008KT 140V210 9999 FEW025 18/09 Q1002 NOSIG
13-05-17 LEBL 171230Z 19009KT 150V220 9999 FEW025 18/10 Q1002 NOSIG
13-05-17 LEBL 171300Z 18010KT 150V220 9999 FEW025 19/10 Q1002 NOSIG
13-05-17 LEBL 171330Z 19009KT 160V220 9999 FEW020 SCT043 18/10 Q1002 NOSIG
13-05-17 LEBL 171400Z 20013KT 9999 FEW020 SCT033 19/10 Q1002 NOSIG
13-05-17 LEBL 171430Z 21015KT 9999 FEW020 SCT025 19/11 Q1002 NOSIG
13-05-17 LEBL 171500Z 20013KT 9999 FEW020 SCT025 18/10 Q1002 NOSIG
13-05-17 LEBL 171530Z 19013KT 9999 FEW020 SCT025 18/10 Q1002 NOSIG
13-05-17 LEBL 171600Z 20010KT 9999 FEW020 SCT040 18/11 Q1002 NOSIG
13-05-17 LEBL 171630Z 18009KT 9999 FEW020 SCT035 18/10 Q1002 NOSIG
13-05-17 LEBL 171700Z 18007KT 150V210 9999 FEW010 SCT030 18/11 Q1002 NOSIG
13-05-17 LEBL 171730Z 17006KT 130V200 9999 FEW010 SCT030 17/11 Q1002 NOSIG
13-05-17 LEBL 171800Z 14003KT 100V170 9999 FEW010 SCT036 17/10 Q1002 NOSIG
13-05-17 LEBL 171830Z 12003KT 080V140 9999 FEW010 SCT036 17/12 Q1003 NOSIG
13-05-17 LEBL 171900Z VRB02KT 9999 FEW012 SCT035 17/12 Q1003 NOSIG
13-05-17 LEBL 171930Z 14003KT 110V170 9999 FEW008 SCT027 17/12 Q1003 NOSIG
13-05-17 LEBL 172000Z 15004KT 9999 FEW010 SCT025 17/13 Q1003 NOSIG
13-05-17 LEBL 172030Z 16004KT 120V190 9999 FEW010 SCT025 17/14 Q1003 NOSIG
13-05-17 LEBL 172100Z 15005KT 9999 FEW010 BKN023 17/14 Q1003 NOSIG
13-05-17 LEBL 172130Z 15006KT 120V180 9999 FEW010 BKN022 17/14 Q1003 NOSIG
13-05-17 LEBL 172200Z 19005KT 9999 FEW015 SCT030 17/14 Q1003 NOSIG
13-05-17 LEBL 172230Z 17004KT 9999 FEW015 17/14 Q1003 NOSIG
13-05-17 LEBL 172300Z 16005KT 9999 FEW015 17/14 Q1003 NOSIG
13-05-17 LEBL 172330Z 13003KT 100V170 9999 FEW015 17/14 Q1002 NOSIG
13-05-18 LEBL 180000Z 15006KT 9999 FEW015 SCT025 17/15 Q1002 NOSIG
13-05-18 LEBL 180030Z 13007KT 9999 FEW015 SCT025 BKN040 17/15 Q1001 NOSIG
13-05-18 LEBL 180100Z 13008KT 110V170 9999 FEW015 SCT025 BKN040 17/15 Q1001 NOSIG
13-05-18 LEBL 180130Z 15009KT 120V180 9999 FEW015 FEW025CB BKN040 17/14 Q1000 TEMPO TSRA
13-05-18 LEBL 180200Z 17011KT 140V200 8000 -TSRA SCT015 FEW020CB BKN035 17/15 Q1001 NOSIG RETS NOSIG
13-05-18 LEBL 180300Z 23009KT 9999 FEW010 SCT015 FEW020TCU 15/14 Q1001 NOSIG
13-05-18 LEBL 180330Z 19005KT 9999 -RA FEW013 SCT030 16/14 Q1001 NOSIG
13-05-18 LEBL 180400Z 30008KT 280V340 9999 FEW013 FEW020TCU SCT050 15/12 Q1001
13-05-18 LEBL 180430Z 30006KT 9999 FEW015 FEW020TCU SCT050 15/12 Q1001 NOSIG
13-05-18 LEBL 180500Z 30005KT 9999 FEW015 FEW020TCU BKN045 13/11 Q1001 NOSIG
13-05-18 LEBL 180530Z 31006KT 9999 FEW010 FEW020TCU BKN030 14/12 Q1002 NOSIG
13-05-18 LEBL 180600Z 36003KT 300V050 9999 FEW012 FEW020TCU BKN025 15/12 Q1002
13-05-18 LEBL 180620Z 33007KT 300V030 9999 FC FEW012 FEW020TCU BKN025 14/11 Q1003
13-05-18 LEBL 180630Z 33008KT 290V030 9999 FC FEW012 FEW020TCU BKN030 14/11 Q1003
13-05-18 LEBL 180643Z 33009KT 300V010 9999 FEW012 FEW020TCU BKN030 14/10 Q1003 REFC
13-05-18 LEBL 180700Z 32010G23KT 290V360 9999 FEW012 FEW020TCU SCT030 14/10 Q1003
13-05-18 LEBL 180730Z 32008KT 9999 FEW030 15/10 Q1003 NOSIG
13-05-18 LEBL 180800Z 31007KT 250V010 9999 FEW030 16/10 Q1003 NOSIG
13-05-18 LEBL 180830Z 32006KT 270V360 9999 FEW030 16/10 Q1004 NOSIG
13-05-18 LEBL 180900Z 28003KT 9999 SCT030 17/09 Q1004 NOSIG
13-05-18 LEBL 180930Z 33002KT 9999 FEW025TCU SCT030 19/09 Q1004 NOSIG
13-05-18 LEBL 181000Z 23012KT 9999 FEW020TCU SCT025 19/09 Q1005 NOSIG
13-05-18 LEBL 181030Z 22012KT 9999 SCT020 FEW025TCU 18/08 Q1005 NOSIG
13-05-18 LEBL 181100Z 21013KT 9999 SCT020 FEW025TCU 18/08 Q1005 NOSIG
13-05-18 LEBL 181130Z 21013KT 9999 SCT020 FEW025TCU 18/08 Q1005 NOSIG
13-05-18 LEBL 181200Z 21015KT 9999 SCT020 19/08 Q1005 NOSIG
13-05-18 LEBL 181230Z 21017KT 9999 SCT020 19/08 Q1005 NOSIG
13-05-18 LEBL 181300Z 20017KT 170V230 9999 SCT020 19/08 Q1005 NOSIG
13-05-18 LEBL 181330Z 21021KT 9999 FEW018 SCT020TCU 19/08 Q1006 NOSIG
13-05-18 LEBL 181400Z 22023KT 9999 FEW018 SCT020CB 18/08 Q1006 NOSIG
13-05-18 LEBL 181430Z 23025KT 9999 SCT018 FEW020CB 18/08 Q1006 NOSIG
13-05-18 LEBL 181500Z 26022KT 9999 FEW018 SCT020CB SCT025TCU 17/07 Q1007 NOSIG
13-05-18 LEBL 181530Z 25021G31KT 9999 FEW018 FEW020CB SCT025TCU 18/06 Q1007 NOSIG
13-05-18 LEBL 181600Z 27013KT 9999 FEW018 FEW020CB SCT025 16/06 Q1007 NOSIG
13-05-18 LEBL 181630Z 26014KT 9999 FEW014 FEW020TCU SCT025 17/06 Q1007 NOSIG
13-05-18 LEBL 181700Z 25013KT 9999 FEW025 17/06 Q1007 NOSIG
13-05-18 LEBL 181730Z 23014KT 9999 FEW025TCU 16/08 Q1007 NOSIG
13-05-18 LEBL 181800Z 24016KT 9999 FEW025 17/07 Q1007 NOSIG
13-05-18 LEBL 181830Z 23013KT 9999 FEW025 16/07 Q1008 NOSIG
13-05-18 LEBL 181900Z 24014KT 9999 FEW025 15/08 Q1008 NOSIG
13-05-18 LEBL 181930Z 24011KT 9999 FEW025 15/08 Q1008 NOSIG
13-05-18 LEBL 182000Z 24010KT 9999 FEW025 15/08 Q1008 NOSIG
13-05-18 LEBL 182030Z 24010KT 9999 FEW025 15/08 Q1008 NOSIG
13-05-18 LEBL 182100Z 25010KT 9999 FEW025 15/09 Q1009 NOSIG
13-05-18 LEBL 182130Z 26012KT 9999 FEW025 15/09 Q1009 NOSIG
13-05-18 LEBL NIL
13-05-18 LEBL 182200Z 27009KT 9999 FEW025 15/08 Q1009 NOSIG
13-05-18 LEBL 182230Z 24009KT 9999 FEW025 15/07 Q1009 NOSIG
13-05-18 LEBL 182300Z 27007KT 9999 FEW025 15/08 Q1009 NOSIG
13-05-18 LEBL 182330Z 32006KT 9999 FEW025 15/07 Q1009 NOSIG
13-05-19 LEBL 190000Z 29007KT 9999 FEW025 15/08 Q1010 NOSIG
13-05-19 LEBL 190030Z 30004KT 9999 FEW025 15/06 Q1010 NOSIG
13-05-19 LEBL 190100Z 31008KT 9999 FEW025 14/07 Q1010 NOSIG
13-05-19 LEBL 190130Z 30005KT 9999 FEW025 14/07 Q1010 NOSIG
13-05-19 LEBL 190200Z 27007KT 9999 FEW025 14/07 Q1010 NOSIG
13-05-19 LEBL 190230Z NIL
13-05-19 LEBL 190300Z NIL
13-05-19 LEBL 190330Z NIL
13-05-19 LEBL 190330Z 25007KT 9999 FEW024 12/07 Q1011 NOSIG
13-05-19 LEBL 190400Z 24007KT 9999 FEW024 12/08 Q1011 NOSIG
13-05-19 LEBL 190430Z 25005KT 220V310 9999 FEW024 12/08 Q1011 NOSIG
13-05-19 LEBL 190500Z 27006KT 9999 FEW024 12/08 Q1012 NOSIG
13-05-19 LEBL 190530Z 26007KT 9999 FEW024 13/08 Q1012 NOSIG
13-05-19 LEBL 190600Z 25005KT 220V310 9999 FEW024 14/09 Q1012 NOSIG
13-05-19 LEBL 190630Z 28005KT 240V350 9999 FEW024 15/08 Q1013 NOSIG
13-05-19 LEBL 190700Z VRB02KT 9999 FEW035 15/08 Q1013 NOSIG
13-05-19 LEBL 190730Z 32003KT 250V030 9999 SCT035 15/08 Q1014 NOSIG
13-05-19 LEBL 190800Z 31003KT 9999 SCT035 15/08 Q1014 NOSIG
13-05-19 LEBL 190830Z 36002KT 9999 FEW025 SCT044 16/08 Q1014 NOSIG
13-05-19 LEBL 190900Z 01004KT 9999 FEW025 BKN045 17/08 Q1014 NOSIG
13-05-19 LEBL 190930Z 30003KT 9999 FEW025 BKN050 17/08 Q1014 NOSIG
13-05-19 LEBL 191000Z 32002KT 9999 FEW025 BKN050 17/08 Q1015 NOSIG
13-05-19 LEBL 191030Z 28007KT 220V310 9999 FEW025 BKN050 18/07 Q1015 NOSIG
13-05-19 LEBL 191100Z 31011G21KT 9999 FEW025 SCT045 18/07 Q1015 NOSIG
13-05-19 LEBL 191130Z 27010KT 220V300 9999 FEW025 SCT055 19/07 Q1015 NOSIG
13-05-19 LEBL 191200Z 28009KT 9999 FEW025 BKN053 19/05 Q1015 NOSIG
13-05-19 LEBL 191230Z 26007KT 220V310 9999 FEW025 BKN053 18/08 Q1015 NOSIG
13-05-19 LEBL 191300Z 21014KT 9999 FEW025 SCT053 18/09 Q1015 NOSIG
13-05-19 LEBL 191330Z 20015KT 9999 FEW025 SCT053 18/09 Q1015 NOSIG
13-05-19 LEBL 191400Z 20015KT 9999 FEW025 SCT053 19/10 Q1015 NOSIG
13-05-19 LEBL 191430Z 22012KT 9999 FEW025 SCT053 18/09 Q1015 NOSIG
13-05-19 LEBL 191437Z 21012KT 9999 SHRA FEW018TCU SCT053 17/10 Q1015 NOSIG
13-05-19 LEBL 191500Z 21014KT 9999 RA FEW018TCU SCT055 18/09 Q1015 NOSIG
13-05-19 LEBL 191530Z 19009KT 160V220 9999 FEW025 SCT055 17/11 Q1015 RERA NOSIG
13-05-19 LEBL 191600Z 23006KT 190V330 9999 FEW025 SCT055 16/12 Q1016 NOSIG
13-05-19 LEBL 191630Z 08005KT 060V160 9999 FEW025 SCT055 16/12 Q1016 NOSIG
13-05-19 LEBL 191700Z 05013KT 020V080 7000 SHRA FEW018TCU SCT030 BKN050 15/12 Q1017 NOSIG
13-05-19 LEBL 191730Z 06013KT 9999 FEW018TCU SCT030 BKN050 14/12 Q1017 RERA NOSIG
13-05-19 LEBL 191800Z 05011KT 9999 -RA FEW025 SCT032 BKN050 14/12 Q1017 NOSIG
13-05-19 LEBL 191830Z 02008KT 9999 FEW025 SCT032 BKN055 14/11 Q1017 RERA NOSIG
13-05-19 LEBL 192000Z 33005KT 9999 -RA FEW010 FEW020TCU BKN050 13/11 Q1018 NOSIG
13-05-19 LEBL 192030Z 00000KT 9999 -RA FEW010 FEW020CB BKN055 13/11 Q1019 NOSIG
13-05-19 LEBL 192100Z VRB02KT 9999 RA FEW010 FEW020TCU BKN055 13/11 Q1019 NOSIG
13-05-19 LEBL 192130Z VRB01KT 6000 RA FEW010 FEW020TCU BKN055 13/11 Q1019 NOSIG
13-05-19 LEBL 192200Z 05004KT 8000 RA FEW010 FEW020TCU BKN055 13/11 Q1018 NOSIG
13-05-19 LEBL 192230Z 02005KT 9999 FEW010 13/12 Q1018 RERA NOSIG
13-05-19 LEBL 192300Z 30004KT 9999 FEW010 13/12 Q1018 NOSIG
13-05-19 LEBL 192330Z 31006KT 9999 FEW010 FEW030TCU 13/11 Q1018 NOSIG
13-05-20 LEBL 200000Z 32006KT 8000 FEW010 FEW030TCU 13/11 Q1018 NOSIG
13-05-20 LEBL 200030Z 32009KT 9999 FEW010 FEW030TCU 13/11 Q1017 NOSIG
13-05-20 LEBL 200100Z 32009KT 9999 FEW010 FEW030TCU 13/11 Q1017 NOSIG
13-05-20 LEBL 200130Z 35007KT 310V010 9999 FEW010 FEW030TCU SCT055 13/11 Q1017 NOSIG
13-05-20 LEBL 200200Z 29010KT 8000 RA FEW010 FEW015TCU SCT055 12/11 Q1018 TEMPO SHRA
13-05-20 LEBL 200230Z 30007KT 8000 -RA FEW010 FEW018TCU SCT055 13/11 Q1018 NOSIG
13-05-20 LEBL 200300Z 32005KT 7000 RA FEW010 FEW018TCU BKN055 12/11 Q1018 NOSIG
13-05-20 LEBL 200330Z 29005KT 7000 RA FEW010 FEW018CB BKN055 12/11 Q1018 NOSIG
13-05-20 LEBL 200400Z 29004KT 8000 -RA FEW012 FEW020CB SCT055 12/11 Q1018 NOSIG
13-05-20 LEBL 200430Z 32005KT 290V350 8000 RA FEW012 FEW020CB SCT055 12/11 Q1018
13-05-20 LEBL 200500Z 36004KT 340V050 9000 -RA FEW012 FEW020TCU SCT055 12/11 Q1018
13-05-20 LEBL 200530Z 02005KT 340V040 9999 FEW018TCU SCT055 12/11 Q1018 NOSIG
13-05-20 LEBL 200600Z 36006KT 9999 FEW012 FEW018TCU 13/10 Q1018 NOSIG
13-05-20 LEBL 200630Z 35006KT 9999 SCT015 13/11 Q1018 NOSIG
13-05-20 LEBL 200700Z 34005KT 9999 SCT015 13/11 Q1018 NOSIG
13-05-20 LEBL 200730Z 02006KT 350V050 9999 FEW025 14/12 Q1018 NOSIG
13-05-20 LEBL 200800Z 02007KT 360V060 9999 FEW025 14/11 Q1019 NOSIG
13-05-20 LEBL 200830Z 06005KT 020V100 9999 FEW025 15/11 Q1019 NOSIG
13-05-20 LEBL 200900Z 08008KT 050V110 9999 FEW020 SCT034 16/11 Q1019 NOSIG
13-05-20 LEBL 200930Z 10008KT 9999 FEW020 SCT034 16/12 Q1019 NOSIG
13-05-20 LEBL 201000Z 10009KT 9999 SCT020 16/09 Q1019 NOSIG
13-05-20 LEBL 201030Z 09010KT 060V120 9999 SCT020 SCT039 16/09 Q1019 NOSIG
13-05-20 LEBL 201100Z 10010KT 9999 FEW020 SCT040 17/10 Q1019 NOSIG
13-05-20 LEBL 201130Z 10010KT 9999 FEW020 SCT040 17/09 Q1019 NOSIG
13-05-20 LEBL NIL
13-05-20 LEBL 201200Z 09010KT 9999 FEW024 SCT040 17/10 Q1019 NOSIG
13-05-20 LEBL 201300Z NIL
13-05-20 LEBL 201300 10012KT 9999 FEW025 SCT040 17/10 Q1019 NOSIG
13-05-20 LEBL 201300Z 10012KT 9999 FEW025 SCT040 17/10 Q1019 NOSIG
13-05-20 LEBL 201330Z 08011KT 9999 FEW025 SCT040 17/10 Q1019 NOSIG
13-05-20 LEBL 201400Z 09011KT 060V120 9999 FEW025 SCT040 17/10 Q1019 NOSIG
13-05-20 LEBL 201430Z 09011KT 060V120 9999 FEW025 17/10 Q1019 NOSIG
13-05-20 LEBL 201500Z 09010KT 9999 SCT032 17/10 Q1019 NOSIG
13-05-20 LEBL 201530Z 08011KT 040V120 9999 SCT032 17/10 Q1019 NOSIG
13-05-20 LEBL 201600Z 09009KT 060V120 9999 SCT025 16/10 Q1018 NOSIG
13-05-20 LEBL 201630Z 09009KT 060V130 9999 SCT025 16/10 Q1018 NOSIG
13-05-20 LEBL 201700Z 09007KT 060V130 9999 SCT025 16/10 Q1018 NOSIG
13-05-20 LEBL 201730Z 08007KT 050V110 9999 SCT025 16/10 Q1018 NOSIG
13-05-20 LEBL 201800Z 06007KT 9999 SCT025 16/10 Q1018 NOSIG
13-05-20 LEBL 201830Z 08006KT 040V110 9999 SCT025 16/10 Q1019 NOSIG
13-05-20 LEBL 201900Z 08004KT 9999 FEW015 SCT025 16/10 Q1019 NOSIG
13-05-20 LEBL 201930Z 10004KT 070V130 9999 FEW015 SCT030 16/10 Q1019 NOSIG
13-05-20 LEBL 202000Z 08005KT 030V100 9999 FEW015 SCT030 15/10 Q1019 NOSIG
13-05-20 LEBL 202030Z 07003KT 9999 SCT022 15/10 Q1020 NOSIG
13-05-20 LEBL 202100Z VRB01KT 9999 FEW020 15/10 Q1020 NOSIG
13-05-20 LEBL 202130Z 00000KT 9999 FEW020 14/11 Q1020 NOSIG
13-05-20 LEBL 202200Z 33004KT 9999 FEW020 14/11 Q1020 NOSIG
13-05-20 LEBL 202230Z 32005KT 9999 FEW020 13/11 Q1020 NOSIG
13-05-20 LEBL 202300Z 33007KT 9999 FEW020 13/11 Q1019 NOSIG
13-05-20 LEBL 202330Z 33007KT 9999 FEW020 12/11 Q1019 NOSIG
13-05-21 LEBL 210000Z 32007KT 9999 FEW020 13/11 Q1019 NOSIG
13-05-21 LEBL 210030Z NIL
13-05-21 LEBL 210100Z NIL
13-05-21 LEBL 210100Z 33007KT 9999 FEW020 12/10 Q1018 NOSIG
13-05-21 LEBL 210130Z 33006KT 9999 FEW020 12/10 Q1018 NOSIG
13-05-21 LEBL 210200Z 31007KT 9999 FEW020 12/10 Q1018 NOSIG
13-05-21 LEBL 210230Z 32007KT 9999 FEW020 12/10 Q1018 NOSIG
13-05-21 LEBL 210300Z 33008KT 300V360 9999 FEW020 11/10 Q1017 NOSIG
13-05-21 LEBL 210330Z 32007KT 9999 FEW020 12/10 Q1017 NOSIG
13-05-21 LEBL 210400Z 33010KT 9000 FEW020 11/10 Q1017 NOSIG
13-05-21 LEBL 210430Z 34009KT 9000 FEW020 12/10 Q1017 NOSIG
13-05-21 LEBL 210500Z 32008KT 9000 FEW020 11/10 Q1017 NOSIG
13-05-21 LEBL 210530Z 32007KT 9000 FEW020 11/10 Q1017 NOSIG
13-05-21 LEBL 210600Z 33008KT 9999 FEW020 12/10 Q1017 NOSIG
13-05-21 LEBL 210630Z 34006G16KT 270V070 9999 FEW020 13/10 Q1018 NOSIG
13-05-21 LEBL 210700Z 33004KT 240V010 9999 FEW020 13/10 Q1018 NOSIG
13-05-21 LEBL 210730Z 33007G17KT 9999 FEW020 14/10 Q1018 NOSIG
13-05-21 LEBL 210800Z 34007KT 280V070 9999 FEW020 15/10 Q1018 NOSIG
13-05-21 LEBL 210830Z 04006KT 350V080 9999 FEW020 16/10 Q1017 NOSIG
13-05-21 LEBL 210900Z 06007KT 020V100 9999 FEW020 18/06 Q1018 NOSIG
13-05-21 LEBL 210930Z 08006KT 040V110 9999 FEW020 18/09 Q1018 NOSIG
13-05-21 LEBL NIL
13-05-21 LEBL 211030Z NIL
13-05-21 LEBL 211100Z NIL
13-05-21 LEBL 211130Z 14007KT 120V180 9999 FEW020 17/10 Q1017 NOSIG
13-05-21 LEBL 211200Z 15006KT 120V210 9999 FEW020 18/10 Q1016 NOSIG
13-05-21 LEBL 211230Z 17008KT 110V210 9999 FEW020 18/10 Q1016 NOSIG
13-05-21 LEBL 211300Z 18008KT 150V220 9999 FEW020 18/11 Q1015 NOSIG
13-05-21 LEBL 211330Z 17009KT 140V210 9999 FEW020 18/10 Q1015 NOSIG
13-05-21 LEBL 211400Z 20010KT 170V240 9999 FEW020 18/11 Q1015 NOSIG
13-05-21 LEBL 211430Z NIL
13-05-21 LEBL 211430Z 15007KT 9999 FEW020 17/11 Q1014 NOSIG
13-05-21 LEBL 211500Z 18008KT 9999 FEW020 17/11 Q1014 NOSIG
13-05-21 LEBL 211530Z 19010KT 160V220 9999 FEW020 18/11 Q1014 NOSIG
13-05-21 LEBL 211600Z 20009KT 170V240 9999 FEW020 17/11 Q1014 NOSIG
13-05-21 LEBL 211630Z 20008KT 160V220 9999 FEW020 17/11 Q1013 NOSIG
13-05-21 LEBL 211700Z 19006KT 150V220 9999 FEW020 17/11 Q1013 NOSIG
13-05-21 LEBL 211730Z 18004KT 120V210 9999 FEW020 17/11 Q1013 NOSIG
13-05-21 LEBL 211800Z 14004KT 100V190 9999 FEW020 16/11 Q1013 NOSIG
13-05-21 LEBL 211830Z 18004KT 9999 FEW020 16/10 Q1013 NOSIG
13-05-21 LEBL 211900Z 19004KT 160V220 9999 FEW020 16/11 Q1013 NOSIG
13-05-21 LEBL 211930Z 20004KT 9999 FEW020 16/11 Q1013 NOSIG
13-05-21 LEBL 212000Z 21003KT 9999 FEW020 15/11 Q1014 NOSIG
13-05-21 LEBL 212030Z 21003KT 9999 FEW020 15/11 Q1014 NOSIG
13-05-21 LEBL 212100Z 21004KT 9999 FEW025 15/11 Q1014 NOSIG
13-05-21 LEBL 212130Z 25007KT 9999 FEW033 14/11 Q1015 NOSIG
13-05-21 LEBL 212200Z 24009KT 9999 FEW030 15/11 Q1014 NOSIG
13-05-21 LEBL 212230Z 24008KT 9999 FEW030 15/12 Q1014 NOSIG
13-05-21 LEBL 212300Z 25009KT 9999 FEW030 15/12 Q1014 NOSIG
13-05-21 LEBL 212330Z 27006KT 9999 FEW030 15/11 Q1014 NOSIG
13-05-22 LEBL 220000Z 29005KT 9999 FEW010 15/11 Q1013 NOSIG
13-05-22 LEBL 220030Z 30004KT 9999 FEW010 15/10 Q1013 NOSIG
13-05-22 LEBL 220100Z 32004KT 9999 FEW010 15/10 Q1013 NOSIG
13-05-22 LEBL 220130Z 33006KT 9999 FEW010 15/11 Q1013 NOSIG
13-05-22 LEBL 220200Z 28006KT 9999 FEW010 15/10 Q1012 NOSIG
13-05-22 LEBL 220230Z NIL
13-05-22 LEBL 220300Z NIL
13-05-22 LEBL 220300Z 30012KT 9999 FEW020 15/08 Q1011 NOSIG
13-05-22 LEBL 220300Z 30012KT 9999 FEW010 15/09 Q1011 NOSIG
13-05-22 LEBL 220330Z 31013KT 9999 FEW010 15/08 Q1012 NOSIG
13-05-22 LEBL 220400Z 30015KT 9999 FEW010 15/08 Q1011 NOSIG
13-05-22 LEBL 220430Z 31013KT 270V330 9999 FEW010 14/08 Q1012 NOSIG
13-05-22 LEBL 220500Z 31013KT 9999 FEW020 14/08 Q1012 NOSIG
13-05-22 LEBL 220530Z 31012KT 9999 FEW020 14/08 Q1012 NOSIG
13-05-22 LEBL 220600Z 32012KT 290V350 9999 FEW025 15/08 Q1012 NOSIG
13-05-22 LEBL 220630Z 32014G24KT 9999 FEW025 15/08 Q1012 NOSIG
13-05-22 LEBL 220700Z 33013G26KT 300V010 9999 FEW020 16/09 Q1012 NOSIG
13-05-22 LEBL 220730Z 32013KT 300V030 9999 FEW020 16/09 Q1012 NOSIG
13-05-22 LEBL 220800Z 33013KT 9999 FEW020 17/09 Q1012 NOSIG
13-05-22 LEBL 220830Z 34012G23KT 300V020 9999 FEW020 18/09 Q1012 NOSIG
13-05-22 LEBL 220900Z 33012KT 290V350 9999 FEW020 19/10 Q1012 NOSIG
13-05-22 LEBL 220930Z 21009KT 9999 FEW020 19/10 Q1012 NOSIG
13-05-22 LEBL 221000Z 22009KT 190V250 9999 FEW020 19/10 Q1012 NOSIG
13-05-22 LEBL 221030Z 21010KT 9999 FEW020 19/10 Q1012 NOSIG
13-05-22 LEBL 221100Z 19010KT 160V220 9999 FEW020 20/10 Q1012 NOSIG
13-05-22 LEBL 221130Z 20008KT 9999 FEW020 20/12 Q1011 NOSIG
13-05-22 LEBL 221200Z 20010KT 9999 FEW020 21/12 Q1011 NOSIG
13-05-22 LEBL 221230Z 20010KT 9999 FEW020 22/12 Q1011 NOSIG
13-05-22 LEBL 221300Z 19011KT 9999 FEW020 22/12 Q1011 NOSIG
13-05-22 LEBL 221330Z 19010KT 160V220 9999 FEW020 22/13 Q1010 NOSIG
13-05-22 LEBL 221400Z 21010KT 170V240 9999 FEW012 22/13 Q1010 NOSIG
13-05-22 LEBL 221430Z 20008KT 9999 FEW012 24/13 Q1009 NOSIG
13-05-22 LEBL 221500Z 20011KT 9999 FEW015 23/13 Q1009 NOSIG
13-05-22 LEBL 221530Z 22010KT 9999 FEW015 24/12 Q1009 NOSIG
13-05-22 LEBL 221600Z 23006KT 9999 FEW018 25/13 Q1008 NOSIG
13-05-22 LEBL 221630Z 30012KT 260V330 9999 SCT018 28/08 Q1008 BECMG 06010KT
13-05-22 LEBL 221700Z 06011KT 010V080 9999 SCT018 23/15 Q1008 NOSIG
13-05-22 LEBL 221730Z 05014KT 010V080 9999 SCT018 21/14 Q1009 NOSIG
13-05-22 LEBL 221800Z 05013KT 020V080 9999 FEW020 20/15 Q1009 NOSIG
13-05-22 LEBL 221830Z 05011KT 030V090 9999 FEW020 19/15 Q1009 NOSIG
13-05-22 LEBL 221900Z 05011KT 020V080 9999 FEW020 19/15 Q1010 NOSIG
13-05-22 LEBL 221930Z 05009KT 9999 FEW020 19/15 Q1011 NOSIG
13-05-22 LEBL 222000Z 05009KT 9999 FEW020 18/15 Q1011 NOSIG
13-05-22 LEBL 222030Z 03006KT 9999 FEW020 19/15 Q1011 NOSIG
13-05-22 LEBL 222100Z 02005KT 9999 FEW020 19/14 Q1012 NOSIG
13-05-22 LEBL 222130Z 03004KT 9999 FEW020 19/14 Q1012 NOSIG
13-05-22 LEBL 222200Z 01005KT 340V060 9999 FEW020 18/13 Q1012 NOSIG
13-05-22 LEBL 222230Z 03004KT 9999 FEW020 18/13 Q1012 NOSIG
13-05-22 LEBL 222300Z 05004KT 020V110 9999 FEW020 18/13 Q1012 NOSIG
13-05-22 LEBL 222330Z 02003KT 9999 FEW020 18/13 Q1012 NOSIG
13-05-23 LEBL 230000Z VRB02KT 9999 FEW020 17/13 Q1012 NOSIG
13-05-23 LEBL 230030Z 25007KT 9999 FEW020 16/13 Q1012 NOSIG
13-05-23 LEBL 230100Z 26008KT 9999 FEW020 15/13 Q1012 NOSIG
13-05-23 LEBL 230130Z 25007KT 9999 FEW020 15/13 Q1012 NOSIG
13-05-23 LEBL 230130Z NIL
13-05-23 LEBL 230200Z 24008KT 9999 FEW020 16/13 Q1012 NOSIG
13-05-23 LEBL 230230Z 28007KT 230V300 9999 FEW020 15/12 Q1012 NOSIG
13-05-23 LEBL 230300Z 28005KT 9999 FEW020 15/12 Q1012 NOSIG
13-05-23 LEBL 230330Z 32003KT 9999 FEW020 15/12 Q1012 NOSIG
13-05-23 LEBL 230400Z 31006KT 9999 FEW020 15/10 Q1012 NOSIG
13-05-23 LEBL 230430Z 32008KT 9999 FEW020 14/09 Q1012 NOSIG
13-05-23 LEBL 230500Z 32007KT 290V350 9999 FEW020 15/09 Q1012 NOSIG
13-05-23 LEBL 230530Z 33011KT 9999 FEW020 15/09 Q1012 NOSIG
13-05-23 LEBL 230600Z 33008KT 290V350 9999 FEW020 15/09 Q1012 NOSIG
13-05-23 LEBL 230630Z 32008KT 290V350 9999 FEW020 16/09 Q1013 NOSIG
13-05-23 LEBL 230700Z 32008KT 280V350 9999 FEW020 17/09 Q1013 NOSIG
13-05-23 LEBL 230730Z 30005KT 250V350 9999 FEW020 18/10 Q1013 NOSIG
13-05-23 LEBL 230800Z 25005KT 190V350 9999 FEW020 19/10 Q1013 NOSIG
13-05-23 LEBL 230830Z 23011KT 200V260 9999 FEW020 19/10 Q1013 NOSIG
13-05-23 LEBL 230900Z 22013KT 200V260 9999 FEW020 19/10 Q1013 NOSIG
13-05-23 LEBL 230930Z NIL
13-05-23 LEBL 230930Z 22013KT 9999 FEW020 19/10 Q1013 NOSIG
13-05-23 LEBL 231000Z 22012KT 190V250 9999 FEW020 20/11 Q1012 NOSIG
13-05-23 LEBL 231030Z 20012KT 150V240 9999 FEW020 19/11 Q1012 NOSIG
13-05-23 LEBL 231100Z 20012KT 9999 FEW020 20/13 Q1012 NOSIG
13-05-23 LEBL 231130Z 18009KT 160V220 9999 FEW020 19/12 Q1012 NOSIG
13-05-23 LEBL 231200Z 18009KT 140V210 9999 FEW020 21/11 Q1011 NOSIG
13-05-23 LEBL 231230Z 20011KT 9999 FEW020 21/12 Q1011 NOSIG
13-05-23 LEBL 231300Z 20014KT 9999 FEW020 21/12 Q1011 NOSIG
13-05-23 LEBL 231330Z 22019KT 9999 FEW020 21/12 Q1010 NOSIG
13-05-23 LEBL 231400Z 22019KT 9999 FEW020 21/13 Q1010 NOSIG
13-05-23 LEBL 231430Z 22019KT 9999 FEW020 21/12 Q1010 NOSIG
13-05-23 LEBL 231500Z 22019KT 9999 FEW020 22/13 Q1010 NOSIG
13-05-23 LEBL 231530Z 22021KT 9999 FEW020 21/13 Q1009 NOSIG
13-05-23 LEBL 231600Z 21022KT 9999 FEW020 21/13 Q1009 NOSIG
13-05-23 LEBL 231630Z 21024KT 9999 FEW020 19/14 Q1009 NOSIG
13-05-23 LEBL 231700Z 21023KT 9999 FEW020 20/14 Q1009 NOSIG
13-05-23 LEBL 231730Z 22020KT 9999 FEW020 21/13 Q1009 NOSIG
13-05-23 LEBL 231800Z 22015KT 9999 FEW020 21/11 Q1009 NOSIG
13-05-23 LEBL 231830Z 27009KT 9999 FEW020 21/11 Q1009 NOSIG
13-05-23 LEBL 231900Z 33011G22KT 300V360 9999 FEW020 22/07 Q1010 BECMG 07010KT
13-05-23 LEBL 231930Z 34010KT 290V020 9999 FEW020 21/07 Q1011 NOSIG
13-05-23 LEBL 232000Z 32010KT 9999 FEW020 20/06 Q1011 NOSIG
13-05-23 LEBL 232030Z 33011KT 300V360 9999 FEW020 19/06 Q1011 NOSIG
13-05-23 LEBL 232100Z 32011KT 300V360 9999 FEW020 18/06 Q1012 NOSIG
13-05-23 LEBL 232130Z 34013KT 310V010 9999 FEW020 17/05 Q1012 NOSIG
13-05-23 LEBL 232200Z 33011KT 9999 FEW020 17/05 Q1012 NOSIG
13-05-23 LEBL 232230Z 32013KT 9999 FEW020 16/06 Q1013 NOSIG
13-05-23 LEBL 232300Z 31011KT 9999 FEW020 16/05 Q1013 NOSIG
13-05-23 LEBL 232330Z 31010KT 9999 FEW020 SCT055 16/05 Q1013 NOSIG
13-05-24 LEBL 240000Z 31010KT 280V350 9999 FEW020 BKN045 15/05 Q1013 NOSIG
13-05-24 LEBL 240030Z 33011KT 9999 FEW020 SCT050 15/04 Q1013 NOSIG
13-05-24 LEBL 240100Z 33008KT 300V360 9999 FEW020 SCT050 15/04 Q1013 NOSIG
13-05-24 LEBL 240130Z 32009KT 9999 FEW020 SCT050 14/04 Q1013 NOSIG
13-05-24 LEBL 240200Z 32007KT 290V350 9999 FEW020 SCT050 14/04 Q1013 NOSIG
13-05-24 LEBL 240230Z 32009KT 9999 FEW018 14/04 Q1013 NOSIG
13-05-24 LEBL 240300Z 31007KT 9999 FEW018 13/04 Q1013 NOSIG
13-05-24 LEBL 240330Z 30007KT 9999 FEW018 13/04 Q1013 NOSIG
13-05-24 LEBL 240400Z 29006KT 9999 FEW018 13/04 Q1013 NOSIG
13-05-24 LEBL 240430Z 29005KT 9999 FEW020 13/04 Q1013 NOSIG
13-05-24 LEBL 240500Z 31006KT 9999 FEW020 13/04 Q1013 NOSIG
13-05-24 LEBL 240530Z 30004KT 260V340 9999 FEW020 13/04 Q1013 NOSIG
13-05-24 LEBL 240600Z 32009KT 260V340 9999 FEW020 13/04 Q1013 NOSIG
13-05-24 LEBL 240630Z 32010KT 280V340 9999 FEW020 14/04 Q1013 NOSIG
13-05-24 LEBL 240700Z 32010KT 290V350 9999 FEW020 14/04 Q1013 NOSIG
13-05-24 LEBL 240730Z 33009KT 270V010 9999 FEW020 15/05 Q1013 NOSIG
13-05-24 LEBL 240800Z 34008KT 290V020 9999 FEW020 16/04 Q1014 NOSIG
13-05-24 LEBL 240830Z 32005KT 250V010 9999 FEW020 16/04 Q1014 NOSIG
13-05-24 LEBL 240900Z 19008KT 140V210 9999 FEW020 16/05 Q1014 NOSIG
13-05-24 LEBL 240930Z 18009KT 130V200 9999 FEW020 16/06 Q1014 NOSIG
13-05-24 LEBL 241000Z 18011KT 9999 FEW020 17/05 Q1014 NOSIG
13-05-24 LEBL 241030Z 16011KT 130V190 9999 FEW020 17/06 Q1014 NOSIG
13-05-24 LEBL 241100Z 17010KT 9999 FEW020 17/06 Q1015 NOSIG
13-05-24 LEBL 241130Z 17012KT 130V200 9999 FEW020 17/06 Q1014 NOSIG
13-05-24 LEBL 241200Z 16012KT 120V190 9999 FEW020 18/07 Q1014 NOSIG
13-05-24 LEBL 241230Z 16013KT 130V200 9999 FEW020 18/08 Q1014 NOSIG
13-05-24 LEBL 241300Z 16017KT 9999 FEW020 17/08 Q1014 NOSIG
13-05-24 LEBL 241330Z 16018KT 130V190 9999 FEW020 17/10 Q1014 NOSIG
13-05-24 LEBL 241400Z 16020KT 9999 FEW020 17/10 Q1014 NOSIG
13-05-24 LEBL 241430Z 15017KT 9999 FEW020 17/10 Q1014 NOSIG
13-05-24 LEBL 241500Z 15016KT 120V190 9999 FEW020 17/11 Q1014 NOSIG
13-05-24 LEBL 241530Z 15015KT 110V170 9999 FEW020 17/11 Q1014 NOSIG
13-05-24 LEBL 241600Z 15014KT 9999 FEW020 17/11 Q1014 NOSIG
13-05-24 LEBL 241630Z 14012KT 110V170 9999 FEW020 17/11 Q1014 NOSIG
13-05-24 LEBL 241700Z 14012KT 110V170 9999 FEW020 17/11 Q1014 NOSIG
13-05-24 LEBL 241730Z 13014KT 100V160 9999 FEW020 17/11 Q1014 NOSIG
13-05-24 LEBL 241800Z 12012KT 100V160 9999 FEW020 16/11 Q1014 NOSIG
13-05-24 LEBL 241830Z 12013KT 9999 FEW020 16/11 Q1014 NOSIG
13-05-24 LEBL 241900Z 12009KT 090V160 9999 FEW020 16/11 Q1014 NOSIG
13-05-24 LEBL 241930Z 11010KT 9999 FEW020 16/11 Q1015 NOSIG
13-05-24 LEBL 242000Z 11009KT 080V140 9999 FEW020 16/12 Q1015 NOSIG
13-05-24 LEBL 242030Z 11009KT 9999 FEW020 16/12 Q1015 NOSIG
13-05-24 LEBL 242100Z 08007KT 030V110 9999 FEW020 16/12 Q1015 NOSIG
13-05-24 LEBL 242130Z 01005KT 320V070 9999 FEW020 16/12 Q1015 NOSIG
13-05-24 LEBL 242200Z 35006KT 320V030 9999 FEW020 15/12 Q1015 NOSIG
13-05-24 LEBL 242230Z 34004KT 9999 FEW020 15/11 Q1015 NOSIG
13-05-24 LEBL 242300Z 27005KT 250V320 9999 FEW020 13/11 Q1015 NOSIG
13-05-24 LEBL 242330Z 29004KT 240V310 9999 FEW020 13/11 Q1015 NOSIG
13-05-25 LEBL 250000Z 29004KT 9999 FEW020 14/08 Q1015 NOSIG
13-05-25 LEBL 250030Z 29004KT 9999 FEW020 13/06 Q1014 NOSIG
13-05-25 LEBL 250100Z 26005KT 9999 FEW020 13/05 Q1014 NOSIG
13-05-25 LEBL 250130Z 30007KT 9999 FEW020 12/05 Q1014 NOSIG
13-05-25 LEBL 250200Z 29007KT 9999 FEW020 12/04 Q1014 NOSIG
13-05-25 LEBL 250230Z 27006KT 9999 FEW020 12/03 Q1014 NOSIG
13-05-25 LEBL 250300Z 27006KT 9999 FEW020 12/02 Q1014 NOSIG
13-05-25 LEBL 250330Z 28005KT 9999 FEW020 12/02 Q1014 NOSIG
13-05-25 LEBL 250400Z 03004KT 360V060 9999 FEW020 12/02 Q1014 NOSIG
13-05-25 LEBL 250430Z 32003KT 260V360 9999 FEW020 11/02 Q1014 NOSIG
13-05-25 LEBL 250500Z 29007KT 9999 FEW020 12/03 Q1014 NOSIG
13-05-25 LEBL 250530Z 30007KT 9999 FEW020 12/03 Q1014 NOSIG
13-05-25 LEBL 250600Z 30007KT 260V330 9999 FEW020 SCT039 12/03 Q1015 NOSIG
13-05-25 LEBL 250630Z 34013G27KT 300V010 9999 FEW020 SCT039 12/03 Q1015 NOSIG
13-05-25 LEBL 250700Z 33010G22KT 300V020 9999 SCT033 13/04 Q1015 NOSIG
13-05-25 LEBL 250730Z 34012KT 9999 SCT033 14/04 Q1015 NOSIG
13-05-25 LEBL 250800Z 32010KT 300V360 9999 SCT020 15/04 Q1016 NOSIG
13-05-25 LEBL 250830Z 33007KT 260V040 9999 FEW020 15/05 Q1016 NOSIG
13-05-25 LEBL 250900Z 36004KT 290V100 9999 FEW020 16/07 Q1016 NOSIG
13-05-25 LEBL 250930Z 33003KT 9999 FEW020 17/07 Q1016 NOSIG
13-05-25 LEBL 251000Z 13008KT 100V170 9999 FEW030 17/09 Q1016 NOSIG
13-05-25 LEBL 251030Z 12009KT 9999 FEW035 17/08 Q1016 NOSIG
13-05-25 LEBL 251100Z 14009KT 100V160 9999 FEW035 17/10 Q1016 NOSIG
13-05-25 LEBL 251130Z 17009KT 9999 FEW030 16/10 Q1016 NOSIG
13-05-25 LEBL 251200Z 15010KT 110V180 9999 FEW030 17/10 Q1016 NOSIG
13-05-25 LEBL 251230Z 14009KT 100V160 9999 FEW030 17/10 Q1016 NOSIG
13-05-25 LEBL 251300Z 14009KT 120V180 9999 FEW030 17/11 Q1016 NOSIG
13-05-25 LEBL 251330Z 17010KT 140V200 9999 FEW020 17/11 Q1016 NOSIG
13-05-25 LEBL 251400Z 18009KT 150V210 9999 FEW020 17/11 Q1015 NOSIG
13-05-25 LEBL 251430Z 17010KT 130V200 9999 FEW020 18/11 Q1015 NOSIG
13-05-25 LEBL 251500Z 17011KT 130V200 9999 FEW020 18/11 Q1015 NOSIG
13-05-25 LEBL 251530Z 15012KT 9999 FEW020 17/11 Q1015 NOSIG
13-05-25 LEBL 251600Z 15010KT 9999 FEW020 17/10 Q1015 NOSIG
13-05-25 LEBL 251630Z 15010KT 120V200 9999 FEW020 17/10 Q1015 NOSIG
13-05-25 LEBL 251700Z 13009KT 100V160 9999 FEW020 17/10 Q1016 NOSIG
13-05-25 LEBL 251730Z 14009KT 110V170 9999 FEW020 17/10 Q1016 NOSIG
13-05-25 LEBL 251800Z 12008KT 9999 FEW020 17/09 Q1016 NOSIG
13-05-25 LEBL 251830Z 11008KT 9999 FEW020 16/09 Q1016 NOSIG
13-05-25 LEBL 251900Z 09009KT 9999 FEW020 16/11 Q1017 NOSIG
13-05-25 LEBL 251930Z 10009KT 9999 FEW020 16/10 Q1017 NOSIG
13-05-25 LEBL 252000Z 09009KT 9999 FEW020 16/10 Q1018 NOSIG
13-05-25 LEBL 252030Z 10012KT 9999 FEW020 16/11 Q1018 NOSIG
13-05-25 LEBL 252100Z 10014KT 9999 FEW020 SCT040 16/11 Q1019 NOSIG
13-05-25 LEBL 252130Z 10013KT 9999 FEW005 BKN045 16/10 Q1019 NOSIG
13-05-25 LEBL 252200Z 10011KT 9999 FEW010 BKN050 16/10 Q1020 NOSIG
13-05-25 LEBL 252230Z 07010KT 9999 FEW010 SCT025 BKN050 15/11 Q1020 NOSIG
13-05-25 LEBL 252300Z 07009KT 9999 FEW010 SCT025 BKN050 15/10 Q1020 NOSIG
13-05-25 LEBL 252330Z 08008KT 060V120 9999 FEW010 SCT025 BKN050 15/10 Q1020 NOSIG
13-05-26 LEBL 260000Z 04005KT 9999 FEW010 SCT025 15/10 Q1020 NOSIG
13-05-26 LEBL 260030Z 35003KT 9999 FEW010 SCT025 14/10 Q1020 NOSIG
13-05-26 LEBL 260100Z 00000KT 9999 FEW010 SCT025 14/10 Q1019 NOSIG
13-05-26 LEBL 260130Z 03003KT 9999 FEW010 SCT025 14/10 Q1019 NOSIG
13-05-26 LEBL 260200Z VRB01KT 9999 FEW010 SCT023 14/10 Q1019 NOSIG
13-05-26 LEBL 260230Z 32007KT 9999 FEW010 SCT022 14/10 Q1019 NOSIG
13-05-26 LEBL 260300Z 33005KT 300V010 9999 FEW010 BKN022 14/09 Q1019 NOSIG
13-05-26 LEBL 260330Z 32005KT 9999 FEW012 BKN023 14/09 Q1019 NOSIG
13-05-26 LEBL 260400Z 34004KT 9999 FEW012 BKN025 14/10 Q1019 NOSIG
13-05-26 LEBL 260430Z 34006KT 9999 FEW015 SCT022 14/09 Q1019 NOSIG
13-05-26 LEBL 260500Z 32006KT 9999 FEW015 BKN022 14/09 Q1019 NOSIG
13-05-26 LEBL 260530Z 33006KT 9999 FEW015 BKN023 14/10 Q1019 NOSIG
13-05-26 LEBL 260600Z 32005KT 290V360 9999 FEW015 BKN024 14/09 Q1019 NOSIG
13-05-26 LEBL 260630Z 36005KT 300V070 9999 FEW015 SCT025 BKN040 15/10 Q1019 NOSIG
13-05-26 LEBL 260700Z 03003KT 9999 DZ FEW015 SCT025 BKN035 15/10 Q1019 NOSIG
13-05-26 LEBL 260730Z 36003KT 300V110 9999 RA SCT022 SCT030 15/11 Q1020 NOSIG
13-05-26 LEBL 260800Z 34001KT 9999 -RA SCT022 SCT032 15/11 Q1020 NOSIG
13-05-26 LEBL 260930Z 09006KT 040V140 9999 SCT022 SCT040 16/12 Q1020 NOSIG
13-05-26 LEBL 261000Z 15007KT 110V170 9999 SCT022 SCT033 BKN050 17/13 Q1020 NOSIG
13-05-26 LEBL 261030Z 15011KT 130V190 9999 SCT022 SCT050 18/12 Q1019 NOSIG
13-05-26 LEBL 261100Z 16011KT 120V190 9999 SCT022 18/12 Q1019 NOSIG
13-05-26 LEBL 261130Z 15012KT 130V190 9999 SCT022 19/13 Q1019 NOSIG
13-05-26 LEBL 261200Z 18010KT 150V230 9999 SCT022 19/12 Q1019 NOSIG
13-05-26 LEBL 261230Z 21014KT 180V240 9999 SCT022 19/13 Q1018 NOSIG
13-05-26 LEBL 261300Z 20015KT 9999 SCT022 19/12 Q1018 NOSIG
13-05-26 LEBL 261330Z 21016KT 9999 SCT022 19/12 Q1018 NOSIG
13-05-26 LEBL 261400Z 21016KT 9999 SCT022 19/13 Q1018 NOSIG
13-05-26 LEBL 261430Z 21016KT 9999 FEW022 19/13 Q1017 NOSIG
13-05-26 LEBL 261500Z 22016KT 9999 FEW025 19/13 Q1017 NOSIG
13-05-26 LEBL 261530Z 21016KT 9999 FEW025 19/13 Q1017 NOSIG
13-05-26 LEBL 261600Z 21014KT 9999 FEW025 19/14 Q1016 NOSIG
13-05-26 LEBL 261630Z 20013KT 9999 FEW025 18/13 Q1016 NOSIG
13-05-26 LEBL 261700Z 22013KT 9999 FEW025 18/14 Q1016 NOSIG
13-05-26 LEBL 261730Z 22012KT 9999 FEW017 18/13 Q1016 NOSIG
13-05-26 LEBL 261800Z 22014KT 9999 SCT017 18/14 Q1016 NOSIG
13-05-26 LEBL 261830Z 22012KT 9999 SCT017 17/13 Q1016 NOSIG
13-05-26 LEBL 261900Z 23011KT 9999 SCT017 17/13 Q1016 NOSIG
13-05-26 LEBL 261930Z 23010KT 9999 FEW030 17/13 Q1016 NOSIG
13-05-26 LEBL 262000Z 23009KT 9999 FEW030 16/13 Q1016 NOSIG
13-05-26 LEBL 262030Z 24008KT 9999 FEW030 16/13 Q1016 NOSIG
13-05-26 LEBL 262100Z 25008KT 9999 FEW025 16/13 Q1016 NOSIG
13-05-26 LEBL 262130Z 24007KT 9999 FEW025 16/13 Q1016 NOSIG
13-05-26 LEBL 262200Z 25006KT 9999 FEW025 16/13 Q1016 NOSIG
13-05-26 LEBL 262230Z 25005KT 9999 FEW025 16/14 Q1016 NOSIG
13-05-26 LEBL 262300Z 25005KT 220V290 9999 FEW025 16/13 Q1015 NOSIG
13-05-26 LEBL 262330Z 25005KT 9999 FEW025 16/13 Q1015 NOSIG
13-05-27 LEBL 270000Z 26004KT 220V280 9999 FEW015 16/13 Q1015 NOSIG
13-05-27 LEBL 270030Z 27004KT 9999 FEW015 15/12 Q1015 NOSIG
13-05-27 LEBL 270100Z 33002KT 9999 SCT015 15/12 Q1014 NOSIG
13-05-27 LEBL 270130Z 00000KT 9999 SCT013 15/12 Q1014 NOSIG
13-05-27 LEBL 270200Z 00000KT 9999 SCT013 15/12 Q1014 NOSIG
13-05-27 LEBL 270230Z 21004KT 9999 SCT013 BKN050 16/14 Q1014 NOSIG
13-05-27 LEBL 270300Z 32004KT 9999 SCT013 BKN050 15/12 Q1013 NOSIG
13-05-27 LEBL 270330Z 34001KT 9999 SCT013 BKN050 15/12 Q1013 NOSIG
13-05-27 LEBL 270400Z 00000KT 9999 SCT016 BKN050 16/13 Q1014 NOSIG
13-05-27 LEBL 270430Z 21006KT 9999 FEW016 BKN053 16/13 Q1013 NOSIG
13-05-27 LEBL 270500Z 22007KT 9999 FEW015 BKN053 16/13 Q1014 NOSIG
13-05-27 LEBL 270530Z 22007KT 200V260 9999 FEW015 BKN053 16/14 Q1014 NOSIG
13-05-27 LEBL 270600Z 24006KT 220V280 9999 -RA FEW015 BKN053 17/14 Q1013 NOSIG
13-05-27 LEBL 270630Z 30003KT 9999 FEW015 SCT053 17/13 Q1013 RERA NOSIG
13-05-27 LEBL 270700Z 27003KT 210V330 9999 FEW020 SCT053 18/13 Q1013 NOSIG
13-05-27 LEBL 270730Z 21008KT 190V250 9999 FEW020 SCT053 17/13 Q1013 NOSIG
13-05-27 LEBL 270800Z 22007KT 190V260 9999 FEW020 SCT053 18/13 Q1013 NOSIG
13-05-27 LEBL 270830Z 25006KT 210V300 9999 FEW020 SCT053 18/12 Q1013 NOSIG
13-05-27 LEBL 270900Z 24005KT 200V290 9999 FEW020 SCT053 18/13 Q1012 NOSIG
13-05-27 LEBL 270930Z 18006KT 160V220 9999 FEW020 17/13 Q1012 NOSIG
13-05-27 LEBL 271000Z 19005KT 9999 FEW020 18/13 Q1012 NOSIG
13-05-27 LEBL 271030Z 17007KT 120V200 9999 FEW020 18/12 Q1012 NOSIG
13-05-27 LEBL 271100Z 17009KT 130V190 9999 FEW020 19/14 Q1012 NOSIG
13-05-27 LEBL 271130Z 16010KT 130V190 9999 FEW020 19/14 Q1012 NOSIG
13-05-27 LEBL 271200Z 15011KT 9999 FEW020 18/14 Q1012 NOSIG
13-05-27 LEBL 271230Z 15011KT 9999 FEW020 SCT055 19/13 Q1012 NOSIG
13-05-27 LEBL 271300Z 15010KT 9999 FEW020 SCT055 18/13 Q1012 NOSIG
13-05-27 LEBL 271330Z 18008KT 130V210 9999 FEW020 19/13 Q1012 NOSIG
13-05-27 LEBL 271400Z 17008KT 130V220 9999 FEW020 19/13 Q1011 NOSIG
13-05-27 LEBL 271430Z 17008KT 140V210 9999 FEW020 18/12 Q1011 NOSIG
13-05-27 LEBL 271500Z 17007KT 130V210 9999 FEW020 18/13 Q1011 NOSIG
13-05-27 LEBL 271530Z 16006KT 130V210 9999 FEW020 18/12 Q1011 NOSIG
13-05-27 LEBL 271600Z 17006KT 130V200 9999 FEW020 18/13 Q1011 NOSIG
13-05-27 LEBL 271630Z 17005KT 120V220 9999 FEW018 SCT055 18/13 Q1010 NOSIG
13-05-27 LEBL 271700Z 17006KT 120V210 9999 FEW018 SCT055 18/13 Q1010 NOSIG
13-05-27 LEBL 271730Z 17004KT 130V200 9999 FEW018 SCT055 17/13 Q1010 NOSIG
13-05-27 LEBL 271800Z 14003KT 100V170 9999 FEW018 SCT055 17/13 Q1010 NOSIG
13-05-27 LEBL 271830Z 14004KT 110V170 9999 FEW018 SCT055 17/13 Q1009 NOSIG
13-05-27 LEBL 271900Z 12003KT 9999 FEW020 SCT055 17/13 Q1009 NOSIG
13-05-27 LEBL 271930Z 14002KT 9999 FEW020 17/13 Q1009 NOSIG
13-05-27 LEBL 272000Z 13003KT 9999 FEW020 17/13 Q1009 NOSIG
13-05-27 LEBL 272030Z 11002KT 9999 FEW020 17/13 Q1010 NOSIG
13-05-27 LEBL 272100Z 17001KT 9999 FEW020 16/13 Q1010 NOSIG
13-05-27 LEBL 272130Z VRB01KT 9999 FEW020 16/13 Q1010 NOSIG
13-05-27 LEBL 272200Z VRB02KT 9999 FEW020 16/13 Q1009 NOSIG
13-05-27 LEBL 272230Z 28004KT 9999 FEW020 15/13 Q1009 NOSIG
13-05-27 LEBL 272300Z 30004KT 9999 FEW020 15/12 Q1009 NOSIG
13-05-27 LEBL 272330Z VRB02KT 9999 FEW020 15/12 Q1009 NOSIG
13-05-28 LEBL 280000Z 32002KT 9999 FEW020 15/12 Q1009 NOSIG
13-05-28 LEBL 280030Z 35002KT 9999 FEW020 15/12 Q1009 NOSIG
13-05-28 LEBL 280100Z 00000KT 9999 FEW020 14/12 Q1008 NOSIG
13-05-28 LEBL 280130Z 29006KT 9999 FEW020 14/12 Q1008 NOSIG
13-05-28 LEBL 280200Z 31004KT 9999 FEW011 14/12 Q1008 NOSIG
13-05-28 LEBL 280230Z 32006KT 9999 FEW011 13/12 Q1007 NOSIG
13-05-28 LEBL 280300Z 32006KT 9999 FEW020 13/12 Q1007 NOSIG
13-05-28 LEBL 280330Z 31004KT 9999 FEW020 13/11 Q1007 NOSIG
13-05-28 LEBL 280400Z 31005KT 9999 FEW020 13/11 Q1007 NOSIG
13-05-28 LEBL 280430Z 33005KT 9999 FEW020 13/11 Q1007 NOSIG
13-05-28 LEBL 280500Z 31005KT 9999 FEW020 13/11 Q1007 NOSIG
13-05-28 LEBL 280530Z 32006KT 9999 FEW020 13/11 Q1007 NOSIG
13-05-28 LEBL 280600Z 32006KT 290V350 9999 FEW012 14/11 Q1007 NOSIG
13-05-28 LEBL 280630Z 30005KT 9999 FEW012 15/12 Q1007 NOSIG
13-05-28 LEBL 280700Z 29003KT 240V350 9999 FEW012 17/13 Q1007 NOSIG
13-05-28 LEBL 280730Z 23010KT 9999 FEW012 17/14 Q1006 NOSIG
13-05-28 LEBL 280800Z 21011KT 9999 FEW015 18/14 Q1006 NOSIG
13-05-28 LEBL 280830Z 20012KT 9999 FEW015 18/14 Q1006 NOSIG
13-05-28 LEBL 280900Z 20013KT 9999 FEW020 18/14 Q1006 NOSIG
13-05-28 LEBL 280930Z 21015KT 9999 FEW020 18/14 Q1006 NOSIG
13-05-28 LEBL 281000Z 21017KT 9999 FEW020 19/14 Q1006 NOSIG
13-05-28 LEBL 281030Z 22021KT 9999 FEW020 19/14 Q1006 NOSIG
13-05-28 LEBL 281100Z 22019KT 9999 FEW012 19/15 Q1006 NOSIG
13-05-28 LEBL 281130Z 22016KT 9999 FEW012 18/15 Q1006 NOSIG
13-05-28 LEBL 281200Z 23018KT 9999 FEW014 18/14 Q1006 NOSIG
13-05-28 LEBL 281230Z 23015KT 9999 FEW014 18/14 Q1006 NOSIG
13-05-28 LEBL 281300Z 23012KT 9999 FEW013 18/14 Q1006 NOSIG
13-05-28 LEBL 281330Z 23014KT 9999 FEW020 18/15 Q1006 NOSIG
13-05-28 LEBL 281400Z 24011KT 9999 FEW020 19/15 Q1006 NOSIG
13-05-28 LEBL 281430Z 26009KT 230V300 9999 FEW020 21/08 Q1006 NOSIG
13-05-28 LEBL 281500Z 28011KT 9999 FEW020 22/09 Q1006 NOSIG
13-05-28 LEBL 281530Z 27009KT 240V310 9999 FEW020 21/08 Q1006 BECMG 07016G30KT
13-05-28 LEBL 281600Z 05014G24KT 9999 FEW020 21/07 Q1007 NOSIG
13-05-28 LEBL 281630Z 06019KT 040V100 9999 FEW012 16/13 Q1007 NOSIG
13-05-28 LEBL 281700Z 07017KT 040V100 9999 FEW012 16/13 Q1007 NOSIG
13-05-28 LEBL 281730Z 09015KT 9999 SCT014 16/11 Q1008 NOSIG
13-05-28 LEBL 281800Z 09011KT 9999 BKN017 16/11 Q1009 NOSIG
13-05-28 LEBL 281830Z 08011KT 040V110 9999 FEW018 SCT025 15/10 Q1009 NOSIG
13-05-28 LEBL 281900Z 10009KT 9999 FEW018 SCT025 15/11 Q1009 NOSIG
13-05-28 LEBL 281930Z 09010KT 9999 BKN019 15/11 Q1009 NOSIG
13-05-28 LEBL 282000Z 08009KT 9999 BKN022 15/11 Q1010 NOSIG
13-05-28 LEBL 282030Z 10006KT 070V140 9999 SCT022 SCT040 15/11 Q1010 NOSIG
13-05-28 LEBL 282100Z 11006KT 9999 FEW020 15/10 Q1011 NOSIG
13-05-28 LEBL 282130Z 10004KT 9999 FEW020 SCT035 15/10 Q1011 NOSIG
13-05-28 LEBL 282200Z 10004KT 070V130 9999 FEW020 SCT035 15/11 Q1011 NOSIG
13-05-28 LEBL 282230Z 32005KT 280V040 9999 FEW020 SCT035 15/10 Q1011 NOSIG
13-05-28 LEBL 282300Z VRB01KT 9999 FEW020 SCT035 15/10 Q1011 NOSIG
13-05-28 LEBL 282330Z 13004KT 9999 FEW020 SCT035 15/10 Q1011 NOSIG
13-05-29 LEBL 290000Z 00000KT 9999 FEW020 SCT035 14/10 Q1011 NOSIG
13-05-29 LEBL 290030Z 00000KT 9999 FEW020 14/11 Q1011 NOSIG
13-05-29 LEBL 290100Z 00000KT 9999 FEW020 SCT030 14/10 Q1010 NOSIG
13-05-29 LEBL 290130Z NIL
13-05-29 LEBL 290130Z 24002KT 9999 FEW020 SCT030 14/10 Q1010 NOSIG
13-05-29 LEBL 290200Z 36004KT 9999 FEW020 SCT030 14/10 Q1010 NOSIG
13-05-29 LEBL 290230Z 30004KT 9999 SCT020 13/10 Q1009 NOSIG
13-05-29 LEBL 290300Z 32008KT 9999 SCT020 13/10 Q1009 NOSIG
13-05-29 LEBL 290300Z NIL
13-05-29 LEBL 290330Z 33008KT 9999 SCT020 13/10 Q1009 NOSIG
13-05-29 LEBL 290400Z 32008KT 290V350 9999 SCT020 13/07 Q1009 NOSIG
13-05-29 LEBL 290430Z 32010KT 9999 SCT020 13/05 Q1009 NOSIG
13-05-29 LEBL 290500Z 34007KT 310V010 9999 SCT020 13/04 Q1009 NOSIG
13-05-29 LEBL 290530Z 34008KT 310V010 9999 FEW020 13/04 Q1009 NOSIG
13-05-29 LEBL 290600Z 35007KT 320V030 9999 FEW020 13/04 Q1009 NOSIG
13-05-29 LEBL 290630Z 33009KT 290V020 9999 FEW020 13/04 Q1009 NOSIG
13-05-29 LEBL 290700Z 35007KT 310V050 9999 FEW020 14/04 Q1009 NOSIG
13-05-29 LEBL 290730Z 34006KT 9999 FEW020 14/04 Q1009 NOSIG
13-05-29 LEBL 290800Z 33004KT 250V040 9999 FEW020 16/04 Q1009 NOSIG
13-05-29 LEBL 290830Z 17005KT 080V210 9999 FEW020 17/02 Q1009 NOSIG
13-05-29 LEBL 290900Z 25015KT 220V280 9999 FEW020 19/01 Q1009 NOSIG
13-05-29 LEBL 290930Z 28014G24KT 250V340 9999 FEW020 20/02 Q1008 NOSIG
13-05-29 LEBL 291000Z 28014KT 230V300 9999 FEW020 20/01 Q1008 NOSIG
13-05-29 LEBL 291030Z 27016KT 240V300 9999 FEW020 20/M00 Q1008 NOSIG
13-05-29 LEBL 291100Z 29018KT 250V310 9999 FEW020 21/00 Q1008 NOSIG
13-05-29 LEBL 291130Z 27019KT 250V310 9999 FEW020 20/01 Q1008 NOSIG
13-05-29 LEBL 291200Z 29016G26KT 250V320 9999 FEW015 21/01 Q1008 NOSIG
13-05-29 LEBL 291230Z 27019G29KT 240V310 9999 FEW015 21/01 Q1007 NOSIG
13-05-29 LEBL 291300Z 28019KT 250V310 9999 FEW015 21/01 Q1007 NOSIG
13-05-29 LEBL 291330Z 28019KT 240V310 9999 FEW015 21/01 Q1007 NOSIG
13-05-29 LEBL 291400Z 27020G32KT 9999 FEW015 21/01 Q1007 NOSIG
13-05-29 LEBL 291430Z 28019G29KT 250V310 9999 FEW015 21/01 Q1007 NOSIG
13-05-29 LEBL 291500Z 28024G34KT 240V300 9999 FEW015 22/00 Q1007 NOSIG
13-05-29 LEBL 291530Z 30018G30KT 9999 FEW015 22/00 Q1007 NOSIG
13-05-29 LEBL 291600Z 27019KT 9999 FEW015 22/01 Q1007 NOSIG
13-05-29 LEBL 291600Z 27019KT 9999 FEW015 22/01 Q1007 BECMG 07018KT
13-05-29 LEBL 291630Z 32013KT 9999 FEW015 22/00 Q1007 BECMG 07018KT
13-05-29 LEBL 291700Z 10017KT 9999 FEW015 22/M01 Q1008 NOSIG
13-05-29 LEBL 291730Z 08014KT 040V100 9999 FEW015TCU 16/10 Q1009 NOSIG
13-05-29 LEBL 291800Z 08010KT 050V110 9999 FEW015TCU 16/10 Q1009 NOSIG
13-05-29 LEBL 291830Z 07013KT 9999 FEW015TCU 16/10 Q1009 NOSIG
13-05-29 LEBL 291900Z 08010KT 9999 FEW015 15/09 Q1010 NOSIG
13-05-29 LEBL 291930Z 09008KT 060V120 9999 FEW025 15/10 Q1010 NOSIG
13-05-29 LEBL 292000Z 08007KT 030V100 9999 FEW025 15/10 Q1010 NOSIG
13-05-29 LEBL 292030Z 06007KT 030V090 9999 FEW025 15/10 Q1011 NOSIG
13-05-29 LEBL 292100Z 08005KT 9999 FEW025 15/09 Q1011 NOSIG
13-05-29 LEBL 292130Z 09005KT 9999 FEW025 15/09 Q1011 NOSIG
13-05-29 LEBL 292200Z 06006KT 9999 FEW025 15/10 Q1011 NOSIG
13-05-29 LEBL 292230Z 08007KT 9999 FEW030 14/10 Q1011 NOSIG
13-05-29 LEBL 292300Z 07004KT 9999 FEW030 14/10 Q1011 NOSIG
13-05-29 LEBL 292330Z 04004KT 9999 FEW030 14/10 Q1011 NOSIG
13-05-30 LEBL 300000Z 34005KT 9999 FEW030 14/09 Q1011 NOSIG
13-05-30 LEBL 300030Z 33005KT 9999 FEW030 13/09 Q1011 NOSIG
13-05-30 LEBL 300100Z 33006KT 9999 FEW025 12/09 Q1011 NOSIG
13-05-30 LEBL 300130Z 34006KT 9999 FEW020 12/09 Q1011 NOSIG
13-05-30 LEBL 300200Z 33007KT 9999 FEW020 12/09 Q1011 NOSIG
13-05-30 LEBL 300230Z 29005KT 9999 FEW020 12/08 Q1011 NOSIG
13-05-30 LEBL 300300Z 33007KT 9999 FEW020 12/08 Q1011 NOSIG
13-05-30 LEBL 300330Z 33007KT 9999 FEW020 12/07 Q1011 NOSIG
13-05-30 LEBL 300400Z 33009KT 9999 FEW020 11/07 Q1011 NOSIG
13-05-30 LEBL 300430Z 33010KT 9999 FEW020 11/07 Q1011 NOSIG
13-05-30 LEBL 300500Z 32009KT 9999 FEW020 11/06 Q1012 NOSIG
13-05-30 LEBL 300530Z 32015KT 9999 FEW020 11/06 Q1012 NOSIG
13-05-30 LEBL 300600Z 33012KT 9999 FEW020 12/06 Q1012 NOSIG
13-05-30 LEBL 300630Z 34012G25KT 280V010 9999 FEW020 13/06 Q1012 NOSIG
13-05-30 LEBL 300700Z 32013KT 220V350 9999 FEW020 14/05 Q1012 NOSIG
13-05-30 LEBL 300730Z 31008KT 270V010 9999 FEW020 14/05 Q1012 NOSIG
13-05-30 LEBL 300800Z 31008KT 260V350 9999 FEW020 15/05 Q1012 NOSIG
13-05-30 LEBL 300830Z 31006KT 250V030 9999 FEW020 16/05 Q1012 NOSIG
13-05-30 LEBL 300900Z 30005KT 9999 FEW020 17/05 Q1012 NOSIG
13-05-30 LEBL 300930Z 01003KT 300V100 9999 FEW020 17/06 Q1012 NOSIG
13-05-30 LEBL 301000Z 18010KT 9999 FEW020 17/07 Q1012 NOSIG
13-05-30 LEBL 301030Z 19009KT 9999 FEW020 17/06 Q1012 NOSIG
13-05-30 LEBL 301100Z 19010KT 170V230 9999 FEW020 16/07 Q1012 NOSIG
13-05-30 LEBL 301130Z 19009KT 150V220 9999 FEW020 18/05 Q1012 NOSIG
13-05-30 LEBL 301200Z 19009KT 9999 FEW020 19/05 Q1012 NOSIG
13-05-30 LEBL 301230Z 17010KT 130V200 9999 FEW020 18/08 Q1012 NOSIG
13-05-30 LEBL 301300Z 18011KT 9999 FEW015 18/08 Q1012 NOSIG
13-05-30 LEBL 301330Z 16010KT 9999 FEW015 18/09 Q1012 NOSIG
13-05-30 LEBL 301400Z 17010KT 150V210 9999 FEW015 SCT055 19/10 Q1012 NOSIG
13-05-30 LEBL 301430Z 20010KT 170V230 9999 FEW018 SCT055 19/10 Q1011 NOSIG
13-05-30 LEBL 301500Z 20007KT 170V240 9999 FEW018 SCT055 20/12 Q1011 NOSIG
13-05-30 LEBL 301530Z 21008KT 9999 FEW018 SCT055 21/09 Q1011 NOSIG
13-05-30 LEBL 301600Z 21008KT 170V230 9999 FEW018 20/11 Q1010 NOSIG
13-05-30 LEBL 301630Z VRB01KT 9999 SCT020 22/07 Q1010 NOSIG
13-05-30 LEBL 301700Z 17003KT 130V230 9999 SCT020 23/05 Q1010 NOSIG
13-05-30 LEBL 301730Z 27014KT 9999 SCT020 23/05 Q1010 NOSIG
13-05-30 LEBL 301800Z 29009KT 270V330 9999 FEW020 23/05 Q1010 NOSIG
13-05-30 LEBL 301830Z 27013KT 9999 FEW020 22/05 Q1011 NOSIG
13-05-30 LEBL 301900Z 26009KT 240V300 9999 FEW020 21/05 Q1010 NOSIG
13-05-30 LEBL 301930Z 25008KT 9999 FEW020 19/07 Q1011 NOSIG
13-05-30 LEBL 302000Z 26011KT 240V310 9999 FEW020 19/07 Q1011 NOSIG
13-05-30 LEBL 302030Z 27009KT 9999 FEW020 19/07 Q1011 NOSIG
13-05-30 LEBL 302100Z 27007KT 9999 FEW020 18/07 Q1011 NOSIG
13-05-30 LEBL 302130Z 27008KT 9999 FEW020 17/08 Q1011 NOSIG
13-05-30 LEBL 302200Z 27007KT 9999 FEW020 17/08 Q1011 NOSIG
13-05-30 LEBL 302230Z 27003KT 240V300 9999 FEW020 17/08 Q1011 NOSIG
13-05-30 LEBL 302300Z 33003KT 9999 FEW020 17/08 Q1011 NOSIG
13-05-30 LEBL 302330Z 32007KT 9999 FEW020 17/08 Q1011 NOSIG
13-05-31 LEBL 310000Z 34008KT 9999 FEW020 16/09 Q1011 NOSIG
13-05-31 LEBL 310030Z 33008KT 9999 FEW020 16/09 Q1011 NOSIG
13-05-31 LEBL 310100Z 03006KT 350V060 9999 FEW020 16/09 Q1011 NOSIG
13-05-31 LEBL 310130Z 02006KT 9999 FEW020 16/09 Q1010 NOSIG
13-05-31 LEBL 310200Z 35007KT 9999 FEW020 16/08 Q1011 NOSIG
13-05-31 LEBL 310230Z 34010KT 9999 FEW020 15/08 Q1011 NOSIG
13-05-31 LEBL 310300Z 33007KT 9999 FEW020 16/08 Q1010 NOSIG
13-05-31 LEBL 310330Z 31004KT 9999 FEW020 15/08 Q1010 NOSIG
13-05-31 LEBL 310400Z 33007KT 9999 FEW020 15/08 Q1011 NOSIG
13-05-31 LEBL 310430Z 34009KT 9999 FEW020 15/07 Q1011 NOSIG
13-05-31 LEBL 310500Z 35009KT 9999 FEW020 15/07 Q1011 NOSIG
13-05-31 LEBL 310530Z 33010KT 9999 FEW020 15/07 Q1011 NOSIG
13-05-31 LEBL 310600Z 34007G17KT 270V020 9999 FEW020 15/07 Q1011 NOSIG
13-05-31 LEBL 310630Z 30008KT 9999 FEW020 15/07 Q1011 NOSIG
13-05-31 LEBL 310700Z 32004KT 270V020 9999 FEW020 15/07 Q1011 NOSIG
13-05-31 LEBL 310730Z 30004KT 250V350 9999 FEW020 16/07 Q1011 NOSIG
13-05-31 LEBL 310800Z 32007KT 280V010 9999 FEW020 16/08 Q1011 NOSIG
13-05-31 LEBL 310830Z 29006KT 260V340 9999 FEW025 16/07 Q1011 NOSIG
13-05-31 LEBL 310900Z 30009G19KT 270V350 9999 FEW025 17/07 Q1011 NOSIG
13-05-31 LEBL 310930Z 31009KT 9999 FEW025 19/08 Q1011 NOSIG
13-05-31 LEBL 311000Z 31006KT 260V010 9999 FEW025 18/09 Q1012 NOSIG
13-05-31 LEBL 311030Z 19005KT 160V220 9999 FEW025 18/09 Q1012 NOSIG
13-05-31 LEBL 311100Z 12003KT 9999 FEW025 19/10 Q1012 NOSIG
13-05-31 LEBL 311130Z 17009KT 9999 FEW025 19/09 Q1012 NOSIG
13-05-31 LEBL 311200Z 19008KT 9999 FEW025 19/09 Q1012 NOSIG
13-05-31 LEBL 311230Z 16010KT 130V190 9999 FEW025 18/10 Q1012 NOSIG
13-05-31 LEBL 311300Z 17010KT 9999 FEW025 18/11 Q1012 NOSIG
13-05-31 LEBL 311330Z 17012KT 140V200 9999 FEW025 19/10 Q1012 NOSIG
13-05-31 LEBL 311400Z 17011KT 9999 FEW025 19/11 Q1012 NOSIG
13-05-31 LEBL 311430Z 17010KT 130V200 9999 FEW025 19/09 Q1011 NOSIG
13-05-31 LEBL 311500Z 17009KT 9999 FEW020 19/11 Q1011 NOSIG
13-05-31 LEBL 311530Z 17010KT 9999 FEW020 19/11 Q1011 NOSIG
13-05-31 LEBL 311600Z 16008KT 130V200 9999 FEW020 19/11 Q1011 NOSIG
13-05-31 LEBL 311630Z 14007KT 100V170 9999 FEW020 19/12 Q1012 NOSIG
13-05-31 LEBL 311700Z 11007KT 080V140 9999 FEW020 18/12 Q1012 NOSIG
13-05-31 LEBL 311730Z 10008KT 9999 FEW020 18/12 Q1012 NOSIG
13-05-31 LEBL 311800Z 10007KT 9999 FEW020 18/12 Q1012 NOSIG
13-05-31 LEBL 311830Z 09005KT 050V110 9999 FEW020 18/12 Q1013 NOSIG
13-05-31 LEBL 311900Z 09004KT 040V120 9999 FEW020 18/12 Q1013 NOSIG
13-05-31 LEBL 311930Z 09004KT 9999 FEW020 18/12 Q1013 NOSIG
13-05-31 LEBL 312000Z 08003KT 040V100 9999 FEW020 17/13 Q1014 NOSIG
13-05-31 LEBL 312030Z 01003KT 9999 FEW016 17/12 Q1014 NOSIG
13-05-31 LEBL 312100Z 06002KT 9999 FEW016 18/11 Q1014 NOSIG
13-05-31 LEBL 312130Z VRB01KT 9999 FEW015 17/11 Q1014 NOSIG
13-05-31 LEBL 312200Z 27003KT 9999 FEW015 17/11 Q1014 NOSIG
13-05-31 LEBL 312230Z 31004KT 9999 FEW018 17/11 Q1014 NOSIG
13-05-31 LEBL 312300Z 31003KT 9999 FEW018 16/11 Q1014 NOSIG
13-05-31 LEBL 312330Z 29005KT 9999 FEW018 15/11 Q1014 NOSIG
13-06-01 LEBL 010000Z 31004KT 9999 FEW018 15/10 Q1014 NOSIG
13-06-01 LEBL 010030Z 33004KT 9999 FEW018 16/10 Q1014 NOSIG
13-06-01 LEBL 010100Z 29004KT 9999 FEW018 16/10 Q1014 NOSIG
13-06-01 LEBL 010130Z 32003KT 270V350 9999 FEW015 16/10 Q1014 NOSIG
13-06-01 LEBL 010200Z 00000KT 9999 FEW015 16/10 Q1013 NOSIG
13-06-01 LEBL 010230Z 30006KT 260V320 9999 FEW015 16/10 Q1013 NOSIG
13-06-01 LEBL 010300Z 28003KT 240V330 9999 FEW018 16/09 Q1013 NOSIG
13-06-01 LEBL 010330Z VRB01KT 9999 FEW015 17/08 Q1013 NOSIG
13-06-01 LEBL 010400Z 33004KT 9999 FEW015 18/06 Q1013 NOSIG
13-06-01 LEBL 010430Z 31005KT 270V350 9999 FEW015 18/05 Q1013 NOSIG
13-06-01 LEBL 010500Z 27007KT 230V310 9999 FEW015 18/05 Q1013 NOSIG
13-06-01 LEBL 010530Z 30007KT 280V340 9999 FEW015 19/05 Q1013 NOSIG
13-06-01 LEBL 010600Z 31008KT 260V010 9999 FEW018 19/06 Q1013 NOSIG
13-06-01 LEBL 010630Z 32013KT 9999 FEW020 19/06 Q1014 NOSIG
13-06-01 LEBL 010700Z 31014KT 270V340 9999 FEW020 20/06 Q1014 NOSIG
13-06-01 LEBL 010730Z 32008KT 280V350 9999 FEW020 20/06 Q1014 NOSIG
13-06-01 LEBL 010800Z 31012KT 9999 FEW020 21/05 Q1014 NOSIG
13-06-01 LEBL 010830Z 30008G18KT 240V350 9999 FEW025 22/05 Q1014 NOSIG
13-06-01 LEBL 010900Z 30013KT 280V340 9999 FEW025 22/05 Q1014 NOSIG
13-06-01 LEBL 010930Z 31015G25KT 290V350 9999 FEW025 23/05 Q1014 NOSIG
13-06-01 LEBL 011000Z 32013KT 9999 FEW025 24/05 Q1014 NOSIG
13-06-01 LEBL 011030Z 31012KT 280V350 9999 FEW025 26/06 Q1013 NOSIG
13-06-01 LEBL 011100Z 29011KT 250V330 9999 FEW025 26/06 Q1014 NOSIG
13-06-01 LEBL 011130Z 32010G22KT 280V360 9999 FEW025 27/05 Q1013 NOSIG
13-06-01 LEBL 011200Z 32012KT 290V360 9999 FEW025 27/05 Q1013 NOSIG
13-06-01 LEBL 011230Z 30011G22KT 260V340 9999 FEW025 27/05 Q1013 NOSIG
13-06-01 LEBL 011300Z 29012KT 260V330 9999 FEW025 28/04 Q1013 NOSIG
13-06-01 LEBL 011330Z 30012KT 260V350 9999 FEW025 28/05 Q1013 NOSIG
13-06-01 LEBL 011400Z 32011KT 9999 FEW025 29/05 Q1013 NOSIG
13-06-01 LEBL 011430Z 26011KT 9999 FEW025 28/03 Q1013 NOSIG
13-06-01 LEBL 011500Z 27004KT 210V310 9999 FEW030 29/04 Q1013 NOSIG
13-06-01 LEBL 011530Z 21010KT 160V260 9999 FEW030 30/03 Q1013 NOSIG
13-06-01 LEBL 011600Z 20013KT 9999 FEW030 26/10 Q1013 NOSIG
13-06-01 LEBL 011630Z 21012KT 9999 FEW030 24/13 Q1013 NOSIG
13-06-01 LEBL 011700Z 21012KT 9999 FEW030 25/12 Q1012 NOSIG
13-06-01 LEBL 011730Z 21007KT 9999 FEW030 25/12 Q1013 NOSIG
13-06-01 LEBL 011800Z 09007KT 9999 FEW030 25/13 Q1013 NOSIG
13-06-01 LEBL 011830Z 03010KT 9999 FEW030 23/12 Q1014 NOSIG
13-06-01 LEBL 011900Z 03012KT 9999 FEW030 22/12 Q1014 NOSIG
13-06-01 LEBL 011930Z 03011KT 9999 FEW030 21/13 Q1014 NOSIG
13-06-01 LEBL 012000Z 01010KT 9999 FEW030 21/13 Q1015 NOSIG
13-06-01 LEBL 012030Z 03010KT 9999 FEW030 21/12 Q1016 NOSIG
13-06-01 LEBL 012100Z 03006KT 9999 FEW030 21/12 Q1016 NOSIG
13-06-01 LEBL 012130Z 04008KT 9999 FEW030 20/13 Q1016 NOSIG
13-06-01 LEBL 012200Z 05007KT 9999 FEW030 20/13 Q1016 NOSIG
13-06-01 LEBL 012230Z 04009KT 9999 FEW030 19/13 Q1016 NOSIG
13-06-01 LEBL 012300Z 02004KT CAVOK 20/12 Q1017 NOSIG
13-06-01 LEBL 012330Z 33004KT CAVOK 20/09 Q1016 NOSIG
13-06-02 LEBL 020000Z 33010KT CAVOK 19/08 Q1016 NOSIG
13-06-02 LEBL 020030Z 34007KT CAVOK 19/07 Q1016 NOSIG
13-06-02 LEBL 020100Z 34010KT CAVOK 19/08 Q1016 NOSIG
13-06-02 LEBL 020130Z 34013KT CAVOK 18/08 Q1016 NOSIG
13-06-02 LEBL 020200Z 33015KT 9999 FEW030 18/09 Q1016 NOSIG
13-06-02 LEBL 020230Z 33015KT 9999 FEW030 17/09 Q1016 NOSIG
13-06-02 LEBL 020300Z 33014KT 300V360 9999 FEW030 17/08 Q1016 NOSIG
13-06-02 LEBL 020330Z 33014KT 9999 FEW030 17/08 Q1016 NOSIG
13-06-02 LEBL 020400Z 34014KT 9999 FEW030 16/08 Q1016 NOSIG
13-06-02 LEBL 020430Z 34015KT 310V010 9999 FEW030 16/08 Q1016 NOSIG
13-06-02 LEBL 020500Z 34015KT 310V010 9999 FEW030 16/08 Q1016 NOSIG
13-06-02 LEBL 020530Z 34018KT 310V010 9999 FEW030 16/08 Q1016 NOSIG
13-06-02 LEBL 020600Z 33018KT 300V360 9999 FEW030 16/08 Q1016 NOSIG
13-06-02 LEBL 020630Z 33018G29KT 9999 FEW030 17/08 Q1016 NOSIG
13-06-02 LEBL 020700Z 33019KT 9999 FEW030 18/09 Q1017 NOSIG
13-06-02 LEBL 020730Z 33017KT 9999 FEW030 19/09 Q1017 NOSIG
13-06-02 LEBL 020800Z 33016KT 280V350 9999 FEW030 20/09 Q1017 NOSIG
13-06-02 LEBL 020830Z 33014KT 310V010 9999 FEW030 21/09 Q1017 NOSIG
13-06-02 LEBL 020900Z 32012KT 280V340 9999 FEW030 22/09 Q1017 NOSIG
13-06-02 LEBL 020930Z 31008KT 270V340 9999 FEW030 22/12 Q1017 NOSIG
13-06-02 LEBL 021000Z 19008KT 160V220 9999 FEW030 21/11 Q1017 NOSIG
13-06-02 LEBL 021030Z 13009KT 9999 FEW030 21/11 Q1017 NOSIG
13-06-02 LEBL 021100Z 16009KT 130V200 9999 FEW030 20/13 Q1017 NOSIG
13-06-02 LEBL 021130Z 17009KT 140V200 9999 FEW030 20/13 Q1017 NOSIG
13-06-02 LEBL 021200Z 17008KT 9999 FEW030 20/12 Q1017 NOSIG
13-06-02 LEBL 021230Z 19009KT 9999 FEW020 21/10 Q1017 NOSIG
13-06-02 LEBL 021300Z 19009KT 9999 FEW020 22/12 Q1017 NOSIG
13-06-02 LEBL 021330Z 19009KT 160V220 9999 FEW020 21/09 Q1016 NOSIG
13-06-02 LEBL 021400Z 18009KT 150V210 9999 FEW020 22/10 Q1016 NOSIG
13-06-02 LEBL 021430Z 17008KT 140V210 9999 FEW020 21/13 Q1016 NOSIG
13-06-02 LEBL 021500Z 18008KT 150V210 9999 FEW020 22/15 Q1016 NOSIG
13-06-02 LEBL 021530Z 18008KT 160V220 9999 FEW020 21/15 Q1016 NOSIG
13-06-02 LEBL 021600Z 19007KT 9999 FEW020 21/13 Q1015 NOSIG
13-06-02 LEBL 021600Z NIL
13-06-02 LEBL 021630Z 16006KT 130V190 9999 FEW020 21/13 Q1016 NOSIG
13-06-02 LEBL 021700Z 16006KT 120V200 9999 FEW020 20/15 Q1016 NOSIG
13-06-02 LEBL 021730Z 16007KT 130V190 9999 FEW020 20/15 Q1016 NOSIG
13-06-02 LEBL 021800Z 18006KT 150V210 9999 FEW020 20/15 Q1016 NOSIG
13-06-02 LEBL 021830Z 12004KT 080V180 9999 FEW020 19/14 Q1017 NOSIG
13-06-02 LEBL 021900Z 13004KT 100V160 9999 FEW020 20/13 Q1017 NOSIG
13-06-02 LEBL 021930Z 14004KT 9999 FEW020 19/14 Q1017 NOSIG
13-06-02 LEBL 022000Z 19006KT 9999 FEW020 19/13 Q1017 NOSIG
13-06-02 LEBL 022030Z 21003KT 9999 FEW020 19/14 Q1018 NOSIG
13-06-02 LEBL 022100Z 00000KT 9999 FEW020 18/14 Q1018 NOSIG
13-06-02 LEBL 022130Z VRB01KT 9999 FEW020 18/14 Q1018 NOSIG
13-06-02 LEBL 022200Z 00000KT 9999 FEW020 18/14 Q1018 NOSIG
13-06-02 LEBL 022230Z 17002KT 9999 FEW020 18/13 Q1018 NOSIG
13-06-02 LEBL 022300Z 21003KT 9999 FEW020 18/13 Q1018 NOSIG
13-06-02 LEBL 022330Z 31003KT 9999 FEW020 17/13 Q1018 NOSIG
13-06-03 LEBL 030000Z 27002KT 9999 FEW020 17/13 Q1017 NOSIG
13-06-03 LEBL 030030Z 31003KT 9999 FEW020 17/13 Q1017 NOSIG
13-06-03 LEBL 030100Z 31003KT 9999 FEW020 16/13 Q1017 NOSIG
13-06-03 LEBL 030130Z 31004KT 9999 FEW020 16/12 Q1017 NOSIG
13-06-03 LEBL 030200Z 30005KT 9999 FEW020 16/12 Q1017 NOSIG
13-06-03 LEBL 030230Z 30006KT 9999 FEW020 16/11 Q1017 NOSIG
13-06-03 LEBL 030300Z 32008KT 9999 FEW020 16/11 Q1017 NOSIG
13-06-03 LEBL 030330Z 34007KT 9999 FEW020 16/11 Q1017 NOSIG
13-06-03 LEBL 030400Z 36004KT 9999 FEW020 16/10 Q1017 NOSIG
13-06-03 LEBL 030430Z 35004KT 9999 FEW020 16/10 Q1017 NOSIG
13-06-03 LEBL 030500Z 34011KT 9999 FEW020 16/09 Q1017 NOSIG
13-06-03 LEBL 030530Z 34014KT 9999 FEW020 16/09 Q1017 NOSIG
13-06-03 LEBL 030600Z 34014KT 9999 FEW020 16/10 Q1017 NOSIG
13-06-03 LEBL 030630Z 33014KT 290V360 9999 FEW020 17/10 Q1017 NOSIG
13-06-03 LEBL 030700Z 33014G30KT 300V360 9999 FEW020 18/10 Q1017 NOSIG
13-06-03 LEBL 030730Z 33012KT 290V010 9999 FEW020 19/09 Q1018 NOSIG
13-06-03 LEBL 030800Z 33009KT 9999 FEW020 19/09 Q1018 NOSIG
13-06-03 LEBL 030830Z 31008KT 260V340 9999 FEW020 20/08 Q1017 NOSIG
13-06-03 LEBL 030900Z 34003KT 9999 FEW020 22/08 Q1017 NOSIG
13-06-03 LEBL 030930Z 13010KT 090V160 9999 FEW020 21/11 Q1017 NOSIG
13-06-03 LEBL 031000Z 14009KT 110V170 9999 FEW020 21/13 Q1017 NOSIG
13-06-03 LEBL 031030Z 15009KT 9999 FEW020 21/14 Q1017 NOSIG
13-06-03 LEBL 031100Z 15009KT 110V180 9999 FEW020 20/15 Q1017 NOSIG
13-06-03 LEBL 031130Z 15008KT 110V180 9999 FEW020 20/15 Q1017 NOSIG
13-06-03 LEBL 031200Z 13010KT 9999 FEW020 21/15 Q1017 NOSIG
13-06-03 LEBL 031230Z 14010KT 9999 FEW025 21/15 Q1017 NOSIG
13-06-03 LEBL 031300Z 13010KT 100V170 9999 FEW025 20/15 Q1017 NOSIG
13-06-03 LEBL 031330Z 13011KT 9999 FEW025 20/14 Q1017 NOSIG
13-06-03 LEBL 031400Z 13009KT 9999 FEW012 21/14 Q1017 NOSIG
13-06-03 LEBL 031430Z 13009KT 9999 FEW013 20/15 Q1017 NOSIG
13-06-03 LEBL 031500Z 15008KT 110V200 9999 FEW012 20/16 Q1016 NOSIG
13-06-03 LEBL NIL
13-06-03 LEBL 031530Z 13007KT 100V180 9999 FEW013 21/16 Q1016 NOSIG
13-06-03 LEBL 031600Z 15007KT 9999 FEW015 20/16 Q1016 NOSIG
13-06-03 LEBL 031630Z 14006KT 9999 FEW011 20/16 Q1016 NOSIG
13-06-03 LEBL 031700Z 13006KT 110V180 9999 FEW010 19/16 Q1016 NOSIG
13-06-03 LEBL 031730Z 13005KT 9999 FEW011 19/16 Q1017 NOSIG
13-06-03 LEBL 031800Z 13006KT 9999 FEW011 19/16 Q1017 NOSIG
13-06-03 LEBL 031830Z 11005KT 080V150 9999 FEW011 19/16 Q1017 NOSIG
13-06-03 LEBL 031900Z 12004KT 9999 FEW011 18/16 Q1017 NOSIG
13-06-03 LEBL 031930Z 11003KT 9999 FEW009 18/16 Q1017 NOSIG
13-06-03 LEBL 032000Z VRB02KT 9999 FEW010 SCT019 18/16 Q1018 NOSIG
13-06-03 LEBL 032030Z VRB02KT 9999 FEW010 18/16 Q1018 NOSIG
13-06-03 LEBL 032100Z 03003KT 310V080 9999 FEW020 18/15 Q1018 NOSIG
13-06-03 LEBL 032130Z 04002KT 9999 FEW020 18/15 Q1018 NOSIG
13-06-03 LEBL 032200Z 18003KT 9999 FEW020 18/16 Q1018 NOSIG
13-06-03 LEBL 032230Z 21004KT 9999 FEW020 18/16 Q1018 NOSIG
13-06-03 LEBL 032300Z 25005KT 210V270 9999 FEW015 17/16 Q1018 NOSIG
13-06-03 LEBL 032330Z 26005KT 9999 FEW015 17/16 Q1018 NOSIG
13-06-04 LEBL 040000Z 27004KT 9999 FEW015 17/14 Q1017 NOSIG
13-06-04 LEBL 040030Z 28003KT 260V330 9999 FEW015 17/14 Q1017 NOSIG
13-06-04 LEBL 040100Z NIL
13-06-04 LEBL 040100Z 28003KT 9999 FEW015 17/14 Q1017 NOSIG
13-06-04 LEBL 040130Z 31003KT 9999 FEW015 16/13 Q1017 NOSIG
13-06-04 LEBL 040200Z 31004KT 280V340 9999 FEW020 17/13 Q1016 NOSIG
13-06-04 LEBL 040230Z NIL
13-06-04 LEBL 040300Z NIL
13-06-04 LEBL 040330Z NIL
13-06-04 LEBL 040330Z 31006KT 9999 FEW025 16/13 Q1016 NOSIG
13-06-04 LEBL 040400Z 30006KT 9999 FEW025 16/13 Q1016 NOSIG
13-06-04 LEBL 040430Z 33005KT 9999 FEW025 16/13 Q1016 NOSIG
13-06-04 LEBL 040500Z 32007KT 9999 FEW025 16/12 Q1016 NOSIG
13-06-04 LEBL 040530Z 32009KT 9999 FEW025 16/12 Q1016 NOSIG
13-06-04 LEBL 040600Z 32008KT 290V360 9999 FEW025 17/12 Q1016 NOSIG
13-06-04 LEBL 040630Z 32009G21KT 9999 FEW025 17/12 Q1016 NOSIG
13-06-04 LEBL 040700Z 31007KT 250V340 9999 FEW025 18/12 Q1016 NOSIG
13-06-04 LEBL 040730Z 29004KT 210V350 9999 FEW025 20/11 Q1016 NOSIG
13-06-04 LEBL 040800Z 20006KT 9999 FEW025 19/12 Q1016 NOSIG
13-06-04 LEBL 040830Z 21006KT 170V230 9999 FEW025 19/13 Q1016 NOSIG
13-06-04 LEBL 040900Z 21010KT 9999 FEW025 20/13 Q1016 NOSIG
13-06-04 LEBL 040930Z 21011KT 9999 FEW025 20/14 Q1016 NOSIG
13-06-04 LEBL 041000Z 20013KT 9999 FEW025 21/13 Q1016 NOSIG
13-06-04 LEBL 041030Z 21013KT 9999 FEW025 20/14 Q1016 NOSIG
13-06-04 LEBL 041100Z 19014KT 9999 FEW025 21/14 Q1016 NOSIG
13-06-04 LEBL 041130Z 20014KT 9999 FEW025 20/15 Q1016 NOSIG
13-06-04 LEBL 041200Z 20013KT 9999 FEW025 20/15 Q1015 NOSIG
13-06-04 LEBL 041230Z 18012KT 9999 FEW025 20/15 Q1015 NOSIG
13-06-04 LEBL 041300Z 19014KT 9999 FEW025 21/16 Q1015 NOSIG
13-06-04 LEBL 041330Z 20014KT 130V220 9999 FEW025 21/15 Q1015 NOSIG
13-06-04 LEBL 041400Z 21014KT 9999 FEW025 21/13 Q1015 NOSIG
13-06-04 LEBL 041430Z 21014KT 9999 FEW025 21/14 Q1015 NOSIG
13-06-04 LEBL 041500Z 21013KT 9999 FEW025 21/15 Q1015 NOSIG
13-06-04 LEBL 041530Z 20013KT 9999 FEW025 21/15 Q1015 NOSIG
13-06-04 LEBL 041600Z 21011KT 190V250 9999 FEW025 21/15 Q1015 NOSIG
13-06-04 LEBL 041630Z 21012KT 9999 FEW025 21/16 Q1015 NOSIG
13-06-04 LEBL 041700Z 21011KT 9999 FEW025 20/15 Q1014 NOSIG
13-06-04 LEBL 041730Z 21010KT 9999 FEW025 20/15 Q1015 NOSIG
13-06-04 LEBL 041800Z 20008KT 9999 FEW025 20/15 Q1015 NOSIG
13-06-04 LEBL 041830Z 21007KT 170V230 9999 FEW025 19/16 Q1015 NOSIG
13-06-04 LEBL 041900Z 21006KT 180V250 9999 FEW025 19/16 Q1015 NOSIG
13-06-04 LEBL 041930Z 18002KT 9999 FEW010 19/16 Q1015 NOSIG
13-06-04 LEBL 042000Z 17003KT 9999 FEW010 18/16 Q1016 NOSIG
13-06-04 LEBL 042030Z 12003KT 9999 FEW010 19/16 Q1016 NOSIG
13-06-04 LEBL 042100Z 17003KT 130V190 9999 FEW010 19/16 Q1016 NOSIG
13-06-04 LEBL 042130Z 18004KT 9999 FEW010 18/16 Q1016 NOSIG
13-06-04 LEBL 042200Z 18003KT 9999 FEW010 17/16 Q1016 NOSIG
13-06-04 LEBL 042230Z 20003KT 9999 FEW010 18/16 Q1016 NOSIG
13-06-04 LEBL 042300Z VRB01KT 9999 FEW010 18/16 Q1016 NOSIG
13-06-04 LEBL 042330Z 00000KT 9999 FEW010 17/15 Q1016 NOSIG
13-06-05 LEBL 050000Z 00000KT 9999 FEW010 17/15 Q1016 NOSIG
13-06-05 LEBL 050030Z 32005KT 9999 FEW010 16/14 Q1016 NOSIG
13-06-05 LEBL 050100Z 32004KT 9999 FEW007 16/13 Q1015 NOSIG
13-06-05 LEBL 050130Z 31004KT 9999 FEW007 16/12 Q1015 NOSIG
13-06-05 LEBL 050200Z 32006KT 9999 FEW007 16/12 Q1015 NOSIG
13-06-05 LEBL 050230Z 33005KT 9999 FEW009 15/11 Q1015 NOSIG
13-06-05 LEBL 050300Z 31005KT 280V340 9999 FEW009 15/11 Q1015 NOSIG
13-06-05 LEBL 050330Z 33006KT 9999 FEW010 15/11 Q1015 NOSIG
13-06-05 LEBL 050400Z 33006KT 300V360 9999 FEW012 15/11 Q1015 NOSIG
13-06-05 LEBL 050430Z 32006KT 9999 FEW015 15/11 Q1015 NOSIG
13-06-05 LEBL 050500Z 32007KT 9999 FEW013 15/11 Q1015 NOSIG
13-06-05 LEBL 050530Z 31005KT 9999 FEW013 16/11 Q1016 NOSIG
13-06-05 LEBL 050600Z 32004KT 290V350 9999 FEW018 16/12 Q1016 NOSIG
13-06-05 LEBL 050630Z VRB05KT 9999 FEW018 17/12 Q1016 NOSIG
13-06-05 LEBL 050700Z 34004KT 9999 FEW018 18/13 Q1016 NOSIG
13-06-05 LEBL 050730Z VRB02KT 9999 FEW018 19/13 Q1016 NOSIG
13-06-05 LEBL 050800Z 25001KT 9999 FEW020 20/14 Q1016 NOSIG
13-06-05 LEBL 050830Z 18003KT 120V290 9999 FEW020 FEW025CB 20/13 Q1016 NOSIG
13-06-05 LEBL 050900Z 18005KT 150V210 9999 FEW018 FEW025CB 20/14 Q1016 NOSIG
13-06-05 LEBL 050930Z 18007KT 130V210 9999 FEW018 FEW025CB 20/14 Q1015 NOSIG
13-06-05 LEBL 051000Z 17006KT 140V200 9999 FEW018 FEW025CB 20/15 Q1015 NOSIG
13-06-05 LEBL 051030Z 17006KT 140V220 9999 FEW018 FEW025TCU 21/14 Q1015 NOSIG
13-06-05 LEBL 051100Z 19004KT 130V250 9999 FEW018 FEW025TCU 22/13 Q1015 NOSIG
13-06-05 LEBL 051130Z 20006KT 160V240 9999 FEW018 FEW025TCU 23/13 Q1015 NOSIG
13-06-05 LEBL 051200Z 15007KT 120V200 9999 FEW020 FEW025TCU 23/13 Q1015 NOSIG
13-06-05 LEBL 051230Z 20008KT 160V240 9999 FEW020 FEW025TCU 22/12 Q1015 NOSIG
13-06-05 LEBL 051300Z 19007KT 160V220 9999 FEW020 23/12 Q1015 NOSIG
13-06-05 LEBL 051330Z 19008KT 160V220 9999 FEW020 23/12 Q1015 NOSIG
13-06-05 LEBL 051400Z 20010KT 160V220 9999 FEW020 22/13 Q1015 NOSIG
13-06-05 LEBL 051430Z 19011KT 160V220 9999 FEW020 22/14 Q1015 NOSIG
13-06-05 LEBL 051500Z 19009KT 9999 FEW020 21/14 Q1015 NOSIG
13-06-05 LEBL 051530Z 19007KT 160V220 9999 FEW022 21/13 Q1015 NOSIG
13-06-05 LEBL 051600Z 17006KT 9999 FEW025 21/13 Q1015 NOSIG
13-06-05 LEBL 051630Z 17007KT 150V210 9999 FEW025 21/13 Q1015 NOSIG
13-06-05 LEBL 051700Z 16005KT 120V190 9999 FEW025 21/13 Q1015 NOSIG
13-06-05 LEBL 051730Z 16006KT 9999 FEW025 21/15 Q1015 NOSIG
13-06-05 LEBL 051800Z 15004KT 9999 FEW025 20/15 Q1015 NOSIG
13-06-05 LEBL 051830Z 13004KT 9999 FEW025 20/16 Q1015 NOSIG
13-06-05 LEBL 051900Z 10003KT 9999 FEW025 20/16 Q1015 NOSIG
13-06-05 LEBL 051930Z VRB02KT 9999 FEW025 20/13 Q1015 NOSIG
13-06-05 LEBL 052000Z 00000KT 9999 FEW025 20/13 Q1016 NOSIG
13-06-05 LEBL 052030Z 10002KT 9999 FEW025 20/12 Q1016 NOSIG
13-06-05 LEBL 052100Z VRB02KT 9999 FEW025 20/15 Q1016 NOSIG
13-06-05 LEBL 052130Z 16002KT 9999 FEW025 20/14 Q1017 NOSIG
13-06-05 LEBL 052200Z 20002KT 9999 FEW025 19/15 Q1017 NOSIG
13-06-05 LEBL 052230Z 36001KT 9999 FEW025 19/13 Q1017 NOSIG
13-06-05 LEBL 052300Z 32003KT 300V360 9999 FEW025 18/13 Q1016 NOSIG
13-06-05 LEBL 052330Z 00000KT 9999 FEW025 18/13 Q1016 NOSIG
13-06-06 LEBL 060000Z 34004KT 9999 FEW025 18/12 Q1016 NOSIG
13-06-06 LEBL 060030Z 32004KT 9999 FEW025 17/11 Q1016 NOSIG
13-06-06 LEBL 060100Z 33006KT 9999 FEW025 17/11 Q1016 NOSIG
13-06-06 LEBL 060130Z 34005KT 9999 FEW025 16/11 Q1016 NOSIG
13-06-06 LEBL 060200Z 33005KT 9999 FEW025 16/11 Q1015 NOSIG
13-06-06 LEBL 060230Z 33007KT 9999 FEW025 16/10 Q1015 NOSIG
13-06-06 LEBL 060300Z 33008KT 9999 FEW025 16/10 Q1015 NOSIG
13-06-06 LEBL 060330Z 33009KT 9999 FEW025 16/10 Q1015 NOSIG
13-06-06 LEBL 060400Z 33009KT 9999 FEW025 16/10 Q1015 NOSIG
13-06-06 LEBL 060430Z 35005KT 310V020 9999 FEW025 15/09 Q1016 NOSIG
13-06-06 LEBL 060500Z 33006KT 9999 FEW025 15/09 Q1016 NOSIG
13-06-06 LEBL 060530Z 34004KT 9999 FEW025 16/10 Q1016 NOSIG
13-06-06 LEBL 060600Z 35003KT 290V040 9999 FEW007 17/10 Q1016 NOSIG
13-06-06 LEBL 060630Z 32003KT 270V010 9999 FEW007 17/11 Q1017 NOSIG
13-06-06 LEBL 060700Z 00000KT 9999 FEW008 19/15 Q1017 NOSIG
13-06-06 LEBL 060730Z VRB02KT 9999 FEW010 21/16 Q1017 NOSIG
13-06-06 LEBL 060800Z 09004KT 030V160 9999 FEW015 21/16 Q1017 NOSIG
13-06-06 LEBL 060830Z 10006KT 060V150 9999 FEW020 22/16 Q1017 NOSIG
13-06-06 LEBL 060900Z 09004KT 030V150 9999 FEW020 22/16 Q1017 NOSIG
13-06-06 LEBL 060930Z 08005KT 020V140 9999 FEW020 22/15 Q1017 NOSIG
13-06-06 LEBL 061000Z 10006KT 060V140 9999 FEW020 22/15 Q1017 NOSIG
13-06-06 LEBL 061030Z 09006KT 060V130 9999 FEW025 22/16 Q1017 NOSIG
13-06-06 LEBL 061100Z 09007KT 060V140 9999 FEW025 22/16 Q1018 NOSIG
13-06-06 LEBL 061130Z 12007KT 100V160 9999 FEW025 22/15 Q1018 NOSIG
13-06-06 LEBL 061200Z 11007KT 080V150 9999 FEW025 23/11 Q1017 NOSIG
13-06-06 LEBL 061230Z 10007KT 9999 FEW025 22/16 Q1017 NOSIG
13-06-06 LEBL 061300Z 11007KT 080V150 9999 FEW025 22/16 Q1017 NOSIG
13-06-06 LEBL 061330Z 13007KT 080V170 9999 FEW025 22/16 Q1017 NOSIG
13-06-06 LEBL 061400Z 11008KT 080V150 9999 FEW025 22/16 Q1017 NOSIG
13-06-06 LEBL 061430Z 11007KT 080V140 9999 FEW025 22/15 Q1017 NOSIG
13-06-06 LEBL 061500Z 14007KT 100V190 9999 FEW025 22/15 Q1017 NOSIG
13-06-06 LEBL 061530Z 13006KT 100V170 9999 FEW025 21/15 Q1017 NOSIG
13-06-06 LEBL 061600Z 13006KT 090V170 9999 FEW025 21/15 Q1017 NOSIG
13-06-06 LEBL 061630Z 16006KT 110V210 9999 FEW025 21/15 Q1017 NOSIG
13-06-06 LEBL 061700Z 16005KT 100V210 9999 FEW025 21/15 Q1017 NOSIG
13-06-06 LEBL 061730Z 16004KT 110V200 9999 FEW025 21/15 Q1017 NOSIG
13-06-06 LEBL 061800Z 15003KT 120V200 9999 FEW025 20/16 Q1017 NOSIG
13-06-06 LEBL 061830Z 19003KT 150V220 9999 FEW025 20/15 Q1017 NOSIG
13-06-06 LEBL 061900Z 13003KT 9999 FEW025 20/15 Q1017 NOSIG
13-06-06 LEBL 061930Z 14003KT 9999 FEW025 20/15 Q1018 NOSIG
13-06-06 LEBL 062000Z 13003KT 110V170 9999 FEW025 20/16 Q1018 NOSIG
13-06-06 LEBL 062030Z 15003KT 9999 FEW025 20/16 Q1018 NOSIG
13-06-06 LEBL 062100Z VRB02KT 9999 FEW025 19/16 Q1018 NOSIG
13-06-06 LEBL 062130Z VRB01KT 9999 FEW025 19/16 Q1018 NOSIG
13-06-06 LEBL 062200Z VRB01KT 9999 FEW025 19/16 Q1018 NOSIG
13-06-06 LEBL 062230Z VRB01KT 9999 FEW025 19/16 Q1018 NOSIG
13-06-06 LEBL 062300Z 21003KT 9999 FEW025 18/16 Q1018 NOSIG
13-06-06 LEBL 062330Z 21004KT 9999 FEW025 18/15 Q1018 NOSIG
13-06-07 LEBL 070000Z 23005KT 200V260 9999 FEW025 18/15 Q1018 NOSIG
13-06-07 LEBL 070030Z 22005KT 9999 FEW025 18/17 Q1018 NOSIG
13-06-07 LEBL 070100Z 25006KT 9999 FEW025 18/17 Q1018 NOSIG
13-06-07 LEBL 070130Z 27005KT 9999 FEW025 19/16 Q1017 NOSIG
13-06-07 LEBL 070200Z 32006KT 9999 FEW025 18/14 Q1017 NOSIG
13-06-07 LEBL 070230Z 31004KT 9999 FEW025 18/14 Q1017 NOSIG
13-06-07 LEBL 070300Z 32004KT 300V360 9999 FEW025 18/13 Q1017 NOSIG
13-06-07 LEBL 070330Z 32005KT 290V350 9999 FEW025 18/13 Q1017 NOSIG
13-06-07 LEBL 070400Z 29004KT 260V330 9999 FEW025 17/12 Q1017 NOSIG
13-06-07 LEBL 070430Z 31003KT 270V340 9999 FEW025 18/14 Q1017 NOSIG
13-06-07 LEBL 070500Z 32004KT 9999 FEW025 18/14 Q1017 NOSIG
13-06-07 LEBL 070530Z 31003KT 290V360 9999 FEW025 18/13 Q1017 NOSIG
13-06-07 LEBL 070600Z 29003KT 9999 FEW025 19/13 Q1017 NOSIG
13-06-07 LEBL 070700Z 34003KT 290V060 9999 FEW025 19/15 Q1017 REDZ NOSIG
13-06-07 LEBL 070730Z VRB02KT 9999 FEW025 19/16 Q1017 NOSIG
13-06-07 LEBL 070800Z 21003KT 130V270 9999 FEW025 21/16 Q1017 NOSIG
13-06-07 LEBL 070830Z 19005KT 160V220 9999 FEW025 21/16 Q1017 NOSIG
13-06-07 LEBL 070900Z 17006KT 140V200 9999 FEW025 21/16 Q1017 NOSIG
13-06-07 LEBL 070930Z 17008KT 9999 FEW025 21/17 Q1018 NOSIG
13-06-07 LEBL 071000Z 17009KT 140V200 9999 FEW005 21/18 Q1018 NOSIG
13-06-07 LEBL 071030Z 19010KT 160V220 9999 FEW005 21/18 Q1018 NOSIG
13-06-07 LEBL 071100Z 20010KT 160V220 9999 FEW009 21/18 Q1018 NOSIG
13-06-07 LEBL 071130Z 20010KT 170V230 9999 FEW010 21/17 Q1018 NOSIG
13-06-07 LEBL 071200Z 20010KT 170V230 9999 FEW025 22/17 Q1018 NOSIG
13-06-07 LEBL 071230Z 20012KT 170V230 9999 FEW025 22/18 Q1018 NOSIG
13-06-07 LEBL 071300Z 20011KT 9999 FEW025 22/17 Q1017 NOSIG
13-06-07 LEBL 071330Z 21010KT 170V240 9999 FEW025 22/17 Q1017 NOSIG
13-06-07 LEBL 071400Z 20008KT 160V220 9999 FEW020 22/17 Q1017 NOSIG
13-06-07 LEBL 071430Z 20009KT 9999 FEW020 22/17 Q1017 NOSIG
13-06-07 LEBL 071500Z 20009KT 9999 FEW020 21/17 Q1016 NOSIG
13-06-07 LEBL 071530Z 20008KT 9999 FEW020 22/16 Q1016 NOSIG
13-06-07 LEBL 071600Z 19008KT 9999 FEW020 21/15 Q1016 NOSIG
13-06-07 LEBL 071630Z 19007KT 9999 FEW020 21/17 Q1016 NOSIG
13-06-07 LEBL 071700Z 18007KT 9999 FEW020 21/17 Q1016 NOSIG
13-06-07 LEBL 071730Z 19007KT 9999 FEW020 20/17 Q1016 NOSIG
13-06-07 LEBL 071800Z 19004KT 150V220 9999 FEW020 20/17 Q1016 NOSIG
13-06-07 LEBL 071830Z 16004KT 130V190 9999 FEW020 20/17 Q1016 NOSIG
13-06-07 LEBL 071900Z 14003KT 110V180 9999 FEW020 20/17 Q1016 NOSIG
13-06-07 LEBL 071930Z 19003KT 150V220 9999 FEW020 20/17 Q1016 NOSIG
13-06-07 LEBL 072000Z VRB01KT 9999 FEW020 20/17 Q1016 NOSIG
13-06-07 LEBL 072030Z VRB02KT 9999 FEW020 20/17 Q1016 NOSIG
13-06-07 LEBL 072100Z 13003KT 100V180 9999 FEW020 20/17 Q1016 NOSIG
13-06-07 LEBL 072130Z VRB01KT 9999 FEW020 20/17 Q1016 NOSIG
13-06-07 LEBL 072200Z 00000KT 9999 FEW020 19/17 Q1016 NOSIG
13-06-07 LEBL 072230Z 00000KT 9999 FEW020 19/17 Q1016 NOSIG
13-06-07 LEBL 072300Z 17001KT 9999 FEW020 19/17 Q1015 NOSIG
13-06-07 LEBL 072330Z 14001KT 9999 FEW020 19/15 Q1015 NOSIG
13-06-08 LEBL 080000Z VRB02KT 9999 FEW020 19/17 Q1015 NOSIG
13-06-08 LEBL 080030Z 22005KT 180V240 9999 FEW020 19/17 Q1015 NOSIG
13-06-08 LEBL 080100Z 24005KT 9999 FEW020 19/17 Q1015 NOSIG
13-06-08 LEBL 080130Z 25004KT 220V280 9000 RA FEW020 19/18 Q1015 NOSIG
13-06-08 LEBL 080200Z 31004KT 9999 FEW020 19/17 Q1014 RERA NOSIG
13-06-08 LEBL 080230Z 01002KT 9999 FEW020 19/17 Q1013 NOSIG
13-06-08 LEBL 080300Z VRB01KT 9999 FEW020 SCT045 19/17 Q1013 NOSIG
13-06-08 LEBL 080330Z VRB01KT 9999 FEW020 SCT045 18/16 Q1013 NOSIG
13-06-08 LEBL 080400Z VRB01KT 9999 FEW020 SCT040 18/16 Q1013 NOSIG
13-06-08 LEBL 080430Z 11003KT 9999 FEW020 SCT040 19/16 Q1013 NOSIG
13-06-08 LEBL 080500Z 10003KT 9999 FEW017 SCT040 19/16 Q1013 NOSIG
13-06-08 LEBL 080530Z 12004KT 100V160 9999 FEW004 SCT050 19/16 Q1013 NOSIG
13-06-08 LEBL 080600Z 11005KT 9999 FEW012 BKN022 19/17 Q1012 NOSIG
13-06-08 LEBL 080630Z 16008KT 130V200 9999 FEW012 BKN037 19/17 Q1013 NOSIG
13-06-08 LEBL 080700Z 17010KT 130V200 9999 SCT017 20/17 Q1012 NOSIG
13-06-08 LEBL 080730Z 15010KT 110V170 9999 SCT017 SCT040 20/17 Q1012 NOSIG
13-06-08 LEBL 080800Z 12012KT 9999 SCT017 SCT040 20/17 Q1012 BECMG SHRA
13-06-08 LEBL 080812Z 13010KT 9999 TSRA SCT017CB SCT030 19/18 Q1012 NOSIG
13-06-08 LEBL 080815Z 12009KT 100V160 1000 R25R/P2000 R07L/1300VP2000D R07R/P2000 R25L/P2000 TSRA SCT017CB SCT030 19/18 Q1013 NOSIG
13-06-08 LEBL 080830Z 22007G17KT 170V260 7000 R07L/1000VP2000U R07R/0900VP2000U R25L/0900VP2000U TSRA SCT017CB SCT030 16/15 Q1013 NOSIG
13-06-08 LEBL 080900Z 34011KT 310V010 9999 DZ SCT018 SCT040 14/13 Q1013 NOSIG
13-06-08 LEBL 080930Z 33011KT 9999 FEW018 SCT040 16/14 Q1013 REDZ NOSIG
13-06-08 LEBL 081000Z 31010KT 9999 FEW020 17/15 Q1013 NOSIG
13-06-08 LEBL 081030Z 32007KT 280V010 9999 FEW020 18/15 Q1013 NOSIG
13-06-08 LEBL 081100Z 33009KT 300V020 9999 FEW020 20/15 Q1013 NOSIG
13-06-08 LEBL 081130Z 35005KT 9999 FEW020 21/14 Q1012 NOSIG
13-06-08 LEBL 081200Z 14005KT 060V210 9999 FEW020 SCT035 21/14 Q1012 NOSIG
13-06-08 LEBL 081230Z 19011KT 9999 FEW020 SCT035 20/13 Q1012 NOSIG
13-06-08 LEBL 081300Z 20012KT 170V240 9999 FEW020 20/14 Q1012 NOSIG
13-06-08 LEBL 081330Z 19009KT 140V220 9999 FEW020 20/14 Q1012 NOSIG
13-06-08 LEBL 081400Z 19011KT 160V220 9999 FEW020 21/14 Q1012 NOSIG
13-06-08 LEBL 081400Z NIL
13-06-08 LEBL 081430Z 21015KT 9999 FEW020 21/14 Q1012 NOSIG
13-06-08 LEBL 081500Z 22016KT 9999 FEW020 21/14 Q1012 NOSIG
13-06-08 LEBL 081530Z 23018KT 9999 FEW020 22/14 Q1012 NOSIG
13-06-08 LEBL 081600Z 29012KT 9999 FEW020 22/09 Q1012 NOSIG
13-06-08 LEBL 081630Z 33008KT 290V020 9999 FEW020 22/09 Q1012 NOSIG
13-06-08 LEBL 081700Z 32003KT 260V020 9999 FEW020 22/11 Q1012 NOSIG
13-06-08 LEBL 081730Z 20009KT 9999 FEW020 20/12 Q1011 NOSIG
13-06-08 LEBL 081800Z 20010KT 9999 FEW020 20/12 Q1012 NOSIG
13-06-08 LEBL 081830Z 22010KT 9999 FEW020 20/13 Q1012 NOSIG
13-06-08 LEBL 081900Z 22012KT 9999 FEW020 19/14 Q1012 NOSIG
13-06-08 LEBL 081930Z 22011KT 9999 FEW020 19/14 Q1012 NOSIG
13-06-08 LEBL 082000Z 21009KT 9999 FEW020 19/14 Q1012 NOSIG
13-06-08 LEBL 082030Z 23008KT 9999 FEW020 19/15 Q1012 NOSIG
13-06-08 LEBL 082100Z 21009KT 9999 FEW020 19/15 Q1013 NOSIG
13-06-08 LEBL 082130Z 22008KT 9999 FEW020 19/14 Q1013 NOSIG
13-06-08 LEBL 082200Z 22008KT 9999 FEW020 19/15 Q1013 NOSIG
13-06-08 LEBL 082230Z 27005KT 240V310 9999 FEW020 19/15 Q1013 NOSIG
13-06-08 LEBL 082300Z 32003KT 9999 FEW020 18/15 Q1012 NOSIG
13-06-08 LEBL 082330Z 30003KT 9999 FEW020 18/13 Q1012 NOSIG
13-06-09 LEBL 090000Z 32006KT 9999 FEW020 17/13 Q1012 NOSIG
13-06-09 LEBL 090030Z 32006KT 9999 FEW020 17/13 Q1012 NOSIG
13-06-09 LEBL 090100Z 31007KT 9999 FEW020 17/13 Q1011 NOSIG
13-06-09 LEBL 090130Z 32004KT 290V350 9999 FEW015 16/13 Q1011 NOSIG
13-06-09 LEBL 090200Z 34006KT 9999 FEW015 16/13 Q1011 NOSIG
13-06-09 LEBL 090230Z 34005KT 9999 FEW015 16/13 Q1010 NOSIG
13-06-09 LEBL 090300Z 33006KT 9999 FEW015 16/13 Q1010 NOSIG
13-06-09 LEBL 090330Z 34004KT 9999 FEW015 15/12 Q1010 NOSIG
13-06-09 LEBL 090400Z 34006KT 9999 FEW020 15/12 Q1010 NOSIG
13-06-09 LEBL 090430Z 33007KT 9999 FEW020 15/12 Q1010 NOSIG
13-06-09 LEBL 090500Z 32008KT CAVOK 15/12 Q1010 NOSIG
13-06-09 LEBL 090530Z 32010KT CAVOK 15/12 Q1010 NOSIG
13-06-09 LEBL 090600Z 33007KT 270V350 CAVOK 15/12 Q1010 NOSIG
13-06-09 LEBL 090630Z 32006KT 220V350 CAVOK 17/12 Q1010 NOSIG
13-06-09 LEBL 090700Z 32006KT 220V350 CAVOK 18/13 Q1010 NOSIG
13-06-09 LEBL 090730Z 31003KT 260V020 CAVOK 19/14 Q1010 NOSIG
13-06-09 LEBL 090800Z 22008KT 190V260 9999 FEW015 20/16 Q1009 NOSIG
13-06-09 LEBL 090830Z 22012KT 9999 FEW015 20/14 Q1009 NOSIG
13-06-09 LEBL 090900Z 23014KT 9999 FEW015 21/12 Q1009 NOSIG
13-06-09 LEBL 090930Z 22017KT 9999 FEW015 20/13 Q1009 NOSIG
13-06-09 LEBL 091000Z 22017KT 9999 FEW015 21/13 Q1009 NOSIG
13-06-09 LEBL 091030Z 23017KT 9999 FEW015 22/13 Q1009 NOSIG
13-06-09 LEBL 091100Z 23019KT 9999 FEW015 SCT055 21/12 Q1009 NOSIG
13-06-09 LEBL 091130Z 22017KT 9999 FEW018 SCT055 22/12 Q1009 NOSIG
13-06-09 LEBL 091200Z 22019KT 9999 FEW020 FEW025CB 23/12 Q1009 TEMPO SHRA
13-06-09 LEBL 091230Z 23019G30KT 210V280 6000 SHRA FEW020 FEW025TCU BKN035 20/15 Q1009 NOSIG
13-06-09 LEBL 091239Z 28015KT 2500 +SHRA FEW020 FEW025TCU BKN035 18/15 Q1009 NOSIG
13-06-09 LEBL 091300Z 29009G19KT 9999 -SHRA FEW020 FEW025TCU BKN040 19/15 Q1009
13-06-09 LEBL 091330Z 28011KT 9999 FEW020 FEW025TCU SCT050 20/15 Q1009 NOSIG
13-06-09 LEBL 091400Z 26016KT 9999 FEW020 FEW025TCU SCT045 20/15 Q1009 NOSIG
13-06-09 LEBL 091430Z 23013KT 200V260 9999 FEW020 SCT038 21/14 Q1009 NOSIG
13-06-09 LEBL 091500Z 22014KT 9999 FEW020 SCT045 21/14 Q1008 NOSIG
13-06-09 LEBL 091530Z 23017KT 9999 FEW020 SCT050 22/14 Q1008 NOSIG
13-06-09 LEBL 091600Z 23017KT 9999 FEW020 SCT050 21/14 Q1008 NOSIG
13-06-09 LEBL NIL
13-06-09 LEBL 091630Z 22016KT 9999 FEW020 SCT045 21/14 Q1008 NOSIG
13-06-09 LEBL 091700Z 23017KT 9999 FEW020 SCT042 20/14 Q1008 NOSIG
13-06-09 LEBL 091730Z 24018KT 9999 FEW020 SCT042 22/12 Q1008 NOSIG
13-06-09 LEBL 091800Z 22013KT 200V260 9999 FEW020 SCT042 21/14 Q1008 NOSIG
13-06-09 LEBL 091830Z 24017KT 9999 FEW020 SCT042 21/14 Q1008 NOSIG
13-06-09 LEBL 091900Z 23014KT 9999 FEW020 SCT042 20/15 Q1009 NOSIG
13-06-09 LEBL 091930Z 21011KT 9999 FEW018 SCT042 20/16 Q1009 NOSIG
13-06-09 LEBL 092000Z 23014KT 9999 FEW018 SCT040 20/15 Q1010 NOSIG
13-06-09 LEBL 092030Z 23012KT 9999 FEW018 SCT055 19/15 Q1010 NOSIG
13-06-09 LEBL 092100Z 22006KT 9999 FEW055 19/16 Q1011 NOSIG
13-06-09 LEBL 092130Z 21004KT 160V240 9999 FEW055 19/16 Q1011 NOSIG
13-06-09 LEBL 092200Z 25005KT 9999 FEW055 19/16 Q1011 NOSIG
13-06-09 LEBL 092230Z 33004KT 250V010 9999 FEW055 18/16 Q1011 NOSIG
13-06-09 LEBL 092300Z 04010KT 010V070 9999 FEW055 18/15 Q1011 NOSIG
13-06-09 LEBL 092330Z 05011KT 9999 FEW020 18/15 Q1012 NOSIG
13-06-10 LEBL 100000Z 02008KT 360V060 9999 FEW020 17/15 Q1012 NOSIG
13-06-10 LEBL 100030Z 03006KT 360V060 9999 FEW020 17/15 Q1012 NOSIG
13-06-10 LEBL 100100Z 02006KT 9999 FEW020 17/15 Q1012 NOSIG
13-06-10 LEBL 100130Z 35006KT 9999 FEW020 16/13 Q1012 NOSIG
13-06-10 LEBL 100200Z 32006KT 9999 FEW020 16/13 Q1013 NOSIG
13-06-10 LEBL 100230Z 33006KT 9999 FEW020 16/13 Q1013 NOSIG
13-06-10 LEBL 100300Z 34004KT 9999 FEW020 15/13 Q1013 NOSIG
13-06-10 LEBL 100330Z 33007KT 9999 FEW020 15/12 Q1012 NOSIG
13-06-10 LEBL 100400Z 34004KT 310V020 9999 FEW020 16/13 Q1013 NOSIG
13-06-10 LEBL 100430Z 33006KT 9999 FEW020 15/12 Q1013 NOSIG
13-06-10 LEBL 100500Z 32007KT 9999 FEW020 15/12 Q1013 NOSIG
13-06-10 LEBL 100530Z 33007KT 270V350 9999 FEW020 16/12 Q1013 NOSIG
13-06-10 LEBL 100600Z 33008KT 9999 FEW020 16/12 Q1013 NOSIG
13-06-10 LEBL 100630Z 33010KT 9999 FEW020 17/12 Q1014 NOSIG
13-06-10 LEBL 100700Z 33008KT 290V020 9999 FEW020 18/12 Q1014 NOSIG
13-06-10 LEBL 100730Z 31009KT 9999 FEW021 19/12 Q1014 NOSIG
13-06-10 LEBL 100800Z 32004KT 240V030 9999 FEW024 20/12 Q1015 NOSIG
13-06-10 LEBL 100830Z 21005KT 180V240 9999 FEW028 20/14 Q1015 NOSIG
13-06-10 LEBL 100900Z 17005KT 100V200 9999 SCT026 20/14 Q1015 NOSIG
13-06-10 LEBL 100930Z 16006KT 100V230 9999 FEW030 20/14 Q1015 NOSIG
13-06-10 LEBL 101000Z 17007KT 140V220 9999 FEW030 20/14 Q1015 NOSIG
13-06-10 LEBL 101030Z 18007KT 150V220 9999 FEW030 21/14 Q1015 NOSIG
13-06-10 LEBL 101100Z 18007KT 140V210 9999 FEW030 21/15 Q1016 NOSIG
13-06-10 LEBL 101130Z 16007KT 130V200 9999 FEW030 21/15 Q1016 NOSIG
13-06-10 LEBL 101200Z 17007KT 130V200 9999 FEW030 21/15 Q1016 NOSIG
13-06-10 LEBL 101230Z 17006KT 140V220 9999 FEW030 21/15 Q1015 NOSIG
13-06-10 LEBL 101300Z 17007KT 120V220 9999 FEW030 22/15 Q1015 NOSIG
13-06-10 LEBL 101330Z 18007KT 160V220 9999 FEW030 22/14 Q1015 NOSIG
13-06-10 LEBL 101400Z 18007KT 140V220 9999 FEW030 22/16 Q1015 NOSIG
13-06-10 LEBL 101430Z 19009KT 160V220 9999 FEW030 22/15 Q1015 NOSIG
13-06-10 LEBL 101500Z 19008KT 160V220 9999 FEW030 22/14 Q1015 NOSIG
13-06-10 LEBL 101530Z 17008KT 150V220 9999 FEW030 22/14 Q1015 NOSIG
13-06-10 LEBL 101600Z 20010KT 160V220 9999 FEW030 22/15 Q1015 NOSIG
13-06-10 LEBL 101630Z 20010KT 170V230 9999 FEW030 22/15 Q1015 NOSIG
13-06-10 LEBL 101700Z 22012KT 9999 FEW030 22/16 Q1015 NOSIG
13-06-10 LEBL 101730Z 21011KT 9999 FEW030 22/16 Q1015 NOSIG
13-06-10 LEBL 101800Z 22011KT 9999 FEW030 21/16 Q1015 NOSIG
13-06-10 LEBL 101830Z 22009KT 9999 FEW030 21/17 Q1015 NOSIG
13-06-10 LEBL 101900Z 21008KT 9999 FEW030 20/16 Q1016 NOSIG
13-06-10 LEBL 101930Z 22008KT 9999 FEW030 20/16 Q1016 NOSIG
13-06-10 LEBL 102000Z 23009KT 9999 FEW030 20/17 Q1016 NOSIG
13-06-10 LEBL 102030Z 20005KT 9999 FEW030 20/17 Q1016 NOSIG
13-06-10 LEBL 102100Z 18003KT 9999 FEW030 20/16 Q1017 NOSIG
13-06-10 LEBL 102130Z 19006KT 9999 FEW030 20/17 Q1017 NOSIG
13-06-10 LEBL 102200Z 20005KT 9999 FEW030 20/17 Q1017 NOSIG
13-06-10 LEBL 102230Z 20004KT 9999 FEW030 20/17 Q1017 NOSIG
13-06-10 LEBL 102300Z 14002KT 9999 FEW030 20/17 Q1017 NOSIG
13-06-10 LEBL 102330Z 10002KT 9999 FEW025 19/17 Q1017 NOSIG
13-06-11 LEBL 110000Z 10002KT 9999 FEW025 19/17 Q1017 NOSIG
13-06-11 LEBL 110030Z 12003KT 9999 FEW025 19/17 Q1017 NOSIG
13-06-11 LEBL 110100Z 15001KT 9999 FEW025 18/16 Q1017 NOSIG
13-06-11 LEBL 110130Z 32004KT 9999 FEW020 18/15 Q1017 NOSIG
13-06-11 LEBL 110200Z 32004KT 9999 FEW020 18/15 Q1016 NOSIG
13-06-11 LEBL 110230Z 33006KT 9999 FEW020 17/15 Q1016 NOSIG
13-06-11 LEBL 110300Z 32006KT 9999 FEW020 17/15 Q1016 NOSIG
13-06-11 LEBL 110330Z 33005KT 9999 FEW020 17/14 Q1016 NOSIG
13-06-11 LEBL 110400Z 32005KT 9999 FEW015 17/15 Q1016 NOSIG
13-06-11 LEBL 110430Z 33006KT 9999 FEW015 17/14 Q1016 NOSIG
13-06-11 LEBL 110500Z 33006KT 9999 FEW020 17/14 Q1016 NOSIG
13-06-11 LEBL 110530Z 34006KT 9999 FEW020 18/14 Q1016 NOSIG
13-06-11 LEBL 110600Z 33005KT 260V010 9999 FEW020 18/14 Q1017 NOSIG
13-06-11 LEBL 110630Z 33005KT 250V010 9999 FEW020 19/15 Q1017 NOSIG
13-06-11 LEBL 110700Z VRB02KT 9999 FEW020 20/15 Q1017 NOSIG
13-06-11 LEBL 110730Z 03002KT CAVOK 22/15 Q1017 NOSIG
13-06-11 LEBL 110800Z 11004KT 080V150 CAVOK 22/16 Q1017 NOSIG
13-06-11 LEBL 110830Z 10004KT CAVOK 21/15 Q1017 NOSIG
13-06-11 LEBL 110900Z 12006KT 080V160 9999 FEW020 21/16 Q1017 NOSIG
13-06-11 LEBL 110930Z 12006KT 090V160 9999 FEW020 22/16 Q1017 NOSIG
13-06-11 LEBL 111000Z 13005KT 100V170 9999 FEW020 22/16 Q1017 NOSIG
13-06-11 LEBL 111030Z 14006KT 110V190 9999 FEW022 22/16 Q1017 NOSIG
13-06-11 LEBL 111100Z 14006KT 090V180 9999 FEW022 22/17 Q1017 NOSIG
13-06-11 LEBL 111130Z 14005KT 100V180 9999 FEW025 22/17 Q1017 NOSIG
13-06-11 LEBL 111200Z 15006KT 110V170 9999 FEW025 22/17 Q1017 NOSIG
13-06-11 LEBL 111230Z 12007KT 090V150 9999 FEW025 23/17 Q1017 NOSIG
13-06-11 LEBL 111300Z 11007KT 070V150 9999 FEW025 23/18 Q1017 NOSIG
13-06-11 LEBL 111330Z 13007KT 100V160 9999 FEW028 23/17 Q1017 NOSIG
13-06-11 LEBL 111400Z 12007KT 100V160 9999 FEW028 22/18 Q1017 NOSIG
13-06-11 LEBL 111430Z 08008KT 050V110 9999 FEW008 22/18 Q1017 NOSIG
13-06-11 LEBL 111500Z 09008KT 9999 FEW008 23/18 Q1017 NOSIG
13-06-11 LEBL 111530Z 10007KT 070V150 9999 FEW009 23/18 Q1017 NOSIG
13-06-11 LEBL 111600Z 11007KT 080V140 9999 FEW010 23/18 Q1017 NOSIG
13-06-11 LEBL 111630Z 11006KT 080V150 9999 FEW010 23/18 Q1017 NOSIG
13-06-11 LEBL 111700Z 10005KT 070V140 9999 FEW012 23/18 Q1017 NOSIG
13-06-11 LEBL 111730Z 10005KT 070V150 9999 FEW012 22/18 Q1017 NOSIG
13-06-11 LEBL 111800Z 12004KT 090V160 9999 FEW012 22/18 Q1017 NOSIG
13-06-11 LEBL 111830Z 12004KT 080V140 9999 FEW015 22/18 Q1017 NOSIG
13-06-11 LEBL 111900Z 10004KT 060V120 9999 FEW015 21/18 Q1018 NOSIG
13-06-11 LEBL 111930Z NIL
13-06-11 LEBL 111930Z VRB02KT 9999 FEW015 21/18 Q1018 NOSIG
13-06-11 LEBL 112000Z 06003KT 360V120 9999 FEW015 21/18 Q1018 NOSIG
13-06-11 LEBL 112030Z 12002KT 9999 FEW015 21/18 Q1018 NOSIG
13-06-11 LEBL 112100Z VRB02KT 9999 FEW015 21/18 Q1018 NOSIG
13-06-11 LEBL 112130Z 11003KT 070V130 9999 FEW015 21/18 Q1019 NOSIG
13-06-11 LEBL 112200Z 05002KT 9999 FEW015 21/18 Q1019 NOSIG
13-06-11 LEBL 112230Z 09002KT 9999 FEW015 21/19 Q1019 NOSIG
13-06-11 LEBL 112300Z 00000KT 9000 FEW015 21/19 Q1019 NOSIG
13-06-11 LEBL 112330Z 00000KT 9000 FEW015 20/18 Q1019 NOSIG
13-06-12 LEBL 120000Z 00000KT 9000 FEW015 20/17 Q1019 NOSIG
13-06-12 LEBL 120030Z 00000KT 9000 FEW015 20/17 Q1019 NOSIG
13-06-12 LEBL 120100Z 00000KT 9999 FEW015 20/17 Q1019 NOSIG
13-06-12 LEBL 120130Z 34005KT 9999 FEW015 19/16 Q1019 NOSIG
13-06-12 LEBL 120200Z 36003KT 9999 FEW015 19/16 Q1019 NOSIG
13-06-12 LEBL 120230Z 01002KT 9999 FEW015 20/16 Q1019 NOSIG
13-06-12 LEBL 120300Z 35002KT CAVOK 19/16 Q1019 NOSIG
13-06-12 LEBL 120330Z 34003KT CAVOK 19/16 Q1019 NOSIG
13-06-12 LEBL 120400Z 33003KT 7000 NSC 19/16 Q1019 NOSIG
13-06-12 LEBL 120430Z 33003KT 7000 NSC 19/16 Q1019 NOSIG
13-06-12 LEBL 120500Z VRB01KT 8000 FEW015 19/16 Q1020 NOSIG
13-06-12 LEBL 120530Z VRB01KT 8000 FEW008 19/16 Q1020 NOSIG
13-06-12 LEBL 120600Z 33003KT 280V360 8000 FEW010 20/16 Q1020 NOSIG
13-06-12 LEBL 120630Z 33005KT 240V050 8000 NSC 21/16 Q1021 NOSIG
13-06-12 LEBL 120700Z 35003KT 280V060 9000 NSC 22/16 Q1021 NOSIG
13-06-12 LEBL 120730Z 36002KT 9000 NSC 23/15 Q1021 NOSIG
13-06-12 LEBL 120800Z 10003KT 060V200 9000 NSC 24/15 Q1021 NOSIG
13-06-12 LEBL 120830Z 16004KT 100V220 CAVOK 24/15 Q1021 NOSIG
13-06-12 LEBL 120900Z 17006KT 130V210 CAVOK 24/15 Q1021 NOSIG
13-06-12 LEBL 120930Z 17007KT 130V200 CAVOK 24/14 Q1021 NOSIG
13-06-12 LEBL 121000Z 17008KT 130V200 CAVOK 24/15 Q1021 NOSIG
13-06-12 LEBL 121030Z 17008KT 150V210 CAVOK 23/16 Q1021 NOSIG
13-06-12 LEBL 121100Z 17009KT 140V200 CAVOK 24/16 Q1021 NOSIG
13-06-12 LEBL 121130Z 16009KT 130V210 CAVOK 24/17 Q1021 NOSIG
13-06-12 LEBL 121200Z 18008KT 150V220 9999 FEW030 24/16 Q1021 NOSIG
13-06-12 LEBL 121230Z 18010KT 150V220 9999 FEW030 24/17 Q1020 NOSIG
13-06-12 LEBL 121300Z 20010KT 160V220 9999 FEW030 24/16 Q1020 NOSIG
13-06-12 LEBL NIL
13-06-12 LEBL 121330Z 20011KT 9999 FEW030 25/15 Q1020 NOSIG
13-06-12 LEBL 121400Z 21010KT 170V240 9999 FEW030 24/17 Q1020 NOSIG
13-06-12 LEBL 121430Z 20010KT 160V230 9999 FEW030 25/17 Q1020 NOSIG
13-06-12 LEBL 121500Z 20012KT 9999 FEW030 24/16 Q1020 NOSIG
13-06-12 LEBL 121530Z 22013KT 9999 FEW030 25/16 Q1020 NOSIG
13-06-12 LEBL 121600Z 21010KT 9999 FEW030 25/16 Q1019 NOSIG
13-06-12 LEBL 121630Z 20009KT 160V230 9999 FEW030 24/16 Q1019 NOSIG
13-06-12 LEBL 121700Z 20009KT 130V230 9999 FEW030 24/16 Q1019 NOSIG
13-06-12 LEBL 121730Z 20007KT 9999 FEW030 23/17 Q1019 NOSIG
13-06-12 LEBL 121800Z 20007KT 160V220 9999 FEW030 23/17 Q1019 NOSIG
13-06-12 LEBL 121830Z 20005KT 170V240 9999 FEW030 23/18 Q1019 NOSIG
13-06-12 LEBL 121900Z 19006KT 9999 FEW030 23/18 Q1019 NOSIG
13-06-12 LEBL 121930Z 19004KT 160V220 9999 FEW030 22/18 Q1019 NOSIG
13-06-12 LEBL 122000Z 17003KT 130V210 9999 FEW030 22/18 Q1019 NOSIG
13-06-12 LEBL 122030Z 21003KT 9999 FEW030 21/18 Q1019 NOSIG
13-06-12 LEBL 122100Z VRB02KT CAVOK 21/18 Q1020 NOSIG
13-06-12 LEBL 122130Z VRB02KT CAVOK 21/18 Q1020 NOSIG
13-06-12 LEBL 122200Z VRB02KT CAVOK 21/18 Q1020 NOSIG
13-06-12 LEBL 122230Z VRB01KT CAVOK 21/18 Q1020 NOSIG
13-06-12 LEBL 122300Z 19003KT CAVOK 21/18 Q1019 NOSIG
13-06-12 LEBL 122330Z 22004KT CAVOK 20/19 Q1019 NOSIG
13-06-13 LEBL 130000Z 25004KT CAVOK 19/17 Q1019 NOSIG
13-06-13 LEBL 130030Z 25006KT CAVOK 19/17 Q1019 NOSIG
13-06-13 LEBL 130100Z 25005KT CAVOK 20/18 Q1019 NOSIG
13-06-13 LEBL 130130Z 25005KT CAVOK 20/18 Q1019 NOSIG
13-06-13 LEBL 130200Z 30004KT CAVOK 20/16 Q1018 NOSIG
13-06-13 LEBL 130230Z 32004KT CAVOK 20/15 Q1018 NOSIG
13-06-13 LEBL 130300Z 29004KT CAVOK 20/15 Q1018 NOSIG
13-06-13 LEBL 130330Z 29006KT CAVOK 20/15 Q1018 NOSIG
13-06-13 LEBL 130400Z 29005KT CAVOK 20/15 Q1018 NOSIG
13-06-13 LEBL 130430Z 29005KT CAVOK 20/15 Q1018 NOSIG
13-06-13 LEBL 130500Z 29004KT CAVOK 20/15 Q1018 NOSIG
13-06-13 LEBL 130530Z 31004KT CAVOK 20/15 Q1018 NOSIG
13-06-13 LEBL 130600Z 31005KT 270V340 CAVOK 21/16 Q1018 NOSIG
13-06-13 LEBL 130630Z 32005KT 260V010 CAVOK 22/16 Q1018 NOSIG
13-06-13 LEBL 130700Z 31006KT 280V350 CAVOK 23/16 Q1018 NOSIG
13-06-13 LEBL 130730Z 31004KT 260V350 CAVOK 24/16 Q1018 NOSIG
13-06-13 LEBL 130800Z 28004KT 240V330 CAVOK 24/16 Q1019 NOSIG
13-06-13 LEBL 130830Z 20007KT CAVOK 24/17 Q1018 NOSIG
13-06-13 LEBL 130900Z 21006KT CAVOK 24/17 Q1018 NOSIG
13-06-13 LEBL 130930Z 20006KT CAVOK 25/18 Q1018 NOSIG
13-06-13 LEBL 131000Z 20007KT 170V230 CAVOK 25/17 Q1018 NOSIG
13-06-13 LEBL 131030Z 20012KT CAVOK 24/18 Q1018 NOSIG
13-06-13 LEBL 131100Z 20011KT CAVOK 25/16 Q1018 NOSIG
13-06-13 LEBL 131130Z 21012KT CAVOK 26/17 Q1018 NOSIG
13-06-13 LEBL 131200Z 20011KT CAVOK 26/17 Q1018 NOSIG
13-06-13 LEBL 131230Z 20010KT CAVOK 26/15 Q1018 NOSIG
13-06-13 LEBL 131300Z 20011KT 180V250 CAVOK 27/16 Q1018 NOSIG
13-06-13 LEBL 131330Z 20012KT CAVOK 26/18 Q1018 NOSIG
13-06-13 LEBL 131400Z 20011KT CAVOK 26/16 Q1017 NOSIG
13-06-13 LEBL 131430Z 21010KT 190V250 CAVOK 26/13 Q1017 NOSIG
13-06-13 LEBL 131500Z 20010KT CAVOK 26/14 Q1017 NOSIG
13-06-13 LEBL 131530Z 19009KT CAVOK 25/15 Q1017 NOSIG
13-06-13 LEBL 131600Z 19010KT CAVOK 25/15 Q1017 NOSIG
13-06-13 LEBL 131630Z 20009KT CAVOK 24/18 Q1017 NOSIG
13-06-13 LEBL 131700Z 20007KT CAVOK 24/18 Q1017 NOSIG
13-06-13 LEBL 131730Z 20007KT CAVOK 23/17 Q1017 NOSIG
13-06-13 LEBL 131800Z 20006KT 9999 FEW030 23/17 Q1017 NOSIG
13-06-13 LEBL 131830Z 21004KT 9999 FEW030 23/17 Q1017 NOSIG
13-06-13 LEBL 131900Z VRB02KT 9999 FEW030 23/15 Q1017 NOSIG
13-06-13 LEBL 131930Z 16003KT 9999 FEW030 23/14 Q1017 NOSIG
13-06-13 LEBL 132000Z 09003KT 9999 FEW030 23/12 Q1018 NOSIG
13-06-13 LEBL 132030Z 11004KT 9999 FEW030 23/19 Q1018 NOSIG
13-06-13 LEBL 132100Z 09004KT 040V120 9999 FEW030 22/20 Q1019 NOSIG
13-06-13 LEBL 132130Z 06008KT 9999 FEW030 22/17 Q1019 NOSIG
13-06-13 LEBL 132200Z 06008KT 9999 FEW030 22/17 Q1019 NOSIG
13-06-13 LEBL 132230Z 06005KT 020V080 9999 FEW030 21/18 Q1020 NOSIG
13-06-13 LEBL 132300Z 06005KT 040V100 9999 FEW030 21/17 Q1020 NOSIG
13-06-13 LEBL 132330Z 07007KT 9999 FEW030 21/17 Q1020 NOSIG
13-06-14 LEBL 140000Z 07006KT 040V100 9999 FEW030 21/17 Q1020 NOSIG
13-06-14 LEBL 140030Z 07003KT 030V090 9999 FEW025 21/17 Q1020 NOSIG
13-06-14 LEBL 140100Z 03003KT 9999 FEW025 21/17 Q1020 NOSIG
13-06-14 LEBL 140130Z 09002KT 9999 FEW025 21/17 Q1019 NOSIG
13-06-14 LEBL 140200Z 12002KT 9999 FEW025 21/17 Q1019 NOSIG
13-06-14 LEBL 140230Z VRB01KT 9999 FEW025 21/17 Q1019 NOSIG
13-06-14 LEBL 140300Z 30002KT 9999 FEW025 21/17 Q1019 NOSIG
13-06-14 LEBL 140330Z 17001KT 9999 FEW025 21/17 Q1018 NOSIG
13-06-14 LEBL 140400Z 27003KT 220V310 9999 FEW025 20/17 Q1018 NOSIG
13-06-14 LEBL 140430Z 28004KT 9999 FEW025 20/18 Q1018 NOSIG
13-06-14 LEBL 140500Z 26005KT 9999 FEW025 20/17 Q1018 NOSIG
13-06-14 LEBL 140530Z 25006KT 9999 FEW020 20/18 Q1018 NOSIG
13-06-14 LEBL 140600Z 27005KT 220V320 9999 FEW020 21/18 Q1018 NOSIG
13-06-14 LEBL 140630Z 27004KT 9999 FEW020 22/18 Q1018 NOSIG
13-06-14 LEBL 140700Z 24005KT 200V280 9999 FEW020 22/18 Q1018 NOSIG
13-06-14 LEBL 140730Z 25006KT 210V320 9999 FEW020 23/17 Q1019 NOSIG
13-06-14 LEBL 140800Z 23006KT 200V270 9999 FEW020 24/16 Q1019 NOSIG
13-06-14 LEBL 140830Z 21009KT 170V240 9999 FEW020 24/16 Q1018 NOSIG
13-06-14 LEBL 140900Z 21011KT 9999 FEW020 24/17 Q1018 NOSIG
13-06-14 LEBL 140930Z 21010KT 9999 FEW020 24/16 Q1019 NOSIG
13-06-14 LEBL 141000Z 20011KT 9999 FEW020 24/16 Q1019 NOSIG
13-06-14 LEBL 141030Z 21009KT 180V240 9999 FEW020 24/15 Q1018 NOSIG
13-06-14 LEBL 141100Z 21008KT 180V240 9999 FEW020 25/15 Q1018 NOSIG
13-06-14 LEBL 141130Z 20008KT 160V240 9999 FEW020 25/14 Q1018 NOSIG
13-06-14 LEBL 141200Z 20009KT 170V240 9999 FEW020 24/16 Q1018 NOSIG
13-06-14 LEBL 141230Z 20010KT 130V230 9999 FEW020 24/16 Q1017 NOSIG
13-06-14 LEBL 141300Z 20012KT 9999 FEW020 24/17 Q1017 NOSIG
13-06-14 LEBL 141330Z 20012KT 9999 FEW020 24/17 Q1017 NOSIG
13-06-14 LEBL 141400Z 20012KT 9999 FEW020 24/18 Q1017 NOSIG
13-06-14 LEBL 141430Z 19012KT 9999 FEW020 24/18 Q1016 NOSIG
13-06-14 LEBL 141500Z 19012KT 9999 FEW020 24/18 Q1016 NOSIG
13-06-14 LEBL 141530Z 20012KT 170V230 9999 FEW020 24/18 Q1016 NOSIG
13-06-14 LEBL 141600Z 21011KT 9999 FEW020 24/18 Q1016 NOSIG
13-06-14 LEBL 141630Z 21012KT 9999 FEW020 24/19 Q1016 NOSIG
13-06-14 LEBL 141700Z 21011KT 9999 FEW020 24/19 Q1016 NOSIG
13-06-14 LEBL 141730Z 21011KT 9999 FEW020 23/19 Q1015 NOSIG
13-06-14 LEBL 141800Z 21011KT CAVOK 23/19 Q1015 NOSIG
13-06-14 LEBL 141830Z 21009KT CAVOK 23/20 Q1015 NOSIG
13-06-14 LEBL 141900Z 21009KT CAVOK 22/20 Q1015 NOSIG
13-06-14 LEBL 141930Z 21007KT CAVOK 22/20 Q1016 NOSIG
13-06-14 LEBL 142000Z 21009KT CAVOK 22/20 Q1016 NOSIG
13-06-14 LEBL 142030Z 22009KT CAVOK 21/20 Q1016 NOSIG
13-06-14 LEBL 142100Z 22008KT CAVOK 22/20 Q1016 NOSIG
13-06-14 LEBL 142130Z 22009KT CAVOK 21/19 Q1016 NOSIG
13-06-14 LEBL 142200Z 22007KT CAVOK 21/19 Q1016 NOSIG
13-06-14 LEBL 142230Z 23006KT CAVOK 21/19 Q1017 NOSIG
13-06-14 LEBL 142300Z 24007KT CAVOK 21/19 Q1016 NOSIG
13-06-14 LEBL 142330Z 23004KT CAVOK 21/20 Q1017 NOSIG
13-06-15 LEBL 150000Z 27003KT 240V310 8000 FEW005 21/20 Q1017 NOSIG
13-06-15 LEBL 150030Z 18001KT 8000 FEW004 21/20 Q1017 NOSIG
13-06-15 LEBL 150100Z 20003KT 9000 FEW004 21/20 Q1017 NOSIG
13-06-15 LEBL 150130Z VRB02KT 9999 FEW010 21/19 Q1017 NOSIG
13-06-15 LEBL 150200Z 00000KT 9999 SCT010 20/15 Q1016 NOSIG
13-06-15 LEBL 150230Z 00000KT 9999 FEW010 20/14 Q1016 NOSIG
13-06-15 LEBL 150300Z 33002KT 9999 FEW010 20/14 Q1016 NOSIG
13-06-15 LEBL 150330Z 33004KT 9999 FEW020 20/14 Q1016 NOSIG
13-06-15 LEBL 150400Z VRB02KT 9999 FEW020 20/14 Q1016 NOSIG
13-06-15 LEBL 150430Z VRB01KT 9999 FEW020 20/14 Q1016 NOSIG
13-06-15 LEBL 150500Z 35002KT 9999 FEW020 20/14 Q1017 NOSIG
13-06-15 LEBL 150530Z 01003KT 9999 FEW020 20/14 Q1017 NOSIG
13-06-15 LEBL 150600Z 07004KT 020V100 9999 FEW020 22/16 Q1017 NOSIG
13-06-15 LEBL 150630Z 03004KT 330V080 9999 FEW020 22/16 Q1017 NOSIG
13-06-15 LEBL 150700Z 05004KT 360V080 9999 FEW020 22/16 Q1017 NOSIG
13-06-15 LEBL 150730Z 03005KT 300V070 9999 FEW020 24/16 Q1017 NOSIG
13-06-15 LEBL 150800Z 05003KT 340V110 9999 FEW020 25/16 Q1017 NOSIG
13-06-15 LEBL 150830Z 09005KT 050V130 9999 FEW022 25/13 Q1017 NOSIG
13-06-15 LEBL 150900Z 14005KT 080V170 9999 FEW022 25/15 Q1017 NOSIG
13-06-15 LEBL 150930Z 14005KT 090V200 9999 FEW022 25/16 Q1017 NOSIG
13-06-15 LEBL 151000Z 18006KT 130V220 9999 FEW022 25/16 Q1017 NOSIG
13-06-15 LEBL 151030Z 18006KT 140V220 9999 FEW025 24/18 Q1017 NOSIG
13-06-15 LEBL 151100Z 18007KT 130V240 9999 FEW025 25/18 Q1017 NOSIG
13-06-15 LEBL 151130Z 20008KT 170V240 9999 FEW025 25/17 Q1017 NOSIG
13-06-15 LEBL 151200Z 20008KT 160V240 9999 FEW025 26/16 Q1017 NOSIG
13-06-15 LEBL 151230Z 21009KT 9999 FEW025 26/17 Q1017 NOSIG
13-06-15 LEBL 151300Z 21010KT 9999 FEW025 26/17 Q1017 NOSIG
13-06-15 LEBL 151330Z 20009KT 170V230 9999 FEW030 26/17 Q1017 NOSIG
13-06-15 LEBL 151400Z 20008KT 170V240 9999 FEW030 26/17 Q1017 NOSIG
13-06-15 LEBL 151430Z 20008KT 9999 FEW030 26/16 Q1017 NOSIG
13-06-15 LEBL 151500Z 20008KT 150V230 9999 FEW030 27/15 Q1017 NOSIG
13-06-15 LEBL 151530Z 20009KT CAVOK 26/14 Q1016 NOSIG
13-06-15 LEBL 151600Z 19008KT CAVOK 27/14 Q1016 NOSIG
13-06-15 LEBL NIL
13-06-15 LEBL 151630Z 17006KT CAVOK 26/13 Q1016 NOSIG
13-06-15 LEBL 151700Z 16007KT 130V200 CAVOK 26/15 Q1016 NOSIG
13-06-15 LEBL 151730Z 16005KT 130V210 CAVOK 25/16 Q1016 NOSIG
13-06-15 LEBL 151800Z 15004KT 120V190 CAVOK 25/17 Q1016 NOSIG
13-06-15 LEBL 151830Z 15004KT 130V190 CAVOK 24/17 Q1016 NOSIG
13-06-15 LEBL 151900Z 13003KT CAVOK 24/17 Q1016 NOSIG
13-06-15 LEBL 151930Z 00000KT CAVOK 24/18 Q1016 NOSIG
13-06-15 LEBL 152000Z VRB02KT CAVOK 23/19 Q1016 NOSIG
13-06-15 LEBL 152030Z 04002KT CAVOK 23/19 Q1017 NOSIG
13-06-15 LEBL 152100Z 07005KT CAVOK 23/20 Q1017 NOSIG
13-06-15 LEBL 152130Z 06005KT 9999 FEW020 22/20 Q1017 NOSIG
13-06-15 LEBL 152200Z 05004KT 9999 FEW020 22/19 Q1017 NOSIG
13-06-15 LEBL 152230Z 05004KT 9999 FEW020 22/20 Q1017 NOSIG
13-06-15 LEBL 152300Z 04002KT 9999 FEW020 22/17 Q1017 NOSIG
13-06-15 LEBL 152330Z VRB01KT 9999 FEW020 22/15 Q1017 NOSIG
13-06-16 LEBL 160000Z 07003KT 9999 FEW020 22/15 Q1017 NOSIG
13-06-16 LEBL 160030Z 33003KT 310V010 9999 FEW020 22/14 Q1017 NOSIG
13-06-16 LEBL 160100Z 33004KT 9999 FEW020 21/14 Q1017 NOSIG
13-06-16 LEBL 160130Z 33005KT 9999 FEW020 21/14 Q1016 NOSIG
13-06-16 LEBL 160200Z 35006KT 9999 FEW020 21/14 Q1016 NOSIG
13-06-16 LEBL 160230Z VRB01KT 9999 FEW020 21/14 Q1016 NOSIG
13-06-16 LEBL 160300Z VRB02KT 9999 FEW020 20/14 Q1016 NOSIG
13-06-16 LEBL 160330Z 33004KT 9999 FEW020 20/13 Q1016 NOSIG
13-06-16 LEBL 160400Z 33005KT 9999 FEW020 20/13 Q1016 NOSIG
13-06-16 LEBL 160430Z 34005KT 9999 FEW020 20/13 Q1016 NOSIG
13-06-16 LEBL 160500Z 33006KT 9999 FEW020 20/13 Q1016 NOSIG
13-06-16 LEBL 160530Z 34005KT 9999 FEW020 20/13 Q1016 NOSIG
13-06-16 LEBL 160600Z 34005KT 300V010 9999 FEW020 21/13 Q1016 NOSIG
13-06-16 LEBL 160630Z 35004KT 270V030 9999 FEW020 22/13 Q1016 NOSIG
13-06-16 LEBL 160700Z 02003KT 280V050 9999 FEW020 22/13 Q1016 NOSIG
13-06-16 LEBL 160730Z 04004KT 330V080 9999 FEW020 24/13 Q1016 NOSIG
13-06-16 LEBL 160800Z 33006KT 260V030 9999 FEW020 24/12 Q1016 NOSIG
13-06-16 LEBL 160830Z VRB04KT 9999 FEW020 26/13 Q1016 NOSIG
13-06-16 LEBL 160900Z 05006KT 9999 FEW020 27/08 Q1016 NOSIG
13-06-16 LEBL 160930Z 07006KT 030V110 9999 FEW020 28/10 Q1016 NOSIG
13-06-16 LEBL 161000Z 09006KT 060V120 9999 FEW020 28/11 Q1015 NOSIG
13-06-16 LEBL 161030Z 09008KT 9999 FEW020 27/11 Q1016 NOSIG
13-06-16 LEBL 161100Z 11008KT 080V150 9999 FEW020 27/15 Q1016 NOSIG
13-06-16 LEBL 161130Z 12007KT 090V160 9999 FEW020 26/16 Q1016 NOSIG
13-06-16 LEBL 161200Z 12006KT 9999 FEW030 27/17 Q1016 NOSIG
13-06-16 LEBL 161230Z 12006KT 9999 FEW030 27/16 Q1015 NOSIG
13-06-16 LEBL 161300Z 09006KT 040V130 9999 FEW030 27/15 Q1015 NOSIG
13-06-16 LEBL 161330Z 10006KT 060V150 9999 FEW030 28/16 Q1015 NOSIG
13-06-16 LEBL 161400Z 09007KT 060V130 9999 FEW030 28/13 Q1015 NOSIG
13-06-16 LEBL 161430Z 10007KT 060V130 9999 FEW030 28/13 Q1014 NOSIG
13-06-16 LEBL 161500Z 09007KT 060V120 9999 FEW030 28/13 Q1014 NOSIG
13-06-16 LEBL 161530Z 08008KT 040V120 9999 FEW030 28/14 Q1014 NOSIG
13-06-16 LEBL 161600Z 08007KT 040V120 9999 FEW030 27/13 Q1013 NOSIG
13-06-16 LEBL 161630Z 07010KT 040V100 9999 FEW030 27/14 Q1013 NOSIG
13-06-16 LEBL 161700Z 07009KT 040V100 9999 FEW030 26/15 Q1013 NOSIG
13-06-16 LEBL 161730Z 06010KT 030V100 CAVOK 26/16 Q1013 NOSIG
13-06-16 LEBL 161800Z 07010KT CAVOK 25/17 Q1013 NOSIG
13-06-16 LEBL 161830Z 06010KT CAVOK 25/17 Q1013 NOSIG
13-06-16 LEBL 161900Z 06008KT CAVOK 25/16 Q1013 NOSIG
13-06-16 LEBL 161930Z 06008KT CAVOK 24/16 Q1013 NOSIG
13-06-16 LEBL 162000Z 05008KT CAVOK 24/16 Q1013 NOSIG
13-06-16 LEBL 162030Z 06007KT CAVOK 24/16 Q1013 NOSIG
13-06-16 LEBL NIL
13-06-16 LEBL 162100Z 05007KT CAVOK 24/16 Q1013 NOSIG
13-06-16 LEBL 162130Z 05007KT CAVOK 24/17 Q1013 NOSIG
13-06-16 LEBL 162200Z 07008KT CAVOK 24/17 Q1013 NOSIG
13-06-16 LEBL 162230Z 05007KT CAVOK 24/17 Q1013 NOSIG
13-06-16 LEBL 162300Z 04007KT CAVOK 23/17 Q1013 NOSIG
13-06-16 LEBL 162330Z 04007KT CAVOK 23/16 Q1013 NOSIG
13-06-17 LEBL 170000Z 05007KT CAVOK 23/17 Q1013 NOSIG
13-06-17 LEBL 170030Z 04006KT CAVOK 23/18 Q1012 NOSIG
13-06-17 LEBL 170100Z 05006KT CAVOK 22/16 Q1012 NOSIG
13-06-17 LEBL 170130Z 05007KT CAVOK 22/18 Q1012 NOSIG
13-06-17 LEBL 170200Z 06007KT CAVOK 22/18 Q1012 NOSIG
13-06-17 LEBL 170230Z 06008KT CAVOK 22/19 Q1012 NOSIG
13-06-17 LEBL 170300Z 05008KT CAVOK 22/19 Q1011 NOSIG
13-06-17 LEBL 170330Z 06011KT CAVOK 22/19 Q1011 NOSIG
13-06-17 LEBL 170400Z 04011KT CAVOK 22/19 Q1011 NOSIG
13-06-17 LEBL 170430Z 04010KT CAVOK 22/18 Q1011 NOSIG
13-06-17 LEBL 170500Z 04011KT 9999 FEW030 22/18 Q1011 NOSIG
13-06-17 LEBL 170530Z 04012KT 9999 FEW030 22/18 Q1011 NOSIG
13-06-17 LEBL 170600Z 04011KT CAVOK 22/18 Q1010 NOSIG
13-06-17 LEBL 170630Z 05014KT CAVOK 23/19 Q1011 NOSIG
13-06-17 LEBL 170700Z 06016KT 9999 FEW025 23/19 Q1011 NOSIG
13-06-17 LEBL 170730Z 05014KT 9999 FEW025 23/19 Q1011 NOSIG
13-06-17 LEBL 170800Z 06015KT CAVOK 24/19 Q1011 NOSIG
13-06-17 LEBL 170830Z 06015KT CAVOK 24/18 Q1011 NOSIG
13-06-17 LEBL 170900Z 06015KT CAVOK 25/18 Q1011 NOSIG
13-06-17 LEBL 170930Z 05016KT CAVOK 26/18 Q1010 NOSIG
13-06-17 LEBL 171000Z 06015KT 9999 FEW040 25/18 Q1011 NOSIG
13-06-17 LEBL 171030Z 06019KT 9999 FEW040 26/18 Q1010 NOSIG
13-06-17 LEBL 171100Z 06018KT CAVOK 26/18 Q1010 NOSIG
13-06-17 LEBL 171130Z 07019KT CAVOK 26/19 Q1010 NOSIG
13-06-17 LEBL 171200Z 07017KT 9999 FEW020 26/19 Q1010 NOSIG
13-06-17 LEBL 171230Z 07017KT 9999 FEW020 26/19 Q1009 NOSIG
13-06-17 LEBL 171300Z 06017KT 9999 FEW020 27/18 Q1010 NOSIG
13-06-17 LEBL 171330Z 07018KT 9999 FEW020 27/18 Q1009 NOSIG
13-06-17 LEBL 171400Z 07017KT 040V100 CAVOK 27/19 Q1009 NOSIG
13-06-17 LEBL 171430Z 07016KT CAVOK 27/18 Q1009 NOSIG
13-06-17 LEBL 171500Z 06019KT 9999 FEW020 26/18 Q1009 NOSIG
13-06-17 LEBL 171530Z 07016KT 9999 FEW020 26/18 Q1009 NOSIG
13-06-17 LEBL 171600Z 06017KT 9999 FEW020 25/19 Q1009 NOSIG
13-06-17 LEBL 171630Z 06016KT 040V100 9999 FEW020 25/19 Q1009 NOSIG
13-06-17 LEBL 171700Z 06014KT 8000 FEW020 25/19 Q1009 NOSIG
13-06-17 LEBL 171730Z 07013KT 8000 FEW020 24/19 Q1009 NOSIG
13-06-17 LEBL 171800Z 06012KT 8000 FEW020 24/19 Q1008 NOSIG
13-06-17 LEBL 171830Z 07014KT 9000 FEW020 24/19 Q1008 NOSIG
13-06-17 LEBL 171900Z 06012G22KT 020V090 9000 FEW020 23/19 Q1008 NOSIG
13-06-17 LEBL 171930Z 06012KT 040V100 9000 FEW020 23/19 Q1008 NOSIG
13-06-17 LEBL 172000Z 07013KT 040V100 9000 FEW020 23/19 Q1008 NOSIG
13-06-17 LEBL 172030Z 06007KT 010V100 8000 FEW020 23/20 Q1010 NOSIG
13-06-17 LEBL 172100Z 06010KT 8000 FEW015 22/20 Q1010 NOSIG
13-06-17 LEBL 172130Z 06013KT 8000 FEW012 22/19 Q1009 NOSIG
13-06-17 LEBL 172200Z 06014KT 7000 SCT011 22/20 Q1009 NOSIG
13-06-17 LEBL 172230Z 05014KT 7000 SCT011 22/20 Q1010 NOSIG
13-06-17 LEBL 172300Z 04014KT 7000 SCT011 22/20 Q1009 NOSIG
13-06-17 LEBL 172330Z 06013KT 7000 SCT011 22/20 Q1008 NOSIG
13-06-18 LEBL 180000Z 05014KT 7000 SCT011 22/20 Q1009 NOSIG
13-06-18 LEBL 180030Z 04009KT 010V070 7000 BKN013 23/19 Q1010 NOSIG
13-06-18 LEBL 180100Z 03004KT 330V080 7000 BKN015 23/19 Q1011 NOSIG
13-06-18 LEBL 180130Z 05010KT 8000 BKN015 22/19 Q1010 NOSIG
13-06-18 LEBL 180200Z 05011KT 8000 SCT015 22/19 Q1009 NOSIG
13-06-18 LEBL 180230Z 04009KT 020V080 8000 SCT015 22/19 Q1009 NOSIG
13-06-18 LEBL 180300Z 04007KT 8000 SCT015 23/19 Q1009 NOSIG
13-06-18 LEBL 180330Z 08005KT 040V130 8000 SCT011 22/20 Q1009 NOSIG
13-06-18 LEBL 180400Z 10003KT 060V120 8000 SCT011 22/19 Q1009 NOSIG
13-06-18 LEBL 180430Z 06008KT 8000 SCT013 22/19 Q1008 NOSIG
13-06-18 LEBL 180500Z 06012KT 040V100 8000 SCT013 22/19 Q1009 NOSIG
13-06-18 LEBL 180530Z 06011KT 9000 FEW013 22/19 Q1010 NOSIG
13-06-18 LEBL 180600Z 07013KT 9000 FEW013 22/19 Q1010 NOSIG
13-06-18 LEBL 180630Z 06009KT 020V100 9000 FEW013 22/19 Q1010 NOSIG
13-06-18 LEBL 180700Z 07010KT 040V100 9000 FEW020 23/19 Q1009 NOSIG
13-06-18 LEBL 180730Z 07006KT 040V100 9000 FEW020 23/19 Q1009 NOSIG
13-06-18 LEBL 180800Z 08011KT 040V110 9000 FEW020 24/19 Q1010 NOSIG
13-06-18 LEBL 180830Z 07015KT 9999 FEW020 24/19 Q1010 NOSIG
13-06-18 LEBL 180900Z 07016KT 9999 FEW020 24/18 Q1009 NOSIG
13-06-18 LEBL 180930Z 05013KT 9999 FEW020 24/18 Q1009 NOSIG
13-06-18 LEBL 181000Z 06014KT 9999 FEW020 25/18 Q1010 NOSIG
13-06-18 LEBL 181030Z 06015KT 9999 FEW020 24/18 Q1010 NOSIG
13-06-18 LEBL 181100Z 06019KT 9999 FEW020 25/18 Q1009 NOSIG
13-06-18 LEBL 181130Z 06018KT 9999 FEW020 24/19 Q1009 NOSIG
13-06-18 LEBL 181200Z 07015KT 9999 FEW020 24/19 Q1009 NOSIG
13-06-18 LEBL 181230Z 07016KT 9999 FEW020 24/19 Q1009 NOSIG
13-06-18 LEBL 181300Z 07017KT 9999 FEW020 24/19 Q1009 NOSIG
13-06-18 LEBL 181330Z 07018KT 9999 FEW020 24/19 Q1008 NOSIG
13-06-18 LEBL 181400Z 07018KT 9999 FEW020 24/19 Q1008 NOSIG
13-06-18 LEBL 181430Z 07019KT 9999 FEW020 24/19 Q1008 NOSIG
13-06-18 LEBL 181500Z 07019KT 040V100 9000 SCT024 23/19 Q1008 NOSIG
13-06-18 LEBL 181530Z 07018KT 9000 BKN022 23/19 Q1008 NOSIG
13-06-18 LEBL 181600Z 07018KT 8000 FEW018 BKN023 23/19 Q1008 NOSIG
13-06-18 LEBL 181630Z 08015KT 8000 BKN014 SCT022 22/19 Q1008 NOSIG
13-06-18 LEBL 181700Z 08011KT 8000 BKN010 SCT022 22/19 Q1008 NOSIG
13-06-18 LEBL 181730Z 07013KT 8000 BKN010 SCT022 22/20 Q1008 NOSIG
13-06-18 LEBL 181800Z 07012KT 8000 BKN009 SCT017 22/20 Q1008 NOSIG
13-06-18 LEBL 181830Z 07012KT 8000 SCT010 BKN016 22/19 Q1009 NOSIG
13-06-18 LEBL 181900Z 08012KT 7000 SCT008 BKN010 22/20 Q1009 NOSIG
13-06-18 LEBL 181918Z 08011KT 3000 -RA BKN008 21/20 Q1009 NOSIG
13-06-18 LEBL 181930Z NIL
13-06-18 LEBL 181930Z 08010KT 2800 BR SCT005 BKN009 21/20 Q1009 NOSIG
13-06-18 LEBL 182000Z 08010KT 2800 BR SCT005 BKN009 21/20 Q1009 NOSIG
13-06-18 LEBL 182030Z 06008KT 4500 BR SCT005 BKN012 FEW020TCU 21/20 Q1010 NOSIG
13-06-18 LEBL 182100Z 07007KT 4500 BR -RA SCT005 BKN008 FEW020TCU 21/21 Q1010 NOSIG
13-06-18 LEBL 182130Z 07009KT 3500 BR -RA SCT006 BKN008 FEW020TCU 21/21 Q1010 NOSIG
13-06-18 LEBL 182200Z 07007KT 040V100 4000 BR -RA SCT005 BKN007 FEW020CB 21/20 Q1009 NOSIG
13-06-18 LEBL 182230Z 07006KT 040V100 3500 BR -RA SCT005 BKN007 FEW020CB 21/20 Q1010
13-06-18 LEBL 182300Z 08006KT 040V100 3500 BR SCT004 BKN006 FEW020CB 21/20 Q1010
13-06-18 LEBL 182330Z 07005KT 050V110 3000 BR SCT003 BKN005 FEW020CB 21/21 Q1009
13-06-19 LEBL 190000Z 09006KT 2800 BR SCT003 BKN006 FEW020CB 21/21 Q1009 NOSIG
13-06-19 LEBL 190030Z 08005KT 2600 BR FEW003 SCT006 BKN010 FEW020CB 21/20 Q1009 NOSIG
13-06-19 LEBL 190100Z 07004KT 040V100 2500 BR FEW003 SCT005 BKN009 21/21 Q1009
13-06-19 LEBL 190130Z 04004KT 2500 BR FEW003 SCT005 BKN008 21/20 Q1009 NOSIG
13-06-19 LEBL 190200Z 34007KT 3500 BR FEW003 SCT006 BKN011 21/20 Q1009 NOSIG
13-06-19 LEBL 190230Z 34008KT 310V010 9999 SCT010 19/16 Q1009 NOSIG
13-06-19 LEBL 190300Z 32009KT 9999 FEW015 19/15 Q1009 NOSIG
13-06-19 LEBL 190330Z 34009KT 9999 FEW015 19/14 Q1010 NOSIG
13-06-19 LEBL 190400Z 32008KT 9999 FEW018 19/13 Q1010 NOSIG
13-06-19 LEBL 190430Z 31010KT 9999 FEW018 19/13 Q1010 NOSIG
13-06-19 LEBL 190500Z 33010KT 9999 FEW018 18/13 Q1010 NOSIG
13-06-19 LEBL 190530Z 33010KT 310V010 9999 FEW025 18/13 Q1011 NOSIG
13-06-19 LEBL 190600Z 33012G24KT 300V030 9999 FEW025 19/13 Q1011 NOSIG
13-06-19 LEBL 190630Z 33014G24KT 9999 FEW025 20/13 Q1011 NOSIG
13-06-19 LEBL 190700Z 34014G25KT 9999 FEW025 20/13 Q1011 NOSIG
13-06-19 LEBL 190730Z 32012KT 290V360 9999 FEW025 21/13 Q1012 NOSIG
13-06-19 LEBL 190800Z 33013G23KT 270V350 9999 FEW025 22/13 Q1012 NOSIG
13-06-19 LEBL 190830Z 33010KT 300V010 9999 FEW025 23/14 Q1012 NOSIG
13-06-19 LEBL 190900Z 34008KT 290V030 9999 FEW025 SCT035 23/14 Q1012 NOSIG
13-06-19 LEBL 190930Z 31004KT 240V040 9999 FEW025 SCT035 23/15 Q1013 NOSIG
13-06-19 LEBL 191000Z 21010KT 9999 FEW025 BKN035 23/15 Q1013 NOSIG
13-06-19 LEBL 191030Z 21009KT 9999 FEW025 SCT035 23/15 Q1013 NOSIG
13-06-19 LEBL 191100Z 20008KT 170V230 9999 FEW030 24/16 Q1013 NOSIG
13-06-19 LEBL 191130Z 20010KT 9999 FEW030 23/14 Q1013 NOSIG
13-06-19 LEBL 191200Z 21013KT 9999 FEW030 24/14 Q1013 NOSIG
13-06-19 LEBL 191230Z 21013KT 9999 FEW030 25/13 Q1013 NOSIG
13-06-19 LEBL 191300Z 22014KT 9999 FEW030 25/12 Q1013 NOSIG
13-06-19 LEBL 191330Z 22014KT 9999 FEW030 25/11 Q1013 NOSIG
13-06-19 LEBL 191400Z 22017KT 9999 FEW030 25/10 Q1013 NOSIG
13-06-19 LEBL 191430Z 23017KT 9999 FEW030 25/10 Q1013 NOSIG
13-06-19 LEBL 191500Z 22018KT 9999 FEW030 25/12 Q1013 NOSIG
13-06-19 LEBL 191530Z 22018KT 9999 FEW030 24/10 Q1012 NOSIG
13-06-19 LEBL 191600Z 22018KT 9999 FEW030 24/12 Q1012 NOSIG
13-06-19 LEBL 191630Z 22020KT 9999 FEW030 24/12 Q1013 NOSIG
13-06-19 LEBL 191700Z 22018KT 9999 FEW030 23/12 Q1013 NOSIG
13-06-19 LEBL 191730Z 23018KT 9999 FEW030 23/13 Q1013 NOSIG
13-06-19 LEBL 191800Z 23015KT 9999 FEW030 23/13 Q1013 NOSIG
13-06-19 LEBL 191830Z 22013KT 9999 FEW030 22/14 Q1013 NOSIG
13-06-19 LEBL 191900Z 22016KT 9999 FEW030 21/15 Q1013 NOSIG
13-06-19 LEBL 191930Z 22015KT 9999 FEW030 21/16 Q1014 NOSIG
13-06-19 LEBL 192000Z 22011KT 9999 FEW030 21/16 Q1014 NOSIG
13-06-19 LEBL 192030Z 23011KT 9999 FEW030 21/14 Q1014 NOSIG
13-06-19 LEBL 192100Z 24008KT 9999 FEW030 21/14 Q1014 NOSIG
13-06-19 LEBL 192130Z 27003KT 210V290 9999 FEW030 21/13 Q1014 NOSIG
13-06-19 LEBL 192200Z 32005KT 9999 FEW030 22/11 Q1015 NOSIG
13-06-19 LEBL 192230Z 32004KT 290V350 9999 FEW025 21/11 Q1015 NOSIG
13-06-19 LEBL 192300Z 30006KT 9999 FEW025 21/11 Q1015 NOSIG
13-06-19 LEBL 192330Z 31011KT 9999 FEW025 21/11 Q1015 NOSIG
13-06-20 LEBL 200000Z 31013KT 9999 FEW025 21/11 Q1015 NOSIG
13-06-20 LEBL 200030Z 31012KT 9999 FEW025 20/11 Q1014 NOSIG
13-06-20 LEBL 200100Z 31013KT 9999 FEW025 20/11 Q1014 NOSIG
13-06-20 LEBL 200130Z 30007KT 9999 FEW025 20/10 Q1014 NOSIG
13-06-20 LEBL 200200Z 30008KT 9999 FEW025 20/11 Q1015 NOSIG
13-06-20 LEBL 200230Z 31011KT 9999 FEW025 19/11 Q1015 NOSIG
13-06-20 LEBL 200300Z 31009KT 9999 FEW030 19/11 Q1015 NOSIG
13-06-20 LEBL 200330Z 31005KT 290V350 9999 FEW030 19/11 Q1015 NOSIG
13-06-20 LEBL 200400Z 31006KT 9999 FEW030 19/12 Q1015 NOSIG
13-06-20 LEBL 200430Z 28004KT 9999 FEW030 19/11 Q1015 NOSIG
13-06-20 LEBL 200500Z 30005KT 9999 FEW030 19/11 Q1015 NOSIG
13-06-20 LEBL 200530Z 28006KT 9999 FEW030 19/11 Q1016 NOSIG
13-06-20 LEBL 200600Z 28005KT 260V340 9999 FEW030 20/10 Q1016 NOSIG
13-06-20 LEBL 200630Z 29006KT 240V330 9999 FEW030 20/10 Q1016 NOSIG
13-06-20 LEBL 200700Z 31006KT 9999 FEW030 20/10 Q1016 NOSIG
13-06-20 LEBL 200730Z 32005KT 270V020 9999 FEW030 20/11 Q1016 NOSIG
13-06-20 LEBL 200800Z 33005KT 280V010 9999 FEW030 21/10 Q1017 NOSIG
13-06-20 LEBL 200830Z 29010KT 9999 FEW030 21/10 Q1017 NOSIG
13-06-20 LEBL 200900Z 31005KT 250V360 9999 FEW030 22/10 Q1016 NOSIG
13-06-20 LEBL 200930Z 20007KT 9999 FEW030 23/11 Q1017 NOSIG
13-06-20 LEBL 201000Z 19008KT 150V220 9999 FEW030 22/13 Q1017 NOSIG
13-06-20 LEBL 201030Z 19009KT 160V220 9999 FEW030 23/12 Q1017 NOSIG
13-06-20 LEBL 201100Z 20010KT 9999 FEW030 22/12 Q1017 NOSIG
13-06-20 LEBL 201130Z 21013KT 9999 FEW030 23/13 Q1017 NOSIG
13-06-20 LEBL 201200Z 21014KT 9999 FEW030 24/12 Q1016 NOSIG
13-06-20 LEBL 201230Z 22018KT 9999 FEW030 24/14 Q1016 NOSIG
13-06-20 LEBL 201300Z 22018KT 9999 FEW020 24/12 Q1016 NOSIG
13-06-20 LEBL 201330Z 22018KT 9999 FEW020 24/13 Q1016 NOSIG
13-06-20 LEBL 201400Z 22020KT 9999 FEW020 24/13 Q1016 NOSIG
13-06-20 LEBL 201430Z 22018KT 9999 FEW020 24/14 Q1016 NOSIG
13-06-20 LEBL 201500Z 22018KT 9999 FEW020 24/14 Q1016 NOSIG
13-06-20 LEBL 201530Z 21017KT 9999 FEW020 24/14 Q1016 NOSIG
13-06-20 LEBL 201600Z 22015KT 9999 FEW020 25/14 Q1015 NOSIG
13-06-20 LEBL 201630Z 22016KT 9999 FEW020 24/14 Q1015 NOSIG
13-06-20 LEBL 201700Z 23017KT 9999 FEW020 25/13 Q1015 NOSIG
13-06-20 LEBL 201730Z 21016KT 9999 FEW020 23/15 Q1016 NOSIG
13-06-20 LEBL 201800Z 22018KT 9999 FEW020 22/15 Q1016 NOSIG
13-06-20 LEBL 201830Z 22012KT 9999 FEW020 22/16 Q1016 NOSIG
13-06-20 LEBL 201900Z 22014KT 9999 FEW020 22/16 Q1016 NOSIG
13-06-20 LEBL 201930Z 22013KT 9999 FEW020 21/17 Q1016 NOSIG
13-06-20 LEBL 202000Z 22013KT CAVOK 21/16 Q1017 NOSIG
13-06-20 LEBL 202030Z 23015KT CAVOK 21/16 Q1017 NOSIG
13-06-20 LEBL 202100Z 23013KT CAVOK 21/17 Q1018 NOSIG
13-06-20 LEBL 202130Z 22011KT CAVOK 21/17 Q1018 NOSIG
13-06-20 LEBL 202200Z 25009KT CAVOK 21/16 Q1018 NOSIG
13-06-20 LEBL 202230Z 26004KT 230V290 CAVOK 21/15 Q1018 NOSIG
13-06-20 LEBL 202300Z 22003KT CAVOK 21/15 Q1018 NOSIG
13-06-20 LEBL 202330Z 07005KT 040V100 CAVOK 21/15 Q1018 NOSIG
13-06-21 LEBL 210000Z 07003KT 040V100 CAVOK 20/16 Q1018 NOSIG
13-06-21 LEBL 210030Z VRB02KT CAVOK 20/16 Q1018 NOSIG
13-06-21 LEBL 210100Z 00000KT CAVOK 20/16 Q1018 NOSIG
13-06-21 LEBL 210130Z 33004KT 300V360 CAVOK 19/14 Q1018 NOSIG
13-06-21 LEBL 210200Z 34005KT CAVOK 19/14 Q1018 NOSIG
13-06-21 LEBL 210230Z 34005KT CAVOK 18/14 Q1017 NOSIG
13-06-21 LEBL 210300Z 36003KT CAVOK 18/14 Q1017 NOSIG
13-06-21 LEBL 210330Z 33005KT 310V010 CAVOK 18/14 Q1017 NOSIG
13-06-21 LEBL 210400Z 34004KT CAVOK 18/14 Q1017 NOSIG
13-06-21 LEBL 210430Z 33004KT 300V360 CAVOK 18/14 Q1017 NOSIG
13-06-21 LEBL 210500Z 32004KT CAVOK 18/14 Q1018 NOSIG
13-06-21 LEBL 210530Z 33006KT CAVOK 19/14 Q1018 NOSIG
13-06-21 LEBL 210600Z 33004KT 300V010 9999 FEW030 19/14 Q1018 NOSIG
13-06-21 LEBL 210630Z 34004KT 9999 FEW030 20/14 Q1018 NOSIG
13-06-21 LEBL 210700Z 07007KT 040V110 9999 FEW030 21/16 Q1018 NOSIG
13-06-21 LEBL 210730Z 07008KT 040V100 9999 FEW030 21/16 Q1018 NOSIG
13-06-21 LEBL 210800Z 06008KT 9999 FEW030 22/16 Q1018 NOSIG
13-06-21 LEBL 210830Z 05009KT 020V080 9999 FEW030 22/16 Q1018 NOSIG
13-06-21 LEBL 210900Z 08009KT 9999 FEW025 23/16 Q1018 NOSIG
13-06-21 LEBL 210930Z 08008KT 040V110 9999 FEW025 23/16 Q1018 NOSIG
13-06-21 LEBL 211000Z 09006KT 050V130 9999 FEW025 24/17 Q1019 NOSIG
13-06-21 LEBL 211030Z 11006KT 070V150 9999 FEW025 23/17 Q1018 NOSIG
13-06-21 LEBL 211100Z 12008KT 9999 FEW025 24/17 Q1018 NOSIG
13-06-21 LEBL 211130Z 12006KT 070V160 9999 FEW025 24/16 Q1018 NOSIG
13-06-21 LEBL 211200Z 13007KT 100V160 9999 FEW025 23/17 Q1018 NOSIG
13-06-21 LEBL 211230Z 14007KT 100V170 9999 FEW025 23/18 Q1018 NOSIG
13-06-21 LEBL 211300Z 17006KT 120V230 9999 FEW025 23/17 Q1018 NOSIG
13-06-21 LEBL 211330Z 15006KT 110V200 9999 FEW025 23/17 Q1018 NOSIG
13-06-21 LEBL 211400Z 20007KT 150V260 9999 FEW025 23/18 Q1018 NOSIG
13-06-21 LEBL 211430Z 19009KT 150V220 9999 FEW025 24/18 Q1018 NOSIG
13-06-21 LEBL 211500Z 20008KT 170V230 9999 FEW025 24/19 Q1018 NOSIG
13-06-21 LEBL 211530Z 20008KT 180V240 9999 FEW025 24/18 Q1018 NOSIG
13-06-21 LEBL 211600Z 20010KT 9999 FEW025 24/18 Q1018 NOSIG
13-06-21 LEBL 211630Z NIL
13-06-21 LEBL 211700Z 21011KT 9999 FEW025TCU 23/18 Q1018 NOSIG
13-06-21 LEBL 211730Z 22012KT 9999 FEW025TCU 23/18 Q1018 NOSIG
13-06-21 LEBL 211800Z 22012KT 9999 FEW025TCU 23/18 Q1018 NOSIG
13-06-21 LEBL 211830Z 21012KT 9999 FEW025TCU 23/19 Q1018 NOSIG
13-06-21 LEBL 211900Z 22009KT 9999 FEW025TCU 22/19 Q1018 NOSIG
13-06-21 LEBL 211930Z 14004KT 100V210 9999 FEW020 22/19 Q1019 NOSIG
13-06-21 LEBL 212000Z 10009KT 9999 SCT010 22/20 Q1020 NOSIG
13-06-21 LEBL 212030Z 08009KT 9999 SCT014 22/19 Q1020 NOSIG
13-06-21 LEBL 212100Z 08008KT 040V110 9999 SCT020 22/18 Q1021 NOSIG
13-06-21 LEBL 212130Z 06010KT 9999 SCT012 21/19 Q1021 NOSIG